{"type":"FeatureCollection","features":[{"type":"Feature","properties":{"id":"AIA-5114","name":"Blowing Point","nameBn":"ব্লোয়িং পয়েন্ট","type":"District","bounds":[-63.1139,18.1762,-63.0613,18.2125],"center":[-63.0943,18.1889]},"geometry":{"type":"Polygon","coordinates":[[[-63.0614,18.1989],[-63.0995,18.1762],[-63.1024,18.1804],[-63.1091,18.185],[-63.1138,18.1898],[-63.1139,18.1969],[-63.1027,18.1969],[-63.1019,18.2012],[-63.0876,18.2016],[-63.0812,18.2068],[-63.0726,18.2121],[-63.0721,18.2028],[-63.0655,18.2058],[-63.0613,18.2125],[-63.0614,18.1989]]]}},{"type":"Feature","properties":{"id":"AIA-5115","name":"East End","nameBn":"ইস্ট এন্ড","type":"District","bounds":[-63.0135,18.2345,-62.9257,18.2973],"center":[-62.9852,18.2622]},"geometry":{"type":"MultiPolygon","coordinates":[[[[-63.0135,18.272],[-63.0074,18.273],[-63.0075,18.2673],[-63.0,18.2673],[-62.9945,18.2749],[-62.984,18.2764],[-62.9726,18.2759],[-62.9729,18.2693],[-62.9929,18.2369],[-62.9948,18.2345],[-62.9944,18.2438],[-63.002,18.2438],[-62.9964,18.2522],[-62.9952,18.2562],[-63.0032,18.261],[-63.0135,18.261],[-63.0135,18.272]]],[[[-62.9582,18.2894],[-62.9507,18.2921],[-62.9477,18.2973],[-62.9338,18.2945],[-62.9257,18.2897],[-62.932,18.2873],[-62.945,18.2837],[-62.9474,18.2804],[-62.9567,18.2744],[-62.96,18.2777],[-62.9561,18.2825],[-62.9582,18.2894]]]]}},{"type":"Feature","properties":{"id":"AIA-5116","name":"George Hill","nameBn":"জর্জ হিল","type":"District","bounds":[-63.0726,18.2028,-63.0613,18.2192],"center":[-63.066,18.2089]},"geometry":{"type":"Polygon","coordinates":[[[-63.0726,18.2121],[-63.0613,18.2192],[-63.0613,18.2125],[-63.0655,18.2058],[-63.0721,18.2028],[-63.0726,18.2121]]]}},{"type":"Feature","properties":{"id":"AIA-5117","name":"Island Harbour","nameBn":"আইল্যান্ড হার্বার","type":"District","bounds":[-63.0075,18.2673,-62.9945,18.2749],"center":[-63.0028,18.2705]},"geometry":{"type":"Polygon","coordinates":[[[-63.0074,18.273],[-62.9945,18.2749],[-63.0,18.2673],[-63.0075,18.2673],[-63.0074,18.273]]]}},{"type":"Feature","properties":{"id":"AIA-5118","name":"North Hill","nameBn":"নর্থ হিল","type":"District","bounds":[-63.0779,18.2163,-63.047,18.2313],"center":[-63.074,18.2243]},"geometry":{"type":"Polygon","coordinates":[[[-63.0779,18.226],[-63.0727,18.2313],[-63.047,18.2267],[-63.0613,18.2192],[-63.0693,18.2196],[-63.0758,18.2163],[-63.0755,18.2205],[-63.0779,18.226]]]}},{"type":"Feature","properties":{"id":"AIA-5119","name":"North Side","nameBn":"নর্থ সাইড","type":"District","bounds":[-63.0612,18.2354,-63.0223,18.2704],"center":[-63.033,18.2606]},"geometry":{"type":"Polygon","coordinates":[[[-63.0612,18.2458],[-63.0551,18.2543],[-63.0382,18.2677],[-63.0229,18.2704],[-63.0223,18.2626],[-63.0259,18.253],[-63.039,18.2526],[-63.0481,18.2354],[-63.0612,18.2458]]]}},{"type":"Feature","properties":{"id":"AIA-5120","name":"Sandy Ground","nameBn":"স্যান্ডি গ্রাউন্ড","type":"District","bounds":[-63.0972,18.2125,-63.0755,18.226],"center":[-63.0814,18.2192]},"geometry":{"type":"Polygon","coordinates":[[[-63.0972,18.2125],[-63.0858,18.2177],[-63.0779,18.226],[-63.0755,18.2205],[-63.0758,18.2163],[-63.0788,18.2148],[-63.0972,18.2125]]]}},{"type":"Feature","properties":{"id":"AIA-5121","name":"Sandy Hill","nameBn":"স্যান্ডি হিল","type":"District","bounds":[-63.0342,18.215,-62.9944,18.2562],"center":[-63.0151,18.2301]},"geometry":{"type":"Polygon","coordinates":[[[-62.9948,18.2345],[-63.0006,18.2274],[-63.0115,18.2204],[-63.0304,18.215],[-63.0314,18.2247],[-63.0342,18.2279],[-63.0293,18.2352],[-63.0231,18.251],[-63.0111,18.2502],[-62.9952,18.2562],[-62.9964,18.2522],[-63.002,18.2438],[-62.9944,18.2438],[-62.9948,18.2345]]]}},{"type":"Feature","properties":{"id":"AIA-5122","name":"South Hill","nameBn":"সাউথ হিল","type":"District","bounds":[-63.1228,18.1836,-63.0613,18.2196],"center":[-63.0881,18.2083]},"geometry":{"type":"Polygon","coordinates":[[[-63.1228,18.2081],[-63.0972,18.2125],[-63.0788,18.2148],[-63.0758,18.2163],[-63.0693,18.2196],[-63.0613,18.2192],[-63.0726,18.2121],[-63.0812,18.2068],[-63.0876,18.2016],[-63.1019,18.2012],[-63.1027,18.1969],[-63.1139,18.1969],[-63.1138,18.1898],[-63.1226,18.1836],[-63.1228,18.2081]]]}},{"type":"Feature","properties":{"id":"AIA-5123","name":"Stoney Ground","nameBn":"স্টনি গ্রাউন্ড","type":"District","bounds":[-63.0481,18.2323,-62.9952,18.272],"center":[-63.0368,18.2387]},"geometry":{"type":"Polygon","coordinates":[[[-63.0229,18.2704],[-63.0135,18.272],[-63.0135,18.261],[-63.0032,18.261],[-62.9952,18.2562],[-63.0111,18.2502],[-63.0231,18.251],[-63.0293,18.2352],[-63.0428,18.2349],[-63.0441,18.2323],[-63.0481,18.2354],[-63.039,18.2526],[-63.0259,18.253],[-63.0223,18.2626],[-63.0229,18.2704]]]}},{"type":"Feature","properties":{"id":"AIA-5124","name":"The Farrington","nameBn":"ফ্যারিংটন","type":"District","bounds":[-63.0614,18.1989,-63.0304,18.2279],"center":[-63.0439,18.2173]},"geometry":{"type":"Polygon","coordinates":[[[-63.0304,18.215],[-63.0377,18.213],[-63.0614,18.1989],[-63.0613,18.2125],[-63.0613,18.2192],[-63.047,18.2267],[-63.0342,18.2279],[-63.0314,18.2247],[-63.0304,18.215]]]}},{"type":"Feature","properties":{"id":"AIA-5125","name":"The Quarter","nameBn":"কোয়ার্টার","type":"District","bounds":[-63.047,18.2267,-63.0293,18.2352],"center":[-63.04,18.2299]},"geometry":{"type":"Polygon","coordinates":[[[-63.0342,18.2279],[-63.047,18.2267],[-63.0441,18.2323],[-63.0428,18.2349],[-63.0293,18.2352],[-63.0342,18.2279]]]}},{"type":"Feature","properties":{"id":"AIA-5126","name":"The Valley","nameBn":"দ্য ভ্যালি","type":"District","bounds":[-63.0727,18.2267,-63.0441,18.2458],"center":[-63.052,18.2321]},"geometry":{"type":"Polygon","coordinates":[[[-63.0727,18.2313],[-63.0678,18.2365],[-63.0612,18.2458],[-63.0481,18.2354],[-63.0441,18.2323],[-63.047,18.2267],[-63.0727,18.2313]]]}},{"type":"Feature","properties":{"id":"AIA-5127","name":"West End","nameBn":"পশ্চিম প্রান্ত","type":"District","bounds":[-63.1678,18.1691,-63.1226,18.2081],"center":[-63.1384,18.1865]},"geometry":{"type":"Polygon","coordinates":[[[-63.1226,18.1836],[-63.1368,18.1734],[-63.1505,18.1691],[-63.1678,18.1693],[-63.1421,18.1981],[-63.1343,18.2041],[-63.1228,18.2081],[-63.1226,18.1836]]]}}]}