{"type":"FeatureCollection","features":[{"type":"Feature","properties":{"id":"ALB-1523","name":"Berat","nameBn":"বেরাট কাউন্টি","type":"County","bounds":[19.7304,40.3553,20.4426,40.8817],"center":[20.0865,40.6441]},"geometry":{"type":"Polygon","coordinates":[[[20.0021,40.8817],[20.0106,40.8794],[20.0134,40.8782],[20.0166,40.8737],[20.0131,40.8668],[20.0126,40.864],[20.0128,40.8605],[20.0159,40.8513],[20.0165,40.8464],[20.0163,40.842],[20.0131,40.8328],[20.0131,40.8285],[20.0179,40.8252],[20.0317,40.8218],[20.0477,40.8205],[20.0596,40.817],[20.0686,40.8112],[20.093,40.7801],[20.1019,40.7733],[20.1129,40.7683],[20.1356,40.7638],[20.147,40.7591],[20.1543,40.7549],[20.145,40.7433],[20.1678,40.7355],[20.1766,40.7337],[20.1917,40.7336],[20.2003,40.7323],[20.2078,40.7284],[20.2118,40.7211],[20.214,40.7182],[20.2219,40.7157],[20.2542,40.7162],[20.2932,40.726],[20.3054,40.7148],[20.3105,40.7076],[20.3321,40.6689],[20.3407,40.6488],[20.3565,40.6288],[20.3589,40.6222],[20.365,40.6158],[20.3695,40.6052],[20.3771,40.5985],[20.3822,40.5958],[20.3878,40.5957],[20.3928,40.596],[20.3971,40.5956],[20.4018,40.5935],[20.4058,40.5925],[20.4171,40.5912],[20.4224,40.5896],[20.4289,40.5845],[20.4302,40.5823],[20.4297,40.5792],[20.4318,40.5761],[20.4318,40.5729],[20.4257,40.5593],[20.4205,40.5542],[20.4185,40.5516],[20.4162,40.5432],[20.4157,40.5394],[20.4165,40.5347],[20.4184,40.5314],[20.4281,40.5236],[20.4321,40.5166],[20.4337,40.5067],[20.4297,40.4668],[20.43,40.4601],[20.4426,40.4397],[20.399,40.4354],[20.3813,40.4362],[20.3723,40.4331],[20.371,40.4263],[20.3729,40.4174],[20.3734,40.4092],[20.3704,40.3992],[20.3619,40.3935],[20.3524,40.3904],[20.3235,40.3853],[20.3115,40.3797],[20.3066,40.3763],[20.3049,40.3735],[20.3045,40.3713],[20.3014,40.3668],[20.2978,40.3553],[20.291,40.3559],[20.2694,40.36],[20.2604,40.3642],[20.2486,40.3724],[20.1791,40.4412],[20.1765,40.4449],[20.1533,40.4691],[20.1484,40.4726],[20.1408,40.4738],[20.1251,40.4744],[20.1152,40.477],[20.1082,40.4813],[20.1013,40.4908],[20.0919,40.4984],[20.0723,40.5033],[20.071,40.4973],[20.0706,40.4946],[20.0694,40.4913],[20.068,40.4892],[20.0643,40.4888],[20.0592,40.4907],[20.0489,40.4958],[20.0416,40.4966],[20.0202,40.4935],[19.9805,40.5089],[19.9578,40.509],[19.9371,40.5119],[19.9049,40.5273],[19.8993,40.5451],[19.8958,40.5475],[19.8868,40.5521],[19.8729,40.5559],[19.8489,40.5686],[19.838,40.5796],[19.8233,40.6104],[19.8185,40.6167],[19.8133,40.6195],[19.8085,40.6202],[19.8076,40.621],[19.8095,40.6224],[19.8162,40.625],[19.8238,40.6296],[19.8322,40.6361],[19.834,40.6448],[19.8289,40.6526],[19.8016,40.6766],[19.7952,40.6976],[19.7902,40.701],[19.7819,40.7052],[19.7735,40.7074],[19.7606,40.7125],[19.7562,40.7166],[19.755,40.7215],[19.7541,40.7285],[19.7541,40.7326],[19.7547,40.7359],[19.7595,40.7455],[19.7608,40.7552],[19.757,40.7621],[19.7383,40.7812],[19.7333,40.7896],[19.7307,40.7971],[19.7304,40.8015],[19.7319,40.812],[19.7552,40.8121],[19.7602,40.8114],[19.7646,40.8125],[19.7649,40.8159],[19.7642,40.8196],[19.7645,40.823],[19.7679,40.8278],[19.7676,40.8299],[19.7668,40.8325],[19.7671,40.8354],[19.7716,40.842],[19.7743,40.8471],[19.7788,40.8495],[19.7862,40.8523],[19.8014,40.8564],[19.8124,40.8606],[19.8147,40.8602],[19.8174,40.8586],[19.8218,40.8533],[19.8267,40.8489],[19.837,40.8509],[19.8692,40.8502],[19.8717,40.8528],[19.8747,40.8572],[19.8734,40.8611],[19.8723,40.8634],[19.8672,40.8684],[19.8889,40.8743],[19.969,40.8671],[19.9935,40.8795],[20.0021,40.8817]]]}},{"type":"Feature","properties":{"id":"ALB-1526","name":"Dibër","nameBn":"দিবের","type":"County","bounds":[19.8039,41.3216,20.5509,41.8992],"center":[20.1772,41.608]},"geometry":{"type":"Polygon","coordinates":[[[20.539,41.4029],[20.5402,41.4007],[20.54,41.3871],[20.5329,41.3704],[20.5234,41.3568],[20.5104,41.3444],[20.496,41.3378],[20.4817,41.3412],[20.4781,41.3216],[20.4778,41.3219],[20.4555,41.3463],[20.45,41.3565],[20.4474,41.3697],[20.4471,41.3796],[20.4494,41.3883],[20.4401,41.3871],[20.426,41.3836],[20.4133,41.3856],[20.4012,41.3887],[20.3951,41.3882],[20.3912,41.3865],[20.3883,41.3842],[20.3846,41.3835],[20.3801,41.388],[20.3757,41.3887],[20.3703,41.3868],[20.3605,41.3773],[20.3541,41.3733],[20.3469,41.3713],[20.3388,41.3701],[20.3244,41.3704],[20.3133,41.3739],[20.3042,41.3748],[20.295,41.3743],[20.2868,41.3718],[20.2795,41.3684],[20.2646,41.3594],[20.2615,41.3563],[20.2578,41.3543],[20.2542,41.353],[20.2478,41.3518],[20.2443,41.3507],[20.2416,41.3495],[20.2357,41.3444],[20.16,41.3645],[20.1463,41.3723],[20.1084,41.4031],[20.0803,41.403],[20.0748,41.3971],[20.0641,41.3893],[20.0573,41.3884],[20.0511,41.391],[20.0424,41.4017],[20.0352,41.4077],[20.0183,41.4154],[20.0001,41.4271],[19.9968,41.4313],[19.9951,41.4351],[19.994,41.4386],[19.9883,41.4447],[19.9867,41.4476],[19.9856,41.4518],[19.9831,41.4585],[19.9622,41.4821],[19.9428,41.4982],[19.931,41.5057],[19.9226,41.5095],[19.9111,41.5098],[19.8717,41.5333],[19.8362,41.5667],[19.8281,41.5919],[19.8289,41.5991],[19.8256,41.6067],[19.8208,41.6123],[19.8059,41.6249],[19.8039,41.6291],[19.8053,41.6327],[19.8082,41.6353],[19.8121,41.6478],[19.8093,41.6902],[19.8135,41.7069],[19.8169,41.7062],[19.825,41.7031],[19.8365,41.697],[19.8584,41.6929],[19.8726,41.6944],[19.8905,41.6986],[19.9062,41.7047],[19.9093,41.7032],[19.9153,41.6944],[19.9193,41.6914],[19.9262,41.6879],[19.9465,41.6831],[19.9529,41.6847],[19.9563,41.6888],[19.9566,41.6925],[19.9575,41.6952],[19.9608,41.6974],[19.973,41.7042],[19.9795,41.7053],[19.99,41.7052],[20.0247,41.7005],[20.0337,41.7025],[20.0403,41.7068],[20.0441,41.712],[20.0482,41.7241],[20.0523,41.7284],[20.0598,41.7324],[20.1557,41.7617],[20.1636,41.7707],[20.1642,41.7767],[20.1636,41.7906],[20.159,41.7976],[20.116,41.8254],[20.1144,41.8288],[20.1167,41.8313],[20.1232,41.8328],[20.1335,41.8335],[20.1459,41.8354],[20.1582,41.8394],[20.167,41.8481],[20.1797,41.8581],[20.1907,41.864],[20.2075,41.8849],[20.2072,41.8992],[20.2145,41.8922],[20.215,41.8894],[20.215,41.8857],[20.2144,41.8822],[20.2151,41.8773],[20.2181,41.8722],[20.2257,41.8673],[20.2365,41.8663],[20.2547,41.8694],[20.2653,41.8744],[20.2735,41.8809],[20.2792,41.8876],[20.2856,41.8933],[20.3001,41.898],[20.3202,41.8966],[20.3187,41.8934],[20.3247,41.8743],[20.3527,41.8427],[20.3591,41.8282],[20.3577,41.8207],[20.3822,41.8233],[20.3962,41.8271],[20.4064,41.8318],[20.4105,41.8363],[20.4077,41.8394],[20.4047,41.8422],[20.4046,41.8454],[20.4156,41.8471],[20.4362,41.8476],[20.4982,41.839],[20.5146,41.8414],[20.5318,41.8455],[20.5404,41.8449],[20.5408,41.8449],[20.5405,41.8394],[20.5484,41.8142],[20.5501,41.8001],[20.5509,41.7935],[20.5444,41.7848],[20.5212,41.7677],[20.5113,41.7579],[20.5033,41.7446],[20.5004,41.7341],[20.5083,41.6617],[20.5134,41.6404],[20.5346,41.594],[20.5347,41.5873],[20.5347,41.5853],[20.5293,41.5749],[20.5208,41.5684],[20.5074,41.5623],[20.4929,41.5577],[20.4442,41.5497],[20.4479,41.5354],[20.445,41.5085],[20.452,41.4936],[20.4632,41.4898],[20.4708,41.4838],[20.4816,41.4683],[20.4835,41.4655],[20.4868,41.4578],[20.4889,41.4415],[20.4909,41.436],[20.498,41.4315],[20.5146,41.4295],[20.5222,41.4257],[20.5341,41.413],[20.539,41.4029]]]}},{"type":"Feature","properties":{"id":"ALB-1494","name":"Durrës","nameBn":"দুরস কাউন্টি","type":"County","bounds":[19.3932,41.244,19.9111,41.59],"center":[19.6522,41.5152]},"geometry":{"type":"Polygon","coordinates":[[[19.516,41.2605],[19.5134,41.2767],[19.5029,41.2941],[19.488,41.3065],[19.4719,41.3111],[19.45,41.3111],[19.4317,41.3137],[19.419,41.3226],[19.4142,41.3415],[19.4142,41.3828],[19.4108,41.3917],[19.396,41.402],[19.3932,41.4135],[19.4064,41.4004],[19.4287,41.4013],[19.4452,41.4152],[19.4409,41.4409],[19.4646,41.4509],[19.4893,41.4661],[19.5086,41.4869],[19.5166,41.5134],[19.5142,41.53],[19.5072,41.5363],[19.4963,41.5388],[19.4824,41.5438],[19.468,41.5543],[19.452,41.5748],[19.4409,41.5854],[19.5281,41.5766],[19.5564,41.5831],[19.5594,41.5813],[19.591,41.5683],[19.5946,41.5743],[19.5966,41.5757],[19.6,41.5769],[19.6152,41.5783],[19.6375,41.5852],[19.6433,41.5849],[19.6602,41.5769],[19.6646,41.574],[19.6731,41.5657],[19.6785,41.5618],[19.6858,41.5581],[19.6984,41.557],[19.7141,41.5584],[19.7452,41.5659],[19.7576,41.5728],[19.7642,41.5791],[19.7656,41.5831],[19.7679,41.5867],[19.7738,41.59],[19.7788,41.5898],[19.7842,41.5871],[19.7932,41.5788],[19.8025,41.5722],[19.8099,41.5681],[19.8362,41.5667],[19.8717,41.5333],[19.9111,41.5098],[19.9099,41.4991],[19.9088,41.4935],[19.906,41.4882],[19.893,41.4693],[19.8849,41.4614],[19.8677,41.4488],[19.8588,41.4461],[19.8511,41.4468],[19.8415,41.453],[19.8371,41.4545],[19.8348,41.4516],[19.8337,41.4477],[19.8315,41.4438],[19.8267,41.4413],[19.7854,41.4287],[19.7562,41.4132],[19.7459,41.4092],[19.7373,41.4072],[19.7254,41.4075],[19.7192,41.41],[19.7152,41.4162],[19.7128,41.4213],[19.7104,41.4243],[19.7076,41.4266],[19.703,41.4295],[19.6996,41.4341],[19.6976,41.4388],[19.6943,41.4555],[19.6914,41.4612],[19.6875,41.4635],[19.6824,41.4588],[19.6794,41.4534],[19.6746,41.4488],[19.6686,41.4465],[19.6481,41.4506],[19.622,41.4462],[19.62,41.3895],[19.6208,41.3777],[19.6265,41.3679],[19.632,41.3638],[19.6417,41.3605],[19.6439,41.3559],[19.6441,41.3483],[19.642,41.3312],[19.643,41.3188],[19.6422,41.3071],[19.6392,41.2962],[19.6332,41.2887],[19.6072,41.2716],[19.5873,41.244],[19.5685,41.254],[19.5411,41.2628],[19.5162,41.2605],[19.516,41.2605]]]}},{"type":"Feature","properties":{"id":"ALB-1524","name":"Elbasan","nameBn":"এলবাসান","type":"County","bounds":[19.6692,40.7157,20.6024,41.3887],"center":[20.1358,41.0299]},"geometry":{"type":"Polygon","coordinates":[[[20.5127,41.2101],[20.5497,41.1706],[20.5655,41.1474],[20.5706,41.1248],[20.5699,41.1071],[20.577,41.0935],[20.5974,41.0863],[20.5979,41.0832],[20.5985,41.0669],[20.6021,41.0514],[20.6024,41.0458],[20.5988,41.0275],[20.5953,41.0217],[20.5901,41.0185],[20.5796,41.0194],[20.5428,41.0296],[20.5372,41.0301],[20.5327,41.0301],[20.525,41.0275],[20.4851,41.0093],[20.4772,41.0071],[20.4711,41.0062],[20.4358,40.9971],[20.4292,40.9938],[20.4229,40.9881],[20.4168,40.9748],[20.4143,40.9664],[20.412,40.9505],[20.4088,40.94],[20.406,40.9342],[20.3813,40.9247],[20.3926,40.8977],[20.3985,40.8889],[20.43,40.8579],[20.4415,40.8441],[20.4685,40.7997],[20.4533,40.7763],[20.4448,40.7658],[20.4315,40.7576],[20.4157,40.7523],[20.3397,40.7453],[20.3011,40.737],[20.2932,40.726],[20.2542,40.7162],[20.2219,40.7157],[20.214,40.7182],[20.2118,40.7211],[20.2078,40.7284],[20.2003,40.7323],[20.1917,40.7336],[20.1766,40.7337],[20.1678,40.7355],[20.145,40.7433],[20.1543,40.7549],[20.147,40.7591],[20.1356,40.7638],[20.1129,40.7683],[20.1019,40.7733],[20.093,40.7801],[20.0686,40.8112],[20.0596,40.817],[20.0477,40.8205],[20.0317,40.8218],[20.0179,40.8252],[20.0131,40.8285],[20.0131,40.8328],[20.0163,40.842],[20.0165,40.8464],[20.0159,40.8513],[20.0128,40.8605],[20.0126,40.864],[20.0131,40.8668],[20.0166,40.8737],[20.0134,40.8782],[20.0106,40.8794],[20.0021,40.8817],[19.9935,40.8795],[19.969,40.8671],[19.8889,40.8743],[19.8672,40.8684],[19.8269,40.8772],[19.8209,40.8807],[19.8123,40.8875],[19.8031,40.9013],[19.8008,40.9073],[19.8,40.9131],[19.8002,40.9185],[19.8045,40.9362],[19.8047,40.9412],[19.8022,40.9651],[19.803,40.9685],[19.8107,40.9802],[19.8119,40.9995],[19.7986,41.0036],[19.7944,41.0027],[19.7868,41.0024],[19.7797,41.0054],[19.7693,41.0117],[19.7593,41.0132],[19.7234,41.0111],[19.699,41.0164],[19.6846,41.0229],[19.6762,41.031],[19.6715,41.0399],[19.6697,41.0465],[19.6692,41.0506],[19.6709,41.0566],[19.692,41.0537],[19.6953,41.0563],[19.6985,41.0605],[19.6988,41.0694],[19.6998,41.077],[19.7029,41.0873],[19.7111,41.0935],[19.7345,41.1022],[19.7409,41.1068],[19.7441,41.1111],[19.7462,41.1218],[19.7782,41.1236],[19.809,41.1216],[19.8287,41.1246],[19.8415,41.1285],[19.8461,41.1326],[19.8466,41.1349],[19.8433,41.1365],[19.8374,41.138],[19.8346,41.1408],[19.8337,41.1433],[19.8577,41.159],[19.9054,41.1738],[19.927,41.1774],[19.9712,41.1948],[19.9783,41.1997],[20.0086,41.226],[20.021,41.241],[20.0356,41.2543],[20.0435,41.2584],[20.0497,41.2587],[20.0542,41.2556],[20.0607,41.2533],[20.0692,41.252],[20.0756,41.2533],[20.0812,41.2563],[20.097,41.2685],[20.1036,41.272],[20.1201,41.2732],[20.1366,41.2972],[20.1588,41.3115],[20.1689,41.3153],[20.2226,41.3265],[20.2272,41.3298],[20.2297,41.3331],[20.2357,41.3444],[20.2416,41.3495],[20.2443,41.3507],[20.2478,41.3518],[20.2542,41.353],[20.2578,41.3543],[20.2615,41.3563],[20.2646,41.3594],[20.2795,41.3684],[20.2868,41.3718],[20.295,41.3743],[20.3042,41.3748],[20.3133,41.3739],[20.3244,41.3704],[20.3388,41.3701],[20.3469,41.3713],[20.3541,41.3733],[20.3605,41.3773],[20.3703,41.3868],[20.3757,41.3887],[20.3801,41.388],[20.3846,41.3835],[20.3883,41.3842],[20.3912,41.3865],[20.3951,41.3882],[20.4012,41.3887],[20.4133,41.3856],[20.426,41.3836],[20.4401,41.3871],[20.4494,41.3883],[20.4471,41.3796],[20.4474,41.3697],[20.45,41.3565],[20.4555,41.3463],[20.4778,41.3219],[20.4781,41.3216],[20.4777,41.3196],[20.4831,41.2895],[20.4954,41.2503],[20.5001,41.2355],[20.5127,41.2101]]]}},{"type":"Feature","properties":{"id":"ALB-1495","name":"Fier","nameBn":"ফিয়ের","type":"County","bounds":[19.3044,40.4209,19.9049,41.0704],"center":[19.6047,40.8112]},"geometry":{"type":"Polygon","coordinates":[[[19.3047,40.6526],[19.3044,40.6531],[19.3093,40.665],[19.3229,40.6749],[19.339,40.6841],[19.3516,40.6942],[19.3605,40.7098],[19.3645,40.7265],[19.3656,40.786],[19.3688,40.8022],[19.3778,40.813],[19.3963,40.817],[19.4067,40.8207],[19.4041,40.8293],[19.3967,40.8387],[19.3932,40.8449],[19.3976,40.853],[19.4048,40.8611],[19.4114,40.8671],[19.4142,40.8688],[19.4063,40.8803],[19.3911,40.8952],[19.3812,40.9083],[19.3898,40.9138],[19.405,40.9182],[19.4246,40.9396],[19.4409,40.9486],[19.427,40.9368],[19.4354,40.9134],[19.4273,40.8934],[19.4273,40.8723],[19.4347,40.8723],[19.4378,40.8865],[19.4377,40.8835],[19.4391,40.8801],[19.4409,40.8723],[19.4541,40.8858],[19.5066,40.9051],[19.5234,40.9206],[19.5252,40.9453],[19.5147,40.9649],[19.5015,40.983],[19.4955,41.0026],[19.492,40.977],[19.4797,40.9539],[19.4539,40.924],[19.4535,40.9284],[19.4478,40.9343],[19.4585,40.9426],[19.47,40.9567],[19.4772,40.975],[19.4749,40.9958],[19.47,41.0007],[19.4538,41.0058],[19.448,41.0093],[19.4481,41.0095],[19.4589,41.0304],[19.461,41.0321],[19.4641,41.0339],[19.467,41.0336],[19.4723,41.0355],[19.4729,41.0385],[19.4718,41.0417],[19.4678,41.0467],[19.4686,41.0471],[19.4709,41.0473],[19.4762,41.0482],[19.4795,41.0478],[19.4832,41.0452],[19.4912,41.0365],[19.4971,41.0344],[19.5013,41.0361],[19.505,41.0397],[19.5106,41.0464],[19.5153,41.049],[19.5204,41.0495],[19.5247,41.048],[19.5289,41.0471],[19.5443,41.0467],[19.5542,41.0477],[19.5625,41.0515],[19.5797,41.0621],[19.5896,41.0667],[19.5971,41.0693],[19.6006,41.0689],[19.6079,41.066],[19.6157,41.0651],[19.6168,41.0646],[19.6177,41.0635],[19.6192,41.0626],[19.6292,41.0626],[19.6321,41.0615],[19.6338,41.0599],[19.6391,41.059],[19.6445,41.0607],[19.6618,41.0686],[19.667,41.0703],[19.6697,41.0704],[19.6715,41.0698],[19.6731,41.0684],[19.6736,41.0659],[19.6734,41.0639],[19.6709,41.0566],[19.6692,41.0506],[19.6697,41.0465],[19.6715,41.0399],[19.6762,41.031],[19.6846,41.0229],[19.699,41.0164],[19.7234,41.0111],[19.7593,41.0132],[19.7693,41.0117],[19.7797,41.0054],[19.7868,41.0024],[19.7944,41.0027],[19.7986,41.0036],[19.8119,40.9995],[19.8107,40.9802],[19.803,40.9685],[19.8022,40.9651],[19.8047,40.9412],[19.8045,40.9362],[19.8002,40.9185],[19.8,40.9131],[19.8008,40.9073],[19.8031,40.9013],[19.8123,40.8875],[19.8209,40.8807],[19.8269,40.8772],[19.8672,40.8684],[19.8723,40.8634],[19.8734,40.8611],[19.8747,40.8572],[19.8717,40.8528],[19.8692,40.8502],[19.837,40.8509],[19.8267,40.8489],[19.8218,40.8533],[19.8174,40.8586],[19.8147,40.8602],[19.8124,40.8606],[19.8014,40.8564],[19.7862,40.8523],[19.7788,40.8495],[19.7743,40.8471],[19.7716,40.842],[19.7671,40.8354],[19.7668,40.8325],[19.7676,40.8299],[19.7679,40.8278],[19.7645,40.823],[19.7642,40.8196],[19.7649,40.8159],[19.7646,40.8125],[19.7602,40.8114],[19.7552,40.8121],[19.7319,40.812],[19.7304,40.8015],[19.7307,40.7971],[19.7333,40.7896],[19.7383,40.7812],[19.757,40.7621],[19.7608,40.7552],[19.7595,40.7455],[19.7547,40.7359],[19.7541,40.7326],[19.7541,40.7285],[19.755,40.7215],[19.7562,40.7166],[19.7606,40.7125],[19.7735,40.7074],[19.7819,40.7052],[19.7902,40.701],[19.7952,40.6976],[19.8016,40.6766],[19.8289,40.6526],[19.834,40.6448],[19.8322,40.6361],[19.8238,40.6296],[19.8162,40.625],[19.8095,40.6224],[19.8076,40.621],[19.8085,40.6202],[19.8133,40.6195],[19.8185,40.6167],[19.8233,40.6104],[19.838,40.5796],[19.8489,40.5686],[19.8729,40.5559],[19.8868,40.5521],[19.8958,40.5475],[19.8993,40.5451],[19.9049,40.5273],[19.891,40.5258],[19.8862,40.5236],[19.881,40.519],[19.875,40.51],[19.8684,40.503],[19.8618,40.4969],[19.8315,40.4782],[19.8249,40.4719],[19.7963,40.4274],[19.7927,40.4231],[19.7906,40.4209],[19.7764,40.423],[19.7631,40.4254],[19.7531,40.4241],[19.7455,40.426],[19.7393,40.4302],[19.7373,40.434],[19.7373,40.438],[19.739,40.4418],[19.7404,40.4467],[19.7407,40.4516],[19.7378,40.4625],[19.7373,40.466],[19.7386,40.4691],[19.7401,40.4793],[19.7401,40.4855],[19.7379,40.4885],[19.7342,40.4903],[19.7193,40.4925],[19.7178,40.494],[19.7176,40.4955],[19.7187,40.4967],[19.7204,40.4978],[19.7218,40.5011],[19.7224,40.5059],[19.7209,40.5151],[19.7173,40.5202],[19.7111,40.5261],[19.7073,40.5281],[19.7032,40.5287],[19.7007,40.5282],[19.6981,40.5273],[19.6953,40.5278],[19.6903,40.5299],[19.6839,40.5339],[19.679,40.5359],[19.675,40.5363],[19.6709,40.5359],[19.6672,40.5361],[19.6604,40.5386],[19.6321,40.554],[19.6135,40.5538],[19.6002,40.5558],[19.5927,40.5588],[19.5834,40.5582],[19.5783,40.5595],[19.5749,40.5615],[19.5718,40.5712],[19.5696,40.5749],[19.5704,40.577],[19.5697,40.5785],[19.5679,40.5797],[19.5634,40.5808],[19.5584,40.5808],[19.5508,40.5789],[19.5443,40.5791],[19.5398,40.5804],[19.5373,40.5841],[19.5367,40.5867],[19.537,40.5898],[19.5368,40.5923],[19.5337,40.5952],[19.5278,40.5985],[19.5041,40.6078],[19.4943,40.6101],[19.4852,40.6106],[19.4801,40.6126],[19.478,40.6177],[19.4789,40.6214],[19.478,40.625],[19.4741,40.6286],[19.463,40.6339],[19.4566,40.6377],[19.4527,40.6413],[19.4524,40.6441],[19.4527,40.6463],[19.4527,40.6491],[19.4504,40.6507],[19.4451,40.6505],[19.4214,40.6425],[19.4115,40.6413],[19.396,40.6488],[19.3747,40.6552],[19.3606,40.6578],[19.346,40.6587],[19.3299,40.6545],[19.305,40.6527],[19.3047,40.6526]]]}},{"type":"Feature","properties":{"id":"ALB-1525","name":"Gjirokastër","nameBn":"গিজারকাসার কাউন্টি","type":"County","bounds":[19.7586,39.7843,20.6154,40.5273],"center":[20.1868,40.1927]},"geometry":{"type":"Polygon","coordinates":[[[20.6154,40.081],[20.5778,40.0673],[20.5529,40.0654],[20.4999,40.0715],[20.4817,40.0678],[20.466,40.0608],[20.4328,40.0638],[20.4138,40.0572],[20.4004,40.0453],[20.3891,40.0294],[20.3807,40.0117],[20.3765,39.9937],[20.3599,39.991],[20.31,39.9899],[20.2979,39.9869],[20.303,39.9791],[20.318,39.9184],[20.3231,39.9124],[20.3469,39.8943],[20.393,39.8355],[20.397,39.8181],[20.389,39.7981],[20.3716,39.7843],[20.3545,39.7858],[20.3369,39.794],[20.2996,39.8051],[20.2995,39.8053],[20.2975,39.81],[20.2866,39.8225],[20.2896,39.847],[20.2866,39.8543],[20.2811,39.8603],[20.2735,39.8641],[20.2663,39.8658],[20.2525,39.8658],[20.2398,39.8677],[20.2382,39.8845],[20.2339,39.8921],[20.2247,39.9001],[20.2151,39.9106],[20.2114,39.9183],[20.205,39.9386],[20.2,39.9439],[20.1816,39.955],[20.1594,39.9735],[20.1536,39.9764],[20.1479,39.9764],[20.1366,39.9799],[20.1197,39.9898],[20.0413,40.0496],[20.0306,40.0535],[20.0236,40.0541],[19.9985,40.0598],[19.9925,40.0602],[19.9862,40.0593],[19.9667,40.0544],[19.9535,40.0544],[19.9457,40.058],[19.9394,40.0653],[19.9184,40.1075],[19.9088,40.1252],[19.8945,40.1417],[19.8896,40.1495],[19.8883,40.1592],[19.8701,40.1934],[19.8371,40.2155],[19.8345,40.2186],[19.8322,40.2229],[19.838,40.2273],[19.8398,40.2311],[19.8401,40.2366],[19.8359,40.249],[19.8309,40.2574],[19.8224,40.2676],[19.8197,40.272],[19.8188,40.275],[19.8206,40.2765],[19.8286,40.2814],[19.8315,40.2845],[19.8318,40.2858],[19.8306,40.2869],[19.8187,40.2896],[19.8146,40.2918],[19.8102,40.2954],[19.7924,40.315],[19.7633,40.3381],[19.7592,40.3431],[19.7586,40.3463],[19.7656,40.3503],[19.78,40.3626],[19.7882,40.3716],[19.7943,40.3805],[19.7969,40.3894],[19.796,40.3953],[19.7921,40.4032],[19.7764,40.423],[19.7906,40.4209],[19.7927,40.4231],[19.7963,40.4274],[19.8249,40.4719],[19.8315,40.4782],[19.8618,40.4969],[19.8684,40.503],[19.875,40.51],[19.881,40.519],[19.8862,40.5236],[19.891,40.5258],[19.9049,40.5273],[19.9371,40.5119],[19.9578,40.509],[19.9805,40.5089],[20.0202,40.4935],[20.0416,40.4966],[20.0489,40.4958],[20.0592,40.4907],[20.0643,40.4888],[20.068,40.4892],[20.0694,40.4913],[20.0706,40.4946],[20.071,40.4973],[20.0723,40.5033],[20.0919,40.4984],[20.1013,40.4908],[20.1082,40.4813],[20.1152,40.477],[20.1251,40.4744],[20.1408,40.4738],[20.1484,40.4726],[20.1533,40.4691],[20.1765,40.4449],[20.1791,40.4412],[20.2486,40.3724],[20.2604,40.3642],[20.2694,40.36],[20.291,40.3559],[20.2978,40.3553],[20.3014,40.3668],[20.3045,40.3713],[20.3049,40.3735],[20.3066,40.3763],[20.3115,40.3797],[20.3235,40.3853],[20.3524,40.3904],[20.3619,40.3935],[20.3704,40.3992],[20.3734,40.4092],[20.3729,40.4174],[20.371,40.4263],[20.3723,40.4331],[20.3813,40.4362],[20.399,40.4354],[20.4426,40.4397],[20.4603,40.437],[20.4508,40.4299],[20.4474,40.4262],[20.4446,40.4214],[20.4415,40.4145],[20.4412,40.4061],[20.4445,40.3986],[20.4614,40.383],[20.4674,40.3757],[20.4702,40.3677],[20.471,40.3524],[20.4617,40.3245],[20.4634,40.3169],[20.482,40.2728],[20.4843,40.2705],[20.4985,40.2679],[20.5073,40.2673],[20.5126,40.2663],[20.5151,40.2646],[20.5124,40.2613],[20.502,40.2534],[20.4969,40.248],[20.494,40.2433],[20.4934,40.2378],[20.4943,40.2316],[20.496,40.2255],[20.5214,40.1773],[20.5268,40.1581],[20.5335,40.151],[20.5808,40.1123],[20.5956,40.0964],[20.6148,40.0815],[20.615,40.0814],[20.6154,40.081]]]}},{"type":"Feature","properties":{"id":"ALB-1521","name":"Korçë","nameBn":"কোরচে কাউন্টি","type":"County","bounds":[20.2932,40.081,21.0367,41.0863],"center":[20.6648,40.6138]},"geometry":{"type":"Polygon","coordinates":[[[20.5974,41.0863],[20.6053,41.0835],[20.6189,41.0824],[20.6315,41.0829],[20.6341,41.0826],[20.643,41.0816],[20.6539,41.0753],[20.6641,41.0591],[20.6834,40.9938],[20.7027,40.9363],[20.7172,40.9132],[20.7306,40.9046],[20.7409,40.898],[20.7661,40.8937],[20.7837,40.8991],[20.817,40.9202],[20.8365,40.9239],[20.8374,40.9241],[20.8902,40.9183],[20.9399,40.9071],[20.9567,40.8948],[20.9648,40.876],[20.9653,40.8494],[20.967,40.802],[20.9609,40.7808],[20.9437,40.7653],[20.9535,40.7592],[20.9572,40.7516],[20.9592,40.7436],[20.9635,40.7361],[20.992,40.7155],[21.0186,40.6909],[21.0288,40.6768],[21.0353,40.6594],[21.0367,40.6397],[21.0332,40.6214],[21.0225,40.5866],[21.0208,40.5751],[21.0204,40.5668],[21.0188,40.559],[21.0135,40.5489],[21.0067,40.5432],[20.9975,40.5392],[20.9883,40.5335],[20.9815,40.5233],[20.9686,40.5206],[20.9579,40.5149],[20.9519,40.5061],[20.9527,40.4937],[20.9498,40.4879],[20.9465,40.4829],[20.9368,40.4725],[20.9119,40.4595],[20.8896,40.4637],[20.8668,40.4721],[20.84,40.4716],[20.8267,40.4648],[20.8213,40.4564],[20.8174,40.4468],[20.8092,40.4366],[20.8003,40.4328],[20.7795,40.429],[20.7706,40.422],[20.769,40.4126],[20.7733,40.3853],[20.7739,40.3749],[20.7704,40.3625],[20.766,40.3543],[20.755,40.3386],[20.7396,40.3092],[20.7366,40.3036],[20.7288,40.2983],[20.7178,40.2939],[20.707,40.2881],[20.6991,40.2784],[20.6946,40.2556],[20.6966,40.2356],[20.6964,40.2151],[20.6853,40.1912],[20.6798,40.1878],[20.665,40.1844],[20.6604,40.1789],[20.6599,40.1727],[20.6632,40.1617],[20.6635,40.1566],[20.6682,40.1381],[20.6668,40.1335],[20.6518,40.101],[20.6476,40.094],[20.6402,40.0901],[20.6154,40.081],[20.615,40.0814],[20.6148,40.0815],[20.5956,40.0964],[20.5808,40.1123],[20.5335,40.151],[20.5268,40.1581],[20.5214,40.1773],[20.496,40.2255],[20.4943,40.2316],[20.4934,40.2378],[20.494,40.2433],[20.4969,40.248],[20.502,40.2534],[20.5124,40.2613],[20.5151,40.2646],[20.5126,40.2663],[20.5073,40.2673],[20.4985,40.2679],[20.4843,40.2705],[20.482,40.2728],[20.4634,40.3169],[20.4617,40.3245],[20.471,40.3524],[20.4702,40.3677],[20.4674,40.3757],[20.4614,40.383],[20.4445,40.3986],[20.4412,40.4061],[20.4415,40.4145],[20.4446,40.4214],[20.4474,40.4262],[20.4508,40.4299],[20.4603,40.437],[20.4426,40.4397],[20.43,40.4601],[20.4297,40.4668],[20.4337,40.5067],[20.4321,40.5166],[20.4281,40.5236],[20.4184,40.5314],[20.4165,40.5347],[20.4157,40.5394],[20.4162,40.5432],[20.4185,40.5516],[20.4205,40.5542],[20.4257,40.5593],[20.4318,40.5729],[20.4318,40.5761],[20.4297,40.5792],[20.4302,40.5823],[20.4289,40.5845],[20.4224,40.5896],[20.4171,40.5912],[20.4058,40.5925],[20.4018,40.5935],[20.3971,40.5956],[20.3928,40.596],[20.3878,40.5957],[20.3822,40.5958],[20.3771,40.5985],[20.3695,40.6052],[20.365,40.6158],[20.3589,40.6222],[20.3565,40.6288],[20.3407,40.6488],[20.3321,40.6689],[20.3105,40.7076],[20.3054,40.7148],[20.2932,40.726],[20.3011,40.737],[20.3397,40.7453],[20.4157,40.7523],[20.4315,40.7576],[20.4448,40.7658],[20.4533,40.7763],[20.4685,40.7997],[20.4415,40.8441],[20.43,40.8579],[20.3985,40.8889],[20.3926,40.8977],[20.3813,40.9247],[20.406,40.9342],[20.4088,40.94],[20.412,40.9505],[20.4143,40.9664],[20.4168,40.9748],[20.4229,40.9881],[20.4292,40.9938],[20.4358,40.9971],[20.4711,41.0062],[20.4772,41.0071],[20.4851,41.0093],[20.525,41.0275],[20.5327,41.0301],[20.5372,41.0301],[20.5428,41.0296],[20.5796,41.0194],[20.5901,41.0185],[20.5953,41.0217],[20.5988,41.0275],[20.6024,41.0458],[20.6021,41.0514],[20.5985,41.0669],[20.5979,41.0832],[20.5974,41.0863]]]}},{"type":"Feature","properties":{"id":"ALB-1502","name":"Kukës","nameBn":"কুকেস","type":"County","bounds":[19.7876,41.8207,20.5993,42.5578],"center":[20.1933,42.0902]},"geometry":{"type":"Polygon","coordinates":[[[20.5671,41.8732],[20.5417,41.8616],[20.5408,41.8449],[20.5404,41.8449],[20.5318,41.8455],[20.5146,41.8414],[20.4982,41.839],[20.4362,41.8476],[20.4156,41.8471],[20.4046,41.8454],[20.4047,41.8422],[20.4077,41.8394],[20.4105,41.8363],[20.4064,41.8318],[20.3962,41.8271],[20.3822,41.8233],[20.3577,41.8207],[20.3591,41.8282],[20.3527,41.8427],[20.3247,41.8743],[20.3187,41.8934],[20.3202,41.8966],[20.3001,41.898],[20.2856,41.8933],[20.2792,41.8876],[20.2735,41.8809],[20.2653,41.8744],[20.2547,41.8694],[20.2365,41.8663],[20.2257,41.8673],[20.2181,41.8722],[20.2151,41.8773],[20.2144,41.8822],[20.215,41.8857],[20.215,41.8894],[20.2145,41.8922],[20.2072,41.8992],[20.2202,41.9173],[20.223,41.9202],[20.2263,41.9221],[20.2294,41.9234],[20.2322,41.9255],[20.2348,41.9283],[20.239,41.9317],[20.2581,41.9438],[20.2609,41.9469],[20.2623,41.9519],[20.2613,41.9617],[20.2615,41.9694],[20.2626,41.9764],[20.2656,41.9817],[20.2675,41.9871],[20.2672,41.9931],[20.2585,42.0112],[20.2542,42.0176],[20.2421,42.0244],[20.2126,42.0282],[20.1893,42.0444],[20.181,42.0543],[20.1741,42.0581],[20.1684,42.0574],[20.1616,42.0543],[20.1538,42.052],[20.1425,42.0514],[20.1428,42.0533],[20.1574,42.0685],[20.163,42.0818],[20.1611,42.0885],[20.1561,42.0964],[20.1593,42.1043],[20.1861,42.1331],[20.1934,42.1388],[20.2024,42.1439],[20.215,42.1498],[20.2325,42.1604],[20.2429,42.1755],[20.2356,42.1924],[20.2055,42.2019],[20.1966,42.2036],[20.1915,42.2076],[20.1874,42.2121],[20.1816,42.2156],[20.1744,42.2167],[20.1505,42.2156],[20.0369,42.2565],[20.0239,42.2596],[20.0004,42.262],[19.9834,42.2497],[19.9241,42.2517],[19.9178,42.2501],[19.9113,42.2466],[19.8969,42.2356],[19.8908,42.2324],[19.8855,42.2308],[19.8814,42.2302],[19.8778,42.2292],[19.8751,42.2281],[19.87,42.223],[19.8447,42.225],[19.8306,42.2309],[19.8239,42.2345],[19.8219,42.2386],[19.8252,42.2456],[19.8275,42.2538],[19.8281,42.2574],[19.828,42.2617],[19.8287,42.2647],[19.8309,42.2678],[19.8306,42.2764],[19.827,42.29],[19.814,42.324],[19.8102,42.3398],[19.8096,42.3516],[19.811,42.3596],[19.8099,42.385],[19.8078,42.3934],[19.805,42.3994],[19.7892,42.4141],[19.7876,42.4176],[19.7893,42.4205],[19.7986,42.4271],[19.8019,42.4312],[19.8062,42.441],[19.8088,42.445],[19.8124,42.4486],[19.8162,42.4516],[19.82,42.4554],[19.8229,42.4586],[19.8291,42.4687],[19.8355,42.4703],[19.8733,42.4868],[19.8825,42.4934],[19.8827,42.4936],[19.9075,42.5064],[19.9563,42.5053],[19.9818,42.5108],[20.0177,42.5462],[20.0392,42.5578],[20.065,42.5468],[20.0856,42.53],[20.1355,42.5096],[20.1524,42.4937],[20.1526,42.4937],[20.1526,42.4936],[20.1527,42.4934],[20.1808,42.4431],[20.1863,42.4374],[20.1997,42.4278],[20.2047,42.4201],[20.2044,42.4118],[20.194,42.4001],[20.1928,42.3937],[20.1975,42.3874],[20.2131,42.3775],[20.2188,42.3714],[20.2212,42.3637],[20.2195,42.3502],[20.2209,42.3431],[20.2296,42.3267],[20.2378,42.3199],[20.2496,42.3186],[20.318,42.3198],[20.3334,42.3179],[20.457,42.2505],[20.4737,42.2371],[20.4817,42.2307],[20.5008,42.2112],[20.5386,42.1501],[20.5494,42.1235],[20.552,42.1058],[20.5522,42.0738],[20.5583,42.0551],[20.5897,41.9936],[20.5943,41.9737],[20.5993,41.9606],[20.5993,41.9479],[20.5887,41.9296],[20.5806,41.9217],[20.5733,41.9177],[20.5673,41.9122],[20.5625,41.9001],[20.5627,41.8928],[20.5678,41.8805],[20.5671,41.8732]]]}},{"type":"Feature","properties":{"id":"ALB-1528","name":"Lezhë","nameBn":"লেঝে","type":"County","bounds":[19.4624,41.557,20.2675,42.0282],"center":[19.8649,41.824]},"geometry":{"type":"Polygon","coordinates":[[[19.5564,41.5831],[19.5652,41.5851],[19.5848,41.6196],[19.5916,41.6196],[19.5923,41.6086],[19.596,41.6027],[19.603,41.6018],[19.613,41.6053],[19.605,41.6321],[19.6001,41.6391],[19.5916,41.6326],[19.5871,41.6407],[19.5576,41.6605],[19.5781,41.6876],[19.5763,41.7189],[19.5711,41.7524],[19.5713,41.7704],[19.5895,41.7657],[19.599,41.7787],[19.5998,41.7998],[19.5916,41.8188],[19.5852,41.8185],[19.5295,41.8357],[19.5295,41.8359],[19.5266,41.8469],[19.4662,41.8826],[19.4624,41.8947],[19.4655,41.9061],[19.4732,41.9139],[19.4824,41.9151],[19.4957,41.911],[19.53,41.8955],[19.5474,41.8899],[19.5615,41.8933],[19.5732,41.9028],[19.5698,41.9232],[19.5646,41.9344],[19.5601,41.9387],[19.571,41.9421],[19.5877,41.944],[19.5913,41.9436],[19.5943,41.9421],[19.598,41.9398],[19.6037,41.9375],[19.6099,41.9365],[19.6211,41.9364],[19.6242,41.9356],[19.6254,41.9337],[19.6242,41.9314],[19.6211,41.9281],[19.6174,41.9234],[19.6168,41.9192],[19.6183,41.9161],[19.6219,41.9141],[19.6309,41.9104],[19.6389,41.9102],[19.6754,41.9144],[19.6839,41.9137],[19.6919,41.9102],[19.7099,41.8992],[19.7229,41.8953],[19.7319,41.898],[19.7401,41.9026],[19.7474,41.9078],[19.751,41.9116],[19.7521,41.915],[19.751,41.9189],[19.7393,41.9378],[19.7701,41.9389],[19.7893,41.9463],[19.7955,41.9465],[19.8025,41.944],[19.8102,41.9397],[19.8255,41.9356],[19.8339,41.9354],[19.8415,41.9371],[19.8467,41.9403],[19.8535,41.9466],[19.8636,41.9534],[19.8731,41.9617],[19.8848,41.967],[19.8953,41.9692],[19.9017,41.9689],[19.9076,41.9647],[19.9094,41.96],[19.9122,41.9495],[19.9196,41.9348],[19.9238,41.9299],[19.9433,41.9116],[19.9456,41.9072],[19.9457,41.9034],[19.9437,41.9007],[19.9354,41.8947],[19.934,41.8908],[19.9349,41.8866],[19.9391,41.8821],[19.9443,41.8785],[19.9532,41.8762],[19.9917,41.8752],[19.9996,41.8768],[20.005,41.88],[20.0166,41.8962],[20.0236,41.9035],[20.046,41.92],[20.0612,41.9267],[20.0703,41.9326],[20.0798,41.943],[20.0882,41.9631],[20.0969,41.9702],[20.1085,41.976],[20.1723,41.9999],[20.2126,42.0282],[20.2421,42.0244],[20.2542,42.0176],[20.2585,42.0112],[20.2672,41.9931],[20.2675,41.9871],[20.2656,41.9817],[20.2626,41.9764],[20.2615,41.9694],[20.2613,41.9617],[20.2623,41.9519],[20.2609,41.9469],[20.2581,41.9438],[20.239,41.9317],[20.2348,41.9283],[20.2322,41.9255],[20.2294,41.9234],[20.2263,41.9221],[20.223,41.9202],[20.2202,41.9173],[20.2072,41.8992],[20.2075,41.8849],[20.1907,41.864],[20.1797,41.8581],[20.167,41.8481],[20.1582,41.8394],[20.1459,41.8354],[20.1335,41.8335],[20.1232,41.8328],[20.1167,41.8313],[20.1144,41.8288],[20.116,41.8254],[20.159,41.7976],[20.1636,41.7906],[20.1642,41.7767],[20.1636,41.7707],[20.1557,41.7617],[20.0598,41.7324],[20.0523,41.7284],[20.0482,41.7241],[20.0441,41.712],[20.0403,41.7068],[20.0337,41.7025],[20.0247,41.7005],[19.99,41.7052],[19.9795,41.7053],[19.973,41.7042],[19.9608,41.6974],[19.9575,41.6952],[19.9566,41.6925],[19.9563,41.6888],[19.9529,41.6847],[19.9465,41.6831],[19.9262,41.6879],[19.9193,41.6914],[19.9153,41.6944],[19.9093,41.7032],[19.9062,41.7047],[19.8905,41.6986],[19.8726,41.6944],[19.8584,41.6929],[19.8365,41.697],[19.825,41.7031],[19.8169,41.7062],[19.8135,41.7069],[19.8093,41.6902],[19.8121,41.6478],[19.8082,41.6353],[19.8053,41.6327],[19.8039,41.6291],[19.8059,41.6249],[19.8208,41.6123],[19.8256,41.6067],[19.8289,41.5991],[19.8281,41.5919],[19.8362,41.5667],[19.8099,41.5681],[19.8025,41.5722],[19.7932,41.5788],[19.7842,41.5871],[19.7788,41.5898],[19.7738,41.59],[19.7679,41.5867],[19.7656,41.5831],[19.7642,41.5791],[19.7576,41.5728],[19.7452,41.5659],[19.7141,41.5584],[19.6984,41.557],[19.6858,41.5581],[19.6785,41.5618],[19.6731,41.5657],[19.6646,41.574],[19.6602,41.5769],[19.6433,41.5849],[19.6375,41.5852],[19.6152,41.5783],[19.6,41.5769],[19.5966,41.5757],[19.5946,41.5743],[19.591,41.5683],[19.5594,41.5813],[19.5564,41.5831]]]}},{"type":"Feature","properties":{"id":"ALB-1498","name":"Shkodër","nameBn":"শকোদার","type":"County","bounds":[19.272,41.8357,20.2429,42.6548],"center":[19.7573,42.2144]},"geometry":{"type":"Polygon","coordinates":[[[19.7469,42.5889],[19.7478,42.5789],[19.746,42.5799],[19.7414,42.5744],[19.7339,42.5626],[19.7322,42.5555],[19.7303,42.5404],[19.7309,42.5337],[19.7343,42.5244],[19.7516,42.4934],[19.7845,42.4746],[19.8014,42.4681],[19.8196,42.4665],[19.8291,42.4687],[19.8229,42.4586],[19.82,42.4554],[19.8162,42.4516],[19.8124,42.4486],[19.8088,42.445],[19.8062,42.441],[19.8019,42.4312],[19.7986,42.4271],[19.7893,42.4205],[19.7876,42.4176],[19.7892,42.4141],[19.805,42.3994],[19.8078,42.3934],[19.8099,42.385],[19.811,42.3596],[19.8096,42.3516],[19.8102,42.3398],[19.814,42.324],[19.827,42.29],[19.8306,42.2764],[19.8309,42.2678],[19.8287,42.2647],[19.828,42.2617],[19.8281,42.2574],[19.8275,42.2538],[19.8252,42.2456],[19.8219,42.2386],[19.8239,42.2345],[19.8306,42.2309],[19.8447,42.225],[19.87,42.223],[19.8751,42.2281],[19.8778,42.2292],[19.8814,42.2302],[19.8855,42.2308],[19.8908,42.2324],[19.8969,42.2356],[19.9113,42.2466],[19.9178,42.2501],[19.9241,42.2517],[19.9834,42.2497],[20.0004,42.262],[20.0239,42.2596],[20.0369,42.2565],[20.1505,42.2156],[20.1744,42.2167],[20.1816,42.2156],[20.1874,42.2121],[20.1915,42.2076],[20.1966,42.2036],[20.2055,42.2019],[20.2356,42.1924],[20.2429,42.1755],[20.2325,42.1604],[20.215,42.1498],[20.2024,42.1439],[20.1934,42.1388],[20.1861,42.1331],[20.1593,42.1043],[20.1561,42.0964],[20.1611,42.0885],[20.163,42.0818],[20.1574,42.0685],[20.1428,42.0533],[20.1425,42.0514],[20.1538,42.052],[20.1616,42.0543],[20.1684,42.0574],[20.1741,42.0581],[20.181,42.0543],[20.1893,42.0444],[20.2126,42.0282],[20.1723,41.9999],[20.1085,41.976],[20.0969,41.9702],[20.0882,41.9631],[20.0798,41.943],[20.0703,41.9326],[20.0612,41.9267],[20.046,41.92],[20.0236,41.9035],[20.0166,41.8962],[20.005,41.88],[19.9996,41.8768],[19.9917,41.8752],[19.9532,41.8762],[19.9443,41.8785],[19.9391,41.8821],[19.9349,41.8866],[19.934,41.8908],[19.9354,41.8947],[19.9437,41.9007],[19.9457,41.9034],[19.9456,41.9072],[19.9433,41.9116],[19.9238,41.9299],[19.9196,41.9348],[19.9122,41.9495],[19.9094,41.96],[19.9076,41.9647],[19.9017,41.9689],[19.8953,41.9692],[19.8848,41.967],[19.8731,41.9617],[19.8636,41.9534],[19.8535,41.9466],[19.8467,41.9403],[19.8415,41.9371],[19.8339,41.9354],[19.8255,41.9356],[19.8102,41.9397],[19.8025,41.944],[19.7955,41.9465],[19.7893,41.9463],[19.7701,41.9389],[19.7393,41.9378],[19.751,41.9189],[19.7521,41.915],[19.751,41.9116],[19.7474,41.9078],[19.7401,41.9026],[19.7319,41.898],[19.7229,41.8953],[19.7099,41.8992],[19.6919,41.9102],[19.6839,41.9137],[19.6754,41.9144],[19.6389,41.9102],[19.6309,41.9104],[19.6219,41.9141],[19.6183,41.9161],[19.6168,41.9192],[19.6174,41.9234],[19.6211,41.9281],[19.6242,41.9314],[19.6254,41.9337],[19.6242,41.9356],[19.6211,41.9364],[19.6099,41.9365],[19.6037,41.9375],[19.598,41.9398],[19.5943,41.9421],[19.5913,41.9436],[19.5877,41.944],[19.571,41.9421],[19.5601,41.9387],[19.5646,41.9344],[19.5698,41.9232],[19.5732,41.9028],[19.5615,41.8933],[19.5474,41.8899],[19.53,41.8955],[19.4957,41.911],[19.4824,41.9151],[19.4732,41.9139],[19.4655,41.9061],[19.4624,41.8947],[19.4662,41.8826],[19.5266,41.8469],[19.5295,41.8359],[19.5295,41.8357],[19.4655,41.8555],[19.4512,41.8625],[19.433,41.8686],[19.3651,41.8524],[19.3642,41.8628],[19.3649,41.889],[19.357,41.8996],[19.3477,41.9064],[19.3453,41.9103],[19.3459,41.9145],[19.3454,41.9212],[19.3467,41.9262],[19.3505,41.9314],[19.3529,41.9385],[19.3464,41.9615],[19.3516,41.9652],[19.3598,41.966],[19.3658,41.9697],[19.371,41.9866],[19.3637,41.9935],[19.3634,41.9936],[19.3542,42.0087],[19.3506,42.0278],[19.3517,42.0476],[19.3566,42.0648],[19.3749,42.0947],[19.3725,42.1043],[19.37,42.1065],[19.355,42.12],[19.2978,42.1517],[19.2821,42.1646],[19.282,42.1647],[19.272,42.1807],[19.2749,42.1913],[19.2834,42.198],[19.3046,42.2151],[19.4004,42.3259],[19.4013,42.3311],[19.4007,42.3448],[19.4027,42.352],[19.4121,42.3684],[19.4172,42.3741],[19.4684,42.4181],[19.4817,42.4345],[19.5015,42.4441],[19.5178,42.458],[19.5317,42.4748],[19.5437,42.4934],[19.5437,42.4936],[19.5493,42.5086],[19.5613,42.5162],[19.5757,42.5223],[19.5881,42.5329],[19.5937,42.5448],[19.5992,42.571],[19.605,42.5848],[19.6218,42.605],[19.6479,42.6278],[19.658,42.6346],[19.676,42.6467],[19.6993,42.6548],[19.7221,42.6461],[19.7375,42.6244],[19.746,42.5989],[19.7469,42.5889]]]}},{"type":"Feature","properties":{"id":"ALB-1529","name":"Tiranë","nameBn":"তিরান","type":"County","bounds":[19.4406,41.0093,20.2357,41.5098],"center":[19.8383,41.1326]},"geometry":{"type":"Polygon","coordinates":[[[19.448,41.0093],[19.4478,41.0095],[19.4406,41.0207],[19.4413,41.026],[19.4455,41.0307],[19.4564,41.1067],[19.4512,41.1227],[19.4455,41.1295],[19.4412,41.1374],[19.4419,41.1439],[19.4637,41.1513],[19.4671,41.1627],[19.4671,41.1762],[19.4688,41.1876],[19.5095,41.2373],[19.5166,41.2564],[19.516,41.2605],[19.5162,41.2605],[19.5411,41.2628],[19.5685,41.254],[19.5873,41.244],[19.6072,41.2716],[19.6332,41.2887],[19.6392,41.2962],[19.6422,41.3071],[19.643,41.3188],[19.642,41.3312],[19.6441,41.3483],[19.6439,41.3559],[19.6417,41.3605],[19.632,41.3638],[19.6265,41.3679],[19.6208,41.3777],[19.62,41.3895],[19.622,41.4462],[19.6481,41.4506],[19.6686,41.4465],[19.6746,41.4488],[19.6794,41.4534],[19.6824,41.4588],[19.6875,41.4635],[19.6914,41.4612],[19.6943,41.4555],[19.6976,41.4388],[19.6996,41.4341],[19.703,41.4295],[19.7076,41.4266],[19.7104,41.4243],[19.7128,41.4213],[19.7152,41.4162],[19.7192,41.41],[19.7254,41.4075],[19.7373,41.4072],[19.7459,41.4092],[19.7562,41.4132],[19.7854,41.4287],[19.8267,41.4413],[19.8315,41.4438],[19.8337,41.4477],[19.8348,41.4516],[19.8371,41.4545],[19.8415,41.453],[19.8511,41.4468],[19.8588,41.4461],[19.8677,41.4488],[19.8849,41.4614],[19.893,41.4693],[19.906,41.4882],[19.9088,41.4935],[19.9099,41.4991],[19.9111,41.5098],[19.9226,41.5095],[19.931,41.5057],[19.9428,41.4982],[19.9622,41.4821],[19.9831,41.4585],[19.9856,41.4518],[19.9867,41.4476],[19.9883,41.4447],[19.994,41.4386],[19.9951,41.4351],[19.9968,41.4313],[20.0001,41.4271],[20.0183,41.4154],[20.0352,41.4077],[20.0424,41.4017],[20.0511,41.391],[20.0573,41.3884],[20.0641,41.3893],[20.0748,41.3971],[20.0803,41.403],[20.1084,41.4031],[20.1463,41.3723],[20.16,41.3645],[20.2357,41.3444],[20.2297,41.3331],[20.2272,41.3298],[20.2226,41.3265],[20.1689,41.3153],[20.1588,41.3115],[20.1366,41.2972],[20.1201,41.2732],[20.1036,41.272],[20.097,41.2685],[20.0812,41.2563],[20.0756,41.2533],[20.0692,41.252],[20.0607,41.2533],[20.0542,41.2556],[20.0497,41.2587],[20.0435,41.2584],[20.0356,41.2543],[20.021,41.241],[20.0086,41.226],[19.9783,41.1997],[19.9712,41.1948],[19.927,41.1774],[19.9054,41.1738],[19.8577,41.159],[19.8337,41.1433],[19.8346,41.1408],[19.8374,41.138],[19.8433,41.1365],[19.8466,41.1349],[19.8461,41.1326],[19.8415,41.1285],[19.8287,41.1246],[19.809,41.1216],[19.7782,41.1236],[19.7462,41.1218],[19.7441,41.1111],[19.7409,41.1068],[19.7345,41.1022],[19.7111,41.0935],[19.7029,41.0873],[19.6998,41.077],[19.6988,41.0694],[19.6985,41.0605],[19.6953,41.0563],[19.692,41.0537],[19.6709,41.0566],[19.6734,41.0639],[19.6736,41.0659],[19.6731,41.0684],[19.6715,41.0698],[19.6697,41.0704],[19.667,41.0703],[19.6618,41.0686],[19.6445,41.0607],[19.6391,41.059],[19.6338,41.0599],[19.6321,41.0615],[19.6292,41.0626],[19.6192,41.0626],[19.6177,41.0635],[19.6168,41.0646],[19.6157,41.0651],[19.6079,41.066],[19.6006,41.0689],[19.5971,41.0693],[19.5896,41.0667],[19.5797,41.0621],[19.5625,41.0515],[19.5542,41.0477],[19.5443,41.0467],[19.5289,41.0471],[19.5247,41.048],[19.5204,41.0495],[19.5153,41.049],[19.5106,41.0464],[19.505,41.0397],[19.5013,41.0361],[19.4971,41.0344],[19.4912,41.0365],[19.4832,41.0452],[19.4795,41.0478],[19.4762,41.0482],[19.4709,41.0473],[19.4686,41.0471],[19.4678,41.0467],[19.4718,41.0417],[19.4729,41.0385],[19.4723,41.0355],[19.467,41.0336],[19.4641,41.0339],[19.461,41.0321],[19.4589,41.0304],[19.4481,41.0095],[19.448,41.0093]]]}},{"type":"Feature","properties":{"id":"ALB-1504","name":"Vlorë","nameBn":"ভ্ল ভ্লোর কাউন্টি","type":"County","bounds":[19.2896,39.637,20.2996,40.6587],"center":[19.7946,40.1908]},"geometry":{"type":"Polygon","coordinates":[[[20.2996,39.8051],[20.2983,39.8054],[20.2884,39.8066],[20.28,39.804],[20.273,39.7965],[20.2755,39.7924],[20.2814,39.7882],[20.2847,39.7803],[20.2831,39.7751],[20.2768,39.7632],[20.2757,39.7601],[20.2782,39.7567],[20.2855,39.7497],[20.2873,39.7467],[20.2911,39.7379],[20.2965,39.7335],[20.2995,39.7282],[20.2965,39.7174],[20.2827,39.7044],[20.2641,39.6961],[20.249,39.6848],[20.246,39.6629],[20.2372,39.667],[20.2286,39.6692],[20.2201,39.6692],[20.212,39.667],[20.2042,39.6603],[20.203,39.6526],[20.2034,39.6453],[20.1999,39.6401],[20.1841,39.637],[20.1638,39.6443],[20.1352,39.6642],[20.0893,39.6828],[20.0496,39.6927],[20.0161,39.7014],[19.9998,39.6935],[19.9968,39.6926],[19.9959,39.6867],[19.989,39.6867],[19.9836,39.7014],[19.987,39.718],[20.0027,39.7482],[19.9856,39.7537],[19.9806,39.7573],[19.9959,39.7829],[20.0142,39.833],[20.0163,39.845],[20.0098,39.8657],[19.9993,39.8714],[19.9837,39.8724],[19.9617,39.8786],[19.9602,39.881],[19.96,39.8851],[19.9588,39.8894],[19.9548,39.8928],[19.9412,39.899],[19.9312,39.9019],[19.9141,39.9024],[19.9064,39.9064],[19.9064,39.9127],[19.9212,39.9269],[19.931,39.9345],[19.9412,39.94],[19.9238,39.9528],[19.8768,40.0224],[19.8705,40.0347],[19.8635,40.0454],[19.8552,40.0499],[19.8233,40.0506],[19.8074,40.0529],[19.7966,40.0573],[19.8045,40.0635],[19.7774,40.0778],[19.7731,40.0712],[19.7717,40.0683],[19.7705,40.0635],[19.7673,40.0725],[19.7625,40.0769],[19.7564,40.0799],[19.7494,40.0846],[19.7481,40.0886],[19.7409,40.1004],[19.7327,40.1103],[19.729,40.1082],[19.7191,40.116],[19.6532,40.1324],[19.5978,40.1577],[19.5658,40.1798],[19.5093,40.1945],[19.4762,40.2137],[19.3811,40.2952],[19.37,40.309],[19.3651,40.3174],[19.3516,40.362],[19.3442,40.3743],[19.3093,40.4008],[19.2969,40.4136],[19.2952,40.4175],[19.2952,40.4187],[19.2896,40.4204],[19.2896,40.4272],[19.3162,40.4378],[19.3325,40.4389],[19.3482,40.4306],[19.3838,40.3974],[19.3932,40.3863],[19.4065,40.3626],[19.412,40.3481],[19.4142,40.3344],[19.4236,40.33],[19.4446,40.3338],[19.4656,40.3415],[19.4749,40.3484],[19.4816,40.4391],[19.4788,40.4539],[19.4531,40.4653],[19.4188,40.4919],[19.3914,40.5218],[19.3864,40.5433],[19.3932,40.5371],[19.396,40.5296],[19.3986,40.5209],[19.4067,40.5228],[19.4142,40.5228],[19.4336,40.5059],[19.4461,40.5111],[19.4526,40.5299],[19.4546,40.5539],[19.4421,40.5731],[19.4157,40.5835],[19.3916,40.5783],[19.3864,40.5507],[19.3792,40.5661],[19.3098,40.6444],[19.3047,40.6526],[19.305,40.6527],[19.3299,40.6545],[19.346,40.6587],[19.3606,40.6578],[19.3747,40.6552],[19.396,40.6488],[19.4115,40.6413],[19.4214,40.6425],[19.4451,40.6505],[19.4504,40.6507],[19.4527,40.6491],[19.4527,40.6463],[19.4524,40.6441],[19.4527,40.6413],[19.4566,40.6377],[19.463,40.6339],[19.4741,40.6286],[19.478,40.625],[19.4789,40.6214],[19.478,40.6177],[19.4801,40.6126],[19.4852,40.6106],[19.4943,40.6101],[19.5041,40.6078],[19.5278,40.5985],[19.5337,40.5952],[19.5368,40.5923],[19.537,40.5898],[19.5367,40.5867],[19.5373,40.5841],[19.5398,40.5804],[19.5443,40.5791],[19.5508,40.5789],[19.5584,40.5808],[19.5634,40.5808],[19.5679,40.5797],[19.5697,40.5785],[19.5704,40.577],[19.5696,40.5749],[19.5718,40.5712],[19.5749,40.5615],[19.5783,40.5595],[19.5834,40.5582],[19.5927,40.5588],[19.6002,40.5558],[19.6135,40.5538],[19.6321,40.554],[19.6604,40.5386],[19.6672,40.5361],[19.6709,40.5359],[19.675,40.5363],[19.679,40.5359],[19.6839,40.5339],[19.6903,40.5299],[19.6953,40.5278],[19.6981,40.5273],[19.7007,40.5282],[19.7032,40.5287],[19.7073,40.5281],[19.7111,40.5261],[19.7173,40.5202],[19.7209,40.5151],[19.7224,40.5059],[19.7218,40.5011],[19.7204,40.4978],[19.7187,40.4967],[19.7176,40.4955],[19.7178,40.494],[19.7193,40.4925],[19.7342,40.4903],[19.7379,40.4885],[19.7401,40.4855],[19.7401,40.4793],[19.7386,40.4691],[19.7373,40.466],[19.7378,40.4625],[19.7407,40.4516],[19.7404,40.4467],[19.739,40.4418],[19.7373,40.438],[19.7373,40.434],[19.7393,40.4302],[19.7455,40.426],[19.7531,40.4241],[19.7631,40.4254],[19.7764,40.423],[19.7921,40.4032],[19.796,40.3953],[19.7969,40.3894],[19.7943,40.3805],[19.7882,40.3716],[19.78,40.3626],[19.7656,40.3503],[19.7586,40.3463],[19.7592,40.3431],[19.7633,40.3381],[19.7924,40.315],[19.8102,40.2954],[19.8146,40.2918],[19.8187,40.2896],[19.8306,40.2869],[19.8318,40.2858],[19.8315,40.2845],[19.8286,40.2814],[19.8206,40.2765],[19.8188,40.275],[19.8197,40.272],[19.8224,40.2676],[19.8309,40.2574],[19.8359,40.249],[19.8401,40.2366],[19.8398,40.2311],[19.838,40.2273],[19.8322,40.2229],[19.8345,40.2186],[19.8371,40.2155],[19.8701,40.1934],[19.8883,40.1592],[19.8896,40.1495],[19.8945,40.1417],[19.9088,40.1252],[19.9184,40.1075],[19.9394,40.0653],[19.9457,40.058],[19.9535,40.0544],[19.9667,40.0544],[19.9862,40.0593],[19.9925,40.0602],[19.9985,40.0598],[20.0236,40.0541],[20.0306,40.0535],[20.0413,40.0496],[20.1197,39.9898],[20.1366,39.9799],[20.1479,39.9764],[20.1536,39.9764],[20.1594,39.9735],[20.1816,39.955],[20.2,39.9439],[20.205,39.9386],[20.2114,39.9183],[20.2151,39.9106],[20.2247,39.9001],[20.2339,39.8921],[20.2382,39.8845],[20.2398,39.8677],[20.2525,39.8658],[20.2663,39.8658],[20.2735,39.8641],[20.2811,39.8603],[20.2866,39.8543],[20.2896,39.847],[20.2866,39.8225],[20.2975,39.81],[20.2995,39.8053],[20.2996,39.8051]]]}}]}