{"type":"FeatureCollection","features":[{"type":"Feature","properties":{"id":"ALD-4823","name":"Brändö","nameBn":"ব্র্যান্ডো","type":null,"bounds":[21.0593,60.449,21.0967,60.4808],"center":[21.048,60.4104]},"geometry":{"type":"Polygon","coordinates":[[[21.0886,60.4801],[21.0947,60.4756],[21.0967,60.4634],[21.0882,60.4522],[21.0784,60.449],[21.065,60.4548],[21.0593,60.4667],[21.0643,60.4744],[21.0764,60.4804],[21.0846,60.4808],[21.0886,60.4801]]]}},{"type":"Feature","properties":{"id":"ALD-4812","name":"Eckerö","nameBn":"এককেরো","type":null,"bounds":[19.5132,60.13,19.6743,60.2605],"center":[19.5905,60.2169]},"geometry":{"type":"Polygon","coordinates":[[[19.6395,60.2209],[19.6431,60.2134],[19.6605,60.2028],[19.6675,60.1968],[19.6709,60.1906],[19.6731,60.1842],[19.6743,60.1663],[19.6711,60.1581],[19.6633,60.1567],[19.6543,60.1575],[19.647,60.1558],[19.6325,60.1654],[19.6095,60.1875],[19.5916,60.1968],[19.5995,60.1799],[19.6033,60.164],[19.5996,60.1491],[19.5848,60.1353],[19.5652,60.13],[19.5446,60.1348],[19.527,60.1486],[19.5166,60.1701],[19.5139,60.1791],[19.5132,60.1838],[19.5176,60.1876],[19.5303,60.1937],[19.5373,60.2011],[19.537,60.2111],[19.5352,60.2221],[19.5371,60.2322],[19.5422,60.237],[19.5604,60.249],[19.5679,60.2551],[19.5789,60.2605],[19.5938,60.2605],[19.6084,60.2569],[19.6281,60.2466],[19.6345,60.2401],[19.6384,60.2316],[19.6395,60.2209]]]}},{"type":"Feature","properties":{"id":"ALD-4814","name":"Föglö","nameBn":"ফোগিও","type":null,"bounds":[20.2813,59.9536,20.6179,60.0736],"center":[20.3479,60.0019]},"geometry":{"type":"MultiPolygon","coordinates":[[[[20.6101,60.045],[20.6126,60.0434],[20.6179,60.0422],[20.6152,60.0411],[20.6034,60.0398],[20.6009,60.0392],[20.6082,60.036],[20.6099,60.0299],[20.6063,60.0226],[20.5964,60.0161],[20.5872,60.0081],[20.5775,60.0067],[20.5505,60.0189],[20.5462,60.0165],[20.5399,60.0095],[20.527,60.0051],[20.5119,60.0063],[20.5008,60.0127],[20.5055,60.0242],[20.5309,60.0484],[20.5449,60.0561],[20.5584,60.0576],[20.5682,60.057],[20.5762,60.0591],[20.5829,60.0591],[20.5871,60.0559],[20.5879,60.0519],[20.5911,60.0508],[20.5986,60.0527],[20.605,60.0521],[20.6087,60.0476],[20.6101,60.045]]],[[[20.4241,60.0552],[20.4489,60.0651],[20.4626,60.0668],[20.451,60.0401],[20.4321,60.0251],[20.4024,60.0213],[20.3901,60.0282],[20.4035,60.0405],[20.4241,60.0552]]],[[[20.5212,60.048],[20.5194,60.043],[20.5003,60.0364],[20.4714,60.0413],[20.4697,60.0574],[20.488,60.0624],[20.5222,60.0648],[20.5254,60.0655],[20.5164,60.067],[20.5184,60.0704],[20.5334,60.0736],[20.5418,60.071],[20.5358,60.0642],[20.5262,60.0568],[20.5212,60.048]]],[[[20.2813,59.9766],[20.3019,59.999],[20.3394,60.0201],[20.3624,60.0177],[20.3985,60.0091],[20.4367,60.005],[20.4471,59.9952],[20.3986,59.9813],[20.3671,59.982],[20.3393,59.9802],[20.3248,59.9772],[20.3224,59.9627],[20.3066,59.9536],[20.2837,59.9585],[20.2813,59.9766]]]]}},{"type":"Feature","properties":{"id":"ALD-4810","name":"Jomala","nameBn":"জোমালা","type":null,"bounds":[19.7476,60.0739,20.0505,60.1862],"center":[19.8953,60.1395]},"geometry":{"type":"Polygon","coordinates":[[[19.9103,60.1011],[19.8866,60.1012],[19.8733,60.0964],[19.8703,60.091],[19.8683,60.0855],[19.8587,60.0808],[19.8451,60.0787],[19.8317,60.0795],[19.8233,60.0843],[19.8245,60.0944],[19.807,60.0998],[19.7889,60.0963],[19.7734,60.0865],[19.763,60.0739],[19.7476,60.1014],[19.7643,60.1077],[19.7888,60.1184],[19.8117,60.1245],[19.8102,60.149],[19.8331,60.1505],[19.827,60.1704],[19.8469,60.1781],[19.8622,60.1781],[19.8943,60.1842],[19.9172,60.1842],[19.9436,60.1862],[19.9588,60.1791],[19.9873,60.173],[19.9966,60.166],[20.0039,60.1589],[20.01,60.1558],[20.0199,60.1581],[20.0275,60.1633],[20.0349,60.17],[20.0442,60.1763],[20.033,60.1444],[20.0301,60.129],[20.0305,60.1148],[20.0342,60.1114],[20.0409,60.1091],[20.0475,60.1054],[20.0505,60.0978],[20.0448,60.0875],[20.0316,60.0874],[20.0064,60.0944],[19.966,60.0911],[19.9493,60.1001],[19.9371,60.1108],[19.9103,60.1011]]]}},{"type":"Feature","properties":{"id":"ALD-4822","name":"Kumlinge","nameBn":"কুমলিংগে","type":null,"bounds":[20.6634,60.1946,20.853,60.3679],"center":[20.8067,60.2647]},"geometry":{"type":"MultiPolygon","coordinates":[[[[20.8189,60.2322],[20.7905,60.2387],[20.7811,60.2637],[20.7873,60.2863],[20.8052,60.2862],[20.8153,60.281],[20.846,60.2703],[20.853,60.2657],[20.8506,60.2536],[20.8389,60.2468],[20.824,60.2445],[20.8114,60.2452],[20.8189,60.2322]]],[[[20.6838,60.2294],[20.7059,60.2182],[20.7163,60.2093],[20.7077,60.1997],[20.6868,60.1946],[20.6707,60.1992],[20.6641,60.205],[20.6634,60.2164],[20.6685,60.2267],[20.6838,60.2294]]],[[[20.7774,60.3265],[20.74,60.3124],[20.7327,60.3144],[20.7315,60.321],[20.7318,60.3244],[20.7327,60.3327],[20.7354,60.3378],[20.7435,60.3485],[20.7469,60.3519],[20.7507,60.3549],[20.7549,60.3607],[20.7572,60.3661],[20.7643,60.3679],[20.7761,60.3664],[20.7874,60.362],[20.792,60.3528],[20.7894,60.3427],[20.7853,60.3336],[20.7774,60.3265]]]]}},{"type":"Feature","properties":{"id":"ALD-4824","name":"Kökar","nameBn":"কোকার","type":null,"bounds":[20.8621,59.9045,20.9966,59.958],"center":[20.8903,59.923]},"geometry":{"type":"MultiPolygon","coordinates":[[[[20.8753,59.9141],[20.8679,59.9179],[20.8621,59.9282],[20.8709,59.9368],[20.8845,59.9398],[20.8975,59.9401],[20.9066,59.9335],[20.9129,59.9207],[20.9202,59.9092],[20.9124,59.9045],[20.8877,59.9091],[20.8753,59.9141]]],[[[20.9836,59.9428],[20.9694,59.9438],[20.9692,59.9421],[20.9841,59.9363],[20.9912,59.9267],[20.9828,59.9215],[20.9321,59.9359],[20.9185,59.9431],[20.9133,59.9484],[20.9152,59.9494],[20.9199,59.9533],[20.9347,59.958],[20.9787,59.9521],[20.9898,59.9519],[20.9959,59.9499],[20.9966,59.945],[20.9836,59.9428]]]]}},{"type":"Feature","properties":{"id":"ALD-4818","name":"Lemland","nameBn":"লেমল্যান্ড","type":null,"bounds":[20.0253,59.9714,20.2252,60.095],"center":[20.1496,60.0449]},"geometry":{"type":"Polygon","coordinates":[[[20.0337,60.0636],[20.0682,60.0727],[20.1013,60.095],[20.13,60.0869],[20.1633,60.0878],[20.1932,60.0656],[20.2127,60.0359],[20.2225,60.0149],[20.2252,60.0055],[20.2118,59.9911],[20.1876,59.9764],[20.1751,59.9714],[20.184,59.9929],[20.1715,59.9988],[20.1518,59.9929],[20.1232,59.9889],[20.1053,59.9965],[20.1169,60.0054],[20.1213,60.0166],[20.1043,60.0282],[20.0783,60.0282],[20.0585,60.0394],[20.0253,60.0425],[20.0337,60.0636]]]}},{"type":"Feature","properties":{"id":"ALD-4819","name":"Lumparland","nameBn":"লুম্পারল্যান্ড","type":null,"bounds":[20.1983,60.0605,20.2976,60.1496],"center":[20.2285,60.1022]},"geometry":{"type":"Polygon","coordinates":[[[20.2776,60.1422],[20.2976,60.1215],[20.2852,60.1036],[20.2689,60.086],[20.2776,60.0665],[20.2663,60.0605],[20.259,60.0626],[20.2523,60.0683],[20.2428,60.0739],[20.209,60.0833],[20.2019,60.0876],[20.1983,60.1041],[20.2049,60.1203],[20.2153,60.1357],[20.2224,60.1496],[20.2446,60.1197],[20.2581,60.108],[20.2639,60.1182],[20.2533,60.1386],[20.2557,60.1454],[20.2776,60.1422]]]}},{"type":"Feature","properties":{"id":"ALD-4817","name":"Mariehamn","nameBn":"মারিহাম","type":null,"bounds":[19.9103,60.0477,19.966,60.1108],"center":[19.9417,60.0903]},"geometry":{"type":"Polygon","coordinates":[[[19.966,60.0911],[19.949,60.0839],[19.9514,60.0701],[19.9582,60.0538],[19.9485,60.0477],[19.9378,60.0504],[19.9412,60.0602],[19.924,60.0915],[19.9103,60.1011],[19.9371,60.1108],[19.9493,60.1001],[19.966,60.0911]]]}},{"type":"Feature","properties":{"id":"ALD-4821","name":"Sottunga","nameBn":"সোতুঙ্গা","type":null,"bounds":[20.6355,60.1092,20.6882,60.1514],"center":[20.6633,60.1333]},"geometry":{"type":"Polygon","coordinates":[[[20.6834,60.1305],[20.6865,60.1265],[20.6882,60.117],[20.682,60.1102],[20.6716,60.1092],[20.6558,60.1159],[20.6387,60.1313],[20.6355,60.1439],[20.6441,60.1494],[20.6536,60.1514],[20.6599,60.1497],[20.6686,60.145],[20.6795,60.1363],[20.6834,60.1305]]]}},{"type":"Feature","properties":{"id":"ALD-4820","name":"Vårdö","nameBn":"ভার্দো","type":null,"bounds":[20.3454,60.1968,20.4414,60.2697],"center":[20.4053,60.2456]},"geometry":{"type":"Polygon","coordinates":[[[20.4279,60.2657],[20.4348,60.2624],[20.439,60.2582],[20.4408,60.2526],[20.4414,60.2452],[20.3929,60.1968],[20.3809,60.1989],[20.3809,60.204],[20.3855,60.2108],[20.3862,60.2172],[20.3877,60.2219],[20.3875,60.233],[20.3827,60.2407],[20.353,60.2288],[20.3454,60.2377],[20.347,60.2529],[20.3589,60.2657],[20.3796,60.2697],[20.411,60.2595],[20.4279,60.2657]]]}}]}