{"type":"FeatureCollection","features":[{"type":"Feature","properties":{"id":"AND-4876","name":"Andorra la Vella","nameBn":"আন্দোরা লা ভেল্লা","type":null,"bounds":[1.4872,42.489,1.5564,42.5381],"center":[1.5107,42.5128]},"geometry":{"type":"Polygon","coordinates":[[[1.5564,42.5381],[1.5497,42.5299],[1.5385,42.5218],[1.5333,42.5165],[1.5273,42.5084],[1.5192,42.498],[1.5073,42.4928],[1.4991,42.489],[1.4931,42.4935],[1.4894,42.5032],[1.4887,42.5091],[1.4872,42.518],[1.5028,42.5247],[1.5177,42.5322],[1.5318,42.5344],[1.5437,42.5381],[1.5564,42.5381]]]}},{"type":"Feature","properties":{"id":"AND-4879","name":"Canillo","nameBn":"ক্যানিল্লো","type":null,"bounds":[1.5556,42.5399,1.7651,42.6219],"center":[1.6054,42.5842]},"geometry":{"type":"Polygon","coordinates":[[[1.5973,42.6219],[1.6083,42.6181],[1.722,42.6099],[1.7133,42.5895],[1.7294,42.582],[1.7527,42.5767],[1.7611,42.5676],[1.7651,42.5634],[1.74,42.5616],[1.7217,42.5485],[1.7171,42.5399],[1.7103,42.5448],[1.7006,42.5493],[1.6902,42.553],[1.6865,42.5656],[1.6828,42.5746],[1.6686,42.5701],[1.6493,42.5701],[1.6285,42.5679],[1.6047,42.5641],[1.5854,42.5641],[1.5712,42.5641],[1.5556,42.5627],[1.5578,42.5746],[1.5645,42.5842],[1.5749,42.5917],[1.5883,42.5946],[1.5987,42.5976],[1.5987,42.6065],[1.5973,42.6219]]]}},{"type":"Feature","properties":{"id":"AND-4880","name":"Encamp","nameBn":"একেম্প","type":null,"bounds":[1.5556,42.4905,1.7171,42.5746],"center":[1.6441,42.5381]},"geometry":{"type":"Polygon","coordinates":[[[1.7171,42.5399],[1.7106,42.5277],[1.707,42.5028],[1.6975,42.4945],[1.6863,42.4906],[1.6742,42.4905],[1.6624,42.4937],[1.6598,42.4968],[1.657,42.4976],[1.6538,42.5099],[1.6411,42.518],[1.6292,42.5225],[1.6084,42.524],[1.5928,42.5218],[1.5794,42.527],[1.5764,42.5359],[1.569,42.5389],[1.5564,42.5381],[1.5564,42.5522],[1.5556,42.5627],[1.5712,42.5641],[1.5854,42.5641],[1.6047,42.5641],[1.6285,42.5679],[1.6493,42.5701],[1.6686,42.5701],[1.6828,42.5746],[1.6865,42.5656],[1.6902,42.553],[1.7006,42.5493],[1.7103,42.5448],[1.7171,42.5399]]]}},{"type":"Feature","properties":{"id":"AND-4881","name":"Escaldes-Engordany","nameBn":"এস্ক্যাল্ডেস-এঙ্গোরোদ","type":null,"bounds":[1.4991,42.4531,1.657,42.5389],"center":[1.5943,42.495]},"geometry":{"type":"Polygon","coordinates":[[[1.657,42.4976],[1.654,42.4965],[1.6504,42.4934],[1.6395,42.4664],[1.6075,42.4564],[1.5727,42.4531],[1.5697,42.4652],[1.5682,42.4756],[1.5749,42.4846],[1.5645,42.4861],[1.5482,42.4846],[1.5296,42.4823],[1.5162,42.4861],[1.4991,42.489],[1.5073,42.4928],[1.5192,42.498],[1.5273,42.5084],[1.5333,42.5165],[1.5385,42.5218],[1.5497,42.5299],[1.5564,42.5381],[1.569,42.5389],[1.5764,42.5359],[1.5794,42.527],[1.5928,42.5218],[1.6084,42.524],[1.6292,42.5225],[1.6411,42.518],[1.6538,42.5099],[1.657,42.4976]]]}},{"type":"Feature","properties":{"id":"AND-4877","name":"La Massana","nameBn":"লা মাসসানা","type":null,"bounds":[1.4065,42.5041,1.5564,42.6021],"center":[1.4708,42.55]},"geometry":{"type":"Polygon","coordinates":[[[1.4293,42.5954],[1.4514,42.6021],[1.4597,42.5969],[1.4708,42.5969],[1.4812,42.5954],[1.4864,42.5902],[1.4924,42.5775],[1.5013,42.5708],[1.5154,42.5679],[1.5326,42.5649],[1.5459,42.5634],[1.5556,42.5627],[1.5564,42.5522],[1.5564,42.5381],[1.5437,42.5381],[1.5318,42.5344],[1.5177,42.5322],[1.5028,42.5247],[1.4872,42.518],[1.4731,42.5151],[1.4597,42.5099],[1.45,42.5041],[1.4466,42.5199],[1.429,42.5315],[1.4065,42.5292],[1.4098,42.5406],[1.4263,42.5618],[1.4264,42.5656],[1.418,42.5698],[1.4193,42.5793],[1.4249,42.5894],[1.4293,42.5954]]]}},{"type":"Feature","properties":{"id":"AND-4878","name":"Ordino","nameBn":"অর্ডিনো","type":null,"bounds":[1.4514,42.5627,1.5987,42.6494],"center":[1.5244,42.6036]},"geometry":{"type":"Polygon","coordinates":[[[1.5431,42.6494],[1.5973,42.6219],[1.5987,42.6065],[1.5987,42.5976],[1.5883,42.5946],[1.5749,42.5917],[1.5645,42.5842],[1.5578,42.5746],[1.5556,42.5627],[1.5459,42.5634],[1.5326,42.5649],[1.5154,42.5679],[1.5013,42.5708],[1.4924,42.5775],[1.4864,42.5902],[1.4812,42.5954],[1.4708,42.5969],[1.4597,42.5969],[1.4514,42.6021],[1.4668,42.6415],[1.4984,42.6402],[1.5278,42.6485],[1.5431,42.6494]]]}},{"type":"Feature","properties":{"id":"AND-4882","name":"Sant Julià de Lòria","nameBn":"সান্ট জুলিয়া ডে লোরিয়া","type":null,"bounds":[1.4076,42.4287,1.5749,42.518],"center":[1.4797,42.4511]},"geometry":{"type":"Polygon","coordinates":[[[1.5085,42.4287],[1.4479,42.4346],[1.4364,42.441],[1.4364,42.4535],[1.4076,42.4868],[1.4245,42.4925],[1.4302,42.4936],[1.45,42.5041],[1.4597,42.5099],[1.4731,42.5151],[1.4872,42.518],[1.4887,42.5091],[1.4894,42.5032],[1.4931,42.4935],[1.4991,42.489],[1.5162,42.4861],[1.5296,42.4823],[1.5482,42.4846],[1.5645,42.4861],[1.5749,42.4846],[1.5682,42.4756],[1.5697,42.4652],[1.5727,42.4531],[1.5444,42.4504],[1.5389,42.4457],[1.5345,42.4399],[1.5282,42.4342],[1.5166,42.4295],[1.5085,42.4287]]]}}]}