{"type":"FeatureCollection","features":[{"type":"Feature","properties":{"id":"ASM-4998","name":"Eastern","nameBn":"ইস্টার্ন","type":null,"bounds":[-170.7215,-14.3148,-170.5673,-14.2524],"center":[-170.639,-14.272]},"geometry":{"type":"Polygon","coordinates":[[[-170.7215,-14.2892],[-170.6985,-14.2605],[-170.6614,-14.2524],[-170.6201,-14.2546],[-170.591,-14.2648],[-170.5762,-14.2525],[-170.5673,-14.2586],[-170.5685,-14.2709],[-170.5842,-14.2778],[-170.6423,-14.2807],[-170.6593,-14.2853],[-170.6836,-14.3028],[-170.6926,-14.3148],[-170.7012,-14.3125],[-170.7139,-14.3144],[-170.7148,-14.3008],[-170.7215,-14.2892]]]}},{"type":"Feature","properties":{"id":"ASM-4999","name":"Manu's","nameBn":"মানু'স","type":null,"bounds":[-169.6762,-14.2717,-169.4401,-14.1689],"center":[-169.493,-14.2338]},"geometry":{"type":"MultiPolygon","coordinates":[[[[-169.4639,-14.2232],[-169.444,-14.2306],[-169.4401,-14.2453],[-169.4471,-14.2556],[-169.4602,-14.2504],[-169.4681,-14.2587],[-169.4762,-14.2624],[-169.485,-14.262],[-169.4949,-14.2573],[-169.4984,-14.266],[-169.5043,-14.2706],[-169.5125,-14.2717],[-169.5228,-14.2709],[-169.5255,-14.259],[-169.5293,-14.2488],[-169.5348,-14.2411],[-169.5427,-14.2367],[-169.5275,-14.226],[-169.5065,-14.2223],[-169.4639,-14.2232]]],[[[-169.6762,-14.1749],[-169.6682,-14.1691],[-169.6582,-14.1689],[-169.6472,-14.1721],[-169.6356,-14.177],[-169.6601,-14.1891],[-169.6697,-14.1879],[-169.6762,-14.1749]]]]}},{"type":"Feature","properties":{"id":"ASM-5000","name":"Rose Atoll","nameBn":"রোজ এটল","type":null,"bounds":[-168.1731,-14.5329,-168.1605,-14.5198],"center":[-168.166,-14.525]},"geometry":{"type":"Polygon","coordinates":[[[-168.1616,-14.5329],[-168.1731,-14.5237],[-168.1635,-14.5198],[-168.1605,-14.5209],[-168.1616,-14.5329]]]}},{"type":"Feature","properties":{"id":"ASM-5001","name":"Swain's Island","nameBn":"সোয়াইন দ্বীপ","type":null,"bounds":[-171.0865,-11.0661,-171.0728,-11.0514],"center":[-171.08,-11.0577]},"geometry":{"type":"Polygon","coordinates":[[[-171.0728,-11.0525],[-171.0735,-11.0621],[-171.0815,-11.0661],[-171.0865,-11.0603],[-171.0856,-11.0514],[-171.0728,-11.0525]]]}},{"type":"Feature","properties":{"id":"ASM-5002","name":"Western","nameBn":"পশ্চিমা","type":null,"bounds":[-170.8312,-14.3747,-170.6926,-14.2892],"center":[-170.768,-14.3241]},"geometry":{"type":"Polygon","coordinates":[[[-170.6926,-14.3148],[-170.7218,-14.3534],[-170.7486,-14.3747],[-170.7555,-14.3671],[-170.7965,-14.3399],[-170.8228,-14.3268],[-170.8312,-14.3194],[-170.7886,-14.2945],[-170.7726,-14.2914],[-170.7379,-14.2921],[-170.7215,-14.2892],[-170.7148,-14.3008],[-170.7139,-14.3144],[-170.7012,-14.3125],[-170.6926,-14.3148]]]}}]}