{"type":"FeatureCollection","features":[{"type":"Feature","properties":{"id":"ATF-5917","name":"Archipel des Crozet","nameBn":"আর্কিপেল দে ক্রোজেট","type":null,"bounds":[50.1755,-46.4513,51.8682,-46.0437],"center":[51.7536,-46.3974]},"geometry":{"type":"MultiPolygon","coordinates":[[[[51.8342,-46.3766],[51.8446,-46.3827],[51.8528,-46.3906],[51.8682,-46.4103],[51.8235,-46.4513],[51.7887,-46.4459],[51.7721,-46.4452],[51.7583,-46.4513],[51.7285,-46.4474],[51.7056,-46.4376],[51.6868,-46.4225],[51.6696,-46.404],[51.6565,-46.3784],[51.6675,-46.3635],[51.736,-46.3274],[51.7595,-46.3294],[51.7781,-46.3429],[51.7857,-46.3661],[51.793,-46.3723],[51.8091,-46.3753],[51.8342,-46.3766]]],[[[50.1755,-46.0647],[50.1897,-46.0568],[50.2681,-46.0437],[50.2814,-46.058],[50.2931,-46.0763],[50.2983,-46.0964],[50.2922,-46.116],[50.2777,-46.127],[50.2608,-46.1271],[50.2233,-46.116],[50.2012,-46.1135],[50.1864,-46.1032],[50.1781,-46.0866],[50.1755,-46.0647]]]]}},{"type":"Feature","properties":{"id":"ATF-5916","name":"Archipel des Kerguelen","nameBn":"আর্কিপেল দে কেরগুয়েলেন","type":null,"bounds":[68.6101,-49.7216,70.5685,-48.5667],"center":[69.2725,-49.3179]},"geometry":{"type":"MultiPolygon","coordinates":[[[[69.9456,-49.5422],[69.9285,-49.5413],[69.9168,-49.5363],[69.9056,-49.529],[69.8911,-49.5217],[69.8753,-49.5178],[69.8478,-49.5143],[69.8358,-49.508],[69.8358,-49.5012],[69.8796,-49.4924],[69.9206,-49.497],[69.973,-49.5353],[70.0046,-49.5514],[70.0161,-49.5642],[70.0071,-49.5763],[69.993,-49.5746],[69.9456,-49.5422]]],[[[68.7951,-49.3435],[68.7861,-49.357],[68.7732,-49.3637],[68.7573,-49.3635],[68.7398,-49.3566],[68.6892,-49.3566],[68.6655,-49.3525],[68.6434,-49.3435],[68.6628,-49.3224],[68.6736,-49.3168],[68.6913,-49.3156],[68.7088,-49.3185],[68.7419,-49.3287],[68.7595,-49.3298],[68.7914,-49.3237],[68.7983,-49.3273],[68.7951,-49.3435]]],[[[69.5895,-49.1996],[69.575,-49.2044],[69.5602,-49.2062],[69.5462,-49.2029],[69.5342,-49.1928],[69.6416,-49.1541],[69.6781,-49.1518],[69.6781,-49.1586],[69.6554,-49.1689],[69.6418,-49.1917],[69.624,-49.2083],[69.5895,-49.1996]]],[[[69.1921,-48.9866],[69.1987,-48.9758],[69.209,-48.9687],[69.2201,-48.9628],[69.2293,-48.956],[69.2639,-48.9218],[69.2848,-48.906],[69.3128,-48.8925],[69.3429,-48.8842],[69.3704,-48.8842],[69.3589,-48.9054],[69.3276,-48.9239],[69.3151,-48.9389],[69.3978,-48.9285],[69.4113,-48.9286],[69.4063,-48.9431],[69.3943,-48.9588],[69.3806,-48.9723],[69.3704,-48.9806],[69.3352,-48.998],[69.3218,-49.0103],[69.3254,-49.0248],[69.3348,-49.0436],[69.322,-49.0536],[69.2998,-49.0603],[69.3113,-49.0694],[69.2225,-49.0943],[69.2058,-49.0866],[69.2058,-49.0351],[69.2029,-49.0219],[69.1936,-48.9937],[69.1921,-48.9866]]],[[[69.2263,-48.857],[69.231,-48.8779],[69.242,-48.8767],[69.2468,-48.8808],[69.2439,-48.8901],[69.2367,-48.8946],[69.2277,-48.8984],[69.2189,-48.9047],[69.2093,-48.9189],[69.1946,-48.9482],[69.1779,-48.9692],[69.1662,-48.9783],[69.1536,-48.9832],[69.1438,-48.9806],[69.1371,-48.9711],[69.1399,-48.9682],[69.1516,-48.9334],[69.1506,-48.9321],[69.1628,-48.9065],[69.1808,-48.881],[69.2028,-48.8622],[69.2263,-48.857]]],[[[69.466,-48.8842],[69.4466,-48.8762],[69.4284,-48.8644],[69.4136,-48.8488],[69.4045,-48.829],[69.4377,-48.8293],[69.486,-48.8556],[69.5199,-48.857],[69.5122,-48.87],[69.4995,-48.8784],[69.4837,-48.8827],[69.466,-48.8842]]],[[[70.5488,-49.1832],[70.5685,-49.2194],[70.556,-49.2669],[70.5237,-49.3075],[70.4639,-49.3566],[70.3918,-49.3487],[70.3594,-49.3381],[70.3359,-49.3518],[70.3313,-49.3691],[70.3115,-49.3785],[70.3938,-49.4041],[70.4665,-49.4391],[70.3757,-49.4304],[70.2883,-49.4391],[70.2434,-49.36],[70.1399,-49.3388],[70.1013,-49.3476],[70.0628,-49.3585],[70.0164,-49.36],[69.97,-49.3532],[69.8954,-49.3415],[69.8223,-49.3498],[69.8748,-49.3671],[69.9253,-49.3913],[69.9129,-49.3957],[69.9004,-49.4001],[69.9225,-49.4166],[69.9456,-49.4323],[69.9214,-49.4389],[69.8984,-49.4431],[69.8689,-49.4218],[69.8407,-49.3972],[69.8154,-49.3915],[69.7949,-49.4045],[69.7974,-49.4213],[69.8154,-49.4534],[69.7562,-49.423],[69.6919,-49.4045],[69.7145,-49.4277],[69.7442,-49.442],[69.766,-49.4566],[69.7741,-49.4716],[69.7886,-49.4789],[69.8018,-49.4876],[69.8054,-49.5114],[69.8138,-49.5325],[69.8928,-49.5602],[69.9777,-49.5706],[70.057,-49.5947],[70.137,-49.6179],[70.0653,-49.5735],[70.0491,-49.5204],[70.0926,-49.5104],[70.1384,-49.5056],[70.18,-49.5134],[70.22,-49.526],[70.2959,-49.5304],[70.324,-49.5745],[70.2567,-49.6148],[70.1648,-49.6179],[70.2284,-49.6303],[70.2761,-49.6541],[70.2443,-49.6855],[70.1924,-49.6848],[70.1537,-49.6926],[70.1232,-49.7136],[70.068,-49.715],[70.0127,-49.6989],[69.9287,-49.7016],[69.8556,-49.6791],[69.8206,-49.6408],[69.7879,-49.6037],[69.783,-49.5616],[69.7786,-49.5203],[69.7385,-49.4988],[69.6919,-49.5012],[69.7072,-49.5153],[69.7056,-49.5353],[69.6731,-49.5126],[69.6372,-49.5046],[69.6721,-49.5445],[69.715,-49.5817],[69.7124,-49.637],[69.6639,-49.665],[69.6268,-49.6568],[69.5923,-49.644],[69.5309,-49.6408],[69.4697,-49.6314],[69.419,-49.6017],[69.3734,-49.5661],[69.3259,-49.5632],[69.281,-49.5627],[69.2581,-49.5221],[69.2274,-49.4885],[69.2036,-49.4963],[69.2122,-49.5173],[69.2053,-49.5195],[69.1984,-49.5217],[69.2181,-49.5457],[69.2319,-49.573],[69.1841,-49.5554],[69.1438,-49.5143],[69.1558,-49.5418],[69.1672,-49.5696],[69.178,-49.5838],[69.1538,-49.5988],[69.1506,-49.6241],[69.1145,-49.6031],[69.1058,-49.5603],[69.0855,-49.5403],[69.0723,-49.5817],[69.104,-49.6443],[69.0666,-49.691],[69.0256,-49.7099],[68.9819,-49.7216],[68.971,-49.7174],[68.9629,-49.7127],[68.947,-49.7138],[68.9282,-49.7154],[68.8796,-49.7165],[68.8317,-49.7172],[68.791,-49.7101],[68.7645,-49.675],[68.7656,-49.6511],[68.7766,-49.6305],[68.7782,-49.5925],[68.7988,-49.5647],[68.8239,-49.5351],[68.8428,-49.508],[68.8224,-49.4845],[68.8652,-49.4623],[68.9017,-49.4311],[68.8753,-49.3969],[68.8692,-49.3679],[68.8469,-49.3634],[68.8065,-49.3658],[68.8572,-49.3283],[68.9241,-49.3224],[68.9207,-49.3053],[68.9241,-49.2883],[68.8919,-49.2965],[68.8361,-49.3034],[68.8148,-49.2814],[68.832,-49.2766],[68.8496,-49.2747],[68.7928,-49.2481],[68.7738,-49.2057],[68.7643,-49.1889],[68.7704,-49.1757],[68.786,-49.1901],[68.8086,-49.2057],[68.8578,-49.1738],[68.9309,-49.145],[68.8543,-49.149],[68.8011,-49.1313],[68.824,-49.1179],[68.8496,-49.1108],[68.8106,-49.1104],[68.772,-49.1108],[68.7762,-49.0969],[68.7806,-49.0829],[68.7488,-49.0768],[68.7555,-49.0476],[68.7947,-49.0408],[68.8274,-49.0541],[68.813,-49.0167],[68.8132,-48.9651],[68.8606,-48.9658],[68.9031,-48.9747],[68.8787,-48.9446],[68.8504,-48.9164],[68.8229,-48.8891],[68.7981,-48.8645],[68.7918,-48.8463],[68.8153,-48.838],[68.8557,-48.8217],[68.8968,-48.8228],[68.8981,-48.8014],[68.903,-48.7813],[68.9313,-48.7662],[68.9347,-48.7364],[68.9207,-48.7228],[68.9383,-48.6987],[68.9568,-48.6715],[69.0156,-48.6546],[69.0755,-48.6584],[69.0607,-48.6711],[69.0823,-48.6925],[69.0755,-48.713],[69.1165,-48.7267],[68.9829,-48.7985],[68.9082,-48.894],[68.9231,-48.884],[68.9373,-48.8733],[68.9605,-48.8687],[68.9861,-48.8774],[68.9736,-48.8434],[69.0075,-48.8328],[69.0203,-48.857],[69.0742,-48.7905],[69.1506,-48.7546],[69.1743,-48.7566],[69.1888,-48.773],[69.1536,-48.7926],[69.1091,-48.8085],[69.1366,-48.8315],[69.1643,-48.8085],[69.1637,-48.8461],[69.1307,-48.8808],[69.0806,-48.9064],[69.0545,-48.9464],[69.0823,-48.9312],[69.1115,-48.9191],[69.0838,-48.9734],[69.0222,-49.0102],[69.0075,-49.0475],[68.9998,-49.0904],[69.0344,-49.1004],[69.0681,-49.1108],[69.0569,-49.0392],[69.1057,-48.9934],[69.1437,-49.0084],[69.1691,-49.0436],[69.1737,-49.0795],[69.1785,-49.1106],[69.2145,-49.1213],[69.2466,-49.1096],[69.3521,-49.081],[69.438,-49.0146],[69.4509,-49.0299],[69.4574,-49.0485],[69.4487,-49.0689],[69.4377,-49.0789],[69.4525,-49.089],[69.4715,-49.0812],[69.5213,-48.9954],[69.5895,-48.9526],[69.5891,-48.9798],[69.5979,-49.006],[69.6161,-49.0146],[69.582,-49.0283],[69.5682,-49.0488],[69.618,-49.0479],[69.6577,-49.0624],[69.6261,-49.0758],[69.582,-49.0904],[69.6441,-49.1003],[69.6441,-49.1244],[69.5872,-49.1334],[69.5308,-49.1381],[69.508,-49.131],[69.4849,-49.1242],[69.3999,-49.1137],[69.3399,-49.1503],[69.3123,-49.1669],[69.2825,-49.1843],[69.297,-49.1952],[69.3241,-49.1843],[69.3518,-49.1708],[69.4199,-49.1369],[69.4722,-49.1518],[69.4273,-49.1692],[69.381,-49.1825],[69.4455,-49.1962],[69.4378,-49.2151],[69.4722,-49.22],[69.4959,-49.2397],[69.5342,-49.2399],[69.5342,-49.2437],[69.5342,-49.2473],[69.4719,-49.2538],[69.4113,-49.2747],[69.4961,-49.2698],[69.5808,-49.2648],[69.6565,-49.254],[69.7259,-49.2473],[69.6638,-49.2843],[69.582,-49.302],[69.6489,-49.3089],[69.7122,-49.3068],[69.751,-49.2813],[69.7879,-49.2542],[69.7923,-49.2722],[69.8018,-49.2883],[69.8294,-49.2587],[69.8608,-49.2404],[69.8574,-49.2232],[69.8538,-49.2091],[69.8753,-49.2045],[69.8978,-49.2057],[69.8975,-49.1874],[69.9181,-49.1803],[69.9413,-49.1749],[69.9557,-49.1594],[69.9929,-49.1471],[70.0317,-49.1347],[70.09,-49.121],[70.1511,-49.1381],[70.1473,-49.149],[70.1431,-49.1594],[70.194,-49.1569],[70.2352,-49.1324],[70.273,-49.0764],[70.3359,-49.054],[70.4082,-49.0563],[70.4771,-49.0733],[70.522,-49.0959],[70.5286,-49.145],[70.5488,-49.1832]]],[[[68.6707,-48.6242],[68.6815,-48.6364],[68.668,-48.6453],[68.6441,-48.6486],[68.6231,-48.6441],[68.6101,-48.6376],[68.626,-48.6298],[68.6524,-48.6242],[68.6707,-48.6242]]],[[[68.8086,-48.6037],[68.79,-48.6159],[68.78,-48.6048],[68.781,-48.5846],[68.7951,-48.569],[68.8186,-48.5667],[68.8308,-48.5774],[68.8286,-48.5927],[68.8086,-48.6037]]]]}},{"type":"Feature","properties":{"id":"ATF-5919","name":"Iles Eparses de l'ocean Indien","nameBn":"ইলেস এপারসেস দে ই'ওশান ইন্দিয়েন","type":null,"bounds":[39.6939,-22.3655,54.5213,-11.5506],"center":[42.7449,-17.0638]},"geometry":{"type":"MultiPolygon","coordinates":[[[[42.7518,-17.0761],[42.7244,-17.0636],[42.7381,-17.0573],[42.7588,-17.0606],[42.7518,-17.0761]]],[[[40.3797,-22.3239],[40.3792,-22.3149],[40.3855,-22.3178],[40.386,-22.3395],[40.3687,-22.3626],[40.3489,-22.3655],[40.3391,-22.3596],[40.3318,-22.3481],[40.3296,-22.3312],[40.3364,-22.3205],[40.348,-22.3171],[40.3587,-22.316],[40.3643,-22.3189],[40.3672,-22.3297],[40.3635,-22.3349],[40.3586,-22.3386],[40.3552,-22.345],[40.3611,-22.3508],[40.374,-22.3497],[40.3817,-22.339],[40.3797,-22.3239]]],[[[39.6939,-21.4994],[39.6939,-21.4952],[39.6974,-21.498],[39.6939,-21.4994]]],[[[39.7338,-21.4483],[39.7345,-21.4461],[39.7362,-21.4482],[39.7338,-21.4483]]],[[[39.7283,-21.4446],[39.7291,-21.4419],[39.7311,-21.4442],[39.7283,-21.4446]]],[[[54.5145,-15.8896],[54.5209,-15.8852],[54.5213,-15.8941],[54.5145,-15.8896]]],[[[47.2879,-11.5655],[47.2996,-11.5506],[47.3064,-11.5699],[47.2879,-11.5655]]]]}},{"type":"Feature","properties":{"id":"ATF-5918","name":"Iles Saint-Paul et Nouvelle-Amsterdam","nameBn":"ইলেস সেন্ট-পল এত নোভেল-আমস্টার্ডাম","type":null,"bounds":[77.4876,-38.7385,77.5852,-37.8202],"center":[77.5353,-37.861]},"geometry":{"type":"MultiPolygon","coordinates":[[[[77.5038,-37.8235],[77.544,-37.8202],[77.5747,-37.8435],[77.5852,-37.8742],[77.5653,-37.8932],[77.5366,-37.9011],[77.5046,-37.8824],[77.4876,-37.8517],[77.5038,-37.8235]]],[[[77.5329,-38.7092],[77.5453,-38.7234],[77.5493,-38.7311],[77.5447,-38.7375],[77.5361,-38.7385],[77.5164,-38.7354],[77.5125,-38.7299],[77.5065,-38.7131],[77.5109,-38.7057],[77.5191,-38.7024],[77.5275,-38.7057],[77.5329,-38.7092]]]]}}]}