{"type":"FeatureCollection","features":[{"type":"Feature","properties":{"id":"AUT-2322","name":"Burgenland","nameBn":"বুর্গেনলান্ড","type":"State","bounds":[16.003,46.8369,17.1483,48.1127],"center":[16.3584,47.4281]},"geometry":{"type":"Polygon","coordinates":[[[17.1483,48.0054],[17.0856,47.9701],[17.0961,47.9619],[17.0957,47.9557],[17.0909,47.9495],[17.0881,47.9409],[17.0861,47.9392],[17.0768,47.935],[17.0741,47.9321],[17.0752,47.9278],[17.0801,47.9258],[17.0854,47.9246],[17.0875,47.9226],[17.0833,47.9048],[17.0775,47.8917],[17.0676,47.8816],[17.0512,47.8729],[17.0166,47.8677],[17.0041,47.8633],[17.0044,47.8524],[17.0107,47.8479],[17.0317,47.8413],[17.0395,47.8374],[17.0491,47.8187],[17.0556,47.8124],[17.0406,47.8011],[17.042,47.7839],[17.0487,47.7636],[17.0506,47.731],[17.0555,47.7209],[17.064,47.7133],[17.0754,47.7085],[17.0548,47.702],[16.9819,47.6954],[16.9027,47.682],[16.8647,47.6867],[16.8502,47.7129],[16.8369,47.7054],[16.8173,47.6842],[16.8062,47.6769],[16.7975,47.6755],[16.7411,47.6815],[16.7304,47.6859],[16.7192,47.6937],[16.7168,47.697],[16.7116,47.7041],[16.7078,47.7146],[16.7025,47.7236],[16.6899,47.7296],[16.6098,47.7506],[16.5678,47.7542],[16.5311,47.743],[16.5251,47.7333],[16.5269,47.7201],[16.5214,47.7115],[16.5129,47.706],[16.473,47.6918],[16.4611,47.6845],[16.4545,47.6818],[16.4499,47.6824],[16.4449,47.6855],[16.4391,47.6905],[16.4318,47.6855],[16.4166,47.6688],[16.4078,47.6613],[16.4259,47.6543],[16.4819,47.639],[16.5096,47.6431],[16.5578,47.6298],[16.5755,47.6249],[16.6084,47.6288],[16.6302,47.622],[16.6477,47.6061],[16.6562,47.5859],[16.6506,47.5666],[16.6675,47.5601],[16.6814,47.5506],[16.6891,47.538],[16.688,47.5226],[16.6774,47.5099],[16.6482,47.5015],[16.6368,47.4932],[16.6409,47.4529],[16.627,47.4455],[16.5894,47.4256],[16.4819,47.3923],[16.4699,47.4055],[16.4566,47.4118],[16.4441,47.4095],[16.434,47.3969],[16.4364,47.3585],[16.4343,47.3556],[16.4293,47.3538],[16.425,47.3511],[16.4244,47.3452],[16.4271,47.3414],[16.4317,47.3397],[16.4361,47.3386],[16.4388,47.3366],[16.4692,47.2932],[16.4732,47.2768],[16.4666,47.2634],[16.4525,47.2546],[16.4214,47.2431],[16.4214,47.243],[16.4247,47.2256],[16.4093,47.2037],[16.4128,47.1872],[16.4188,47.1837],[16.4267,47.1841],[16.4351,47.1836],[16.4418,47.1771],[16.4421,47.1683],[16.434,47.1513],[16.4337,47.1458],[16.4471,47.1397],[16.4809,47.1508],[16.4973,47.1497],[16.5095,47.1375],[16.5048,47.1258],[16.4819,47.1052],[16.4608,47.0963],[16.4543,47.0817],[16.4618,47.0685],[16.4819,47.0639],[16.4937,47.0598],[16.4972,47.0546],[16.4932,47.0491],[16.4819,47.0442],[16.4372,47.0318],[16.4247,47.0241],[16.4533,47.0217],[16.4676,47.0184],[16.4819,47.0094],[16.4864,46.9986],[16.4674,46.9954],[16.4414,46.9952],[16.4248,46.9931],[16.4248,46.993],[16.4204,46.9903],[16.4156,46.9894],[16.4104,46.9904],[16.405,46.9932],[16.3878,47.002],[16.3666,47.0038],[16.3259,47.0004],[16.2885,47.0056],[16.2749,47.0043],[16.2654,46.9933],[16.2611,46.9781],[16.253,46.9735],[16.2431,46.972],[16.2329,46.9661],[16.2304,46.96],[16.2312,46.9544],[16.2307,46.9483],[16.2239,46.9411],[16.217,46.9374],[16.1961,46.9313],[16.1707,46.9185],[16.1591,46.9103],[16.1229,46.8764],[16.1101,46.8679],[16.094,46.8628],[16.0529,46.8461],[16.032,46.8376],[16.0284,46.8369],[16.0284,46.8374],[16.0281,46.8415],[16.0267,46.8525],[16.025,46.8549],[16.021,46.8591],[16.0086,46.8659],[16.0037,46.8707],[16.003,46.8769],[16.0073,46.8936],[16.0081,46.9038],[16.0115,46.9133],[16.0186,46.9228],[16.0545,46.9442],[16.1029,46.9882],[16.1291,47.0143],[16.1363,47.0249],[16.1373,47.0317],[16.1347,47.0402],[16.0984,47.0716],[16.0895,47.0829],[16.0855,47.0969],[16.0844,47.1069],[16.095,47.1381],[16.095,47.1651],[16.0675,47.2376],[16.0661,47.2532],[16.0584,47.2911],[16.0489,47.319],[16.0377,47.3438],[16.02,47.3724],[16.0186,47.381],[16.0221,47.3894],[16.0372,47.4036],[16.0475,47.4106],[16.0596,47.4116],[16.065,47.406],[16.0681,47.3993],[16.0717,47.3949],[16.0902,47.4019],[16.1479,47.443],[16.2054,47.4423],[16.2309,47.4455],[16.2559,47.4547],[16.2722,47.4634],[16.3245,47.5013],[16.3262,47.5114],[16.3268,47.5236],[16.3212,47.5355],[16.3181,47.5498],[16.3212,47.5717],[16.3269,47.5831],[16.3366,47.5952],[16.3429,47.6016],[16.3758,47.6449],[16.3464,47.6757],[16.3125,47.7025],[16.2972,47.7202],[16.2893,47.7325],[16.2897,47.7936],[16.3242,47.7964],[16.3359,47.8029],[16.3482,47.8124],[16.3541,47.8214],[16.358,47.833],[16.36,47.8718],[16.3752,47.8914],[16.3909,47.9029],[16.4393,47.9281],[16.468,47.9338],[16.5031,47.9353],[16.5732,47.9198],[16.6123,47.9332],[16.6317,47.9465],[16.6663,47.9629],[16.6803,47.9715],[16.6904,47.984],[16.7045,48.0092],[16.7291,48.0229],[16.7504,48.0295],[16.7621,48.031],[16.7738,48.0298],[16.8161,48.0433],[16.8566,48.0632],[16.8797,48.0705],[16.9002,48.0721],[16.9158,48.0674],[16.9464,48.0513],[16.9623,48.0458],[16.9743,48.0508],[16.9815,48.0601],[16.9829,48.0682],[16.9798,48.0759],[16.9792,48.083],[16.983,48.0978],[16.9962,48.1071],[17.0035,48.1091],[17.0141,48.1056],[17.0226,48.1017],[17.0344,48.1],[17.0431,48.1016],[17.05,48.104],[17.0625,48.1127],[17.0672,48.1069],[17.0802,48.0976],[17.07,48.0892],[17.0648,48.079],[17.0591,48.0604],[17.0631,48.0588],[17.0751,48.0521],[17.0697,48.0357],[17.0926,48.0273],[17.125,48.0195],[17.1483,48.0054]]]}},{"type":"Feature","properties":{"id":"AUT-2325","name":"Kärnten","nameBn":"কের্ন্টেন","type":"State","bounds":[12.6338,46.3786,15.1056,47.1365],"center":[13.8695,46.7201]},"geometry":{"type":"Polygon","coordinates":[[[12.7066,46.6377],[12.6974,46.6405],[12.6792,46.65],[12.6714,46.6525],[12.6715,46.6527],[12.6759,46.6604],[12.7091,46.7052],[12.7166,46.7196],[12.7211,46.7315],[12.7243,46.7489],[12.7456,46.7562],[12.8348,46.7654],[12.8752,46.7775],[12.8868,46.7785],[12.8973,46.7759],[12.933,46.7575],[12.9411,46.7565],[12.9447,46.7571],[12.9478,46.7592],[12.9496,46.7618],[12.9506,46.764],[12.9512,46.7674],[12.9453,46.7752],[12.8852,46.8325],[12.8393,46.8661],[12.8288,46.876],[12.8219,46.8918],[12.8196,46.9052],[12.8148,46.9189],[12.8069,46.9294],[12.7944,46.9387],[12.7842,46.9438],[12.7641,46.9567],[12.7555,46.968],[12.7457,46.9769],[12.7389,46.9855],[12.7356,46.9952],[12.7349,46.9999],[12.735,47.0042],[12.7364,47.0113],[12.739,47.0188],[12.7515,47.0397],[12.7527,47.0502],[12.7443,47.058],[12.6581,47.0776],[12.6449,47.085],[12.6368,47.0928],[12.6338,47.112],[12.6469,47.1176],[12.6505,47.1201],[12.6539,47.1235],[12.6551,47.1262],[12.6559,47.1296],[12.6573,47.1321],[12.6604,47.1348],[12.665,47.1365],[12.6742,47.1359],[12.6871,47.1321],[12.7266,47.1147],[12.7724,47.0993],[12.8339,47.0889],[12.866,47.0866],[12.9144,47.076],[12.9942,47.0408],[13.0108,47.0345],[13.0295,47.031],[13.0595,47.0288],[13.1346,47.0317],[13.1735,47.0375],[13.2261,47.0549],[13.2492,47.0673],[13.2743,47.0838],[13.2896,47.0864],[13.3082,47.0872],[13.3475,47.079],[13.4397,47.0625],[13.4614,47.0614],[13.5618,47.0466],[13.6062,47.0442],[13.6318,47.0387],[13.6672,47.0261],[13.7531,46.9806],[13.7823,46.9542],[13.8208,46.9323],[13.8347,46.9255],[13.8439,46.9227],[13.8622,46.9241],[13.8799,46.9278],[13.9415,46.9606],[13.9789,46.973],[13.994,46.9908],[13.9985,46.998],[14.0026,47.0028],[14.0113,47.0096],[14.0267,47.0175],[14.1359,47.0535],[14.1653,47.0571],[14.2006,47.0567],[14.2264,47.0487],[14.2668,47.0292],[14.338,47.0139],[14.3552,47.0083],[14.3654,47.0027],[14.3679,46.9999],[14.3766,46.9987],[14.3946,46.9982],[14.4966,47.023],[14.5237,47.0214],[14.589,47.0244],[14.616,47.0168],[14.7391,47.0233],[14.8499,47.0413],[14.8652,47.0396],[14.8755,47.0351],[14.8902,47.0268],[14.9296,46.9936],[15.0083,46.9112],[15.0063,46.8813],[15.0004,46.869],[14.9938,46.86],[14.9884,46.8479],[14.9869,46.8422],[14.9887,46.8333],[14.9937,46.8201],[15.0086,46.7958],[15.0203,46.7606],[15.0226,46.7272],[15.0347,46.7033],[15.097,46.654],[15.1052,46.6467],[15.1056,46.6463],[15.0857,46.6478],[15.062,46.6496],[15.0044,46.6368],[14.9672,46.6003],[14.948,46.6193],[14.9336,46.6211],[14.9195,46.615],[14.8977,46.6056],[14.8941,46.6052],[14.8771,46.6036],[14.863,46.6048],[14.8504,46.6011],[14.8336,46.5844],[14.8223,46.5675],[14.8145,46.5513],[14.8072,46.536],[14.7967,46.5194],[14.7886,46.5066],[14.783,46.5033],[14.7609,46.4963],[14.7353,46.4933],[14.7264,46.4977],[14.7097,46.4925],[14.7037,46.4878],[14.6988,46.481],[14.6871,46.4712],[14.68,46.4589],[14.6725,46.4598],[14.6666,46.4605],[14.6621,46.4597],[14.642,46.4452],[14.6317,46.4406],[14.6216,46.4385],[14.5999,46.4372],[14.5901,46.4344],[14.5754,46.4197],[14.567,46.4004],[14.5621,46.3917],[14.5577,46.3839],[14.5403,46.3786],[14.5271,46.3882],[14.5158,46.4054],[14.5022,46.4184],[14.4677,46.4127],[14.4509,46.4145],[14.4371,46.4189],[14.42,46.4244],[14.4144,46.429],[14.4112,46.4346],[14.4065,46.4393],[14.3958,46.441],[14.3622,46.4359],[14.2423,46.4382],[14.1499,46.4401],[14.1479,46.4404],[14.1373,46.4424],[14.081,46.4759],[14.0664,46.481],[14.05,46.4844],[14.0325,46.4847],[14.0149,46.4825],[13.9988,46.4805],[13.9823,46.4819],[13.8909,46.5118],[13.8607,46.5153],[13.7958,46.5079],[13.7821,46.5078],[13.7161,46.5189],[13.701,46.5197],[13.6853,46.5176],[13.6703,46.5187],[13.5492,46.5458],[13.5068,46.5469],[13.4991,46.5506],[13.4849,46.5617],[13.478,46.5636],[13.417,46.5605],[13.3733,46.5658],[13.2714,46.5508],[13.2311,46.5522],[13.21,46.558],[13.1465,46.585],[13.0645,46.598],[12.8304,46.6096],[12.7736,46.6352],[12.7485,46.641],[12.7399,46.643],[12.732,46.6423],[12.716,46.638],[12.7066,46.6377]]]}},{"type":"Feature","properties":{"id":"AUT-2330","name":"Niederösterreich","nameBn":"নিম্ন অস্ট্রিয়া","type":"State","bounds":[14.4272,47.4423,17.0625,49.0098],"center":[15.7448,48.2477]},"geometry":{"type":"Polygon","coordinates":[[[15.004,49.0098],[15.0596,48.9972],[15.1374,48.993],[15.1447,48.9789],[15.149,48.9653],[15.1486,48.9517],[15.1419,48.9375],[15.1618,48.9372],[15.2381,48.9508],[15.2432,48.9529],[15.2571,48.9639],[15.2604,48.9692],[15.2629,48.9826],[15.2669,48.9867],[15.2745,48.9867],[15.2796,48.9826],[15.2837,48.9776],[15.2887,48.9754],[15.3355,48.975],[15.3579,48.9708],[15.4059,48.9547],[15.4504,48.9448],[15.4719,48.9367],[15.5213,48.9085],[15.5442,48.9026],[15.6037,48.8874],[15.6813,48.8585],[15.7038,48.855],[15.7268,48.855],[15.7437,48.8585],[15.7792,48.8709],[15.7879,48.8723],[15.8185,48.8723],[15.8243,48.8694],[15.8283,48.8571],[15.8333,48.852],[15.8401,48.8501],[15.8592,48.8492],[15.8702,48.8439],[15.8776,48.8417],[15.886,48.842],[15.8758,48.8331],[15.8884,48.8351],[15.8996,48.8347],[15.9071,48.8303],[15.9081,48.8197],[15.9251,48.8226],[15.9303,48.8183],[15.9303,48.8114],[15.9318,48.8064],[16.0323,48.7581],[16.0854,48.7429],[16.1778,48.7465],[16.3176,48.7328],[16.3187,48.7335],[16.3395,48.7356],[16.3527,48.7284],[16.3583,48.7273],[16.374,48.7303],[16.385,48.7371],[16.4357,48.7945],[16.4531,48.8022],[16.4819,48.7994],[16.4923,48.7997],[16.5103,48.8048],[16.5195,48.8056],[16.5287,48.8035],[16.5458,48.7963],[16.6055,48.7848],[16.624,48.7834],[16.6431,48.7783],[16.651,48.7662],[16.6547,48.7519],[16.662,48.74],[16.6751,48.7339],[16.691,48.7321],[16.729,48.7331],[16.7443,48.7296],[16.7805,48.7138],[16.7989,48.7092],[16.8181,48.7108],[16.8566,48.7198],[16.873,48.719],[16.8967,48.697],[16.9105,48.6308],[16.945,48.6042],[16.9543,48.5574],[16.9491,48.5448],[16.9469,48.5397],[16.9305,48.5282],[16.9139,48.5193],[16.9065,48.5099],[16.9012,48.4966],[16.8751,48.4715],[16.8649,48.4581],[16.8608,48.4438],[16.8519,48.3904],[16.8493,48.3841],[16.8469,48.3811],[16.8451,48.3766],[16.8445,48.3656],[16.8476,48.3596],[16.8553,48.3565],[16.8755,48.355],[16.8812,48.3528],[16.8917,48.347],[16.9019,48.3394],[16.9065,48.3315],[16.9042,48.327],[16.9003,48.3212],[16.8984,48.3162],[16.9028,48.3141],[16.9055,48.312],[16.9089,48.307],[16.9121,48.3012],[16.9133,48.2967],[16.9166,48.2908],[16.9243,48.2875],[16.9334,48.2847],[16.9444,48.278],[16.9506,48.2766],[16.9543,48.2731],[16.9553,48.2688],[16.9539,48.2573],[16.9543,48.2526],[16.97,48.2166],[16.9747,48.1986],[16.9748,48.1769],[16.9819,48.1613],[17.0072,48.1428],[17.0209,48.1372],[17.0369,48.1355],[17.0475,48.131],[17.0625,48.1127],[17.05,48.104],[17.0431,48.1016],[17.0344,48.1],[17.0226,48.1017],[17.0141,48.1056],[17.0035,48.1091],[16.9962,48.1071],[16.983,48.0978],[16.9792,48.083],[16.9798,48.0759],[16.9829,48.0682],[16.9815,48.0601],[16.9743,48.0508],[16.9623,48.0458],[16.9464,48.0513],[16.9158,48.0674],[16.9002,48.0721],[16.8797,48.0705],[16.8566,48.0632],[16.8161,48.0433],[16.7738,48.0298],[16.7621,48.031],[16.7504,48.0295],[16.7291,48.0229],[16.7045,48.0092],[16.6904,47.984],[16.6803,47.9715],[16.6663,47.9629],[16.6317,47.9465],[16.6123,47.9332],[16.5732,47.9198],[16.5031,47.9353],[16.468,47.9338],[16.4393,47.9281],[16.3909,47.9029],[16.3752,47.8914],[16.36,47.8718],[16.358,47.833],[16.3541,47.8214],[16.3482,47.8124],[16.3359,47.8029],[16.3242,47.7964],[16.2897,47.7936],[16.2893,47.7325],[16.2972,47.7202],[16.3125,47.7025],[16.3464,47.6757],[16.3758,47.6449],[16.3429,47.6016],[16.3366,47.5952],[16.3269,47.5831],[16.3212,47.5717],[16.3181,47.5498],[16.3212,47.5355],[16.3268,47.5236],[16.3262,47.5114],[16.3245,47.5013],[16.2722,47.4634],[16.2559,47.4547],[16.2309,47.4455],[16.2054,47.4423],[16.1479,47.443],[16.1135,47.4634],[16.1029,47.4779],[16.0967,47.4888],[16.0954,47.4932],[16.0945,47.5003],[16.0916,47.5076],[16.0886,47.5122],[16.0852,47.5152],[16.0804,47.5165],[16.0569,47.5085],[16.0472,47.5062],[16.04,47.5065],[16.0321,47.5087],[16.0228,47.5146],[15.9983,47.5238],[15.9167,47.5332],[15.9044,47.5561],[15.8923,47.572],[15.8661,47.5854],[15.8419,47.5854],[15.8343,47.5865],[15.8279,47.5889],[15.8254,47.5954],[15.8267,47.5999],[15.8312,47.6093],[15.8322,47.6166],[15.8319,47.6232],[15.8302,47.6288],[15.8287,47.6321],[15.8226,47.6399],[15.8175,47.644],[15.8098,47.6469],[15.7969,47.6454],[15.7634,47.6328],[15.7527,47.6324],[15.7432,47.6367],[15.7356,47.6499],[15.732,47.6613],[15.7261,47.6902],[15.7213,47.6974],[15.7143,47.7019],[15.7013,47.7035],[15.6931,47.7025],[15.6833,47.7025],[15.6718,47.7042],[15.6527,47.7109],[15.6386,47.7174],[15.6267,47.7287],[15.6062,47.7435],[15.5387,47.7474],[15.5001,47.7663],[15.4175,47.7935],[15.3754,47.8196],[15.3593,47.8241],[15.3391,47.8254],[15.2779,47.8152],[15.2711,47.815],[15.2297,47.8193],[15.2023,47.7956],[15.1968,47.7881],[15.1871,47.7804],[15.1764,47.776],[15.1379,47.7702],[15.087,47.7569],[15.0561,47.7508],[15.0465,47.7507],[15.0297,47.7528],[15.0147,47.7524],[14.9945,47.7487],[14.9543,47.737],[14.9296,47.7269],[14.9042,47.7228],[14.8834,47.7247],[14.8531,47.7416],[14.8438,47.7484],[14.8382,47.7505],[14.7341,47.7502],[14.6993,47.7689],[14.7162,47.7935],[14.718,47.8057],[14.7189,47.8289],[14.7324,47.8659],[14.7502,47.8832],[14.7507,47.9019],[14.7437,47.9095],[14.733,47.9181],[14.7121,47.929],[14.6905,47.9372],[14.659,47.9437],[14.6066,47.9612],[14.4454,48.043],[14.4272,48.0574],[14.4284,48.062],[14.4362,48.0635],[14.4409,48.0654],[14.4454,48.0685],[14.4595,48.086],[14.4607,48.0893],[14.4605,48.0945],[14.4615,48.0971],[14.4627,48.0991],[14.4743,48.108],[14.4798,48.1141],[14.4799,48.1179],[14.4782,48.1207],[14.4756,48.1236],[14.4739,48.1276],[14.4694,48.1558],[14.4712,48.1615],[14.4764,48.1697],[14.479,48.1784],[14.4849,48.2184],[14.4868,48.2247],[14.4883,48.2268],[14.4902,48.2287],[14.493,48.2309],[14.5003,48.2349],[14.5065,48.2372],[14.52,48.2448],[14.565,48.2442],[14.5823,48.2402],[14.5972,48.2333],[14.6103,48.2235],[14.6376,48.1971],[14.6546,48.1867],[14.6755,48.1825],[14.8187,48.2056],[14.8325,48.2132],[14.8471,48.2275],[14.862,48.237],[14.8802,48.2423],[14.9296,48.244],[14.9406,48.242],[14.9529,48.2371],[14.968,48.2252],[14.9686,48.2474],[14.9754,48.3336],[14.9638,48.3831],[14.9587,48.3921],[14.94,48.4018],[14.9344,48.434],[14.9098,48.44],[14.8868,48.4611],[14.8823,48.4712],[14.8824,48.48],[14.8842,48.486],[14.8843,48.495],[14.8852,48.4986],[14.8871,48.5005],[14.8909,48.501],[14.9136,48.4999],[14.9167,48.5015],[14.9177,48.5057],[14.9161,48.5161],[14.9064,48.5271],[14.8922,48.5349],[14.8756,48.5388],[14.8393,48.542],[14.8072,48.5533],[14.7745,48.5625],[14.7116,48.572],[14.6935,48.5835],[14.6911,48.5865],[14.6957,48.5895],[14.7007,48.6155],[14.7002,48.6461],[14.7038,48.6731],[14.7227,48.6934],[14.7754,48.724],[14.7804,48.7431],[14.7904,48.7549],[14.7945,48.767],[14.8004,48.7765],[14.8155,48.7803],[14.8676,48.7756],[14.9193,48.7616],[14.9396,48.7628],[14.9511,48.7803],[14.9489,48.7821],[14.9444,48.7886],[14.9401,48.7965],[14.9381,48.8028],[14.9398,48.8098],[14.947,48.8224],[14.9682,48.885],[14.9683,48.9127],[14.9642,48.9433],[14.9646,48.9717],[14.9782,48.9928],[14.9773,48.9983],[14.9773,49.0029],[14.9789,49.0063],[14.9821,49.0079],[15.004,49.0098]],[[16.4826,48.2885],[16.4796,48.2913],[16.4522,48.3231],[16.4464,48.3281],[16.4154,48.3301],[16.4118,48.3223],[16.4038,48.3178],[16.3867,48.3146],[16.3513,48.3032],[16.2841,48.2741],[16.2787,48.2683],[16.267,48.2613],[16.2588,48.2576],[16.2461,48.2552],[16.2326,48.2542],[16.2084,48.2621],[16.201,48.2567],[16.1944,48.2501],[16.1918,48.2466],[16.1886,48.2391],[16.1882,48.2301],[16.1965,48.221],[16.2041,48.2154],[16.2084,48.2088],[16.211,48.2028],[16.2025,48.1743],[16.2106,48.1644],[16.2169,48.16],[16.2208,48.1536],[16.2326,48.1492],[16.2936,48.1456],[16.3204,48.1489],[16.3468,48.1492],[16.3605,48.1427],[16.3785,48.1373],[16.3881,48.1357],[16.4105,48.1353],[16.4208,48.1401],[16.426,48.1438],[16.4292,48.1491],[16.4323,48.1525],[16.4404,48.1572],[16.4553,48.1601],[16.5021,48.1616],[16.5714,48.1531],[16.5498,48.1834],[16.5431,48.1977],[16.5478,48.2249],[16.5554,48.2459],[16.5561,48.249],[16.5549,48.2515],[16.5523,48.2552],[16.5447,48.2602],[16.5409,48.2731],[16.5377,48.2804],[16.5273,48.2881],[16.522,48.2963],[16.5116,48.3028],[16.4927,48.3007],[16.4862,48.2933],[16.4834,48.2888],[16.4826,48.2885]]]}},{"type":"Feature","properties":{"id":"AUT-2326","name":"Oberösterreich","nameBn":"ঊর্ধ্ব অস্ট্রিয়া","type":"State","bounds":[12.737,47.4742,14.9754,48.7664],"center":[13.856,48.2377]},"geometry":{"type":"Polygon","coordinates":[[[14.6756,48.5762],[14.6911,48.5865],[14.6935,48.5835],[14.7116,48.572],[14.7745,48.5625],[14.8072,48.5533],[14.8393,48.542],[14.8756,48.5388],[14.8922,48.5349],[14.9064,48.5271],[14.9161,48.5161],[14.9177,48.5057],[14.9167,48.5015],[14.9136,48.4999],[14.8909,48.501],[14.8871,48.5005],[14.8852,48.4986],[14.8843,48.495],[14.8842,48.486],[14.8824,48.48],[14.8823,48.4712],[14.8868,48.4611],[14.9098,48.44],[14.9344,48.434],[14.94,48.4018],[14.9587,48.3921],[14.9638,48.3831],[14.9754,48.3336],[14.9686,48.2474],[14.968,48.2252],[14.9529,48.2371],[14.9406,48.242],[14.9296,48.244],[14.8802,48.2423],[14.862,48.237],[14.8471,48.2275],[14.8325,48.2132],[14.8187,48.2056],[14.6755,48.1825],[14.6546,48.1867],[14.6376,48.1971],[14.6103,48.2235],[14.5972,48.2333],[14.5823,48.2402],[14.565,48.2442],[14.52,48.2448],[14.5065,48.2372],[14.5003,48.2349],[14.493,48.2309],[14.4902,48.2287],[14.4883,48.2268],[14.4868,48.2247],[14.4849,48.2184],[14.479,48.1784],[14.4764,48.1697],[14.4712,48.1615],[14.4694,48.1558],[14.4739,48.1276],[14.4756,48.1236],[14.4782,48.1207],[14.4799,48.1179],[14.4798,48.1141],[14.4743,48.108],[14.4627,48.0991],[14.4615,48.0971],[14.4605,48.0945],[14.4607,48.0893],[14.4595,48.086],[14.4454,48.0685],[14.4409,48.0654],[14.4362,48.0635],[14.4284,48.062],[14.4272,48.0574],[14.4454,48.043],[14.6066,47.9612],[14.659,47.9437],[14.6905,47.9372],[14.7121,47.929],[14.733,47.9181],[14.7437,47.9095],[14.7507,47.9019],[14.7502,47.8832],[14.7324,47.8659],[14.7189,47.8289],[14.718,47.8057],[14.7162,47.7935],[14.6993,47.7689],[14.6356,47.7343],[14.4916,47.6954],[14.4807,47.6853],[14.477,47.6783],[14.466,47.6711],[14.4488,47.665],[14.4172,47.6588],[14.3921,47.6488],[14.3473,47.6257],[14.3228,47.6206],[14.2934,47.6205],[14.2731,47.6246],[14.2514,47.6311],[14.195,47.6577],[14.1857,47.6591],[14.1721,47.6568],[14.1348,47.645],[14.0861,47.6361],[14.0659,47.6263],[14.0597,47.626],[14.0548,47.6357],[14.0532,47.6434],[14.0421,47.6624],[13.9967,47.6986],[13.9527,47.6945],[13.9375,47.6968],[13.9112,47.7037],[13.8811,47.7074],[13.8676,47.7112],[13.8433,47.721],[13.8343,47.722],[13.8233,47.7205],[13.7165,47.6845],[13.6997,47.6752],[13.6872,47.664],[13.6816,47.6498],[13.6791,47.6374],[13.6774,47.6178],[13.678,47.608],[13.6814,47.5976],[13.6895,47.5873],[13.7005,47.5774],[13.7133,47.5677],[13.721,47.5595],[13.7303,47.546],[13.735,47.5297],[13.7354,47.5163],[13.7317,47.5057],[13.7284,47.5012],[13.7243,47.498],[13.6992,47.4834],[13.696,47.4795],[13.6837,47.4775],[13.6744,47.4742],[13.5818,47.4864],[13.5242,47.5112],[13.4889,47.5358],[13.4811,47.5493],[13.4791,47.5644],[13.4847,47.5775],[13.5,47.595],[13.5056,47.6029],[13.5086,47.6133],[13.5056,47.622],[13.489,47.6415],[13.5256,47.7175],[13.5207,47.726],[13.5132,47.7354],[13.4884,47.7375],[13.4676,47.7435],[13.4581,47.7474],[13.4527,47.7507],[13.4494,47.7541],[13.4446,47.7615],[13.4465,47.7662],[13.4533,47.77],[13.4926,47.7711],[13.5087,47.7732],[13.521,47.7835],[13.4976,47.7979],[13.3168,47.825],[13.3011,47.8323],[13.2919,47.8406],[13.2877,47.8495],[13.275,47.886],[13.2722,47.899],[13.2713,47.9122],[13.2738,47.9403],[13.2763,47.9523],[13.2795,47.9607],[13.2831,47.9657],[13.2882,47.9685],[13.2953,47.9693],[13.3222,47.964],[13.3368,47.9631],[13.3509,47.9655],[13.36,47.9729],[13.361,47.9806],[13.3524,47.9876],[13.3435,47.9918],[13.3332,47.9953],[13.3029,48.0099],[13.2347,47.9889],[13.1771,47.9843],[13.1389,47.9872],[13.0995,47.9965],[13.0949,47.998],[13.0899,48.0003],[13.0607,48.021],[13.0359,48.0309],[13.0108,48.0332],[12.9684,48.0316],[12.9498,48.0278],[12.9375,48.0213],[12.9299,48.0062],[12.9271,48.0018],[12.9148,47.9967],[12.8682,47.9878],[12.8482,47.9824],[12.8456,47.9931],[12.8306,48.0155],[12.7602,48.0649],[12.7509,48.0747],[12.742,48.0868],[12.737,48.1],[12.7389,48.1134],[12.745,48.1206],[12.7514,48.1221],[12.758,48.1219],[12.7641,48.1238],[12.7783,48.1387],[12.7824,48.142],[12.8221,48.1607],[12.8352,48.1707],[12.8535,48.19],[12.8626,48.1966],[12.8776,48.202],[12.933,48.2093],[12.9317,48.2116],[12.9472,48.22],[12.9794,48.232],[13.0167,48.2559],[13.0328,48.2636],[13.1364,48.2911],[13.2742,48.3071],[13.3078,48.3196],[13.4056,48.3766],[13.4195,48.3922],[13.4252,48.4134],[13.4272,48.4185],[13.4317,48.4237],[13.4362,48.4306],[13.4382,48.441],[13.4364,48.4692],[13.4382,48.4785],[13.443,48.4877],[13.4564,48.5067],[13.4592,48.5164],[13.457,48.5252],[13.4477,48.5348],[13.4437,48.5529],[13.4407,48.5573],[13.4401,48.561],[13.4456,48.5679],[13.4546,48.5734],[13.4872,48.5816],[13.5207,48.5846],[13.6244,48.5654],[13.6418,48.5591],[13.6581,48.5511],[13.6734,48.5355],[13.7143,48.5232],[13.7165,48.5217],[13.7254,48.5484],[13.7339,48.5598],[13.7373,48.5593],[13.7581,48.5615],[13.766,48.5638],[13.7743,48.5692],[13.779,48.5739],[13.7962,48.5986],[13.8024,48.6117],[13.8055,48.6261],[13.8062,48.6429],[13.8009,48.6752],[13.8035,48.6872],[13.8169,48.6956],[13.8044,48.6996],[13.7994,48.7026],[13.7888,48.7165],[13.7836,48.7153],[13.7859,48.7248],[13.8157,48.7664],[13.8559,48.7593],[13.8749,48.7524],[13.8931,48.743],[13.915,48.731],[13.9823,48.7065],[13.9911,48.7002],[14.0078,48.6833],[14.0142,48.6751],[14.0192,48.6719],[14.0262,48.6701],[14.0321,48.6673],[14.0347,48.6612],[14.0329,48.6549],[14.0283,48.654],[14.0235,48.6546],[14.0205,48.6532],[14.0137,48.6438],[14.0081,48.6424],[14.0062,48.6395],[14.0109,48.6259],[14.0152,48.6204],[14.0325,48.6061],[14.0408,48.6012],[14.0748,48.5917],[14.2165,48.5812],[14.3157,48.5579],[14.3254,48.5586],[14.3332,48.5607],[14.3534,48.5714],[14.4054,48.5863],[14.4212,48.5971],[14.4436,48.6365],[14.4582,48.6432],[14.4821,48.6245],[14.522,48.6106],[14.5338,48.6087],[14.5488,48.6109],[14.5788,48.6205],[14.5942,48.6213],[14.6006,48.6176],[14.6018,48.6112],[14.6019,48.6045],[14.6051,48.6003],[14.6129,48.5997],[14.6282,48.6033],[14.6347,48.6023],[14.6454,48.5929],[14.6513,48.5835],[14.6592,48.577],[14.6756,48.5762]]]}},{"type":"Feature","properties":{"id":"AUT-2327","name":"Salzburg","nameBn":"সলজবুর্গ","type":"State","bounds":[12.0818,46.9542,13.9393,48.0332],"center":[13.0106,47.2534]},"geometry":{"type":"Polygon","coordinates":[[[12.2039,47.067],[12.2042,47.0797],[12.1806,47.0852],[12.1331,47.0788],[12.1332,47.0793],[12.1341,47.0837],[12.1313,47.1212],[12.1278,47.1312],[12.1196,47.1451],[12.112,47.1505],[12.0954,47.1597],[12.0894,47.166],[12.0843,47.1764],[12.0819,47.1873],[12.0818,47.2056],[12.0843,47.2203],[12.0982,47.2597],[12.096,47.2799],[12.1238,47.2897],[12.1378,47.2918],[12.1685,47.291],[12.2804,47.3182],[12.3155,47.3328],[12.33,47.3342],[12.3418,47.3326],[12.3643,47.3241],[12.3778,47.3213],[12.3929,47.3207],[12.4255,47.324],[12.4447,47.3288],[12.4574,47.3334],[12.4697,47.3417],[12.4796,47.3526],[12.4888,47.371],[12.4961,47.3801],[12.5018,47.3852],[12.5092,47.3876],[12.5192,47.3895],[12.5684,47.393],[12.5798,47.3962],[12.5901,47.4008],[12.5988,47.406],[12.6069,47.4124],[12.6138,47.4196],[12.6351,47.4508],[12.6455,47.4626],[12.665,47.4795],[12.6719,47.4875],[12.6767,47.4949],[12.6788,47.4989],[12.6765,47.5052],[12.6571,47.5385],[12.6531,47.5502],[12.6522,47.5584],[12.6565,47.5661],[12.6576,47.5708],[12.6542,47.5756],[12.645,47.5826],[12.6098,47.5988],[12.5892,47.6115],[12.5634,47.6418],[12.5984,47.6629],[12.6174,47.6693],[12.6531,47.6751],[12.6887,47.6751],[12.7448,47.6654],[12.762,47.6669],[12.7517,47.6494],[12.7674,47.6364],[12.7933,47.6248],[12.8132,47.6118],[12.7859,47.6027],[12.7737,47.5795],[12.7789,47.5548],[12.8036,47.5413],[12.819,47.5395],[12.8284,47.5373],[12.8369,47.5327],[12.8826,47.4986],[12.9316,47.4735],[12.9425,47.4705],[12.951,47.4725],[12.9593,47.4755],[12.9697,47.4757],[12.9793,47.4722],[12.9849,47.4683],[12.9911,47.4657],[13.0019,47.466],[13.0088,47.4701],[13.0373,47.493],[13.037,47.5014],[13.0344,47.5074],[13.0312,47.5126],[13.029,47.518],[13.0281,47.5242],[13.0281,47.5416],[13.0306,47.5443],[13.0401,47.5605],[13.0412,47.5619],[13.0391,47.5613],[13.0383,47.584],[13.0409,47.5834],[13.0571,47.5977],[13.0577,47.6004],[13.0696,47.6202],[13.072,47.6224],[13.0742,47.6345],[13.0748,47.6467],[13.072,47.6595],[13.0641,47.674],[13.0446,47.6966],[13.0323,47.7066],[13.0199,47.7129],[13.0044,47.7146],[12.979,47.7071],[12.964,47.7054],[12.9083,47.7124],[12.892,47.7235],[12.9106,47.7429],[12.9108,47.743],[12.9172,47.7502],[12.919,47.7568],[12.9193,47.7632],[12.9213,47.7695],[12.9267,47.7774],[12.9912,47.8471],[12.9866,47.8503],[12.965,47.872],[12.9311,47.9249],[12.9142,47.936],[12.9062,47.9389],[12.886,47.9529],[12.862,47.9626],[12.854,47.9705],[12.8486,47.9809],[12.8482,47.9824],[12.8682,47.9878],[12.9148,47.9967],[12.9271,48.0018],[12.9299,48.0062],[12.9375,48.0213],[12.9498,48.0278],[12.9684,48.0316],[13.0108,48.0332],[13.0359,48.0309],[13.0607,48.021],[13.0899,48.0003],[13.0949,47.998],[13.0995,47.9965],[13.1389,47.9872],[13.1771,47.9843],[13.2347,47.9889],[13.3029,48.0099],[13.3332,47.9953],[13.3435,47.9918],[13.3524,47.9876],[13.361,47.9806],[13.36,47.9729],[13.3509,47.9655],[13.3368,47.9631],[13.3222,47.964],[13.2953,47.9693],[13.2882,47.9685],[13.2831,47.9657],[13.2795,47.9607],[13.2763,47.9523],[13.2738,47.9403],[13.2713,47.9122],[13.2722,47.899],[13.275,47.886],[13.2877,47.8495],[13.2919,47.8406],[13.3011,47.8323],[13.3168,47.825],[13.4976,47.7979],[13.521,47.7835],[13.5087,47.7732],[13.4926,47.7711],[13.4533,47.77],[13.4465,47.7662],[13.4446,47.7615],[13.4494,47.7541],[13.4527,47.7507],[13.4581,47.7474],[13.4676,47.7435],[13.4884,47.7375],[13.5132,47.7354],[13.5207,47.726],[13.5256,47.7175],[13.489,47.6415],[13.5056,47.622],[13.5086,47.6133],[13.5056,47.6029],[13.5,47.595],[13.4847,47.5775],[13.4791,47.5644],[13.4811,47.5493],[13.4889,47.5358],[13.5242,47.5112],[13.5818,47.4864],[13.5737,47.4716],[13.5666,47.4531],[13.5652,47.4454],[13.5748,47.4099],[13.6045,47.3425],[13.6307,47.3056],[13.6622,47.2856],[13.6792,47.2772],[13.6941,47.2745],[13.7079,47.2777],[13.7219,47.2853],[13.7385,47.2901],[13.7666,47.2922],[13.7815,47.2989],[13.7967,47.3021],[13.8099,47.2962],[13.8262,47.2737],[13.8482,47.2504],[13.8533,47.241],[13.856,47.2326],[13.8608,47.222],[13.8687,47.2128],[13.9018,47.1839],[13.9317,47.1694],[13.9393,47.1608],[13.9372,47.1506],[13.9177,47.1338],[13.8883,47.1143],[13.8799,47.1054],[13.8782,47.0928],[13.8802,47.0727],[13.875,47.0615],[13.8637,47.0423],[13.8206,46.9878],[13.7823,46.9542],[13.7531,46.9806],[13.6672,47.0261],[13.6318,47.0387],[13.6062,47.0442],[13.5618,47.0466],[13.4614,47.0614],[13.4397,47.0625],[13.3475,47.079],[13.3082,47.0872],[13.2896,47.0864],[13.2743,47.0838],[13.2492,47.0673],[13.2261,47.0549],[13.1735,47.0375],[13.1346,47.0317],[13.0595,47.0288],[13.0295,47.031],[13.0108,47.0345],[12.9942,47.0408],[12.9144,47.076],[12.866,47.0866],[12.8339,47.0889],[12.7724,47.0993],[12.7266,47.1147],[12.6871,47.1321],[12.6742,47.1359],[12.665,47.1365],[12.6604,47.1348],[12.6573,47.1321],[12.6559,47.1296],[12.6551,47.1262],[12.6539,47.1235],[12.6505,47.1201],[12.6469,47.1176],[12.6338,47.112],[12.5949,47.1377],[12.5777,47.1442],[12.5584,47.1472],[12.5318,47.1487],[12.5027,47.1554],[12.4761,47.1558],[12.4413,47.1514],[12.4174,47.1516],[12.3969,47.1494],[12.38,47.1442],[12.3206,47.1049],[12.2315,47.0771],[12.2039,47.067]]]}},{"type":"Feature","properties":{"id":"AUT-2323","name":"Steiermark","nameBn":"স্টায়রিয়া","type":"State","bounds":[13.5652,46.6146,16.1479,47.8254],"center":[14.8565,47.3901]},"geometry":{"type":"Polygon","coordinates":[[[16.0284,46.8369],[15.9876,46.83],[15.9817,46.8277],[15.972,46.8206],[15.9729,46.8184],[15.9773,46.8162],[15.9782,46.8091],[15.9713,46.7781],[15.971,46.7751],[15.9697,46.7605],[15.9705,46.743],[15.982,46.7185],[16.0033,46.7092],[16.0146,46.6937],[16.0167,46.6707],[16.0166,46.6708],[15.9979,46.6869],[15.987,46.6922],[15.9676,46.6946],[15.9463,46.6972],[15.8785,46.7207],[15.8507,46.7245],[15.8229,46.7228],[15.7846,46.7122],[15.7551,46.704],[15.7287,46.703],[15.6521,46.7108],[15.636,46.7176],[15.6329,46.7025],[15.633,46.6896],[15.627,46.6809],[15.6217,46.6782],[15.6166,46.6756],[15.6037,46.673],[15.5886,46.676],[15.5673,46.6758],[15.546,46.6719],[15.5307,46.6638],[15.5208,46.6496],[15.5203,46.6477],[15.5176,46.6382],[15.5139,46.6325],[15.5112,46.6284],[15.4926,46.6183],[15.4627,46.6146],[15.44,46.6244],[15.4354,46.6272],[15.4176,46.638],[15.3881,46.6456],[15.3328,46.6436],[15.2049,46.639],[15.1726,46.6414],[15.1056,46.6463],[15.1052,46.6467],[15.097,46.654],[15.0347,46.7033],[15.0226,46.7272],[15.0203,46.7606],[15.0086,46.7958],[14.9937,46.8201],[14.9887,46.8333],[14.9869,46.8422],[14.9884,46.8479],[14.9938,46.86],[15.0004,46.869],[15.0063,46.8813],[15.0083,46.9112],[14.9296,46.9936],[14.8902,47.0268],[14.8755,47.0351],[14.8652,47.0396],[14.8499,47.0413],[14.7391,47.0233],[14.616,47.0168],[14.589,47.0244],[14.5237,47.0214],[14.4966,47.023],[14.3946,46.9982],[14.3766,46.9987],[14.3679,46.9999],[14.3654,47.0027],[14.3552,47.0083],[14.338,47.0139],[14.2668,47.0292],[14.2264,47.0487],[14.2006,47.0567],[14.1653,47.0571],[14.1359,47.0535],[14.0267,47.0175],[14.0113,47.0096],[14.0026,47.0028],[13.9985,46.998],[13.994,46.9908],[13.9789,46.973],[13.9415,46.9606],[13.8799,46.9278],[13.8622,46.9241],[13.8439,46.9227],[13.8347,46.9255],[13.8208,46.9323],[13.7823,46.9542],[13.8206,46.9878],[13.8637,47.0423],[13.875,47.0615],[13.8802,47.0727],[13.8782,47.0928],[13.8799,47.1054],[13.8883,47.1143],[13.9177,47.1338],[13.9372,47.1506],[13.9393,47.1608],[13.9317,47.1694],[13.9018,47.1839],[13.8687,47.2128],[13.8608,47.222],[13.856,47.2326],[13.8533,47.241],[13.8482,47.2504],[13.8262,47.2737],[13.8099,47.2962],[13.7967,47.3021],[13.7815,47.2989],[13.7666,47.2922],[13.7385,47.2901],[13.7219,47.2853],[13.7079,47.2777],[13.6941,47.2745],[13.6792,47.2772],[13.6622,47.2856],[13.6307,47.3056],[13.6045,47.3425],[13.5748,47.4099],[13.5652,47.4454],[13.5666,47.4531],[13.5737,47.4716],[13.5818,47.4864],[13.6744,47.4742],[13.6837,47.4775],[13.696,47.4795],[13.6992,47.4834],[13.7243,47.498],[13.7284,47.5012],[13.7317,47.5057],[13.7354,47.5163],[13.735,47.5297],[13.7303,47.546],[13.721,47.5595],[13.7133,47.5677],[13.7005,47.5774],[13.6895,47.5873],[13.6814,47.5976],[13.678,47.608],[13.6774,47.6178],[13.6791,47.6374],[13.6816,47.6498],[13.6872,47.664],[13.6997,47.6752],[13.7165,47.6845],[13.8233,47.7205],[13.8343,47.722],[13.8433,47.721],[13.8676,47.7112],[13.8811,47.7074],[13.9112,47.7037],[13.9375,47.6968],[13.9527,47.6945],[13.9967,47.6986],[14.0421,47.6624],[14.0532,47.6434],[14.0548,47.6357],[14.0597,47.626],[14.0659,47.6263],[14.0861,47.6361],[14.1348,47.645],[14.1721,47.6568],[14.1857,47.6591],[14.195,47.6577],[14.2514,47.6311],[14.2731,47.6246],[14.2934,47.6205],[14.3228,47.6206],[14.3473,47.6257],[14.3921,47.6488],[14.4172,47.6588],[14.4488,47.665],[14.466,47.6711],[14.477,47.6783],[14.4807,47.6853],[14.4916,47.6954],[14.6356,47.7343],[14.6993,47.7689],[14.7341,47.7502],[14.8382,47.7505],[14.8438,47.7484],[14.8531,47.7416],[14.8834,47.7247],[14.9042,47.7228],[14.9296,47.7269],[14.9543,47.737],[14.9945,47.7487],[15.0147,47.7524],[15.0297,47.7528],[15.0465,47.7507],[15.0561,47.7508],[15.087,47.7569],[15.1379,47.7702],[15.1764,47.776],[15.1871,47.7804],[15.1968,47.7881],[15.2023,47.7956],[15.2297,47.8193],[15.2711,47.815],[15.2779,47.8152],[15.3391,47.8254],[15.3593,47.8241],[15.3754,47.8196],[15.4175,47.7935],[15.5001,47.7663],[15.5387,47.7474],[15.6062,47.7435],[15.6267,47.7287],[15.6386,47.7174],[15.6527,47.7109],[15.6718,47.7042],[15.6833,47.7025],[15.6931,47.7025],[15.7013,47.7035],[15.7143,47.7019],[15.7213,47.6974],[15.7261,47.6902],[15.732,47.6613],[15.7356,47.6499],[15.7432,47.6367],[15.7527,47.6324],[15.7634,47.6328],[15.7969,47.6454],[15.8098,47.6469],[15.8175,47.644],[15.8226,47.6399],[15.8287,47.6321],[15.8302,47.6288],[15.8319,47.6232],[15.8322,47.6166],[15.8312,47.6093],[15.8267,47.5999],[15.8254,47.5954],[15.8279,47.5889],[15.8343,47.5865],[15.8419,47.5854],[15.8661,47.5854],[15.8923,47.572],[15.9044,47.5561],[15.9167,47.5332],[15.9983,47.5238],[16.0228,47.5146],[16.0321,47.5087],[16.04,47.5065],[16.0472,47.5062],[16.0569,47.5085],[16.0804,47.5165],[16.0852,47.5152],[16.0886,47.5122],[16.0916,47.5076],[16.0945,47.5003],[16.0954,47.4932],[16.0967,47.4888],[16.1029,47.4779],[16.1135,47.4634],[16.1479,47.443],[16.0902,47.4019],[16.0717,47.3949],[16.0681,47.3993],[16.065,47.406],[16.0596,47.4116],[16.0475,47.4106],[16.0372,47.4036],[16.0221,47.3894],[16.0186,47.381],[16.02,47.3724],[16.0377,47.3438],[16.0489,47.319],[16.0584,47.2911],[16.0661,47.2532],[16.0675,47.2376],[16.095,47.1651],[16.095,47.1381],[16.0844,47.1069],[16.0855,47.0969],[16.0895,47.0829],[16.0984,47.0716],[16.1347,47.0402],[16.1373,47.0317],[16.1363,47.0249],[16.1291,47.0143],[16.1029,46.9882],[16.0545,46.9442],[16.0186,46.9228],[16.0115,46.9133],[16.0081,46.9038],[16.0073,46.8936],[16.003,46.8769],[16.0037,46.8707],[16.0086,46.8659],[16.021,46.8591],[16.025,46.8549],[16.0267,46.8525],[16.0281,46.8415],[16.0284,46.8374],[16.0284,46.8369]]]}},{"type":"Feature","properties":{"id":"AUT-2329","name":"Tirol","nameBn":"টিরোল","type":"State","bounds":[10.0811,46.6512,12.9512,47.732],"center":[11.38,47.2082]},"geometry":{"type":"MultiPolygon","coordinates":[[[[10.132,46.8466],[10.1252,46.8468],[10.125,46.8472],[10.1241,46.8499],[10.1061,46.8825],[10.0834,46.908],[10.0811,46.9178],[10.0844,46.9263],[10.0972,46.9374],[10.1095,46.9449],[10.1204,46.9552],[10.1268,46.9676],[10.1294,46.985],[10.1289,46.9957],[10.1258,47.0097],[10.1247,47.0218],[10.1266,47.0374],[10.1382,47.0773],[10.1485,47.096],[10.1873,47.1362],[10.2021,47.161],[10.2042,47.1889],[10.2034,47.1987],[10.1915,47.2436],[10.175,47.2724],[10.2394,47.2777],[10.2612,47.2835],[10.3059,47.3022],[10.3254,47.3143],[10.3434,47.3308],[10.3657,47.3611],[10.3716,47.3674],[10.382,47.3721],[10.4031,47.3771],[10.4116,47.381],[10.4283,47.396],[10.4429,47.4163],[10.452,47.4388],[10.4517,47.4602],[10.4476,47.4726],[10.4422,47.4814],[10.4337,47.4879],[10.4196,47.493],[10.4297,47.5329],[10.431,47.5422],[10.4244,47.5534],[10.4157,47.5644],[10.4142,47.573],[10.4292,47.577],[10.446,47.5791],[10.4536,47.5811],[10.4571,47.5792],[10.4616,47.5699],[10.4603,47.566],[10.4555,47.5612],[10.4517,47.5548],[10.4535,47.5462],[10.4588,47.5416],[10.4669,47.5377],[10.4825,47.5329],[10.5251,47.5285],[10.5369,47.5299],[10.5496,47.5368],[10.5699,47.5559],[10.5837,47.5625],[10.6079,47.5623],[10.7399,47.5285],[10.7439,47.5253],[10.7472,47.5202],[10.7522,47.5154],[10.7608,47.5136],[10.7903,47.5161],[10.8306,47.5286],[10.8448,47.5313],[10.8586,47.5307],[10.8693,47.5266],[10.8922,47.5149],[10.8839,47.508],[10.8516,47.4931],[10.8584,47.4852],[10.9099,47.469],[10.9598,47.4325],[10.9628,47.428],[10.9631,47.4212],[10.9609,47.4143],[10.9577,47.4097],[10.9553,47.4096],[10.9655,47.3961],[10.9795,47.3905],[11.0837,47.3895],[11.1033,47.3936],[11.1686,47.4243],[11.1938,47.4289],[11.2152,47.423],[11.213,47.3958],[11.237,47.394],[11.2588,47.4007],[11.2731,47.4111],[11.2863,47.4232],[11.3056,47.4354],[11.3242,47.4394],[11.3677,47.4401],[11.3839,47.4449],[11.3925,47.4548],[11.3886,47.4622],[11.3778,47.4671],[11.3655,47.4693],[11.4126,47.5061],[11.4354,47.5097],[11.46,47.5074],[11.4826,47.5026],[11.5295,47.5079],[11.5512,47.5137],[11.5694,47.5274],[11.5745,47.5366],[11.5823,47.5598],[11.5891,47.5704],[11.617,47.5868],[11.6205,47.5897],[11.639,47.5892],[11.6826,47.5834],[11.764,47.5831],[11.8203,47.5753],[11.8307,47.5776],[11.8407,47.5946],[11.852,47.5992],[11.9359,47.6107],[12.1656,47.604],[12.1736,47.6051],[12.2021,47.6298],[12.2057,47.6362],[12.2068,47.6456],[12.2051,47.6723],[12.2023,47.6778],[12.1973,47.6801],[12.1891,47.6856],[12.1818,47.6921],[12.1786,47.6977],[12.1766,47.7058],[12.1924,47.7102],[12.2165,47.7237],[12.2252,47.7274],[12.2397,47.7317],[12.2422,47.732],[12.2391,47.7274],[12.2365,47.7168],[12.233,47.7089],[12.2266,47.7029],[12.2233,47.6959],[12.2288,47.6849],[12.2387,47.6789],[12.2496,47.68],[12.2719,47.6879],[12.2937,47.69],[12.3515,47.6817],[12.3684,47.6836],[12.4077,47.6937],[12.4241,47.6916],[12.4288,47.6858],[12.4392,47.6645],[12.4447,47.6563],[12.4528,47.6498],[12.4825,47.6336],[12.4966,47.6289],[12.5171,47.6285],[12.5382,47.6313],[12.5538,47.636],[12.5634,47.6418],[12.5892,47.6115],[12.6098,47.5988],[12.645,47.5826],[12.6542,47.5756],[12.6576,47.5708],[12.6565,47.5661],[12.6522,47.5584],[12.6531,47.5502],[12.6571,47.5385],[12.6765,47.5052],[12.6788,47.4989],[12.6767,47.4949],[12.6719,47.4875],[12.665,47.4795],[12.6455,47.4626],[12.6351,47.4508],[12.6138,47.4196],[12.6069,47.4124],[12.5988,47.406],[12.5901,47.4008],[12.5798,47.3962],[12.5684,47.393],[12.5192,47.3895],[12.5092,47.3876],[12.5018,47.3852],[12.4961,47.3801],[12.4888,47.371],[12.4796,47.3526],[12.4697,47.3417],[12.4574,47.3334],[12.4447,47.3288],[12.4255,47.324],[12.3929,47.3207],[12.3778,47.3213],[12.3643,47.3241],[12.3418,47.3326],[12.33,47.3342],[12.3155,47.3328],[12.2804,47.3182],[12.1685,47.291],[12.1378,47.2918],[12.1238,47.2897],[12.096,47.2799],[12.0982,47.2597],[12.0843,47.2203],[12.0818,47.2056],[12.0819,47.1873],[12.0843,47.1764],[12.0894,47.166],[12.0954,47.1597],[12.112,47.1505],[12.1196,47.1451],[12.1278,47.1312],[12.1313,47.1212],[12.1341,47.0837],[12.1332,47.0793],[12.1331,47.0788],[12.1162,47.0766],[12.015,47.0405],[11.9436,47.0382],[11.8995,47.0277],[11.857,47.012],[11.8225,46.9933],[11.7771,46.9883],[11.7661,46.9834],[11.7464,46.9725],[11.7349,46.9706],[11.7162,46.9755],[11.6838,46.9919],[11.6648,46.9933],[11.6573,46.9925],[11.6497,46.993],[11.6485,46.9933],[11.6479,46.9933],[11.5965,47.0004],[11.5727,46.9989],[11.5437,46.9931],[11.5436,46.9931],[11.5434,46.993],[11.5433,46.993],[11.5338,46.9895],[11.5244,46.9883],[11.5153,46.9895],[11.507,46.993],[11.5017,46.9979],[11.4959,47.0016],[11.4894,47.0042],[11.4718,47.0071],[11.4618,47.0055],[11.4529,47.0009],[11.4453,46.9931],[11.4452,46.993],[11.4112,46.9705],[11.3806,46.9716],[11.3495,46.9819],[11.3138,46.9873],[11.2437,46.9793],[11.1745,46.9639],[11.1566,46.9565],[11.0919,46.9124],[11.0836,46.9001],[11.0731,46.865],[11.0543,46.8341],[11.0535,46.8303],[11.0546,46.8199],[11.0528,46.8149],[11.0485,46.8117],[11.0374,46.8083],[11.0333,46.8056],[11.0109,46.7792],[10.9969,46.7691],[10.9827,46.7677],[10.9657,46.7716],[10.9309,46.774],[10.9137,46.7723],[10.8803,46.7646],[10.8704,46.7641],[10.8602,46.767],[10.8431,46.777],[10.8341,46.7802],[10.8239,46.7803],[10.8049,46.7766],[10.7951,46.7769],[10.7663,46.7881],[10.7548,46.7908],[10.7337,46.7862],[10.7229,46.7864],[10.7169,46.7952],[10.7216,46.8001],[10.7438,46.8125],[10.7487,46.8194],[10.739,46.8295],[10.6625,46.861],[10.6471,46.8638],[10.6294,46.8624],[10.5277,46.8432],[10.4863,46.8464],[10.4538,46.8644],[10.4514,46.8858],[10.4638,46.9197],[10.4585,46.9366],[10.4496,46.9439],[10.4156,46.9624],[10.3947,46.9854],[10.3844,46.993],[10.3844,46.9932],[10.3843,46.9932],[10.379,46.9955],[10.3734,46.9963],[10.3679,46.9955],[10.3389,46.9841],[10.3137,46.9643],[10.2962,46.9414],[10.2957,46.9227],[10.2708,46.9219],[10.2513,46.9254],[10.2351,46.9233],[10.2199,46.9058],[10.2152,46.8931],[10.2143,46.8847],[10.2117,46.877],[10.2014,46.8668],[10.1578,46.8516],[10.132,46.8466]]],[[[12.4696,46.6758],[12.4456,46.6787],[12.405,46.6901],[12.3704,46.7112],[12.3515,46.7432],[12.3427,46.7651],[12.326,46.7725],[12.3053,46.7745],[12.2844,46.78],[12.2748,46.7846],[12.2691,46.7886],[12.2667,46.7953],[12.2669,46.8083],[12.2696,46.8198],[12.2733,46.8268],[12.2761,46.834],[12.2758,46.8463],[12.2666,46.8681],[12.2508,46.8756],[12.2087,46.8766],[12.1951,46.8801],[12.189,46.8849],[12.1835,46.8912],[12.1722,46.8992],[12.161,46.903],[12.1374,46.9059],[12.1269,46.9089],[12.1416,46.9188],[12.1417,46.928],[12.1347,46.9374],[12.1282,46.9486],[12.1221,46.9717],[12.1178,46.9831],[12.1112,46.993],[12.1217,47.0105],[12.1823,47.0336],[12.2036,47.0533],[12.2039,47.067],[12.2315,47.0771],[12.3206,47.1049],[12.38,47.1442],[12.3969,47.1494],[12.4174,47.1516],[12.4413,47.1514],[12.4761,47.1558],[12.5027,47.1554],[12.5318,47.1487],[12.5584,47.1472],[12.5777,47.1442],[12.5949,47.1377],[12.6338,47.112],[12.6368,47.0928],[12.6449,47.085],[12.6581,47.0776],[12.7443,47.058],[12.7527,47.0502],[12.7515,47.0397],[12.739,47.0188],[12.7364,47.0113],[12.735,47.0042],[12.7349,46.9999],[12.7356,46.9952],[12.7389,46.9855],[12.7457,46.9769],[12.7555,46.968],[12.7641,46.9567],[12.7842,46.9438],[12.7944,46.9387],[12.8069,46.9294],[12.8148,46.9189],[12.8196,46.9052],[12.8219,46.8918],[12.8288,46.876],[12.8393,46.8661],[12.8852,46.8325],[12.9453,46.7752],[12.9512,46.7674],[12.9506,46.764],[12.9496,46.7618],[12.9478,46.7592],[12.9447,46.7571],[12.9411,46.7565],[12.933,46.7575],[12.8973,46.7759],[12.8868,46.7785],[12.8752,46.7775],[12.8348,46.7654],[12.7456,46.7562],[12.7243,46.7489],[12.7211,46.7315],[12.7166,46.7196],[12.7091,46.7052],[12.6759,46.6604],[12.6715,46.6527],[12.6714,46.6525],[12.6696,46.653],[12.6202,46.6565],[12.562,46.6512],[12.5473,46.6522],[12.5308,46.6577],[12.4999,46.6721],[12.4696,46.6758]]]]}},{"type":"Feature","properties":{"id":"AUT-2320","name":"Vorarlberg","nameBn":"ভোরালবার্গ","type":"State","bounds":[9.5212,46.8468,10.2093,47.5884],"center":[9.8737,47.2617]},"geometry":{"type":"Polygon","coordinates":[[[9.8606,47.0016],[9.8563,47.0041],[9.858,47.0155],[9.6691,47.0562],[9.6523,47.0579],[9.5999,47.0535],[9.5812,47.0569],[9.5883,47.063],[9.6051,47.0776],[9.6088,47.0808],[9.6157,47.1068],[9.6142,47.1107],[9.6095,47.1224],[9.6056,47.1323],[9.5818,47.1549],[9.5671,47.1608],[9.5521,47.1669],[9.552,47.1756],[9.5619,47.1906],[9.5629,47.1977],[9.5543,47.2116],[9.5448,47.2203],[9.5404,47.2291],[9.5431,47.2348],[9.5471,47.243],[9.5342,47.2512],[9.5303,47.2537],[9.5212,47.2628],[9.5533,47.2999],[9.5874,47.3278],[9.5912,47.3347],[9.5964,47.3523],[9.601,47.3613],[9.6398,47.3945],[9.6495,47.4097],[9.6503,47.4521],[9.6217,47.4692],[9.5845,47.4807],[9.555,47.5109],[9.5531,47.5169],[9.5475,47.5345],[9.5499,47.5335],[9.5541,47.5327],[9.6126,47.5219],[9.6767,47.5226],[9.704,47.5314],[9.7185,47.5467],[9.7309,47.5649],[9.7527,47.5821],[9.7671,47.5873],[9.7821,47.5884],[9.7963,47.585],[9.808,47.5763],[9.8113,47.5645],[9.8093,47.5523],[9.8131,47.5418],[9.8335,47.5346],[9.8415,47.535],[9.8538,47.5404],[9.8589,47.5413],[9.889,47.5338],[9.9188,47.5322],[9.9338,47.5342],[9.9459,47.5408],[9.9487,47.5242],[9.9592,47.5149],[9.9717,47.5064],[9.9808,47.4929],[9.9808,47.4899],[9.9811,47.4869],[9.9826,47.481],[9.9936,47.4766],[10.0024,47.4792],[10.0113,47.4844],[10.0226,47.488],[10.0718,47.4391],[10.0806,47.4274],[10.076,47.4169],[10.0532,47.4049],[10.0642,47.3962],[10.0669,47.3858],[10.0678,47.375],[10.0732,47.3655],[10.0829,47.3591],[10.0896,47.3593],[10.0972,47.3631],[10.1104,47.3674],[10.1153,47.367],[10.1257,47.3627],[10.1308,47.3627],[10.1351,47.3649],[10.147,47.3738],[10.1909,47.3792],[10.2093,47.3725],[10.2086,47.3545],[10.1905,47.3175],[10.1927,47.3109],[10.1933,47.3049],[10.1908,47.2983],[10.1859,47.295],[10.1727,47.2923],[10.1687,47.2904],[10.1595,47.2791],[10.1554,47.2729],[10.1599,47.2711],[10.175,47.2724],[10.1915,47.2436],[10.2034,47.1987],[10.2042,47.1889],[10.2021,47.161],[10.1873,47.1362],[10.1485,47.096],[10.1382,47.0773],[10.1266,47.0374],[10.1247,47.0218],[10.1258,47.0097],[10.1289,46.9957],[10.1294,46.985],[10.1268,46.9676],[10.1204,46.9552],[10.1095,46.9449],[10.0972,46.9374],[10.0844,46.9263],[10.0811,46.9178],[10.0834,46.908],[10.1061,46.8825],[10.1241,46.8499],[10.125,46.8472],[10.1252,46.8468],[10.1113,46.8471],[10.0681,46.8566],[10.0456,46.8656],[10.0069,46.8908],[9.8999,46.9144],[9.8751,46.9274],[9.8624,46.9398],[9.8608,46.9492],[9.864,46.9599],[9.8665,46.9834],[9.8706,46.9929],[9.8706,46.9988],[9.8668,47.0019],[9.8606,47.0016]]]}},{"type":"Feature","properties":{"id":"AUT-2331","name":"Wien","nameBn":"ভিয়েনা","type":"State","bounds":[16.1882,48.1353,16.5714,48.3301],"center":[16.3798,48.2247]},"geometry":{"type":"Polygon","coordinates":[[[16.4154,48.3301],[16.4464,48.3281],[16.4522,48.3231],[16.4796,48.2913],[16.4826,48.2885],[16.4834,48.2888],[16.4862,48.2933],[16.4927,48.3007],[16.5116,48.3028],[16.522,48.2963],[16.5273,48.2881],[16.5377,48.2804],[16.5409,48.2731],[16.5447,48.2602],[16.5523,48.2552],[16.5549,48.2515],[16.5561,48.249],[16.5554,48.2459],[16.5478,48.2249],[16.5431,48.1977],[16.5498,48.1834],[16.5714,48.1531],[16.5021,48.1616],[16.4553,48.1601],[16.4404,48.1572],[16.4323,48.1525],[16.4292,48.1491],[16.426,48.1438],[16.4208,48.1401],[16.4105,48.1353],[16.3881,48.1357],[16.3785,48.1373],[16.3605,48.1427],[16.3468,48.1492],[16.3204,48.1489],[16.2936,48.1456],[16.2326,48.1492],[16.2208,48.1536],[16.2169,48.16],[16.2106,48.1644],[16.2025,48.1743],[16.211,48.2028],[16.2084,48.2088],[16.2041,48.2154],[16.1965,48.221],[16.1882,48.2301],[16.1886,48.2391],[16.1918,48.2466],[16.1944,48.2501],[16.201,48.2567],[16.2084,48.2621],[16.2326,48.2542],[16.2461,48.2552],[16.2588,48.2576],[16.267,48.2613],[16.2787,48.2683],[16.2841,48.2741],[16.3513,48.3032],[16.3867,48.3146],[16.4038,48.3178],[16.4118,48.3223],[16.4154,48.3301]]]}}]}