{"type":"FeatureCollection","features":[{"type":"Feature","properties":{"id":"BEL-3480","name":"Antwerp","nameBn":"এন্টওয়ার্প","type":"Province","bounds":[4.182,50.9921,5.2604,51.4962],"center":[4.7212,51.2485]},"geometry":{"type":"Polygon","coordinates":[[[4.7642,51.4962],[4.7787,51.4954],[4.7968,51.491],[4.8136,51.4841],[4.8239,51.4756],[4.8261,51.4606],[4.8199,51.4462],[4.8154,51.4311],[4.8227,51.4137],[4.7791,51.4264],[4.7678,51.4254],[4.7621,51.4134],[4.7833,51.4076],[4.8533,51.4061],[4.8717,51.403],[4.9103,51.3919],[4.9319,51.3956],[4.9571,51.411],[4.9802,51.4305],[4.9958,51.4467],[5.0027,51.459],[5.0061,51.4683],[5.0121,51.4743],[5.0275,51.4768],[5.0303,51.4744],[5.0603,51.462],[5.0799,51.4385],[5.0764,51.4219],[5.0653,51.4059],[5.0617,51.3843],[5.0681,51.3745],[5.1026,51.3507],[5.1078,51.342],[5.1181,51.3199],[5.1229,51.3134],[5.1402,51.3074],[5.1788,51.3095],[5.1973,51.3083],[5.2149,51.2943],[5.2154,51.2587],[5.233,51.2559],[5.2395,51.2569],[5.2274,51.2507],[5.2165,51.2125],[5.2572,51.1885],[5.2604,51.1481],[5.2354,51.134],[5.203,51.14],[5.1804,51.1192],[5.1303,51.1176],[5.0899,51.0852],[5.0098,51.0751],[5.0097,51.0614],[4.9809,51.036],[4.9671,51.0465],[4.9483,51.0457],[4.9097,51.0359],[4.8828,51.0209],[4.8706,51.0247],[4.8185,51.0111],[4.8057,51.0165],[4.7887,51.0401],[4.756,51.0244],[4.7339,51.0274],[4.6949,50.9998],[4.7063,51.0156],[4.6794,51.0248],[4.6065,51.0125],[4.5934,50.9921],[4.578,50.9923],[4.5462,51.0041],[4.528,50.9934],[4.4943,51.0097],[4.4761,50.9924],[4.4538,51.0068],[4.3931,50.9975],[4.3882,51.0123],[4.3695,51.0159],[4.3791,51.0311],[4.3479,51.0179],[4.3414,51.0199],[4.3482,51.027],[4.2989,51.041],[4.2746,51.0437],[4.2403,51.0381],[4.2319,51.0443],[4.2123,51.0341],[4.2013,51.0372],[4.1891,51.0439],[4.1914,51.0446],[4.1964,51.0545],[4.1933,51.0661],[4.1875,51.0774],[4.1846,51.0867],[4.1833,51.0956],[4.182,51.0999],[4.1854,51.1043],[4.198,51.1136],[4.2158,51.1215],[4.2357,51.124],[4.2762,51.124],[4.316,51.1322],[4.3286,51.1478],[4.333,51.1697],[4.3306,51.1768],[4.3253,51.1894],[4.3011,51.2114],[4.3098,51.2149],[4.2886,51.2579],[4.295,51.2679],[4.2987,51.2696],[4.2967,51.2676],[4.3084,51.2712],[4.3164,51.2768],[4.3308,51.2961],[4.2971,51.3052],[4.2893,51.3091],[4.2854,51.318],[4.2861,51.3397],[4.2831,51.3501],[4.2756,51.3581],[4.2611,51.3694],[4.2811,51.3689],[4.2901,51.3688],[4.3263,51.3564],[4.3456,51.3523],[4.3922,51.3504],[4.4112,51.3567],[4.4162,51.374],[4.4101,51.3838],[4.3877,51.4005],[4.3799,51.4095],[4.3806,51.4197],[4.3872,51.4275],[4.3892,51.4346],[4.3771,51.4429],[4.4294,51.462],[4.4831,51.4743],[4.5126,51.4774],[4.5252,51.4759],[4.5332,51.4676],[4.5318,51.4509],[4.5234,51.4384],[4.5215,51.4286],[4.5406,51.4201],[4.5539,51.4193],[4.5827,51.4226],[4.6146,51.4176],[4.6301,51.4182],[4.6436,51.4214],[4.6539,51.4262],[4.7312,51.4856],[4.7642,51.4962]]]}},{"type":"Feature","properties":{"id":"BEL-3474","name":"Brussels","nameBn":"ব্রাসেল্স","type":"Capital Region","bounds":[4.2456,50.7646,4.4797,50.9148],"center":[4.3627,50.8332]},"geometry":{"type":"Polygon","coordinates":[[[4.4797,50.7954],[4.3984,50.7678],[4.3772,50.7646],[4.3553,50.7671],[4.3276,50.779],[4.3012,50.8144],[4.283,50.8084],[4.2456,50.8216],[4.2575,50.8369],[4.2828,50.8396],[4.2892,50.8564],[4.279,50.8678],[4.2979,50.8915],[4.3346,50.9031],[4.3773,50.8986],[4.4033,50.9148],[4.4205,50.9063],[4.4362,50.8893],[4.4357,50.8797],[4.42,50.8695],[4.4602,50.8532],[4.4761,50.8215],[4.4549,50.8198],[4.4465,50.811],[4.4797,50.7954]]]}},{"type":"Feature","properties":{"id":"BEL-3478","name":"East Flanders","nameBn":"ইস্ট ফ্লান্ডার্স","type":"Province","bounds":[3.3307,50.7219,4.333,51.368],"center":[3.8319,50.9749]},"geometry":{"type":"Polygon","coordinates":[[[3.3988,51.2447],[3.4219,51.238],[3.4539,51.2356],[3.5012,51.2403],[3.5041,51.2497],[3.5015,51.2624],[3.5034,51.274],[3.5143,51.281],[3.529,51.2833],[3.545,51.2839],[3.5848,51.2895],[3.6095,51.2904],[3.6351,51.2878],[3.7573,51.2623],[3.7762,51.2545],[3.7814,51.2414],[3.7797,51.2303],[3.7814,51.2199],[3.7963,51.2088],[3.8087,51.2053],[3.927,51.2063],[3.9495,51.2108],[3.995,51.2332],[4.119,51.2724],[4.1686,51.2969],[4.2079,51.3306],[4.2135,51.3405],[4.221,51.3638],[4.2215,51.368],[4.2222,51.3677],[4.2411,51.3566],[4.249,51.3467],[4.2561,51.3284],[4.2726,51.3158],[4.2908,51.3059],[4.303,51.2961],[4.3067,51.2897],[4.3081,51.2836],[4.3054,51.2766],[4.2987,51.2696],[4.295,51.2679],[4.2886,51.2579],[4.3098,51.2149],[4.3011,51.2114],[4.3253,51.1894],[4.3306,51.1768],[4.333,51.1697],[4.3286,51.1478],[4.316,51.1322],[4.2762,51.124],[4.2357,51.124],[4.2158,51.1215],[4.198,51.1136],[4.1854,51.1043],[4.182,51.0999],[4.1833,51.0956],[4.1846,51.0867],[4.1875,51.0774],[4.1933,51.0661],[4.1964,51.0545],[4.1914,51.0446],[4.1891,51.0439],[4.2013,51.0372],[4.2123,51.0341],[4.2319,51.0443],[4.2403,51.0381],[4.2171,50.9901],[4.1941,50.9835],[4.1617,50.9906],[4.1465,50.9706],[4.1607,50.9427],[4.1602,50.9299],[4.137,50.9196],[4.0913,50.9318],[4.1001,50.9125],[4.0736,50.9],[4.0881,50.8919],[4.0871,50.8814],[4.0404,50.8384],[4.066,50.8354],[4.0749,50.8207],[4.0604,50.7926],[4.0304,50.7765],[4.0133,50.7721],[3.9993,50.7805],[3.9822,50.7668],[3.9563,50.7798],[3.944,50.7754],[3.9312,50.7576],[3.952,50.7395],[3.9506,50.7341],[3.9183,50.7288],[3.895,50.7342],[3.8844,50.7514],[3.828,50.7435],[3.8147,50.7519],[3.7746,50.749],[3.7578,50.7803],[3.7145,50.7686],[3.704,50.7821],[3.6753,50.7719],[3.6347,50.7219],[3.6066,50.7342],[3.5405,50.7349],[3.534,50.7664],[3.4941,50.7589],[3.4576,50.7685],[3.52,50.7979],[3.5225,50.8052],[3.4995,50.8252],[3.5124,50.8355],[3.4505,50.8693],[3.474,50.8846],[3.4661,50.9034],[3.4505,50.9075],[3.4273,50.8984],[3.4192,50.9122],[3.4326,50.9206],[3.4247,50.9321],[3.4484,50.9299],[3.4553,50.9344],[3.4401,50.9439],[3.4602,50.9437],[3.4121,50.959],[3.443,50.9678],[3.4259,50.9824],[3.452,51.007],[3.4221,51.0395],[3.4438,51.0493],[3.3307,51.1001],[3.3745,51.1181],[3.4103,51.1611],[3.387,51.1872],[3.3598,51.1928],[3.3841,51.2036],[3.367,51.2296],[3.4,51.2427],[3.3988,51.2447]]]}},{"type":"Feature","properties":{"id":"BEL-3475","name":"Flemish Brabant","nameBn":"ফ্লেমিশ ব্র্যাবেন্ট","type":"Province","bounds":[3.888,50.6887,5.1862,51.0519],"center":[4.5371,50.8709]},"geometry":{"type":"Polygon","coordinates":[[[4.0997,50.7071],[4.0727,50.7129],[4.0585,50.696],[4.0515,50.7028],[4.028,50.695],[4.009,50.699],[3.9888,50.6887],[3.9282,50.6898],[3.9069,50.6947],[3.8928,50.7064],[3.888,50.7176],[3.895,50.7342],[3.9183,50.7288],[3.9506,50.7341],[3.952,50.7395],[3.9312,50.7576],[3.944,50.7754],[3.9563,50.7798],[3.9822,50.7668],[3.9993,50.7805],[4.0133,50.7721],[4.0304,50.7765],[4.0604,50.7926],[4.0749,50.8207],[4.066,50.8354],[4.0404,50.8384],[4.0871,50.8814],[4.0881,50.8919],[4.0736,50.9],[4.1001,50.9125],[4.0913,50.9318],[4.137,50.9196],[4.1602,50.9299],[4.1607,50.9427],[4.1465,50.9706],[4.1617,50.9906],[4.1941,50.9835],[4.2171,50.9901],[4.2403,51.0381],[4.2746,51.0437],[4.2989,51.041],[4.3482,51.027],[4.3414,51.0199],[4.3479,51.0179],[4.3791,51.0311],[4.3695,51.0159],[4.3882,51.0123],[4.3931,50.9975],[4.4538,51.0068],[4.4761,50.9924],[4.4943,51.0097],[4.528,50.9934],[4.5462,51.0041],[4.578,50.9923],[4.5934,50.9921],[4.6065,51.0125],[4.6794,51.0248],[4.7063,51.0156],[4.6949,50.9998],[4.7339,51.0274],[4.756,51.0244],[4.7887,51.0401],[4.8057,51.0165],[4.8185,51.0111],[4.8706,51.0247],[4.8828,51.0209],[4.9097,51.0359],[4.9483,51.0457],[4.9671,51.0465],[4.9809,51.036],[5.0063,51.0404],[5.0225,51.0207],[5.0425,51.0256],[5.0632,51.0175],[5.081,51.0245],[5.0809,51.0495],[5.1089,51.0519],[5.1312,51.0455],[5.1583,51.0235],[5.1329,51.017],[5.1278,51.0249],[5.118,51.0233],[5.1244,50.9998],[5.0826,50.9877],[5.0817,50.9656],[5.0415,50.9431],[5.0547,50.9212],[5.0612,50.918],[5.0778,50.9226],[5.0946,50.911],[5.1332,50.9225],[5.1366,50.9146],[5.1717,50.9143],[5.1862,50.9063],[5.1775,50.8786],[5.1727,50.8754],[5.1532,50.8796],[5.1365,50.8503],[5.1295,50.8166],[5.1516,50.8116],[5.1064,50.782],[5.1146,50.7636],[5.1011,50.7433],[5.1204,50.736],[5.1011,50.7098],[5.0747,50.7069],[5.0595,50.7116],[5.043,50.7251],[5.0435,50.7428],[5.0191,50.7519],[4.9814,50.7709],[4.9323,50.7463],[4.9172,50.7448],[4.9045,50.7516],[4.908,50.7696],[4.8326,50.7646],[4.8369,50.7755],[4.8129,50.7769],[4.7915,50.7995],[4.7496,50.8087],[4.7229,50.8026],[4.7142,50.7898],[4.7102,50.7973],[4.6927,50.791],[4.6405,50.7996],[4.6363,50.774],[4.6546,50.7584],[4.6352,50.7441],[4.6018,50.743],[4.5966,50.7647],[4.5729,50.7484],[4.5292,50.7418],[4.5269,50.7294],[4.4951,50.7411],[4.4902,50.7461],[4.4945,50.7576],[4.48,50.759],[4.458,50.7546],[4.4217,50.7366],[4.3737,50.7318],[4.3679,50.7167],[4.349,50.7176],[4.3299,50.7343],[4.3226,50.729],[4.3332,50.719],[4.3114,50.7188],[4.3088,50.7036],[4.3018,50.6983],[4.2872,50.6952],[4.2596,50.7011],[4.24,50.692],[4.2074,50.7091],[4.1803,50.7087],[4.1586,50.7278],[4.149,50.7304],[4.1391,50.7279],[4.1318,50.7169],[4.1075,50.7172],[4.0997,50.7071]],[[4.4797,50.7954],[4.4465,50.811],[4.4549,50.8198],[4.4761,50.8215],[4.4602,50.8532],[4.42,50.8695],[4.4357,50.8797],[4.4362,50.8893],[4.4205,50.9063],[4.4033,50.9148],[4.3773,50.8986],[4.3346,50.9031],[4.2979,50.8915],[4.279,50.8678],[4.2892,50.8564],[4.2828,50.8396],[4.2575,50.8369],[4.2456,50.8216],[4.283,50.8084],[4.3012,50.8144],[4.3276,50.779],[4.3553,50.7671],[4.3772,50.7646],[4.3984,50.7678],[4.4797,50.7954]]]}},{"type":"Feature","properties":{"id":"BEL-2","name":"Hainaut","nameBn":"হাইনট","type":"Province","bounds":[2.8422,49.9336,4.616,50.8116],"center":[3.8893,50.521]},"geometry":{"type":"MultiPolygon","coordinates":[[[[2.8869,50.6966],[2.8713,50.6988],[2.8667,50.7001],[2.8625,50.7096],[2.8422,50.7508],[2.8688,50.7612],[2.8754,50.7625],[2.8896,50.7541],[2.9181,50.7577],[2.9224,50.767],[2.9602,50.7768],[2.9397,50.7922],[2.9406,50.7967],[2.9988,50.8116],[3.0144,50.8051],[3.023,50.7716],[3.0238,50.7683],[2.9714,50.7578],[2.9484,50.7487],[2.9302,50.7362],[2.9001,50.7031],[2.8869,50.6966]]],[[[3.3611,50.4898],[3.3436,50.4929],[3.2999,50.5075],[3.2868,50.5141],[3.271,50.5269],[3.2659,50.5383],[3.2643,50.5702],[3.2379,50.6265],[3.2298,50.6554],[3.2438,50.6721],[3.2324,50.6959],[3.2244,50.7052],[3.211,50.708],[3.1969,50.7092],[3.189,50.7151],[3.1767,50.7341],[3.1628,50.7499],[3.1751,50.7527],[3.2197,50.7673],[3.2608,50.7523],[3.3033,50.7564],[3.3246,50.7372],[3.3231,50.7235],[3.3478,50.7119],[3.3536,50.7116],[3.3635,50.7097],[3.3674,50.7173],[3.4128,50.7474],[3.4576,50.7685],[3.4941,50.7589],[3.534,50.7664],[3.5405,50.7349],[3.6066,50.7342],[3.6347,50.7219],[3.6753,50.7719],[3.704,50.7821],[3.7145,50.7686],[3.7578,50.7803],[3.7746,50.749],[3.8147,50.7519],[3.828,50.7435],[3.8844,50.7514],[3.895,50.7342],[3.888,50.7176],[3.8928,50.7064],[3.9069,50.6947],[3.9282,50.6898],[3.9888,50.6887],[4.009,50.699],[4.028,50.695],[4.0515,50.7028],[4.0585,50.696],[4.0727,50.7129],[4.0997,50.7071],[4.1124,50.7069],[4.0942,50.7035],[4.0902,50.6906],[4.0914,50.6537],[4.1011,50.636],[4.1186,50.6313],[4.1418,50.6336],[4.1733,50.6611],[4.1843,50.6639],[4.2037,50.6477],[4.1986,50.6268],[4.252,50.6182],[4.2465,50.5973],[4.2789,50.593],[4.3041,50.5681],[4.3336,50.57],[4.3308,50.5446],[4.3558,50.5624],[4.4125,50.5663],[4.423,50.5593],[4.4681,50.5596],[4.4729,50.5544],[4.4701,50.5297],[4.5031,50.5407],[4.5019,50.5314],[4.5166,50.5272],[4.5768,50.5434],[4.5589,50.4941],[4.5948,50.4999],[4.587,50.4906],[4.5993,50.4798],[4.586,50.4565],[4.5725,50.4549],[4.5821,50.4479],[4.5727,50.4418],[4.616,50.4252],[4.6011,50.4043],[4.5851,50.4012],[4.6058,50.3857],[4.5816,50.36],[4.5879,50.3225],[4.5203,50.3154],[4.502,50.3304],[4.4742,50.3288],[4.4538,50.3062],[4.3983,50.3112],[4.3902,50.2925],[4.3722,50.2931],[4.3592,50.2781],[4.3257,50.2766],[4.286,50.258],[4.3025,50.2436],[4.3389,50.2298],[4.3466,50.23],[4.3651,50.2437],[4.3862,50.2408],[4.4005,50.2337],[4.3884,50.2017],[4.3966,50.1874],[4.3601,50.1693],[4.3984,50.1264],[4.3853,50.1093],[4.3862,50.0693],[4.3906,50.053],[4.4067,50.0493],[4.4147,49.9973],[4.444,49.959],[4.4306,49.9378],[4.4277,49.9337],[4.4277,49.9336],[4.2776,49.9602],[4.2159,49.9544],[4.2011,49.953],[4.1877,49.9555],[4.1317,49.975],[4.1324,49.9749],[4.1396,49.9745],[4.1384,49.9892],[4.1329,50.0045],[4.1282,50.0058],[4.1323,50.0176],[4.1373,50.0251],[4.1446,50.0308],[4.1629,50.0418],[4.186,50.0525],[4.21,50.0602],[4.2103,50.0667],[4.2034,50.0747],[4.1974,50.0841],[4.1806,50.1272],[4.1706,50.1305],[4.1599,50.1294],[4.1399,50.1236],[4.1258,50.1282],[4.1282,50.1462],[4.1474,50.1863],[4.1527,50.2045],[4.1573,50.2127],[4.1679,50.2225],[4.1915,50.2343],[4.2013,50.2415],[4.2037,50.252],[4.1976,50.2585],[4.1852,50.2655],[4.1718,50.2709],[4.1628,50.273],[4.1503,50.2695],[4.1498,50.2631],[4.151,50.2563],[4.1437,50.2516],[4.1253,50.2571],[4.0979,50.2948],[4.0772,50.3066],[4.0559,50.3146],[4.0227,50.3381],[4.0033,50.3441],[3.9821,50.3426],[3.9186,50.3255],[3.8959,50.3253],[3.878,50.3308],[3.8609,50.3385],[3.8402,50.3452],[3.7987,50.3485],[3.755,50.3463],[3.7415,50.3431],[3.7334,50.3372],[3.7155,50.3177],[3.7111,50.3093],[3.7084,50.3063],[3.7039,50.3043],[3.7022,50.3053],[3.7008,50.3047],[3.6969,50.2982],[3.6617,50.3193],[3.6529,50.3602],[3.6528,50.4068],[3.6444,50.4455],[3.6281,50.4644],[3.6083,50.4765],[3.5864,50.4835],[3.5637,50.4865],[3.4991,50.4868],[3.4867,50.4927],[3.4965,50.5038],[3.498,50.5119],[3.4915,50.5171],[3.4771,50.5199],[3.4629,50.5191],[3.4526,50.5149],[3.4427,50.5085],[3.4292,50.5018],[3.3854,50.4916],[3.3611,50.4898]]]]}},{"type":"Feature","properties":{"id":"BEL-3481","name":"Liege","nameBn":"লিয়েজ","type":"Province","bounds":[4.9791,50.1205,6.3745,50.8076],"center":[5.6765,50.5794]},"geometry":{"type":"Polygon","coordinates":[[[6.0386,50.1484],[6.0274,50.1494],[6.023,50.1508],[6.023,50.1509],[6.0249,50.1816],[6.0241,50.1839],[6.0199,50.1947],[6.0338,50.2048],[6.0119,50.2077],[6.0075,50.2187],[6.013,50.3118],[5.9811,50.3223],[5.9793,50.3309],[5.8581,50.3479],[5.8493,50.3295],[5.8678,50.3195],[5.8455,50.2846],[5.8803,50.2813],[5.8738,50.2715],[5.8104,50.2659],[5.8039,50.2561],[5.7972,50.2657],[5.7809,50.269],[5.7207,50.2631],[5.7476,50.2998],[5.7206,50.3041],[5.7045,50.3216],[5.7034,50.3326],[5.7208,50.3575],[5.6703,50.3576],[5.675,50.3696],[5.6419,50.3682],[5.5877,50.4006],[5.5537,50.3903],[5.5371,50.3919],[5.5316,50.3951],[5.5347,50.4041],[5.5178,50.4063],[5.5086,50.426],[5.4685,50.4091],[5.4251,50.4308],[5.4118,50.4303],[5.4057,50.4234],[5.4257,50.4006],[5.3924,50.3805],[5.3499,50.3897],[5.2951,50.3662],[5.2813,50.3785],[5.2824,50.3969],[5.2328,50.4056],[5.2205,50.4184],[5.2361,50.4381],[5.2176,50.4647],[5.1959,50.4786],[5.1621,50.4699],[5.151,50.4819],[5.156,50.4906],[5.1363,50.4888],[5.1293,50.5046],[5.1428,50.5129],[5.119,50.5058],[5.1054,50.5074],[5.0904,50.5309],[5.0346,50.5329],[5.0534,50.5419],[5.0277,50.5899],[4.9791,50.6193],[4.9826,50.6434],[5.0018,50.6662],[5.0008,50.6958],[5.0166,50.703],[4.992,50.7253],[5.0158,50.7335],[5.0191,50.7519],[5.0435,50.7428],[5.043,50.7251],[5.0595,50.7116],[5.0747,50.7069],[5.1011,50.7098],[5.1677,50.6973],[5.1804,50.7072],[5.1694,50.7236],[5.2289,50.7188],[5.2362,50.7282],[5.2434,50.7169],[5.2756,50.7294],[5.3074,50.7184],[5.3123,50.7297],[5.3321,50.741],[5.3782,50.7508],[5.3918,50.7471],[5.4041,50.7275],[5.431,50.7209],[5.4532,50.7223],[5.4612,50.74],[5.4808,50.7264],[5.4968,50.7289],[5.5238,50.7438],[5.5219,50.76],[5.6085,50.7764],[5.6574,50.8076],[5.6633,50.8051],[5.6849,50.7985],[5.7005,50.7956],[5.6987,50.7838],[5.6884,50.7608],[5.7066,50.7542],[5.7174,50.7528],[5.7278,50.7542],[5.7328,50.7589],[5.7353,50.7564],[5.7503,50.7469],[5.776,50.7512],[5.8183,50.7156],[5.8542,50.7189],[5.8782,50.711],[5.8869,50.7133],[5.9102,50.736],[5.8913,50.7512],[5.9022,50.749],[5.9748,50.7475],[5.9949,50.7499],[5.9933,50.7481],[5.9926,50.7463],[5.9927,50.7444],[5.9942,50.7426],[6.0108,50.7371],[6.0113,50.7274],[6.0076,50.7169],[6.0115,50.7085],[6.0248,50.7076],[6.0644,50.7145],[6.081,50.7135],[6.1002,50.7013],[6.1611,50.6422],[6.1478,50.6368],[6.1594,50.6224],[6.18,50.6155],[6.2491,50.6144],[6.2513,50.6084],[6.2443,50.5995],[6.2329,50.5908],[6.2329,50.5871],[6.2106,50.5787],[6.1791,50.562],[6.1607,50.5436],[6.1773,50.5302],[6.1695,50.5225],[6.1708,50.518],[6.1789,50.5158],[6.1906,50.5152],[6.1826,50.5066],[6.1907,50.5018],[6.1992,50.4904],[6.2072,50.4863],[6.2171,50.486],[6.2509,50.4927],[6.2531,50.4941],[6.2556,50.4946],[6.2578,50.4941],[6.2601,50.4927],[6.2754,50.488],[6.3187,50.4817],[6.3369,50.481],[6.3257,50.474],[6.3233,50.466],[6.3262,50.457],[6.3316,50.4469],[6.3402,50.4379],[6.3473,50.437],[6.3512,50.4336],[6.3504,50.4169],[6.3433,50.3933],[6.3364,50.3799],[6.3377,50.3681],[6.3725,50.3294],[6.3734,50.3231],[6.3745,50.3155],[6.362,50.307],[6.3355,50.3039],[6.322,50.3054],[6.3107,50.3082],[6.2995,50.3089],[6.286,50.3039],[6.276,50.2961],[6.2694,50.2865],[6.2673,50.2764],[6.2718,50.2674],[6.2534,50.2568],[6.2104,50.249],[6.1896,50.2427],[6.1798,50.233],[6.1572,50.2227],[6.1468,50.214],[6.1602,50.2045],[6.1658,50.1932],[6.1651,50.1819],[6.1591,50.1724],[6.1517,50.1693],[6.1317,50.1683],[6.1232,50.1649],[6.1213,50.1616],[6.118,50.1504],[6.1158,50.1455],[6.126,50.1402],[6.1295,50.134],[6.1266,50.1273],[6.1175,50.1205],[6.1026,50.1247],[6.1003,50.1327],[6.1015,50.1421],[6.0971,50.1513],[6.0842,50.1593],[6.0765,50.1586],[6.07,50.1542],[6.0614,50.1507],[6.0386,50.1484]]]}},{"type":"Feature","properties":{"id":"BEL-3","name":"Limburg","nameBn":"লিমবার্গ","type":"Province","bounds":[4.9809,50.6973,5.9102,51.2881],"center":[5.4131,50.9954]},"geometry":{"type":"MultiPolygon","coordinates":[[[[5.5514,51.2168],[5.5684,51.2077],[5.625,51.1969],[5.6385,51.1909],[5.6482,51.184],[5.659,51.1791],[5.6762,51.1792],[5.718,51.1846],[5.7308,51.1838],[5.7472,51.1776],[5.7681,51.1595],[5.7814,51.1524],[5.8121,51.1573],[5.8291,51.1565],[5.838,51.1437],[5.8405,51.1389],[5.8264,51.1302],[5.8232,51.1187],[5.846,51.1034],[5.8368,51.0995],[5.8267,51.0969],[5.8159,51.0959],[5.8049,51.0966],[5.8074,51.0894],[5.809,51.0863],[5.8118,51.0823],[5.8043,51.0686],[5.7988,51.0615],[5.7913,51.055],[5.7796,51.0613],[5.7715,51.0581],[5.7664,51.0484],[5.764,51.0352],[5.7776,51.0236],[5.7617,50.9992],[5.7224,50.9594],[5.7447,50.9632],[5.7543,50.9631],[5.764,50.9594],[5.7525,50.9472],[5.7353,50.924],[5.7224,50.9117],[5.7176,50.9092],[5.706,50.9066],[5.6945,50.9037],[5.6223,50.8527],[5.6245,50.8303],[5.6407,50.815],[5.6574,50.8076],[5.6085,50.7764],[5.5219,50.76],[5.5238,50.7438],[5.4968,50.7289],[5.4808,50.7264],[5.4612,50.74],[5.4532,50.7223],[5.431,50.7209],[5.4041,50.7275],[5.3918,50.7471],[5.3782,50.7508],[5.3321,50.741],[5.3123,50.7297],[5.3074,50.7184],[5.2756,50.7294],[5.2434,50.7169],[5.2362,50.7282],[5.2289,50.7188],[5.1694,50.7236],[5.1804,50.7072],[5.1677,50.6973],[5.1011,50.7098],[5.1204,50.736],[5.1011,50.7433],[5.1146,50.7636],[5.1064,50.782],[5.1516,50.8116],[5.1295,50.8166],[5.1365,50.8503],[5.1532,50.8796],[5.1727,50.8754],[5.1775,50.8786],[5.1862,50.9063],[5.1717,50.9143],[5.1366,50.9146],[5.1332,50.9225],[5.0946,50.911],[5.0778,50.9226],[5.0612,50.918],[5.0547,50.9212],[5.0415,50.9431],[5.0817,50.9656],[5.0826,50.9877],[5.1244,50.9998],[5.118,51.0233],[5.1278,51.0249],[5.1329,51.017],[5.1583,51.0235],[5.1312,51.0455],[5.1089,51.0519],[5.0809,51.0495],[5.081,51.0245],[5.0632,51.0175],[5.0425,51.0256],[5.0225,51.0207],[5.0063,51.0404],[4.9809,51.036],[5.0097,51.0614],[5.0098,51.0751],[5.0899,51.0852],[5.1303,51.1176],[5.1804,51.1192],[5.203,51.14],[5.2354,51.134],[5.2604,51.1481],[5.2572,51.1885],[5.2165,51.2125],[5.2274,51.2507],[5.2395,51.2569],[5.2707,51.2618],[5.3891,51.2587],[5.4099,51.2635],[5.4519,51.2821],[5.4716,51.2881],[5.4932,51.2865],[5.5167,51.2772],[5.5352,51.262],[5.5423,51.2427],[5.5455,51.2199],[5.5514,51.2168]]],[[[5.7524,50.7734],[5.7625,50.771],[5.7829,50.7567],[5.7932,50.7521],[5.8799,50.7535],[5.8913,50.7512],[5.9102,50.736],[5.8869,50.7133],[5.8782,50.711],[5.8542,50.7189],[5.8183,50.7156],[5.776,50.7512],[5.7503,50.7469],[5.7353,50.7564],[5.7328,50.7589],[5.7436,50.7691],[5.7524,50.7734]]]]}},{"type":"Feature","properties":{"id":"BEL-3477","name":"Luxembourg","nameBn":"লুক্সেমবার্গ","type":"Province","bounds":[4.9684,49.4952,6.0338,50.4308],"center":[5.5012,49.9637]},"geometry":{"type":"Polygon","coordinates":[[[5.1925,49.6828],[5.1694,49.6872],[5.1512,49.696],[5.1364,49.7053],[5.0938,49.7453],[5.0819,49.7527],[5.0462,49.7594],[5.0263,49.7667],[4.9891,49.7906],[4.971,49.7971],[4.9684,49.797],[4.9685,49.7973],[4.9718,49.8039],[4.9763,49.8209],[4.9892,49.8234],[4.9807,49.8425],[4.9849,49.8513],[5.0599,49.8861],[5.0432,49.8969],[5.0687,49.9124],[5.1189,49.9253],[5.0972,49.9393],[5.101,49.9616],[5.0718,49.9713],[5.0626,49.9848],[5.02,49.9793],[5.0094,49.9827],[4.9965,50.0153],[4.9722,50.0306],[4.9911,50.0303],[4.9982,50.0458],[5.0073,50.0397],[5.017,50.0418],[5.0496,50.0637],[5.0602,50.0806],[5.0515,50.0863],[5.0662,50.1248],[5.0721,50.0968],[5.0933,50.092],[5.187,50.0962],[5.2083,50.0991],[5.2354,50.1113],[5.2622,50.1096],[5.2673,50.1203],[5.2418,50.1355],[5.2703,50.1414],[5.2796,50.1595],[5.2441,50.186],[5.2456,50.1962],[5.2335,50.1963],[5.2444,50.2062],[5.2059,50.2199],[5.2245,50.2283],[5.2533,50.2271],[5.2507,50.2388],[5.273,50.2485],[5.284,50.2492],[5.2945,50.2404],[5.3652,50.2697],[5.3927,50.2881],[5.3937,50.3032],[5.3834,50.3192],[5.3602,50.3181],[5.3478,50.3066],[5.3401,50.3118],[5.3944,50.3378],[5.3802,50.3496],[5.4012,50.3676],[5.3924,50.3805],[5.4257,50.4006],[5.4057,50.4234],[5.4118,50.4303],[5.4251,50.4308],[5.4685,50.4091],[5.5086,50.426],[5.5178,50.4063],[5.5347,50.4041],[5.5316,50.3951],[5.5371,50.3919],[5.5537,50.3903],[5.5877,50.4006],[5.6419,50.3682],[5.675,50.3696],[5.6703,50.3576],[5.7208,50.3575],[5.7034,50.3326],[5.7045,50.3216],[5.7206,50.3041],[5.7476,50.2998],[5.7207,50.2631],[5.7809,50.269],[5.7972,50.2657],[5.8039,50.2561],[5.8104,50.2659],[5.8738,50.2715],[5.8803,50.2813],[5.8455,50.2846],[5.8678,50.3195],[5.8493,50.3295],[5.8581,50.3479],[5.9793,50.3309],[5.9811,50.3223],[6.013,50.3118],[6.0075,50.2187],[6.0119,50.2077],[6.0338,50.2048],[6.0199,50.1947],[6.0241,50.1839],[6.0249,50.1816],[6.023,50.1509],[6.023,50.1508],[6.0141,50.1536],[6.008,50.1609],[6.0047,50.1705],[5.9983,50.175],[5.9829,50.1671],[5.9616,50.1656],[5.9532,50.1564],[5.949,50.1427],[5.9411,50.1283],[5.9262,50.1183],[5.889,50.1066],[5.8724,50.0969],[5.8688,50.0905],[5.8669,50.0743],[5.8644,50.0675],[5.8583,50.0618],[5.8437,50.0536],[5.8377,50.0474],[5.8388,50.0359],[5.8388,50.0265],[5.8364,50.0185],[5.8291,50.0136],[5.8089,50.0078],[5.8027,50.0025],[5.8015,49.9887],[5.8086,49.9831],[5.8126,49.9776],[5.8016,49.9638],[5.7934,49.9588],[5.7786,49.9566],[5.7716,49.9535],[5.7637,49.9468],[5.76,49.9416],[5.7576,49.9365],[5.7536,49.9302],[5.719,49.8914],[5.7149,49.8819],[5.7267,49.8782],[5.7488,49.8673],[5.7581,49.8582],[5.7319,49.86],[5.732,49.8542],[5.7305,49.8512],[5.7287,49.8488],[5.7269,49.8452],[5.7365,49.8394],[5.7246,49.8343],[5.7202,49.8247],[5.7216,49.8128],[5.7277,49.8002],[5.7383,49.7888],[5.7484,49.7856],[5.7592,49.7845],[5.7719,49.7794],[5.7785,49.773],[5.8021,49.7429],[5.8036,49.7382],[5.8058,49.7242],[5.8054,49.7219],[5.8118,49.7185],[5.8257,49.7158],[5.8317,49.7136],[5.8373,49.7129],[5.8437,49.7143],[5.8502,49.714],[5.856,49.7081],[5.8564,49.7058],[5.8573,49.7004],[5.8536,49.6963],[5.8488,49.6927],[5.8472,49.6872],[5.8467,49.6807],[5.8437,49.6775],[5.8423,49.6739],[5.8458,49.6666],[5.8526,49.6632],[5.8726,49.6617],[5.8799,49.6577],[5.8855,49.6435],[5.8799,49.6349],[5.87,49.6289],[5.862,49.6228],[5.8492,49.5997],[5.8412,49.5897],[5.83,49.5828],[5.8469,49.5767],[5.8374,49.5611],[5.8145,49.5451],[5.7907,49.5378],[5.779,49.5396],[5.7571,49.5484],[5.7463,49.5494],[5.7356,49.5457],[5.7227,49.5346],[5.7103,49.5311],[5.6887,49.5335],[5.6672,49.5404],[5.6446,49.5438],[5.6197,49.5355],[5.6079,49.5249],[5.6056,49.5178],[5.6023,49.5137],[5.5875,49.5124],[5.5789,49.5139],[5.5476,49.5234],[5.5288,49.518],[5.5037,49.5051],[5.4777,49.4952],[5.4561,49.4989],[5.4499,49.5078],[5.451,49.5168],[5.4542,49.5262],[5.4544,49.5366],[5.4502,49.5458],[5.4021,49.6025],[5.3912,49.6088],[5.3835,49.6133],[5.3525,49.6207],[5.3411,49.6251],[5.3349,49.6258],[5.3312,49.6231],[5.3269,49.6176],[5.3217,49.6126],[5.3145,49.6111],[5.2979,49.6133],[5.293,49.6172],[5.2907,49.6264],[5.2938,49.6405],[5.3018,49.6439],[5.3064,49.6475],[5.2994,49.6625],[5.2801,49.6779],[5.2592,49.6913],[5.2376,49.691],[5.1925,49.6828]]]}},{"type":"Feature","properties":{"id":"BEL-3476","name":"Namur","nameBn":"নামুর","type":"Province","bounds":[4.286,49.7841,5.4012,50.648],"center":[4.8871,50.3244]},"geometry":{"type":"Polygon","coordinates":[[[4.8314,50.1434],[4.8201,50.1464],[4.8156,50.1613],[4.7886,50.1534],[4.6819,50.0839],[4.6761,50.0761],[4.6734,50.0662],[4.6758,50.0602],[4.6795,50.0552],[4.6806,50.0483],[4.6729,50.0164],[4.6659,50.0005],[4.6567,49.9891],[4.6458,49.9845],[4.6042,49.9802],[4.4648,49.9356],[4.4351,49.9323],[4.4277,49.9336],[4.4277,49.9337],[4.4306,49.9378],[4.444,49.959],[4.4147,49.9973],[4.4067,50.0493],[4.3906,50.053],[4.3862,50.0693],[4.3853,50.1093],[4.3984,50.1264],[4.3601,50.1693],[4.3966,50.1874],[4.3884,50.2017],[4.4005,50.2337],[4.3862,50.2408],[4.3651,50.2437],[4.3466,50.23],[4.3389,50.2298],[4.3025,50.2436],[4.286,50.258],[4.3257,50.2766],[4.3592,50.2781],[4.3722,50.2931],[4.3902,50.2925],[4.3983,50.3112],[4.4538,50.3062],[4.4742,50.3288],[4.502,50.3304],[4.5203,50.3154],[4.5879,50.3225],[4.5816,50.36],[4.6058,50.3857],[4.5851,50.4012],[4.6011,50.4043],[4.616,50.4252],[4.5727,50.4418],[4.5821,50.4479],[4.5725,50.4549],[4.586,50.4565],[4.5993,50.4798],[4.587,50.4906],[4.5948,50.4999],[4.5589,50.4941],[4.5768,50.5434],[4.5732,50.5604],[4.5901,50.5689],[4.6078,50.5705],[4.6442,50.5622],[4.6666,50.5654],[4.655,50.5966],[4.6661,50.6085],[4.6758,50.6085],[4.7037,50.5961],[4.7083,50.6071],[4.7341,50.6117],[4.7405,50.5916],[4.7807,50.6016],[4.7919,50.591],[4.7881,50.6026],[4.7932,50.6057],[4.9004,50.6237],[4.9014,50.6298],[4.9279,50.6284],[4.9508,50.648],[4.9826,50.6434],[4.9791,50.6193],[5.0277,50.5899],[5.0534,50.5419],[5.0346,50.5329],[5.0904,50.5309],[5.1054,50.5074],[5.119,50.5058],[5.1428,50.5129],[5.1293,50.5046],[5.1363,50.4888],[5.156,50.4906],[5.151,50.4819],[5.1621,50.4699],[5.1959,50.4786],[5.2176,50.4647],[5.2361,50.4381],[5.2205,50.4184],[5.2328,50.4056],[5.2824,50.3969],[5.2813,50.3785],[5.2951,50.3662],[5.3499,50.3897],[5.3924,50.3805],[5.4012,50.3676],[5.3802,50.3496],[5.3944,50.3378],[5.3401,50.3118],[5.3478,50.3066],[5.3602,50.3181],[5.3834,50.3192],[5.3937,50.3032],[5.3927,50.2881],[5.3652,50.2697],[5.2945,50.2404],[5.284,50.2492],[5.273,50.2485],[5.2507,50.2388],[5.2533,50.2271],[5.2245,50.2283],[5.2059,50.2199],[5.2444,50.2062],[5.2335,50.1963],[5.2456,50.1962],[5.2441,50.186],[5.2796,50.1595],[5.2703,50.1414],[5.2418,50.1355],[5.2673,50.1203],[5.2622,50.1096],[5.2354,50.1113],[5.2083,50.0991],[5.187,50.0962],[5.0933,50.092],[5.0721,50.0968],[5.0662,50.1248],[5.0515,50.0863],[5.0602,50.0806],[5.0496,50.0637],[5.017,50.0418],[5.0073,50.0397],[4.9982,50.0458],[4.9911,50.0303],[4.9722,50.0306],[4.9965,50.0153],[5.0094,49.9827],[5.02,49.9793],[5.0626,49.9848],[5.0718,49.9713],[5.101,49.9616],[5.0972,49.9393],[5.1189,49.9253],[5.0687,49.9124],[5.0432,49.8969],[5.0599,49.8861],[4.9849,49.8513],[4.9807,49.8425],[4.9892,49.8234],[4.9763,49.8209],[4.9718,49.8039],[4.9685,49.7973],[4.9684,49.797],[4.95,49.7964],[4.9066,49.7865],[4.8842,49.7841],[4.858,49.7866],[4.849,49.7942],[4.8492,49.8316],[4.8468,49.8375],[4.8369,49.848],[4.8349,49.853],[4.8367,49.8591],[4.8456,49.8658],[4.8489,49.8711],[4.8543,49.8833],[4.8594,49.8917],[4.862,49.9003],[4.8602,49.9133],[4.8446,49.9317],[4.7973,49.9443],[4.7839,49.9583],[4.7883,49.9743],[4.8267,50.036],[4.8276,50.0467],[4.8261,50.055],[4.8272,50.0641],[4.846,50.0907],[4.8521,50.0916],[4.8629,50.0841],[4.8652,50.1016],[4.8705,50.1223],[4.8719,50.1398],[4.8627,50.1476],[4.8314,50.1434]]]}},{"type":"Feature","properties":{"id":"BEL-3482","name":"Walloon Brabant","nameBn":"ওয়াল্লুন ব্রাবান্ট","type":"Province","bounds":[4.0902,50.5272,5.0191,50.8087],"center":[4.5547,50.6416]},"geometry":{"type":"Polygon","coordinates":[[[4.0997,50.7071],[4.1075,50.7172],[4.1318,50.7169],[4.1391,50.7279],[4.149,50.7304],[4.1586,50.7278],[4.1803,50.7087],[4.2074,50.7091],[4.24,50.692],[4.2596,50.7011],[4.2872,50.6952],[4.3018,50.6983],[4.3088,50.7036],[4.3114,50.7188],[4.3332,50.719],[4.3226,50.729],[4.3299,50.7343],[4.349,50.7176],[4.3679,50.7167],[4.3737,50.7318],[4.4217,50.7366],[4.458,50.7546],[4.48,50.759],[4.4945,50.7576],[4.4902,50.7461],[4.4951,50.7411],[4.5269,50.7294],[4.5292,50.7418],[4.5729,50.7484],[4.5966,50.7647],[4.6018,50.743],[4.6352,50.7441],[4.6546,50.7584],[4.6363,50.774],[4.6405,50.7996],[4.6927,50.791],[4.7102,50.7973],[4.7142,50.7898],[4.7229,50.8026],[4.7496,50.8087],[4.7915,50.7995],[4.8129,50.7769],[4.8369,50.7755],[4.8326,50.7646],[4.908,50.7696],[4.9045,50.7516],[4.9172,50.7448],[4.9323,50.7463],[4.9814,50.7709],[5.0191,50.7519],[5.0158,50.7335],[4.992,50.7253],[5.0166,50.703],[5.0008,50.6958],[5.0018,50.6662],[4.9826,50.6434],[4.9508,50.648],[4.9279,50.6284],[4.9014,50.6298],[4.9004,50.6237],[4.7932,50.6057],[4.7881,50.6026],[4.7919,50.591],[4.7807,50.6016],[4.7405,50.5916],[4.7341,50.6117],[4.7083,50.6071],[4.7037,50.5961],[4.6758,50.6085],[4.6661,50.6085],[4.655,50.5966],[4.6666,50.5654],[4.6442,50.5622],[4.6078,50.5705],[4.5901,50.5689],[4.5732,50.5604],[4.5768,50.5434],[4.5166,50.5272],[4.5019,50.5314],[4.5031,50.5407],[4.4701,50.5297],[4.4729,50.5544],[4.4681,50.5596],[4.423,50.5593],[4.4125,50.5663],[4.3558,50.5624],[4.3308,50.5446],[4.3336,50.57],[4.3041,50.5681],[4.2789,50.593],[4.2465,50.5973],[4.252,50.6182],[4.1986,50.6268],[4.2037,50.6477],[4.1843,50.6639],[4.1733,50.6611],[4.1418,50.6336],[4.1186,50.6313],[4.1011,50.636],[4.0914,50.6537],[4.0902,50.6906],[4.0942,50.7035],[4.1124,50.7069],[4.0997,50.7071]]]}},{"type":"Feature","properties":{"id":"BEL-3479","name":"West Flanders","nameBn":"ওয়েস্ট ফ্লান্ডারস","type":"Province","bounds":[2.5218,50.7001,3.5225,51.3752],"center":[3.022,51.0312]},"geometry":{"type":"Polygon","coordinates":[[[2.6506,50.8122],[2.6425,50.8125],[2.6278,50.8144],[2.6204,50.8165],[2.6152,50.8222],[2.6066,50.8348],[2.602,50.8381],[2.5899,50.842],[2.5867,50.8454],[2.5878,50.85],[2.5955,50.8611],[2.5967,50.8676],[2.5769,50.9115],[2.5827,50.9207],[2.6058,50.9352],[2.6117,50.9412],[2.6084,50.9611],[2.5927,50.9761],[2.557,51.0012],[2.5471,51.0205],[2.537,51.0646],[2.5218,51.0875],[2.542,51.0969],[2.5799,51.1048],[2.7157,51.1695],[2.9236,51.2465],[3.1248,51.3297],[3.349,51.3751],[3.3494,51.3752],[3.3581,51.3367],[3.3539,51.3119],[3.3532,51.2886],[3.3674,51.2635],[3.3917,51.2468],[3.3988,51.2447],[3.4,51.2427],[3.367,51.2296],[3.3841,51.2036],[3.3598,51.1928],[3.387,51.1872],[3.4103,51.1611],[3.3745,51.1181],[3.3307,51.1001],[3.4438,51.0493],[3.4221,51.0395],[3.452,51.007],[3.4259,50.9824],[3.443,50.9678],[3.4121,50.959],[3.4602,50.9437],[3.4401,50.9439],[3.4553,50.9344],[3.4484,50.9299],[3.4247,50.9321],[3.4326,50.9206],[3.4192,50.9122],[3.4273,50.8984],[3.4505,50.9075],[3.4661,50.9034],[3.474,50.8846],[3.4505,50.8693],[3.5124,50.8355],[3.4995,50.8252],[3.5225,50.8052],[3.52,50.7979],[3.4576,50.7685],[3.4128,50.7474],[3.3674,50.7173],[3.3635,50.7097],[3.3536,50.7116],[3.3478,50.7119],[3.3231,50.7235],[3.3246,50.7372],[3.3033,50.7564],[3.2608,50.7523],[3.2197,50.7673],[3.1751,50.7527],[3.1628,50.7499],[3.1462,50.7689],[3.1292,50.7791],[3.1033,50.7841],[3.0238,50.7683],[3.023,50.7716],[3.0144,50.8051],[2.9988,50.8116],[2.9406,50.7967],[2.9397,50.7922],[2.9602,50.7768],[2.9224,50.767],[2.9181,50.7577],[2.8896,50.7541],[2.8754,50.7625],[2.8688,50.7612],[2.8422,50.7508],[2.8625,50.7096],[2.8667,50.7001],[2.7867,50.7234],[2.7682,50.7332],[2.763,50.7394],[2.7495,50.7596],[2.7438,50.7662],[2.7066,50.7888],[2.7,50.7963],[2.6969,50.803],[2.6919,50.8088],[2.6787,50.8132],[2.6692,50.8139],[2.6506,50.8122]]]}}]}