{"type":"FeatureCollection","features":[{"type":"Feature","properties":{"id":"BEN-2170","name":"Alibori","nameBn":"আলিবুরি বিভাগ","type":"Department","bounds":[2.0154,10.5178,3.8372,12.3992],"center":[2.926,11.4305]},"geometry":{"type":"Polygon","coordinates":[[[3.5964,11.6958],[3.5744,11.673],[3.5049,11.5566],[3.493,11.5115],[3.4867,11.4963],[3.4667,11.4425],[3.4684,11.4195],[3.4833,11.3923],[3.6625,11.1431],[3.6867,11.1205],[3.695,11.1191],[3.7044,11.1208],[3.7056,11.1207],[3.7137,11.1203],[3.7221,11.1123],[3.7118,11.0735],[3.7118,11.0519],[3.7159,11.0319],[3.7233,11.0135],[3.7335,10.9965],[3.7335,10.9962],[3.7541,10.9071],[3.753,10.8777],[3.7313,10.825],[3.73,10.8077],[3.7351,10.7958],[3.7432,10.7875],[3.7519,10.7802],[3.7595,10.7716],[3.7645,10.7609],[3.7739,10.7281],[3.7833,10.717],[3.7961,10.7131],[3.8102,10.7105],[3.823,10.7033],[3.8321,10.6839],[3.8371,10.6548],[3.8372,10.6306],[3.8369,10.6306],[3.4581,10.5891],[3.2172,10.5408],[2.9758,10.5209],[2.8296,10.5506],[2.775,10.5522],[2.6145,10.5306],[2.457,10.5423],[2.4061,10.5334],[2.3555,10.5301],[2.3032,10.518],[2.255,10.5178],[2.2662,10.524],[2.2612,10.8425],[2.263,10.8589],[2.2667,10.8712],[2.2769,10.8886],[2.2967,10.9111],[2.3562,10.9601],[2.3236,10.991],[2.3119,10.9991],[2.3093,10.9999],[2.3046,11.0003],[2.2997,11.0025],[2.2947,11.0054],[2.2859,11.0095],[2.2735,11.0118],[2.264,11.0121],[2.2147,11.0817],[2.0201,11.4263],[2.0154,11.4316],[2.147,11.5637],[2.2201,11.6225],[2.2736,11.6521],[2.2874,11.6653],[2.2911,11.6748],[2.2902,11.6857],[2.2908,11.7032],[2.3016,11.7315],[2.34,11.7739],[2.3541,11.7998],[2.3902,11.8965],[2.3882,11.9068],[2.3765,11.9241],[2.3752,11.935],[2.3809,11.9479],[2.3893,11.9501],[2.3987,11.9488],[2.4074,11.9512],[2.4141,11.9587],[2.422,11.9732],[2.4289,11.9804],[2.439,11.9813],[2.4494,11.9775],[2.4567,11.9791],[2.4573,11.9962],[2.4553,12.0087],[2.4488,12.0134],[2.4393,12.0156],[2.4286,12.0204],[2.4183,12.0287],[2.4112,12.0368],[2.4056,12.0467],[2.3719,12.1404],[2.3621,12.1962],[2.3612,12.2189],[2.37,12.2363],[2.3942,12.2472],[2.4079,12.2489],[2.4309,12.248],[2.4437,12.2492],[2.4461,12.2518],[2.4544,12.263],[2.4595,12.2667],[2.467,12.265],[2.4726,12.2593],[2.4777,12.2576],[2.4834,12.268],[2.488,12.2804],[2.4951,12.2832],[2.5045,12.2818],[2.5163,12.2814],[2.5191,12.2791],[2.5206,12.2737],[2.5237,12.2692],[2.5312,12.2697],[2.5369,12.273],[2.546,12.2816],[2.5506,12.2845],[2.5861,12.294],[2.5901,12.2933],[2.5986,12.2883],[2.6036,12.2878],[2.6097,12.2908],[2.6217,12.2995],[2.6286,12.3008],[2.6638,12.2916],[2.6729,12.2967],[2.6869,12.3184],[2.6902,12.3262],[2.6922,12.334],[2.6951,12.3412],[2.7004,12.3471],[2.7113,12.3512],[2.7218,12.3443],[2.7323,12.3468],[2.7415,12.3541],[2.7575,12.3729],[2.7685,12.3801],[2.7782,12.3819],[2.7984,12.3812],[2.8086,12.3832],[2.8324,12.3841],[2.8443,12.3992],[2.8923,12.3571],[2.9126,12.3463],[2.9226,12.3356],[2.9304,12.3233],[2.9368,12.3009],[2.945,12.2925],[2.956,12.2868],[2.9678,12.2826],[3.001,12.2789],[3.0094,12.2763],[3.0131,12.2711],[3.0229,12.2525],[3.0634,12.1938],[3.2354,12.0395],[3.2385,12.0342],[3.252,12.0241],[3.2551,12.0188],[3.2576,11.9974],[3.2626,11.9747],[3.2699,11.9565],[3.2927,11.9187],[3.307,11.9024],[3.3155,11.8946],[3.3278,11.8864],[3.3416,11.8829],[3.3551,11.889],[3.3691,11.8973],[3.3809,11.895],[3.3917,11.8888],[3.4028,11.8853],[3.4477,11.858],[3.4843,11.8452],[3.4954,11.8375],[3.5035,11.83],[3.537,11.7829],[3.5437,11.7771],[3.5493,11.7738],[3.5537,11.7697],[3.5574,11.7618],[3.5625,11.746],[3.5662,11.7384],[3.5682,11.7295],[3.5717,11.7219],[3.5801,11.7174],[3.5894,11.7015],[3.5964,11.6958]]]}},{"type":"Feature","properties":{"id":"BEN-2181","name":"Atakora","nameBn":"আতাকোরা বিভাগ","type":"Department","bounds":[0.7599,9.9469,2.3562,11.4738],"center":[1.5578,10.7035]},"geometry":{"type":"Polygon","coordinates":[[[1.9834,11.414],[2.0108,11.4269],[2.0154,11.4316],[2.0201,11.4263],[2.2147,11.0817],[2.264,11.0121],[2.2735,11.0118],[2.2859,11.0095],[2.2947,11.0054],[2.2997,11.0025],[2.3046,11.0003],[2.3093,10.9999],[2.3119,10.9991],[2.3236,10.991],[2.3562,10.9601],[2.2967,10.9111],[2.2769,10.8886],[2.2667,10.8712],[2.263,10.8589],[2.2612,10.8425],[2.2662,10.524],[2.255,10.5178],[2.2336,10.5057],[2.2303,10.5027],[2.2275,10.5007],[2.2024,10.4682],[2.1903,10.4467],[2.1838,10.4306],[2.1818,10.4163],[2.1822,10.401],[2.1832,10.3959],[2.1841,10.3932],[2.1878,10.3855],[2.1935,10.3778],[2.2192,10.354],[2.2254,10.3461],[2.23,10.3385],[2.2452,10.3001],[2.2485,10.2844],[2.2627,10.2384],[2.2705,10.1672],[2.2696,10.1471],[2.2676,10.1349],[2.2642,10.1304],[2.2573,10.1232],[2.2497,10.117],[2.2409,10.1119],[2.2011,10.0979],[2.185,10.0944],[2.1304,10.0927],[2.1203,10.0897],[2.1109,10.0855],[2.1054,10.082],[2.1,10.0768],[2.0922,10.0674],[2.0889,10.06],[2.0872,10.0542],[2.0876,10.0502],[2.0919,10.0315],[1.8079,10.0404],[1.7704,10.0265],[1.7353,10.0065],[1.7024,9.9799],[1.6599,9.959],[1.6096,9.9469],[1.5465,9.9538],[1.504,9.9635],[1.4554,9.9692],[1.4132,9.9705],[1.3565,9.9594],[1.3439,9.9548],[1.3438,9.9624],[1.331,9.9965],[1.2255,10.0661],[1.0822,10.1604],[0.9971,10.2165],[0.9395,10.2545],[0.8444,10.3172],[0.7688,10.3671],[0.7607,10.3822],[0.7599,10.4052],[0.7738,10.5081],[0.7885,10.5639],[0.7892,10.6029],[0.7813,10.693],[0.7956,10.7265],[0.85,10.7777],[0.8629,10.7961],[0.866,10.8064],[0.8676,10.8292],[0.8695,10.8399],[0.8851,10.8694],[0.8837,10.8802],[0.8753,10.9005],[0.8729,10.9113],[0.8758,10.9312],[0.9015,10.9927],[0.932,10.9761],[0.9454,10.9743],[0.9633,10.9741],[0.9675,10.9795],[0.97,10.9912],[0.9691,11.0029],[0.9633,11.0083],[0.9553,11.012],[0.9518,11.0211],[0.9513,11.0323],[0.9524,11.0424],[0.9559,11.0447],[0.9644,11.0574],[0.9703,11.0695],[0.9769,11.0784],[0.9814,11.0801],[0.986,11.0785],[1.0079,11.0751],[1.0146,11.0704],[1.0197,11.0657],[1.0251,11.0635],[1.028,11.0613],[1.0332,11.0516],[1.035,11.0493],[1.0413,11.0496],[1.0522,11.055],[1.0561,11.0561],[1.0869,11.0527],[1.097,11.0493],[1.0997,11.0444],[1.1068,11.0344],[1.1142,11.0277],[1.1175,11.0322],[1.1186,11.0482],[1.1073,11.0598],[1.1009,11.0704],[1.0993,11.0813],[1.0991,11.0926],[1.097,11.1045],[1.0952,11.1044],[1.0856,11.1087],[1.0828,11.1107],[1.0821,11.1153],[1.0839,11.1277],[1.0828,11.1318],[1.0734,11.1339],[1.067,11.1283],[1.0633,11.127],[1.0623,11.1421],[1.0675,11.1443],[1.1004,11.1516],[1.1062,11.1557],[1.113,11.1739],[1.1175,11.179],[1.1281,11.1789],[1.1481,11.1695],[1.1584,11.1659],[1.1532,11.1832],[1.1493,11.2172],[1.1306,11.2476],[1.1356,11.2601],[1.1459,11.2699],[1.1563,11.2855],[1.166,11.278],[1.1735,11.2666],[1.1722,11.2615],[1.1809,11.2614],[1.1862,11.2639],[1.1914,11.267],[1.2001,11.269],[1.219,11.268],[1.2352,11.2635],[1.2684,11.2479],[1.2811,11.2711],[1.2826,11.2789],[1.2804,11.2887],[1.2705,11.2983],[1.2684,11.3062],[1.2733,11.3182],[1.2845,11.3127],[1.2962,11.2996],[1.3025,11.2888],[1.3093,11.2971],[1.3163,11.2999],[1.3235,11.2971],[1.3304,11.2888],[1.3479,11.3035],[1.3459,11.3163],[1.3362,11.33],[1.3304,11.3472],[1.3391,11.3661],[1.359,11.3789],[1.3817,11.3887],[1.3981,11.3987],[1.3886,11.42],[1.3898,11.4284],[1.3981,11.4403],[1.4111,11.4498],[1.4232,11.4537],[1.4236,11.4539],[1.4338,11.4594],[1.4396,11.4738],[1.456,11.4647],[1.4753,11.4608],[1.5693,11.4533],[1.5673,11.4467],[1.565,11.4326],[1.5632,11.426],[1.5806,11.4271],[1.6016,11.3887],[1.6211,11.3953],[1.6382,11.4042],[1.6844,11.4139],[1.7035,11.4229],[1.7191,11.4278],[1.7633,11.4247],[1.7822,11.426],[1.8215,11.4416],[1.8406,11.4455],[1.858,11.4403],[1.8676,11.4466],[1.8798,11.4449],[1.9058,11.4328],[1.948,11.4167],[1.9834,11.414]]]}},{"type":"Feature","properties":{"id":"BEN-2174","name":"Atlantique","nameBn":"আটলান্টিক বিভাগ","type":"Department","bounds":[1.9578,6.2865,2.4874,6.9206],"center":[2.2226,6.6166]},"geometry":{"type":"Polygon","coordinates":[[[2.3599,6.3364],[2.307,6.3315],[2.2268,6.3137],[1.9877,6.2865],[1.9877,6.2866],[1.9883,6.2952],[1.9849,6.3132],[1.9763,6.3393],[1.9609,6.3615],[1.9578,6.3923],[1.963,6.4132],[1.9849,6.4696],[1.9905,6.484],[1.9932,6.4959],[1.9943,6.5165],[1.9909,6.573],[1.9898,6.6001],[1.9911,6.6094],[1.9942,6.6179],[2.0018,6.6301],[2.0069,6.6367],[2.0151,6.6449],[2.0174,6.6516],[2.0193,6.6624],[2.0182,6.6807],[2.0236,6.7065],[2.037,6.7337],[2.036,6.7534],[2.0342,6.7658],[2.0356,6.7743],[2.0392,6.7843],[2.0536,6.8094],[2.0618,6.8189],[2.0663,6.8277],[2.0821,6.868],[2.0883,6.8797],[2.0931,6.8949],[2.084,6.9193],[2.3849,6.9206],[2.4192,6.865],[2.4291,6.8243],[2.4322,6.7666],[2.4363,6.6593],[2.4373,6.6294],[2.4445,6.5383],[2.4555,6.5187],[2.4611,6.5174],[2.467,6.5152],[2.4713,6.5128],[2.4831,6.5045],[2.4874,6.459],[2.4834,6.4345],[2.4676,6.3958],[2.4204,6.39],[2.3992,6.3841],[2.3815,6.3727],[2.369,6.3609],[2.3599,6.3364]]]}},{"type":"Feature","properties":{"id":"BEN-2169","name":"Borgou","nameBn":"বুরগোয়া বিভাগ","type":"Department","bounds":[1.9702,8.7712,3.8374,10.6306],"center":[2.9036,9.8067]},"geometry":{"type":"Polygon","coordinates":[[[3.8372,10.6306],[3.8374,10.5999],[3.8299,10.5731],[3.8043,10.5232],[3.7954,10.4965],[3.7943,10.4449],[3.7877,10.4264],[3.7725,10.4076],[3.7569,10.4053],[3.6928,10.4384],[3.6717,10.4421],[3.6521,10.4358],[3.6326,10.4167],[3.626,10.4073],[3.6232,10.4009],[3.6221,10.3812],[3.6182,10.3693],[3.593,10.3309],[3.5724,10.2857],[3.5734,10.267],[3.5876,10.2442],[3.6556,10.1748],[3.6646,10.1622],[3.6675,10.1466],[3.6648,10.1287],[3.664,10.1231],[3.6549,10.1011],[3.6424,10.0919],[3.6278,10.085],[3.6123,10.0703],[3.6058,10.0541],[3.5996,9.9687],[3.5895,9.9488],[3.5571,9.9106],[3.5308,9.863],[3.5131,9.8466],[3.4529,9.8531],[3.414,9.8428],[3.342,9.8136],[3.3259,9.8017],[3.3171,9.7817],[3.3149,9.7591],[3.3184,9.7394],[3.3307,9.7086],[3.3386,9.6782],[3.3316,9.652],[3.2991,9.634],[3.2814,9.635],[3.2618,9.6386],[3.2457,9.6337],[3.2382,9.6091],[3.2394,9.6023],[3.2447,9.5896],[3.2436,9.5844],[3.1826,9.5053],[3.1751,9.4989],[3.159,9.4935],[3.1518,9.4882],[3.1326,9.4573],[3.1286,9.4296],[3.1353,9.4017],[3.1481,9.3703],[3.1515,9.3536],[3.1514,9.2886],[3.1452,9.2679],[3.1246,9.229],[3.0913,9.1264],[3.076,9.0952],[3.0514,9.0782],[2.9831,9.0606],[2.9714,9.0605],[2.9614,9.0653],[2.9517,9.0719],[2.9407,9.0771],[2.9299,9.0784],[2.8992,9.0774],[2.8884,9.0754],[2.8778,9.0685],[2.8693,9.0597],[2.8597,9.0526],[2.8463,9.0508],[2.7692,9.057],[2.7724,9.0305],[2.7702,8.9672],[2.7647,8.9398],[2.7615,8.9337],[2.7502,8.9169],[2.7478,8.9148],[2.7495,8.9066],[2.7538,8.9044],[2.7587,8.9027],[2.7625,8.8957],[2.7621,8.8804],[2.7496,8.8519],[2.7459,8.8365],[2.7471,8.8277],[2.7523,8.8123],[2.7511,8.8034],[2.7457,8.7981],[2.7289,8.7905],[2.7232,8.7829],[2.7229,8.7723],[2.7229,8.7712],[2.7226,8.7712],[2.1946,8.7767],[2.2031,8.8119],[2.1972,8.818],[2.1942,8.8199],[2.188,8.8224],[2.088,8.8502],[2.068,8.8597],[2.0589,8.8656],[2.051,8.8719],[2.0441,8.8793],[2.038,8.8873],[2.0343,8.8944],[2.0311,8.9027],[2.0266,8.9233],[2.0252,8.9395],[2.0273,8.9889],[2.0294,9.0002],[2.0294,9.0003],[2.0345,9.0345],[2.0407,9.0586],[2.0491,9.0792],[2.0505,9.0848],[2.0508,9.0914],[2.0494,9.0984],[2.0451,9.1062],[2.0418,9.11],[2.0385,9.1126],[2.0091,9.1265],[2.0015,9.1315],[1.9967,9.1356],[1.9905,9.1424],[1.9845,9.1501],[1.9795,9.1588],[1.9775,9.164],[1.9732,9.1854],[1.9702,9.217],[1.9707,9.2741],[1.9755,9.3077],[1.9901,9.351],[1.9994,9.3579],[2.0069,9.3622],[2.0117,9.3639],[2.028,9.3667],[2.0514,9.3682],[2.0891,9.3673],[2.0947,9.3684],[2.0999,9.37],[2.1042,9.3724],[2.1081,9.3753],[2.114,9.3809],[2.1181,9.3866],[2.1219,9.3997],[2.1613,9.6565],[2.1611,9.6707],[2.1521,9.6885],[2.1355,9.7031],[2.115,9.7247],[2.1019,9.7455],[2.0999,9.75],[2.0806,9.8054],[2.0795,9.8185],[2.0803,9.8356],[2.0888,9.8883],[2.0965,9.9167],[2.0965,9.9362],[2.0877,9.9851],[2.0962,10.0003],[2.0969,10.0007],[2.0983,10.0021],[2.0995,10.0066],[2.1005,10.0113],[2.0919,10.0315],[2.0876,10.0502],[2.0872,10.0542],[2.0889,10.06],[2.0922,10.0674],[2.1,10.0768],[2.1054,10.082],[2.1109,10.0855],[2.1203,10.0897],[2.1304,10.0927],[2.185,10.0944],[2.2011,10.0979],[2.2409,10.1119],[2.2497,10.117],[2.2573,10.1232],[2.2642,10.1304],[2.2676,10.1349],[2.2696,10.1471],[2.2705,10.1672],[2.2627,10.2384],[2.2485,10.2844],[2.2452,10.3001],[2.23,10.3385],[2.2254,10.3461],[2.2192,10.354],[2.1935,10.3778],[2.1878,10.3855],[2.1841,10.3932],[2.1832,10.3959],[2.1822,10.401],[2.1818,10.4163],[2.1838,10.4306],[2.1903,10.4467],[2.2024,10.4682],[2.2275,10.5007],[2.2303,10.5027],[2.2336,10.5057],[2.255,10.5178],[2.3032,10.518],[2.3555,10.5301],[2.4061,10.5334],[2.457,10.5423],[2.6145,10.5306],[2.775,10.5522],[2.8296,10.5506],[2.9758,10.5209],[3.2172,10.5408],[3.4581,10.5891],[3.8369,10.6306],[3.8372,10.6306]]]}},{"type":"Feature","properties":{"id":"BEN-2171","name":"Collines","nameBn":"কলিন্স বিভাগ","type":"Department","bounds":[1.6011,7.426,2.7448,8.7767],"center":[2.1725,8.0051]},"geometry":{"type":"Polygon","coordinates":[[[2.6717,7.8934],[2.6722,7.8896],[2.6803,7.8773],[2.6915,7.8487],[2.7155,7.8221],[2.7244,7.8077],[2.7272,7.7933],[2.7176,7.6585],[2.7173,7.6586],[2.5115,7.6597],[2.4982,7.6591],[2.4831,7.6175],[2.4808,7.5892],[2.4876,7.5632],[2.4853,7.5521],[2.4708,7.5476],[2.4609,7.541],[2.4295,7.4967],[2.4178,7.4749],[2.4203,7.4509],[2.4275,7.426],[2.2482,7.5076],[2.1776,7.5298],[2.1194,7.535],[2.0666,7.5336],[2.0193,7.5416],[1.9814,7.5675],[1.944,7.6004],[1.8894,7.6231],[1.8447,7.6324],[1.6425,7.6207],[1.6229,7.6225],[1.6228,7.6401],[1.6219,7.8383],[1.6213,7.9966],[1.6238,8.1559],[1.6256,8.2705],[1.6149,8.3563],[1.6099,8.3655],[1.6039,8.3675],[1.6011,8.3716],[1.606,8.396],[1.606,8.4134],[1.6076,8.4219],[1.6404,8.4758],[1.6442,8.4935],[1.6399,8.5033],[1.6141,8.5358],[1.609,8.547],[1.6076,8.5588],[1.6072,8.5886],[1.6253,8.5873],[1.679,8.5854],[1.6979,8.5871],[1.7032,8.5869],[1.7142,8.588],[1.8011,8.6112],[1.8176,8.6139],[1.8297,8.6149],[1.8359,8.6133],[1.8466,8.6089],[1.8551,8.6036],[1.8627,8.5974],[1.8897,8.5684],[1.8938,8.5655],[1.8984,8.5629],[1.9037,8.5608],[1.9093,8.5592],[1.9155,8.5584],[1.9459,8.5587],[1.9518,8.5578],[1.9566,8.5559],[1.9609,8.553],[1.9645,8.5497],[1.9794,8.5305],[1.9867,8.5236],[1.9954,8.5179],[2.0049,8.513],[2.0342,8.5042],[2.0385,8.5018],[2.05,8.4925],[2.0548,8.4904],[2.0603,8.4894],[2.0846,8.4895],[2.0965,8.4874],[2.1242,8.4774],[2.1302,8.4762],[2.1363,8.4756],[2.1599,8.4765],[2.177,8.4813],[2.1889,8.487],[2.1976,8.4925],[2.2117,8.5031],[2.2195,8.5151],[2.2139,8.5208],[2.2067,8.545],[2.2201,8.6307],[2.2037,8.72],[2.1965,8.7337],[2.1872,8.7457],[2.1946,8.7767],[2.7226,8.7712],[2.7229,8.7712],[2.7424,8.5275],[2.7448,8.4983],[2.7369,8.4645],[2.729,8.4527],[2.709,8.4304],[2.7037,8.4179],[2.7035,8.409],[2.706,8.3905],[2.706,8.3813],[2.6984,8.3399],[2.6971,8.3207],[2.7007,8.2969],[2.7085,8.2748],[2.7281,8.2332],[2.735,8.2119],[2.7344,8.19],[2.7266,8.1716],[2.7161,8.1549],[2.7084,8.138],[2.7057,8.1197],[2.7035,8.0599],[2.6909,7.9966],[2.6871,7.9335],[2.6836,7.9246],[2.6734,7.9056],[2.6711,7.8979],[2.6717,7.8934]]]}},{"type":"Feature","properties":{"id":"BEN-2182","name":"Donga","nameBn":"ডংগা বিভাগ","type":"Department","bounds":[1.3232,8.4756,2.2201,10.0404],"center":[1.7714,9.3151]},"geometry":{"type":"Polygon","coordinates":[[[1.3513,9.4825],[1.3365,9.4975],[1.3264,9.522],[1.3232,9.5423],[1.3273,9.5553],[1.3451,9.5824],[1.3513,9.5951],[1.3525,9.6053],[1.3522,9.6254],[1.3546,9.6353],[1.356,9.6475],[1.3482,9.6942],[1.3469,9.7718],[1.3451,9.8811],[1.3439,9.9548],[1.3565,9.9594],[1.4132,9.9705],[1.4554,9.9692],[1.504,9.9635],[1.5465,9.9538],[1.6096,9.9469],[1.6599,9.959],[1.7024,9.9799],[1.7353,10.0065],[1.7704,10.0265],[1.8079,10.0404],[2.0919,10.0315],[2.1005,10.0113],[2.0995,10.0066],[2.0983,10.0021],[2.0969,10.0007],[2.0962,10.0003],[2.0877,9.9851],[2.0965,9.9362],[2.0965,9.9167],[2.0888,9.8883],[2.0803,9.8356],[2.0795,9.8185],[2.0806,9.8054],[2.0999,9.75],[2.1019,9.7455],[2.115,9.7247],[2.1355,9.7031],[2.1521,9.6885],[2.1611,9.6707],[2.1613,9.6565],[2.1219,9.3997],[2.1181,9.3866],[2.114,9.3809],[2.1081,9.3753],[2.1042,9.3724],[2.0999,9.37],[2.0947,9.3684],[2.0891,9.3673],[2.0514,9.3682],[2.028,9.3667],[2.0117,9.3639],[2.0069,9.3622],[1.9994,9.3579],[1.9901,9.351],[1.9755,9.3077],[1.9707,9.2741],[1.9702,9.217],[1.9732,9.1854],[1.9775,9.164],[1.9795,9.1588],[1.9845,9.1501],[1.9905,9.1424],[1.9967,9.1356],[2.0015,9.1315],[2.0091,9.1265],[2.0385,9.1126],[2.0418,9.11],[2.0451,9.1062],[2.0494,9.0984],[2.0508,9.0914],[2.0505,9.0848],[2.0491,9.0792],[2.0407,9.0586],[2.0345,9.0345],[2.0294,9.0003],[2.0294,9.0002],[2.0273,8.9889],[2.0252,8.9395],[2.0266,8.9233],[2.0311,8.9027],[2.0343,8.8944],[2.038,8.8873],[2.0441,8.8793],[2.051,8.8719],[2.0589,8.8656],[2.068,8.8597],[2.088,8.8502],[2.188,8.8224],[2.1942,8.8199],[2.1972,8.818],[2.2031,8.8119],[2.1946,8.7767],[2.1872,8.7457],[2.1965,8.7337],[2.2037,8.72],[2.2201,8.6307],[2.2067,8.545],[2.2139,8.5208],[2.2195,8.5151],[2.2117,8.5031],[2.1976,8.4925],[2.1889,8.487],[2.177,8.4813],[2.1599,8.4765],[2.1363,8.4756],[2.1302,8.4762],[2.1242,8.4774],[2.0965,8.4874],[2.0846,8.4895],[2.0603,8.4894],[2.0548,8.4904],[2.05,8.4925],[2.0385,8.5018],[2.0342,8.5042],[2.0049,8.513],[1.9954,8.5179],[1.9867,8.5236],[1.9794,8.5305],[1.9645,8.5497],[1.9609,8.553],[1.9566,8.5559],[1.9518,8.5578],[1.9459,8.5587],[1.9155,8.5584],[1.9093,8.5592],[1.9037,8.5608],[1.8984,8.5629],[1.8938,8.5655],[1.8897,8.5684],[1.8627,8.5974],[1.8551,8.6036],[1.8466,8.6089],[1.8359,8.6133],[1.8297,8.6149],[1.8176,8.6139],[1.8011,8.6112],[1.7142,8.588],[1.7032,8.5869],[1.6979,8.5871],[1.679,8.5854],[1.6253,8.5873],[1.6072,8.5886],[1.6055,8.7225],[1.6043,8.8152],[1.6028,8.9244],[1.6012,9.0495],[1.5958,9.0768],[1.5878,9.1009],[1.5673,9.1367],[1.5052,9.2015],[1.4253,9.2845],[1.4201,9.2923],[1.4012,9.3213],[1.3867,9.3611],[1.3799,9.4625],[1.3684,9.4908],[1.3513,9.4825]]]}},{"type":"Feature","properties":{"id":"BEN-2176","name":"Kouffo","nameBn":"কুফু বিভাগ","type":"Department","bounds":[1.5319,6.69,2.0931,7.5364],"center":[1.8123,6.985]},"geometry":{"type":"Polygon","coordinates":[[[1.6075,6.9914],[1.6257,6.9968],[1.6249,7.1436],[1.6243,7.2888],[1.6237,7.4381],[1.6233,7.5364],[1.6556,7.5298],[1.6768,7.5043],[1.6844,7.492],[1.7369,7.381],[1.7426,7.3553],[1.7462,7.3476],[1.7519,7.3393],[1.7538,7.3325],[1.7553,7.3135],[1.7592,7.3056],[1.7672,7.296],[1.7827,7.2844],[1.8213,7.2349],[1.8261,7.2238],[1.8298,7.2175],[1.8426,7.2096],[1.8579,7.1829],[1.8709,7.1363],[1.8804,7.0927],[1.8928,7.0718],[1.8997,7.0669],[1.9054,7.0643],[1.9214,7.0522],[1.9423,7.0202],[1.9586,6.9974],[1.9747,6.989],[1.9883,6.9687],[1.9929,6.951],[1.9951,6.9465],[2.0005,6.9414],[2.0346,6.9162],[2.0434,6.9127],[2.0499,6.9119],[2.0604,6.9162],[2.077,6.9254],[2.084,6.9193],[2.0931,6.8949],[2.0883,6.8797],[2.0821,6.868],[2.0663,6.8277],[2.0618,6.8189],[2.0536,6.8094],[2.0392,6.7843],[2.0356,6.7743],[2.0342,6.7658],[2.036,6.7534],[2.037,6.7337],[2.0236,6.7065],[1.9627,6.737],[1.9318,6.7457],[1.8984,6.747],[1.8439,6.7352],[1.7808,6.7121],[1.6867,6.69],[1.6649,6.6904],[1.648,6.6925],[1.5934,6.7185],[1.5892,6.7205],[1.597,6.731],[1.6011,6.7464],[1.5952,6.7706],[1.5875,6.791],[1.5832,6.8083],[1.5826,6.8253],[1.5901,6.8673],[1.588,6.8812],[1.5791,6.892],[1.5642,6.9031],[1.5626,6.9043],[1.5514,6.9209],[1.5319,6.9919],[1.6075,6.9914]]]}},{"type":"Feature","properties":{"id":"BEN-2175","name":"Littoral","nameBn":"লিট্টোরাল বিভাগ","type":"Department","bounds":[2.3599,6.3364,2.484,6.3958],"center":[2.4219,6.3662]},"geometry":{"type":"Polygon","coordinates":[[[2.484,6.3479],[2.3599,6.3364],[2.369,6.3609],[2.3815,6.3727],[2.3992,6.3841],[2.4204,6.39],[2.4676,6.3958],[2.4643,6.3752],[2.4719,6.3687],[2.4768,6.368],[2.4817,6.365],[2.484,6.3479]]]}},{"type":"Feature","properties":{"id":"BEN-2180","name":"Mono","nameBn":"মনো বিভাগ","type":"Department","bounds":[1.566,6.2139,2.0236,6.747],"center":[1.7947,6.4857]},"geometry":{"type":"Polygon","coordinates":[[[1.6368,6.5723],[1.6274,6.5733],[1.6196,6.578],[1.6112,6.5847],[1.6033,6.5926],[1.5973,6.6008],[1.5941,6.611],[1.5948,6.6203],[1.5965,6.6286],[1.5963,6.6364],[1.5854,6.6564],[1.5724,6.6669],[1.566,6.6781],[1.5743,6.7006],[1.5892,6.7205],[1.5934,6.7185],[1.648,6.6925],[1.6649,6.6904],[1.6867,6.69],[1.7808,6.7121],[1.8439,6.7352],[1.8984,6.747],[1.9318,6.7457],[1.9627,6.737],[2.0236,6.7065],[2.0182,6.6807],[2.0193,6.6624],[2.0174,6.6516],[2.0151,6.6449],[2.0069,6.6367],[2.0018,6.6301],[1.9942,6.6179],[1.9911,6.6094],[1.9898,6.6001],[1.9909,6.573],[1.9943,6.5165],[1.9932,6.4959],[1.9905,6.484],[1.9849,6.4696],[1.963,6.4132],[1.9578,6.3923],[1.9609,6.3615],[1.9763,6.3393],[1.9849,6.3132],[1.9883,6.2952],[1.9877,6.2866],[1.9877,6.2865],[1.8845,6.2748],[1.6196,6.2139],[1.6124,6.2348],[1.6331,6.2457],[1.7616,6.276],[1.7824,6.2773],[1.7635,6.3506],[1.7441,6.4257],[1.7184,6.467],[1.7098,6.4734],[1.6883,6.4844],[1.6817,6.4898],[1.6795,6.4986],[1.682,6.52],[1.6808,6.5301],[1.6744,6.5386],[1.6578,6.5523],[1.6552,6.5592],[1.6539,6.5707],[1.6466,6.5732],[1.6368,6.5723]]]}},{"type":"Feature","properties":{"id":"BEN-2177","name":"Ouémé","nameBn":"উয়েমে বিভাগ","type":"Department","bounds":[2.3849,6.3479,2.7188,6.9936],"center":[2.5517,6.5942]},"geometry":{"type":"Polygon","coordinates":[[[2.7119,6.474],[2.7043,6.4293],[2.7038,6.3684],[2.7033,6.3683],[2.484,6.3479],[2.4817,6.365],[2.4768,6.368],[2.4719,6.3687],[2.4643,6.3752],[2.4676,6.3958],[2.4834,6.4345],[2.4874,6.459],[2.4831,6.5045],[2.4713,6.5128],[2.467,6.5152],[2.4611,6.5174],[2.4555,6.5187],[2.4445,6.5383],[2.4373,6.6294],[2.4363,6.6593],[2.4322,6.7666],[2.4291,6.8243],[2.4192,6.865],[2.3849,6.9206],[2.3866,6.9408],[2.3976,6.9603],[2.4139,6.9823],[2.43,6.9908],[2.458,6.9936],[2.52,6.9932],[2.5183,6.9423],[2.5279,6.8916],[2.5757,6.7761],[2.5964,6.6589],[2.6156,6.6275],[2.6642,6.5867],[2.6796,6.5703],[2.7185,6.5048],[2.7188,6.5043],[2.7154,6.4945],[2.7119,6.474]]]}},{"type":"Feature","properties":{"id":"BEN-2179","name":"Plateau","nameBn":"প্লাতেও বিভাগ","type":"Department","bounds":[2.4178,6.5043,2.7923,7.6597],"center":[2.6048,7.1521]},"geometry":{"type":"Polygon","coordinates":[[[2.7176,7.6585],[2.7153,7.6258],[2.7206,7.5866],[2.7406,7.5494],[2.7702,7.5143],[2.7923,7.4776],[2.7896,7.4358],[2.7873,7.4269],[2.7865,7.4213],[2.7833,7.4192],[2.7617,7.4235],[2.7513,7.4236],[2.7436,7.4192],[2.7412,7.4082],[2.7621,7.1622],[2.7611,7.1483],[2.7578,7.1389],[2.7498,7.1286],[2.7406,7.1096],[2.7363,7.1029],[2.7353,7.096],[2.7391,7.083],[2.7477,7.0722],[2.7739,7.0508],[2.7797,7.0413],[2.7758,7.0305],[2.7655,7.0251],[2.7527,7.0213],[2.7411,7.0158],[2.7151,6.9798],[2.7184,6.9436],[2.732,6.9052],[2.7369,6.8633],[2.7263,6.8214],[2.7236,6.7997],[2.7287,6.78],[2.7363,6.7698],[2.7448,6.7638],[2.755,6.7607],[2.7674,6.7596],[2.7733,6.755],[2.7753,6.7449],[2.7786,6.6988],[2.773,6.6875],[2.7607,6.6794],[2.7426,6.6633],[2.7311,6.6418],[2.7308,6.6214],[2.7394,6.5792],[2.7373,6.558],[2.7188,6.5043],[2.7185,6.5048],[2.6796,6.5703],[2.6642,6.5867],[2.6156,6.6275],[2.5964,6.6589],[2.5757,6.7761],[2.5279,6.8916],[2.5183,6.9423],[2.52,6.9932],[2.5391,6.9918],[2.5464,6.9919],[2.5523,6.9929],[2.5567,6.9951],[2.559,6.9981],[2.5598,6.9995],[2.5601,7.0001],[2.5601,7.0002],[2.5553,7.0447],[2.5331,7.156],[2.5343,7.1729],[2.5338,7.1785],[2.5281,7.185],[2.4808,7.2171],[2.4656,7.2502],[2.4499,7.3093],[2.4467,7.3211],[2.4465,7.3367],[2.442,7.3463],[2.4364,7.3537],[2.433,7.3627],[2.433,7.4073],[2.4275,7.426],[2.4203,7.4509],[2.4178,7.4749],[2.4295,7.4967],[2.4609,7.541],[2.4708,7.5476],[2.4853,7.5521],[2.4876,7.5632],[2.4808,7.5892],[2.4831,7.6175],[2.4982,7.6591],[2.5115,7.6597],[2.7173,7.6586],[2.7176,7.6585]]]}},{"type":"Feature","properties":{"id":"BEN-2178","name":"Zou","nameBn":"জু বিভাগ","type":"Department","bounds":[1.6229,6.9119,2.5601,7.6324],"center":[2.0913,7.2268]},"geometry":{"type":"Polygon","coordinates":[[[1.6233,7.5364],[1.6229,7.6225],[1.6425,7.6207],[1.8447,7.6324],[1.8894,7.6231],[1.944,7.6004],[1.9814,7.5675],[2.0193,7.5416],[2.0666,7.5336],[2.1194,7.535],[2.1776,7.5298],[2.2482,7.5076],[2.4275,7.426],[2.433,7.4073],[2.433,7.3627],[2.4364,7.3537],[2.442,7.3463],[2.4465,7.3367],[2.4467,7.3211],[2.4499,7.3093],[2.4656,7.2502],[2.4808,7.2171],[2.5281,7.185],[2.5338,7.1785],[2.5343,7.1729],[2.5331,7.156],[2.5553,7.0447],[2.5601,7.0002],[2.5601,7.0001],[2.5598,6.9995],[2.559,6.9981],[2.5567,6.9951],[2.5523,6.9929],[2.5464,6.9919],[2.5391,6.9918],[2.52,6.9932],[2.458,6.9936],[2.43,6.9908],[2.4139,6.9823],[2.3976,6.9603],[2.3866,6.9408],[2.3849,6.9206],[2.084,6.9193],[2.077,6.9254],[2.0604,6.9162],[2.0499,6.9119],[2.0434,6.9127],[2.0346,6.9162],[2.0005,6.9414],[1.9951,6.9465],[1.9929,6.951],[1.9883,6.9687],[1.9747,6.989],[1.9586,6.9974],[1.9423,7.0202],[1.9214,7.0522],[1.9054,7.0643],[1.8997,7.0669],[1.8928,7.0718],[1.8804,7.0927],[1.8709,7.1363],[1.8579,7.1829],[1.8426,7.2096],[1.8298,7.2175],[1.8261,7.2238],[1.8213,7.2349],[1.7827,7.2844],[1.7672,7.296],[1.7592,7.3056],[1.7553,7.3135],[1.7538,7.3325],[1.7519,7.3393],[1.7462,7.3476],[1.7426,7.3553],[1.7369,7.381],[1.6844,7.492],[1.6768,7.5043],[1.6556,7.5298],[1.6233,7.5364]]]}}]}