{"type":"FeatureCollection","features":[{"type":"Feature","properties":{"id":"BMU-5134","name":"City of Hamilton","nameBn":"সিটি অফ হ্যামিল্টন","type":null,"bounds":[-64.7945,32.2895,-64.7844,32.2973],"center":[-64.7884,32.2938]},"geometry":{"type":"Polygon","coordinates":[[[-64.7844,32.2906],[-64.7945,32.2895],[-64.7938,32.2964],[-64.7844,32.2973],[-64.7844,32.2906]]]}},{"type":"Feature","properties":{"id":"BMU-5135","name":"City of Saint George","nameBn":"সিটি অফ সেন্ট জর্জ","type":null,"bounds":[-64.681,32.3698,-64.6685,32.381],"center":[-64.6742,32.3747]},"geometry":{"type":"Polygon","coordinates":[[[-64.6721,32.381],[-64.6685,32.3743],[-64.677,32.3698],[-64.681,32.376],[-64.6721,32.381]]]}},{"type":"Feature","properties":{"id":"BMU-5136","name":"Devonshire","nameBn":"ডেভনশায়ার","type":null,"bounds":[-64.7801,32.2862,-64.7379,32.3165],"center":[-64.7566,32.3033]},"geometry":{"type":"Polygon","coordinates":[[[-64.7801,32.3034],[-64.7618,32.3109],[-64.7512,32.3136],[-64.7482,32.3165],[-64.7379,32.3021],[-64.7406,32.3004],[-64.7549,32.2931],[-64.7608,32.2862],[-64.767,32.2964],[-64.779,32.2911],[-64.7801,32.3034]]]}},{"type":"Feature","properties":{"id":"BMU-5137","name":"Hamilton","nameBn":"হ্যামিল্টন","type":null,"bounds":[-64.7427,32.317,-64.6949,32.3525],"center":[-64.7197,32.3454]},"geometry":{"type":"MultiPolygon","coordinates":[[[[-64.7054,32.3361],[-64.7131,32.3426],[-64.7246,32.3388],[-64.7329,32.3337],[-64.7347,32.3277],[-64.7395,32.3287],[-64.7417,32.3331],[-64.7364,32.3438],[-64.722,32.3525],[-64.7081,32.3516],[-64.705,32.343],[-64.6949,32.3399],[-64.7054,32.3361]]],[[[-64.7139,32.3295],[-64.7054,32.3361],[-64.6984,32.3264],[-64.7073,32.3212],[-64.7139,32.3295]]],[[[-64.7427,32.3218],[-64.7403,32.324],[-64.736,32.3229],[-64.7312,32.3231],[-64.7397,32.317],[-64.7427,32.3218]]]]}},{"type":"Feature","properties":{"id":"BMU-5138","name":"Paget","nameBn":"পাগেত","type":null,"bounds":[-64.8112,32.2653,-64.7608,32.2964],"center":[-64.7811,32.2784]},"geometry":{"type":"MultiPolygon","coordinates":[[[[-64.7971,32.2791],[-64.7809,32.2875],[-64.779,32.2911],[-64.767,32.2964],[-64.7608,32.2862],[-64.7639,32.2826],[-64.7833,32.2675],[-64.7883,32.2653],[-64.7971,32.2791]]],[[[-64.8077,32.2864],[-64.8,32.2833],[-64.8027,32.281],[-64.8112,32.2822],[-64.8077,32.2864]]]]}},{"type":"Feature","properties":{"id":"BMU-5139","name":"Pembroke","nameBn":"পেম্ব্রোক","type":null,"bounds":[-64.814,32.2895,-64.779,32.3076],"center":[-64.7997,32.2995]},"geometry":{"type":"Polygon","coordinates":[[[-64.7945,32.2895],[-64.8054,32.2934],[-64.814,32.304],[-64.8108,32.3076],[-64.7801,32.3034],[-64.779,32.2911],[-64.7844,32.2906],[-64.7844,32.2973],[-64.7938,32.2964],[-64.7945,32.2895]]]}},{"type":"Feature","properties":{"id":"BMU-5140","name":"Saint George's","nameBn":"সেন্ট জর্জ","type":null,"bounds":[-64.722,32.3264,-64.6476,32.3887],"center":[-64.6998,32.3645]},"geometry":{"type":"MultiPolygon","coordinates":[[[[-64.6949,32.3399],[-64.6779,32.3345],[-64.6984,32.3264],[-64.7054,32.3361],[-64.6949,32.3399]]],[[[-64.722,32.3525],[-64.7131,32.3644],[-64.6973,32.3735],[-64.6761,32.3887],[-64.6476,32.3682],[-64.6554,32.3593],[-64.6558,32.3504],[-64.6604,32.3535],[-64.6674,32.3589],[-64.6808,32.3617],[-64.6852,32.3574],[-64.6914,32.364],[-64.7081,32.3516],[-64.722,32.3525]],[[-64.677,32.3698],[-64.6685,32.3743],[-64.6721,32.381],[-64.681,32.376],[-64.677,32.3698]]]]}},{"type":"Feature","properties":{"id":"BMU-5141","name":"Sandys","nameBn":"স্যান্ডিস","type":null,"bounds":[-64.886,32.2659,-64.8488,32.3089],"center":[-64.8687,32.2985]},"geometry":{"type":"Polygon","coordinates":[[[-64.8802,32.2659],[-64.8829,32.2717],[-64.886,32.2826],[-64.8766,32.2789],[-64.878,32.2861],[-64.8745,32.2957],[-64.8798,32.3054],[-64.8724,32.3031],[-64.8689,32.3089],[-64.8643,32.3031],[-64.8581,32.2977],[-64.867,32.2911],[-64.8698,32.2798],[-64.872,32.2764],[-64.867,32.2729],[-64.8488,32.2709],[-64.8488,32.2678],[-64.8631,32.269],[-64.8802,32.2659]]]}},{"type":"Feature","properties":{"id":"BMU-5142","name":"Smith's","nameBn":"স্মিথস","type":null,"bounds":[-64.7482,32.3021,-64.7073,32.3295],"center":[-64.7319,32.3141]},"geometry":{"type":"Polygon","coordinates":[[[-64.7312,32.3231],[-64.7186,32.3237],[-64.7139,32.3295],[-64.7073,32.3212],[-64.717,32.3155],[-64.7379,32.3021],[-64.7482,32.3165],[-64.7427,32.3218],[-64.7397,32.317],[-64.7312,32.3231]]]}},{"type":"Feature","properties":{"id":"BMU-5143","name":"Southampton","nameBn":"সাউদাম্পটন","type":null,"bounds":[-64.8802,32.2481,-64.8152,32.269],"center":[-64.8375,32.2524]},"geometry":{"type":"Polygon","coordinates":[[[-64.8631,32.269],[-64.8643,32.2624],[-64.8577,32.2547],[-64.8468,32.2547],[-64.8329,32.2597],[-64.8207,32.2619],[-64.8152,32.2543],[-64.8341,32.2481],[-64.8492,32.2485],[-64.8608,32.2489],[-64.8763,32.2578],[-64.8802,32.2659],[-64.8631,32.269]]]}},{"type":"Feature","properties":{"id":"BMU-5144","name":"Warwick","nameBn":"ওয়ারউইক","type":null,"bounds":[-64.8329,32.2543,-64.7883,32.2899],"center":[-64.8042,32.2658]},"geometry":{"type":"MultiPolygon","coordinates":[[[[-64.8329,32.2597],[-64.829,32.2667],[-64.8197,32.2675],[-64.8031,32.276],[-64.7971,32.2791],[-64.7883,32.2653],[-64.8093,32.2562],[-64.8152,32.2543],[-64.8207,32.2619],[-64.8329,32.2597]]],[[[-64.8112,32.2822],[-64.8205,32.281],[-64.8298,32.2818],[-64.8325,32.2872],[-64.8294,32.2892],[-64.8209,32.2872],[-64.8155,32.2888],[-64.812,32.2899],[-64.8077,32.2864],[-64.8112,32.2822]]]]}}]}