{"type":"FeatureCollection","features":[{"type":"Feature","properties":{"id":"BOL-1292","name":"Chuquisaca","nameBn":"চুকুইসাকা বিভাগ","type":"Department","bounds":[-65.6944,-21.5354,-62.2106,-18.3452],"center":[-63.9529,-20.0848]},"geometry":{"type":"Polygon","coordinates":[[[-62.2106,-20.4713],[-62.2324,-20.501],[-62.2688,-20.5531],[-62.2773,-20.5798],[-62.2762,-20.6707],[-62.275,-20.7587],[-62.2738,-20.8548],[-62.2719,-21.0004],[-62.2724,-21.0004],[-63.8692,-20.9993],[-63.9623,-20.9968],[-63.983,-20.9967],[-63.9833,-20.9935],[-64.0029,-20.9761],[-64.01,-20.9656],[-64.0078,-20.956],[-64.0004,-20.9443],[-64.0075,-20.9419],[-64.019,-20.9439],[-64.0248,-20.9458],[-64.0535,-20.9453],[-64.0625,-20.9394],[-64.0658,-20.9213],[-64.0743,-20.9143],[-64.0939,-20.9101],[-64.1156,-20.9098],[-64.1307,-20.9147],[-64.1426,-20.9163],[-64.1565,-20.9075],[-64.1687,-20.8945],[-64.1752,-20.8914],[-64.1829,-20.9091],[-64.1844,-20.9142],[-64.1858,-20.9236],[-64.1865,-20.9483],[-64.1805,-21.0082],[-64.1808,-21.0133],[-64.1827,-21.0193],[-64.1864,-21.0256],[-64.1935,-21.0344],[-64.1952,-21.0406],[-64.1959,-21.0457],[-64.1972,-21.0502],[-64.2017,-21.0589],[-64.2025,-21.0639],[-64.1973,-21.0785],[-64.1967,-21.0844],[-64.1978,-21.1042],[-64.199,-21.1102],[-64.2008,-21.1157],[-64.2032,-21.1205],[-64.2064,-21.1251],[-64.2103,-21.1295],[-64.2158,-21.1346],[-64.2206,-21.138],[-64.2256,-21.1409],[-64.2324,-21.142],[-64.2409,-21.1414],[-64.2675,-21.1335],[-64.2805,-21.1319],[-64.3406,-21.1381],[-64.359,-21.1347],[-64.3958,-21.1196],[-64.4317,-21.0912],[-64.4405,-21.0855],[-64.4457,-21.0832],[-64.4584,-21.081],[-64.4652,-21.0809],[-64.4838,-21.0831],[-64.5146,-21.0907],[-64.5237,-21.0911],[-64.531,-21.09],[-64.5356,-21.0874],[-64.5398,-21.0843],[-64.5431,-21.0807],[-64.546,-21.0765],[-64.5699,-21.0249],[-64.5726,-21.0207],[-64.5922,-20.9998],[-64.5963,-20.9943],[-64.6031,-20.9874],[-64.6073,-20.9844],[-64.6262,-20.9743],[-64.6298,-20.9708],[-64.6326,-20.9665],[-64.6382,-20.9517],[-64.6407,-20.9472],[-64.6443,-20.9439],[-64.6494,-20.9421],[-64.655,-20.9416],[-64.6673,-20.9416],[-64.6731,-20.9404],[-64.6786,-20.9385],[-64.6921,-20.9316],[-64.697,-20.93],[-64.7027,-20.9289],[-64.71,-20.9309],[-64.7174,-20.9359],[-64.7272,-20.9494],[-64.7356,-20.9645],[-64.7501,-20.9858],[-64.7564,-21.0001],[-64.7582,-21.0129],[-64.7577,-21.0249],[-64.7579,-21.0306],[-64.7594,-21.036],[-64.7668,-21.05],[-64.7686,-21.0555],[-64.7712,-21.0672],[-64.7752,-21.0738],[-64.7824,-21.0797],[-64.7986,-21.0871],[-64.8174,-21.0924],[-64.8296,-21.0975],[-64.8345,-21.0968],[-64.8387,-21.0943],[-64.842,-21.0905],[-64.8456,-21.0869],[-64.8498,-21.084],[-64.8649,-21.0771],[-64.8694,-21.0744],[-64.8731,-21.071],[-64.876,-21.0671],[-64.8783,-21.0632],[-64.8813,-21.0594],[-64.8848,-21.056],[-64.8891,-21.053],[-64.8942,-21.0508],[-64.9056,-21.0473],[-64.9099,-21.0443],[-64.9118,-21.0394],[-64.9131,-21.0341],[-64.915,-21.029],[-64.9178,-21.0249],[-64.922,-21.0218],[-64.9271,-21.0199],[-64.9333,-21.0192],[-64.9456,-21.0202],[-64.9516,-21.0199],[-64.9566,-21.0181],[-64.961,-21.0154],[-64.9686,-21.0087],[-64.973,-21.0061],[-64.9785,-21.0051],[-64.9849,-21.0066],[-64.9936,-21.01],[-64.9989,-21.0108],[-65.0031,-21.0101],[-65.0064,-21.0072],[-65.0122,-21.0002],[-65.0131,-20.9996],[-65.02,-20.9994],[-65.0266,-21.0009],[-65.0314,-21.0008],[-65.0338,-21.0004],[-65.0345,-21.0001],[-65.0349,-20.9998],[-65.0659,-20.9635],[-65.0737,-20.9571],[-65.0785,-20.9552],[-65.0842,-20.9551],[-65.0902,-20.9567],[-65.1037,-20.9617],[-65.1098,-20.9625],[-65.1156,-20.9617],[-65.1328,-20.9566],[-65.1378,-20.9543],[-65.1464,-20.9484],[-65.1509,-20.9459],[-65.1566,-20.9458],[-65.1624,-20.9485],[-65.1684,-20.956],[-65.1719,-20.962],[-65.1743,-20.9682],[-65.1869,-21.1509],[-65.2037,-21.2066],[-65.2051,-21.2166],[-65.2051,-21.2568],[-65.2032,-21.2774],[-65.2308,-21.4779],[-65.2349,-21.5354],[-65.3174,-21.4779],[-65.4585,-21.3351],[-65.4756,-21.2975],[-65.4769,-21.2921],[-65.4779,-21.267],[-65.4672,-21.1626],[-65.4682,-21.1568],[-65.4713,-21.1466],[-65.4734,-21.1353],[-65.4739,-21.1222],[-65.472,-21.1013],[-65.4293,-20.9626],[-65.4227,-20.8368],[-65.3965,-20.7949],[-65.3888,-20.7774],[-65.377,-20.72],[-65.3723,-20.7051],[-65.296,-20.5338],[-65.3661,-20.269],[-65.3689,-20.2483],[-65.3697,-20.2126],[-65.3688,-20.2031],[-65.3585,-20.17],[-65.3537,-20.1605],[-65.3481,-20.1521],[-65.3416,-20.144],[-65.3151,-20.1087],[-65.3108,-20.0925],[-65.316,-20.0751],[-65.3168,-20.0698],[-65.3166,-20.0484],[-65.3132,-20.0423],[-65.3082,-20.0388],[-65.2971,-20.036],[-65.2923,-20.0337],[-65.2882,-20.0308],[-65.2714,-20.0148],[-65.2513,-20.0001],[-65.2475,-19.9984],[-65.2282,-19.9913],[-65.1977,-19.9871],[-65.1758,-19.9812],[-65.0733,-19.9728],[-65.0564,-19.9687],[-64.8677,-19.8684],[-64.7897,-19.7903],[-64.7561,-19.7457],[-64.7469,-19.7324],[-64.7545,-19.7118],[-64.7761,-19.6722],[-64.8607,-19.5667],[-64.8708,-19.5471],[-64.8764,-19.5285],[-64.8775,-19.5093],[-64.8745,-19.4882],[-64.8694,-19.4715],[-64.8678,-19.4631],[-64.8687,-19.4541],[-64.8723,-19.4482],[-64.879,-19.4399],[-64.8855,-19.4337],[-64.8885,-19.4341],[-64.8928,-19.4131],[-64.9043,-19.3906],[-64.92,-19.3706],[-64.937,-19.3572],[-64.9637,-19.3504],[-64.9937,-19.3527],[-65.0714,-19.3768],[-65.0937,-19.3766],[-65.0964,-19.3744],[-65.0992,-19.3703],[-65.1035,-19.3686],[-65.1107,-19.3732],[-65.1305,-19.3792],[-65.155,-19.3714],[-65.2158,-19.3386],[-65.2317,-19.3274],[-65.248,-19.3183],[-65.2928,-19.3103],[-65.3094,-19.2998],[-65.3235,-19.2863],[-65.3728,-19.2542],[-65.3843,-19.2426],[-65.4065,-19.2106],[-65.4332,-19.1922],[-65.4472,-19.1789],[-65.4532,-19.1671],[-65.4573,-19.1405],[-65.4616,-19.1281],[-65.4676,-19.1198],[-65.4742,-19.1139],[-65.5062,-19.0936],[-65.522,-19.0674],[-65.5405,-19.0187],[-65.541,-19.0153],[-65.5408,-19.0129],[-65.5396,-19.0089],[-65.5376,-19.0054],[-65.5353,-19.0003],[-65.5186,-18.9732],[-65.4935,-18.9337],[-65.4864,-18.9264],[-65.4737,-18.9156],[-65.4709,-18.91],[-65.47,-18.905],[-65.4716,-18.9006],[-65.4737,-18.8898],[-65.4752,-18.8767],[-65.4767,-18.8705],[-65.4787,-18.8647],[-65.4812,-18.8599],[-65.4842,-18.8554],[-65.492,-18.8477],[-65.5003,-18.841],[-65.5023,-18.8381],[-65.505,-18.8324],[-65.5074,-18.8217],[-65.5064,-18.8129],[-65.5042,-18.807],[-65.5025,-18.8047],[-65.4662,-18.7746],[-65.4506,-18.7653],[-65.4442,-18.7597],[-65.4372,-18.7513],[-65.4271,-18.7343],[-65.4233,-18.7226],[-65.4219,-18.7121],[-65.4238,-18.7025],[-65.4262,-18.6964],[-65.4301,-18.6916],[-65.435,-18.6881],[-65.4406,-18.6856],[-65.4467,-18.6838],[-65.4516,-18.6829],[-65.4574,-18.683],[-65.501,-18.693],[-65.5211,-18.6999],[-65.6297,-18.7515],[-65.6348,-18.7531],[-65.6398,-18.7537],[-65.6449,-18.7529],[-65.6522,-18.7487],[-65.655,-18.7436],[-65.6561,-18.7366],[-65.6547,-18.7306],[-65.6519,-18.7251],[-65.6485,-18.7202],[-65.644,-18.7158],[-65.6208,-18.697],[-65.613,-18.688],[-65.6085,-18.6786],[-65.6078,-18.6741],[-65.6286,-18.5657],[-65.6307,-18.5241],[-65.6243,-18.4764],[-65.6254,-18.4657],[-65.6286,-18.4583],[-65.6389,-18.4513],[-65.6606,-18.4417],[-65.6675,-18.4375],[-65.6745,-18.4317],[-65.6836,-18.4211],[-65.687,-18.4146],[-65.6885,-18.409],[-65.6885,-18.3999],[-65.6944,-18.3642],[-65.6924,-18.3549],[-65.6888,-18.3512],[-65.6836,-18.348],[-65.6781,-18.346],[-65.6728,-18.3452],[-65.6684,-18.347],[-65.6659,-18.3505],[-65.6635,-18.3581],[-65.661,-18.3618],[-65.657,-18.3642],[-65.645,-18.3655],[-65.639,-18.3676],[-65.6342,-18.371],[-65.6286,-18.3737],[-65.6221,-18.3746],[-65.5926,-18.3736],[-65.5855,-18.3749],[-65.5796,-18.3772],[-65.5754,-18.3801],[-65.5722,-18.3838],[-65.5698,-18.3885],[-65.5675,-18.3941],[-65.5644,-18.3992],[-65.5599,-18.4031],[-65.5543,-18.4052],[-65.5484,-18.4053],[-65.5426,-18.4038],[-65.5145,-18.3906],[-65.5081,-18.3886],[-65.5032,-18.388],[-65.5006,-18.3886],[-65.4987,-18.3895],[-65.4909,-18.394],[-65.415,-18.418],[-65.3919,-18.4282],[-65.3768,-18.4299],[-65.3439,-18.4226],[-65.3416,-18.4329],[-65.3407,-18.4413],[-65.337,-18.4519],[-65.3279,-18.4519],[-65.3166,-18.4492],[-65.306,-18.4518],[-65.2998,-18.486],[-65.2935,-18.4954],[-65.2839,-18.5067],[-65.2727,-18.5161],[-65.2616,-18.5201],[-65.2502,-18.5302],[-65.2473,-18.5539],[-65.2472,-18.5811],[-65.2445,-18.6014],[-65.2314,-18.6163],[-65.2136,-18.6189],[-65.1752,-18.6116],[-65.1573,-18.6136],[-65.1394,-18.6215],[-65.0939,-18.6507],[-65.0802,-18.6559],[-65.0668,-18.6548],[-65.0549,-18.6441],[-65.0489,-18.6307],[-65.0417,-18.6018],[-65.0345,-18.5878],[-65.0248,-18.5762],[-65.0019,-18.5559],[-64.9646,-18.5313],[-64.9103,-18.5067],[-64.8388,-18.4869],[-64.816,-18.4847],[-64.7972,-18.4895],[-64.7894,-18.4962],[-64.7781,-18.5134],[-64.7717,-18.5212],[-64.7514,-18.5286],[-64.7032,-18.5281],[-64.685,-18.5401],[-64.6732,-18.5618],[-64.6645,-18.5711],[-64.6521,-18.5747],[-64.6505,-18.5796],[-64.6362,-18.609],[-64.6277,-18.6181],[-64.6083,-18.6327],[-64.5996,-18.6412],[-64.5838,-18.6612],[-64.5746,-18.6667],[-64.5609,-18.6686],[-64.5102,-18.6687],[-64.494,-18.6663],[-64.4819,-18.6618],[-64.414,-18.6097],[-64.3914,-18.6018],[-64.37,-18.6089],[-64.3647,-18.6158],[-64.3554,-18.6403],[-64.3499,-18.6479],[-64.3402,-18.6569],[-64.3296,-18.6669],[-64.3199,-18.679],[-64.3164,-18.6913],[-64.3168,-18.7043],[-64.319,-18.7192],[-64.3195,-18.7354],[-64.3159,-18.7484],[-64.3016,-18.7741],[-64.2963,-18.7874],[-64.289,-18.8142],[-64.2818,-18.8262],[-64.2613,-18.8425],[-64.24,-18.853],[-64.2206,-18.8656],[-64.2062,-18.8883],[-64.2035,-18.9013],[-64.202,-18.9154],[-64.1991,-18.9288],[-64.192,-18.9392],[-64.1797,-18.9457],[-64.165,-18.9491],[-64.1358,-18.9508],[-64.1204,-18.9553],[-64.1112,-18.9647],[-64.1034,-18.9762],[-64.0918,-18.9865],[-64.0844,-18.989],[-64.0774,-18.9897],[-64.0708,-18.9922],[-64.0647,-18.9998],[-64.0232,-19.1379],[-64.0209,-19.1498],[-64.0163,-19.1606],[-64.0069,-19.1686],[-63.9918,-19.1732],[-63.9735,-19.1744],[-63.9551,-19.173],[-63.9398,-19.1693],[-63.9271,-19.1628],[-63.9176,-19.1538],[-63.9107,-19.1426],[-63.9059,-19.1289],[-63.8966,-19.0559],[-63.8851,-19.0351],[-63.8726,-19.0263],[-63.8609,-19.0262],[-63.8342,-19.0343],[-63.8133,-19.0352],[-63.7505,-19.0283],[-63.7413,-19.0444],[-63.7652,-19.2109],[-63.7677,-19.2713],[-63.7253,-19.963],[-63.7217,-19.9732],[-63.7088,-20.0001],[-63.7069,-20.0038],[-63.6648,-20.4074],[-63.6519,-20.4501],[-63.6293,-20.4524],[-63.5668,-20.4528],[-63.5213,-20.4625],[-63.5107,-20.4627],[-63.5024,-20.4604],[-63.4974,-20.4575],[-63.4914,-20.4516],[-63.4741,-20.4276],[-63.4671,-20.4204],[-63.459,-20.4147],[-63.4486,-20.412],[-63.429,-20.4091],[-63.4209,-20.4061],[-63.4152,-20.4032],[-63.4022,-20.393],[-63.3959,-20.3857],[-63.384,-20.3685],[-63.3771,-20.3614],[-63.3685,-20.3574],[-63.3556,-20.3668],[-63.3422,-20.3869],[-63.3117,-20.4562],[-63.3031,-20.4689],[-63.2952,-20.4727],[-63.2859,-20.4751],[-62.2114,-20.4713],[-62.2106,-20.4713]]]}},{"type":"Feature","properties":{"id":"BOL-1291","name":"Cochabamba","nameBn":"কোচাবম্বা বিভাগ","type":"Department","bounds":[-67.0152,-18.6687,-64.2121,-15.6993],"center":[-65.6137,-17.2884]},"geometry":{"type":"Polygon","coordinates":[[[-66.9899,-17.5513],[-66.8613,-17.4851],[-66.8492,-17.4767],[-66.8419,-17.4681],[-66.8446,-17.4544],[-66.8504,-17.4451],[-66.8597,-17.4364],[-66.8659,-17.4255],[-66.87,-17.4154],[-66.8505,-17.3775],[-66.8655,-17.3242],[-66.8733,-17.3148],[-66.8806,-17.3017],[-66.8851,-17.2915],[-66.8858,-17.2786],[-66.8824,-17.2475],[-66.8972,-17.175],[-66.9033,-17.1595],[-66.9102,-17.1468],[-66.9229,-17.1284],[-66.938,-17.113],[-66.9488,-17.0965],[-66.995,-17.0789],[-67.0104,-17.0651],[-67.0152,-17.0469],[-67.0123,-17.0262],[-67.0044,-17.005],[-66.9994,-16.9968],[-66.9819,-16.9747],[-66.9779,-16.9639],[-66.9775,-16.9546],[-66.9802,-16.935],[-66.9781,-16.9146],[-66.971,-16.8972],[-66.9521,-16.863],[-66.9323,-16.8351],[-66.9082,-16.8238],[-66.8481,-16.8165],[-66.8247,-16.8088],[-66.7982,-16.7953],[-66.775,-16.7776],[-66.7614,-16.7578],[-66.7585,-16.7411],[-66.7592,-16.7246],[-66.7666,-16.6784],[-66.767,-16.6652],[-66.7659,-16.5895],[-66.7748,-16.5609],[-66.8046,-16.51],[-66.8162,-16.483],[-66.8176,-16.4579],[-66.8042,-16.4074],[-66.7996,-16.2833],[-66.8056,-16.269],[-66.8267,-16.2427],[-66.8349,-16.2294],[-66.8392,-16.2261],[-66.8706,-16.2152],[-66.872,-16.2087],[-66.8699,-16.193],[-66.8721,-16.1711],[-66.8827,-16.1541],[-66.9122,-16.1232],[-66.9276,-16.0976],[-66.9456,-16.0753],[-66.9489,-16.0679],[-66.9499,-16.0578],[-66.9404,-15.9843],[-66.9405,-15.9591],[-66.9442,-15.9355],[-66.9444,-15.9238],[-66.9414,-15.9124],[-66.9338,-15.8997],[-66.926,-15.89],[-66.9201,-15.8794],[-66.9182,-15.864],[-66.9199,-15.8572],[-66.9235,-15.8536],[-66.9279,-15.8513],[-66.9322,-15.8481],[-66.9345,-15.8447],[-66.9037,-15.8127],[-66.8675,-15.768],[-66.7844,-15.6993],[-66.5035,-15.9719],[-66.493,-15.9908],[-66.4779,-16.034],[-66.4665,-16.0638],[-66.4608,-16.0742],[-66.403,-16.1478],[-66.2392,-16.3169],[-66.2177,-16.3342],[-66.1196,-16.3969],[-66.0696,-16.4201],[-65.9916,-16.445],[-65.8862,-16.4663],[-65.8365,-16.4686],[-65.8044,-16.4657],[-65.4556,-16.3689],[-65.3596,-16.3242],[-65.3459,-16.3067],[-65.3309,-16.2791],[-65.2764,-16.1172],[-65.2768,-16.0862],[-65.2732,-16.0719],[-65.242,-16.0071],[-65.1939,-15.9271],[-65.1639,-15.9071],[-64.7827,-15.8635],[-64.6841,-15.8429],[-64.6704,-15.8497],[-64.6575,-15.8505],[-64.6644,-15.8725],[-64.676,-15.8746],[-64.7039,-15.8747],[-64.6811,-15.8948],[-64.6752,-15.9062],[-64.676,-15.9225],[-64.6901,-15.916],[-64.7039,-15.9116],[-64.7174,-15.9127],[-64.7306,-15.9225],[-64.7143,-15.9355],[-64.6998,-15.9514],[-64.6887,-15.9699],[-64.6822,-15.9908],[-64.6818,-16.0033],[-64.6845,-16.0103],[-64.688,-16.0154],[-64.6896,-16.0218],[-64.6896,-16.0566],[-64.6852,-16.0773],[-64.6661,-16.1027],[-64.6617,-16.118],[-64.666,-16.1337],[-64.6738,-16.1505],[-64.6773,-16.1691],[-64.6685,-16.19],[-64.6768,-16.2101],[-64.6764,-16.2279],[-64.6739,-16.2454],[-64.676,-16.2652],[-64.6981,-16.2931],[-64.6998,-16.3047],[-64.676,-16.3061],[-64.6939,-16.3347],[-64.6964,-16.344],[-64.6943,-16.3522],[-64.6847,-16.3646],[-64.6822,-16.3743],[-64.6842,-16.3884],[-64.7151,-16.4585],[-64.7169,-16.4606],[-64.7178,-16.4633],[-64.7232,-16.4911],[-64.7322,-16.5004],[-64.7551,-16.5156],[-64.7647,-16.5258],[-64.7733,-16.5403],[-64.7799,-16.5561],[-64.7823,-16.5722],[-64.7784,-16.5873],[-64.7707,-16.5945],[-64.7617,-16.5977],[-64.7542,-16.6016],[-64.7511,-16.6112],[-64.7538,-16.6185],[-64.7899,-16.6762],[-64.7951,-16.6986],[-64.8071,-16.7174],[-64.8077,-16.7296],[-64.8031,-16.7395],[-64.788,-16.7568],[-64.7822,-16.7663],[-64.7799,-16.7754],[-64.7778,-16.7945],[-64.7561,-16.8743],[-64.7417,-16.8984],[-64.6474,-16.996],[-64.6237,-17.0084],[-64.6017,-17.0156],[-64.5915,-17.0203],[-64.5816,-17.0273],[-64.5186,-17.092],[-64.5034,-17.1031],[-64.4447,-17.1367],[-64.418,-17.1448],[-64.4088,-17.1495],[-64.3757,-17.1746],[-64.2901,-17.2685],[-64.2443,-17.3042],[-64.2383,-17.3109],[-64.2337,-17.3186],[-64.2245,-17.3444],[-64.2162,-17.3597],[-64.2121,-17.3787],[-64.2171,-17.3973],[-64.2246,-17.416],[-64.2407,-17.4173],[-64.2591,-17.4196],[-64.2706,-17.4161],[-64.2794,-17.4165],[-64.301,-17.4216],[-64.3105,-17.4224],[-64.3302,-17.4202],[-64.3395,-17.4207],[-64.3509,-17.425],[-64.3885,-17.4491],[-64.3964,-17.4563],[-64.4005,-17.4682],[-64.4011,-17.4779],[-64.3998,-17.5009],[-64.402,-17.5109],[-64.4056,-17.5204],[-64.5643,-17.7457],[-64.5851,-17.7701],[-64.6678,-17.8493],[-64.6899,-17.867],[-64.7042,-17.8832],[-64.7106,-17.9107],[-64.7061,-17.9302],[-64.6999,-17.9404],[-64.6546,-17.9858],[-64.6412,-18.0053],[-64.6082,-18.0659],[-64.5893,-18.1149],[-64.575,-18.13],[-64.5666,-18.1372],[-64.5533,-18.1455],[-64.5467,-18.1529],[-64.5384,-18.1642],[-64.5247,-18.1882],[-64.5041,-18.2141],[-64.4884,-18.2403],[-64.4776,-18.2801],[-64.4626,-18.3065],[-64.4493,-18.3154],[-64.4443,-18.3199],[-64.4412,-18.3261],[-64.441,-18.3371],[-64.4427,-18.3443],[-64.4449,-18.351],[-64.4456,-18.3564],[-64.4436,-18.3612],[-64.4318,-18.3713],[-64.4289,-18.3775],[-64.4301,-18.3926],[-64.4296,-18.4002],[-64.4273,-18.409],[-64.42,-18.4209],[-64.4147,-18.4276],[-64.4097,-18.4315],[-64.4056,-18.4331],[-64.3875,-18.4388],[-64.3767,-18.4445],[-64.3624,-18.4553],[-64.3457,-18.4716],[-64.3361,-18.4784],[-64.3136,-18.4894],[-64.309,-18.4925],[-64.3052,-18.4959],[-64.3021,-18.4996],[-64.3018,-18.5002],[-64.3005,-18.5046],[-64.2993,-18.5118],[-64.3017,-18.5515],[-64.301,-18.5618],[-64.2996,-18.5694],[-64.2929,-18.585],[-64.2933,-18.591],[-64.2971,-18.5985],[-64.3228,-18.6268],[-64.3402,-18.6569],[-64.3499,-18.6479],[-64.3554,-18.6403],[-64.3647,-18.6158],[-64.37,-18.6089],[-64.3914,-18.6018],[-64.414,-18.6097],[-64.4819,-18.6618],[-64.494,-18.6663],[-64.5102,-18.6687],[-64.5609,-18.6686],[-64.5746,-18.6667],[-64.5838,-18.6612],[-64.5996,-18.6412],[-64.6083,-18.6327],[-64.6277,-18.6181],[-64.6362,-18.609],[-64.6505,-18.5796],[-64.6521,-18.5747],[-64.6645,-18.5711],[-64.6732,-18.5618],[-64.685,-18.5401],[-64.7032,-18.5281],[-64.7514,-18.5286],[-64.7717,-18.5212],[-64.7781,-18.5134],[-64.7894,-18.4962],[-64.7972,-18.4895],[-64.816,-18.4847],[-64.8388,-18.4869],[-64.9103,-18.5067],[-64.9646,-18.5313],[-65.0019,-18.5559],[-65.0248,-18.5762],[-65.0345,-18.5878],[-65.0417,-18.6018],[-65.0489,-18.6307],[-65.0549,-18.6441],[-65.0668,-18.6548],[-65.0802,-18.6559],[-65.0939,-18.6507],[-65.1394,-18.6215],[-65.1573,-18.6136],[-65.1752,-18.6116],[-65.2136,-18.6189],[-65.2314,-18.6163],[-65.2445,-18.6014],[-65.2472,-18.5811],[-65.2473,-18.5539],[-65.2502,-18.5302],[-65.2616,-18.5201],[-65.2727,-18.5161],[-65.2839,-18.5067],[-65.2935,-18.4954],[-65.2998,-18.486],[-65.306,-18.4518],[-65.3166,-18.4492],[-65.3279,-18.4519],[-65.337,-18.4519],[-65.3407,-18.4413],[-65.3416,-18.4329],[-65.3439,-18.4226],[-65.3472,-18.4139],[-65.351,-18.4102],[-65.3607,-18.4077],[-65.3953,-18.3897],[-65.4043,-18.3795],[-65.409,-18.3761],[-65.4156,-18.374],[-65.4305,-18.3714],[-65.4363,-18.3693],[-65.4671,-18.3386],[-65.5103,-18.2667],[-65.5462,-18.2389],[-65.5626,-18.2304],[-65.5807,-18.2184],[-65.5954,-18.2037],[-65.6065,-18.1747],[-65.6184,-18.157],[-65.6424,-18.1291],[-65.6777,-18.1087],[-65.6955,-18.0949],[-65.7032,-18.0776],[-65.7653,-18.026],[-65.8255,-17.9942],[-65.8433,-17.9683],[-65.8648,-17.9681],[-65.9311,-17.9838],[-65.9403,-17.9813],[-65.9466,-17.9567],[-65.9533,-17.9471],[-65.963,-17.9404],[-65.9741,-17.9379],[-65.9858,-17.9286],[-66.0005,-17.9069],[-66.0133,-17.8816],[-66.0185,-17.8622],[-66.0392,-17.8622],[-66.0494,-17.8594],[-66.0611,-17.8574],[-66.0953,-17.8546],[-66.1356,-17.8567],[-66.1623,-17.8626],[-66.1752,-17.8668],[-66.256,-17.9213],[-66.2779,-17.9377],[-66.3355,-17.9829],[-66.3464,-17.9886],[-66.3556,-17.9903],[-66.3671,-17.9903],[-66.4179,-17.9822],[-66.478,-17.9844],[-66.5167,-17.9802],[-66.5248,-17.9782],[-66.5344,-17.9769],[-66.557,-17.979],[-66.6249,-17.9913],[-66.6805,-17.864],[-66.7563,-17.7512],[-66.8083,-17.6879],[-66.8261,-17.6712],[-66.9899,-17.5513]]]}},{"type":"Feature","properties":{"id":"BOL-1293","name":"El Beni","nameBn":"বেনি বিভাগ","type":"Department","bounds":[-67.5682,-16.4686,-61.5931,-10.3921],"center":[-64.5806,-14.0358]},"geometry":{"type":"Polygon","coordinates":[[[-65.3946,-10.3921],[-65.3947,-10.3924],[-65.3931,-10.4002],[-65.3914,-10.4035],[-65.3873,-10.4067],[-65.4109,-10.4492],[-65.4254,-10.4631],[-65.45,-10.4681],[-65.45,-10.4749],[-65.4379,-10.4926],[-65.4357,-10.4992],[-65.4367,-10.5041],[-65.4415,-10.5134],[-65.4425,-10.5194],[-65.4416,-10.5278],[-65.4393,-10.5382],[-65.4359,-10.547],[-65.432,-10.5507],[-65.4292,-10.5614],[-65.4356,-10.6108],[-65.4357,-10.6258],[-65.4186,-10.6445],[-65.4008,-10.6555],[-65.3868,-10.6695],[-65.3811,-10.6981],[-65.3823,-10.7156],[-65.3898,-10.7538],[-65.4047,-10.7992],[-65.3997,-10.8123],[-65.3603,-10.8226],[-65.3422,-10.8349],[-65.3271,-10.8505],[-65.319,-10.8654],[-65.3128,-10.951],[-65.3101,-10.9565],[-65.3045,-10.962],[-65.2996,-10.9697],[-65.2991,-10.9821],[-65.303,-10.9907],[-65.3097,-10.9966],[-65.3178,-11.002],[-65.3264,-11.0094],[-65.342,-11.0328],[-65.3427,-11.0506],[-65.337,-11.0677],[-65.3333,-11.0885],[-65.341,-11.1066],[-65.3797,-11.1364],[-65.3947,-11.1534],[-65.3981,-11.178],[-65.3852,-11.1936],[-65.3683,-11.2054],[-65.36,-11.2188],[-65.3661,-11.234],[-65.3786,-11.242],[-65.3886,-11.2532],[-65.3873,-11.2776],[-65.3745,-11.2958],[-65.3539,-11.3106],[-65.3348,-11.3212],[-65.3264,-11.3278],[-65.3301,-11.3405],[-65.3475,-11.3608],[-65.3537,-11.3724],[-65.3548,-11.3824],[-65.353,-11.3906],[-65.3195,-11.4764],[-65.2925,-11.5047],[-65.2576,-11.4953],[-65.233,-11.5083],[-65.2227,-11.5174],[-65.216,-11.5301],[-65.216,-11.54],[-65.2236,-11.5579],[-65.2234,-11.5711],[-65.2192,-11.5845],[-65.2145,-11.5875],[-65.2074,-11.5876],[-65.1954,-11.5922],[-65.174,-11.6065],[-65.1674,-11.6155],[-65.1909,-11.6232],[-65.1934,-11.6324],[-65.1893,-11.6571],[-65.1913,-11.6669],[-65.2003,-11.682],[-65.2023,-11.6915],[-65.2019,-11.728],[-65.1962,-11.7418],[-65.1825,-11.7567],[-65.1645,-11.7698],[-65.1515,-11.7731],[-65.1435,-11.7638],[-65.138,-11.7153],[-65.134,-11.7026],[-65.1279,-11.6946],[-65.1134,-11.6906],[-65.1105,-11.7],[-65.1136,-11.7226],[-65.0992,-11.7362],[-65.0811,-11.7435],[-65.0656,-11.7531],[-65.0563,-11.7856],[-65.0433,-11.8077],[-65.0385,-11.8187],[-65.0374,-11.8284],[-65.0392,-11.8487],[-65.0385,-11.8585],[-65.0337,-11.8798],[-65.0281,-11.8889],[-65.0179,-11.8936],[-65.0145,-11.8938],[-65.0046,-11.8984],[-64.9981,-11.9089],[-64.9965,-11.9212],[-65.0009,-11.9311],[-65.0146,-11.9503],[-65.0163,-11.9685],[-65.0094,-11.9843],[-64.9974,-11.9963],[-64.9834,-12.0039],[-64.9676,-12.0079],[-64.9252,-12.0099],[-64.9045,-12.014],[-64.8835,-12.0214],[-64.8621,-12.0248],[-64.8398,-12.0167],[-64.8276,-12.0223],[-64.8093,-12.0258],[-64.7925,-12.0325],[-64.7852,-12.0474],[-64.7805,-12.0677],[-64.7686,-12.0865],[-64.7368,-12.1198],[-64.7442,-12.1336],[-64.7395,-12.1446],[-64.7284,-12.1499],[-64.7163,-12.1465],[-64.7136,-12.1385],[-64.7103,-12.1119],[-64.7064,-12.1061],[-64.6899,-12.1044],[-64.6865,-12.11],[-64.6816,-12.1266],[-64.6816,-12.1349],[-64.6886,-12.1472],[-64.689,-12.1539],[-64.6859,-12.1592],[-64.6772,-12.1676],[-64.6753,-12.171],[-64.6649,-12.181],[-64.6406,-12.1951],[-64.5934,-12.216],[-64.581,-12.2174],[-64.5549,-12.2178],[-64.5484,-12.2191],[-64.5321,-12.2322],[-64.5115,-12.2427],[-64.5103,-12.2396],[-64.5102,-12.2373],[-64.5088,-12.236],[-64.4942,-12.238],[-64.4894,-12.2395],[-64.473,-12.2532],[-64.4691,-12.2611],[-64.4682,-12.2726],[-64.4693,-12.2949],[-64.4744,-12.3165],[-64.4924,-12.3566],[-64.4898,-12.3736],[-64.4836,-12.3776],[-64.4616,-12.3853],[-64.4525,-12.3904],[-64.4441,-12.3998],[-64.4324,-12.4209],[-64.4249,-12.4314],[-64.4113,-12.4451],[-64.3957,-12.4573],[-64.3768,-12.4659],[-64.3532,-12.4692],[-64.3127,-12.4619],[-64.2977,-12.4657],[-64.2875,-12.4971],[-64.2782,-12.4993],[-64.2687,-12.4972],[-64.2639,-12.4953],[-64.2568,-12.4908],[-64.2457,-12.4794],[-64.2366,-12.4754],[-64.2152,-12.4738],[-64.1976,-12.4787],[-64.1831,-12.4879],[-64.1553,-12.517],[-64.1448,-12.5204],[-64.1348,-12.5109],[-64.1198,-12.4897],[-64.1045,-12.5071],[-64.0445,-12.5091],[-64.0228,-12.5378],[-64.0042,-12.5355],[-63.9724,-12.5239],[-63.9593,-12.528],[-63.95,-12.5368],[-63.9391,-12.5441],[-63.9212,-12.5443],[-63.9091,-12.5343],[-63.9025,-12.5254],[-63.8969,-12.5157],[-63.8632,-12.4748],[-63.8629,-12.4692],[-63.8456,-12.4669],[-63.815,-12.4572],[-63.8014,-12.4549],[-63.6577,-12.4754],[-63.6548,-12.4783],[-63.6004,-12.5061],[-63.5587,-12.5399],[-63.5422,-12.548],[-63.5202,-12.5512],[-63.5075,-12.5516],[-63.4961,-12.5533],[-63.4858,-12.5575],[-63.4762,-12.5648],[-63.4688,-12.5758],[-63.467,-12.5858],[-63.4664,-12.5953],[-63.4625,-12.6051],[-63.4542,-12.612],[-63.4453,-12.6148],[-63.4382,-12.6192],[-63.4352,-12.6303],[-63.4314,-12.637],[-63.3933,-12.6645],[-63.3711,-12.6699],[-63.3595,-12.6747],[-63.3304,-12.697],[-63.3179,-12.702],[-63.2473,-12.7013],[-63.236,-12.6986],[-63.232,-12.6911],[-63.2227,-12.6825],[-63.2018,-12.6679],[-63.1973,-12.6668],[-63.1856,-12.6685],[-63.1807,-12.6679],[-63.1761,-12.6636],[-63.1717,-12.6524],[-63.1671,-12.6474],[-63.1395,-12.6356],[-63.1367,-12.6337],[-63.1251,-12.6359],[-63.1052,-12.6452],[-63.075,-12.6527],[-63.0648,-12.6662],[-63.0578,-12.702],[-63.0536,-12.7084],[-63.0471,-12.7135],[-63.0435,-12.7191],[-63.0511,-12.7308],[-63.0522,-12.7365],[-63.0511,-12.7422],[-63.0479,-12.7467],[-63.0257,-12.7657],[-63.0147,-12.7777],[-63.01,-12.788],[-63.0071,-12.81],[-62.9992,-12.8291],[-62.988,-12.8439],[-62.9753,-12.8529],[-62.9645,-12.8566],[-62.9551,-12.8575],[-62.9465,-12.8552],[-62.938,-12.8494],[-62.9289,-12.846],[-62.9238,-12.8529],[-62.9205,-12.8623],[-62.8679,-12.929],[-62.8651,-12.9355],[-62.8601,-12.9403],[-62.849,-12.9422],[-62.8389,-12.9428],[-62.8314,-12.9449],[-62.8267,-12.95],[-62.8251,-12.9587],[-62.8202,-12.9749],[-62.8074,-12.9889],[-62.7898,-13.0007],[-62.7705,-13.0105],[-62.7686,-12.9906],[-62.7579,-12.9851],[-62.7413,-12.9854],[-62.722,-12.9826],[-62.7092,-12.9746],[-62.699,-12.9666],[-62.6866,-12.965],[-62.6675,-12.9764],[-62.6579,-12.9846],[-62.6513,-12.9925],[-62.6475,-13.0016],[-62.6452,-13.0254],[-62.6417,-13.03],[-62.5546,-13.0668],[-62.4927,-13.065],[-62.4721,-13.0685],[-62.4585,-13.078],[-62.4309,-13.1098],[-62.4287,-13.1145],[-62.4275,-13.1246],[-62.4241,-13.1265],[-62.4103,-13.1257],[-62.4067,-13.1265],[-62.3897,-13.1371],[-62.3818,-13.1399],[-62.335,-13.1451],[-62.3216,-13.1437],[-62.3105,-13.134],[-62.2903,-13.142],[-62.2736,-13.1384],[-62.2592,-13.1308],[-62.2216,-13.1213],[-62.2115,-13.1203],[-62.2009,-13.1227],[-62.174,-13.1408],[-62.1725,-13.1179],[-62.1624,-13.1207],[-62.1398,-13.147],[-62.1291,-13.1509],[-62.1205,-13.1488],[-62.1147,-13.1502],[-62.1125,-13.1648],[-62.1125,-13.2318],[-62.1094,-13.249],[-62.0992,-13.2626],[-62.0777,-13.2779],[-62.0336,-13.3255],[-62.0197,-13.3326],[-62.0187,-13.3368],[-62.0033,-13.3605],[-61.9978,-13.3641],[-61.9754,-13.3741],[-61.9584,-13.3855],[-61.9098,-13.4319],[-61.8995,-13.4392],[-61.8799,-13.4492],[-61.8723,-13.4561],[-61.8686,-13.4639],[-61.848,-13.5308],[-61.8364,-13.5406],[-61.814,-13.5442],[-61.7943,-13.5403],[-61.7742,-13.5334],[-61.7543,-13.5303],[-61.7351,-13.538],[-61.7157,-13.5266],[-61.6929,-13.518],[-61.6681,-13.5125],[-61.5971,-13.5061],[-61.5931,-13.5068],[-61.5936,-13.5072],[-62.1287,-13.8089],[-63.0129,-14.3055],[-63.5704,-14.6185],[-63.9157,-14.7161],[-63.963,-14.7374],[-63.9402,-14.8323],[-63.9396,-14.9483],[-63.9341,-15.0002],[-63.9347,-15.0279],[-63.9389,-15.047],[-63.9449,-15.0616],[-63.9498,-15.0856],[-63.9388,-15.1335],[-63.9321,-15.1493],[-63.9002,-15.1982],[-63.8632,-15.2981],[-63.758,-15.4561],[-63.7488,-15.4657],[-63.7386,-15.4721],[-63.7138,-15.4813],[-63.7007,-15.4894],[-63.6881,-15.5049],[-63.6823,-15.5184],[-63.6772,-15.5671],[-63.6702,-15.5802],[-63.6238,-15.6274],[-63.6124,-15.6345],[-63.6012,-15.6371],[-63.5896,-15.6378],[-63.5791,-15.6426],[-63.5492,-15.6673],[-63.5383,-15.6738],[-63.5058,-15.6881],[-63.4987,-15.6921],[-63.49,-15.7009],[-63.4797,-15.7141],[-63.4673,-15.7386],[-63.4462,-15.7647],[-63.4409,-15.7742],[-63.4388,-15.7843],[-63.4378,-15.8089],[-63.4357,-15.8238],[-63.4298,-15.8435],[-63.4207,-15.8566],[-63.3946,-15.8847],[-63.3848,-15.8913],[-63.3733,-15.8963],[-63.3377,-15.9048],[-63.3271,-15.909],[-63.3174,-15.9141],[-63.3206,-15.9166],[-63.3409,-15.9176],[-64.6575,-15.8505],[-64.6704,-15.8497],[-64.6841,-15.8429],[-64.7827,-15.8635],[-65.1639,-15.9071],[-65.1939,-15.9271],[-65.242,-16.0071],[-65.2732,-16.0719],[-65.2768,-16.0862],[-65.2764,-16.1172],[-65.3309,-16.2791],[-65.3459,-16.3067],[-65.3596,-16.3242],[-65.4556,-16.3689],[-65.8044,-16.4657],[-65.8365,-16.4686],[-65.8862,-16.4663],[-65.9916,-16.445],[-66.0696,-16.4201],[-66.1196,-16.3969],[-66.2177,-16.3342],[-66.2392,-16.3169],[-66.403,-16.1478],[-66.4608,-16.0742],[-66.4665,-16.0638],[-66.4779,-16.034],[-66.493,-15.9908],[-66.5035,-15.9719],[-66.7844,-15.6993],[-66.8258,-15.659],[-67.0256,-15.4768],[-67.0471,-15.4405],[-67.0559,-15.4318],[-67.0621,-15.4273],[-67.0829,-15.4187],[-67.0973,-15.4108],[-67.1075,-15.4001],[-67.1146,-15.3891],[-67.1186,-15.3785],[-67.12,-15.368],[-67.1196,-15.3577],[-67.1121,-15.3157],[-67.1123,-15.3035],[-67.1155,-15.2898],[-67.1791,-15.1652],[-67.206,-15.1264],[-67.2299,-15.0993],[-67.2431,-15.0871],[-67.2518,-15.0732],[-67.2705,-15.0364],[-67.2813,-15.0236],[-67.2927,-15.0154],[-67.3046,-15.0131],[-67.3165,-15.0133],[-67.3404,-15.0162],[-67.3529,-15.0153],[-67.3639,-15.0121],[-67.3736,-15.0065],[-67.3879,-14.9955],[-67.4028,-14.9867],[-67.4176,-14.9685],[-67.43,-14.9322],[-67.4333,-14.9118],[-67.4343,-14.8964],[-67.431,-14.8749],[-67.4261,-14.8551],[-67.4219,-14.8172],[-67.4227,-14.7759],[-67.4275,-14.7541],[-67.4363,-14.7381],[-67.4848,-14.6953],[-67.5041,-14.6689],[-67.5306,-14.607],[-67.536,-14.5986],[-67.5334,-14.5912],[-67.5276,-14.5809],[-67.5205,-14.5731],[-67.5046,-14.5595],[-67.4978,-14.5513],[-67.489,-14.5313],[-67.4879,-14.5116],[-67.4939,-14.4925],[-67.506,-14.4742],[-67.5278,-14.4531],[-67.5324,-14.443],[-67.533,-14.4368],[-67.5327,-14.4245],[-67.5343,-14.4184],[-67.5368,-14.4149],[-67.5435,-14.4089],[-67.5461,-14.4055],[-67.5607,-14.3691],[-67.5656,-14.3492],[-67.5682,-14.3303],[-67.5644,-14.312],[-67.5526,-14.3027],[-67.5206,-14.2887],[-67.5079,-14.2747],[-67.5036,-14.2587],[-67.5055,-14.2415],[-67.5153,-14.2088],[-67.5114,-14.1488],[-67.5218,-14.0713],[-67.523,-14.059],[-67.5354,-14.0143],[-67.536,-13.9984],[-67.5092,-13.88],[-67.501,-13.8653],[-67.4916,-13.8525],[-67.4827,-13.8367],[-67.4798,-13.8167],[-67.4935,-13.7907],[-67.4926,-13.7714],[-67.4809,-13.7308],[-67.4717,-13.7105],[-67.459,-13.6981],[-67.4425,-13.6879],[-67.4307,-13.6748],[-67.4111,-13.6427],[-67.3696,-13.5909],[-67.3611,-13.5739],[-67.3608,-13.5544],[-67.3781,-13.5285],[-67.3948,-13.4372],[-67.3956,-13.4025],[-67.3798,-13.3692],[-67.3367,-13.3045],[-67.3221,-13.2881],[-67.2874,-13.2615],[-67.2059,-13.1678],[-67.202,-13.1587],[-67.1978,-13.1388],[-67.1932,-13.1296],[-67.1856,-13.1231],[-67.1671,-13.1137],[-67.1591,-13.1075],[-67.1199,-13.0372],[-67.1031,-13.0216],[-67.083,-13.018],[-67.0661,-13.02],[-67.0523,-13.0159],[-67.0041,-12.9011],[-66.9486,-12.6708],[-66.9465,-12.6453],[-66.951,-12.6245],[-66.9667,-12.5815],[-66.9399,-12.5459],[-66.9277,-12.5253],[-66.927,-12.5094],[-66.9349,-12.4939],[-66.937,-12.481],[-66.9383,-12.42],[-66.9357,-12.4003],[-66.9278,-12.3822],[-66.913,-12.3608],[-66.9052,-12.3417],[-66.9089,-12.325],[-66.9162,-12.3081],[-66.9193,-12.2888],[-66.9119,-12.2667],[-66.899,-12.2452],[-66.8893,-12.2232],[-66.8916,-12.1993],[-66.8987,-12.1738],[-66.8972,-12.1522],[-66.882,-12.1062],[-66.8774,-12.065],[-66.8829,-12.0148],[-66.897,-11.966],[-66.9185,-11.9287],[-66.9331,-11.9118],[-66.9391,-11.9066],[-66.9428,-11.9073],[-66.9483,-11.9106],[-66.9547,-11.9129],[-66.9613,-11.9105],[-66.9701,-11.8937],[-66.9746,-11.8692],[-66.9706,-11.849],[-66.9542,-11.8453],[-66.9357,-11.8472],[-66.9176,-11.8418],[-66.9013,-11.8313],[-66.8884,-11.8181],[-66.8768,-11.7956],[-66.8816,-11.7818],[-66.894,-11.7703],[-66.9051,-11.7545],[-66.9053,-11.7354],[-66.8917,-11.727],[-66.8722,-11.7261],[-66.8547,-11.7292],[-66.8356,-11.7278],[-66.8224,-11.7153],[-66.8108,-11.6987],[-66.7968,-11.6857],[-66.7797,-11.6814],[-66.7455,-11.6816],[-66.729,-11.6747],[-66.7153,-11.6556],[-66.7138,-11.6326],[-66.7209,-11.5835],[-66.715,-11.5648],[-66.6908,-11.5376],[-66.6877,-11.5187],[-66.6906,-11.4935],[-66.6891,-11.4688],[-66.679,-11.4494],[-66.6561,-11.4402],[-66.5648,-11.4346],[-66.497,-11.4423],[-66.4714,-11.4336],[-66.4167,-11.4008],[-66.3479,-11.3935],[-66.3169,-11.3859],[-66.3117,-11.3654],[-66.3089,-11.3445],[-66.2546,-11.3317],[-66.2432,-11.313],[-66.25,-11.2988],[-66.2606,-11.2896],[-66.2678,-11.2773],[-66.2641,-11.2539],[-66.2554,-11.2377],[-66.2188,-11.1931],[-66.2115,-11.1746],[-66.2123,-11.1575],[-66.2207,-11.1212],[-66.2178,-11.0977],[-66.2051,-11.0943],[-66.1878,-11.0993],[-66.1712,-11.1008],[-66.1472,-11.0806],[-66.1421,-11.0477],[-66.1414,-11.0118],[-66.1306,-10.9818],[-66.1215,-10.9682],[-66.1061,-10.9785],[-66.0904,-10.97],[-66.0781,-10.9511],[-66.0663,-10.9107],[-66.0534,-10.8885],[-66.0453,-10.8676],[-66.0533,-10.8515],[-66.0636,-10.8495],[-66.0844,-10.8578],[-66.0948,-10.8583],[-66.102,-10.8541],[-66.1078,-10.8471],[-66.1079,-10.8407],[-66.0758,-10.8308],[-66.0346,-10.7984],[-66.0117,-10.7894],[-65.9736,-10.796],[-65.9302,-10.8097],[-65.895,-10.8117],[-65.882,-10.7832],[-65.8867,-10.7648],[-65.8981,-10.7469],[-65.9142,-10.7334],[-65.9332,-10.728],[-65.9424,-10.7195],[-65.9358,-10.7009],[-65.9218,-10.6824],[-65.9093,-10.674],[-65.8981,-10.6798],[-65.8845,-10.6933],[-65.8731,-10.7082],[-65.8683,-10.7184],[-65.8562,-10.723],[-65.8292,-10.7171],[-65.7857,-10.7013],[-65.7627,-10.6839],[-65.7531,-10.667],[-65.7515,-10.6474],[-65.7522,-10.6221],[-65.7571,-10.6005],[-65.764,-10.58],[-65.7614,-10.5641],[-65.738,-10.5567],[-65.7172,-10.5606],[-65.6957,-10.5686],[-65.6739,-10.5716],[-65.6523,-10.5604],[-65.6323,-10.5423],[-65.613,-10.5284],[-65.5263,-10.4866],[-65.5189,-10.4781],[-65.5122,-10.4582],[-65.4967,-10.4362],[-65.4785,-10.4172],[-65.4642,-10.4064],[-65.4479,-10.4008],[-65.3953,-10.3922],[-65.3946,-10.3921]]]}},{"type":"Feature","properties":{"id":"BOL-1936","name":"La Paz","nameBn":"লা পাজ বিভাগ","type":"Department","bounds":[-69.6665,-18.0391,-66.7585,-11.9049],"center":[-68.2128,-14.8335]},"geometry":{"type":"Polygon","coordinates":[[[-69.29,-17.9766],[-69.3024,-17.9762],[-69.3179,-17.9516],[-69.3269,-17.9151],[-69.3277,-17.8415],[-69.3342,-17.8058],[-69.3594,-17.7594],[-69.3948,-17.7211],[-69.4758,-17.6524],[-69.4971,-17.6214],[-69.5061,-17.5851],[-69.5101,-17.5066],[-69.5101,-17.5054],[-69.5083,-17.434],[-69.5114,-17.3987],[-69.5226,-17.3691],[-69.5371,-17.3511],[-69.5569,-17.3315],[-69.5973,-17.3005],[-69.613,-17.2951],[-69.6644,-17.2886],[-69.6665,-17.2883],[-69.6494,-17.2628],[-69.6338,-17.2073],[-69.6228,-17.1856],[-69.6184,-17.1842],[-69.6011,-17.1815],[-69.5951,-17.1797],[-69.541,-17.1322],[-69.5101,-17.1121],[-69.4828,-17.1017],[-69.4542,-17.0966],[-69.4274,-17.0869],[-69.406,-17.063],[-69.4013,-17.0472],[-69.406,-17.0409],[-69.4133,-17.0378],[-69.4166,-17.032],[-69.4136,-17.0223],[-69.4072,-17.0157],[-69.3643,-16.9912],[-69.3525,-16.9777],[-69.3259,-16.9222],[-69.2245,-16.8182],[-69.2107,-16.7971],[-69.1917,-16.743],[-69.1824,-16.7287],[-69.1664,-16.7191],[-69.1306,-16.7158],[-69.1121,-16.7115],[-69.0538,-16.6823],[-69.0371,-16.6702],[-69.0205,-16.6495],[-69.0083,-16.6342],[-69.0351,-16.598],[-69.0401,-16.5814],[-69.0376,-16.5503],[-69.0389,-16.4919],[-69.0368,-16.4715],[-69.0279,-16.4541],[-69.0017,-16.4228],[-68.9684,-16.4064],[-68.8558,-16.3632],[-68.8335,-16.329],[-68.8436,-16.302],[-68.8667,-16.2869],[-68.9188,-16.2667],[-68.9595,-16.2233],[-68.982,-16.21],[-69.0101,-16.2191],[-69.0427,-16.2093],[-69.0536,-16.2084],[-69.0645,-16.2121],[-69.0839,-16.2266],[-69.0952,-16.2312],[-69.1208,-16.2312],[-69.1447,-16.2235],[-69.1663,-16.2104],[-69.1849,-16.195],[-69.2196,-16.1528],[-69.2421,-16.0982],[-69.2846,-15.995],[-69.3271,-15.892],[-69.3696,-15.789],[-69.4122,-15.6858],[-69.4243,-15.6563],[-69.43,-15.6263],[-69.4212,-15.5964],[-69.3564,-15.5014],[-69.3511,-15.4819],[-69.3485,-15.4618],[-69.3434,-15.4422],[-69.3304,-15.4242],[-69.3203,-15.4189],[-69.2929,-15.4099],[-69.2859,-15.4054],[-69.2854,-15.3967],[-69.297,-15.367],[-69.2912,-15.3508],[-69.2752,-15.3303],[-69.2559,-15.3133],[-69.2226,-15.3022],[-69.2091,-15.2636],[-69.1897,-15.2624],[-69.1661,-15.2639],[-69.1504,-15.2516],[-69.1481,-15.2333],[-69.1718,-15.2108],[-69.1965,-15.1766],[-69.2127,-15.1613],[-69.2722,-15.1182],[-69.2886,-15.102],[-69.3461,-15.0165],[-69.3628,-15.0013],[-69.3843,-14.9818],[-69.3907,-14.9644],[-69.3862,-14.9458],[-69.3698,-14.9083],[-69.3678,-14.9005],[-69.372,-14.8187],[-69.3705,-14.8015],[-69.3614,-14.788],[-69.339,-14.7748],[-69.2835,-14.7597],[-69.2676,-14.7507],[-69.2538,-14.7218],[-69.2475,-14.5937],[-69.2347,-14.5743],[-69.2149,-14.5723],[-69.1922,-14.5769],[-69.1704,-14.5776],[-69.1645,-14.5664],[-69.1674,-14.5203],[-69.1643,-14.503],[-69.1582,-14.4985],[-69.1411,-14.4942],[-69.134,-14.4907],[-69.0946,-14.4464],[-69.0751,-14.4325],[-69.0101,-14.3971],[-68.9903,-14.379],[-68.9946,-14.359],[-69.0083,-14.339],[-69.0162,-14.3211],[-69.0172,-14.2825],[-69.0157,-14.2632],[-69.0101,-14.2459],[-68.9849,-14.2283],[-68.9513,-14.22],[-68.8837,-14.2115],[-68.8644,-14.1912],[-68.8689,-14.1562],[-68.8937,-14.0892],[-68.9,-14.0548],[-68.9058,-14.0393],[-68.9162,-14.0249],[-68.9697,-13.9905],[-68.983,-13.9722],[-68.989,-13.9401],[-68.9892,-13.9037],[-68.993,-13.8698],[-69.0101,-13.8444],[-69.0231,-13.806],[-69.0243,-13.7925],[-69.0208,-13.7764],[-69.016,-13.7646],[-69.016,-13.7531],[-69.027,-13.7382],[-69.0811,-13.6954],[-69.1016,-13.6666],[-69.0876,-13.6439],[-69.0745,-13.6426],[-69.044,-13.648],[-69.0326,-13.6459],[-69.0238,-13.635],[-69.0236,-13.6233],[-69.0255,-13.6107],[-69.0232,-13.5969],[-69.0154,-13.5855],[-68.9943,-13.563],[-68.9857,-13.5502],[-68.9768,-13.5263],[-68.9707,-13.5014],[-68.9744,-13.4788],[-68.9628,-13.2836],[-68.977,-13.2049],[-68.9797,-13.1646],[-68.9721,-13.0461],[-68.9739,-13.0318],[-68.9862,-12.9334],[-68.9866,-12.8905],[-68.981,-12.8679],[-68.9494,-12.8439],[-68.9387,-12.8197],[-68.9266,-12.801],[-68.9046,-12.804],[-68.892,-12.7758],[-68.8766,-12.755],[-68.8562,-12.7414],[-68.7737,-12.7194],[-68.7661,-12.7105],[-68.743,-12.6658],[-68.753,-12.6547],[-68.7853,-12.6459],[-68.7946,-12.6365],[-68.7934,-12.6202],[-68.7839,-12.6057],[-68.7701,-12.5944],[-68.7403,-12.5786],[-68.7261,-12.566],[-68.7145,-12.5512],[-68.7063,-12.536],[-68.7002,-12.516],[-68.6944,-12.5068],[-68.6843,-12.5025],[-68.6895,-12.4934],[-68.6782,-12.4951],[-68.6456,-12.4966],[-68.636,-12.4951],[-68.6297,-12.4908],[-68.6177,-12.4779],[-68.613,-12.4752],[-68.5935,-12.4209],[-68.582,-12.4069],[-68.5582,-12.4023],[-68.5411,-12.4102],[-68.5264,-12.4216],[-68.5099,-12.4274],[-68.4893,-12.4247],[-68.4769,-12.4167],[-68.4584,-12.387],[-68.412,-12.2729],[-68.3902,-12.2425],[-68.2718,-12.1813],[-68.2462,-12.1537],[-68.2383,-12.1203],[-68.231,-12.0477],[-68.2151,-12.0199],[-68.1845,-12.0056],[-68.1092,-11.9955],[-68.0823,-11.9824],[-68.0619,-11.9836],[-68.0368,-11.979],[-68.0128,-11.97],[-67.9957,-11.9582],[-67.9812,-11.9362],[-67.973,-11.9101],[-67.9735,-11.9049],[-67.9555,-11.9093],[-66.9278,-12.3822],[-66.9357,-12.4003],[-66.9383,-12.42],[-66.937,-12.481],[-66.9349,-12.4939],[-66.927,-12.5094],[-66.9277,-12.5253],[-66.9399,-12.5459],[-66.9667,-12.5815],[-66.951,-12.6245],[-66.9465,-12.6453],[-66.9486,-12.6708],[-67.0041,-12.9011],[-67.0523,-13.0159],[-67.0661,-13.02],[-67.083,-13.018],[-67.1031,-13.0216],[-67.1199,-13.0372],[-67.1591,-13.1075],[-67.1671,-13.1137],[-67.1856,-13.1231],[-67.1932,-13.1296],[-67.1978,-13.1388],[-67.202,-13.1587],[-67.2059,-13.1678],[-67.2874,-13.2615],[-67.3221,-13.2881],[-67.3367,-13.3045],[-67.3798,-13.3692],[-67.3956,-13.4025],[-67.3948,-13.4372],[-67.3781,-13.5285],[-67.3608,-13.5544],[-67.3611,-13.5739],[-67.3696,-13.5909],[-67.4111,-13.6427],[-67.4307,-13.6748],[-67.4425,-13.6879],[-67.459,-13.6981],[-67.4717,-13.7105],[-67.4809,-13.7308],[-67.4926,-13.7714],[-67.4935,-13.7907],[-67.4798,-13.8167],[-67.4827,-13.8367],[-67.4916,-13.8525],[-67.501,-13.8653],[-67.5092,-13.88],[-67.536,-13.9984],[-67.5354,-14.0143],[-67.523,-14.059],[-67.5218,-14.0713],[-67.5114,-14.1488],[-67.5153,-14.2088],[-67.5055,-14.2415],[-67.5036,-14.2587],[-67.5079,-14.2747],[-67.5206,-14.2887],[-67.5526,-14.3027],[-67.5644,-14.312],[-67.5682,-14.3303],[-67.5656,-14.3492],[-67.5607,-14.3691],[-67.5461,-14.4055],[-67.5435,-14.4089],[-67.5368,-14.4149],[-67.5343,-14.4184],[-67.5327,-14.4245],[-67.533,-14.4368],[-67.5324,-14.443],[-67.5278,-14.4531],[-67.506,-14.4742],[-67.4939,-14.4925],[-67.4879,-14.5116],[-67.489,-14.5313],[-67.4978,-14.5513],[-67.5046,-14.5595],[-67.5205,-14.5731],[-67.5276,-14.5809],[-67.5334,-14.5912],[-67.536,-14.5986],[-67.5306,-14.607],[-67.5041,-14.6689],[-67.4848,-14.6953],[-67.4363,-14.7381],[-67.4275,-14.7541],[-67.4227,-14.7759],[-67.4219,-14.8172],[-67.4261,-14.8551],[-67.431,-14.8749],[-67.4343,-14.8964],[-67.4333,-14.9118],[-67.43,-14.9322],[-67.4176,-14.9685],[-67.4028,-14.9867],[-67.3879,-14.9955],[-67.3736,-15.0065],[-67.3639,-15.0121],[-67.3529,-15.0153],[-67.3404,-15.0162],[-67.3165,-15.0133],[-67.3046,-15.0131],[-67.2927,-15.0154],[-67.2813,-15.0236],[-67.2705,-15.0364],[-67.2518,-15.0732],[-67.2431,-15.0871],[-67.2299,-15.0993],[-67.206,-15.1264],[-67.1791,-15.1652],[-67.1155,-15.2898],[-67.1123,-15.3035],[-67.1121,-15.3157],[-67.1196,-15.3577],[-67.12,-15.368],[-67.1186,-15.3785],[-67.1146,-15.3891],[-67.1075,-15.4001],[-67.0973,-15.4108],[-67.0829,-15.4187],[-67.0621,-15.4273],[-67.0559,-15.4318],[-67.0471,-15.4405],[-67.0256,-15.4768],[-66.8258,-15.659],[-66.7844,-15.6993],[-66.8675,-15.768],[-66.9037,-15.8127],[-66.9345,-15.8447],[-66.9322,-15.8481],[-66.9279,-15.8513],[-66.9235,-15.8536],[-66.9199,-15.8572],[-66.9182,-15.864],[-66.9201,-15.8794],[-66.926,-15.89],[-66.9338,-15.8997],[-66.9414,-15.9124],[-66.9444,-15.9238],[-66.9442,-15.9355],[-66.9405,-15.9591],[-66.9404,-15.9843],[-66.9499,-16.0578],[-66.9489,-16.0679],[-66.9456,-16.0753],[-66.9276,-16.0976],[-66.9122,-16.1232],[-66.8827,-16.1541],[-66.8721,-16.1711],[-66.8699,-16.193],[-66.872,-16.2087],[-66.8706,-16.2152],[-66.8392,-16.2261],[-66.8349,-16.2294],[-66.8267,-16.2427],[-66.8056,-16.269],[-66.7996,-16.2833],[-66.8042,-16.4074],[-66.8176,-16.4579],[-66.8162,-16.483],[-66.8046,-16.51],[-66.7748,-16.5609],[-66.7659,-16.5895],[-66.767,-16.6652],[-66.7666,-16.6784],[-66.7592,-16.7246],[-66.7585,-16.7411],[-66.7614,-16.7578],[-66.775,-16.7776],[-66.7982,-16.7953],[-66.8247,-16.8088],[-66.8481,-16.8165],[-66.9082,-16.8238],[-66.9323,-16.8351],[-66.9521,-16.863],[-66.971,-16.8972],[-66.9781,-16.9146],[-66.9802,-16.935],[-66.9775,-16.9546],[-66.9779,-16.9639],[-66.9819,-16.9747],[-66.9994,-16.9968],[-67.0044,-17.005],[-67.0123,-17.0262],[-67.0152,-17.0469],[-67.0104,-17.0651],[-66.995,-17.0789],[-66.9488,-17.0965],[-66.938,-17.113],[-66.9229,-17.1284],[-66.9102,-17.1468],[-66.9033,-17.1595],[-66.8972,-17.175],[-66.8824,-17.2475],[-66.8858,-17.2786],[-66.8851,-17.2915],[-66.8806,-17.3017],[-66.8733,-17.3148],[-66.8655,-17.3242],[-66.8505,-17.3775],[-66.87,-17.4154],[-66.8659,-17.4255],[-66.8597,-17.4364],[-66.8504,-17.4451],[-66.8446,-17.4544],[-66.8419,-17.4681],[-66.8492,-17.4767],[-66.8613,-17.4851],[-66.9899,-17.5513],[-67.0131,-17.5304],[-67.0164,-17.526],[-67.0404,-17.4996],[-67.0571,-17.4762],[-67.0703,-17.4489],[-67.0767,-17.4384],[-67.0837,-17.4292],[-67.092,-17.4207],[-67.1064,-17.4093],[-67.1128,-17.4061],[-67.1201,-17.4034],[-67.1326,-17.4011],[-67.1418,-17.4004],[-67.1508,-17.401],[-67.2812,-17.4371],[-67.3024,-17.4451],[-67.4205,-17.5118],[-67.5425,-17.5959],[-67.5665,-17.6138],[-67.732,-17.7129],[-67.751,-17.7267],[-67.7546,-17.732],[-67.7559,-17.7387],[-67.7545,-17.7529],[-67.752,-17.7613],[-67.7488,-17.7681],[-67.7392,-17.7829],[-67.7333,-17.7967],[-67.7322,-17.8015],[-67.7319,-17.8078],[-67.7326,-17.8142],[-67.7357,-17.8245],[-67.7385,-17.8316],[-67.7439,-17.8419],[-67.7508,-17.8493],[-67.7722,-17.8626],[-67.7857,-17.8647],[-67.798,-17.8638],[-67.8038,-17.8625],[-67.8093,-17.8604],[-68.0058,-17.7185],[-68.0279,-17.7085],[-68.061,-17.6974],[-68.1405,-17.659],[-68.1704,-17.65],[-68.3269,-17.6435],[-68.4466,-17.6524],[-68.4797,-17.661],[-68.5423,-17.6884],[-68.5521,-17.6948],[-68.608,-17.7399],[-68.6964,-17.8471],[-68.7318,-17.8784],[-68.8168,-17.9404],[-68.8677,-17.9668],[-68.9993,-18.0012],[-69.072,-18.0361],[-69.0823,-18.0391],[-69.0921,-18.0233],[-69.1042,-18.0238],[-69.1199,-18.0299],[-69.1408,-18.0308],[-69.1577,-18.0257],[-69.1739,-18.0189],[-69.2042,-18.0011],[-69.2278,-17.9955],[-69.2348,-17.993],[-69.2419,-17.9868],[-69.262,-17.964],[-69.2776,-17.9675],[-69.29,-17.9766]]]}},{"type":"Feature","properties":{"id":"BOL-1937","name":"Oruro","nameBn":"ওরুরু বিভাগ","type":"Department","bounds":[-69.1554,-19.826,-66.0406,-17.4004],"center":[-67.5984,-18.7151]},"geometry":{"type":"Polygon","coordinates":[[[-68.9896,-18.9465],[-68.9598,-18.9078],[-68.9518,-18.8893],[-68.9514,-18.8673],[-68.9546,-18.857],[-69.0101,-18.7453],[-69.0105,-18.7445],[-69.0107,-18.7437],[-69.0105,-18.743],[-69.0032,-18.7296],[-69.0011,-18.7162],[-69.0035,-18.7027],[-69.0101,-18.6898],[-69.0338,-18.6495],[-69.0428,-18.6005],[-69.0416,-18.5489],[-69.0349,-18.501],[-69.0344,-18.4783],[-69.0417,-18.4577],[-69.0778,-18.3988],[-69.0819,-18.3825],[-69.0793,-18.328],[-69.081,-18.3191],[-69.0958,-18.2768],[-69.0968,-18.268],[-69.0969,-18.2575],[-69.1004,-18.2343],[-69.1107,-18.218],[-69.1412,-18.1868],[-69.1554,-18.1402],[-69.1259,-18.1111],[-69.0892,-18.0831],[-69.0817,-18.04],[-69.0823,-18.0391],[-69.072,-18.0361],[-68.9993,-18.0012],[-68.8677,-17.9668],[-68.8168,-17.9404],[-68.7318,-17.8784],[-68.6964,-17.8471],[-68.608,-17.7399],[-68.5521,-17.6948],[-68.5423,-17.6884],[-68.4797,-17.661],[-68.4466,-17.6524],[-68.3269,-17.6435],[-68.1704,-17.65],[-68.1405,-17.659],[-68.061,-17.6974],[-68.0279,-17.7085],[-68.0058,-17.7185],[-67.8093,-17.8604],[-67.8038,-17.8625],[-67.798,-17.8638],[-67.7857,-17.8647],[-67.7722,-17.8626],[-67.7508,-17.8493],[-67.7439,-17.8419],[-67.7385,-17.8316],[-67.7357,-17.8245],[-67.7326,-17.8142],[-67.7319,-17.8078],[-67.7322,-17.8015],[-67.7333,-17.7967],[-67.7392,-17.7829],[-67.7488,-17.7681],[-67.752,-17.7613],[-67.7545,-17.7529],[-67.7559,-17.7387],[-67.7546,-17.732],[-67.751,-17.7267],[-67.732,-17.7129],[-67.5665,-17.6138],[-67.5425,-17.5959],[-67.4205,-17.5118],[-67.3024,-17.4451],[-67.2812,-17.4371],[-67.1508,-17.401],[-67.1418,-17.4004],[-67.1326,-17.4011],[-67.1201,-17.4034],[-67.1128,-17.4061],[-67.1064,-17.4093],[-67.092,-17.4207],[-67.0837,-17.4292],[-67.0767,-17.4384],[-67.0703,-17.4489],[-67.0571,-17.4762],[-67.0404,-17.4996],[-67.0164,-17.526],[-67.0131,-17.5304],[-66.9899,-17.5513],[-66.8261,-17.6712],[-66.8083,-17.6879],[-66.7563,-17.7512],[-66.6805,-17.864],[-66.6249,-17.9913],[-66.6332,-18.0108],[-66.6431,-18.0197],[-66.6542,-18.0273],[-66.6663,-18.0329],[-66.7348,-18.0539],[-66.7421,-18.07],[-66.7483,-18.1627],[-66.7465,-18.1852],[-66.7423,-18.1976],[-66.7362,-18.2082],[-66.7283,-18.2162],[-66.7185,-18.2231],[-66.6846,-18.2374],[-66.6724,-18.2401],[-66.6597,-18.2396],[-66.6336,-18.2349],[-66.6072,-18.2346],[-66.5967,-18.2368],[-66.5759,-18.2445],[-66.5663,-18.2462],[-66.5447,-18.2459],[-66.5216,-18.2526],[-66.5446,-18.2772],[-66.5736,-18.295],[-66.6186,-18.316],[-66.6437,-18.3319],[-66.6653,-18.342],[-66.6757,-18.3513],[-66.6798,-18.358],[-66.6804,-18.364],[-66.6783,-18.397],[-66.6788,-18.4135],[-66.6805,-18.4257],[-66.6907,-18.4701],[-66.6913,-18.4816],[-66.6906,-18.4943],[-66.6895,-18.4983],[-66.6889,-18.4999],[-66.6764,-18.5181],[-66.6412,-18.591],[-66.6333,-18.6029],[-66.6273,-18.6094],[-66.6161,-18.6181],[-66.5322,-18.681],[-66.503,-18.6984],[-66.4141,-18.7288],[-66.3506,-18.7349],[-66.2994,-18.7545],[-66.2846,-18.7657],[-66.2728,-18.7774],[-66.2675,-18.7878],[-66.2227,-18.921],[-66.2205,-18.9263],[-66.1821,-18.9958],[-66.1327,-19.0593],[-66.0586,-19.1408],[-66.0406,-19.1729],[-66.0418,-19.1827],[-66.0462,-19.1915],[-66.056,-19.1987],[-66.0677,-19.2036],[-66.0971,-19.2091],[-66.2194,-19.2185],[-66.4301,-19.2329],[-66.4539,-19.2415],[-66.4958,-19.2635],[-66.6158,-19.3677],[-66.6885,-19.4201],[-66.7281,-19.4415],[-66.936,-19.5307],[-67.2411,-19.6557],[-67.5519,-19.7824],[-67.6875,-19.826],[-67.7396,-19.8249],[-67.8319,-19.8079],[-68.2893,-19.6636],[-68.5725,-19.5666],[-68.5767,-19.5646],[-68.5321,-19.501],[-68.5321,-19.5009],[-68.5102,-19.4716],[-68.4964,-19.4584],[-68.4561,-19.4412],[-68.4476,-19.4346],[-68.455,-19.4154],[-68.4726,-19.3955],[-68.4932,-19.377],[-68.6001,-19.3034],[-68.6357,-19.2906],[-68.6633,-19.2736],[-68.6985,-19.2156],[-68.7213,-19.1917],[-68.8154,-19.1133],[-68.8474,-19.092],[-68.8948,-19.0765],[-68.9085,-19.0679],[-68.9197,-19.0538],[-68.9432,-19.0012],[-68.9617,-18.9694],[-68.974,-18.9562],[-68.9896,-18.9465]]]}},{"type":"Feature","properties":{"id":"BOL-1938","name":"Pando","nameBn":"পান্ডো বিভাগ","type":"Department","bounds":[-69.5776,-12.4966,-65.2848,-9.6798],"center":[-67.4319,-11.273]},"geometry":{"type":"Polygon","coordinates":[[[-65.4425,-9.6798],[-65.4162,-9.6801],[-65.398,-9.6867],[-65.3705,-9.7106],[-65.3561,-9.7416],[-65.3537,-9.745],[-65.3401,-9.7897],[-65.3303,-9.8007],[-65.3166,-9.8125],[-65.3044,-9.8257],[-65.2991,-9.8413],[-65.3036,-9.8645],[-65.3252,-9.9051],[-65.3333,-9.9268],[-65.3368,-9.9672],[-65.3329,-10.0084],[-65.3241,-10.0464],[-65.3056,-10.0984],[-65.3015,-10.1197],[-65.2991,-10.163],[-65.2968,-10.1733],[-65.2868,-10.1965],[-65.2848,-10.2068],[-65.2881,-10.2162],[-65.3054,-10.2422],[-65.3156,-10.2913],[-65.3278,-10.3144],[-65.365,-10.3322],[-65.3792,-10.3514],[-65.3902,-10.374],[-65.3946,-10.3921],[-65.3953,-10.3922],[-65.4479,-10.4008],[-65.4642,-10.4064],[-65.4785,-10.4172],[-65.4967,-10.4362],[-65.5122,-10.4582],[-65.5189,-10.4781],[-65.5263,-10.4866],[-65.613,-10.5284],[-65.6323,-10.5423],[-65.6523,-10.5604],[-65.6739,-10.5716],[-65.6957,-10.5686],[-65.7172,-10.5606],[-65.738,-10.5567],[-65.7614,-10.5641],[-65.764,-10.58],[-65.7571,-10.6005],[-65.7522,-10.6221],[-65.7515,-10.6474],[-65.7531,-10.667],[-65.7627,-10.6839],[-65.7857,-10.7013],[-65.8292,-10.7171],[-65.8562,-10.723],[-65.8683,-10.7184],[-65.8731,-10.7082],[-65.8845,-10.6933],[-65.8981,-10.6798],[-65.9093,-10.674],[-65.9218,-10.6824],[-65.9358,-10.7009],[-65.9424,-10.7195],[-65.9332,-10.728],[-65.9142,-10.7334],[-65.8981,-10.7469],[-65.8867,-10.7648],[-65.882,-10.7832],[-65.895,-10.8117],[-65.9302,-10.8097],[-65.9736,-10.796],[-66.0117,-10.7894],[-66.0346,-10.7984],[-66.0758,-10.8308],[-66.1079,-10.8407],[-66.1078,-10.8471],[-66.102,-10.8541],[-66.0948,-10.8583],[-66.0844,-10.8578],[-66.0636,-10.8495],[-66.0533,-10.8515],[-66.0453,-10.8676],[-66.0534,-10.8885],[-66.0663,-10.9107],[-66.0781,-10.9511],[-66.0904,-10.97],[-66.1061,-10.9785],[-66.1215,-10.9682],[-66.1306,-10.9818],[-66.1414,-11.0118],[-66.1421,-11.0477],[-66.1472,-11.0806],[-66.1712,-11.1008],[-66.1878,-11.0993],[-66.2051,-11.0943],[-66.2178,-11.0977],[-66.2207,-11.1212],[-66.2123,-11.1575],[-66.2115,-11.1746],[-66.2188,-11.1931],[-66.2554,-11.2377],[-66.2641,-11.2539],[-66.2678,-11.2773],[-66.2606,-11.2896],[-66.25,-11.2988],[-66.2432,-11.313],[-66.2546,-11.3317],[-66.3089,-11.3445],[-66.3117,-11.3654],[-66.3169,-11.3859],[-66.3479,-11.3935],[-66.4167,-11.4008],[-66.4714,-11.4336],[-66.497,-11.4423],[-66.5648,-11.4346],[-66.6561,-11.4402],[-66.679,-11.4494],[-66.6891,-11.4688],[-66.6906,-11.4935],[-66.6877,-11.5187],[-66.6908,-11.5376],[-66.715,-11.5648],[-66.7209,-11.5835],[-66.7138,-11.6326],[-66.7153,-11.6556],[-66.729,-11.6747],[-66.7455,-11.6816],[-66.7797,-11.6814],[-66.7968,-11.6857],[-66.8108,-11.6987],[-66.8224,-11.7153],[-66.8356,-11.7278],[-66.8547,-11.7292],[-66.8722,-11.7261],[-66.8917,-11.727],[-66.9053,-11.7354],[-66.9051,-11.7545],[-66.894,-11.7703],[-66.8816,-11.7818],[-66.8768,-11.7956],[-66.8884,-11.8181],[-66.9013,-11.8313],[-66.9176,-11.8418],[-66.9357,-11.8472],[-66.9542,-11.8453],[-66.9706,-11.849],[-66.9746,-11.8692],[-66.9701,-11.8937],[-66.9613,-11.9105],[-66.9547,-11.9129],[-66.9483,-11.9106],[-66.9428,-11.9073],[-66.9391,-11.9066],[-66.9331,-11.9118],[-66.9185,-11.9287],[-66.897,-11.966],[-66.8829,-12.0148],[-66.8774,-12.065],[-66.882,-12.1062],[-66.8972,-12.1522],[-66.8987,-12.1738],[-66.8916,-12.1993],[-66.8893,-12.2232],[-66.899,-12.2452],[-66.9119,-12.2667],[-66.9193,-12.2888],[-66.9162,-12.3081],[-66.9089,-12.325],[-66.9052,-12.3417],[-66.913,-12.3608],[-66.9278,-12.3822],[-67.9555,-11.9093],[-67.9735,-11.9049],[-67.973,-11.9101],[-67.9812,-11.9362],[-67.9957,-11.9582],[-68.0128,-11.97],[-68.0368,-11.979],[-68.0619,-11.9836],[-68.0823,-11.9824],[-68.1092,-11.9955],[-68.1845,-12.0056],[-68.2151,-12.0199],[-68.231,-12.0477],[-68.2383,-12.1203],[-68.2462,-12.1537],[-68.2718,-12.1813],[-68.3902,-12.2425],[-68.412,-12.2729],[-68.4584,-12.387],[-68.4769,-12.4167],[-68.4893,-12.4247],[-68.5099,-12.4274],[-68.5264,-12.4216],[-68.5411,-12.4102],[-68.5582,-12.4023],[-68.582,-12.4069],[-68.5935,-12.4209],[-68.613,-12.4752],[-68.6177,-12.4779],[-68.6297,-12.4908],[-68.636,-12.4951],[-68.6456,-12.4966],[-68.6782,-12.4951],[-68.6895,-12.4934],[-68.7142,-12.4503],[-68.8186,-12.2692],[-68.9229,-12.0882],[-69.0273,-11.9071],[-69.1316,-11.726],[-69.236,-11.5449],[-69.3403,-11.3637],[-69.4446,-11.1827],[-69.549,-11.0017],[-69.5525,-10.9956],[-69.5561,-10.9894],[-69.5597,-10.9831],[-69.5633,-10.9769],[-69.5668,-10.9707],[-69.5705,-10.9646],[-69.574,-10.9585],[-69.5776,-10.9523],[-69.5029,-10.9553],[-69.4634,-10.9513],[-69.3959,-10.935],[-69.3631,-10.9401],[-69.3296,-10.9494],[-69.2935,-10.955],[-69.2368,-10.9529],[-69.1585,-10.9621],[-69.1215,-10.9706],[-69.0869,-10.9672],[-69.0713,-10.97],[-68.997,-11.0017],[-68.9925,-11.0024],[-68.9834,-11.0024],[-68.9789,-11.0017],[-68.9554,-11.0005],[-68.9081,-11.0134],[-68.884,-11.0164],[-68.8589,-11.0105],[-68.8317,-11.0004],[-68.8047,-10.9947],[-68.7746,-11.0035],[-68.7576,-11.0119],[-68.774,-11.0351],[-68.7856,-11.0593],[-68.7912,-11.0851],[-68.787,-11.126],[-68.784,-11.1353],[-68.7759,-11.1406],[-68.7583,-11.1411],[-68.6157,-11.1125],[-68.588,-11.0986],[-68.5361,-11.0615],[-68.4933,-11.0474],[-68.4766,-11.0448],[-68.4597,-11.0448],[-68.4424,-11.0477],[-68.4282,-11.0437],[-68.3964,-11.0144],[-68.3783,-11.005],[-68.3311,-11.0005],[-68.3138,-10.9934],[-68.2933,-10.979],[-68.2744,-10.9601],[-68.2575,-10.9388],[-68.2438,-10.917],[-68.2176,-10.858],[-68.2036,-10.8389],[-68.1473,-10.7796],[-68.1121,-10.7141],[-68.0979,-10.6977],[-68.0746,-10.6817],[-68.0438,-10.6669],[-68.0271,-10.6618],[-68.0102,-10.6597],[-67.9818,-10.6644],[-67.8626,-10.6588],[-67.8478,-10.6609],[-67.8333,-10.665],[-67.8143,-10.6759],[-67.775,-10.7065],[-67.7558,-10.7142],[-67.7217,-10.7055],[-67.7051,-10.6767],[-67.696,-10.6405],[-67.6847,-10.6105],[-67.6738,-10.5994],[-67.6435,-10.5745],[-67.6308,-10.5596],[-67.6111,-10.5288],[-67.6,-10.5154],[-67.5846,-10.5018],[-67.5651,-10.4959],[-67.5293,-10.4785],[-67.4882,-10.4648],[-67.468,-10.4523],[-67.4505,-10.436],[-67.4366,-10.4175],[-67.4322,-10.4061],[-67.4319,-10.3979],[-67.4293,-10.3904],[-67.4183,-10.3815],[-67.4092,-10.3788],[-67.365,-10.3781],[-67.3535,-10.3762],[-67.3428,-10.3725],[-67.3353,-10.3663],[-67.3337,-10.3567],[-67.3394,-10.3349],[-67.3378,-10.3261],[-67.3235,-10.3189],[-67.3007,-10.3151],[-67.2592,-10.3137],[-67.241,-10.3164],[-67.2018,-10.3268],[-67.1847,-10.3267],[-67.1723,-10.3196],[-67.1649,-10.3085],[-67.1591,-10.2971],[-67.1517,-10.289],[-67.1418,-10.2856],[-67.1207,-10.2845],[-67.11,-10.2826],[-67.0643,-10.2569],[-66.9027,-10.0931],[-66.7706,-9.9926],[-66.7516,-9.9826],[-66.67,-9.9515],[-66.6601,-9.9453],[-66.6548,-9.9372],[-66.6525,-9.9261],[-66.6489,-9.9159],[-66.6426,-9.9079],[-66.6319,-9.9043],[-66.5138,-9.8839],[-66.4529,-9.8887],[-66.4327,-9.8861],[-66.4133,-9.8792],[-66.3717,-9.8559],[-66.3553,-9.8496],[-66.2573,-9.8349],[-66.239,-9.8281],[-66.208,-9.8081],[-66.1907,-9.8008],[-66.1355,-9.7952],[-66.1317,-9.797],[-66.1279,-9.8012],[-66.1236,-9.8051],[-66.1182,-9.806],[-66.1131,-9.8024],[-66.1061,-9.7904],[-66.102,-9.7874],[-66.087,-9.7845],[-66.0817,-9.7857],[-66.0693,-9.7901],[-66.0428,-9.8049],[-66.0295,-9.8083],[-66.0104,-9.8041],[-65.9657,-9.7768],[-65.947,-9.7714],[-65.9293,-9.7703],[-65.9153,-9.7717],[-65.8744,-9.7813],[-65.8625,-9.7818],[-65.8504,-9.7753],[-65.8341,-9.7583],[-65.8317,-9.7653],[-65.8274,-9.774],[-65.8221,-9.7818],[-65.8165,-9.786],[-65.8064,-9.7844],[-65.8037,-9.7755],[-65.8039,-9.7648],[-65.8026,-9.7573],[-65.7945,-9.7377],[-65.7886,-9.733],[-65.7822,-9.7463],[-65.78,-9.756],[-65.7773,-9.7634],[-65.7724,-9.7688],[-65.7632,-9.7723],[-65.7255,-9.7568],[-65.71,-9.756],[-65.7137,-9.7787],[-65.7173,-9.7912],[-65.7131,-9.7942],[-65.7051,-9.7933],[-65.6971,-9.7943],[-65.6944,-9.7937],[-65.6836,-9.7899],[-65.679,-9.7894],[-65.6726,-9.7926],[-65.6637,-9.8029],[-65.6585,-9.8074],[-65.6289,-9.8269],[-65.6144,-9.8339],[-65.5961,-9.838],[-65.584,-9.8372],[-65.5794,-9.8328],[-65.5771,-9.8262],[-65.5719,-9.8188],[-65.5706,-9.8158],[-65.5699,-9.806],[-65.568,-9.8021],[-65.5628,-9.7992],[-65.5508,-9.797],[-65.5468,-9.7952],[-65.5353,-9.7825],[-65.5254,-9.7679],[-65.5214,-9.7586],[-65.5171,-9.7432],[-65.5108,-9.7341],[-65.4652,-9.6965],[-65.4518,-9.6814],[-65.4425,-9.6798]]]}},{"type":"Feature","properties":{"id":"BOL-1939","name":"Potosí","nameBn":"পুটুসি বিভাগ","type":"Department","bounds":[-68.7926,-22.8973,-64.7469,-17.8546],"center":[-66.7701,-20.9033]},"geometry":{"type":"Polygon","coordinates":[[[-68.5972,-20.0567],[-68.5883,-20.0556],[-68.5793,-20.0454],[-68.5745,-20.0352],[-68.5661,-20.0009],[-68.5649,-19.9814],[-68.5446,-19.9348],[-68.5416,-19.9204],[-68.5429,-19.9142],[-68.5469,-19.9082],[-68.5515,-19.8944],[-68.5525,-19.8649],[-68.5535,-19.8579],[-68.5611,-19.8443],[-68.5708,-19.8376],[-68.6016,-19.8254],[-68.6189,-19.8134],[-68.6504,-19.7816],[-68.6984,-19.7463],[-68.7054,-19.7338],[-68.7032,-19.7155],[-68.6903,-19.6954],[-68.6486,-19.6603],[-68.631,-19.642],[-68.5767,-19.5646],[-68.5725,-19.5666],[-68.2893,-19.6636],[-67.8319,-19.8079],[-67.7396,-19.8249],[-67.6875,-19.826],[-67.5519,-19.7824],[-67.2411,-19.6557],[-66.936,-19.5307],[-66.7281,-19.4415],[-66.6885,-19.4201],[-66.6158,-19.3677],[-66.4958,-19.2635],[-66.4539,-19.2415],[-66.4301,-19.2329],[-66.2194,-19.2185],[-66.0971,-19.2091],[-66.0677,-19.2036],[-66.056,-19.1987],[-66.0462,-19.1915],[-66.0418,-19.1827],[-66.0406,-19.1729],[-66.0586,-19.1408],[-66.1327,-19.0593],[-66.1821,-18.9958],[-66.2205,-18.9263],[-66.2227,-18.921],[-66.2675,-18.7878],[-66.2728,-18.7774],[-66.2846,-18.7657],[-66.2994,-18.7545],[-66.3506,-18.7349],[-66.4141,-18.7288],[-66.503,-18.6984],[-66.5322,-18.681],[-66.6161,-18.6181],[-66.6273,-18.6094],[-66.6333,-18.6029],[-66.6412,-18.591],[-66.6764,-18.5181],[-66.6889,-18.4999],[-66.6895,-18.4983],[-66.6906,-18.4943],[-66.6913,-18.4816],[-66.6907,-18.4701],[-66.6805,-18.4257],[-66.6788,-18.4135],[-66.6783,-18.397],[-66.6804,-18.364],[-66.6798,-18.358],[-66.6757,-18.3513],[-66.6653,-18.342],[-66.6437,-18.3319],[-66.6186,-18.316],[-66.5736,-18.295],[-66.5446,-18.2772],[-66.5216,-18.2526],[-66.5447,-18.2459],[-66.5663,-18.2462],[-66.5759,-18.2445],[-66.5967,-18.2368],[-66.6072,-18.2346],[-66.6336,-18.2349],[-66.6597,-18.2396],[-66.6724,-18.2401],[-66.6846,-18.2374],[-66.7185,-18.2231],[-66.7283,-18.2162],[-66.7362,-18.2082],[-66.7423,-18.1976],[-66.7465,-18.1852],[-66.7483,-18.1627],[-66.7421,-18.07],[-66.7348,-18.0539],[-66.6663,-18.0329],[-66.6542,-18.0273],[-66.6431,-18.0197],[-66.6332,-18.0108],[-66.6249,-17.9913],[-66.557,-17.979],[-66.5344,-17.9769],[-66.5248,-17.9782],[-66.5167,-17.9802],[-66.478,-17.9844],[-66.4179,-17.9822],[-66.3671,-17.9903],[-66.3556,-17.9903],[-66.3464,-17.9886],[-66.3355,-17.9829],[-66.2779,-17.9377],[-66.256,-17.9213],[-66.1752,-17.8668],[-66.1623,-17.8626],[-66.1356,-17.8567],[-66.0953,-17.8546],[-66.0611,-17.8574],[-66.0494,-17.8594],[-66.0392,-17.8622],[-66.0185,-17.8622],[-66.0133,-17.8816],[-66.0005,-17.9069],[-65.9858,-17.9286],[-65.9741,-17.9379],[-65.963,-17.9404],[-65.9533,-17.9471],[-65.9466,-17.9567],[-65.9403,-17.9813],[-65.9311,-17.9838],[-65.8648,-17.9681],[-65.8433,-17.9683],[-65.8255,-17.9942],[-65.7653,-18.026],[-65.7032,-18.0776],[-65.6955,-18.0949],[-65.6777,-18.1087],[-65.6424,-18.1291],[-65.6184,-18.157],[-65.6065,-18.1747],[-65.5954,-18.2037],[-65.5807,-18.2184],[-65.5626,-18.2304],[-65.5462,-18.2389],[-65.5103,-18.2667],[-65.4671,-18.3386],[-65.4363,-18.3693],[-65.4305,-18.3714],[-65.4156,-18.374],[-65.409,-18.3761],[-65.4043,-18.3795],[-65.3953,-18.3897],[-65.3607,-18.4077],[-65.351,-18.4102],[-65.3472,-18.4139],[-65.3439,-18.4226],[-65.3768,-18.4299],[-65.3919,-18.4282],[-65.415,-18.418],[-65.4909,-18.394],[-65.4987,-18.3895],[-65.5006,-18.3886],[-65.5032,-18.388],[-65.5081,-18.3886],[-65.5145,-18.3906],[-65.5426,-18.4038],[-65.5484,-18.4053],[-65.5543,-18.4052],[-65.5599,-18.4031],[-65.5644,-18.3992],[-65.5675,-18.3941],[-65.5698,-18.3885],[-65.5722,-18.3838],[-65.5754,-18.3801],[-65.5796,-18.3772],[-65.5855,-18.3749],[-65.5926,-18.3736],[-65.6221,-18.3746],[-65.6286,-18.3737],[-65.6342,-18.371],[-65.639,-18.3676],[-65.645,-18.3655],[-65.657,-18.3642],[-65.661,-18.3618],[-65.6635,-18.3581],[-65.6659,-18.3505],[-65.6684,-18.347],[-65.6728,-18.3452],[-65.6781,-18.346],[-65.6836,-18.348],[-65.6888,-18.3512],[-65.6924,-18.3549],[-65.6944,-18.3642],[-65.6885,-18.3999],[-65.6885,-18.409],[-65.687,-18.4146],[-65.6836,-18.4211],[-65.6745,-18.4317],[-65.6675,-18.4375],[-65.6606,-18.4417],[-65.6389,-18.4513],[-65.6286,-18.4583],[-65.6254,-18.4657],[-65.6243,-18.4764],[-65.6307,-18.5241],[-65.6286,-18.5657],[-65.6078,-18.6741],[-65.6085,-18.6786],[-65.613,-18.688],[-65.6208,-18.697],[-65.644,-18.7158],[-65.6485,-18.7202],[-65.6519,-18.7251],[-65.6547,-18.7306],[-65.6561,-18.7366],[-65.655,-18.7436],[-65.6522,-18.7487],[-65.6449,-18.7529],[-65.6398,-18.7537],[-65.6348,-18.7531],[-65.6297,-18.7515],[-65.5211,-18.6999],[-65.501,-18.693],[-65.4574,-18.683],[-65.4516,-18.6829],[-65.4467,-18.6838],[-65.4406,-18.6856],[-65.435,-18.6881],[-65.4301,-18.6916],[-65.4262,-18.6964],[-65.4238,-18.7025],[-65.4219,-18.7121],[-65.4233,-18.7226],[-65.4271,-18.7343],[-65.4372,-18.7513],[-65.4442,-18.7597],[-65.4506,-18.7653],[-65.4662,-18.7746],[-65.5025,-18.8047],[-65.5042,-18.807],[-65.5064,-18.8129],[-65.5074,-18.8217],[-65.505,-18.8324],[-65.5023,-18.8381],[-65.5003,-18.841],[-65.492,-18.8477],[-65.4842,-18.8554],[-65.4812,-18.8599],[-65.4787,-18.8647],[-65.4767,-18.8705],[-65.4752,-18.8767],[-65.4737,-18.8898],[-65.4716,-18.9006],[-65.47,-18.905],[-65.4709,-18.91],[-65.4737,-18.9156],[-65.4864,-18.9264],[-65.4935,-18.9337],[-65.5186,-18.9732],[-65.5353,-19.0003],[-65.5376,-19.0054],[-65.5396,-19.0089],[-65.5408,-19.0129],[-65.541,-19.0153],[-65.5405,-19.0187],[-65.522,-19.0674],[-65.5062,-19.0936],[-65.4742,-19.1139],[-65.4676,-19.1198],[-65.4616,-19.1281],[-65.4573,-19.1405],[-65.4532,-19.1671],[-65.4472,-19.1789],[-65.4332,-19.1922],[-65.4065,-19.2106],[-65.3843,-19.2426],[-65.3728,-19.2542],[-65.3235,-19.2863],[-65.3094,-19.2998],[-65.2928,-19.3103],[-65.248,-19.3183],[-65.2317,-19.3274],[-65.2158,-19.3386],[-65.155,-19.3714],[-65.1305,-19.3792],[-65.1107,-19.3732],[-65.1035,-19.3686],[-65.0992,-19.3703],[-65.0964,-19.3744],[-65.0937,-19.3766],[-65.0714,-19.3768],[-64.9937,-19.3527],[-64.9637,-19.3504],[-64.937,-19.3572],[-64.92,-19.3706],[-64.9043,-19.3906],[-64.8928,-19.4131],[-64.8885,-19.4341],[-64.8855,-19.4337],[-64.879,-19.4399],[-64.8723,-19.4482],[-64.8687,-19.4541],[-64.8678,-19.4631],[-64.8694,-19.4715],[-64.8745,-19.4882],[-64.8775,-19.5093],[-64.8764,-19.5285],[-64.8708,-19.5471],[-64.8607,-19.5667],[-64.7761,-19.6722],[-64.7545,-19.7118],[-64.7469,-19.7324],[-64.7561,-19.7457],[-64.7897,-19.7903],[-64.8677,-19.8684],[-65.0564,-19.9687],[-65.0733,-19.9728],[-65.1758,-19.9812],[-65.1977,-19.9871],[-65.2282,-19.9913],[-65.2475,-19.9984],[-65.2513,-20.0001],[-65.2714,-20.0148],[-65.2882,-20.0308],[-65.2923,-20.0337],[-65.2971,-20.036],[-65.3082,-20.0388],[-65.3132,-20.0423],[-65.3166,-20.0484],[-65.3168,-20.0698],[-65.316,-20.0751],[-65.3108,-20.0925],[-65.3151,-20.1087],[-65.3416,-20.144],[-65.3481,-20.1521],[-65.3537,-20.1605],[-65.3585,-20.17],[-65.3688,-20.2031],[-65.3697,-20.2126],[-65.3689,-20.2483],[-65.3661,-20.269],[-65.296,-20.5338],[-65.3723,-20.7051],[-65.377,-20.72],[-65.3888,-20.7774],[-65.3965,-20.7949],[-65.4227,-20.8368],[-65.4293,-20.9626],[-65.472,-21.1013],[-65.4739,-21.1222],[-65.4734,-21.1353],[-65.4713,-21.1466],[-65.4682,-21.1568],[-65.4672,-21.1626],[-65.4779,-21.267],[-65.4769,-21.2921],[-65.4756,-21.2975],[-65.4585,-21.3351],[-65.3174,-21.4779],[-65.2349,-21.5354],[-65.2344,-21.5675],[-65.2355,-21.5769],[-65.2385,-21.5894],[-65.2553,-21.6324],[-65.2687,-21.6544],[-65.282,-21.6688],[-65.286,-21.6718],[-65.2894,-21.6784],[-65.292,-21.6877],[-65.295,-21.7167],[-65.2977,-21.7255],[-65.3039,-21.7327],[-65.3131,-21.7416],[-65.3197,-21.7571],[-65.3285,-21.8029],[-65.3185,-21.808],[-65.3147,-21.8105],[-65.3097,-21.8145],[-65.3052,-21.8193],[-65.3002,-21.827],[-65.2944,-21.8344],[-65.2835,-21.8435],[-65.2765,-21.8507],[-65.2603,-21.8738],[-65.2349,-21.9197],[-65.2231,-21.9364],[-65.215,-21.9428],[-65.2115,-21.9465],[-65.2011,-21.977],[-65.1744,-22.0953],[-65.173,-22.0981],[-65.1905,-22.0982],[-65.1905,-22.0985],[-65.4573,-22.1014],[-65.5105,-22.0959],[-65.5799,-22.0865],[-65.5885,-22.0873],[-65.5934,-22.0911],[-65.5979,-22.0957],[-65.6053,-22.0991],[-65.7446,-22.114],[-65.7753,-22.1051],[-65.8046,-22.0858],[-65.9327,-21.9446],[-65.9545,-21.9331],[-66.0465,-21.918],[-66.0518,-21.9126],[-66.0636,-21.864],[-66.0945,-21.8329],[-66.1378,-21.8125],[-66.2225,-21.7869],[-66.24,-21.7924],[-66.2876,-21.957],[-66.2972,-22.0503],[-66.3015,-22.065],[-66.3076,-22.077],[-66.3098,-22.0782],[-66.3141,-22.0758],[-66.3267,-22.0774],[-66.3352,-22.0823],[-66.343,-22.0905],[-66.3492,-22.1002],[-66.3532,-22.1096],[-66.3775,-22.1271],[-66.5103,-22.1629],[-66.6268,-22.1926],[-66.6306,-22.1974],[-66.6333,-22.2049],[-66.6363,-22.2113],[-66.6414,-22.2125],[-66.6578,-22.2074],[-66.6774,-22.2051],[-66.6885,-22.2017],[-66.6993,-22.2008],[-66.7128,-22.2064],[-66.7359,-22.2251],[-66.7489,-22.2449],[-66.7561,-22.2683],[-66.7679,-22.3426],[-66.7752,-22.3652],[-66.788,-22.3801],[-66.7905,-22.3883],[-66.7845,-22.4173],[-66.7851,-22.4276],[-66.7965,-22.4349],[-66.9086,-22.4675],[-66.9353,-22.4805],[-66.9556,-22.5007],[-66.9652,-22.5143],[-66.9782,-22.5225],[-66.9936,-22.5258],[-67.0157,-22.5238],[-67.0327,-22.5246],[-67.0244,-22.6176],[-67.0266,-22.6394],[-67.0377,-22.6546],[-67.1132,-22.7101],[-67.1427,-22.7427],[-67.1939,-22.8222],[-67.5103,-22.8858],[-67.5471,-22.8925],[-67.6168,-22.8973],[-67.7714,-22.8887],[-67.8036,-22.8787],[-67.8113,-22.8716],[-67.833,-22.8401],[-67.8379,-22.8408],[-67.8763,-22.8336],[-67.8871,-22.8187],[-67.8915,-22.7929],[-67.8913,-22.7157],[-67.8587,-22.5668],[-67.8592,-22.5473],[-67.8897,-22.4912],[-67.8982,-22.4415],[-67.9069,-22.4201],[-67.9453,-22.3542],[-67.9519,-22.3341],[-67.9522,-22.3141],[-67.9348,-22.2517],[-67.936,-22.2323],[-67.945,-22.2083],[-67.973,-22.1706],[-67.9766,-22.1598],[-67.9733,-22.1504],[-67.9606,-22.1337],[-67.9572,-22.1246],[-67.9606,-22.1029],[-67.9726,-22.0788],[-67.9902,-22.0576],[-68.0102,-22.0449],[-68.0588,-22.0008],[-68.0827,-21.9803],[-68.092,-21.9684],[-68.0962,-21.954],[-68.1076,-21.7896],[-68.1284,-21.7123],[-68.1906,-21.6064],[-68.1984,-21.5719],[-68.1937,-21.3285],[-68.2075,-21.2843],[-68.4163,-20.9598],[-68.4321,-20.945],[-68.4539,-20.9398],[-68.496,-20.9416],[-68.5102,-20.9402],[-68.5316,-20.9277],[-68.5551,-20.9139],[-68.572,-20.8724],[-68.5728,-20.7429],[-68.5651,-20.7195],[-68.5502,-20.699],[-68.4816,-20.643],[-68.481,-20.6247],[-68.5102,-20.6019],[-68.5363,-20.5918],[-68.5833,-20.563],[-68.6855,-20.5168],[-68.7076,-20.5009],[-68.7297,-20.4792],[-68.7507,-20.4518],[-68.7654,-20.4212],[-68.769,-20.3905],[-68.7577,-20.3643],[-68.7352,-20.3475],[-68.6785,-20.3286],[-68.718,-20.262],[-68.7295,-20.2287],[-68.7283,-20.1896],[-68.7233,-20.161],[-68.7263,-20.151],[-68.759,-20.1441],[-68.7895,-20.1259],[-68.7926,-20.1066],[-68.7755,-20.0897],[-68.6529,-20.0542],[-68.6221,-20.0513],[-68.6078,-20.0536],[-68.5972,-20.0567]]]}},{"type":"Feature","properties":{"id":"BOL-1940","name":"Santa Cruz","nameBn":"সান্তা ক্রুজ বিভাগ","type":"Department","bounds":[-64.8077,-20.4751,-57.4657,-13.4646],"center":[-61.137,-16.5168]},"geometry":{"type":"Polygon","coordinates":[[[-57.8597,-19.9801],[-57.8698,-19.9929],[-57.8811,-20.0092],[-57.8956,-20.0242],[-57.9179,-20.0342],[-57.9432,-20.0281],[-57.9592,-20.0262],[-57.9664,-20.0311],[-57.9689,-20.0398],[-57.9758,-20.0475],[-57.9857,-20.0531],[-57.9971,-20.0553],[-58.0224,-20.065],[-58.0535,-20.1077],[-58.0796,-20.1174],[-58.0862,-20.1209],[-58.0983,-20.1381],[-58.1036,-20.144],[-58.1163,-20.1504],[-58.1588,-20.1651],[-58.1595,-20.1391],[-58.1447,-20.0862],[-58.1431,-20.0653],[-58.1445,-20.0231],[-58.1418,-20.0009],[-58.1452,-19.9696],[-58.1622,-19.9123],[-58.1642,-19.8803],[-58.1612,-19.8472],[-58.1644,-19.8329],[-58.1753,-19.8214],[-58.2145,-19.7983],[-58.3078,-19.7437],[-58.401,-19.6889],[-58.4943,-19.6342],[-58.5875,-19.5794],[-58.6808,-19.5248],[-58.7741,-19.4701],[-58.8674,-19.4153],[-58.9607,-19.3605],[-59.0111,-19.331],[-59.0397,-19.3116],[-59.0696,-19.2915],[-59.0895,-19.2867],[-59.1707,-19.2878],[-59.3591,-19.2901],[-59.5475,-19.2924],[-59.7359,-19.2948],[-59.9243,-19.2971],[-60.0064,-19.2981],[-60.157,-19.329],[-60.4955,-19.3985],[-60.8339,-19.4679],[-61.1724,-19.5375],[-61.5108,-19.6069],[-61.5323,-19.61],[-61.5795,-19.6168],[-61.6267,-19.6237],[-61.6482,-19.6268],[-61.7372,-19.6396],[-61.7532,-19.6459],[-61.7612,-19.6578],[-61.7801,-19.707],[-61.8082,-19.7803],[-61.8363,-19.8538],[-61.8644,-19.9274],[-61.8926,-20.0009],[-61.9055,-20.0267],[-61.9184,-20.0526],[-61.9247,-20.0651],[-61.9314,-20.0783],[-61.9442,-20.1041],[-61.9609,-20.128],[-61.9776,-20.1518],[-61.9942,-20.1757],[-62.0108,-20.1995],[-62.0555,-20.2604],[-62.1002,-20.3212],[-62.145,-20.3821],[-62.1897,-20.4428],[-62.2106,-20.4713],[-62.2114,-20.4713],[-63.2859,-20.4751],[-63.2952,-20.4727],[-63.3031,-20.4689],[-63.3117,-20.4562],[-63.3422,-20.3869],[-63.3556,-20.3668],[-63.3685,-20.3574],[-63.3771,-20.3614],[-63.384,-20.3685],[-63.3959,-20.3857],[-63.4022,-20.393],[-63.4152,-20.4032],[-63.4209,-20.4061],[-63.429,-20.4091],[-63.4486,-20.412],[-63.459,-20.4147],[-63.4671,-20.4204],[-63.4741,-20.4276],[-63.4914,-20.4516],[-63.4974,-20.4575],[-63.5024,-20.4604],[-63.5107,-20.4627],[-63.5213,-20.4625],[-63.5668,-20.4528],[-63.6293,-20.4524],[-63.6519,-20.4501],[-63.6648,-20.4074],[-63.7069,-20.0038],[-63.7088,-20.0001],[-63.7217,-19.9732],[-63.7253,-19.963],[-63.7677,-19.2713],[-63.7652,-19.2109],[-63.7413,-19.0444],[-63.7505,-19.0283],[-63.8133,-19.0352],[-63.8342,-19.0343],[-63.8609,-19.0262],[-63.8726,-19.0263],[-63.8851,-19.0351],[-63.8966,-19.0559],[-63.9059,-19.1289],[-63.9107,-19.1426],[-63.9176,-19.1538],[-63.9271,-19.1628],[-63.9398,-19.1693],[-63.9551,-19.173],[-63.9735,-19.1744],[-63.9918,-19.1732],[-64.0069,-19.1686],[-64.0163,-19.1606],[-64.0209,-19.1498],[-64.0232,-19.1379],[-64.0647,-18.9998],[-64.0708,-18.9922],[-64.0774,-18.9897],[-64.0844,-18.989],[-64.0918,-18.9865],[-64.1034,-18.9762],[-64.1112,-18.9647],[-64.1204,-18.9553],[-64.1358,-18.9508],[-64.165,-18.9491],[-64.1797,-18.9457],[-64.192,-18.9392],[-64.1991,-18.9288],[-64.202,-18.9154],[-64.2035,-18.9013],[-64.2062,-18.8883],[-64.2206,-18.8656],[-64.24,-18.853],[-64.2613,-18.8425],[-64.2818,-18.8262],[-64.289,-18.8142],[-64.2963,-18.7874],[-64.3016,-18.7741],[-64.3159,-18.7484],[-64.3195,-18.7354],[-64.319,-18.7192],[-64.3168,-18.7043],[-64.3164,-18.6913],[-64.3199,-18.679],[-64.3296,-18.6669],[-64.3402,-18.6569],[-64.3228,-18.6268],[-64.2971,-18.5985],[-64.2933,-18.591],[-64.2929,-18.585],[-64.2996,-18.5694],[-64.301,-18.5618],[-64.3017,-18.5515],[-64.2993,-18.5118],[-64.3005,-18.5046],[-64.3018,-18.5002],[-64.3021,-18.4996],[-64.3052,-18.4959],[-64.309,-18.4925],[-64.3136,-18.4894],[-64.3361,-18.4784],[-64.3457,-18.4716],[-64.3624,-18.4553],[-64.3767,-18.4445],[-64.3875,-18.4388],[-64.4056,-18.4331],[-64.4097,-18.4315],[-64.4147,-18.4276],[-64.42,-18.4209],[-64.4273,-18.409],[-64.4296,-18.4002],[-64.4301,-18.3926],[-64.4289,-18.3775],[-64.4318,-18.3713],[-64.4436,-18.3612],[-64.4456,-18.3564],[-64.4449,-18.351],[-64.4427,-18.3443],[-64.441,-18.3371],[-64.4412,-18.3261],[-64.4443,-18.3199],[-64.4493,-18.3154],[-64.4626,-18.3065],[-64.4776,-18.2801],[-64.4884,-18.2403],[-64.5041,-18.2141],[-64.5247,-18.1882],[-64.5384,-18.1642],[-64.5467,-18.1529],[-64.5533,-18.1455],[-64.5666,-18.1372],[-64.575,-18.13],[-64.5893,-18.1149],[-64.6082,-18.0659],[-64.6412,-18.0053],[-64.6546,-17.9858],[-64.6999,-17.9404],[-64.7061,-17.9302],[-64.7106,-17.9107],[-64.7042,-17.8832],[-64.6899,-17.867],[-64.6678,-17.8493],[-64.5851,-17.7701],[-64.5643,-17.7457],[-64.4056,-17.5204],[-64.402,-17.5109],[-64.3998,-17.5009],[-64.4011,-17.4779],[-64.4005,-17.4682],[-64.3964,-17.4563],[-64.3885,-17.4491],[-64.3509,-17.425],[-64.3395,-17.4207],[-64.3302,-17.4202],[-64.3105,-17.4224],[-64.301,-17.4216],[-64.2794,-17.4165],[-64.2706,-17.4161],[-64.2591,-17.4196],[-64.2407,-17.4173],[-64.2246,-17.416],[-64.2171,-17.3973],[-64.2121,-17.3787],[-64.2162,-17.3597],[-64.2245,-17.3444],[-64.2337,-17.3186],[-64.2383,-17.3109],[-64.2443,-17.3042],[-64.2901,-17.2685],[-64.3757,-17.1746],[-64.4088,-17.1495],[-64.418,-17.1448],[-64.4447,-17.1367],[-64.5034,-17.1031],[-64.5186,-17.092],[-64.5816,-17.0273],[-64.5915,-17.0203],[-64.6017,-17.0156],[-64.6237,-17.0084],[-64.6474,-16.996],[-64.7417,-16.8984],[-64.7561,-16.8743],[-64.7778,-16.7945],[-64.7799,-16.7754],[-64.7822,-16.7663],[-64.788,-16.7568],[-64.8031,-16.7395],[-64.8077,-16.7296],[-64.8071,-16.7174],[-64.7951,-16.6986],[-64.7899,-16.6762],[-64.7538,-16.6185],[-64.7511,-16.6112],[-64.7542,-16.6016],[-64.7617,-16.5977],[-64.7707,-16.5945],[-64.7784,-16.5873],[-64.7823,-16.5722],[-64.7799,-16.5561],[-64.7733,-16.5403],[-64.7647,-16.5258],[-64.7551,-16.5156],[-64.7322,-16.5004],[-64.7232,-16.4911],[-64.7178,-16.4633],[-64.7169,-16.4606],[-64.7151,-16.4585],[-64.6842,-16.3884],[-64.6822,-16.3743],[-64.6847,-16.3646],[-64.6943,-16.3522],[-64.6964,-16.344],[-64.6939,-16.3347],[-64.676,-16.3061],[-64.6998,-16.3047],[-64.6981,-16.2931],[-64.676,-16.2652],[-64.6739,-16.2454],[-64.6764,-16.2279],[-64.6768,-16.2101],[-64.6685,-16.19],[-64.6773,-16.1691],[-64.6738,-16.1505],[-64.666,-16.1337],[-64.6617,-16.118],[-64.6661,-16.1027],[-64.6852,-16.0773],[-64.6896,-16.0566],[-64.6896,-16.0218],[-64.688,-16.0154],[-64.6845,-16.0103],[-64.6818,-16.0033],[-64.6822,-15.9908],[-64.6887,-15.9699],[-64.6998,-15.9514],[-64.7143,-15.9355],[-64.7306,-15.9225],[-64.7174,-15.9127],[-64.7039,-15.9116],[-64.6901,-15.916],[-64.676,-15.9225],[-64.6752,-15.9062],[-64.6811,-15.8948],[-64.7039,-15.8747],[-64.676,-15.8746],[-64.6644,-15.8725],[-64.6575,-15.8505],[-63.3409,-15.9176],[-63.3206,-15.9166],[-63.3174,-15.9141],[-63.3271,-15.909],[-63.3377,-15.9048],[-63.3733,-15.8963],[-63.3848,-15.8913],[-63.3946,-15.8847],[-63.4207,-15.8566],[-63.4298,-15.8435],[-63.4357,-15.8238],[-63.4378,-15.8089],[-63.4388,-15.7843],[-63.4409,-15.7742],[-63.4462,-15.7647],[-63.4673,-15.7386],[-63.4797,-15.7141],[-63.49,-15.7009],[-63.4987,-15.6921],[-63.5058,-15.6881],[-63.5383,-15.6738],[-63.5492,-15.6673],[-63.5791,-15.6426],[-63.5896,-15.6378],[-63.6012,-15.6371],[-63.6124,-15.6345],[-63.6238,-15.6274],[-63.6702,-15.5802],[-63.6772,-15.5671],[-63.6823,-15.5184],[-63.6881,-15.5049],[-63.7007,-15.4894],[-63.7138,-15.4813],[-63.7386,-15.4721],[-63.7488,-15.4657],[-63.758,-15.4561],[-63.8632,-15.2981],[-63.9002,-15.1982],[-63.9321,-15.1493],[-63.9388,-15.1335],[-63.9498,-15.0856],[-63.9449,-15.0616],[-63.9389,-15.047],[-63.9347,-15.0279],[-63.9341,-15.0002],[-63.9396,-14.9483],[-63.9402,-14.8323],[-63.963,-14.7374],[-63.9157,-14.7161],[-63.5704,-14.6185],[-63.0129,-14.3055],[-62.1287,-13.8089],[-61.5936,-13.5072],[-61.5931,-13.5068],[-61.5881,-13.5076],[-61.5609,-13.5327],[-61.5508,-13.538],[-61.5034,-13.5482],[-61.4588,-13.5437],[-61.4155,-13.5281],[-61.3477,-13.4937],[-61.3324,-13.4948],[-61.3171,-13.5009],[-61.2812,-13.5072],[-61.26,-13.5201],[-61.2486,-13.5244],[-61.2379,-13.5244],[-61.215,-13.5175],[-61.1491,-13.5198],[-61.1393,-13.5141],[-61.1336,-13.494],[-61.1187,-13.4845],[-61.076,-13.4783],[-61.0722,-13.4744],[-61.0601,-13.4671],[-61.0472,-13.4646],[-61.0413,-13.4746],[-61.0413,-13.5152],[-61.022,-13.5352],[-60.9779,-13.543],[-60.9293,-13.5462],[-60.8967,-13.5529],[-60.8782,-13.5704],[-60.8707,-13.5754],[-60.802,-13.6042],[-60.7256,-13.6628],[-60.6527,-13.7188],[-60.6181,-13.7369],[-60.5951,-13.7416],[-60.5886,-13.7445],[-60.5849,-13.7491],[-60.5796,-13.7611],[-60.5751,-13.7656],[-60.5661,-13.77],[-60.4906,-13.7877],[-60.4726,-13.7979],[-60.4653,-13.8166],[-60.4631,-13.8434],[-60.4573,-13.8709],[-60.4488,-13.8968],[-60.4386,-13.9184],[-60.4304,-13.9267],[-60.4086,-13.9445],[-60.4067,-13.9504],[-60.4116,-13.9605],[-60.4054,-13.9667],[-60.3957,-13.971],[-60.3897,-13.9749],[-60.3872,-13.9833],[-60.388,-13.9894],[-60.3965,-14.0084],[-60.4094,-14.0553],[-60.4194,-14.0769],[-60.4372,-14.092],[-60.4614,-14.0986],[-60.4683,-14.1037],[-60.4735,-14.1172],[-60.4776,-14.14],[-60.4789,-14.1627],[-60.4757,-14.176],[-60.4624,-14.1985],[-60.462,-14.2239],[-60.4656,-14.2511],[-60.4643,-14.2784],[-60.4543,-14.2966],[-60.3999,-14.3408],[-60.3913,-14.3571],[-60.3767,-14.4199],[-60.3438,-14.4909],[-60.3384,-14.5326],[-60.3692,-14.5428],[-60.3527,-14.5754],[-60.304,-14.6082],[-60.2917,-14.6301],[-60.2888,-14.6907],[-60.2849,-14.7727],[-60.2809,-14.8546],[-60.2769,-14.9366],[-60.2729,-15.0186],[-60.2698,-15.0834],[-60.275,-15.0952],[-60.3893,-15.0965],[-60.5822,-15.0989],[-60.5295,-15.1437],[-60.4602,-15.2242],[-60.3521,-15.3496],[-60.2605,-15.4561],[-60.2464,-15.4783],[-60.238,-15.5027],[-60.2248,-15.6514],[-60.207,-15.853],[-60.1938,-16.0015],[-60.187,-16.1087],[-60.1798,-16.222],[-60.1607,-16.2648],[-60.1298,-16.2731],[-60.0604,-16.2754],[-59.87,-16.2822],[-59.6796,-16.2888],[-59.4891,-16.2954],[-59.2987,-16.3021],[-59.1082,-16.3087],[-58.9178,-16.3154],[-58.7274,-16.3222],[-58.537,-16.3288],[-58.4647,-16.3313],[-58.4422,-16.3285],[-58.4216,-16.3184],[-58.4142,-16.3089],[-58.4003,-16.2842],[-58.3929,-16.2794],[-58.3497,-16.2804],[-58.3396,-16.2893],[-58.3345,-16.3866],[-58.3388,-16.4005],[-58.3623,-16.4193],[-58.3636,-16.4367],[-58.3427,-16.4732],[-58.3561,-16.5095],[-58.4559,-16.6191],[-58.4727,-16.6496],[-58.4803,-16.6837],[-58.4767,-16.727],[-58.4562,-16.8024],[-58.4529,-16.8413],[-58.4551,-16.8483],[-58.464,-16.8661],[-58.4666,-16.8755],[-58.4663,-16.8873],[-58.4564,-16.937],[-58.4392,-16.9673],[-58.4325,-16.9854],[-58.4268,-17.0552],[-58.4216,-17.0706],[-58.411,-17.0882],[-58.4063,-17.1101],[-58.4048,-17.1996],[-58.3991,-17.2374],[-58.3812,-17.2672],[-58.3437,-17.287],[-58.3122,-17.2909],[-58.3021,-17.2938],[-58.2923,-17.2997],[-58.2744,-17.314],[-58.2645,-17.32],[-58.2562,-17.3225],[-58.2399,-17.3252],[-58.2316,-17.3297],[-58.2202,-17.3443],[-58.2041,-17.3774],[-58.1884,-17.3885],[-58.1746,-17.3921],[-58.1632,-17.3934],[-58.1522,-17.3964],[-58.1394,-17.4046],[-58.112,-17.4335],[-58.1011,-17.4413],[-58.0657,-17.4559],[-58.0537,-17.4623],[-58.0102,-17.4968],[-57.9815,-17.5087],[-57.9436,-17.5178],[-57.9057,-17.5203],[-57.877,-17.5123],[-57.8541,-17.5085],[-57.8367,-17.511],[-57.8144,-17.5197],[-57.8007,-17.5335],[-57.7908,-17.5558],[-57.7883,-17.5806],[-57.7896,-17.6041],[-57.7876,-17.6205],[-57.788,-17.6589],[-57.7859,-17.6775],[-57.7779,-17.6955],[-57.7676,-17.7087],[-57.7549,-17.7206],[-57.7404,-17.7302],[-57.7245,-17.7366],[-57.733,-17.7685],[-57.7293,-17.7793],[-57.7113,-17.8008],[-57.6968,-17.8251],[-57.6988,-17.8431],[-57.7301,-17.8461],[-57.6369,-18.0011],[-57.5855,-18.1228],[-57.5511,-18.1836],[-57.5112,-18.2056],[-57.4907,-18.2056],[-57.4745,-18.208],[-57.4657,-18.2177],[-57.4668,-18.2396],[-57.5357,-18.2405],[-57.5539,-18.2445],[-57.5667,-18.2561],[-57.583,-18.3057],[-57.63,-18.4484],[-57.677,-18.5911],[-57.724,-18.7337],[-57.7711,-18.8763],[-57.7823,-18.9104],[-57.7422,-18.9136],[-57.7318,-18.922],[-57.7276,-18.9419],[-57.7218,-19.0012],[-57.7158,-19.0446],[-57.7719,-19.0487],[-57.789,-19.0592],[-57.812,-19.105],[-57.8431,-19.1668],[-57.9116,-19.3029],[-57.98,-19.4389],[-58.0112,-19.5007],[-58.0112,-19.5008],[-58.0113,-19.5009],[-58.0236,-19.5257],[-58.0505,-19.5801],[-58.0775,-19.6347],[-58.0898,-19.6594],[-58.1246,-19.7299],[-58.1169,-19.758],[-58.0411,-19.8234],[-57.9605,-19.8931],[-57.8597,-19.9801]]]}},{"type":"Feature","properties":{"id":"BOL-1941","name":"Tarija","nameBn":"তারিজা বিভাগ","type":"Department","bounds":[-65.3285,-22.8719,-62.2719,-20.8914],"center":[-63.8005,-21.5039]},"geometry":{"type":"Polygon","coordinates":[[[-62.6504,-22.2345],[-62.659,-22.2317],[-62.6618,-22.2245],[-62.6632,-22.2155],[-62.6675,-22.2066],[-62.6793,-22.1948],[-62.722,-22.1662],[-62.7694,-22.1447],[-62.7835,-22.1309],[-62.7909,-22.1132],[-62.7911,-22.0816],[-62.7978,-22.0694],[-62.7951,-22.0611],[-62.795,-22.0512],[-62.8014,-22.0135],[-62.8044,-22.0041],[-62.8186,-22.0009],[-62.862,-21.9932],[-63.0099,-22.0007],[-63.0104,-22.0008],[-63.3249,-21.9991],[-63.6394,-21.9975],[-63.6778,-22.0037],[-63.6939,-22.012],[-63.7404,-22.0506],[-63.7518,-22.0457],[-63.793,-22.0115],[-63.8131,-22.003],[-63.9064,-21.9972],[-63.9332,-22.0018],[-63.9476,-22.0076],[-63.9509,-22.0108],[-63.9515,-22.0167],[-63.961,-22.0391],[-63.9646,-22.0585],[-63.9681,-22.0665],[-63.9758,-22.0738],[-63.9835,-22.0774],[-63.9904,-22.0793],[-63.9956,-22.0829],[-64.0044,-22.0993],[-64.0198,-22.1554],[-64.051,-22.2292],[-64.0588,-22.2403],[-64.0789,-22.2506],[-64.0862,-22.2579],[-64.1605,-22.4385],[-64.1847,-22.4712],[-64.2363,-22.5167],[-64.2508,-22.5407],[-64.294,-22.6909],[-64.2946,-22.7629],[-64.3035,-22.7823],[-64.3269,-22.8592],[-64.3253,-22.8719],[-64.3439,-22.8637],[-64.3477,-22.817],[-64.36,-22.803],[-64.3523,-22.7791],[-64.3557,-22.7519],[-64.369,-22.7297],[-64.3908,-22.7205],[-64.4017,-22.7124],[-64.4283,-22.659],[-64.4382,-22.6519],[-64.4472,-22.6487],[-64.4537,-22.6429],[-64.4562,-22.628],[-64.4552,-22.6167],[-64.4505,-22.5971],[-64.4494,-22.5871],[-64.4455,-22.5762],[-64.4373,-22.5674],[-64.4298,-22.5571],[-64.4283,-22.5423],[-64.4837,-22.4912],[-64.4981,-22.4728],[-64.504,-22.4499],[-64.5078,-22.444],[-64.5257,-22.433],[-64.5313,-22.4257],[-64.5311,-22.4155],[-64.5233,-22.3962],[-64.5246,-22.3854],[-64.5379,-22.3743],[-64.5589,-22.3606],[-64.572,-22.3432],[-64.5621,-22.3198],[-64.5492,-22.3054],[-64.5423,-22.2915],[-64.5428,-22.2755],[-64.5518,-22.255],[-64.5602,-22.2431],[-64.5869,-22.2128],[-64.5962,-22.2066],[-64.6163,-22.2022],[-64.6387,-22.1917],[-64.6578,-22.1784],[-64.679,-22.1754],[-64.6874,-22.1729],[-64.6952,-22.1742],[-64.7137,-22.1817],[-64.7229,-22.1833],[-64.7623,-22.1744],[-64.8325,-22.1375],[-65.0204,-22.0966],[-65.1905,-22.0985],[-65.1905,-22.0982],[-65.173,-22.0981],[-65.1744,-22.0953],[-65.2011,-21.977],[-65.2115,-21.9465],[-65.215,-21.9428],[-65.2231,-21.9364],[-65.2349,-21.9197],[-65.2603,-21.8738],[-65.2765,-21.8507],[-65.2835,-21.8435],[-65.2944,-21.8344],[-65.3002,-21.827],[-65.3052,-21.8193],[-65.3097,-21.8145],[-65.3147,-21.8105],[-65.3185,-21.808],[-65.3285,-21.8029],[-65.3197,-21.7571],[-65.3131,-21.7416],[-65.3039,-21.7327],[-65.2977,-21.7255],[-65.295,-21.7167],[-65.292,-21.6877],[-65.2894,-21.6784],[-65.286,-21.6718],[-65.282,-21.6688],[-65.2687,-21.6544],[-65.2553,-21.6324],[-65.2385,-21.5894],[-65.2355,-21.5769],[-65.2344,-21.5675],[-65.2349,-21.5354],[-65.2308,-21.4779],[-65.2032,-21.2774],[-65.2051,-21.2568],[-65.2051,-21.2166],[-65.2037,-21.2066],[-65.1869,-21.1509],[-65.1743,-20.9682],[-65.1719,-20.962],[-65.1684,-20.956],[-65.1624,-20.9485],[-65.1566,-20.9458],[-65.1509,-20.9459],[-65.1464,-20.9484],[-65.1378,-20.9543],[-65.1328,-20.9566],[-65.1156,-20.9617],[-65.1098,-20.9625],[-65.1037,-20.9617],[-65.0902,-20.9567],[-65.0842,-20.9551],[-65.0785,-20.9552],[-65.0737,-20.9571],[-65.0659,-20.9635],[-65.0349,-20.9998],[-65.0345,-21.0001],[-65.0338,-21.0004],[-65.0314,-21.0008],[-65.0266,-21.0009],[-65.02,-20.9994],[-65.0131,-20.9996],[-65.0122,-21.0002],[-65.0064,-21.0072],[-65.0031,-21.0101],[-64.9989,-21.0108],[-64.9936,-21.01],[-64.9849,-21.0066],[-64.9785,-21.0051],[-64.973,-21.0061],[-64.9686,-21.0087],[-64.961,-21.0154],[-64.9566,-21.0181],[-64.9516,-21.0199],[-64.9456,-21.0202],[-64.9333,-21.0192],[-64.9271,-21.0199],[-64.922,-21.0218],[-64.9178,-21.0249],[-64.915,-21.029],[-64.9131,-21.0341],[-64.9118,-21.0394],[-64.9099,-21.0443],[-64.9056,-21.0473],[-64.8942,-21.0508],[-64.8891,-21.053],[-64.8848,-21.056],[-64.8813,-21.0594],[-64.8783,-21.0632],[-64.876,-21.0671],[-64.8731,-21.071],[-64.8694,-21.0744],[-64.8649,-21.0771],[-64.8498,-21.084],[-64.8456,-21.0869],[-64.842,-21.0905],[-64.8387,-21.0943],[-64.8345,-21.0968],[-64.8296,-21.0975],[-64.8174,-21.0924],[-64.7986,-21.0871],[-64.7824,-21.0797],[-64.7752,-21.0738],[-64.7712,-21.0672],[-64.7686,-21.0555],[-64.7668,-21.05],[-64.7594,-21.036],[-64.7579,-21.0306],[-64.7577,-21.0249],[-64.7582,-21.0129],[-64.7564,-21.0001],[-64.7501,-20.9858],[-64.7356,-20.9645],[-64.7272,-20.9494],[-64.7174,-20.9359],[-64.71,-20.9309],[-64.7027,-20.9289],[-64.697,-20.93],[-64.6921,-20.9316],[-64.6786,-20.9385],[-64.6731,-20.9404],[-64.6673,-20.9416],[-64.655,-20.9416],[-64.6494,-20.9421],[-64.6443,-20.9439],[-64.6407,-20.9472],[-64.6382,-20.9517],[-64.6326,-20.9665],[-64.6298,-20.9708],[-64.6262,-20.9743],[-64.6073,-20.9844],[-64.6031,-20.9874],[-64.5963,-20.9943],[-64.5922,-20.9998],[-64.5726,-21.0207],[-64.5699,-21.0249],[-64.546,-21.0765],[-64.5431,-21.0807],[-64.5398,-21.0843],[-64.5356,-21.0874],[-64.531,-21.09],[-64.5237,-21.0911],[-64.5146,-21.0907],[-64.4838,-21.0831],[-64.4652,-21.0809],[-64.4584,-21.081],[-64.4457,-21.0832],[-64.4405,-21.0855],[-64.4317,-21.0912],[-64.3958,-21.1196],[-64.359,-21.1347],[-64.3406,-21.1381],[-64.2805,-21.1319],[-64.2675,-21.1335],[-64.2409,-21.1414],[-64.2324,-21.142],[-64.2256,-21.1409],[-64.2206,-21.138],[-64.2158,-21.1346],[-64.2103,-21.1295],[-64.2064,-21.1251],[-64.2032,-21.1205],[-64.2008,-21.1157],[-64.199,-21.1102],[-64.1978,-21.1042],[-64.1967,-21.0844],[-64.1973,-21.0785],[-64.2025,-21.0639],[-64.2017,-21.0589],[-64.1972,-21.0502],[-64.1959,-21.0457],[-64.1952,-21.0406],[-64.1935,-21.0344],[-64.1864,-21.0256],[-64.1827,-21.0193],[-64.1808,-21.0133],[-64.1805,-21.0082],[-64.1865,-20.9483],[-64.1858,-20.9236],[-64.1844,-20.9142],[-64.1829,-20.9091],[-64.1752,-20.8914],[-64.1687,-20.8945],[-64.1565,-20.9075],[-64.1426,-20.9163],[-64.1307,-20.9147],[-64.1156,-20.9098],[-64.0939,-20.9101],[-64.0743,-20.9143],[-64.0658,-20.9213],[-64.0625,-20.9394],[-64.0535,-20.9453],[-64.0248,-20.9458],[-64.019,-20.9439],[-64.0075,-20.9419],[-64.0004,-20.9443],[-64.0078,-20.956],[-64.01,-20.9656],[-64.0029,-20.9761],[-63.9833,-20.9935],[-63.983,-20.9967],[-63.9623,-20.9968],[-63.8692,-20.9993],[-62.2724,-21.0004],[-62.2719,-21.0004],[-62.2719,-21.0009],[-62.2757,-21.0666],[-62.3079,-21.1693],[-62.3404,-21.2729],[-62.3755,-21.3845],[-62.412,-21.5009],[-62.4462,-21.6069],[-62.4928,-21.7518],[-62.5292,-21.8651],[-62.5728,-22.0008],[-62.5994,-22.0899],[-62.6275,-22.1845],[-62.6504,-22.2345]]]}}]}