{"type":"FeatureCollection","features":[{"type":"Feature","properties":{"id":"BTN-2480","name":"Bumthang","nameBn":"বুমথাং জেলা","type":"District","bounds":[90.4291,27.3262,90.9809,28.0903],"center":[90.7042,27.7219]},"geometry":{"type":"Polygon","coordinates":[[[90.4752,28.0723],[90.4926,28.0744],[90.5101,28.0741],[90.5753,28.0658],[90.5974,28.0706],[90.6219,28.073],[90.651,28.087],[90.6675,28.0903],[90.6839,28.0871],[90.7269,28.0617],[90.7553,28.0552],[90.7505,28.0236],[90.7505,28.0134],[90.7514,28.0054],[90.7549,27.9955],[90.7559,27.9718],[90.7538,27.9644],[90.751,27.9601],[90.7411,27.9544],[90.7366,27.9498],[90.7339,27.9448],[90.7327,27.9379],[90.7277,27.9293],[90.7288,27.9247],[90.7325,27.9194],[90.7442,27.9105],[90.7511,27.9071],[90.7574,27.905],[90.7685,27.9029],[90.7737,27.901],[90.7794,27.8952],[90.7943,27.8641],[90.7968,27.8383],[90.8109,27.8323],[90.8255,27.8191],[90.8332,27.8091],[90.839,27.8037],[90.8432,27.8011],[90.8501,27.7998],[90.8544,27.7981],[90.8644,27.7924],[90.8705,27.7901],[90.8739,27.7837],[90.8837,27.7448],[90.8837,27.7214],[90.8859,27.7181],[90.8925,27.7151],[90.9083,27.7134],[90.9128,27.7124],[90.9175,27.7098],[90.9454,27.6856],[90.949,27.6784],[90.9519,27.6683],[90.9558,27.6455],[90.9575,27.6223],[90.9504,27.6013],[90.9414,27.5753],[90.9399,27.5686],[90.9395,27.5649],[90.9485,27.5471],[90.9509,27.5233],[90.9502,27.5172],[90.9476,27.5119],[90.9467,27.5077],[90.9488,27.5022],[90.9541,27.4959],[90.9654,27.4886],[90.9809,27.4701],[90.9654,27.4395],[90.9608,27.434],[90.9561,27.4293],[90.9546,27.4227],[90.9543,27.4179],[90.9698,27.39],[90.9495,27.3841],[90.9462,27.3824],[90.9316,27.3691],[90.9285,27.3591],[90.9257,27.3565],[90.9193,27.3532],[90.9117,27.3502],[90.889,27.3493],[90.876,27.3405],[90.8644,27.3387],[90.8332,27.3262],[90.8015,27.3395],[90.7896,27.3511],[90.7875,27.3555],[90.785,27.3589],[90.7765,27.3652],[90.7681,27.3732],[90.7639,27.3762],[90.758,27.3776],[90.7531,27.3781],[90.7476,27.3779],[90.7412,27.3771],[90.7344,27.3739],[90.729,27.3705],[90.7242,27.349],[90.6694,27.4026],[90.6492,27.4157],[90.6416,27.4189],[90.6284,27.4227],[90.6191,27.4263],[90.614,27.4297],[90.6095,27.4357],[90.6064,27.4384],[90.6024,27.4401],[90.5921,27.442],[90.5676,27.4499],[90.5595,27.4701],[90.5649,27.4825],[90.5606,27.5079],[90.5371,27.5792],[90.5291,27.5836],[90.5255,27.5962],[90.5215,27.6236],[90.519,27.6265],[90.5144,27.63],[90.5131,27.6343],[90.513,27.6417],[90.5147,27.6537],[90.515,27.6616],[90.5159,27.6674],[90.5233,27.689],[90.526,27.7152],[90.5258,27.7271],[90.5245,27.7357],[90.5224,27.7405],[90.5201,27.7443],[90.5085,27.7597],[90.5057,27.7625],[90.501,27.765],[90.4956,27.7667],[90.49,27.767],[90.4855,27.7663],[90.4821,27.7655],[90.479,27.7657],[90.4761,27.7677],[90.4732,27.7705],[90.465,27.7762],[90.4576,27.816],[90.4585,27.8201],[90.461,27.825],[90.4644,27.8247],[90.4697,27.8277],[90.4757,27.8353],[90.4869,27.8544],[90.4923,27.8834],[90.4913,27.893],[90.49,27.8988],[90.4878,27.9028],[90.4851,27.9063],[90.4827,27.9102],[90.4808,27.9176],[90.4792,27.9221],[90.4765,27.9261],[90.4736,27.9279],[90.4703,27.9291],[90.4583,27.9317],[90.4559,27.9333],[90.4535,27.9369],[90.4506,27.9434],[90.4478,27.9511],[90.4452,27.9558],[90.4421,27.9593],[90.4411,27.9614],[90.4414,27.9637],[90.4428,27.9657],[90.4452,27.9681],[90.4479,27.9719],[90.4507,27.9769],[90.4535,27.986],[90.4534,27.993],[90.451,28.0],[90.4291,28.0252],[90.4449,28.0488],[90.4752,28.0723]]]}},{"type":"Feature","properties":{"id":"BTN-2433","name":"Chhukha","nameBn":"চুখা জেলা","type":"District","bounds":[89.2672,26.701,89.7823,27.307],"center":[89.5247,27.0361]},"geometry":{"type":"Polygon","coordinates":[[[89.7547,26.701],[89.7387,26.7033],[89.6852,26.7246],[89.6632,26.7255],[89.6283,26.7125],[89.6098,26.7122],[89.5975,26.721],[89.6135,26.7485],[89.6114,26.766],[89.5861,26.7841],[89.5465,26.7975],[89.5054,26.8037],[89.4429,26.797],[89.4073,26.8134],[89.3689,26.8374],[89.3689,26.8376],[89.3686,26.8591],[89.3651,26.8747],[89.3601,26.8758],[89.352,26.876],[89.3309,26.8717],[89.327,26.8727],[89.3261,26.8751],[89.3271,26.8787],[89.3271,26.8832],[89.3242,26.8891],[89.3194,26.9045],[89.3119,26.9097],[89.2913,26.9197],[89.2855,26.9213],[89.2817,26.9207],[89.2789,26.9193],[89.2739,26.9196],[89.2713,26.9216],[89.2672,26.9306],[89.3017,26.9521],[89.3405,26.9996],[89.3444,27.0212],[89.3422,27.0263],[89.3378,27.0338],[89.333,27.0387],[89.3278,27.0428],[89.3222,27.0451],[89.3104,27.0471],[89.3099,27.0726],[89.3066,27.0922],[89.3099,27.1039],[89.3149,27.1115],[89.3293,27.1191],[89.3305,27.1374],[89.3417,27.1553],[89.3505,27.1662],[89.3516,27.1734],[89.3495,27.1784],[89.3425,27.1849],[89.3381,27.1903],[89.3299,27.2107],[89.3999,27.2093],[89.428,27.2045],[89.441,27.1997],[89.4579,27.1912],[89.4663,27.1891],[89.4969,27.1852],[89.5065,27.1889],[89.5074,27.1918],[89.5081,27.1952],[89.5073,27.1981],[89.5057,27.2015],[89.5048,27.2053],[89.5039,27.2124],[89.5045,27.2212],[89.5186,27.2595],[89.5254,27.2724],[89.5288,27.2824],[89.5315,27.307],[89.5483,27.2958],[89.5546,27.2846],[89.5585,27.2739],[89.5617,27.26],[89.5653,27.256],[89.5693,27.2546],[89.5764,27.2568],[89.6077,27.2489],[89.6128,27.2458],[89.615,27.2376],[89.5585,27.2025],[89.538,27.1781],[89.5388,27.1701],[89.565,27.1572],[89.5759,27.1498],[89.6006,27.1386],[89.6235,27.1411],[89.6384,27.1215],[89.6575,27.0715],[89.6811,27.0645],[89.6867,27.0542],[89.6853,27.0485],[89.6829,27.0441],[89.6804,27.0307],[89.7431,27.0304],[89.7632,26.9948],[89.7681,26.9821],[89.7809,26.9377],[89.764,26.9065],[89.7632,26.8938],[89.7652,26.8898],[89.7764,26.8752],[89.7813,26.8618],[89.7823,26.852],[89.781,26.8388],[89.7785,26.8266],[89.7765,26.8194],[89.7698,26.8075],[89.7678,26.8045],[89.7619,26.8001],[89.755,26.7856],[89.7461,26.7801],[89.7358,26.7558],[89.74,26.7348],[89.7476,26.7247],[89.7535,26.719],[89.7554,26.7155],[89.7553,26.705],[89.7547,26.7012],[89.7547,26.701]]]}},{"type":"Feature","properties":{"id":"BTN-2481","name":"Chirang","nameBn":"সিরাং জেলা","type":"District","bounds":[90.0026,26.8091,90.3316,27.1767],"center":[90.1671,27.0316]},"geometry":{"type":"Polygon","coordinates":[[[90.0777,27.1767],[90.1291,27.1564],[90.1425,27.1546],[90.1779,27.1571],[90.1927,27.1613],[90.1975,27.1615],[90.2012,27.16],[90.216,27.1487],[90.2265,27.1433],[90.236,27.135],[90.2651,27.1495],[90.2871,27.1556],[90.3128,27.1705],[90.3316,27.1486],[90.3171,27.14],[90.3053,27.1344],[90.2894,27.1245],[90.2816,27.1186],[90.2675,27.1053],[90.2644,27.0991],[90.2623,27.0792],[90.2602,27.0695],[90.2504,27.045],[90.2349,27.0308],[90.2369,26.9967],[90.2211,26.9738],[90.2041,26.958],[90.1958,26.9444],[90.195,26.9342],[90.188,26.9231],[90.1724,26.9139],[90.1368,26.8657],[90.1359,26.8619],[90.1362,26.8587],[90.1373,26.8563],[90.1378,26.854],[90.1381,26.8514],[90.1382,26.8442],[90.1346,26.8404],[90.1281,26.8381],[90.1101,26.8348],[90.0999,26.8313],[90.0871,26.8233],[90.0825,26.8173],[90.0769,26.8126],[90.069,26.8091],[90.0464,26.8132],[90.033,26.8154],[90.0267,26.8193],[90.0155,26.8338],[90.0138,26.8454],[90.0045,26.8552],[90.0046,26.8579],[90.0026,26.8668],[90.0026,26.8709],[90.0046,26.8801],[90.0043,26.8848],[90.0076,26.8917],[90.0252,26.9005],[90.0345,26.9159],[90.0499,26.9318],[90.0597,26.9584],[90.0599,26.9873],[90.06,26.9908],[90.0644,27.0219],[90.0653,27.0445],[90.0575,27.0535],[90.0634,27.0703],[90.0583,27.1032],[90.0569,27.1721],[90.0777,27.1767]]]}},{"type":"Feature","properties":{"id":"BTN-2434","name":"Daga","nameBn":"দাগানা জেলা","type":"District","bounds":[89.6235,26.7992,90.0653,27.2718],"center":[89.8444,27.0316]},"geometry":{"type":"Polygon","coordinates":[[[89.7675,27.2718],[89.7889,27.2612],[89.8186,27.2634],[89.827,27.2606],[89.8417,27.252],[89.8538,27.2413],[89.8754,27.2256],[89.8853,27.2152],[89.8924,27.2055],[89.8951,27.2005],[89.9002,27.1884],[89.9129,27.1678],[89.9367,27.1396],[89.9779,27.1353],[90.0169,27.1202],[90.0324,27.1177],[90.0583,27.1032],[90.0634,27.0703],[90.0575,27.0535],[90.0653,27.0445],[90.0644,27.0219],[90.06,26.9908],[90.0599,26.9873],[90.0597,26.9584],[90.0499,26.9318],[90.0345,26.9159],[90.0252,26.9005],[90.0076,26.8917],[90.0043,26.8848],[90.0046,26.8801],[90.0026,26.8709],[90.0026,26.8668],[90.0046,26.8579],[90.0045,26.8552],[89.9677,26.8329],[89.9639,26.8289],[89.9602,26.824],[89.9625,26.8224],[89.9649,26.8209],[89.967,26.8206],[89.9661,26.817],[89.9619,26.8163],[89.9563,26.8174],[89.9515,26.8203],[89.9492,26.8246],[89.9485,26.8314],[89.9463,26.8389],[89.943,26.8458],[89.9345,26.8517],[89.9303,26.8522],[89.9278,26.8499],[89.928,26.8408],[89.927,26.8335],[89.9244,26.8251],[89.9203,26.8171],[89.9168,26.8141],[89.9132,26.8136],[89.9104,26.8153],[89.9085,26.8174],[89.9076,26.8202],[89.9071,26.8227],[89.9054,26.8281],[89.9,26.8154],[89.8941,26.8124],[89.8683,26.8037],[89.859,26.8034],[89.8521,26.8063],[89.8418,26.8161],[89.8352,26.8211],[89.822,26.8262],[89.8161,26.826],[89.8132,26.8239],[89.8141,26.8158],[89.8138,26.8116],[89.8122,26.8077],[89.8108,26.8051],[89.8089,26.7992],[89.7959,26.8047],[89.7919,26.8051],[89.7847,26.8052],[89.7799,26.8044],[89.7619,26.8001],[89.7678,26.8045],[89.7698,26.8075],[89.7765,26.8194],[89.7785,26.8266],[89.781,26.8388],[89.7823,26.852],[89.7813,26.8618],[89.7764,26.8752],[89.7652,26.8898],[89.7632,26.8938],[89.764,26.9065],[89.7809,26.9377],[89.7681,26.9821],[89.7632,26.9948],[89.7431,27.0304],[89.6804,27.0307],[89.6829,27.0441],[89.6853,27.0485],[89.6867,27.0542],[89.6811,27.0645],[89.6575,27.0715],[89.6384,27.1215],[89.6235,27.1411],[89.6333,27.1681],[89.637,27.1913],[89.6421,27.2035],[89.647,27.211],[89.6521,27.2144],[89.6575,27.2171],[89.6688,27.2211],[89.675,27.2241],[89.6834,27.2318],[89.6901,27.2418],[89.6983,27.263],[89.7096,27.2609],[89.7675,27.2718]]]}},{"type":"Feature","properties":{"id":"BTN-2437","name":"Gasa","nameBn":"গাসা জেলা","type":"District","bounds":[89.4174,27.7153,90.5976,28.3584],"center":[89.9133,28.0641]},"geometry":{"type":"Polygon","coordinates":[[[89.4174,27.9887],[89.421,27.9947],[89.4212,27.9947],[89.4445,28.0312],[89.4588,28.0478],[89.4753,28.0613],[89.4953,28.068],[89.515,28.0819],[89.5615,28.1346],[89.5794,28.1446],[89.5978,28.1498],[89.7178,28.1691],[89.7558,28.1844],[89.7736,28.2128],[89.7809,28.2288],[89.796,28.2402],[89.8297,28.2592],[89.8386,28.2679],[89.854,28.2873],[89.8629,28.2958],[89.8736,28.3006],[89.8813,28.2975],[89.9161,28.3156],[89.9525,28.3082],[89.9716,28.318],[89.9905,28.3206],[90.0709,28.3452],[90.1235,28.3354],[90.1532,28.3222],[90.1762,28.3255],[90.1993,28.3485],[90.2256,28.3584],[90.2618,28.3354],[90.2618,28.2991],[90.2915,28.2614],[90.3295,28.2558],[90.354,28.2991],[90.3869,28.2991],[90.4165,28.2827],[90.456,28.2827],[90.5054,28.2498],[90.5482,28.2465],[90.5877,28.2333],[90.5976,28.2004],[90.568,28.1905],[90.5482,28.1576],[90.5153,28.1543],[90.4857,28.1247],[90.4752,28.0723],[90.43,28.0717],[90.4235,28.0673],[90.4083,28.0568],[90.4059,28.0364],[90.3995,28.0236],[90.3888,28.0088],[90.3795,28.0014],[90.3482,27.9847],[90.342,27.9752],[90.3403,27.967],[90.3423,27.9612],[90.3413,27.9535],[90.3423,27.9489],[90.3447,27.9443],[90.3466,27.9393],[90.3475,27.9348],[90.3477,27.925],[90.3491,27.9187],[90.3496,27.9134],[90.3469,27.908],[90.3413,27.9043],[90.3308,27.9035],[90.3246,27.9024],[90.3187,27.9023],[90.3047,27.9057],[90.298,27.9055],[90.2925,27.9034],[90.2864,27.8987],[90.2816,27.8958],[90.2756,27.8952],[90.267,27.9001],[90.2533,27.9109],[90.2338,27.9396],[90.2316,27.9456],[90.2316,27.9482],[90.2324,27.9509],[90.2335,27.9536],[90.2321,27.9582],[90.2288,27.9639],[90.2122,27.9766],[90.196,27.976],[90.1631,27.9739],[90.1582,27.973],[90.1538,27.9699],[90.1493,27.9646],[90.1421,27.9476],[90.0999,27.8828],[90.0962,27.8754],[90.0896,27.8677],[90.0808,27.8593],[90.0605,27.8497],[90.0495,27.8461],[90.029,27.843],[90.024,27.8416],[90.0195,27.8409],[90.015,27.8406],[90.0107,27.8369],[90.0077,27.8335],[90.0024,27.8012],[89.9857,27.8049],[89.9816,27.8071],[89.97,27.8149],[89.9234,27.8316],[89.8992,27.8496],[89.8938,27.8528],[89.8881,27.8535],[89.8813,27.852],[89.8692,27.847],[89.8621,27.8449],[89.8555,27.8436],[89.8504,27.8432],[89.8372,27.8408],[89.8321,27.8392],[89.8263,27.8342],[89.8203,27.8267],[89.8012,27.7975],[89.7683,27.7599],[89.7399,27.758],[89.7238,27.7554],[89.7045,27.7439],[89.7096,27.7343],[89.6701,27.7233],[89.6516,27.729],[89.6437,27.7305],[89.637,27.7306],[89.6257,27.7297],[89.619,27.7281],[89.615,27.7267],[89.6083,27.7153],[89.5709,27.7346],[89.5672,27.7375],[89.5628,27.7421],[89.5613,27.7498],[89.5543,27.7659],[89.5514,27.7778],[89.5297,27.7792],[89.5228,27.7758],[89.5205,27.7725],[89.5141,27.7651],[89.5071,27.7551],[89.5036,27.7541],[89.5002,27.7544],[89.4967,27.7557],[89.4938,27.7573],[89.4912,27.7592],[89.4887,27.7614],[89.4864,27.7639],[89.4842,27.767],[89.4826,27.7696],[89.4802,27.7762],[89.4884,27.7847],[89.4939,27.8058],[89.4947,27.8138],[89.4943,27.8205],[89.4926,27.8261],[89.4908,27.8339],[89.493,27.8393],[89.4978,27.847],[89.5324,27.8872],[89.5373,27.8914],[89.5428,27.8947],[89.548,27.8971],[89.5549,27.9014],[89.5557,27.9044],[89.5528,27.9065],[89.5282,27.9108],[89.515,27.9154],[89.5088,27.9248],[89.5028,27.9582],[89.4905,27.9727],[89.4632,27.9865],[89.4547,27.9894],[89.4409,27.9906],[89.4174,27.9887]]]}},{"type":"Feature","properties":{"id":"BTN-2482","name":"Geylegphug","nameBn":"গেলেগফুগ","type":"District","bounds":[89.7358,26.6961,90.9578,27.2093],"center":[90.3468,27.0503]},"geometry":{"type":"Polygon","coordinates":[[[89.8587,26.7221],[89.8508,26.7232],[89.847,26.7248],[89.839,26.7312],[89.835,26.7315],[89.8297,26.7276],[89.8277,26.7225],[89.8273,26.7179],[89.8267,26.7157],[89.8268,26.7135],[89.8252,26.7077],[89.8221,26.701],[89.8173,26.6962],[89.8137,26.6961],[89.8041,26.6998],[89.8001,26.7005],[89.7603,26.7002],[89.7547,26.701],[89.7547,26.7012],[89.7553,26.705],[89.7554,26.7155],[89.7535,26.719],[89.7476,26.7247],[89.74,26.7348],[89.7358,26.7558],[89.7461,26.7801],[89.755,26.7856],[89.7619,26.8001],[89.7799,26.8044],[89.7847,26.8052],[89.7919,26.8051],[89.7959,26.8047],[89.8089,26.7992],[89.8108,26.8051],[89.8122,26.8077],[89.8138,26.8116],[89.8141,26.8158],[89.8132,26.8239],[89.8161,26.826],[89.822,26.8262],[89.8352,26.8211],[89.8418,26.8161],[89.8521,26.8063],[89.859,26.8034],[89.8683,26.8037],[89.8941,26.8124],[89.9,26.8154],[89.9054,26.8281],[89.9071,26.8227],[89.9076,26.8202],[89.9085,26.8174],[89.9104,26.8153],[89.9132,26.8136],[89.9168,26.8141],[89.9203,26.8171],[89.9244,26.8251],[89.927,26.8335],[89.928,26.8408],[89.9278,26.8499],[89.9303,26.8522],[89.9345,26.8517],[89.943,26.8458],[89.9463,26.8389],[89.9485,26.8314],[89.9492,26.8246],[89.9515,26.8203],[89.9563,26.8174],[89.9619,26.8163],[89.9661,26.817],[89.967,26.8206],[89.9649,26.8209],[89.9625,26.8224],[89.9602,26.824],[89.9639,26.8289],[89.9677,26.8329],[90.0045,26.8552],[90.0138,26.8454],[90.0155,26.8338],[90.0267,26.8193],[90.033,26.8154],[90.0464,26.8132],[90.069,26.8091],[90.0769,26.8126],[90.0825,26.8173],[90.0871,26.8233],[90.0999,26.8313],[90.1101,26.8348],[90.1281,26.8381],[90.1346,26.8404],[90.1382,26.8442],[90.1381,26.8514],[90.1378,26.854],[90.1373,26.8563],[90.1362,26.8587],[90.1359,26.8619],[90.1368,26.8657],[90.1724,26.9139],[90.188,26.9231],[90.195,26.9342],[90.1958,26.9444],[90.2041,26.958],[90.2211,26.9738],[90.2369,26.9967],[90.2349,27.0308],[90.2504,27.045],[90.2602,27.0695],[90.2623,27.0792],[90.2644,27.0991],[90.2675,27.1053],[90.2816,27.1186],[90.2894,27.1245],[90.3053,27.1344],[90.3171,27.14],[90.3316,27.1486],[90.3128,27.1705],[90.3131,27.186],[90.3224,27.1966],[90.3367,27.2093],[90.3997,27.1774],[90.4321,27.1539],[90.4447,27.147],[90.4524,27.1389],[90.4583,27.1356],[90.463,27.1337],[90.4673,27.1326],[90.4715,27.1321],[90.4759,27.1325],[90.4816,27.1326],[90.4873,27.1317],[90.5021,27.1273],[90.5168,27.1257],[90.5227,27.1098],[90.5408,27.0936],[90.5573,27.082],[90.5829,27.0695],[90.5975,27.0642],[90.6031,27.0628],[90.6084,27.0628],[90.6135,27.0645],[90.6217,27.0685],[90.6303,27.0716],[90.6537,27.0604],[90.6627,27.0509],[90.6674,27.0446],[90.6686,27.034],[90.6709,27.0253],[90.677,27.019],[90.679,27.0137],[90.6791,27.0032],[90.6801,26.9973],[90.6829,26.9894],[90.6838,26.9847],[90.6818,26.977],[90.6757,26.9686],[90.6804,26.9529],[90.6897,26.9486],[90.7197,26.9443],[90.7247,26.9415],[90.7314,26.936],[90.7397,26.9243],[90.7462,26.9177],[90.7505,26.9155],[90.7562,26.9143],[90.7605,26.9116],[90.7658,26.9059],[90.7752,26.9006],[90.7825,26.8887],[90.7848,26.8823],[90.7952,26.8643],[90.7974,26.8592],[90.8015,26.8383],[90.8079,26.8251],[90.8135,26.8197],[90.8191,26.8171],[90.8359,26.8207],[90.8728,26.8175],[90.8821,26.8154],[90.8872,26.8149],[90.924,26.8173],[90.9274,26.8183],[90.9311,26.8203],[90.9481,26.8274],[90.9578,26.7876],[90.9554,26.7856],[90.9526,26.7842],[90.9465,26.7824],[90.9447,26.7792],[90.9445,26.7789],[90.7171,26.767],[90.5878,26.7801],[90.4752,26.8324],[90.3826,26.8918],[90.3488,26.8967],[90.3286,26.8907],[90.3142,26.8804],[90.3009,26.8683],[90.2844,26.8571],[90.266,26.8516],[90.2291,26.8529],[90.2109,26.8515],[90.1774,26.8321],[90.1522,26.7718],[90.1272,26.7514],[90.0892,26.7417],[89.9753,26.7319],[89.9121,26.7167],[89.8904,26.7149],[89.8803,26.7163],[89.8599,26.7219],[89.8587,26.7221]]]}},{"type":"Feature","properties":{"id":"BTN-2435","name":"Ha","nameBn":"হা জেলা","type":"District","bounds":[88.8761,27.0738,89.3709,27.6259],"center":[89.1233,27.3711]},"geometry":{"type":"Polygon","coordinates":[[[88.8761,27.2805],[88.8846,27.2863],[88.8923,27.3155],[88.9152,27.3309],[88.9508,27.3282],[88.9719,27.3124],[88.997,27.3309],[88.9812,27.3546],[88.964,27.3929],[88.9511,27.4331],[88.9575,27.4569],[88.9662,27.478],[88.983,27.4926],[88.98,27.498],[88.9752,27.5068],[88.973,27.5177],[88.9784,27.5303],[88.9928,27.5375],[89.005,27.5497],[89.0027,27.5605],[89.0162,27.5758],[89.0334,27.579],[89.0397,27.5943],[89.051,27.6083],[89.064,27.6159],[89.0915,27.6259],[89.1024,27.6236],[89.1059,27.623],[89.1096,27.6223],[89.1195,27.6182],[89.1247,27.6149],[89.1342,27.6102],[89.1485,27.5974],[89.1517,27.588],[89.1606,27.5831],[89.1606,27.5776],[89.1685,27.5737],[89.173,27.5728],[89.1786,27.5705],[89.1911,27.5624],[89.194,27.5611],[89.1976,27.561],[89.2013,27.5619],[89.2058,27.5638],[89.2112,27.5631],[89.2162,27.5565],[89.2343,27.507],[89.2373,27.4948],[89.2463,27.4781],[89.2584,27.4694],[89.2655,27.4626],[89.272,27.4585],[89.2755,27.4427],[89.2869,27.4282],[89.3136,27.3869],[89.3292,27.3679],[89.3709,27.3142],[89.3622,27.3032],[89.3499,27.2935],[89.3435,27.2906],[89.3288,27.2856],[89.3228,27.2822],[89.3171,27.2764],[89.313,27.2697],[89.3109,27.2611],[89.3194,27.2439],[89.3211,27.2333],[89.3299,27.2107],[89.3381,27.1903],[89.3425,27.1849],[89.3495,27.1784],[89.3516,27.1734],[89.3505,27.1662],[89.3417,27.1553],[89.3305,27.1374],[89.3293,27.1191],[89.2834,27.127],[89.2618,27.1184],[89.2525,27.1007],[89.25,27.0928],[89.237,27.0746],[89.236,27.0738],[89.1906,27.1263],[89.1571,27.0991],[89.142,27.1002],[89.1391,27.1042],[89.1367,27.1127],[89.1348,27.1164],[89.1329,27.1196],[89.131,27.1232],[89.1283,27.1259],[89.1266,27.1287],[89.1254,27.1319],[89.1242,27.1377],[89.1203,27.1445],[89.0481,27.1511],[89.0289,27.1587],[89.0275,27.1622],[89.0274,27.1658],[89.0261,27.1697],[89.0241,27.1736],[89.0194,27.1805],[89.0172,27.1851],[89.0159,27.1895],[89.0152,27.193],[89.0151,27.1954],[89.0151,27.1973],[89.0149,27.1994],[89.0143,27.2021],[89.0126,27.2061],[89.0106,27.2103],[89.0101,27.215],[89.0059,27.2247],[89.0028,27.2262],[88.9994,27.2258],[88.9934,27.2223],[88.9909,27.2199],[88.9851,27.2159],[88.974,27.2147],[88.9501,27.2388],[88.9373,27.2602],[88.9325,27.2636],[88.9251,27.2675],[88.8895,27.276],[88.8761,27.2805]]]}},{"type":"Feature","properties":{"id":"BTN-2483","name":"Lhuntshi","nameBn":"হ্লুন্তসে জেলা","type":"District","bounds":[90.7277,27.3805,91.4365,28.0914],"center":[91.0822,27.6977]},"geometry":{"type":"Polygon","coordinates":[[[90.7553,28.0552],[90.7887,28.0475],[90.8509,28.044],[90.9095,28.0327],[90.9606,27.9947],[90.9751,27.9821],[91.0088,27.9668],[91.0519,27.9628],[91.0926,27.9717],[91.1194,27.9947],[91.1196,27.9949],[91.1338,28.0141],[91.1759,28.0575],[91.1947,28.0706],[91.2206,28.0749],[91.2461,28.0715],[91.2697,28.0729],[91.2902,28.0914],[91.3096,28.0564],[91.3414,28.0306],[91.4188,27.9947],[91.4365,27.9894],[91.4188,27.9722],[91.404,27.9603],[91.3988,27.958],[91.3939,27.9575],[91.3841,27.9601],[91.3795,27.9602],[91.3737,27.9573],[91.3416,27.9233],[91.3366,27.9201],[91.3321,27.9187],[91.3275,27.9181],[91.3231,27.9167],[91.3201,27.9121],[91.3188,27.9064],[91.3195,27.8947],[91.3167,27.8118],[91.3122,27.7946],[91.3124,27.7836],[91.3102,27.767],[91.3056,27.7554],[91.3014,27.748],[91.2994,27.7409],[91.3001,27.7338],[91.3071,27.7109],[91.3074,27.7034],[91.3028,27.6791],[91.3071,27.6185],[91.2972,27.5972],[91.3096,27.5813],[91.2995,27.5788],[91.2953,27.5782],[91.2904,27.5757],[91.2874,27.571],[91.2885,27.5544],[91.2871,27.5465],[91.2629,27.5288],[91.2528,27.519],[91.2449,27.5022],[91.2506,27.4899],[91.2581,27.4814],[91.2597,27.4767],[91.2579,27.4588],[91.2449,27.4287],[91.1642,27.39],[91.1412,27.4223],[91.1344,27.4261],[91.1153,27.4295],[91.0979,27.4302],[91.0766,27.4239],[91.0211,27.3805],[90.9698,27.39],[90.9543,27.4179],[90.9546,27.4227],[90.9561,27.4293],[90.9608,27.434],[90.9654,27.4395],[90.9809,27.4701],[90.9654,27.4886],[90.9541,27.4959],[90.9488,27.5022],[90.9467,27.5077],[90.9476,27.5119],[90.9502,27.5172],[90.9509,27.5233],[90.9485,27.5471],[90.9395,27.5649],[90.9399,27.5686],[90.9414,27.5753],[90.9504,27.6013],[90.9575,27.6223],[90.9558,27.6455],[90.9519,27.6683],[90.949,27.6784],[90.9454,27.6856],[90.9175,27.7098],[90.9128,27.7124],[90.9083,27.7134],[90.8925,27.7151],[90.8859,27.7181],[90.8837,27.7214],[90.8837,27.7448],[90.8739,27.7837],[90.8705,27.7901],[90.8644,27.7924],[90.8544,27.7981],[90.8501,27.7998],[90.8432,27.8011],[90.839,27.8037],[90.8332,27.8091],[90.8255,27.8191],[90.8109,27.8323],[90.7968,27.8383],[90.7943,27.8641],[90.7794,27.8952],[90.7737,27.901],[90.7685,27.9029],[90.7574,27.905],[90.7511,27.9071],[90.7442,27.9105],[90.7325,27.9194],[90.7288,27.9247],[90.7277,27.9293],[90.7327,27.9379],[90.7339,27.9448],[90.7366,27.9498],[90.7411,27.9544],[90.751,27.9601],[90.7538,27.9644],[90.7559,27.9718],[90.7549,27.9955],[90.7514,28.0054],[90.7505,28.0134],[90.7505,28.0236],[90.7553,28.0552]]]}},{"type":"Feature","properties":{"id":"BTN-2490","name":"Mongar","nameBn":"মোঙ্গার জেলা","type":"District","bounds":[90.9316,26.9372,91.4711,27.5813],"center":[91.2014,27.1956]},"geometry":{"type":"Polygon","coordinates":[[[91.3096,27.5813],[91.3276,27.5523],[91.3973,27.4693],[91.4099,27.4423],[91.4109,27.4384],[91.4088,27.4297],[91.3926,27.4018],[91.3975,27.3895],[91.3874,27.3803],[91.4111,27.3668],[91.4252,27.3548],[91.4519,27.3413],[91.4569,27.3376],[91.459,27.3334],[91.4595,27.3293],[91.4657,27.3196],[91.4677,27.3148],[91.4685,27.3113],[91.4688,27.3076],[91.4711,27.2952],[91.4311,27.2769],[91.3921,27.2431],[91.3849,27.2261],[91.3823,27.1751],[91.3795,27.1629],[91.3773,27.153],[91.3692,27.1289],[91.3583,27.106],[91.3453,27.0878],[91.3258,27.0735],[91.2579,27.0464],[91.2371,27.0314],[91.2198,27.0127],[91.1926,26.9695],[91.1842,26.9422],[91.1664,26.9435],[91.1551,26.9372],[91.1501,26.9375],[91.1419,26.9411],[91.1341,26.9473],[91.127,26.9569],[91.1171,26.9634],[91.1096,26.9667],[91.101,26.9678],[91.0926,26.9742],[91.0869,26.9795],[91.0776,27.025],[91.0655,27.0359],[91.061,27.0388],[91.0233,27.049],[90.9905,27.1134],[90.9886,27.1403],[90.9954,27.158],[91.0019,27.1727],[91.0033,27.1789],[91.0049,27.1949],[91.0036,27.211],[90.9937,27.2231],[90.9932,27.2399],[90.992,27.244],[90.9893,27.2498],[90.9746,27.262],[90.9712,27.264],[90.9616,27.2856],[90.9519,27.3185],[90.9439,27.3347],[90.9316,27.3691],[90.9462,27.3824],[90.9495,27.3841],[90.9698,27.39],[91.0211,27.3805],[91.0766,27.4239],[91.0979,27.4302],[91.1153,27.4295],[91.1344,27.4261],[91.1412,27.4223],[91.1642,27.39],[91.2449,27.4287],[91.2579,27.4588],[91.2597,27.4767],[91.2581,27.4814],[91.2506,27.4899],[91.2449,27.5022],[91.2528,27.519],[91.2629,27.5288],[91.2871,27.5465],[91.2885,27.5544],[91.2874,27.571],[91.2904,27.5757],[91.2953,27.5782],[91.2995,27.5788],[91.3096,27.5813]]]}},{"type":"Feature","properties":{"id":"BTN-2436","name":"Paro","nameBn":"পারো জেলা","type":"District","bounds":[89.1247,27.1852,89.5315,27.7482],"center":[89.3837,27.4896]},"geometry":{"type":"Polygon","coordinates":[[[89.1247,27.6149],[89.1274,27.6273],[89.156,27.6657],[89.1982,27.7306],[89.2058,27.7474],[89.2235,27.7424],[89.2289,27.7402],[89.244,27.7364],[89.2484,27.7343],[89.2548,27.7286],[89.258,27.7268],[89.2787,27.7201],[89.2865,27.7191],[89.295,27.7207],[89.3059,27.727],[89.3171,27.7321],[89.3412,27.7334],[89.3516,27.735],[89.3663,27.7428],[89.3853,27.7482],[89.3832,27.719],[89.3835,27.7127],[89.3852,27.6998],[89.3867,27.6944],[89.4016,27.6746],[89.3742,27.6467],[89.3897,27.6484],[89.3966,27.6464],[89.4058,27.6418],[89.4232,27.6266],[89.4458,27.5992],[89.4604,27.5737],[89.471,27.5649],[89.4821,27.5603],[89.4743,27.5448],[89.4721,27.5321],[89.4712,27.509],[89.4635,27.4642],[89.4623,27.4266],[89.4693,27.4158],[89.4775,27.4122],[89.4817,27.4114],[89.4941,27.4071],[89.4983,27.4031],[89.5006,27.3953],[89.502,27.3853],[89.4947,27.3583],[89.5201,27.3445],[89.5266,27.3381],[89.5301,27.3335],[89.5312,27.3102],[89.5315,27.307],[89.5288,27.2824],[89.5254,27.2724],[89.5186,27.2595],[89.5045,27.2212],[89.5039,27.2124],[89.5048,27.2053],[89.5057,27.2015],[89.5073,27.1981],[89.5081,27.1952],[89.5074,27.1918],[89.5065,27.1889],[89.4969,27.1852],[89.4663,27.1891],[89.4579,27.1912],[89.441,27.1997],[89.428,27.2045],[89.3999,27.2093],[89.3299,27.2107],[89.3211,27.2333],[89.3194,27.2439],[89.3109,27.2611],[89.313,27.2697],[89.3171,27.2764],[89.3228,27.2822],[89.3288,27.2856],[89.3435,27.2906],[89.3499,27.2935],[89.3622,27.3032],[89.3709,27.3142],[89.3292,27.3679],[89.3136,27.3869],[89.2869,27.4282],[89.2755,27.4427],[89.272,27.4585],[89.2655,27.4626],[89.2584,27.4694],[89.2463,27.4781],[89.2373,27.4948],[89.2343,27.507],[89.2162,27.5565],[89.2112,27.5631],[89.2058,27.5638],[89.2013,27.5619],[89.1976,27.561],[89.194,27.5611],[89.1911,27.5624],[89.1786,27.5705],[89.173,27.5728],[89.1685,27.5737],[89.1606,27.5776],[89.1606,27.5831],[89.1517,27.588],[89.1485,27.5974],[89.1342,27.6102],[89.1247,27.6149]]]}},{"type":"Feature","properties":{"id":"BTN-2491","name":"Pemagatsel","nameBn":"পেমাগাতশেল জেলা","type":"District","bounds":[91.1842,26.8398,91.4968,27.1629],"center":[91.3405,26.9641]},"geometry":{"type":"Polygon","coordinates":[[[91.3795,27.1629],[91.4213,27.1582],[91.4077,27.1371],[91.3976,27.1259],[91.3959,27.1187],[91.3961,27.1141],[91.4033,27.1048],[91.4128,27.0895],[91.417,27.0853],[91.4202,27.0828],[91.4415,27.0701],[91.4459,27.0667],[91.4594,27.0607],[91.4953,27.0604],[91.4968,27.0592],[91.491,27.0176],[91.4528,27.0069],[91.4504,26.9983],[91.4328,26.9681],[91.4311,26.9616],[91.43,26.9509],[91.4334,26.9372],[91.4337,26.9313],[91.4305,26.9233],[91.4161,26.9017],[91.4027,26.8885],[91.3919,26.8791],[91.3842,26.8714],[91.3756,26.8628],[91.3654,26.844],[91.3526,26.8398],[91.3248,26.8493],[91.3334,26.8788],[91.3368,26.8829],[91.3377,26.8879],[91.338,26.8923],[91.3259,26.9163],[91.3031,26.918],[91.2935,26.9238],[91.2863,26.9293],[91.2801,26.9388],[91.2744,26.9414],[91.265,26.9429],[91.2258,26.9385],[91.1979,26.9411],[91.1842,26.9422],[91.1926,26.9695],[91.2198,27.0127],[91.2371,27.0314],[91.2579,27.0464],[91.3258,27.0735],[91.3453,27.0878],[91.3583,27.106],[91.3692,27.1289],[91.3773,27.153],[91.3795,27.1629]]]}},{"type":"Feature","properties":{"id":"BTN-2440","name":"Punakha","nameBn":"পুনাখা জেলা","type":"District","bounds":[89.6083,27.5197,90.0364,27.8535],"center":[89.8223,27.6756]},"geometry":{"type":"Polygon","coordinates":[[[90.0024,27.8012],[90.0037,27.7713],[89.9941,27.7543],[89.9842,27.7464],[89.9686,27.7315],[89.9647,27.7267],[89.9622,27.7211],[89.9598,27.7136],[89.959,27.7026],[89.9602,27.6927],[89.9681,27.6852],[89.9751,27.6819],[89.9819,27.6812],[89.9952,27.6831],[90.002,27.6826],[90.0094,27.6798],[90.0166,27.674],[90.0248,27.6651],[90.0327,27.658],[90.036,27.6533],[90.0364,27.6459],[90.0338,27.6398],[90.0195,27.6267],[89.9967,27.6201],[89.9714,27.5895],[89.9364,27.5635],[89.9362,27.5633],[89.9314,27.5482],[89.9079,27.5306],[89.8584,27.5197],[89.8572,27.5197],[89.8158,27.5222],[89.8145,27.5222],[89.7906,27.5252],[89.7875,27.5273],[89.7823,27.5332],[89.7805,27.5383],[89.764,27.5604],[89.7569,27.5701],[89.716,27.5582],[89.689,27.5389],[89.6767,27.5556],[89.6632,27.5671],[89.6578,27.5762],[89.6501,27.5925],[89.644,27.6015],[89.6358,27.6106],[89.6305,27.6197],[89.6278,27.6278],[89.628,27.6344],[89.6313,27.6466],[89.6306,27.6664],[89.6258,27.6907],[89.6237,27.6945],[89.6083,27.7153],[89.615,27.7267],[89.619,27.7281],[89.6257,27.7297],[89.637,27.7306],[89.6437,27.7305],[89.6516,27.729],[89.6701,27.7233],[89.7096,27.7343],[89.7045,27.7439],[89.7238,27.7554],[89.7399,27.758],[89.7683,27.7599],[89.8012,27.7975],[89.8203,27.8267],[89.8263,27.8342],[89.8321,27.8392],[89.8372,27.8408],[89.8504,27.8432],[89.8555,27.8436],[89.8621,27.8449],[89.8692,27.847],[89.8813,27.852],[89.8881,27.8535],[89.8938,27.8528],[89.8992,27.8496],[89.9234,27.8316],[89.97,27.8149],[89.9816,27.8071],[89.9857,27.8049],[90.0024,27.8012]]]}},{"type":"Feature","properties":{"id":"BTN-2438","name":"Samchi","nameBn":"সামৎসে জেলা","type":"District","bounds":[88.7301,26.8106,89.3689,27.2805],"center":[89.0493,27.0219]},"geometry":{"type":"Polygon","coordinates":[[[88.7331,27.149],[88.7301,27.151],[88.7384,27.1798],[88.7544,27.2126],[88.7759,27.2409],[88.8012,27.2564],[88.8614,27.2704],[88.8761,27.2805],[88.8895,27.276],[88.9251,27.2675],[88.9325,27.2636],[88.9373,27.2602],[88.9501,27.2388],[88.974,27.2147],[88.9851,27.2159],[88.9909,27.2199],[88.9934,27.2223],[88.9994,27.2258],[89.0028,27.2262],[89.0059,27.2247],[89.0101,27.215],[89.0106,27.2103],[89.0126,27.2061],[89.0143,27.2021],[89.0149,27.1994],[89.0151,27.1973],[89.0151,27.1954],[89.0152,27.193],[89.0159,27.1895],[89.0172,27.1851],[89.0194,27.1805],[89.0241,27.1736],[89.0261,27.1697],[89.0274,27.1658],[89.0275,27.1622],[89.0289,27.1587],[89.0481,27.1511],[89.1203,27.1445],[89.1242,27.1377],[89.1254,27.1319],[89.1266,27.1287],[89.1283,27.1259],[89.131,27.1232],[89.1329,27.1196],[89.1348,27.1164],[89.1367,27.1127],[89.1391,27.1042],[89.142,27.1002],[89.1571,27.0991],[89.1906,27.1263],[89.236,27.0738],[89.237,27.0746],[89.25,27.0928],[89.2525,27.1007],[89.2618,27.1184],[89.2834,27.127],[89.3293,27.1191],[89.3149,27.1115],[89.3099,27.1039],[89.3066,27.0922],[89.3099,27.0726],[89.3104,27.0471],[89.3222,27.0451],[89.3278,27.0428],[89.333,27.0387],[89.3378,27.0338],[89.3422,27.0263],[89.3444,27.0212],[89.3405,26.9996],[89.3017,26.9521],[89.2672,26.9306],[89.2713,26.9216],[89.2739,26.9196],[89.2789,26.9193],[89.2817,26.9207],[89.2855,26.9213],[89.2913,26.9197],[89.3119,26.9097],[89.3194,26.9045],[89.3242,26.8891],[89.3271,26.8832],[89.3271,26.8787],[89.3261,26.8751],[89.327,26.8727],[89.3309,26.8717],[89.352,26.876],[89.3601,26.8758],[89.3651,26.8747],[89.3686,26.8591],[89.3689,26.8376],[89.3689,26.8374],[89.3417,26.8543],[89.3002,26.8444],[89.2864,26.845],[89.2736,26.8439],[89.263,26.8363],[89.2526,26.8268],[89.2408,26.8198],[89.2128,26.813],[89.1846,26.8106],[89.1281,26.8135],[89.0965,26.8214],[89.0824,26.836],[89.0743,26.8564],[89.0607,26.8815],[89.0449,26.8971],[89.0216,26.9127],[88.9966,26.9228],[88.9753,26.9217],[88.9658,26.9155],[88.9545,26.9126],[88.9428,26.9137],[88.9323,26.9192],[88.9253,26.9294],[88.9254,26.939],[88.927,26.9494],[88.9245,26.9617],[88.9066,26.9811],[88.8864,26.979],[88.8671,26.9642],[88.8517,26.9454],[88.8456,26.9948],[88.8456,26.9949],[88.8456,27.0496],[88.8408,27.0752],[88.8276,27.0979],[88.8053,27.113],[88.7426,27.1427],[88.7331,27.149]]]}},{"type":"Feature","properties":{"id":"BTN-2492","name":"Samdrup Jongkhar","nameBn":"সামদ্রুপ জোংখার জেলা","type":"District","bounds":[91.0004,26.7741,92.0839,27.2412],"center":[91.7328,26.9509]},"geometry":{"type":"Polygon","coordinates":[[[92.0804,26.9216],[92.0728,26.8878],[92.0359,26.8548],[91.9751,26.8466],[91.9574,26.8543],[91.9257,26.8787],[91.9082,26.8852],[91.8931,26.8814],[91.8955,26.8683],[91.8955,26.8535],[91.874,26.8443],[91.8859,26.8309],[91.8869,26.8144],[91.8787,26.803],[91.8631,26.8048],[91.8524,26.8185],[91.8495,26.8347],[91.8439,26.8494],[91.8251,26.8585],[91.7953,26.8535],[91.7316,26.8162],[91.7021,26.8035],[91.6538,26.798],[91.638,26.799],[91.5937,26.8108],[91.5756,26.8101],[91.5394,26.7988],[91.5206,26.7976],[91.5074,26.808],[91.4845,26.8527],[91.4751,26.8655],[91.4606,26.8694],[91.4202,26.8715],[91.4063,26.8695],[91.3885,26.8585],[91.3781,26.8428],[91.3701,26.8247],[91.3584,26.8062],[91.3456,26.7947],[91.3301,26.7855],[91.3132,26.7787],[91.2966,26.7746],[91.276,26.7741],[91.262,26.779],[91.2325,26.7952],[91.1982,26.8023],[91.1271,26.8009],[91.0919,26.8048],[91.0621,26.8046],[91.0128,26.7843],[91.0127,26.7846],[91.0005,26.8136],[91.0004,26.8178],[91.0011,26.8215],[91.0041,26.8283],[91.0056,26.8341],[91.0106,26.8415],[91.0177,26.8466],[91.0237,26.8496],[91.0674,26.8582],[91.0799,26.8653],[91.0821,26.8655],[91.0863,26.8643],[91.0891,26.8638],[91.098,26.8821],[91.1453,26.8841],[91.1626,26.8905],[91.1731,26.9058],[91.1842,26.9422],[91.1979,26.9411],[91.2258,26.9385],[91.265,26.9429],[91.2744,26.9414],[91.2801,26.9388],[91.2863,26.9293],[91.2935,26.9238],[91.3031,26.918],[91.3259,26.9163],[91.338,26.8923],[91.3377,26.8879],[91.3368,26.8829],[91.3334,26.8788],[91.3248,26.8493],[91.3526,26.8398],[91.3654,26.844],[91.3756,26.8628],[91.3842,26.8714],[91.3919,26.8791],[91.4027,26.8885],[91.4161,26.9017],[91.4305,26.9233],[91.4337,26.9313],[91.4334,26.9372],[91.43,26.9509],[91.4311,26.9616],[91.4328,26.9681],[91.4504,26.9983],[91.4528,27.0069],[91.491,27.0176],[91.5051,27.0099],[91.5058,27.0099],[91.586,27.051],[91.6311,27.0421],[91.7667,27.0848],[91.7891,27.1208],[91.8097,27.1371],[91.8561,27.1507],[91.8819,27.1545],[91.8963,27.1537],[91.8987,27.1555],[91.8995,27.1592],[91.9014,27.1912],[91.8994,27.2098],[91.9016,27.225],[91.9069,27.2366],[91.9115,27.2404],[91.9165,27.2412],[91.9213,27.2383],[91.9247,27.2346],[91.9268,27.2299],[91.9319,27.2138],[91.9344,27.208],[91.9401,27.1979],[91.9416,27.1935],[91.9441,27.1893],[91.9488,27.1855],[91.9568,27.1814],[91.9658,27.1791],[91.975,27.1777],[92.0031,27.1765],[92.0056,27.1761],[92.0058,27.1761],[92.003,27.1726],[91.9959,27.158],[91.9908,27.1408],[91.9879,27.1223],[91.9877,27.104],[91.9999,27.0715],[92.0497,27.0268],[92.067,26.9949],[92.067,26.9948],[92.0839,26.9373],[92.0804,26.9216]]]}},{"type":"Feature","properties":{"id":"BTN-2485","name":"Shemgang","nameBn":"ঝেমগাং জেলা","type":"District","bounds":[90.5168,26.7789,91.1842,27.3781],"center":[90.8505,27.0763]},"geometry":{"type":"Polygon","coordinates":[[[91.0128,26.7843],[91.0074,26.7821],[90.9445,26.7789],[90.9447,26.7792],[90.9465,26.7824],[90.9526,26.7842],[90.9554,26.7856],[90.9578,26.7876],[90.9481,26.8274],[90.9311,26.8203],[90.9274,26.8183],[90.924,26.8173],[90.8872,26.8149],[90.8821,26.8154],[90.8728,26.8175],[90.8359,26.8207],[90.8191,26.8171],[90.8135,26.8197],[90.8079,26.8251],[90.8015,26.8383],[90.7974,26.8592],[90.7952,26.8643],[90.7848,26.8823],[90.7825,26.8887],[90.7752,26.9006],[90.7658,26.9059],[90.7605,26.9116],[90.7562,26.9143],[90.7505,26.9155],[90.7462,26.9177],[90.7397,26.9243],[90.7314,26.936],[90.7247,26.9415],[90.7197,26.9443],[90.6897,26.9486],[90.6804,26.9529],[90.6757,26.9686],[90.6818,26.977],[90.6838,26.9847],[90.6829,26.9894],[90.6801,26.9973],[90.6791,27.0032],[90.679,27.0137],[90.677,27.019],[90.6709,27.0253],[90.6686,27.034],[90.6674,27.0446],[90.6627,27.0509],[90.6537,27.0604],[90.6303,27.0716],[90.6217,27.0685],[90.6135,27.0645],[90.6084,27.0628],[90.6031,27.0628],[90.5975,27.0642],[90.5829,27.0695],[90.5573,27.082],[90.5408,27.0936],[90.5227,27.1098],[90.5168,27.1257],[90.5278,27.136],[90.5442,27.1422],[90.5515,27.1467],[90.5645,27.1578],[90.5716,27.1614],[90.5772,27.1623],[90.5818,27.1595],[90.5862,27.1558],[90.5909,27.1531],[90.5969,27.1517],[90.6338,27.154],[90.6396,27.1557],[90.6414,27.1581],[90.64,27.161],[90.6117,27.1948],[90.6046,27.2057],[90.6779,27.236],[90.7064,27.2544],[90.7091,27.2591],[90.7088,27.2625],[90.7082,27.2652],[90.708,27.2679],[90.7082,27.2705],[90.7082,27.2737],[90.7079,27.2773],[90.7058,27.2841],[90.7077,27.2953],[90.7169,27.3163],[90.7242,27.349],[90.729,27.3705],[90.7344,27.3739],[90.7412,27.3771],[90.7476,27.3779],[90.7531,27.3781],[90.758,27.3776],[90.7639,27.3762],[90.7681,27.3732],[90.7765,27.3652],[90.785,27.3589],[90.7875,27.3555],[90.7896,27.3511],[90.8015,27.3395],[90.8332,27.3262],[90.8644,27.3387],[90.876,27.3405],[90.889,27.3493],[90.9117,27.3502],[90.9193,27.3532],[90.9257,27.3565],[90.9285,27.3591],[90.9316,27.3691],[90.9439,27.3347],[90.9519,27.3185],[90.9616,27.2856],[90.9712,27.264],[90.9746,27.262],[90.9893,27.2498],[90.992,27.244],[90.9932,27.2399],[90.9937,27.2231],[91.0036,27.211],[91.0049,27.1949],[91.0033,27.1789],[91.0019,27.1727],[90.9954,27.158],[90.9886,27.1403],[90.9905,27.1134],[91.0233,27.049],[91.061,27.0388],[91.0655,27.0359],[91.0776,27.025],[91.0869,26.9795],[91.0926,26.9742],[91.101,26.9678],[91.1096,26.9667],[91.1171,26.9634],[91.127,26.9569],[91.1341,26.9473],[91.1419,26.9411],[91.1501,26.9375],[91.1551,26.9372],[91.1664,26.9435],[91.1842,26.9422],[91.1731,26.9058],[91.1626,26.8905],[91.1453,26.8841],[91.098,26.8821],[91.0891,26.8638],[91.0863,26.8643],[91.0821,26.8655],[91.0799,26.8653],[91.0674,26.8582],[91.0237,26.8496],[91.0177,26.8466],[91.0106,26.8415],[91.0056,26.8341],[91.0041,26.8283],[91.0011,26.8215],[91.0004,26.8178],[91.0005,26.8136],[91.0127,26.7846],[91.0128,26.7843]]]}},{"type":"Feature","properties":{"id":"BTN-2484","name":"Tashi Yangtse","nameBn":"ত্রাশিইয়াংতসে জেলা","type":"District","bounds":[91.2972,27.3693,91.7271,27.9894],"center":[91.5121,27.676]},"geometry":{"type":"Polygon","coordinates":[[[91.4365,27.9894],[91.4464,27.9864],[91.4609,27.9844],[91.4975,27.9841],[91.5375,27.9694],[91.5786,27.9647],[91.6006,27.9593],[91.6217,27.9507],[91.638,27.9397],[91.6528,27.9167],[91.6489,27.8972],[91.6371,27.8772],[91.6283,27.8527],[91.5644,27.8514],[91.566,27.8211],[91.6053,27.8107],[91.6358,27.7825],[91.635,27.7466],[91.6267,27.7164],[91.5799,27.658],[91.5733,27.6197],[91.5951,27.5464],[91.6045,27.5321],[91.6329,27.5117],[91.6417,27.495],[91.6574,27.4792],[91.6802,27.4728],[91.7049,27.4688],[91.727,27.46],[91.7271,27.4599],[91.7267,27.4582],[91.7243,27.4526],[91.7187,27.4464],[91.7109,27.4432],[91.6837,27.4395],[91.6491,27.4267],[91.5903,27.41],[91.5791,27.4093],[91.5562,27.3854],[91.5519,27.3819],[91.5275,27.3734],[91.5242,27.3693],[91.4315,27.3979],[91.3926,27.4018],[91.4088,27.4297],[91.4109,27.4384],[91.4099,27.4423],[91.3973,27.4693],[91.3276,27.5523],[91.3096,27.5813],[91.2972,27.5972],[91.3071,27.6185],[91.3028,27.6791],[91.3074,27.7034],[91.3071,27.7109],[91.3001,27.7338],[91.2994,27.7409],[91.3014,27.748],[91.3056,27.7554],[91.3102,27.767],[91.3124,27.7836],[91.3122,27.7946],[91.3167,27.8118],[91.3195,27.8947],[91.3188,27.9064],[91.3201,27.9121],[91.3231,27.9167],[91.3275,27.9181],[91.3321,27.9187],[91.3366,27.9201],[91.3416,27.9233],[91.3737,27.9573],[91.3795,27.9602],[91.3841,27.9601],[91.3939,27.9575],[91.3988,27.958],[91.404,27.9603],[91.4188,27.9722],[91.4365,27.9894]]]}},{"type":"Feature","properties":{"id":"BTN-2493","name":"Tashigang","nameBn":"ট্রাশিগাং জেলা","type":"District","bounds":[91.3795,27.0099,92.0888,27.4724],"center":[91.734,27.2629]},"geometry":{"type":"Polygon","coordinates":[[[91.7271,27.4599],[91.7796,27.4565],[91.8162,27.4614],[91.8566,27.4662],[91.9006,27.4597],[91.9633,27.4689],[91.9751,27.4724],[92.0236,27.4468],[92.0848,27.3042],[92.0888,27.2923],[92.0819,27.2751],[92.0506,27.2514],[92.0368,27.2365],[92.0332,27.2274],[92.03,27.2085],[92.0271,27.1998],[92.0215,27.1918],[92.0085,27.1795],[92.0058,27.1761],[92.0056,27.1761],[92.0031,27.1765],[91.975,27.1777],[91.9658,27.1791],[91.9568,27.1814],[91.9488,27.1855],[91.9441,27.1893],[91.9416,27.1935],[91.9401,27.1979],[91.9344,27.208],[91.9319,27.2138],[91.9268,27.2299],[91.9247,27.2346],[91.9213,27.2383],[91.9165,27.2412],[91.9115,27.2404],[91.9069,27.2366],[91.9016,27.225],[91.8994,27.2098],[91.9014,27.1912],[91.8995,27.1592],[91.8987,27.1555],[91.8963,27.1537],[91.8819,27.1545],[91.8561,27.1507],[91.8097,27.1371],[91.7891,27.1208],[91.7667,27.0848],[91.6311,27.0421],[91.586,27.051],[91.5058,27.0099],[91.5051,27.0099],[91.491,27.0176],[91.4968,27.0592],[91.4953,27.0604],[91.4594,27.0607],[91.4459,27.0667],[91.4415,27.0701],[91.4202,27.0828],[91.417,27.0853],[91.4128,27.0895],[91.4033,27.1048],[91.3961,27.1141],[91.3959,27.1187],[91.3976,27.1259],[91.4077,27.1371],[91.4213,27.1582],[91.3795,27.1629],[91.3823,27.1751],[91.3849,27.2261],[91.3921,27.2431],[91.4311,27.2769],[91.4711,27.2952],[91.4688,27.3076],[91.4685,27.3113],[91.4677,27.3148],[91.4657,27.3196],[91.4595,27.3293],[91.459,27.3334],[91.4569,27.3376],[91.4519,27.3413],[91.4252,27.3548],[91.4111,27.3668],[91.3874,27.3803],[91.3975,27.3895],[91.3926,27.4018],[91.4315,27.3979],[91.5242,27.3693],[91.5275,27.3734],[91.5519,27.3819],[91.5562,27.3854],[91.5791,27.4093],[91.5903,27.41],[91.6491,27.4267],[91.6837,27.4395],[91.7109,27.4432],[91.7187,27.4464],[91.7243,27.4526],[91.7267,27.4582],[91.7271,27.4599]]]}},{"type":"Feature","properties":{"id":"BTN-2439","name":"Thimphu","nameBn":"থিম্ফু জেলা","type":"District","bounds":[89.2058,27.1386,89.8166,27.9906],"center":[89.602,27.4828]},"geometry":{"type":"Polygon","coordinates":[[[89.2058,27.7474],[89.2166,27.7711],[89.2249,27.8078],[89.2587,27.8276],[89.2995,27.8442],[89.336,27.8691],[89.3701,27.9094],[89.4174,27.9887],[89.4409,27.9906],[89.4547,27.9894],[89.4632,27.9865],[89.4905,27.9727],[89.5028,27.9582],[89.5088,27.9248],[89.515,27.9154],[89.5282,27.9108],[89.5528,27.9065],[89.5557,27.9044],[89.5549,27.9014],[89.548,27.8971],[89.5428,27.8947],[89.5373,27.8914],[89.5324,27.8872],[89.4978,27.847],[89.493,27.8393],[89.4908,27.8339],[89.4926,27.8261],[89.4943,27.8205],[89.4947,27.8138],[89.4939,27.8058],[89.4884,27.7847],[89.4802,27.7762],[89.4826,27.7696],[89.4842,27.767],[89.4864,27.7639],[89.4887,27.7614],[89.4912,27.7592],[89.4938,27.7573],[89.4967,27.7557],[89.5002,27.7544],[89.5036,27.7541],[89.5071,27.7551],[89.5141,27.7651],[89.5205,27.7725],[89.5228,27.7758],[89.5297,27.7792],[89.5514,27.7778],[89.5543,27.7659],[89.5613,27.7498],[89.5628,27.7421],[89.5672,27.7375],[89.5709,27.7346],[89.6083,27.7153],[89.6237,27.6945],[89.6258,27.6907],[89.6306,27.6664],[89.6313,27.6466],[89.628,27.6344],[89.6278,27.6278],[89.6305,27.6197],[89.6358,27.6106],[89.644,27.6015],[89.6501,27.5925],[89.6578,27.5762],[89.6632,27.5671],[89.6767,27.5556],[89.689,27.5389],[89.716,27.5582],[89.7569,27.5701],[89.764,27.5604],[89.7805,27.5383],[89.7823,27.5332],[89.7875,27.5273],[89.7906,27.5252],[89.8145,27.5222],[89.8166,27.5132],[89.8161,27.5081],[89.8144,27.4979],[89.8104,27.4853],[89.7948,27.4725],[89.7425,27.4594],[89.7377,27.441],[89.7363,27.422],[89.7439,27.4017],[89.6907,27.3605],[89.6987,27.3521],[89.7065,27.3468],[89.7096,27.3454],[89.7114,27.3429],[89.7117,27.3327],[89.7095,27.3217],[89.7096,27.2609],[89.6983,27.263],[89.6901,27.2418],[89.6834,27.2318],[89.675,27.2241],[89.6688,27.2211],[89.6575,27.2171],[89.6521,27.2144],[89.647,27.211],[89.6421,27.2035],[89.637,27.1913],[89.6333,27.1681],[89.6235,27.1411],[89.6006,27.1386],[89.5759,27.1498],[89.565,27.1572],[89.5388,27.1701],[89.538,27.1781],[89.5585,27.2025],[89.615,27.2376],[89.6128,27.2458],[89.6077,27.2489],[89.5764,27.2568],[89.5693,27.2546],[89.5653,27.256],[89.5617,27.26],[89.5585,27.2739],[89.5546,27.2846],[89.5483,27.2958],[89.5315,27.307],[89.5312,27.3102],[89.5301,27.3335],[89.5266,27.3381],[89.5201,27.3445],[89.4947,27.3583],[89.502,27.3853],[89.5006,27.3953],[89.4983,27.4031],[89.4941,27.4071],[89.4817,27.4114],[89.4775,27.4122],[89.4693,27.4158],[89.4623,27.4266],[89.4635,27.4642],[89.4712,27.509],[89.4721,27.5321],[89.4743,27.5448],[89.4821,27.5603],[89.471,27.5649],[89.4604,27.5737],[89.4458,27.5992],[89.4232,27.6266],[89.4058,27.6418],[89.3966,27.6464],[89.3897,27.6484],[89.3742,27.6467],[89.4016,27.6746],[89.3867,27.6944],[89.3852,27.6998],[89.3835,27.7127],[89.3832,27.719],[89.3853,27.7482],[89.3663,27.7428],[89.3516,27.735],[89.3412,27.7334],[89.3171,27.7321],[89.3059,27.727],[89.295,27.7207],[89.2865,27.7191],[89.2787,27.7201],[89.258,27.7268],[89.2548,27.7286],[89.2484,27.7343],[89.244,27.7364],[89.2289,27.7402],[89.2235,27.7424],[89.2058,27.7474]]]}},{"type":"Feature","properties":{"id":"BTN-2486","name":"Tongsa","nameBn":"ত্রোংসা জেলা","type":"District","bounds":[90.2381,27.1257,90.7242,27.7762],"center":[90.4811,27.4491]},"geometry":{"type":"Polygon","coordinates":[[[90.3848,27.6725],[90.3899,27.6725],[90.4355,27.6898],[90.4461,27.6969],[90.4514,27.7047],[90.4552,27.7156],[90.4644,27.7621],[90.465,27.7762],[90.4732,27.7705],[90.4761,27.7677],[90.479,27.7657],[90.4821,27.7655],[90.4855,27.7663],[90.49,27.767],[90.4956,27.7667],[90.501,27.765],[90.5057,27.7625],[90.5085,27.7597],[90.5201,27.7443],[90.5224,27.7405],[90.5245,27.7357],[90.5258,27.7271],[90.526,27.7152],[90.5233,27.689],[90.5159,27.6674],[90.515,27.6616],[90.5147,27.6537],[90.513,27.6417],[90.5131,27.6343],[90.5144,27.63],[90.519,27.6265],[90.5215,27.6236],[90.5255,27.5962],[90.5291,27.5836],[90.5371,27.5792],[90.5606,27.5079],[90.5649,27.4825],[90.5595,27.4701],[90.5676,27.4499],[90.5921,27.442],[90.6024,27.4401],[90.6064,27.4384],[90.6095,27.4357],[90.614,27.4297],[90.6191,27.4263],[90.6284,27.4227],[90.6416,27.4189],[90.6492,27.4157],[90.6694,27.4026],[90.7242,27.349],[90.7169,27.3163],[90.7077,27.2953],[90.7058,27.2841],[90.7079,27.2773],[90.7082,27.2737],[90.7082,27.2705],[90.708,27.2679],[90.7082,27.2652],[90.7088,27.2625],[90.7091,27.2591],[90.7064,27.2544],[90.6779,27.236],[90.6046,27.2057],[90.6117,27.1948],[90.64,27.161],[90.6414,27.1581],[90.6396,27.1557],[90.6338,27.154],[90.5969,27.1517],[90.5909,27.1531],[90.5862,27.1558],[90.5818,27.1595],[90.5772,27.1623],[90.5716,27.1614],[90.5645,27.1578],[90.5515,27.1467],[90.5442,27.1422],[90.5278,27.136],[90.5168,27.1257],[90.5021,27.1273],[90.4873,27.1317],[90.4816,27.1326],[90.4759,27.1325],[90.4715,27.1321],[90.4673,27.1326],[90.463,27.1337],[90.4583,27.1356],[90.4524,27.1389],[90.4447,27.147],[90.4321,27.1539],[90.3997,27.1774],[90.3367,27.2093],[90.3554,27.2333],[90.3607,27.2498],[90.3603,27.263],[90.3434,27.2722],[90.3392,27.3006],[90.3348,27.3104],[90.3277,27.3178],[90.2974,27.3417],[90.2932,27.3475],[90.2914,27.352],[90.2921,27.3553],[90.292,27.3594],[90.2931,27.363],[90.2802,27.3771],[90.2642,27.4024],[90.2592,27.4329],[90.2561,27.4409],[90.2381,27.4683],[90.2743,27.4761],[90.2804,27.4799],[90.2977,27.4948],[90.3066,27.4989],[90.3199,27.5023],[90.3275,27.5027],[90.3333,27.5018],[90.3385,27.4993],[90.3418,27.4997],[90.3443,27.5014],[90.3477,27.505],[90.3522,27.5081],[90.3628,27.5174],[90.3337,27.5304],[90.323,27.5422],[90.3053,27.575],[90.3035,27.5798],[90.2993,27.5885],[90.2988,27.5913],[90.2976,27.5951],[90.2957,27.5996],[90.2911,27.6079],[90.2894,27.6135],[90.2897,27.6204],[90.303,27.6363],[90.3061,27.6425],[90.3081,27.6606],[90.3102,27.6669],[90.3125,27.6711],[90.3165,27.6758],[90.3199,27.678],[90.3237,27.6785],[90.327,27.6775],[90.3306,27.6759],[90.3344,27.6751],[90.3379,27.6748],[90.3438,27.6752],[90.3522,27.6767],[90.3592,27.6791],[90.3647,27.6804],[90.37,27.6804],[90.3799,27.674],[90.3848,27.6725]]]}},{"type":"Feature","properties":{"id":"BTN-2487","name":"Wangdi Phodrang","nameBn":"ওয়াংদুয়ে ফোদ্রাং জেলা","type":"District","bounds":[89.6907,27.1032,90.4923,28.0723],"center":[90.0915,27.5206]},"geometry":{"type":"Polygon","coordinates":[[[90.1425,27.1546],[90.1291,27.1564],[90.0777,27.1767],[90.0569,27.1721],[90.0583,27.1032],[90.0324,27.1177],[90.0169,27.1202],[89.9779,27.1353],[89.9367,27.1396],[89.9129,27.1678],[89.9002,27.1884],[89.8951,27.2005],[89.8924,27.2055],[89.8853,27.2152],[89.8754,27.2256],[89.8538,27.2413],[89.8417,27.252],[89.827,27.2606],[89.8186,27.2634],[89.7889,27.2612],[89.7675,27.2718],[89.7096,27.2609],[89.7095,27.3217],[89.7117,27.3327],[89.7114,27.3429],[89.7096,27.3454],[89.7065,27.3468],[89.6987,27.3521],[89.6907,27.3605],[89.7439,27.4017],[89.7363,27.422],[89.7377,27.441],[89.7425,27.4594],[89.7948,27.4725],[89.8104,27.4853],[89.8144,27.4979],[89.8161,27.5081],[89.8166,27.5132],[89.8145,27.5222],[89.8158,27.5222],[89.8572,27.5197],[89.8584,27.5197],[89.9079,27.5306],[89.9314,27.5482],[89.9362,27.5633],[89.9364,27.5635],[89.9714,27.5895],[89.9967,27.6201],[90.0195,27.6267],[90.0338,27.6398],[90.0364,27.6459],[90.036,27.6533],[90.0327,27.658],[90.0248,27.6651],[90.0166,27.674],[90.0094,27.6798],[90.002,27.6826],[89.9952,27.6831],[89.9819,27.6812],[89.9751,27.6819],[89.9681,27.6852],[89.9602,27.6927],[89.959,27.7026],[89.9598,27.7136],[89.9622,27.7211],[89.9647,27.7267],[89.9686,27.7315],[89.9842,27.7464],[89.9941,27.7543],[90.0037,27.7713],[90.0024,27.8012],[90.0077,27.8335],[90.0107,27.8369],[90.015,27.8406],[90.0195,27.8409],[90.024,27.8416],[90.029,27.843],[90.0495,27.8461],[90.0605,27.8497],[90.0808,27.8593],[90.0896,27.8677],[90.0962,27.8754],[90.0999,27.8828],[90.1421,27.9476],[90.1493,27.9646],[90.1538,27.9699],[90.1582,27.973],[90.1631,27.9739],[90.196,27.976],[90.2122,27.9766],[90.2288,27.9639],[90.2321,27.9582],[90.2335,27.9536],[90.2324,27.9509],[90.2316,27.9482],[90.2316,27.9456],[90.2338,27.9396],[90.2533,27.9109],[90.267,27.9001],[90.2756,27.8952],[90.2816,27.8958],[90.2864,27.8987],[90.2925,27.9034],[90.298,27.9055],[90.3047,27.9057],[90.3187,27.9023],[90.3246,27.9024],[90.3308,27.9035],[90.3413,27.9043],[90.3469,27.908],[90.3496,27.9134],[90.3491,27.9187],[90.3477,27.925],[90.3475,27.9348],[90.3466,27.9393],[90.3447,27.9443],[90.3423,27.9489],[90.3413,27.9535],[90.3423,27.9612],[90.3403,27.967],[90.342,27.9752],[90.3482,27.9847],[90.3795,28.0014],[90.3888,28.0088],[90.3995,28.0236],[90.4059,28.0364],[90.4083,28.0568],[90.4235,28.0673],[90.43,28.0717],[90.4752,28.0723],[90.4449,28.0488],[90.4291,28.0252],[90.451,28.0],[90.4534,27.993],[90.4535,27.986],[90.4507,27.9769],[90.4479,27.9719],[90.4452,27.9681],[90.4428,27.9657],[90.4414,27.9637],[90.4411,27.9614],[90.4421,27.9593],[90.4452,27.9558],[90.4478,27.9511],[90.4506,27.9434],[90.4535,27.9369],[90.4559,27.9333],[90.4583,27.9317],[90.4703,27.9291],[90.4736,27.9279],[90.4765,27.9261],[90.4792,27.9221],[90.4808,27.9176],[90.4827,27.9102],[90.4851,27.9063],[90.4878,27.9028],[90.49,27.8988],[90.4913,27.893],[90.4923,27.8834],[90.4869,27.8544],[90.4757,27.8353],[90.4697,27.8277],[90.4644,27.8247],[90.461,27.825],[90.4585,27.8201],[90.4576,27.816],[90.465,27.7762],[90.4644,27.7621],[90.4552,27.7156],[90.4514,27.7047],[90.4461,27.6969],[90.4355,27.6898],[90.3899,27.6725],[90.3848,27.6725],[90.3799,27.674],[90.37,27.6804],[90.3647,27.6804],[90.3592,27.6791],[90.3522,27.6767],[90.3438,27.6752],[90.3379,27.6748],[90.3344,27.6751],[90.3306,27.6759],[90.327,27.6775],[90.3237,27.6785],[90.3199,27.678],[90.3165,27.6758],[90.3125,27.6711],[90.3102,27.6669],[90.3081,27.6606],[90.3061,27.6425],[90.303,27.6363],[90.2897,27.6204],[90.2894,27.6135],[90.2911,27.6079],[90.2957,27.5996],[90.2976,27.5951],[90.2988,27.5913],[90.2993,27.5885],[90.3035,27.5798],[90.3053,27.575],[90.323,27.5422],[90.3337,27.5304],[90.3628,27.5174],[90.3522,27.5081],[90.3477,27.505],[90.3443,27.5014],[90.3418,27.4997],[90.3385,27.4993],[90.3333,27.5018],[90.3275,27.5027],[90.3199,27.5023],[90.3066,27.4989],[90.2977,27.4948],[90.2804,27.4799],[90.2743,27.4761],[90.2381,27.4683],[90.2561,27.4409],[90.2592,27.4329],[90.2642,27.4024],[90.2802,27.3771],[90.2931,27.363],[90.292,27.3594],[90.2921,27.3553],[90.2914,27.352],[90.2932,27.3475],[90.2974,27.3417],[90.3277,27.3178],[90.3348,27.3104],[90.3392,27.3006],[90.3434,27.2722],[90.3603,27.263],[90.3607,27.2498],[90.3554,27.2333],[90.3367,27.2093],[90.3224,27.1966],[90.3131,27.186],[90.3128,27.1705],[90.2871,27.1556],[90.2651,27.1495],[90.236,27.135],[90.2265,27.1433],[90.216,27.1487],[90.2012,27.16],[90.1975,27.1615],[90.1927,27.1613],[90.1779,27.1571],[90.1425,27.1546]]]}}]}