{"type":"FeatureCollection","features":[{"type":"Feature","properties":{"id":"CMR-1482","name":"Adamaoua","nameBn":"আদামাওয়া","type":"Province","bounds":[11.1877,5.9929,15.2466,8.1885],"center":[13.217,6.8047]},"geometry":{"type":"Polygon","coordinates":[[[11.9035,7.4536],[11.9662,7.5144],[11.9928,7.554],[12.0085,7.5649],[12.0211,7.5762],[12.025,7.5966],[12.0107,7.6552],[12.0091,7.6763],[12.0122,7.6983],[12.019,7.7189],[12.055,7.7839],[12.1543,7.9213],[12.1921,7.9607],[12.1978,7.9752],[12.1951,7.9917],[12.1882,8.0163],[12.1827,8.0547],[12.1826,8.0935],[12.1883,8.1178],[12.2291,8.1755],[12.2337,8.1885],[12.2456,8.1773],[12.2877,8.1197],[12.4785,7.9476],[12.5024,7.9352],[12.5244,7.9288],[12.5491,7.9246],[12.587,7.9237],[12.6007,7.9222],[12.6163,7.9176],[12.6255,7.9074],[12.6463,7.8737],[12.6491,7.8628],[12.6478,7.8528],[12.6426,7.8429],[12.6362,7.8346],[12.6331,7.8241],[12.6362,7.8016],[12.6374,7.7712],[12.6443,7.7548],[12.6539,7.7444],[12.6661,7.7375],[12.6902,7.7284],[12.7032,7.725],[12.7133,7.7237],[12.7383,7.7115],[12.7549,7.6961],[12.8357,7.6727],[12.9959,7.6492],[13.0105,7.6452],[13.096,7.6],[13.1113,7.5959],[13.1253,7.5953],[13.1478,7.5994],[13.1711,7.6062],[13.1994,7.6103],[13.252,7.6076],[13.2589,7.6193],[13.2615,7.6588],[13.2637,7.6716],[13.2668,7.6798],[13.277,7.6908],[13.2842,7.7015],[13.2949,7.708],[13.3652,7.6931],[13.3927,7.6725],[13.4026,7.6604],[13.4195,7.6455],[13.4364,7.6362],[13.4586,7.6268],[13.5112,7.5924],[13.5247,7.5897],[13.5348,7.5943],[13.5477,7.608],[13.5576,7.6147],[13.5933,7.6276],[13.6045,7.6329],[13.6287,7.6473],[13.6425,7.6532],[13.6605,7.657],[13.6748,7.656],[13.6992,7.6475],[13.7106,7.6464],[13.7227,7.6475],[13.8369,7.6735],[13.8594,7.675],[13.8716,7.6729],[13.8836,7.6607],[13.885,7.6168],[13.8926,7.608],[13.9035,7.599],[13.9297,7.5924],[14.1038,7.5738],[14.1134,7.5692],[14.1206,7.5615],[14.1286,7.5253],[14.133,7.5144],[14.1385,7.5061],[14.1443,7.4999],[14.1857,7.468],[14.1964,7.4574],[14.2025,7.4492],[14.2045,7.4329],[14.2238,7.4003],[14.2771,7.3435],[14.2948,7.3298],[14.3071,7.3227],[14.3215,7.3106],[14.337,7.2784],[14.3404,7.2237],[14.3384,7.2111],[14.335,7.1977],[14.337,7.1825],[14.3451,7.173],[14.3561,7.1672],[14.3682,7.1648],[14.3931,7.164],[14.4652,7.1708],[14.4785,7.1691],[14.4924,7.1645],[14.5082,7.1547],[14.5195,7.142],[14.529,7.1262],[14.5349,7.1131],[14.5597,7.0772],[14.6215,7.0648],[14.6363,7.0424],[14.6436,7.0365],[14.6571,7.028],[14.669,7.0248],[14.6807,7.024],[14.6919,7.0257],[14.7035,7.0288],[14.7159,7.0336],[14.7281,7.0395],[14.8022,7.0849],[15.0106,7.1757],[15.0265,7.1806],[15.0426,7.1831],[15.0583,7.1832],[15.0812,7.1857],[15.0967,7.1911],[15.1105,7.1997],[15.1726,7.2535],[15.1947,7.2667],[15.2109,7.2723],[15.2243,7.2735],[15.2356,7.2712],[15.244,7.2684],[15.2462,7.2669],[15.2466,7.2667],[15.2239,7.2475],[15.2051,7.2002],[15.1912,7.1773],[15.1866,7.1663],[15.1854,7.1569],[15.1902,7.0988],[15.1875,7.0886],[15.1791,7.0784],[15.1561,7.0678],[15.147,7.0618],[15.1362,7.0453],[15.1289,7.0265],[15.1132,6.9647],[15.0802,6.8781],[15.0591,6.8363],[15.0422,6.7908],[15.0346,6.7768],[15.0224,6.7665],[14.9623,6.7367],[14.9461,6.7257],[14.9325,6.7103],[14.9219,6.6864],[14.8073,6.4278],[14.7822,6.3936],[14.78,6.3822],[14.7843,6.3587],[14.7847,6.3478],[14.7824,6.3368],[14.7723,6.3183],[14.7348,6.2704],[14.719,6.2579],[14.5764,6.1898],[14.535,6.1901],[14.526,6.1741],[14.511,6.1553],[14.4821,6.1271],[14.4671,6.1226],[14.4439,6.1002],[14.4306,6.0881],[14.4318,6.0846],[14.4327,6.0791],[14.4323,6.0792],[14.4298,6.0798],[14.4092,6.0905],[14.3921,6.1121],[14.3825,6.1152],[14.3735,6.1134],[14.3665,6.1066],[14.3625,6.1012],[14.3573,6.0928],[14.3511,6.085],[14.3381,6.0798],[14.2866,6.0767],[14.1918,6.0532],[14.1395,6.0465],[14.0574,6.0348],[14.0396,6.0385],[13.9898,6.0557],[13.9731,6.057],[13.9582,6.0539],[13.854,6.0146],[13.7617,6.0032],[13.3684,6.0],[12.8829,6.0],[12.6262,6.0],[12.5227,6.0023],[12.4992,6.0119],[12.4956,6.019],[12.4883,6.0284],[12.4712,6.0467],[12.4672,6.0533],[12.4642,6.0614],[12.4616,6.0713],[12.4573,6.0823],[12.45,6.0929],[12.4399,6.1025],[12.3122,6.1957],[12.2954,6.2024],[12.2751,6.2064],[12.238,6.2061],[12.2172,6.2018],[12.2006,6.1951],[12.1773,6.1806],[12.166,6.1749],[12.1547,6.1713],[12.1434,6.169],[12.1205,6.168],[12.0953,6.1703],[12.0781,6.1746],[12.0647,6.1794],[12.0414,6.1915],[12.0186,6.2083],[11.9859,6.2438],[11.9812,6.2506],[11.9747,6.2586],[11.9481,6.2565],[11.9376,6.2528],[11.9368,6.2491],[11.9384,6.2354],[11.9376,6.2317],[11.9292,6.2295],[11.9253,6.2325],[11.9216,6.2368],[11.9137,6.2392],[11.9055,6.2349],[11.8919,6.2161],[11.8796,6.2118],[11.8662,6.2102],[11.8593,6.2061],[11.8548,6.2014],[11.8488,6.1976],[11.8293,6.1948],[11.8088,6.1955],[11.7886,6.1931],[11.7697,6.1808],[11.7513,6.1645],[11.7118,6.1395],[11.6632,6.0951],[11.6401,6.0832],[11.6325,6.0778],[11.6161,6.0696],[11.3895,6.0194],[11.3544,6.002],[11.3341,5.9962],[11.3175,6.0023],[11.3081,6.0013],[11.2917,5.9929],[11.2967,6.0128],[11.3126,6.0536],[11.3123,6.0709],[11.307,6.0935],[11.2904,6.1358],[11.2851,6.1585],[11.2831,6.1757],[11.2854,6.1982],[11.288,6.2098],[11.2982,6.2325],[11.2992,6.2433],[11.2958,6.2539],[11.2807,6.2646],[11.2673,6.2716],[11.1877,6.2909],[11.1968,6.3139],[11.2074,6.3572],[11.2086,6.3851],[11.2023,6.4367],[11.2317,6.4398],[11.2371,6.4381],[11.2483,6.431],[11.2555,6.43],[11.2615,6.4326],[11.2722,6.442],[11.2759,6.4442],[11.2868,6.4432],[11.3085,6.4379],[11.3195,6.4373],[11.3442,6.4431],[11.3698,6.4558],[11.3894,6.4739],[11.3957,6.4967],[11.4018,6.5382],[11.4168,6.572],[11.4431,6.5933],[11.4826,6.5972],[11.5098,6.6123],[11.5334,6.6451],[11.5624,6.7125],[11.5689,6.7391],[11.5715,6.7662],[11.5666,6.7842],[11.5446,6.8089],[11.5381,6.8239],[11.5437,6.8507],[11.5618,6.8761],[11.6232,6.9323],[11.6811,6.9686],[11.6848,6.9738],[11.6885,6.9869],[11.6925,6.9916],[11.6972,6.9929],[11.7075,6.9918],[11.7186,6.9945],[11.7342,6.9951],[11.7411,6.9975],[11.7469,7.0054],[11.7486,7.015],[11.7515,7.024],[11.7664,7.0335],[11.8089,7.0719],[11.8203,7.0788],[11.834,7.083],[11.8451,7.0819],[11.8541,7.0778],[11.8626,7.0754],[11.8722,7.0794],[11.8813,7.102],[11.8689,7.1271],[11.83,7.1694],[11.7802,7.2411],[11.7662,7.2529],[11.7424,7.2574],[11.7366,7.2633],[11.7446,7.2722],[11.7625,7.2856],[11.7827,7.3045],[11.8447,7.3964],[11.9035,7.4536]]]}},{"type":"Feature","properties":{"id":"CMR-1480","name":"Centre","nameBn":"সেন্টার","type":"Province","bounds":[10.2386,3.1344,13.2379,6.2586],"center":[11.7383,4.7327]},"geometry":{"type":"Polygon","coordinates":[[[11.9747,6.2586],[11.9812,6.2506],[11.9859,6.2438],[12.0186,6.2083],[12.0414,6.1915],[12.0647,6.1794],[12.0781,6.1746],[12.0953,6.1703],[12.1205,6.168],[12.1434,6.169],[12.1547,6.1713],[12.166,6.1749],[12.1773,6.1806],[12.2006,6.1951],[12.2172,6.2018],[12.238,6.2061],[12.2751,6.2064],[12.2954,6.2024],[12.3122,6.1957],[12.4399,6.1025],[12.45,6.0929],[12.4573,6.0823],[12.4616,6.0713],[12.4642,6.0614],[12.4672,6.0533],[12.4712,6.0467],[12.4883,6.0284],[12.4956,6.019],[12.4992,6.0119],[12.5227,6.0023],[12.6262,6.0],[12.8829,6.0],[12.8801,5.988],[12.8781,5.9709],[12.882,5.9503],[12.8828,5.9394],[12.8762,5.9068],[12.8766,5.9023],[12.8797,5.8927],[12.8856,5.8816],[12.9122,5.8517],[12.9371,5.8145],[12.9444,5.7995],[12.9585,5.7539],[12.9636,5.7435],[12.9702,5.7327],[12.9965,5.7035],[13.0004,5.6977],[13.0041,5.6897],[13.0069,5.6749],[13.0213,5.6375],[13.0414,5.6037],[13.0513,5.5803],[13.0677,5.5574],[13.0699,5.5412],[13.0649,5.5153],[13.0213,5.409],[12.9741,5.3279],[12.9671,5.3199],[12.9547,5.3132],[12.938,5.3102],[12.8752,5.3121],[12.8243,5.2993],[12.8348,5.2815],[12.9028,5.229],[13.0151,5.1119],[13.0283,5.0927],[13.0471,5.0591],[13.0528,5.0391],[13.0542,5.0231],[13.0491,5.0011],[13.0469,4.9952],[13.046,4.9863],[13.0485,4.9769],[13.0609,4.969],[13.1121,4.9497],[13.124,4.947],[13.1364,4.9454],[13.1593,4.9445],[13.172,4.9385],[13.1869,4.9226],[13.2234,4.85],[13.2379,4.8126],[13.2103,4.5879],[13.201,4.5726],[13.1925,4.5679],[13.1821,4.5673],[13.1597,4.5742],[13.148,4.5756],[13.1369,4.5744],[13.1141,4.5661],[13.1019,4.5632],[13.0899,4.5638],[13.0662,4.571],[13.0544,4.5721],[13.028,4.5689],[13.0137,4.5686],[13.0027,4.5704],[12.9949,4.5723],[12.9861,4.5757],[12.9785,4.5775],[12.9707,4.5783],[12.9603,4.5766],[12.9487,4.5721],[12.9017,4.5437],[12.8894,4.5302],[12.8772,4.5096],[12.862,4.4688],[12.8457,4.4017],[12.8329,4.3769],[12.8,4.3501],[12.8106,4.3166],[12.8122,4.3055],[12.8125,4.2936],[12.8045,4.2524],[12.769,4.1373],[12.7695,4.1214],[12.7802,4.1023],[12.7915,4.0857],[12.7951,4.0773],[12.796,4.0667],[12.7918,4.0557],[12.7844,4.046],[12.7648,4.0364],[12.7544,4.0336],[12.7392,4.0274],[12.7325,4.0232],[12.7262,4.0184],[12.706,3.999],[12.6983,3.9879],[12.6965,3.9842],[12.6958,3.9832],[12.6736,3.9658],[12.6702,3.9622],[12.6677,3.9579],[12.6668,3.9567],[12.6646,3.9547],[12.6618,3.9535],[12.6571,3.9521],[12.6349,3.9525],[12.5747,3.9291],[12.5677,3.9272],[12.5612,3.9237],[12.556,3.9188],[12.5504,3.9079],[12.5415,3.8954],[12.5244,3.887],[12.5178,3.8868],[12.5148,3.8849],[12.5086,3.8795],[12.504,3.869],[12.503,3.8572],[12.5052,3.8443],[12.5185,3.817],[12.5386,3.7973],[12.5986,3.7715],[12.6072,3.7639],[12.612,3.7512],[12.6095,3.7332],[12.611,3.6748],[12.6089,3.6496],[12.5993,3.6192],[12.5694,3.5584],[12.5538,3.5748],[12.5332,3.6008],[12.5091,3.6484],[12.5026,3.657],[12.4975,3.6615],[12.4892,3.6657],[12.4785,3.6652],[12.4664,3.6592],[12.4107,3.6001],[12.3043,3.5146],[12.2695,3.4784],[12.2571,3.4573],[12.2228,3.3297],[12.2031,3.3174],[12.1548,3.3032],[12.1378,3.3014],[12.1261,3.3048],[12.1239,3.3162],[12.1274,3.3232],[12.1289,3.3257],[12.1341,3.3379],[12.1326,3.346],[12.1181,3.3561],[12.0052,3.4103],[11.9828,3.4263],[11.9698,3.4322],[11.9348,3.4402],[11.9176,3.4533],[11.8993,3.462],[11.867,3.4001],[11.8594,3.3899],[11.8139,3.3658],[11.794,3.3518],[11.7819,3.3452],[11.7601,3.3386],[11.7495,3.3292],[11.7172,3.2715],[11.7093,3.2439],[11.6946,3.2067],[11.6838,3.1987],[11.6091,3.1629],[11.5607,3.1477],[11.5377,3.1454],[11.3818,3.1466],[11.3403,3.1374],[11.3239,3.136],[11.282,3.1439],[11.2547,3.1409],[11.2173,3.1344],[11.1751,3.1781],[11.163,3.1878],[11.1575,3.1973],[11.153,3.2262],[11.1479,3.2368],[11.1391,3.2425],[11.1286,3.2459],[11.1176,3.2542],[11.1068,3.2693],[11.0901,3.344],[11.0797,3.3695],[11.05,3.4065],[11.0371,3.4156],[11.0261,3.4159],[10.9949,3.4107],[10.9831,3.41],[10.9745,3.4156],[10.9599,3.4214],[10.9372,3.4258],[10.8897,3.4185],[10.8478,3.4163],[10.8425,3.4214],[10.8386,3.4445],[10.8329,3.4654],[10.8283,3.473],[10.8202,3.4788],[10.8021,3.4814],[10.7801,3.4812],[10.7151,3.4673],[10.6892,3.4598],[10.3744,3.3671],[10.2956,3.3546],[10.2886,3.3579],[10.2386,3.5223],[10.2476,3.5544],[10.2541,3.5487],[10.258,3.5468],[10.2628,3.5451],[10.2679,3.5445],[10.2709,3.5445],[10.2749,3.5449],[10.2775,3.5457],[10.2844,3.5484],[10.2895,3.5514],[10.3146,3.5734],[10.3238,3.579],[10.3275,3.5818],[10.3303,3.5849],[10.334,3.5895],[10.3381,3.6368],[10.3429,3.6533],[10.3642,3.7086],[10.3708,3.7554],[10.3742,3.7675],[10.3859,3.7918],[10.409,3.8141],[10.4643,3.8406],[10.4773,3.8291],[10.4846,3.8214],[10.4937,3.8133],[10.5005,3.8089],[10.5102,3.8055],[10.5437,3.7967],[10.5575,3.7878],[10.5687,3.7768],[10.5859,3.7535],[10.5947,3.7448],[10.6059,3.7409],[10.6164,3.7441],[10.627,3.752],[10.6352,3.763],[10.6425,3.7755],[10.6529,3.8058],[10.6501,3.832],[10.6605,3.8707],[10.6607,3.8795],[10.6594,3.8933],[10.6539,3.9193],[10.6534,3.9318],[10.6594,3.9497],[10.6695,3.9704],[10.6927,4.0084],[10.7018,4.0287],[10.713,4.0469],[10.7213,4.0599],[10.7295,4.0622],[10.7428,4.0719],[10.749,4.0742],[10.76,4.0757],[10.7665,4.0793],[10.7718,4.0834],[10.7794,4.0866],[10.7903,4.088],[10.8135,4.0866],[10.8333,4.0924],[10.8692,4.1107],[10.9151,4.1201],[10.9543,4.1389],[10.9712,4.135],[10.9839,4.1481],[10.9963,4.1552],[11.05,4.1687],[11.0578,4.1717],[11.0667,4.1766],[11.0973,4.1977],[11.1212,4.219],[11.1116,4.2325],[11.1076,4.2384],[11.0039,4.3318],[10.9547,4.4147],[10.9218,4.4991],[10.9279,4.5922],[10.924,4.6206],[10.9152,4.6262],[10.9063,4.6266],[10.8956,4.6252],[10.8768,4.6167],[10.8686,4.6142],[10.8579,4.6156],[10.8468,4.6199],[10.8345,4.6224],[10.8219,4.6215],[10.8109,4.6159],[10.8014,4.6064],[10.7966,4.5912],[10.7859,4.5396],[10.7741,4.5142],[10.7445,4.4847],[10.728,4.4916],[10.7206,4.5001],[10.7182,4.5122],[10.7145,4.5193],[10.7069,4.5228],[10.6967,4.5141],[10.6905,4.5058],[10.6872,4.5004],[10.6738,4.4892],[10.6577,4.482],[10.6177,4.444],[10.6031,4.4376],[10.5905,4.4337],[10.5503,4.4397],[10.5384,4.4479],[10.53,4.4551],[10.5195,4.4625],[10.5093,4.4678],[10.5021,4.4694],[10.4918,4.4696],[10.4836,4.4706],[10.4736,4.4755],[10.4545,4.4916],[10.444,4.4945],[10.4327,4.4926],[10.4214,4.4898],[10.4104,4.4896],[10.4016,4.4938],[10.3974,4.4982],[10.3953,4.5021],[10.3941,4.5083],[10.3935,4.5181],[10.3971,4.5334],[10.4044,4.5517],[10.4433,4.6151],[10.487,4.6603],[10.4937,4.6707],[10.4979,4.6812],[10.5018,4.698],[10.5027,4.7101],[10.5011,4.7233],[10.4974,4.7371],[10.4861,4.7518],[10.4635,4.7475],[10.4299,4.732],[10.3811,4.7022],[10.3714,4.7046],[10.3642,4.7107],[10.3713,4.7643],[10.3798,4.7832],[10.3886,4.7911],[10.4295,4.812],[10.4635,4.8395],[10.4844,4.8643],[10.5036,4.9084],[10.578,4.8951],[10.5919,4.896],[10.6076,4.8994],[10.7453,4.9653],[10.7555,4.9719],[10.7653,4.9808],[10.7708,4.9898],[10.7739,4.9967],[10.775,4.9995],[10.7764,5.0021],[10.7795,5.0058],[10.7874,5.013],[10.7974,5.0158],[10.8117,5.0107],[10.8236,5.0032],[10.866,4.9623],[10.8793,4.9586],[10.9006,4.9563],[10.9249,4.9565],[10.9361,4.9611],[10.946,4.9694],[10.9574,4.9958],[10.9593,5.0038],[10.9805,5.0592],[10.99,5.0934],[10.9935,5.1167],[10.9971,5.1297],[11.003,5.1438],[11.0178,5.1621],[11.0347,5.1751],[11.0612,5.1876],[11.0821,5.1947],[11.0775,5.2069],[11.0747,5.2149],[11.0741,5.2265],[11.075,5.2347],[11.0823,5.2631],[11.0823,5.2695],[11.0786,5.2917],[11.0786,5.3043],[11.0812,5.3118],[11.0859,5.3197],[11.0978,5.3305],[11.106,5.3348],[11.1132,5.3372],[11.1194,5.3379],[11.1248,5.3389],[11.129,5.3408],[11.1343,5.3469],[11.1597,5.3883],[11.1619,5.3895],[11.1765,5.3948],[11.1803,5.398],[11.183,5.4026],[11.1866,5.4135],[11.1897,5.4198],[11.1911,5.4265],[11.1909,5.4312],[11.1774,5.4498],[11.1897,5.4676],[11.1926,5.471],[11.197,5.4777],[11.2005,5.4857],[11.2097,5.5141],[11.2115,5.5308],[11.2103,5.5669],[11.2078,5.5779],[11.206,5.5826],[11.1962,5.5996],[11.1942,5.6041],[11.1939,5.6111],[11.1903,5.6222],[11.1984,5.6375],[11.2114,5.6543],[11.219,5.6702],[11.2108,5.6836],[11.2329,5.6957],[11.2419,5.7044],[11.2489,5.7228],[11.2566,5.726],[11.2657,5.728],[11.2728,5.7321],[11.2783,5.7402],[11.2971,5.7776],[11.3112,5.7842],[11.3144,5.7901],[11.3105,5.8043],[11.301,5.8057],[11.2897,5.8036],[11.2803,5.8071],[11.274,5.8194],[11.2747,5.8293],[11.2782,5.8392],[11.2803,5.8518],[11.2784,5.8648],[11.2742,5.8721],[11.2694,5.8771],[11.266,5.8828],[11.2644,5.894],[11.2638,5.9135],[11.2592,5.9238],[11.2737,5.9335],[11.2801,5.9494],[11.2779,5.9643],[11.266,5.971],[11.2754,5.9813],[11.2917,5.9929],[11.3081,6.0013],[11.3175,6.0023],[11.3341,5.9962],[11.3544,6.002],[11.3895,6.0194],[11.6161,6.0696],[11.6325,6.0778],[11.6401,6.0832],[11.6632,6.0951],[11.7118,6.1395],[11.7513,6.1645],[11.7697,6.1808],[11.7886,6.1931],[11.8088,6.1955],[11.8293,6.1948],[11.8488,6.1976],[11.8548,6.2014],[11.8593,6.2061],[11.8662,6.2102],[11.8796,6.2118],[11.8919,6.2161],[11.9055,6.2349],[11.9137,6.2392],[11.9216,6.2368],[11.9253,6.2325],[11.9292,6.2295],[11.9376,6.2317],[11.9384,6.2354],[11.9368,6.2491],[11.9376,6.2528],[11.9481,6.2565],[11.9747,6.2586]]]}},{"type":"Feature","properties":{"id":"CMR-1481","name":"Est","nameBn":"ইস্ট","type":"Province","bounds":[12.503,1.6546,16.2077,6.1152],"center":[14.1674,3.7838]},"geometry":{"type":"Polygon","coordinates":[[[16.1967,2.2365],[16.2023,2.232],[16.2077,2.2231],[16.1995,2.2122],[16.1593,2.1821],[16.1406,2.1998],[16.1204,2.2033],[16.1044,2.1936],[16.0978,2.1715],[16.0858,2.1492],[16.0835,2.1378],[16.0856,2.1249],[16.0898,2.1162],[16.0925,2.1069],[16.0903,2.0927],[16.0881,2.0918],[16.0841,2.0916],[16.0797,2.0903],[16.0767,2.0859],[16.0755,2.08],[16.0755,2.0755],[16.0762,2.0728],[16.0767,2.0723],[16.0781,2.0634],[16.0815,2.0556],[16.0817,2.0468],[16.0664,2.0255],[16.0638,2.0159],[16.0649,1.9789],[16.0687,1.9736],[16.0749,1.9706],[16.0835,1.963],[16.1014,1.9328],[16.1351,1.8453],[16.159,1.7348],[16.1558,1.7191],[16.1451,1.7143],[16.1236,1.7216],[16.1148,1.7191],[16.0699,1.6546],[16.0305,1.7054],[16.022,1.7228],[16.022,1.733],[16.0249,1.7425],[16.0263,1.7523],[16.022,1.7638],[16.0138,1.7713],[16.0028,1.7759],[15.9908,1.7762],[15.9804,1.7706],[15.9632,1.7774],[15.9438,1.7816],[15.929,1.789],[15.9259,1.8047],[15.9152,1.799],[15.9018,1.7937],[15.8899,1.7933],[15.885,1.8016],[15.8824,1.8167],[15.8757,1.8238],[15.8659,1.8285],[15.8421,1.8442],[15.8154,1.8534],[15.8029,1.86],[15.7646,1.9087],[15.7574,1.913],[15.7341,1.9167],[15.7216,1.9216],[15.7111,1.9274],[15.7068,1.932],[15.6118,1.9425],[15.5266,1.9678],[15.4829,1.9759],[15.4392,1.9698],[15.3881,1.9395],[15.368,1.9329],[15.3492,1.9233],[15.3374,1.9215],[15.3378,1.9238],[15.3143,1.9343],[15.3095,1.9351],[15.3016,1.9436],[15.3002,1.9477],[15.3019,1.9533],[15.3033,1.9664],[15.3011,1.9738],[15.2954,1.9815],[15.2876,1.9878],[15.2536,2.0003],[15.2481,2.0033],[15.2442,2.0101],[15.2387,2.0253],[15.2337,2.0313],[15.2126,2.0396],[15.197,2.035],[15.1836,2.0293],[15.1517,2.041],[15.1385,2.0115],[15.1239,2.017],[15.1178,2.017],[15.1076,2.0008],[15.0916,1.9844],[15.0749,1.9794],[15.0631,1.9972],[15.0437,1.9909],[15.0283,1.9953],[14.9807,2.0331],[14.971,2.0345],[14.963,2.0104],[14.9538,2.0058],[14.9321,2.0033],[14.8925,2.0064],[14.8966,2.0309],[14.9073,2.0589],[14.8878,2.0723],[14.8846,2.0821],[14.8715,2.1017],[14.857,2.1159],[14.8502,2.1098],[14.8502,2.0974],[14.8482,2.0852],[14.8412,2.0759],[14.8263,2.0723],[14.7648,2.0655],[14.7616,2.0702],[14.7625,2.0925],[14.7614,2.0996],[14.7563,2.0996],[14.7476,2.0972],[14.7371,2.0961],[14.7273,2.0996],[14.7335,2.102],[14.7479,2.1132],[14.7209,2.1276],[14.7137,2.124],[14.7205,2.0996],[14.7057,2.1055],[14.686,2.1259],[14.672,2.1343],[14.6461,2.1334],[14.6363,2.1383],[14.6448,2.1542],[14.6209,2.1648],[14.5879,2.2017],[14.5621,2.2088],[14.5571,2.2024],[14.5478,2.1937],[14.548,2.1844],[14.5503,2.1752],[14.5471,2.1665],[14.5381,2.1634],[14.4592,2.1465],[14.4387,2.134],[14.4329,2.1321],[14.4187,2.1353],[14.3994,2.1532],[14.3836,2.1621],[14.3203,2.1707],[14.2763,2.1536],[14.267,2.1524],[14.1617,2.1534],[14.0028,2.1548],[13.824,2.1564],[13.6623,2.1578],[13.6622,2.158],[13.662,2.1606],[13.6304,2.8445],[13.6209,2.9063],[13.6099,2.9018],[13.5968,2.898],[13.5858,2.8915],[13.5477,2.8607],[13.5323,2.8554],[13.5311,2.8489],[13.5415,2.8328],[13.5278,2.836],[13.5143,2.8424],[13.504,2.8432],[13.4999,2.8297],[13.5065,2.8021],[13.5046,2.7904],[13.49,2.7856],[13.4316,2.7856],[13.4207,2.7896],[13.3832,2.8123],[13.3806,2.8167],[13.3737,2.8247],[13.3666,2.8274],[13.3633,2.8157],[13.3603,2.8126],[13.3533,2.8117],[13.3388,2.8123],[13.3304,2.8167],[13.3115,2.8402],[13.3019,2.8443],[13.2922,2.851],[13.2825,2.8523],[13.2733,2.8402],[13.2746,2.8323],[13.2865,2.8021],[13.2938,2.7919],[13.2806,2.7914],[13.2698,2.7933],[13.2624,2.7988],[13.2571,2.8238],[13.2499,2.8311],[13.2255,2.8402],[13.2277,2.8548],[13.2177,2.8675],[13.2031,2.8718],[13.1914,2.8607],[13.1825,2.8647],[13.1777,2.8659],[13.1729,2.8645],[13.1641,2.8607],[13.1518,2.8688],[13.1357,2.8714],[13.1217,2.8677],[13.1157,2.857],[13.1126,2.8491],[13.1057,2.8458],[13.0989,2.8483],[13.093,2.8668],[13.0868,2.8665],[13.0799,2.8605],[13.0753,2.8533],[13.0609,2.8592],[13.016,2.8715],[13.0033,2.8706],[12.997,2.8714],[12.98,2.8893],[12.9723,2.8949],[12.9713,2.8916],[12.9518,2.8738],[12.938,2.8836],[12.9234,2.8866],[12.8904,2.888],[12.8764,2.8918],[12.8585,2.9001],[12.8353,2.9028],[12.8314,2.9058],[12.8285,2.9102],[12.8215,2.9154],[12.802,2.9229],[12.7972,2.9256],[12.7672,2.9686],[12.7641,2.9811],[12.761,3.0937],[12.7516,3.1432],[12.7356,3.1875],[12.6986,3.2516],[12.6728,3.2839],[12.6027,3.3501],[12.571,3.391],[12.5594,3.4106],[12.5547,3.4215],[12.5525,3.4297],[12.5515,3.4382],[12.5694,3.5584],[12.5993,3.6192],[12.6089,3.6496],[12.611,3.6748],[12.6095,3.7332],[12.612,3.7512],[12.6072,3.7639],[12.5986,3.7715],[12.5386,3.7973],[12.5185,3.817],[12.5052,3.8443],[12.503,3.8572],[12.504,3.869],[12.5086,3.8795],[12.5148,3.8849],[12.5178,3.8868],[12.5244,3.887],[12.5415,3.8954],[12.5504,3.9079],[12.556,3.9188],[12.5612,3.9237],[12.5677,3.9272],[12.5747,3.9291],[12.6349,3.9525],[12.6571,3.9521],[12.6618,3.9535],[12.6646,3.9547],[12.6668,3.9567],[12.6677,3.9579],[12.6702,3.9622],[12.6736,3.9658],[12.6958,3.9832],[12.6965,3.9842],[12.6983,3.9879],[12.706,3.999],[12.7262,4.0184],[12.7325,4.0232],[12.7392,4.0274],[12.7544,4.0336],[12.7648,4.0364],[12.7844,4.046],[12.7918,4.0557],[12.796,4.0667],[12.7951,4.0773],[12.7915,4.0857],[12.7802,4.1023],[12.7695,4.1214],[12.769,4.1373],[12.8045,4.2524],[12.8125,4.2936],[12.8122,4.3055],[12.8106,4.3166],[12.8,4.3501],[12.8329,4.3769],[12.8457,4.4017],[12.862,4.4688],[12.8772,4.5096],[12.8894,4.5302],[12.9017,4.5437],[12.9487,4.5721],[12.9603,4.5766],[12.9707,4.5783],[12.9785,4.5775],[12.9861,4.5757],[12.9949,4.5723],[13.0027,4.5704],[13.0137,4.5686],[13.028,4.5689],[13.0544,4.5721],[13.0662,4.571],[13.0899,4.5638],[13.1019,4.5632],[13.1141,4.5661],[13.1369,4.5744],[13.148,4.5756],[13.1597,4.5742],[13.1821,4.5673],[13.1925,4.5679],[13.201,4.5726],[13.2103,4.5879],[13.2379,4.8126],[13.2234,4.85],[13.1869,4.9226],[13.172,4.9385],[13.1593,4.9445],[13.1364,4.9454],[13.124,4.947],[13.1121,4.9497],[13.0609,4.969],[13.0485,4.9769],[13.046,4.9863],[13.0469,4.9952],[13.0491,5.0011],[13.0542,5.0231],[13.0528,5.0391],[13.0471,5.0591],[13.0283,5.0927],[13.0151,5.1119],[12.9028,5.229],[12.8348,5.2815],[12.8243,5.2993],[12.8752,5.3121],[12.938,5.3102],[12.9547,5.3132],[12.9671,5.3199],[12.9741,5.3279],[13.0213,5.409],[13.0649,5.5153],[13.0699,5.5412],[13.0677,5.5574],[13.0513,5.5803],[13.0414,5.6037],[13.0213,5.6375],[13.0069,5.6749],[13.0041,5.6897],[13.0004,5.6977],[12.9965,5.7035],[12.9702,5.7327],[12.9636,5.7435],[12.9585,5.7539],[12.9444,5.7995],[12.9371,5.8145],[12.9122,5.8517],[12.8856,5.8816],[12.8797,5.8927],[12.8766,5.9023],[12.8762,5.9068],[12.8828,5.9394],[12.882,5.9503],[12.8781,5.9709],[12.8801,5.988],[12.8829,6.0],[13.3684,6.0],[13.7617,6.0032],[13.854,6.0146],[13.9582,6.0539],[13.9731,6.057],[13.9898,6.0557],[14.0396,6.0385],[14.0574,6.0348],[14.1395,6.0465],[14.1918,6.0532],[14.2866,6.0767],[14.3381,6.0798],[14.3511,6.085],[14.3573,6.0928],[14.3625,6.1012],[14.3665,6.1066],[14.3735,6.1134],[14.3825,6.1152],[14.3921,6.1121],[14.4092,6.0905],[14.4298,6.0798],[14.4323,6.0792],[14.4327,6.0791],[14.4336,6.0739],[14.4291,6.0642],[14.426,6.0599],[14.4225,6.0514],[14.4182,6.0471],[14.4129,6.047],[14.4025,6.0549],[14.3977,6.0539],[14.3903,6.0458],[14.3873,6.039],[14.3894,6.0311],[14.3977,6.0192],[14.4061,6.011],[14.4175,5.9973],[14.4323,5.9855],[14.4469,5.97],[14.4538,5.9539],[14.4582,5.9364],[14.4657,5.9207],[14.4821,5.9096],[14.4992,5.9095],[14.5306,5.9059],[14.5454,5.9076],[14.5725,5.9242],[14.5848,5.9234],[14.598,5.9035],[14.603,5.8834],[14.6174,5.865],[14.624,5.7583],[14.6311,5.738],[14.6244,5.7236],[14.6106,5.6691],[14.5928,5.6239],[14.5901,5.6083],[14.5915,5.591],[14.5966,5.5772],[14.6106,5.5537],[14.6172,5.5379],[14.6189,5.5255],[14.6174,5.4953],[14.6141,5.4849],[14.5996,5.4566],[14.5962,5.4401],[14.5973,5.4115],[14.5928,5.4],[14.5796,5.3954],[14.5793,5.3876],[14.5708,5.3709],[14.5608,5.3555],[14.5559,5.3513],[14.554,5.3382],[14.5484,5.3205],[14.5396,5.3036],[14.528,5.293],[14.5199,5.2906],[14.5239,5.2797],[14.5397,5.2618],[14.5605,5.2486],[14.6036,5.2343],[14.6245,5.224],[14.6405,5.2082],[14.6515,5.1875],[14.6589,5.1645],[14.6632,5.1418],[14.663,5.0914],[14.6675,5.0528],[14.6603,5.0158],[14.6601,5.0114],[14.6595,4.997],[14.6634,4.9857],[14.6698,4.9771],[14.6745,4.9676],[14.6721,4.9408],[14.6758,4.9308],[14.6816,4.9209],[14.687,4.9089],[14.7015,4.8144],[14.7006,4.8043],[14.6961,4.7797],[14.6918,4.7687],[14.6907,4.7621],[14.6973,4.7452],[14.7042,4.6694],[14.7173,4.622],[14.7437,4.58],[14.7797,4.545],[14.9383,4.4359],[14.9821,4.4205],[14.9939,4.4133],[15.0006,4.4032],[15.0074,4.3778],[15.0139,4.3643],[15.0485,4.3216],[15.0638,4.2934],[15.0728,4.2659],[15.0829,4.2055],[15.0845,4.1486],[15.0912,4.1218],[15.1026,4.1124],[15.1178,4.1143],[15.1329,4.1085],[15.1393,4.0946],[15.1426,4.0804],[15.1485,4.0739],[15.1624,4.0739],[15.1777,4.0715],[15.1898,4.0631],[15.1921,4.0522],[15.1724,4.0438],[15.1504,4.0385],[15.1113,4.0199],[15.0917,4.0159],[15.0752,4.018],[15.0431,4.0261],[15.026,4.0261],[15.0849,3.8858],[15.1713,3.759],[15.2526,3.6729],[15.2623,3.6626],[15.3297,3.591],[15.414,3.5019],[15.5179,3.3916],[15.6169,3.2868],[15.7107,3.1875],[15.7856,3.108],[15.7932,3.1033],[15.801,3.1009],[15.8135,3.099],[15.8176,3.1001],[15.8291,3.1066],[15.8342,3.1085],[15.8402,3.1074],[15.8509,3.1004],[15.8548,3.099],[15.8978,3.1035],[15.914,3.098],[15.9334,3.0818],[15.9501,3.061],[15.9582,3.0415],[15.9716,2.9912],[15.9742,2.9858],[15.9778,2.981],[15.982,2.9767],[15.9954,2.9815],[16.0061,2.984],[16.0158,2.9835],[16.0262,2.979],[16.0342,2.9706],[16.0554,2.9398],[16.0702,2.9066],[16.0825,2.8857],[16.0924,2.8633],[16.0952,2.8368],[16.0869,2.8132],[16.0599,2.7862],[16.0562,2.7598],[16.06,2.7258],[16.0593,2.7118],[16.0626,2.7032],[16.0728,2.7028],[16.0863,2.705],[16.0991,2.704],[16.1105,2.7014],[16.1014,2.6878],[16.0937,2.6731],[16.0903,2.6619],[16.0931,2.6415],[16.1085,2.6066],[16.1115,2.5862],[16.1069,2.567],[16.0912,2.5328],[16.0903,2.5105],[16.0943,2.4975],[16.1071,2.4742],[16.1115,2.4559],[16.1115,2.4186],[16.1129,2.4104],[16.1209,2.3896],[16.1334,2.3648],[16.1523,2.3433],[16.1593,2.3329],[16.1629,2.3238],[16.1647,2.3148],[16.166,2.2948],[16.1691,2.2899],[16.1829,2.2812],[16.1865,2.2777],[16.1869,2.2693],[16.1813,2.2566],[16.1797,2.247],[16.1928,2.2395],[16.1967,2.2365]]]}},{"type":"Feature","properties":{"id":"CMR-1462","name":"Extrême-Nord","nameBn":"ফার নর্থ","type":"Province","bounds":[13.3927,9.9217,15.6812,13.0811],"center":[14.5367,10.7227]},"geometry":{"type":"Polygon","coordinates":[[[14.481,13.0005],[14.4821,12.9988],[14.4963,12.9838],[14.5047,12.969],[14.5077,12.9524],[14.5061,12.9321],[14.4906,12.8863],[14.4901,12.8736],[14.5004,12.8591],[14.531,12.8362],[14.549,12.8182],[14.549,12.7805],[14.5511,12.7716],[14.5548,12.7669],[14.5607,12.7662],[14.5694,12.7694],[14.5694,12.7596],[14.5707,12.7504],[14.5753,12.7449],[14.5849,12.7464],[14.604,12.7608],[14.6106,12.7623],[14.6184,12.7592],[14.6203,12.7541],[14.6207,12.7479],[14.6243,12.7419],[14.6417,12.7309],[14.6481,12.7251],[14.6645,12.716],[14.694,12.7237],[14.7099,12.7182],[14.7168,12.7018],[14.7021,12.669],[14.7137,12.6525],[14.7288,12.6772],[14.7341,12.6804],[14.7433,12.6772],[14.7521,12.6689],[14.7587,12.6588],[14.7614,12.6494],[14.7688,12.6332],[14.7862,12.6312],[14.8192,12.6388],[14.8308,12.6182],[14.8638,12.4955],[14.8601,12.4901],[14.852,12.4747],[14.8502,12.4681],[14.8496,12.457],[14.851,12.4552],[14.8555,12.4545],[14.8638,12.447],[14.8619,12.452],[14.8659,12.4526],[14.8724,12.4504],[14.8775,12.447],[14.8785,12.4431],[14.8768,12.4316],[14.8775,12.4272],[14.8912,12.4027],[14.9083,12.3269],[14.9063,12.318],[14.9049,12.2487],[14.9049,12.2484],[14.9031,12.2363],[14.898,12.2195],[14.898,12.2075],[14.9009,12.2],[14.9059,12.1956],[14.9101,12.1904],[14.9116,12.1801],[14.9074,12.1735],[14.8999,12.1718],[14.8948,12.1674],[14.898,12.1528],[14.9031,12.1459],[14.9287,12.1286],[14.9507,12.1033],[14.9648,12.0924],[14.9768,12.0941],[14.9938,12.1067],[15.0118,12.1086],[15.0304,12.1009],[15.0494,12.0846],[15.0446,12.0784],[15.0409,12.0676],[15.0406,12.0556],[15.0457,12.0461],[15.0531,12.038],[15.0537,12.0319],[15.0512,12.0242],[15.0494,12.0119],[15.0597,11.9973],[15.0768,11.9828],[15.0812,11.9717],[15.0525,11.9672],[15.0483,11.9628],[15.0506,11.9529],[15.0555,11.9425],[15.0594,11.9368],[15.0634,11.9273],[15.0566,11.9184],[15.047,11.9102],[15.042,11.9024],[15.0442,11.8773],[15.051,11.8616],[15.0628,11.8535],[15.0798,11.8512],[15.0863,11.8405],[15.1109,11.7829],[15.1054,11.7727],[15.0891,11.7576],[15.0836,11.7482],[15.0853,11.744],[15.096,11.7341],[15.0972,11.7277],[15.0931,11.7229],[15.0863,11.7222],[15.0798,11.7226],[15.0761,11.7215],[15.0683,11.7001],[15.0665,11.6806],[15.0694,11.6608],[15.0852,11.6159],[15.0958,11.5982],[15.1239,11.5632],[15.1356,11.5308],[15.1223,11.5032],[15.0761,11.4533],[15.067,11.4356],[15.0606,11.4161],[15.0543,11.3641],[15.0494,11.3487],[15.0494,11.3373],[15.0525,11.3298],[15.0578,11.3254],[15.0623,11.32],[15.0631,11.3099],[15.0564,11.2934],[15.0333,11.2603],[15.0283,11.2445],[15.0212,11.1825],[15.0288,11.0802],[15.0352,10.9946],[15.0625,10.9307],[15.0727,10.9158],[15.079,10.8981],[15.0756,10.8735],[15.0631,10.8308],[15.0659,10.7931],[15.1423,10.6472],[15.1499,10.6231],[15.1485,10.6073],[15.1384,10.5897],[15.1323,10.5654],[15.1317,10.5407],[15.1382,10.5217],[15.1444,10.5163],[15.1536,10.512],[15.1647,10.5091],[15.1761,10.508],[15.1866,10.5059],[15.1933,10.5012],[15.1982,10.4965],[15.2183,10.4872],[15.2272,10.4701],[15.2412,10.4329],[15.2556,10.417],[15.2688,10.4063],[15.2784,10.3943],[15.2822,10.3746],[15.2843,10.3493],[15.2906,10.329],[15.3014,10.3117],[15.4392,10.1852],[15.4764,10.1327],[15.4907,10.1244],[15.4901,10.1201],[15.5361,10.0805],[15.6028,10.041],[15.6379,10.03],[15.6812,9.9913],[15.6638,9.9861],[15.4394,9.9317],[15.383,9.9302],[15.2149,9.9841],[15.1555,9.9865],[15.1096,9.9815],[15.1007,9.9789],[15.0894,9.9722],[15.0717,9.956],[15.0612,9.9492],[15.033,9.9429],[15.0024,9.9451],[14.9441,9.9588],[14.8981,9.9605],[14.7726,9.9217],[14.7325,9.9238],[14.4405,9.9953],[14.1963,9.9791],[14.1962,9.9793],[14.1947,9.9817],[14.2037,10.0428],[14.1938,10.0586],[14.1013,10.0856],[14.0855,10.0855],[14.0556,10.0927],[14.035,10.1198],[14.0031,10.1421],[13.9991,10.146],[13.9744,10.1827],[13.9604,10.1916],[13.928,10.202],[13.874,10.2128],[13.8537,10.2142],[13.8124,10.2095],[13.7731,10.214],[13.71,10.2266],[13.6952,10.2253],[13.6805,10.2209],[13.6636,10.207],[13.6551,10.1953],[13.6504,10.1833],[13.6501,10.1725],[13.6544,10.1617],[13.6696,10.1397],[13.6741,10.129],[13.6693,10.1188],[13.6569,10.1115],[13.593,10.0907],[13.5695,10.0796],[13.5547,10.075],[13.5349,10.0776],[13.4983,10.078],[13.4499,10.0632],[13.4374,10.0631],[13.4254,10.0691],[13.4161,10.0768],[13.3959,10.1104],[13.3927,10.117],[13.402,10.1224],[13.4232,10.1385],[13.4349,10.1534],[13.4508,10.1872],[13.453,10.2005],[13.4514,10.2121],[13.4445,10.2325],[13.4448,10.2455],[13.4672,10.3076],[13.5013,10.4963],[13.5388,10.6214],[13.5663,10.679],[13.7444,10.9305],[13.7498,10.9424],[13.757,10.9582],[13.7504,10.9962],[13.7548,11.0167],[13.7659,11.0339],[13.782,11.0475],[13.8201,11.0693],[13.8321,11.0848],[13.8492,11.1246],[13.8732,11.1665],[13.9063,11.208],[13.9439,11.2457],[13.9823,11.2763],[14.0131,11.2764],[14.0525,11.2652],[14.1226,11.2357],[14.1433,11.2327],[14.1655,11.2383],[14.1868,11.2492],[14.2046,11.2621],[14.2321,11.2903],[14.2443,11.2954],[14.2713,11.2986],[14.2792,11.3018],[14.3682,11.383],[14.3871,11.3934],[14.4463,11.4117],[14.4673,11.4239],[14.504,11.4563],[14.5249,11.4688],[14.5766,11.4873],[14.5938,11.4964],[14.6058,11.5147],[14.6162,11.5387],[14.6238,11.5635],[14.6276,11.5844],[14.6271,11.6097],[14.6214,11.6298],[14.6102,11.6468],[14.5939,11.663],[14.5886,11.6697],[14.5851,11.6768],[14.5809,11.6833],[14.5735,11.6877],[14.5565,11.6875],[14.5524,11.689],[14.5433,11.7011],[14.5419,11.7098],[14.5465,11.7186],[14.5832,11.7664],[14.5907,11.7832],[14.6121,11.885],[14.6234,11.9165],[14.6271,11.9501],[14.6269,11.9572],[14.6252,11.9681],[14.6063,12.0113],[14.6043,12.0304],[14.6222,12.042],[14.6199,12.0525],[14.6372,12.1242],[14.6432,12.1358],[14.6481,12.1418],[14.6506,12.1481],[14.6699,12.1674],[14.6683,12.1781],[14.6634,12.1876],[14.6515,12.1938],[14.6432,12.1906],[14.6293,12.1835],[14.6163,12.1789],[14.6106,12.1835],[14.6041,12.2043],[14.5883,12.2172],[14.5681,12.2277],[14.5485,12.2416],[14.5583,12.2469],[14.5621,12.2484],[14.5621,12.2558],[14.5512,12.2604],[14.5215,12.2824],[14.5144,12.2894],[14.5124,12.2986],[14.5176,12.3134],[14.5144,12.3235],[14.4871,12.3378],[14.4231,12.3531],[14.2176,12.3593],[14.2022,12.3625],[14.1889,12.3704],[14.1798,12.3856],[14.1791,12.3973],[14.1851,12.4279],[14.1854,12.447],[14.1802,12.4635],[14.1787,12.4683],[14.1774,12.5456],[14.1211,12.8118],[14.0649,13.078],[14.4182,13.0811],[14.4354,13.0703],[14.481,13.0005]]]}},{"type":"Feature","properties":{"id":"CMR-1476","name":"Littoral","nameBn":"লিট্টোরাল","type":"Province","bounds":[9.3316,3.269,11.1212,5.3571],"center":[10.0932,4.1938]},"geometry":{"type":"MultiPolygon","coordinates":[[[[9.4529,4.077],[9.4573,4.0711],[9.4652,4.0681],[9.4743,4.0661],[9.4844,4.0599],[9.4854,4.0553],[9.4956,4.0315],[9.507,4.0195],[9.5236,4.0061],[9.5325,3.9894],[9.5186,3.9704],[9.5042,3.9761],[9.4971,3.9777],[9.4901,3.9807],[9.4769,3.9909],[9.464,4.012],[9.4583,4.0162],[9.4539,4.0186],[9.4512,4.0228],[9.4504,4.0319],[9.438,4.0305],[9.4292,4.0266],[9.4241,4.0195],[9.4224,4.0084],[9.4494,3.9921],[9.4566,3.9841],[9.4588,3.9724],[9.4564,3.9635],[9.4524,3.9539],[9.4504,3.9398],[9.4533,3.9321],[9.4691,3.9234],[9.4769,3.9158],[9.464,3.91],[9.4483,3.9057],[9.4121,3.9022],[9.3934,3.9043],[9.3592,3.9137],[9.3435,3.9158],[9.3316,3.9219],[9.3317,3.922],[9.3318,3.9222],[9.3645,3.9523],[9.3827,3.9627],[9.3923,3.9657],[9.3954,3.9685],[9.3974,3.9728],[9.3995,3.9828],[9.41,4.0075],[9.4497,4.0728],[9.4529,4.077]]],[[[9.9295,3.269],[9.9295,3.2716],[9.9139,3.2703],[9.9031,3.2729],[9.895,3.2783],[9.888,3.2852],[9.8815,3.2943],[9.8553,3.3436],[9.7809,3.4368],[9.739,3.4731],[9.6421,3.539],[9.6642,3.5439],[9.6887,3.5561],[9.7708,3.6187],[9.7928,3.6272],[9.8196,3.6279],[9.7876,3.6371],[9.7596,3.6262],[9.7337,3.6093],[9.7069,3.6005],[9.6384,3.5944],[9.6262,3.6],[9.6213,3.6128],[9.626,3.6265],[9.6421,3.6347],[9.6126,3.705],[9.5651,3.7709],[9.5515,3.7962],[9.5459,3.8196],[9.571,3.7955],[9.5767,3.7923],[9.5816,3.7878],[9.5896,3.7661],[9.5942,3.7582],[9.6069,3.7523],[9.6243,3.7502],[9.6626,3.7507],[9.6525,3.756],[9.6211,3.765],[9.611,3.7706],[9.6071,3.7747],[9.6043,3.78],[9.5974,3.7889],[9.5892,3.8096],[9.5921,3.8352],[9.6038,3.859],[9.6211,3.8748],[9.659,3.841],[9.6797,3.8361],[9.6898,3.8606],[9.7235,3.8438],[9.7363,3.8342],[9.7445,3.8196],[9.7503,3.8303],[9.7505,3.8408],[9.7459,3.8509],[9.7383,3.8606],[9.7415,3.861],[9.752,3.8606],[9.7049,3.8775],[9.6829,3.8904],[9.6763,3.909],[9.6892,3.9224],[9.715,3.9313],[9.7433,3.9359],[9.7644,3.9363],[9.7643,3.9407],[9.763,3.9438],[9.7581,3.95],[9.7608,3.9514],[9.763,3.9512],[9.7644,3.9523],[9.7644,3.9575],[9.6648,3.9404],[9.6346,3.9432],[9.6189,3.9604],[9.6237,3.9858],[9.6399,4.0088],[9.6592,4.0189],[9.6756,4.0338],[9.7189,4.0996],[9.7483,4.1144],[9.7525,4.1198],[9.7568,4.1298],[9.7546,4.1357],[9.7383,4.1287],[9.7195,4.1149],[9.7109,4.1057],[9.7035,4.0939],[9.6966,4.0939],[9.6966,4.1144],[9.6789,4.101],[9.6463,4.0515],[9.6284,4.0319],[9.6066,4.0207],[9.5794,4.013],[9.5593,4.0168],[9.5596,4.0394],[9.5459,4.0257],[9.5266,4.0358],[9.5086,4.0542],[9.4985,4.0772],[9.5042,4.1008],[9.5028,4.1023],[9.503,4.1024],[9.5095,4.1042],[9.5166,4.1082],[9.5251,4.1159],[9.5361,4.1362],[9.543,4.1456],[9.5562,4.1574],[9.5621,4.1653],[9.5613,4.1758],[9.5529,4.1987],[9.545,4.2091],[9.5309,4.2185],[9.4606,4.2312],[9.4395,4.2434],[9.4415,4.2692],[9.4473,4.2976],[9.5165,4.4075],[9.522,4.4288],[9.5126,4.4562],[9.5107,4.4709],[9.5154,4.5281],[9.5222,4.5561],[9.5544,4.6122],[9.5701,4.6345],[9.5779,4.6413],[9.6012,4.642],[9.6141,4.6387],[9.6223,4.6393],[9.6316,4.6427],[9.6387,4.6515],[9.6454,4.6851],[9.6733,4.7256],[9.7,4.747],[9.7104,4.7704],[9.7105,4.7964],[9.7121,4.8076],[9.7164,4.8231],[9.7267,4.8387],[9.7591,4.8686],[9.7774,4.8928],[9.7877,4.9024],[9.7944,4.9125],[9.7962,4.9237],[9.774,4.9472],[9.767,4.9606],[9.7701,4.9748],[9.7779,4.9998],[9.791,5.0303],[9.808,5.0508],[9.8428,5.0576],[9.8532,5.0696],[9.8501,5.0878],[9.8308,5.1305],[9.817,5.1544],[9.779,5.2007],[9.7625,5.2411],[9.7545,5.2785],[9.7542,5.2886],[9.7584,5.2971],[9.7669,5.299],[9.7774,5.299],[9.7894,5.3008],[9.8012,5.3076],[9.8366,5.3494],[9.8704,5.3571],[9.8634,5.2837],[9.8794,5.2618],[9.8899,5.2607],[9.9004,5.2644],[9.9095,5.2718],[9.9197,5.2783],[9.9306,5.2796],[9.9441,5.2744],[9.9768,5.2512],[9.9838,5.2423],[9.9874,5.2346],[9.9903,5.2188],[10.004,5.1926],[10.0054,5.1515],[9.995,5.1283],[9.9961,5.1239],[9.9978,5.1191],[10.0049,5.1063],[10.0115,5.0873],[10.016,5.0785],[10.0205,5.0724],[10.058,5.0518],[10.0621,5.0463],[10.0645,5.0381],[10.0687,5.0124],[10.072,5.0008],[10.0732,4.9988],[10.0779,4.9928],[10.0865,4.9861],[10.091,4.9834],[10.105,4.9692],[10.1115,4.937],[10.1196,4.9269],[10.1246,4.9258],[10.1285,4.9255],[10.1309,4.9256],[10.1376,4.9266],[10.1415,4.9278],[10.1514,4.9286],[10.1766,4.9822],[10.1837,4.9912],[10.1887,4.999],[10.2257,5.0244],[10.2393,5.0361],[10.2458,5.0498],[10.2506,5.0634],[10.2602,5.0797],[10.2703,5.0821],[10.2816,5.08],[10.2925,5.0762],[10.3033,5.074],[10.314,5.0759],[10.3357,5.0833],[10.3473,5.0859],[10.3744,5.089],[10.3874,5.0727],[10.3956,5.0375],[10.4068,5.0209],[10.4155,5.0026],[10.4333,4.9554],[10.4445,4.9438],[10.4672,4.9352],[10.4763,4.9238],[10.4849,4.9165],[10.5036,4.9084],[10.4844,4.8643],[10.4635,4.8395],[10.4295,4.812],[10.3886,4.7911],[10.3798,4.7832],[10.3713,4.7643],[10.3642,4.7107],[10.3714,4.7046],[10.3811,4.7022],[10.4299,4.732],[10.4635,4.7475],[10.4861,4.7518],[10.4974,4.7371],[10.5011,4.7233],[10.5027,4.7101],[10.5018,4.698],[10.4979,4.6812],[10.4937,4.6707],[10.487,4.6603],[10.4433,4.6151],[10.4044,4.5517],[10.3971,4.5334],[10.3935,4.5181],[10.3941,4.5083],[10.3953,4.5021],[10.3974,4.4982],[10.4016,4.4938],[10.4104,4.4896],[10.4214,4.4898],[10.4327,4.4926],[10.444,4.4945],[10.4545,4.4916],[10.4736,4.4755],[10.4836,4.4706],[10.4918,4.4696],[10.5021,4.4694],[10.5093,4.4678],[10.5195,4.4625],[10.53,4.4551],[10.5384,4.4479],[10.5503,4.4397],[10.5905,4.4337],[10.6031,4.4376],[10.6177,4.444],[10.6577,4.482],[10.6738,4.4892],[10.6872,4.5004],[10.6905,4.5058],[10.6967,4.5141],[10.7069,4.5228],[10.7145,4.5193],[10.7182,4.5122],[10.7206,4.5001],[10.728,4.4916],[10.7445,4.4847],[10.7741,4.5142],[10.7859,4.5396],[10.7966,4.5912],[10.8014,4.6064],[10.8109,4.6159],[10.8219,4.6215],[10.8345,4.6224],[10.8468,4.6199],[10.8579,4.6156],[10.8686,4.6142],[10.8768,4.6167],[10.8956,4.6252],[10.9063,4.6266],[10.9152,4.6262],[10.924,4.6206],[10.9279,4.5922],[10.9218,4.4991],[10.9547,4.4147],[11.0039,4.3318],[11.1076,4.2384],[11.1116,4.2325],[11.1212,4.219],[11.0973,4.1977],[11.0667,4.1766],[11.0578,4.1717],[11.05,4.1687],[10.9963,4.1552],[10.9839,4.1481],[10.9712,4.135],[10.9543,4.1389],[10.9151,4.1201],[10.8692,4.1107],[10.8333,4.0924],[10.8135,4.0866],[10.7903,4.088],[10.7794,4.0866],[10.7718,4.0834],[10.7665,4.0793],[10.76,4.0757],[10.749,4.0742],[10.7428,4.0719],[10.7295,4.0622],[10.7213,4.0599],[10.713,4.0469],[10.7018,4.0287],[10.6927,4.0084],[10.6695,3.9704],[10.6594,3.9497],[10.6534,3.9318],[10.6539,3.9193],[10.6594,3.8933],[10.6607,3.8795],[10.6605,3.8707],[10.6501,3.832],[10.6529,3.8058],[10.6425,3.7755],[10.6352,3.763],[10.627,3.752],[10.6164,3.7441],[10.6059,3.7409],[10.5947,3.7448],[10.5859,3.7535],[10.5687,3.7768],[10.5575,3.7878],[10.5437,3.7967],[10.5102,3.8055],[10.5005,3.8089],[10.4937,3.8133],[10.4846,3.8214],[10.4773,3.8291],[10.4643,3.8406],[10.409,3.8141],[10.3859,3.7918],[10.3742,3.7675],[10.3708,3.7554],[10.3642,3.7086],[10.3429,3.6533],[10.3381,3.6368],[10.334,3.5895],[10.3303,3.5849],[10.3275,3.5818],[10.3238,3.579],[10.3146,3.5734],[10.2895,3.5514],[10.2844,3.5484],[10.2775,3.5457],[10.2749,3.5449],[10.2709,3.5445],[10.2679,3.5445],[10.2628,3.5451],[10.258,3.5468],[10.2541,3.5487],[10.2476,3.5544],[10.2405,3.574],[10.2239,3.5869],[10.2051,3.5985],[10.1907,3.6041],[10.1882,3.6028],[10.1863,3.6014],[10.1801,3.5947],[10.1772,3.5926],[10.1749,3.5916],[10.1706,3.5902],[10.1477,3.5868],[10.1416,3.5852],[10.1351,3.5827],[10.1314,3.5806],[10.1286,3.5784],[10.1226,3.572],[10.1168,3.5646],[10.1132,3.5591],[10.1098,3.5519],[10.0951,3.5307],[10.0881,3.523],[10.0706,3.5086],[10.0673,3.5053],[10.0652,3.5017],[10.0614,3.4847],[10.0605,3.4645],[10.0614,3.4522],[10.0655,3.4378],[10.0656,3.435],[10.0655,3.4314],[10.0634,3.4276],[10.0608,3.4241],[10.0516,3.4145],[10.0501,3.4115],[10.0499,3.4072],[10.0511,3.397],[10.0508,3.392],[10.0499,3.3888],[10.0488,3.3863],[10.0249,3.3437],[10.0212,3.3387],[10.0147,3.3337],[9.9891,3.3179],[9.9781,3.3085],[9.9683,3.2987],[9.959,3.2868],[9.9528,3.2808],[9.9466,3.2764],[9.9297,3.2691],[9.9295,3.269]]]]}},{"type":"Feature","properties":{"id":"CMR-1483","name":"Nord","nameBn":"নর্থ","type":"Province","bounds":[12.2193,7.024,15.5629,10.2266],"center":[13.8908,8.9098]},"geometry":{"type":"Polygon","coordinates":[[[14.1963,9.9791],[14.1817,9.9782],[14.1735,9.975],[14.1712,9.9676],[14.1706,9.9578],[14.1684,9.9477],[14.1198,9.852],[14.0885,9.8096],[14.0067,9.7393],[13.9459,9.6526],[13.9476,9.6378],[14.0365,9.5688],[14.3213,9.2432],[14.3311,9.2002],[14.3495,9.1684],[14.5717,8.991],[14.7939,8.8136],[14.8099,8.8086],[14.8192,8.8116],[14.828,8.8132],[14.8367,8.813],[14.846,8.811],[14.8599,8.8033],[14.8994,8.7743],[14.9083,8.7648],[14.9133,8.7524],[14.9199,8.7477],[14.9273,8.7451],[14.9344,8.739],[14.9401,8.7296],[14.9491,8.7043],[14.9515,8.6921],[14.9515,8.6828],[14.9551,8.6762],[14.9685,8.6722],[15.0058,8.6666],[15.0313,8.6587],[15.0519,8.6438],[15.0686,8.6239],[15.1107,8.5551],[15.1685,8.4986],[15.1837,8.4791],[15.2107,8.4218],[15.3453,8.136],[15.4065,7.9216],[15.4407,7.8394],[15.4879,7.805],[15.5094,7.804],[15.5408,7.7968],[15.5629,7.7924],[15.5622,7.6902],[15.549,7.6308],[15.522,7.5761],[15.481,7.5233],[15.4733,7.5091],[15.4195,7.4366],[15.4155,7.4208],[15.435,7.4029],[15.4328,7.3897],[15.4284,7.3888],[15.4096,7.3877],[15.4032,7.3864],[15.3974,7.3807],[15.3892,7.3642],[15.3853,7.3584],[15.3382,7.3222],[15.2613,7.2792],[15.2466,7.2667],[15.2462,7.2669],[15.244,7.2684],[15.2356,7.2712],[15.2243,7.2735],[15.2109,7.2723],[15.1947,7.2667],[15.1726,7.2535],[15.1105,7.1997],[15.0967,7.1911],[15.0812,7.1857],[15.0583,7.1832],[15.0426,7.1831],[15.0265,7.1806],[15.0106,7.1757],[14.8022,7.0849],[14.7281,7.0395],[14.7159,7.0336],[14.7035,7.0288],[14.6919,7.0257],[14.6807,7.024],[14.669,7.0248],[14.6571,7.028],[14.6436,7.0365],[14.6363,7.0424],[14.6215,7.0648],[14.5597,7.0772],[14.5349,7.1131],[14.529,7.1262],[14.5195,7.142],[14.5082,7.1547],[14.4924,7.1645],[14.4785,7.1691],[14.4652,7.1708],[14.3931,7.164],[14.3682,7.1648],[14.3561,7.1672],[14.3451,7.173],[14.337,7.1825],[14.335,7.1977],[14.3384,7.2111],[14.3404,7.2237],[14.337,7.2784],[14.3215,7.3106],[14.3071,7.3227],[14.2948,7.3298],[14.2771,7.3435],[14.2238,7.4003],[14.2045,7.4329],[14.2025,7.4492],[14.1964,7.4574],[14.1857,7.468],[14.1443,7.4999],[14.1385,7.5061],[14.133,7.5144],[14.1286,7.5253],[14.1206,7.5615],[14.1134,7.5692],[14.1038,7.5738],[13.9297,7.5924],[13.9035,7.599],[13.8926,7.608],[13.885,7.6168],[13.8836,7.6607],[13.8716,7.6729],[13.8594,7.675],[13.8369,7.6735],[13.7227,7.6475],[13.7106,7.6464],[13.6992,7.6475],[13.6748,7.656],[13.6605,7.657],[13.6425,7.6532],[13.6287,7.6473],[13.6045,7.6329],[13.5933,7.6276],[13.5576,7.6147],[13.5477,7.608],[13.5348,7.5943],[13.5247,7.5897],[13.5112,7.5924],[13.4586,7.6268],[13.4364,7.6362],[13.4195,7.6455],[13.4026,7.6604],[13.3927,7.6725],[13.3652,7.6931],[13.2949,7.708],[13.2842,7.7015],[13.277,7.6908],[13.2668,7.6798],[13.2637,7.6716],[13.2615,7.6588],[13.2589,7.6193],[13.252,7.6076],[13.1994,7.6103],[13.1711,7.6062],[13.1478,7.5994],[13.1253,7.5953],[13.1113,7.5959],[13.096,7.6],[13.0105,7.6452],[12.9959,7.6492],[12.8357,7.6727],[12.7549,7.6961],[12.7383,7.7115],[12.7133,7.7237],[12.7032,7.725],[12.6902,7.7284],[12.6661,7.7375],[12.6539,7.7444],[12.6443,7.7548],[12.6374,7.7712],[12.6362,7.8016],[12.6331,7.8241],[12.6362,7.8346],[12.6426,7.8429],[12.6478,7.8528],[12.6491,7.8628],[12.6463,7.8737],[12.6255,7.9074],[12.6163,7.9176],[12.6007,7.9222],[12.587,7.9237],[12.5491,7.9246],[12.5244,7.9288],[12.5024,7.9352],[12.4785,7.9476],[12.2877,8.1197],[12.2456,8.1773],[12.2337,8.1885],[12.2368,8.197],[12.2377,8.2169],[12.2218,8.2977],[12.2193,8.3432],[12.227,8.3863],[12.25,8.4188],[12.2718,8.4278],[12.3102,8.4213],[12.3313,8.4243],[12.3432,8.4327],[12.3512,8.4442],[12.3576,8.4564],[12.3651,8.4666],[12.3952,8.4873],[12.4039,8.4965],[12.4033,8.5242],[12.4005,8.5384],[12.377,8.5951],[12.3688,8.6096],[12.3963,8.6008],[12.4106,8.5985],[12.4244,8.5998],[12.4403,8.6066],[12.4518,8.6147],[12.4643,8.6212],[12.4825,8.6232],[12.4955,8.6196],[12.5278,8.6049],[12.5426,8.602],[12.558,8.6057],[12.6604,8.6593],[12.6782,8.6787],[12.6928,8.7109],[12.7016,8.7392],[12.7089,8.7509],[12.7202,8.7565],[12.7345,8.7559],[12.7472,8.7536],[12.7596,8.7534],[12.7729,8.7591],[12.7945,8.7886],[12.8057,8.8315],[12.8282,9.02],[12.821,9.0564],[12.8221,9.0968],[12.8422,9.1444],[12.8884,9.2267],[12.8946,9.244],[12.8984,9.2624],[12.8993,9.302],[12.8913,9.332],[12.8816,9.3522],[12.8531,9.3566],[12.8484,9.3599],[12.8554,9.3781],[12.862,9.3829],[12.9207,9.4105],[12.929,9.4161],[12.9401,9.4271],[12.969,9.4641],[12.9824,9.4746],[13.0517,9.5045],[13.1303,9.5165],[13.1955,9.5422],[13.2235,9.6131],[13.2284,9.6779],[13.2413,9.7453],[13.2511,9.7692],[13.2605,9.7857],[13.2629,9.8017],[13.252,9.8242],[13.2229,9.8541],[13.2127,9.8701],[13.2111,9.8928],[13.2187,9.913],[13.2423,9.9498],[13.2464,9.9735],[13.2425,9.9927],[13.2305,10.0254],[13.2302,10.0453],[13.248,10.0794],[13.2813,10.0921],[13.3598,10.1005],[13.3784,10.1086],[13.3927,10.117],[13.3959,10.1104],[13.4161,10.0768],[13.4254,10.0691],[13.4374,10.0631],[13.4499,10.0632],[13.4983,10.078],[13.5349,10.0776],[13.5547,10.075],[13.5695,10.0796],[13.593,10.0907],[13.6569,10.1115],[13.6693,10.1188],[13.6741,10.129],[13.6696,10.1397],[13.6544,10.1617],[13.6501,10.1725],[13.6504,10.1833],[13.6551,10.1953],[13.6636,10.207],[13.6805,10.2209],[13.6952,10.2253],[13.71,10.2266],[13.7731,10.214],[13.8124,10.2095],[13.8537,10.2142],[13.874,10.2128],[13.928,10.202],[13.9604,10.1916],[13.9744,10.1827],[13.9991,10.146],[14.0031,10.1421],[14.035,10.1198],[14.0556,10.0927],[14.0855,10.0855],[14.1013,10.0856],[14.1938,10.0586],[14.2037,10.0428],[14.1947,9.9817],[14.1962,9.9793],[14.1963,9.9791]]]}},{"type":"Feature","properties":{"id":"CMR-1477","name":"Nord-Ouest","nameBn":"নর্থওয়েস্ট","type":"Province","bounds":[9.5918,5.7234,11.2086,7.1308],"center":[10.4002,6.3455]},"geometry":{"type":"Polygon","coordinates":[[[9.694,6.5343],[9.7698,6.7737],[9.7885,6.7948],[9.8123,6.793],[9.8317,6.7836],[9.8512,6.7779],[9.8746,6.7877],[10.1195,6.9944],[10.1429,7.0077],[10.1569,7.0047],[10.165,6.9885],[10.1794,6.9149],[10.1898,6.8954],[10.2108,6.8792],[10.2384,6.871],[10.496,6.8747],[10.4966,6.8972],[10.5007,6.9128],[10.5089,6.9263],[10.5212,6.9428],[10.5275,6.9475],[10.5332,6.9488],[10.5374,6.9521],[10.5433,7.0287],[10.5518,7.0663],[10.5642,7.1027],[10.5787,7.1308],[10.5972,7.1073],[10.6025,7.0581],[10.6206,7.0438],[10.647,7.0351],[10.7169,6.9981],[10.7991,6.9673],[10.8319,6.9452],[10.8482,6.9053],[10.8574,6.8598],[10.8775,6.8161],[10.9094,6.7843],[11.0026,6.7673],[11.0367,6.7405],[11.0559,6.7004],[11.059,6.6527],[11.0574,6.613],[11.0606,6.574],[11.0774,6.4967],[11.0971,6.4491],[11.1135,6.434],[11.1404,6.4303],[11.2023,6.4367],[11.2086,6.3851],[11.2074,6.3572],[11.1968,6.3139],[11.1877,6.2909],[11.1495,6.2534],[11.1366,6.2459],[11.1175,6.2377],[11.1037,6.2359],[11.0911,6.2358],[11.0113,6.2445],[11.0044,6.2211],[11.0104,6.1742],[10.9962,6.1102],[10.9887,6.0954],[10.9793,6.0838],[10.9681,6.0742],[10.9215,6.0489],[10.8765,6.0337],[10.8545,6.0306],[10.8377,6.0075],[10.7942,6.0181],[10.7235,6.0312],[10.7097,6.029],[10.6934,6.0237],[10.6874,6.0165],[10.6826,6.0064],[10.6438,5.9121],[10.6025,5.8452],[10.5936,5.8397],[10.5712,5.8319],[10.5179,5.8363],[10.5001,5.8357],[10.3239,5.8034],[10.3078,5.7428],[10.2991,5.7324],[10.2878,5.7234],[10.2779,5.726],[10.2706,5.7342],[10.2655,5.7445],[10.2588,5.7551],[10.2496,5.7629],[10.2389,5.7674],[10.1911,5.7801],[10.1756,5.7823],[10.1652,5.7797],[10.157,5.7757],[10.0957,5.7284],[10.0648,5.7393],[10.0146,5.7501],[9.9764,5.7634],[9.9197,5.7333],[9.8574,5.7624],[9.7982,5.7803],[9.7689,5.7954],[9.7565,5.8081],[9.7473,5.8198],[9.7393,5.8375],[9.7337,5.8436],[9.7236,5.8478],[9.6975,5.8425],[9.6746,5.8492],[9.6496,5.8831],[9.6389,5.8942],[9.6283,5.9002],[9.6173,5.9048],[9.6087,5.9136],[9.6052,5.9274],[9.6164,5.9774],[9.6063,5.9913],[9.5994,5.9973],[9.5979,5.9989],[9.5968,5.9998],[9.5962,6.001],[9.5948,6.0034],[9.5918,6.0102],[9.5963,6.0231],[9.6095,6.0393],[9.7071,6.1],[9.7308,6.1293],[9.7518,6.1352],[9.7608,6.1312],[9.7723,6.1293],[9.7826,6.1328],[9.7899,6.1442],[9.7956,6.1614],[9.7945,6.1932],[9.8006,6.2146],[9.8057,6.2658],[9.757,6.4214],[9.7469,6.4412],[9.734,6.4826],[9.7088,6.5215],[9.694,6.5343]]]}},{"type":"Feature","properties":{"id":"CMR-798","name":"Ouest","nameBn":"ওয়েস্ট","type":"Province","bounds":[9.8634,4.8951,11.3144,6.2909],"center":[10.5889,5.3669]},"geometry":{"type":"Polygon","coordinates":[[[11.0911,6.2358],[11.1037,6.2359],[11.1175,6.2377],[11.1366,6.2459],[11.1495,6.2534],[11.1877,6.2909],[11.2673,6.2716],[11.2807,6.2646],[11.2958,6.2539],[11.2992,6.2433],[11.2982,6.2325],[11.288,6.2098],[11.2854,6.1982],[11.2831,6.1757],[11.2851,6.1585],[11.2904,6.1358],[11.307,6.0935],[11.3123,6.0709],[11.3126,6.0536],[11.2967,6.0128],[11.2917,5.9929],[11.2754,5.9813],[11.266,5.971],[11.2779,5.9643],[11.2801,5.9494],[11.2737,5.9335],[11.2592,5.9238],[11.2638,5.9135],[11.2644,5.894],[11.266,5.8828],[11.2694,5.8771],[11.2742,5.8721],[11.2784,5.8648],[11.2803,5.8518],[11.2782,5.8392],[11.2747,5.8293],[11.274,5.8194],[11.2803,5.8071],[11.2897,5.8036],[11.301,5.8057],[11.3105,5.8043],[11.3144,5.7901],[11.3112,5.7842],[11.2971,5.7776],[11.2783,5.7402],[11.2728,5.7321],[11.2657,5.728],[11.2566,5.726],[11.2489,5.7228],[11.2419,5.7044],[11.2329,5.6957],[11.2108,5.6836],[11.219,5.6702],[11.2114,5.6543],[11.1984,5.6375],[11.1903,5.6222],[11.1939,5.6111],[11.1942,5.6041],[11.1962,5.5996],[11.206,5.5826],[11.2078,5.5779],[11.2103,5.5669],[11.2115,5.5308],[11.2097,5.5141],[11.2005,5.4857],[11.197,5.4777],[11.1926,5.471],[11.1897,5.4676],[11.1774,5.4498],[11.1909,5.4312],[11.1911,5.4265],[11.1897,5.4198],[11.1866,5.4135],[11.183,5.4026],[11.1803,5.398],[11.1765,5.3948],[11.1619,5.3895],[11.1597,5.3883],[11.1343,5.3469],[11.129,5.3408],[11.1248,5.3389],[11.1194,5.3379],[11.1132,5.3372],[11.106,5.3348],[11.0978,5.3305],[11.0859,5.3197],[11.0812,5.3118],[11.0786,5.3043],[11.0786,5.2917],[11.0823,5.2695],[11.0823,5.2631],[11.075,5.2347],[11.0741,5.2265],[11.0747,5.2149],[11.0775,5.2069],[11.0821,5.1947],[11.0612,5.1876],[11.0347,5.1751],[11.0178,5.1621],[11.003,5.1438],[10.9971,5.1297],[10.9935,5.1167],[10.99,5.0934],[10.9805,5.0592],[10.9593,5.0038],[10.9574,4.9958],[10.946,4.9694],[10.9361,4.9611],[10.9249,4.9565],[10.9006,4.9563],[10.8793,4.9586],[10.866,4.9623],[10.8236,5.0032],[10.8117,5.0107],[10.7974,5.0158],[10.7874,5.013],[10.7795,5.0058],[10.7764,5.0021],[10.775,4.9995],[10.7739,4.9967],[10.7708,4.9898],[10.7653,4.9808],[10.7555,4.9719],[10.7453,4.9653],[10.6076,4.8994],[10.5919,4.896],[10.578,4.8951],[10.5036,4.9084],[10.4849,4.9165],[10.4763,4.9238],[10.4672,4.9352],[10.4445,4.9438],[10.4333,4.9554],[10.4155,5.0026],[10.4068,5.0209],[10.3956,5.0375],[10.3874,5.0727],[10.3744,5.089],[10.3473,5.0859],[10.3357,5.0833],[10.314,5.0759],[10.3033,5.074],[10.2925,5.0762],[10.2816,5.08],[10.2703,5.0821],[10.2602,5.0797],[10.2506,5.0634],[10.2458,5.0498],[10.2393,5.0361],[10.2257,5.0244],[10.1887,4.999],[10.1837,4.9912],[10.1766,4.9822],[10.1514,4.9286],[10.1415,4.9278],[10.1376,4.9266],[10.1309,4.9256],[10.1285,4.9255],[10.1246,4.9258],[10.1196,4.9269],[10.1115,4.937],[10.105,4.9692],[10.091,4.9834],[10.0865,4.9861],[10.0779,4.9928],[10.0732,4.9988],[10.072,5.0008],[10.0687,5.0124],[10.0645,5.0381],[10.0621,5.0463],[10.058,5.0518],[10.0205,5.0724],[10.016,5.0785],[10.0115,5.0873],[10.0049,5.1063],[9.9978,5.1191],[9.9961,5.1239],[9.995,5.1283],[10.0054,5.1515],[10.004,5.1926],[9.9903,5.2188],[9.9874,5.2346],[9.9838,5.2423],[9.9768,5.2512],[9.9441,5.2744],[9.9306,5.2796],[9.9197,5.2783],[9.9095,5.2718],[9.9004,5.2644],[9.8899,5.2607],[9.8794,5.2618],[9.8634,5.2837],[9.8704,5.3571],[9.9084,5.3859],[9.95,5.4894],[9.9551,5.5067],[9.9596,5.5508],[9.9688,5.5668],[9.9851,5.5863],[10.0634,5.6541],[10.1079,5.6707],[10.1117,5.6818],[10.1126,5.6894],[10.0957,5.7284],[10.157,5.7757],[10.1652,5.7797],[10.1756,5.7823],[10.1911,5.7801],[10.2389,5.7674],[10.2496,5.7629],[10.2588,5.7551],[10.2655,5.7445],[10.2706,5.7342],[10.2779,5.726],[10.2878,5.7234],[10.2991,5.7324],[10.3078,5.7428],[10.3239,5.8034],[10.5001,5.8357],[10.5179,5.8363],[10.5712,5.8319],[10.5936,5.8397],[10.6025,5.8452],[10.6438,5.9121],[10.6826,6.0064],[10.6874,6.0165],[10.6934,6.0237],[10.7097,6.029],[10.7235,6.0312],[10.7942,6.0181],[10.8377,6.0075],[10.8545,6.0306],[10.8765,6.0337],[10.9215,6.0489],[10.9681,6.0742],[10.9793,6.0838],[10.9887,6.0954],[10.9962,6.1102],[11.0104,6.1742],[11.0044,6.2211],[11.0113,6.2445],[11.0911,6.2358]]]}},{"type":"Feature","properties":{"id":"CMR-803","name":"Sud","nameBn":"দক্ষিন/সাউথ","type":"Province","bounds":[9.7996,2.1578,13.6623,3.6657],"center":[11.731,2.7926]},"geometry":{"type":"Polygon","coordinates":[[[11.7681,2.2802],[11.7528,2.2819],[11.7014,2.2987],[11.681,2.3154],[11.6712,2.321],[11.6573,2.3225],[11.6446,2.3197],[11.6186,2.3104],[11.3516,2.3006],[11.3498,2.2915],[11.3543,2.2785],[11.356,2.2652],[11.35,2.2511],[11.3422,2.2406],[11.3359,2.2292],[11.3342,2.2128],[11.3342,2.2003],[11.3324,2.188],[11.3285,2.1763],[11.3221,2.1658],[11.023,2.1657],[10.7238,2.1657],[10.4247,2.1657],[10.4097,2.1657],[10.19,2.1656],[10.1256,2.1656],[9.991,2.1656],[9.9707,2.1689],[9.9075,2.2005],[9.8901,2.2046],[9.8721,2.2112],[9.8468,2.2285],[9.8237,2.249],[9.8109,2.2649],[9.8087,2.2855],[9.8119,2.3062],[9.8111,2.3249],[9.7996,2.3417],[9.8122,2.3536],[9.8122,2.3598],[9.8192,2.3769],[9.8229,2.5629],[9.8532,2.697],[9.8705,2.7381],[9.8743,2.7545],[9.8778,2.8814],[9.888,2.9269],[9.9033,2.9683],[9.922,2.9973],[9.9434,3.0231],[9.9557,3.0505],[9.958,3.0822],[9.9197,3.2281],[9.9021,3.2517],[9.9021,3.258],[9.9116,3.2577],[9.918,3.2595],[9.9295,3.2648],[9.9295,3.269],[9.9297,3.2691],[9.9466,3.2764],[9.9528,3.2808],[9.959,3.2868],[9.9683,3.2987],[9.9781,3.3085],[9.9891,3.3179],[10.0147,3.3337],[10.0212,3.3387],[10.0249,3.3437],[10.0488,3.3863],[10.0499,3.3888],[10.0508,3.392],[10.0511,3.397],[10.0499,3.4072],[10.0501,3.4115],[10.0516,3.4145],[10.0608,3.4241],[10.0634,3.4276],[10.0655,3.4314],[10.0656,3.435],[10.0655,3.4378],[10.0614,3.4522],[10.0605,3.4645],[10.0614,3.4847],[10.0652,3.5017],[10.0673,3.5053],[10.0706,3.5086],[10.0881,3.523],[10.0951,3.5307],[10.1098,3.5519],[10.1132,3.5591],[10.1168,3.5646],[10.1226,3.572],[10.1286,3.5784],[10.1314,3.5806],[10.1351,3.5827],[10.1416,3.5852],[10.1477,3.5868],[10.1706,3.5902],[10.1749,3.5916],[10.1772,3.5926],[10.1801,3.5947],[10.1863,3.6014],[10.1882,3.6028],[10.1907,3.6041],[10.2051,3.5985],[10.2239,3.5869],[10.2405,3.574],[10.2476,3.5544],[10.2386,3.5223],[10.2886,3.3579],[10.2956,3.3546],[10.3744,3.3671],[10.6892,3.4598],[10.7151,3.4673],[10.7801,3.4812],[10.8021,3.4814],[10.8202,3.4788],[10.8283,3.473],[10.8329,3.4654],[10.8386,3.4445],[10.8425,3.4214],[10.8478,3.4163],[10.8897,3.4185],[10.9372,3.4258],[10.9599,3.4214],[10.9745,3.4156],[10.9831,3.41],[10.9949,3.4107],[11.0261,3.4159],[11.0371,3.4156],[11.05,3.4065],[11.0797,3.3695],[11.0901,3.344],[11.1068,3.2693],[11.1176,3.2542],[11.1286,3.2459],[11.1391,3.2425],[11.1479,3.2368],[11.153,3.2262],[11.1575,3.1973],[11.163,3.1878],[11.1751,3.1781],[11.2173,3.1344],[11.2547,3.1409],[11.282,3.1439],[11.3239,3.136],[11.3403,3.1374],[11.3818,3.1466],[11.5377,3.1454],[11.5607,3.1477],[11.6091,3.1629],[11.6838,3.1987],[11.6946,3.2067],[11.7093,3.2439],[11.7172,3.2715],[11.7495,3.3292],[11.7601,3.3386],[11.7819,3.3452],[11.794,3.3518],[11.8139,3.3658],[11.8594,3.3899],[11.867,3.4001],[11.8993,3.462],[11.9176,3.4533],[11.9348,3.4402],[11.9698,3.4322],[11.9828,3.4263],[12.0052,3.4103],[12.1181,3.3561],[12.1326,3.346],[12.1341,3.3379],[12.1289,3.3257],[12.1274,3.3232],[12.1239,3.3162],[12.1261,3.3048],[12.1378,3.3014],[12.1548,3.3032],[12.2031,3.3174],[12.2228,3.3297],[12.2571,3.4573],[12.2695,3.4784],[12.3043,3.5146],[12.4107,3.6001],[12.4664,3.6592],[12.4785,3.6652],[12.4892,3.6657],[12.4975,3.6615],[12.5026,3.657],[12.5091,3.6484],[12.5332,3.6008],[12.5538,3.5748],[12.5694,3.5584],[12.5515,3.4382],[12.5525,3.4297],[12.5547,3.4215],[12.5594,3.4106],[12.571,3.391],[12.6027,3.3501],[12.6728,3.2839],[12.6986,3.2516],[12.7356,3.1875],[12.7516,3.1432],[12.761,3.0937],[12.7641,2.9811],[12.7672,2.9686],[12.7972,2.9256],[12.802,2.9229],[12.8215,2.9154],[12.8285,2.9102],[12.8314,2.9058],[12.8353,2.9028],[12.8585,2.9001],[12.8764,2.8918],[12.8904,2.888],[12.9234,2.8866],[12.938,2.8836],[12.9518,2.8738],[12.9713,2.8916],[12.9723,2.8949],[12.98,2.8893],[12.997,2.8714],[13.0033,2.8706],[13.016,2.8715],[13.0609,2.8592],[13.0753,2.8533],[13.0799,2.8605],[13.0868,2.8665],[13.093,2.8668],[13.0989,2.8483],[13.1057,2.8458],[13.1126,2.8491],[13.1157,2.857],[13.1217,2.8677],[13.1357,2.8714],[13.1518,2.8688],[13.1641,2.8607],[13.1729,2.8645],[13.1777,2.8659],[13.1825,2.8647],[13.1914,2.8607],[13.2031,2.8718],[13.2177,2.8675],[13.2277,2.8548],[13.2255,2.8402],[13.2499,2.8311],[13.2571,2.8238],[13.2624,2.7988],[13.2698,2.7933],[13.2806,2.7914],[13.2938,2.7919],[13.2865,2.8021],[13.2746,2.8323],[13.2733,2.8402],[13.2825,2.8523],[13.2922,2.851],[13.3019,2.8443],[13.3115,2.8402],[13.3304,2.8167],[13.3388,2.8123],[13.3533,2.8117],[13.3603,2.8126],[13.3633,2.8157],[13.3666,2.8274],[13.3737,2.8247],[13.3806,2.8167],[13.3832,2.8123],[13.4207,2.7896],[13.4316,2.7856],[13.49,2.7856],[13.5046,2.7904],[13.5065,2.8021],[13.4999,2.8297],[13.504,2.8432],[13.5143,2.8424],[13.5278,2.836],[13.5415,2.8328],[13.5311,2.8489],[13.5323,2.8554],[13.5477,2.8607],[13.5858,2.8915],[13.5968,2.898],[13.6099,2.9018],[13.6209,2.9063],[13.6304,2.8445],[13.662,2.1606],[13.6622,2.158],[13.6623,2.1578],[13.6203,2.1581],[13.4665,2.1595],[13.2946,2.1611],[13.2943,2.1858],[13.2984,2.2158],[13.2942,2.2305],[13.2846,2.2422],[13.2697,2.2557],[13.2542,2.2669],[13.2429,2.2715],[13.236,2.2699],[13.2216,2.2639],[13.2123,2.264],[13.2057,2.2669],[13.1917,2.2777],[13.1638,2.2832],[13.1333,2.2845],[13.1247,2.2811],[13.1131,2.2727],[13.093,2.2535],[13.0835,2.2495],[13.0409,2.2442],[13.0129,2.2563],[12.9969,2.26],[12.9832,2.2535],[12.9722,2.2504],[12.9548,2.2532],[12.9248,2.264],[12.9145,2.2545],[12.9032,2.2504],[12.8905,2.2514],[12.8764,2.2572],[12.8678,2.245],[12.8481,2.2493],[12.8252,2.2592],[12.8082,2.264],[12.7956,2.2588],[12.7841,2.2495],[12.7702,2.2407],[12.7499,2.2367],[12.6146,2.2569],[12.5907,2.2657],[12.5748,2.2777],[12.5515,2.2723],[12.5342,2.2777],[12.4784,2.2959],[12.4399,2.2985],[12.3849,2.2859],[12.3668,2.2896],[12.334,2.3096],[12.3216,2.3141],[12.3121,2.3129],[12.2912,2.3018],[12.2808,2.299],[12.261,2.2962],[12.2226,2.2833],[12.2026,2.2796],[12.1592,2.2814],[12.1188,2.2878],[12.1007,2.2885],[12.0419,2.284],[11.9662,2.2887],[11.8898,2.2821],[11.8022,2.2848],[11.7681,2.2802]]]}},{"type":"Feature","properties":{"id":"CMR-799","name":"Sud-Ouest","nameBn":"সাউথওয়েস্ট","type":"Province","bounds":[8.5051,3.9219,10.1126,6.5343],"center":[9.2448,5.1282]},"geometry":{"type":"Polygon","coordinates":[[[9.6448,6.5212],[9.6805,6.5214],[9.693,6.5313],[9.694,6.5343],[9.7088,6.5215],[9.734,6.4826],[9.7469,6.4412],[9.757,6.4214],[9.8057,6.2658],[9.8006,6.2146],[9.7945,6.1932],[9.7956,6.1614],[9.7899,6.1442],[9.7826,6.1328],[9.7723,6.1293],[9.7608,6.1312],[9.7518,6.1352],[9.7308,6.1293],[9.7071,6.1],[9.6095,6.0393],[9.5963,6.0231],[9.5918,6.0102],[9.5948,6.0034],[9.5962,6.001],[9.5968,5.9998],[9.5979,5.9989],[9.5994,5.9973],[9.6063,5.9913],[9.6164,5.9774],[9.6052,5.9274],[9.6087,5.9136],[9.6173,5.9048],[9.6283,5.9002],[9.6389,5.8942],[9.6496,5.8831],[9.6746,5.8492],[9.6975,5.8425],[9.7236,5.8478],[9.7337,5.8436],[9.7393,5.8375],[9.7473,5.8198],[9.7565,5.8081],[9.7689,5.7954],[9.7982,5.7803],[9.8574,5.7624],[9.9197,5.7333],[9.9764,5.7634],[10.0146,5.7501],[10.0648,5.7393],[10.0957,5.7284],[10.1126,5.6894],[10.1117,5.6818],[10.1079,5.6707],[10.0634,5.6541],[9.9851,5.5863],[9.9688,5.5668],[9.9596,5.5508],[9.9551,5.5067],[9.95,5.4894],[9.9084,5.3859],[9.8704,5.3571],[9.8366,5.3494],[9.8012,5.3076],[9.7894,5.3008],[9.7774,5.299],[9.7669,5.299],[9.7584,5.2971],[9.7542,5.2886],[9.7545,5.2785],[9.7625,5.2411],[9.779,5.2007],[9.817,5.1544],[9.8308,5.1305],[9.8501,5.0878],[9.8532,5.0696],[9.8428,5.0576],[9.808,5.0508],[9.791,5.0303],[9.7779,4.9998],[9.7701,4.9748],[9.767,4.9606],[9.774,4.9472],[9.7962,4.9237],[9.7944,4.9125],[9.7877,4.9024],[9.7774,4.8928],[9.7591,4.8686],[9.7267,4.8387],[9.7164,4.8231],[9.7121,4.8076],[9.7105,4.7964],[9.7104,4.7704],[9.7,4.747],[9.6733,4.7256],[9.6454,4.6851],[9.6387,4.6515],[9.6316,4.6427],[9.6223,4.6393],[9.6141,4.6387],[9.6012,4.642],[9.5779,4.6413],[9.5701,4.6345],[9.5544,4.6122],[9.5222,4.5561],[9.5154,4.5281],[9.5107,4.4709],[9.5126,4.4562],[9.522,4.4288],[9.5165,4.4075],[9.4473,4.2976],[9.4415,4.2692],[9.4395,4.2434],[9.4606,4.2312],[9.5309,4.2185],[9.545,4.2091],[9.5529,4.1987],[9.5613,4.1758],[9.5621,4.1653],[9.5562,4.1574],[9.543,4.1456],[9.5361,4.1362],[9.5251,4.1159],[9.5166,4.1082],[9.5095,4.1042],[9.503,4.1024],[9.5028,4.1023],[9.4901,4.1159],[9.4785,4.1114],[9.4504,4.0803],[9.4529,4.077],[9.4497,4.0728],[9.41,4.0075],[9.3995,3.9828],[9.3974,3.9728],[9.3954,3.9685],[9.3923,3.9657],[9.3827,3.9627],[9.3645,3.9523],[9.3318,3.9222],[9.3317,3.922],[9.3316,3.9219],[9.3137,3.9309],[9.3026,3.965],[9.3076,4.0019],[9.3262,4.0257],[9.3262,4.0319],[9.3014,4.0264],[9.2903,4.0097],[9.2844,3.9923],[9.2503,3.9608],[9.2207,3.966],[9.2107,3.9643],[9.2111,3.9826],[9.2132,3.9966],[9.2106,4.0081],[9.1965,4.0189],[9.1847,4.0209],[9.1665,4.0209],[9.1488,4.019],[9.1387,4.0154],[9.1234,4.0179],[9.0702,4.0514],[8.9834,4.0924],[8.9712,4.1008],[8.9694,4.129],[8.9885,4.1889],[8.991,4.2175],[8.9603,4.2459],[8.9363,4.2795],[8.919,4.3181],[8.8948,4.4605],[8.9001,4.4851],[8.926,4.5296],[8.9357,4.5533],[8.9136,4.5286],[8.9006,4.5216],[8.8948,4.5359],[8.8972,4.548],[8.9015,4.5602],[8.9043,4.5732],[8.9016,4.5874],[8.8938,4.5946],[8.8719,4.6025],[8.8641,4.6187],[8.8563,4.63],[8.847,4.6397],[8.8396,4.6426],[8.8357,4.6296],[8.8667,4.5827],[8.8737,4.56],[8.8678,4.5446],[8.8587,4.5408],[8.8506,4.5474],[8.847,4.5632],[8.7986,4.6011],[8.798,4.5883],[8.7995,4.5778],[8.8042,4.5701],[8.8128,4.5664],[8.7996,4.5422],[8.7952,4.539],[8.7884,4.5414],[8.7686,4.5531],[8.7644,4.5566],[8.757,4.5651],[8.7406,4.5712],[8.7241,4.5805],[8.7166,4.5977],[8.7059,4.6347],[8.6613,4.6988],[8.6551,4.7383],[8.6387,4.7131],[8.6454,4.6841],[8.6605,4.654],[8.6857,4.5612],[8.6948,4.5533],[8.7063,4.5477],[8.7166,4.539],[8.7227,4.5131],[8.7017,4.5013],[8.5767,4.4919],[8.5654,4.4973],[8.5703,4.5097],[8.5827,4.5233],[8.5938,4.5328],[8.5817,4.5385],[8.5706,4.5386],[8.5627,4.5332],[8.5564,4.5117],[8.5483,4.5078],[8.5374,4.5085],[8.5256,4.5117],[8.5103,4.527],[8.5051,4.5509],[8.5099,4.5688],[8.5256,4.5664],[8.5308,4.5793],[8.5521,4.6147],[8.5383,4.6046],[8.5257,4.6044],[8.5161,4.613],[8.5112,4.6291],[8.5137,4.6423],[8.5212,4.656],[8.5386,4.6762],[8.5676,4.696],[8.5733,4.7041],[8.5736,4.7164],[8.5697,4.7283],[8.5676,4.7402],[8.5733,4.7525],[8.5801,4.7451],[8.5765,4.7847],[8.5784,4.8047],[8.59,4.8134],[8.5942,4.8153],[8.5951,4.8153],[8.6122,4.8319],[8.6084,4.8462],[8.6054,4.86],[8.6022,4.8813],[8.611,4.8967],[8.6383,4.9168],[8.6444,4.9349],[8.6837,4.9969],[8.6837,4.997],[8.6986,5.0178],[8.7079,5.0375],[8.7227,5.0812],[8.7289,5.0945],[8.7483,5.1242],[8.7583,5.1349],[8.7695,5.1399],[8.7813,5.142],[8.7917,5.1467],[8.7989,5.1596],[8.8257,5.2955],[8.8247,5.3061],[8.8164,5.3303],[8.8153,5.3435],[8.8217,5.3677],[8.8432,5.41],[8.8498,5.4324],[8.8493,5.4535],[8.8457,5.4728],[8.8443,5.4924],[8.8505,5.514],[8.8655,5.5335],[8.8843,5.5514],[8.8995,5.571],[8.9039,5.5951],[8.8937,5.6218],[8.8749,5.6414],[8.8526,5.6587],[8.8324,5.6782],[8.8193,5.7035],[8.8269,5.7178],[8.8446,5.7309],[8.8622,5.7523],[8.8666,5.7775],[8.8578,5.7949],[8.8471,5.8108],[8.8452,5.831],[8.8559,5.8475],[8.8912,5.8711],[8.9047,5.8881],[8.9217,5.9045],[8.9432,5.9014],[8.965,5.8936],[8.9827,5.8958],[8.9863,5.9088],[8.9885,5.9373],[8.9938,5.9441],[9.0099,5.9524],[9.0225,5.9658],[9.0439,5.9967],[9.0439,5.9968],[9.1362,6.0925],[9.2733,6.2028],[9.2988,6.2384],[9.3274,6.2985],[9.341,6.314],[9.3548,6.3215],[9.3665,6.3227],[9.3791,6.3216],[9.395,6.3225],[9.4229,6.3394],[9.4531,6.3977],[9.4826,6.416],[9.4886,6.4182],[9.5286,6.433],[9.549,6.4432],[9.5648,6.4586],[9.5881,6.5027],[9.603,6.5152],[9.6327,6.5212],[9.6448,6.5212]]]}}]}