{"type":"FeatureCollection","features":[{"type":"Feature","properties":{"id":"COG-2626","name":"Bouenza","nameBn":"বুয়েঞ্জা বিভাগ","type":"Region","bounds":[12.6046,-4.783,14.3773,-3.4558],"center":[13.491,-4.3633]},"geometry":{"type":"Polygon","coordinates":[[[13.8763,-4.4917],[13.8671,-4.4893],[13.8561,-4.4797],[13.8421,-4.4534],[13.8329,-4.4412],[13.8105,-4.4267],[13.79,-4.4246],[13.7265,-4.4467],[13.715,-4.453],[13.711,-4.4645],[13.7218,-4.561],[13.7182,-4.5803],[13.7026,-4.6208],[13.6991,-4.6427],[13.7125,-4.6857],[13.7059,-4.6943],[13.6984,-4.6935],[13.6901,-4.6911],[13.6819,-4.6954],[13.6778,-4.7063],[13.6806,-4.7247],[13.6753,-4.7318],[13.6665,-4.7327],[13.6437,-4.7263],[13.634,-4.7257],[13.6131,-4.7392],[13.5914,-4.7794],[13.5799,-4.783],[13.5798,-4.7827],[13.5789,-4.7791],[13.5744,-4.7498],[13.5724,-4.7423],[13.5687,-4.7348],[13.5625,-4.7269],[13.5523,-4.7188],[13.5353,-4.7081],[13.4963,-4.6891],[13.4235,-4.6393],[13.4155,-4.6366],[13.3997,-4.6336],[13.3927,-4.6295],[13.387,-4.6219],[13.3833,-4.6108],[13.3814,-4.5934],[13.3794,-4.5859],[13.3737,-4.5774],[13.3632,-4.5669],[13.3524,-4.5533],[13.3426,-4.5359],[13.3326,-4.523],[13.3273,-4.5086],[13.3186,-4.4909],[13.276,-4.4315],[13.2546,-4.4119],[13.2401,-4.4036],[13.2233,-4.4026],[13.2079,-4.3968],[13.2004,-4.3958],[13.1927,-4.3955],[13.1853,-4.3931],[13.1701,-4.3865],[13.1626,-4.3862],[13.1481,-4.3875],[13.1409,-4.3865],[13.1334,-4.3834],[13.1266,-4.3792],[13.1193,-4.3772],[13.1119,-4.3777],[13.1039,-4.3795],[13.0964,-4.3799],[13.0802,-4.3771],[13.0642,-4.3776],[13.055,-4.3736],[13.0447,-4.3657],[13.029,-4.3469],[13.0183,-4.3397],[13.0096,-4.3354],[13.0034,-4.3348],[12.999,-4.3334],[12.9888,-4.3195],[12.9178,-4.1803],[12.8833,-4.1295],[12.8643,-4.093],[12.8516,-4.0757],[12.83,-4.0537],[12.7851,-4.0198],[12.7781,-4.0134],[12.7245,-3.9522],[12.6886,-3.8898],[12.666,-3.8602],[12.6586,-3.8533],[12.643,-3.8415],[12.613,-3.8232],[12.6072,-3.8171],[12.6046,-3.8093],[12.6106,-3.7951],[12.6164,-3.7855],[12.6226,-3.7775],[12.6292,-3.773],[12.6363,-3.77],[12.6418,-3.7657],[12.6448,-3.7587],[12.6329,-3.7313],[12.6308,-3.7237],[12.6301,-3.7074],[12.6384,-3.6909],[12.6396,-3.6825],[12.6282,-3.6556],[12.6173,-3.6047],[12.6167,-3.5874],[12.618,-3.5764],[12.6198,-3.5686],[12.6224,-3.562],[12.6311,-3.5499],[12.6569,-3.5282],[12.6601,-3.5331],[12.6722,-3.5308],[12.6922,-3.5215],[12.7012,-3.5194],[12.7236,-3.5245],[12.7181,-3.5499],[12.7393,-3.5598],[12.7794,-3.5577],[12.7959,-3.5623],[12.8076,-3.5809],[12.7939,-3.5877],[12.809,-3.5931],[12.8124,-3.6022],[12.8118,-3.6145],[12.8144,-3.6292],[12.8183,-3.632],[12.8313,-3.6336],[12.8355,-3.6354],[12.838,-3.6409],[12.8394,-3.652],[12.8417,-3.6566],[12.85,-3.666],[12.8544,-3.6731],[12.8695,-3.7185],[12.8775,-3.7284],[12.8901,-3.7317],[12.8835,-3.7509],[12.8796,-3.7555],[12.8748,-3.7629],[12.8791,-3.768],[12.8901,-3.7733],[12.8901,-3.8108],[12.8998,-3.8322],[12.9308,-3.8564],[12.9426,-3.8599],[12.9454,-3.8626],[12.9545,-3.8679],[12.9782,-3.8752],[12.9848,-3.8816],[12.9888,-3.8885],[12.9919,-3.8952],[12.9968,-3.8991],[13.0008,-3.9008],[13.0059,-3.9024],[13.011,-3.9051],[13.0151,-3.9107],[13.0186,-3.9171],[13.0234,-3.9234],[13.0305,-3.9276],[13.0401,-3.9286],[13.0513,-3.928],[13.0695,-3.9246],[13.1215,-3.9198],[13.1293,-3.9201],[13.1374,-3.9214],[13.1615,-3.9298],[13.1736,-3.9278],[13.2178,-3.9127],[13.233,-3.9109],[13.2448,-3.9118],[13.2669,-3.9265],[13.2742,-3.9298],[13.2835,-3.93],[13.3083,-3.9262],[13.3273,-3.93],[13.3344,-3.9308],[13.3404,-3.9263],[13.3468,-3.928],[13.3513,-3.933],[13.3562,-3.9401],[13.3586,-3.9476],[13.3568,-3.9551],[13.3543,-3.9627],[13.353,-3.9703],[13.3537,-3.9781],[13.3704,-4.0261],[13.3747,-4.0333],[13.3809,-4.0393],[13.3879,-4.0426],[13.3954,-4.0444],[13.4107,-4.0456],[13.443,-4.0522],[13.454,-4.0515],[13.471,-4.0481],[13.4858,-4.0435],[13.4984,-4.0378],[13.5025,-4.0349],[13.5078,-4.0288],[13.5128,-4.0206],[13.5208,-3.9833],[13.5212,-3.9758],[13.5206,-3.9604],[13.5212,-3.9528],[13.5257,-3.9438],[13.5338,-3.9336],[13.5603,-3.9069],[13.567,-3.8944],[13.5684,-3.8857],[13.5682,-3.8774],[13.5688,-3.8702],[13.5721,-3.8629],[13.5817,-3.8544],[13.59,-3.845],[13.5978,-3.8318],[13.6002,-3.8256],[13.6,-3.8222],[13.5919,-3.8189],[13.5883,-3.8161],[13.5876,-3.8119],[13.5909,-3.7997],[13.5907,-3.7981],[13.5895,-3.7972],[13.5858,-3.7965],[13.5806,-3.7967],[13.5755,-3.796],[13.5712,-3.7939],[13.5693,-3.789],[13.5679,-3.7725],[13.5681,-3.7702],[13.5687,-3.7681],[13.5718,-3.7659],[13.5768,-3.764],[13.59,-3.7606],[13.5975,-3.761],[13.6043,-3.7624],[13.6087,-3.7646],[13.6136,-3.7662],[13.6201,-3.7658],[13.627,-3.7631],[13.6436,-3.7527],[13.648,-3.7485],[13.648,-3.7384],[13.6495,-3.7343],[13.6584,-3.7316],[13.6659,-3.7307],[13.6728,-3.7311],[13.6882,-3.736],[13.6931,-3.7364],[13.7033,-3.7355],[13.7083,-3.7364],[13.713,-3.736],[13.7172,-3.7331],[13.7186,-3.7244],[13.7182,-3.7112],[13.7192,-3.7051],[13.7247,-3.6971],[13.7313,-3.69],[13.7452,-3.6803],[13.7538,-3.6761],[13.7653,-3.6719],[13.7687,-3.6683],[13.772,-3.6625],[13.7767,-3.6498],[13.7774,-3.6419],[13.7768,-3.6354],[13.7758,-3.6308],[13.7763,-3.6255],[13.7779,-3.6208],[13.7801,-3.6159],[13.7836,-3.6115],[13.7885,-3.6072],[13.7977,-3.6038],[13.805,-3.6024],[13.8222,-3.5895],[13.8603,-3.5384],[13.8959,-3.5586],[13.9054,-3.5605],[13.9335,-3.563],[13.9457,-3.5667],[13.9615,-3.5744],[13.9718,-3.5774],[13.9807,-3.5785],[14.0232,-3.5748],[14.0325,-3.5723],[14.0401,-3.5686],[14.0963,-3.5004],[14.1042,-3.4939],[14.1243,-3.4806],[14.1299,-3.4752],[14.1373,-3.4611],[14.1441,-3.4558],[14.1505,-3.4581],[14.1624,-3.4696],[14.1692,-3.4742],[14.2072,-3.4896],[14.2286,-3.4936],[14.2431,-3.5003],[14.2494,-3.5084],[14.257,-3.515],[14.2623,-3.5225],[14.2712,-3.5388],[14.2783,-3.5486],[14.2831,-3.5567],[14.2846,-3.5642],[14.2843,-3.5786],[14.2893,-3.6015],[14.2929,-3.61],[14.3004,-3.6196],[14.305,-3.627],[14.3075,-3.6323],[14.3033,-3.6336],[14.278,-3.6471],[14.2706,-3.6492],[14.2629,-3.6524],[14.249,-3.669],[14.2395,-3.6765],[14.2248,-3.6784],[14.2148,-3.6747],[14.2105,-3.6753],[14.2128,-3.6907],[14.2395,-3.7391],[14.2611,-3.7641],[14.2941,-3.8176],[14.2942,-3.8355],[14.2969,-3.852],[14.306,-3.8642],[14.3252,-3.8689],[14.344,-3.8788],[14.3552,-3.9023],[14.3645,-3.9298],[14.3773,-3.9514],[14.3651,-3.9554],[14.357,-3.9616],[14.3425,-3.9787],[14.3269,-4.0018],[14.3221,-4.0067],[14.2805,-4.0067],[14.2482,-3.9875],[14.2395,-3.9856],[14.2345,-3.9908],[14.2297,-4.0112],[14.2264,-4.0197],[14.2197,-4.0269],[14.1688,-4.0624],[14.1558,-4.0754],[14.1439,-4.0948],[14.1616,-4.1346],[14.1607,-4.1514],[14.1439,-4.1631],[14.1514,-4.1705],[14.1355,-4.1773],[14.1021,-4.1856],[14.0887,-4.191],[14.0782,-4.199],[14.0484,-4.232],[14.0255,-4.2491],[13.9896,-4.2668],[13.9748,-4.2696],[13.969,-4.2745],[13.9642,-4.2802],[13.9621,-4.2837],[13.9535,-4.3132],[13.9478,-4.3807],[13.9456,-4.3907],[13.9339,-4.4138],[13.9309,-4.4215],[13.9268,-4.4362],[13.9234,-4.4437],[13.913,-4.4607],[13.9054,-4.4894],[13.9054,-4.4901],[13.9044,-4.4898],[13.8763,-4.4917]]]}},{"type":"Feature","properties":{"id":"COG-4855","name":"Brazzaville","nameBn":"ব্রাজাভিল","type":"Region","bounds":[14.956,-4.5201,15.9578,-3.448],"center":[15.3319,-4.0688]},"geometry":{"type":"Polygon","coordinates":[[[15.9578,-3.8151],[15.9431,-3.8407],[15.9361,-3.8485],[15.9303,-3.8586],[15.9121,-3.9174],[15.888,-3.9405],[15.883,-3.9453],[15.8442,-3.9656],[15.8,-3.9788],[15.7551,-3.9856],[15.7112,-3.9922],[15.5668,-4.038],[15.5491,-4.0462],[15.5338,-4.058],[15.5212,-4.0768],[15.4904,-4.1752],[15.485,-4.1839],[15.4629,-4.2071],[15.4589,-4.2138],[15.4503,-4.2173],[15.4254,-4.2302],[15.3866,-4.2443],[15.2753,-4.3004],[15.2557,-4.3131],[15.2284,-4.3249],[15.204,-4.339],[15.1934,-4.3588],[15.188,-4.3722],[15.1507,-4.4252],[15.0979,-4.4999],[15.0761,-4.5201],[15.0436,-4.4795],[15.0197,-4.4317],[14.9919,-4.3999],[14.956,-4.364],[14.9825,-4.32],[15.0263,-4.2643],[15.0462,-4.2165],[15.0701,-4.1568],[15.102,-4.105],[15.1179,-4.0294],[15.1139,-3.9776],[15.094,-3.9139],[15.094,-3.8622],[15.1219,-3.8104],[15.1776,-3.7786],[15.2152,-3.7386],[15.2351,-3.6789],[15.2431,-3.6152],[15.247,-3.5475],[15.255,-3.4838],[15.2749,-3.448],[15.3028,-3.452],[15.3346,-3.4759],[15.3907,-3.4918],[15.4345,-3.5077],[15.4584,-3.5356],[15.4863,-3.5634],[15.5221,-3.6072],[15.5539,-3.6391],[15.5804,-3.6454],[15.6043,-3.6215],[15.6282,-3.5698],[15.6481,-3.534],[15.676,-3.5061],[15.7118,-3.4981],[15.7476,-3.514],[15.8034,-3.534],[15.8295,-3.5672],[15.8614,-3.6189],[15.8853,-3.6667],[15.9012,-3.7105],[15.9052,-3.7463],[15.9211,-3.7702],[15.937,-3.7901],[15.9578,-3.8151]]]}},{"type":"Feature","properties":{"id":"COG-3342","name":"Cuvette","nameBn":"কুবেতে বিভাগ","type":"Region","bounds":[14.3648,-2.0258,17.5459,0.4662],"center":[15.9548,-0.3931]},"geometry":{"type":"Polygon","coordinates":[[[17.5459,-0.7565],[17.4115,-0.9183],[17.3854,-0.9424],[17.365,-0.9672],[17.3573,-0.9735],[17.3304,-0.9866],[17.3277,-0.9917],[17.308,-1.015],[17.2977,-1.0211],[17.2454,-1.0359],[17.1948,-1.043],[17.1754,-1.0483],[17.1087,-1.0756],[17.0605,-1.0892],[17.0287,-1.0945],[17.0226,-1.097],[17.012,-1.1043],[17.0059,-1.1068],[17.0031,-1.1129],[16.9796,-1.1402],[16.9405,-1.1748],[16.9092,-1.2111],[16.8626,-1.2489],[16.8397,-1.2625],[16.8332,-1.269],[16.8287,-1.2763],[16.8178,-1.3042],[16.7947,-1.3455],[16.7793,-1.3824],[16.7627,-1.4059],[16.7255,-1.48],[16.6926,-1.523],[16.6695,-1.5694],[16.656,-1.5903],[16.6553,-1.5903],[16.6234,-1.5903],[16.6006,-1.593],[16.5974,-1.5836],[16.6021,-1.5686],[16.603,-1.5547],[16.5984,-1.5436],[16.5972,-1.5424],[16.5937,-1.5438],[16.5643,-1.5319],[16.5439,-1.5271],[16.5236,-1.5289],[16.5055,-1.5404],[16.4892,-1.5451],[16.4629,-1.5457],[16.4413,-1.5423],[16.439,-1.5346],[16.4352,-1.5293],[16.4182,-1.5239],[16.4043,-1.5147],[16.4104,-1.4984],[16.3681,-1.4964],[16.3433,-1.4735],[16.3114,-1.3853],[16.2898,-1.357],[16.2743,-1.3236],[16.2699,-1.3165],[16.2619,-1.3089],[16.2557,-1.3051],[16.2171,-1.3005],[16.2099,-1.2963],[16.204,-1.2903],[16.0933,-1.2206],[16.0623,-1.2051],[16.0302,-1.1932],[15.966,-1.1869],[15.948,-1.1779],[15.9474,-1.1549],[15.9442,-1.1454],[15.933,-1.1514],[15.9254,-1.1512],[15.9172,-1.1412],[15.903,-1.1198],[15.8954,-1.1164],[15.8491,-1.103],[15.8439,-1.0974],[15.8404,-1.0906],[15.8337,-1.0839],[15.8124,-1.0747],[15.7664,-1.0643],[15.7476,-1.0568],[15.7321,-1.0379],[15.7283,-1.0147],[15.7279,-0.9912],[15.7227,-0.9713],[15.7093,-0.9589],[15.6923,-0.9545],[15.653,-0.9509],[15.5991,-0.937],[15.5801,-0.9382],[15.5642,-0.9436],[15.5346,-0.9585],[15.5188,-0.964],[15.5133,-0.9635],[15.5029,-0.9579],[15.4986,-0.9569],[15.4916,-0.9594],[15.4785,-0.9667],[15.4429,-0.978],[15.427,-0.991],[15.3988,-1.0343],[15.3844,-1.0508],[15.3678,-1.0649],[15.363,-1.066],[15.3526,-1.063],[15.3486,-1.0636],[15.3405,-1.0719],[15.3288,-1.0907],[15.3214,-1.0995],[15.2989,-1.1138],[15.2494,-1.1355],[15.2286,-1.153],[15.163,-1.2393],[15.1426,-1.2823],[15.0907,-1.4446],[15.022,-1.5331],[14.9843,-1.5687],[14.9686,-1.5777],[14.9413,-1.5893],[14.9289,-1.5922],[14.8902,-1.5893],[14.8818,-1.5902],[14.8736,-1.592],[14.8243,-1.6135],[14.8113,-1.6221],[14.7627,-1.6624],[14.7495,-1.6775],[14.7415,-1.6898],[14.7379,-1.7132],[14.7355,-1.7206],[14.7221,-1.7428],[14.715,-1.7518],[14.6872,-1.7788],[14.6785,-1.7902],[14.6667,-1.809],[14.647,-1.8313],[14.6421,-1.8389],[14.631,-1.8686],[14.6269,-1.876],[14.5876,-1.9305],[14.565,-1.9514],[14.55,-1.9622],[14.5332,-1.9697],[14.5223,-1.9724],[14.5148,-1.9774],[14.5093,-1.984],[14.5016,-2.0004],[14.4988,-2.0041],[14.4947,-2.0085],[14.4879,-2.0139],[14.4805,-2.0174],[14.443,-2.025],[14.4352,-2.0258],[14.427,-2.0258],[14.4109,-2.0238],[14.3959,-2.0201],[14.388,-2.015],[14.3809,-2.0018],[14.375,-1.9824],[14.3712,-1.9286],[14.3686,-1.9221],[14.3707,-1.9213],[14.3973,-1.9068],[14.4045,-1.8931],[14.3969,-1.8494],[14.3975,-1.841],[14.4036,-1.8152],[14.4067,-1.7356],[14.4131,-1.714],[14.4252,-1.7005],[14.4488,-1.6863],[14.4411,-1.6796],[14.42,-1.6761],[14.403,-1.6709],[14.3909,-1.6303],[14.3715,-1.6195],[14.3648,-1.612],[14.3738,-1.6041],[14.3943,-1.5969],[14.4037,-1.5922],[14.4132,-1.5853],[14.4199,-1.5751],[14.424,-1.5636],[14.4304,-1.5549],[14.4631,-1.5487],[14.4627,-1.5336],[14.4516,-1.5156],[14.4384,-1.5026],[14.451,-1.4737],[14.4527,-1.4496],[14.4563,-1.4402],[14.4679,-1.429],[14.4806,-1.4208],[14.4877,-1.4094],[14.4821,-1.3886],[14.447,-1.3653],[14.4323,-1.3501],[14.4263,-1.331],[14.4291,-1.32],[14.436,-1.3127],[14.4443,-1.3063],[14.4516,-1.2982],[14.4571,-1.2876],[14.4608,-1.278],[14.4648,-1.2556],[14.4658,-1.2244],[14.4642,-1.2154],[14.4564,-1.2025],[14.4394,-1.1857],[14.5691,-1.1631],[14.64,-1.1433],[14.6636,-1.1202],[14.6884,-1.1094],[14.7297,-1.1186],[14.9174,-1.1113],[14.9924,-1.0942],[15.0474,-1.0472],[15.1457,-0.9354],[15.1641,-0.8917],[15.1854,-0.8577],[15.1669,-0.8247],[15.0098,-0.6879],[15.0525,-0.6326],[15.1093,-0.5756],[15.1286,-0.5429],[15.1434,-0.508],[15.1502,-0.4734],[15.1039,-0.2949],[15.0891,-0.2606],[15.0553,-0.2502],[14.9818,-0.2408],[14.9503,-0.2256],[14.9384,-0.1935],[14.9294,-0.1548],[14.9022,-0.0979],[14.8956,-0.0749],[14.8972,-0.0586],[14.8969,-0.0425],[14.8883,-0.0042],[14.8975,0.033],[14.9303,0.0368],[14.9655,0.0334],[15.0045,0.0397],[15.0233,0.0369],[15.042,0.0364],[15.1185,0.051],[15.1928,0.075],[15.2426,0.1287],[15.2275,0.1966],[15.1629,0.2438],[15.134,0.3011],[15.1683,0.3217],[15.2066,0.3386],[15.2367,0.3553],[15.2615,0.3771],[15.2853,0.4114],[15.2867,0.4102],[15.2882,0.4063],[15.288,0.403],[15.2861,0.3944],[15.2861,0.3893],[15.2885,0.3856],[15.2925,0.3843],[15.3009,0.3877],[15.305,0.3886],[15.3359,0.3803],[15.3544,0.3781],[15.3611,0.378],[15.3678,0.3786],[15.3765,0.3827],[15.3818,0.3861],[15.3882,0.3887],[15.3951,0.3898],[15.4075,0.3873],[15.4223,0.3824],[15.4294,0.3808],[15.4401,0.3793],[15.4529,0.3757],[15.4576,0.3737],[15.4622,0.3721],[15.4662,0.3694],[15.47,0.3672],[15.4752,0.3665],[15.4805,0.3667],[15.4908,0.3681],[15.5012,0.3656],[15.5077,0.3627],[15.5166,0.3565],[15.5214,0.3545],[15.5271,0.3536],[15.5333,0.3545],[15.5395,0.358],[15.5532,0.3746],[15.5566,0.3777],[15.5689,0.3859],[15.5721,0.3894],[15.5746,0.3939],[15.5768,0.3987],[15.5814,0.4145],[15.5853,0.4232],[15.5872,0.4256],[15.5891,0.4274],[15.5912,0.4284],[15.5946,0.4297],[15.599,0.4307],[15.611,0.4324],[15.6163,0.4343],[15.6184,0.4357],[15.6238,0.4406],[15.6284,0.4431],[15.6345,0.445],[15.6432,0.4464],[15.6494,0.4481],[15.6545,0.4504],[15.6624,0.4552],[15.6664,0.4561],[15.6967,0.4585],[15.6987,0.4593],[15.7057,0.4631],[15.7096,0.4646],[15.7148,0.4657],[15.7262,0.4662],[15.734,0.4653],[15.7411,0.4615],[15.7444,0.457],[15.7466,0.4517],[15.7491,0.4475],[15.7537,0.445],[15.7603,0.4447],[15.7701,0.4475],[15.7763,0.4503],[15.7849,0.4552],[15.7884,0.4558],[15.7934,0.4555],[15.8178,0.4497],[15.8425,0.4493],[15.8753,0.4435],[15.8815,0.44],[15.8851,0.4367],[15.8892,0.4339],[15.8936,0.4316],[15.898,0.4291],[15.9045,0.4221],[15.9082,0.419],[15.9166,0.4136],[15.9211,0.4112],[15.9413,0.4039],[15.9505,0.3995],[15.954,0.3961],[15.9571,0.3923],[15.9589,0.3873],[15.9593,0.3687],[15.9604,0.3629],[15.9626,0.3583],[15.9654,0.3544],[15.9692,0.3512],[15.9732,0.3486],[15.98,0.3463],[16.0041,0.3415],[16.0457,0.3287],[16.0503,0.3265],[16.0547,0.324],[16.0685,0.3105],[16.0805,0.3018],[16.0864,0.2939],[16.1045,0.2573],[16.1053,0.2525],[16.1039,0.1973],[16.1042,0.1941],[16.1054,0.1898],[16.1075,0.1855],[16.1104,0.1821],[16.114,0.1794],[16.1211,0.1752],[16.1236,0.1732],[16.1264,0.1697],[16.1282,0.1652],[16.1303,0.1555],[16.1304,0.1469],[16.1282,0.1239],[16.1297,0.1213],[16.1329,0.1189],[16.1419,0.1173],[16.148,0.1152],[16.1673,0.1061],[16.1728,0.1046],[16.1798,0.1048],[16.1883,0.1066],[16.2068,0.1157],[16.2127,0.1177],[16.2183,0.1185],[16.2276,0.1171],[16.2328,0.1143],[16.2406,0.1073],[16.2445,0.1043],[16.2487,0.1017],[16.2631,0.0955],[16.2672,0.0927],[16.2706,0.0893],[16.2784,0.0767],[16.2816,0.073],[16.285,0.0702],[16.2912,0.0688],[16.3214,0.0713],[16.3263,0.071],[16.3276,0.0695],[16.3285,0.0675],[16.33,0.0635],[16.331,0.0585],[16.3329,0.0535],[16.3353,0.0489],[16.3384,0.0452],[16.3415,0.0421],[17.0495,0.3941],[17.0914,0.3746],[17.1065,0.3594],[17.1769,0.2575],[17.203,0.2104],[17.2043,0.2066],[17.203,0.1984],[17.2002,0.1879],[17.1927,0.1835],[17.185,0.1855],[17.1779,0.1852],[17.1722,0.1736],[17.1735,0.1645],[17.184,0.1417],[17.1885,0.1177],[17.1917,0.1083],[17.1914,0.0995],[17.1832,0.0887],[17.1723,0.0821],[17.1609,0.0772],[17.1512,0.0704],[17.1455,0.0576],[17.1473,0.0391],[17.1624,-0.008],[17.166,-0.0277],[17.1682,-0.095],[17.1722,-0.1137],[17.1852,-0.1507],[17.1873,-0.1728],[17.1759,-0.1826],[17.1602,-0.1881],[17.1533,-0.2025],[17.1521,-0.2797],[17.1552,-0.285],[17.1704,-0.2888],[17.1707,-0.2973],[17.1349,-0.3392],[17.1423,-0.3473],[17.1623,-0.3524],[17.1798,-0.3669],[17.1466,-0.4139],[17.1392,-0.4407],[17.1517,-0.4637],[17.1631,-0.4431],[17.1819,-0.4452],[17.202,-0.4591],[17.2173,-0.4734],[17.2249,-0.4923],[17.221,-0.5141],[17.2015,-0.5596],[17.2006,-0.566],[17.2138,-0.6084],[17.2152,-0.6207],[17.204,-0.6403],[17.2033,-0.6515],[17.208,-0.688],[17.2123,-0.6911],[17.2189,-0.6908],[17.2275,-0.6959],[17.234,-0.7018],[17.238,-0.7042],[17.2404,-0.7095],[17.2417,-0.7288],[17.2522,-0.7392],[17.2624,-0.743],[17.2805,-0.7461],[17.5314,-0.7504],[17.5417,-0.7541],[17.5454,-0.7562],[17.5459,-0.7565]]]}},{"type":"Feature","properties":{"id":"COG-2185","name":"Cuvette-Ouest","nameBn":"কুবেতে বিভাগ","type":"Region","bounds":[13.8312,-1.1857,15.2853,1.3911],"center":[14.558,0.0349]},"geometry":{"type":"Polygon","coordinates":[[[14.1816,0.5399],[14.2318,0.5426],[14.2453,0.5477],[14.2509,0.5519],[14.2547,0.5571],[14.3288,0.6212],[14.3354,0.6426],[14.3384,0.6939],[14.3673,0.7355],[14.4134,0.775],[14.4476,0.8162],[14.441,0.8628],[14.4376,0.8751],[14.4451,0.8833],[14.457,0.8903],[14.4662,0.8996],[14.4681,0.9132],[14.4604,0.9212],[14.4366,0.9333],[14.4175,0.9506],[14.4008,0.9703],[14.3867,0.9922],[14.3757,1.0156],[14.3601,1.0668],[14.3464,1.0871],[14.2985,1.1092],[14.2829,1.1301],[14.2747,1.1556],[14.2757,1.2311],[14.2731,1.2572],[14.2582,1.3197],[14.2522,1.3308],[14.2414,1.3392],[14.2301,1.3439],[14.2215,1.3495],[14.2199,1.355],[14.236,1.3633],[14.2522,1.3684],[14.2712,1.3711],[14.3091,1.38],[14.315,1.3807],[14.3214,1.3807],[14.3657,1.3772],[14.3781,1.3783],[14.3964,1.3816],[14.405,1.3848],[14.4105,1.386],[14.4168,1.3865],[14.4346,1.3832],[14.4459,1.382],[14.4941,1.3911],[14.4997,1.3898],[14.5046,1.3864],[14.5103,1.377],[14.512,1.3683],[14.5129,1.3518],[14.5146,1.3439],[14.5199,1.3281],[14.5284,1.2647],[14.531,1.2572],[14.5354,1.2507],[14.565,1.2298],[14.5866,1.2204],[14.6951,1.1875],[14.7491,1.18],[14.7573,1.1819],[14.7647,1.1826],[14.773,1.1819],[14.7826,1.1792],[14.795,1.1741],[14.8172,1.1585],[14.8247,1.1493],[14.8363,1.129],[14.8448,1.1207],[14.8559,1.1138],[14.9117,1.0858],[14.9497,1.0604],[14.9761,1.0516],[15.002,1.0466],[15.0281,1.0453],[15.0602,1.0471],[15.0676,1.0461],[15.0747,1.0435],[15.0861,1.0286],[15.0895,1.0253],[15.0965,1.0214],[15.1246,1.0095],[15.1332,1.0048],[15.1381,1.0013],[15.1392,0.9999],[15.1518,0.9724],[15.154,0.9631],[15.154,0.9603],[15.1534,0.9554],[15.1519,0.9507],[15.1494,0.9465],[15.1454,0.9436],[15.1403,0.942],[15.1283,0.9405],[15.1178,0.9374],[15.1134,0.9348],[15.1096,0.9318],[15.1068,0.928],[15.1029,0.9208],[15.1008,0.9186],[15.0977,0.9162],[15.0936,0.9149],[15.0905,0.9131],[15.0883,0.9111],[15.0831,0.9022],[15.0804,0.8992],[15.0731,0.8945],[15.071,0.8918],[15.07,0.8885],[15.0701,0.8831],[15.0729,0.8662],[15.076,0.8557],[15.0782,0.8511],[15.0915,0.8303],[15.094,0.8212],[15.0942,0.8127],[15.085,0.7603],[15.0855,0.6871],[15.0886,0.6699],[15.1017,0.6288],[15.1027,0.6232],[15.1026,0.6174],[15.1011,0.6124],[15.088,0.5919],[15.0866,0.5886],[15.0858,0.5863],[15.0853,0.5838],[15.0846,0.5737],[15.085,0.5613],[15.0883,0.5372],[15.0895,0.5318],[15.0915,0.527],[15.0958,0.5225],[15.102,0.5185],[15.1542,0.5001],[15.159,0.4979],[15.1626,0.4945],[15.1693,0.4902],[15.1712,0.4854],[15.1715,0.4807],[15.174,0.476],[15.1796,0.4725],[15.1954,0.4674],[15.2051,0.4613],[15.2042,0.4555],[15.2044,0.4504],[15.2066,0.4468],[15.2115,0.4438],[15.2202,0.4447],[15.2521,0.4357],[15.2576,0.4331],[15.2616,0.4295],[15.2639,0.425],[15.265,0.4193],[15.2655,0.4129],[15.2666,0.4079],[15.2691,0.4055],[15.274,0.4086],[15.2768,0.4121],[15.2793,0.4136],[15.2829,0.4136],[15.2853,0.4114],[15.2615,0.3771],[15.2367,0.3553],[15.2066,0.3386],[15.1683,0.3217],[15.134,0.3011],[15.1629,0.2438],[15.2275,0.1966],[15.2426,0.1287],[15.1928,0.075],[15.1185,0.051],[15.042,0.0364],[15.0233,0.0369],[15.0045,0.0397],[14.9655,0.0334],[14.9303,0.0368],[14.8975,0.033],[14.8883,-0.0042],[14.8969,-0.0425],[14.8972,-0.0586],[14.8956,-0.0749],[14.9022,-0.0979],[14.9294,-0.1548],[14.9384,-0.1935],[14.9503,-0.2256],[14.9818,-0.2408],[15.0553,-0.2502],[15.0891,-0.2606],[15.1039,-0.2949],[15.1502,-0.4734],[15.1434,-0.508],[15.1286,-0.5429],[15.1093,-0.5756],[15.0525,-0.6326],[15.0098,-0.6879],[15.1669,-0.8247],[15.1854,-0.8577],[15.1641,-0.8917],[15.1457,-0.9354],[15.0474,-1.0472],[14.9924,-1.0942],[14.9174,-1.1113],[14.7297,-1.1186],[14.6884,-1.1094],[14.6636,-1.1202],[14.64,-1.1433],[14.5691,-1.1631],[14.4394,-1.1857],[14.4353,-1.1817],[14.4283,-1.1695],[14.428,-1.1609],[14.4336,-1.1437],[14.4344,-1.1351],[14.431,-1.1234],[14.4203,-1.1018],[14.3918,-1.0233],[14.392,-1.009],[14.4026,-0.9877],[14.4075,-0.9445],[14.4128,-0.9215],[14.4282,-0.8969],[14.4459,-0.8775],[14.4571,-0.8561],[14.4529,-0.8257],[14.4462,-0.8003],[14.446,-0.7757],[14.4516,-0.7512],[14.4922,-0.6634],[14.499,-0.6309],[14.49,-0.6009],[14.4665,-0.5527],[14.4542,-0.5396],[14.4144,-0.5122],[14.3923,-0.4824],[14.3586,-0.4613],[14.3206,-0.4445],[14.2927,-0.4364],[14.2755,-0.4391],[14.26,-0.4464],[14.2447,-0.4516],[14.2285,-0.4478],[14.2102,-0.4403],[14.1931,-0.4404],[14.1765,-0.4461],[14.1597,-0.4551],[14.1579,-0.4177],[14.1506,-0.3765],[14.1383,-0.3364],[14.1214,-0.3022],[14.0954,-0.2766],[14.0588,-0.2588],[14.0187,-0.2526],[13.9823,-0.2623],[13.9751,-0.2525],[13.967,-0.2458],[13.9573,-0.242],[13.9216,-0.2379],[13.9138,-0.2406],[13.91,-0.2472],[13.9073,-0.2544],[13.9031,-0.2588],[13.8898,-0.2637],[13.8834,-0.2649],[13.8774,-0.2605],[13.8312,-0.2054],[13.8322,-0.1771],[13.8427,-0.1523],[13.8881,-0.0921],[13.9005,-0.0756],[13.9107,-0.0659],[13.9211,-0.053],[13.9201,-0.0424],[13.9149,-0.0313],[13.913,-0.0166],[13.9172,-0.0067],[13.9314,0.0116],[13.9329,0.0221],[13.9251,0.0344],[13.9131,0.0365],[13.9014,0.0368],[13.8949,0.0437],[13.8907,0.1159],[13.8859,0.1403],[13.8762,0.1713],[13.8712,0.1964],[13.8758,0.2203],[13.9098,0.2709],[13.9452,0.3504],[13.9665,0.3731],[14.0404,0.4138],[14.0591,0.4353],[14.063,0.4559],[14.0568,0.4764],[14.0456,0.4973],[14.076,0.5395],[14.1255,0.5462],[14.1816,0.5399]]]}},{"type":"Feature","properties":{"id":"COG-3343","name":"Kouilou","nameBn":"কুইলু বিভাগ","type":"Region","bounds":[11.114,-5.0196,12.7827,-3.5093],"center":[11.9549,-4.3684]},"geometry":{"type":"Polygon","coordinates":[[[12.7827,-4.4001],[12.7754,-4.3962],[12.7617,-4.3912],[12.7379,-4.405],[12.7265,-4.428],[12.7185,-4.4519],[12.7049,-4.468],[12.6869,-4.4783],[12.6705,-4.4914],[12.6566,-4.5074],[12.6349,-4.5477],[12.6238,-4.5593],[12.6081,-4.565],[12.4972,-4.5853],[12.4291,-4.6075],[12.4141,-4.6089],[12.387,-4.6055],[12.3776,-4.6194],[12.3789,-4.6623],[12.3741,-4.6832],[12.3324,-4.7659],[12.3219,-4.7782],[12.3077,-4.7836],[12.2738,-4.7871],[12.2586,-4.7908],[12.2441,-4.7963],[12.2352,-4.804],[12.2226,-4.7806],[12.2135,-4.7692],[12.2041,-4.7635],[12.1922,-4.7635],[12.1876,-4.768],[12.1572,-4.8706],[12.1308,-4.9129],[12.0181,-5.0086],[12.0096,-5.0196],[11.9943,-5.0058],[11.9805,-4.9894],[11.9579,-4.9519],[11.9203,-4.9064],[11.8957,-4.8826],[11.8862,-4.8552],[11.8976,-4.8554],[11.8982,-4.7418],[11.8417,-4.7415],[11.8241,-4.7187],[11.7816,-4.6804],[11.7769,-4.6679],[11.7777,-4.6577],[11.8013,-4.6579],[11.8202,-4.6373],[11.8246,-4.6148],[11.8064,-4.5771],[11.693,-4.4635],[11.5891,-4.3747],[11.4979,-4.294],[11.4506,-4.2647],[11.4014,-4.2214],[11.3825,-4.191],[11.3777,-4.1847],[11.3648,-4.1628],[11.3621,-4.1531],[11.3631,-4.1311],[11.3622,-4.1198],[11.3582,-4.1119],[11.2702,-4.0417],[11.1724,-3.9775],[11.1391,-3.9531],[11.114,-3.9369],[11.1296,-3.9079],[11.1961,-3.7288],[11.2125,-3.6973],[11.2386,-3.6751],[11.2727,-3.653],[11.3024,-3.6285],[11.3347,-3.6086],[11.3758,-3.6003],[11.414,-3.5876],[11.4363,-3.559],[11.455,-3.5282],[11.4826,-3.5093],[11.5327,-3.5165],[11.5698,-3.545],[11.6492,-3.6733],[11.6659,-3.6914],[11.6876,-3.6987],[11.7421,-3.6917],[11.7622,-3.694],[11.8197,-3.7104],[11.8383,-3.7109],[11.8408,-3.71],[11.8609,-3.7412],[11.8678,-3.7462],[11.877,-3.7514],[11.8987,-3.7546],[11.9278,-3.7688],[12.0619,-3.8665],[12.0971,-3.8812],[12.1061,-3.8837],[12.1389,-3.8863],[12.1689,-3.8961],[12.1864,-3.9078],[12.2024,-3.9151],[12.2079,-3.9199],[12.2094,-3.9242],[12.2092,-3.9364],[12.2103,-3.9424],[12.2126,-3.9475],[12.2184,-3.95],[12.2392,-3.9538],[12.2695,-3.964],[12.2955,-3.9685],[12.3196,-3.9765],[12.3386,-3.9785],[12.3518,-3.9813],[12.3735,-3.989],[12.3844,-3.9946],[12.39,-3.9989],[12.3908,-4.0013],[12.3906,-4.0051],[12.3894,-4.0111],[12.3896,-4.0177],[12.3927,-4.0243],[12.3986,-4.0284],[12.4327,-4.036],[12.4434,-4.0422],[12.4522,-4.05],[12.5356,-4.1453],[12.5455,-4.162],[12.5521,-4.1711],[12.5543,-4.1786],[12.5545,-4.1851],[12.5456,-4.2326],[12.5453,-4.2402],[12.5459,-4.2481],[12.5481,-4.2565],[12.5554,-4.2725],[12.5908,-4.3195],[12.5998,-4.3267],[12.6082,-4.3308],[12.6159,-4.3322],[12.6233,-4.3329],[12.6874,-4.3298],[12.6963,-4.3308],[12.7064,-4.3338],[12.7214,-4.3403],[12.7322,-4.3466],[12.7513,-4.3618],[12.779,-4.3889],[12.7827,-4.4001]]]}},{"type":"Feature","properties":{"id":"COG-2838","name":"Likouala","nameBn":"লিকুউলা বিভাগ","type":"Region","bounds":[16.4275,-0.7565,18.6424,3.7083],"center":[17.5344,1.4549]},"geometry":{"type":"Polygon","coordinates":[[[18.6264,3.4769],[18.6346,3.4492],[18.6424,3.3238],[18.6311,3.179],[18.6218,3.1567],[18.6197,3.1448],[18.6131,3.1282],[18.5973,3.1146],[18.5621,3.0968],[18.5414,3.0828],[18.5284,3.0648],[18.4953,2.9661],[18.4796,2.9414],[18.4758,2.9312],[18.4718,2.9092],[18.4673,2.8989],[18.4492,2.873],[18.4252,2.8222],[18.4219,2.8088],[18.4183,2.7817],[18.3932,2.7137],[18.3167,2.5843],[18.3137,2.576],[18.3035,2.5726],[18.2462,2.5189],[18.233,2.5026],[18.2252,2.4865],[18.2141,2.4277],[18.2078,2.408],[18.1991,2.3891],[18.188,2.3709],[18.174,2.3361],[18.1638,2.321],[18.1467,2.3159],[18.1427,2.3057],[18.1186,2.277],[18.1112,2.2653],[18.0724,2.16],[18.0724,2.1452],[18.0783,2.1148],[18.0808,2.0842],[18.076,1.9885],[18.0817,1.9424],[18.0815,1.9265],[18.0783,1.9093],[18.0682,1.8762],[18.0661,1.859],[18.0737,1.5723],[18.0714,1.5515],[18.0123,1.422],[18.0067,1.4024],[18.002,1.3658],[17.967,1.2537],[17.9634,1.1915],[17.9562,1.1717],[17.9148,1.102],[17.8925,1.0774],[17.8733,1.0396],[17.8666,1.0166],[17.8782,0.9472],[17.8779,0.8679],[17.9077,0.7405],[17.9076,0.7131],[17.8926,0.6359],[17.8932,0.6077],[17.8993,0.5833],[17.9184,0.5352],[17.9331,0.527],[17.9436,0.5108],[17.9499,0.4915],[17.952,0.4743],[17.9455,0.3773],[17.9399,0.3613],[17.854,0.2411],[17.7754,0.0264],[17.7571,-0.0095],[17.7164,-0.1958],[17.7137,-0.2209],[17.7163,-0.2462],[17.7408,-0.3462],[17.7495,-0.5234],[17.742,-0.5334],[17.728,-0.5531],[17.6642,-0.6127],[17.6587,-0.6198],[17.6545,-0.6275],[17.6525,-0.6422],[17.6509,-0.6463],[17.6476,-0.6499],[17.6359,-0.6585],[17.623,-0.6733],[17.6022,-0.6887],[17.5459,-0.7565],[17.5454,-0.7562],[17.5417,-0.7541],[17.5314,-0.7504],[17.2805,-0.7461],[17.2624,-0.743],[17.2522,-0.7392],[17.2417,-0.7288],[17.2404,-0.7095],[17.238,-0.7042],[17.234,-0.7018],[17.2275,-0.6959],[17.2189,-0.6908],[17.2123,-0.6911],[17.208,-0.688],[17.2033,-0.6515],[17.204,-0.6403],[17.2152,-0.6207],[17.2138,-0.6084],[17.2006,-0.566],[17.2015,-0.5596],[17.221,-0.5141],[17.2249,-0.4923],[17.2173,-0.4734],[17.202,-0.4591],[17.1819,-0.4452],[17.1631,-0.4431],[17.1517,-0.4637],[17.1392,-0.4407],[17.1466,-0.4139],[17.1798,-0.3669],[17.1623,-0.3524],[17.1423,-0.3473],[17.1349,-0.3392],[17.1707,-0.2973],[17.1704,-0.2888],[17.1552,-0.285],[17.1521,-0.2797],[17.1533,-0.2025],[17.1602,-0.1881],[17.1759,-0.1826],[17.1873,-0.1728],[17.1852,-0.1507],[17.1722,-0.1137],[17.1682,-0.095],[17.166,-0.0277],[17.1624,-0.008],[17.1473,0.0391],[17.1455,0.0576],[17.1512,0.0704],[17.1609,0.0772],[17.1723,0.0821],[17.1832,0.0887],[17.1914,0.0995],[17.1917,0.1083],[17.1885,0.1177],[17.184,0.1417],[17.1735,0.1645],[17.1722,0.1736],[17.1779,0.1852],[17.185,0.1855],[17.1927,0.1835],[17.2002,0.1879],[17.203,0.1984],[17.2043,0.2066],[17.203,0.2104],[17.1769,0.2575],[17.1065,0.3594],[17.0914,0.3746],[17.0495,0.3941],[16.7157,0.8262],[16.7064,0.8427],[16.6993,0.8589],[16.694,0.8866],[16.6931,0.9868],[16.6961,0.9995],[16.701,1.0072],[16.7132,1.0213],[16.7209,1.0281],[16.7287,1.0332],[16.7525,1.0446],[16.767,1.0533],[16.7735,1.0593],[16.7782,1.0664],[16.7815,1.0739],[16.7828,1.0815],[16.7829,1.1338],[16.7867,1.1483],[16.7915,1.1598],[16.7967,1.1676],[16.7985,1.1816],[16.796,1.2004],[16.7741,1.2877],[16.7661,1.3002],[16.7587,1.3089],[16.7516,1.3159],[16.7462,1.3232],[16.7389,1.3388],[16.7175,1.3992],[16.7151,1.4126],[16.7162,1.428],[16.7182,1.4383],[16.7185,1.4472],[16.7163,1.4543],[16.7024,1.4667],[16.6985,1.4744],[16.7005,1.4844],[16.7039,1.4922],[16.7078,1.498],[16.7253,1.5185],[16.7296,1.5259],[16.7316,1.5337],[16.7313,1.5429],[16.7191,1.627],[16.7088,1.652],[16.706,1.6619],[16.7082,1.6733],[16.7179,1.6905],[16.7562,1.7965],[16.758,1.8057],[16.7574,1.8191],[16.7497,1.8386],[16.7369,1.889],[16.7358,1.8977],[16.736,1.9064],[16.7385,1.9262],[16.7358,1.9677],[16.7293,1.9908],[16.7219,2.0526],[16.7228,2.0687],[16.7253,2.085],[16.7278,2.093],[16.7317,2.0998],[16.7378,2.1051],[16.7515,2.1114],[16.7571,2.1156],[16.7599,2.1219],[16.7611,2.1292],[16.7574,2.1489],[16.7475,2.1638],[16.7373,2.1946],[16.7344,2.2422],[16.7429,2.3066],[16.7398,2.3383],[16.7409,2.3623],[16.7391,2.3738],[16.7341,2.388],[16.6852,2.4749],[16.6793,2.4825],[16.6724,2.4896],[16.6544,2.4991],[16.6196,2.5122],[16.6111,2.5115],[16.6033,2.5093],[16.5794,2.5003],[16.5726,2.4992],[16.5676,2.4992],[16.5646,2.5001],[16.5626,2.5026],[16.5597,2.5081],[16.5591,2.5347],[16.5569,2.5434],[16.552,2.5525],[16.5157,2.5928],[16.5076,2.5998],[16.5008,2.6043],[16.4965,2.6063],[16.4906,2.6116],[16.485,2.6204],[16.4819,2.6378],[16.4832,2.6488],[16.487,2.6573],[16.4891,2.6657],[16.4873,2.6755],[16.4807,2.6899],[16.468,2.7075],[16.4412,2.7199],[16.4275,2.7265],[16.4506,2.7756],[16.4791,2.8363],[16.4838,2.8604],[16.475,2.8784],[16.4605,2.8946],[16.4483,2.9135],[16.4455,2.9577],[16.4842,3.0319],[16.4908,3.0678],[16.4832,3.0901],[16.4727,3.1106],[16.4648,3.1318],[16.4655,3.1565],[16.4771,3.1794],[16.5115,3.2272],[16.5172,3.2487],[16.5178,3.2732],[16.5428,3.3362],[16.5517,3.4198],[16.5677,3.4644],[16.5985,3.5017],[16.6394,3.5286],[16.6864,3.5422],[16.7094,3.5437],[16.7296,3.5422],[16.8119,3.5217],[16.833,3.5229],[16.8526,3.5328],[16.8546,3.5413],[16.8518,3.5519],[16.8532,3.5601],[16.8678,3.5615],[16.8772,3.5592],[16.8955,3.5524],[16.9047,3.5506],[16.9324,3.5539],[16.9423,3.5531],[16.9532,3.5469],[16.9605,3.5384],[16.9686,3.5335],[16.9819,3.538],[16.9897,3.5395],[17.0031,3.5377],[17.0092,3.5381],[17.0176,3.5418],[17.0289,3.5515],[17.0358,3.5561],[17.0524,3.564],[17.0614,3.5661],[17.0884,3.5644],[17.1021,3.5666],[17.129,3.5771],[17.1428,3.5808],[17.1829,3.5796],[17.1972,3.5817],[17.214,3.5893],[17.223,3.5985],[17.2311,3.6091],[17.245,3.6206],[17.2594,3.6259],[17.2723,3.6246],[17.2981,3.6159],[17.3344,3.6185],[17.3558,3.6384],[17.3757,3.6634],[17.4145,3.6834],[17.4275,3.6901],[17.4427,3.7013],[17.4589,3.7083],[17.4819,3.7048],[17.4862,3.7003],[17.4901,3.6871],[17.495,3.6832],[17.5089,3.6818],[17.5135,3.6792],[17.5505,3.6482],[17.5868,3.6322],[17.6273,3.6263],[17.7091,3.6264],[17.7145,3.6275],[17.7261,3.6318],[17.7332,3.6322],[17.7399,3.6292],[17.7496,3.6181],[17.7559,3.6145],[17.7651,3.6144],[17.7845,3.6182],[17.7932,3.6175],[17.8083,3.6086],[17.8212,3.594],[17.8306,3.5757],[17.8353,3.5558],[17.8421,3.5401],[17.8564,3.5373],[17.8753,3.5427],[17.9136,3.5613],[17.9192,3.5656],[17.9245,3.5635],[17.9599,3.5411],[17.9695,3.5375],[17.9819,3.5388],[18.0131,3.554],[18.0471,3.5631],[18.082,3.5635],[18.1164,3.552],[18.134,3.5348],[18.1467,3.4949],[18.1599,3.4803],[18.1816,3.4774],[18.2025,3.4873],[18.22,3.5039],[18.2316,3.5212],[18.2354,3.5309],[18.2425,3.5611],[18.2485,3.5749],[18.2559,3.5772],[18.2649,3.5747],[18.2759,3.5744],[18.3556,3.5815],[18.3616,3.5802],[18.3729,3.5745],[18.3799,3.5744],[18.3837,3.578],[18.3878,3.5917],[18.3923,3.5959],[18.4037,3.5974],[18.4206,3.5964],[18.4297,3.6002],[18.448,3.618],[18.4591,3.6314],[18.4721,3.6321],[18.4971,3.6115],[18.5134,3.5922],[18.5543,3.5264],[18.5703,3.4896],[18.5825,3.4774],[18.6264,3.4769]]]}},{"type":"Feature","properties":{"id":"COG-3344","name":"Lékoumou","nameBn":"লেকুমৌ বিভাগ","type":"Region","bounds":[12.6028,-4.0522,14.3427,-2.0971],"center":[13.4727,-3.2378]},"geometry":{"type":"Polygon","coordinates":[[[13.7432,-2.0971],[13.7464,-2.0983],[13.7569,-2.1059],[13.7707,-2.1191],[13.7828,-2.138],[13.7914,-2.1591],[13.8005,-2.2004],[13.8233,-2.2468],[13.8356,-2.2652],[13.8539,-2.2838],[13.8606,-2.2937],[13.8639,-2.3215],[13.8716,-2.3288],[13.8822,-2.3339],[13.8925,-2.3412],[13.9062,-2.3598],[13.9019,-2.3663],[13.89,-2.3737],[13.8759,-2.4038],[13.8551,-2.4143],[13.8477,-2.4231],[13.8469,-2.4616],[13.8458,-2.4666],[13.8621,-2.4809],[13.885,-2.4885],[13.9095,-2.4897],[13.9304,-2.4854],[13.9477,-2.4749],[13.9573,-2.4706],[13.967,-2.4706],[13.9762,-2.4773],[13.9792,-2.4956],[13.9856,-2.5015],[13.9933,-2.5016],[14.0393,-2.4872],[14.0456,-2.4861],[14.0556,-2.4869],[14.071,-2.4958],[14.0809,-2.5],[14.09,-2.4986],[14.096,-2.4911],[14.1006,-2.4781],[14.1107,-2.4931],[14.1205,-2.5204],[14.1493,-2.5472],[14.153,-2.5547],[14.154,-2.5592],[14.1512,-2.5638],[14.1479,-2.5665],[14.1429,-2.5686],[14.1295,-2.5716],[14.124,-2.5778],[14.1264,-2.5845],[14.1317,-2.5908],[14.1469,-2.6013],[14.1539,-2.6046],[14.1598,-2.605],[14.1638,-2.6009],[14.1697,-2.597],[14.1773,-2.5964],[14.1872,-2.6034],[14.1892,-2.6108],[14.1862,-2.6183],[14.1796,-2.624],[14.1655,-2.633],[14.1524,-2.6452],[14.1391,-2.6553],[14.1352,-2.6616],[14.1371,-2.6687],[14.1411,-2.6753],[14.1475,-2.6807],[14.1549,-2.6826],[14.1709,-2.6827],[14.1793,-2.684],[14.1875,-2.6872],[14.1977,-2.6935],[14.2063,-2.6958],[14.2147,-2.6946],[14.2319,-2.6854],[14.2403,-2.6837],[14.2487,-2.6847],[14.258,-2.6902],[14.266,-2.6941],[14.2753,-2.6944],[14.2848,-2.693],[14.2977,-2.6955],[14.3014,-2.7018],[14.3019,-2.7096],[14.2986,-2.7177],[14.2855,-2.7414],[14.2824,-2.7505],[14.2814,-2.76],[14.2855,-2.7645],[14.2902,-2.7617],[14.2989,-2.7521],[14.3032,-2.7522],[14.3054,-2.7577],[14.3075,-2.7735],[14.3394,-2.8625],[14.3427,-2.8762],[14.341,-2.8855],[14.3354,-2.8925],[14.3286,-2.8975],[14.3143,-2.9049],[14.3076,-2.9097],[14.3025,-2.9157],[14.2994,-2.9219],[14.2973,-2.9331],[14.2955,-2.938],[14.2927,-2.9424],[14.2893,-2.946],[14.2774,-2.9547],[14.271,-2.9609],[14.2675,-2.9675],[14.266,-2.9713],[14.2609,-2.9813],[14.1881,-3.0242],[14.1692,-3.0394],[14.1654,-3.0462],[14.1621,-3.0536],[14.1456,-3.1132],[14.1307,-3.1472],[14.1276,-3.1574],[14.1268,-3.1707],[14.1273,-3.1783],[14.1267,-3.1816],[14.1236,-3.185],[14.1137,-3.191],[14.1103,-3.196],[14.1017,-3.2171],[14.0967,-3.2243],[14.0921,-3.2291],[14.0862,-3.2328],[14.0846,-3.2352],[14.0844,-3.2395],[14.086,-3.2438],[14.0854,-3.2501],[14.082,-3.2533],[14.0689,-3.2592],[14.0595,-3.2653],[14.0553,-3.2688],[14.0519,-3.2735],[14.045,-3.2913],[14.0428,-3.294],[14.0268,-3.3037],[14.0222,-3.3087],[14.0181,-3.3152],[14.0117,-3.3277],[14.0073,-3.3339],[13.9704,-3.3753],[13.9681,-3.377],[13.9615,-3.3802],[13.9461,-3.3908],[13.9245,-3.4109],[13.9207,-3.4157],[13.92,-3.419],[13.9198,-3.4209],[13.9203,-3.4228],[13.9207,-3.4273],[13.9194,-3.4336],[13.9119,-3.4482],[13.9073,-3.4596],[13.8956,-3.4814],[13.8891,-3.4892],[13.8782,-3.4991],[13.8767,-3.5013],[13.8766,-3.5042],[13.8775,-3.5153],[13.8766,-3.5239],[13.8745,-3.5281],[13.8717,-3.5315],[13.8603,-3.5384],[13.8222,-3.5895],[13.805,-3.6024],[13.7977,-3.6038],[13.7885,-3.6072],[13.7836,-3.6115],[13.7801,-3.6159],[13.7779,-3.6208],[13.7763,-3.6255],[13.7758,-3.6308],[13.7768,-3.6354],[13.7774,-3.6419],[13.7767,-3.6498],[13.772,-3.6625],[13.7687,-3.6683],[13.7653,-3.6719],[13.7538,-3.6761],[13.7452,-3.6803],[13.7313,-3.69],[13.7247,-3.6971],[13.7192,-3.7051],[13.7182,-3.7112],[13.7186,-3.7244],[13.7172,-3.7331],[13.713,-3.736],[13.7083,-3.7364],[13.7033,-3.7355],[13.6931,-3.7364],[13.6882,-3.736],[13.6728,-3.7311],[13.6659,-3.7307],[13.6584,-3.7316],[13.6495,-3.7343],[13.648,-3.7384],[13.648,-3.7485],[13.6436,-3.7527],[13.627,-3.7631],[13.6201,-3.7658],[13.6136,-3.7662],[13.6087,-3.7646],[13.6043,-3.7624],[13.5975,-3.761],[13.59,-3.7606],[13.5768,-3.764],[13.5718,-3.7659],[13.5687,-3.7681],[13.5681,-3.7702],[13.5679,-3.7725],[13.5693,-3.789],[13.5712,-3.7939],[13.5755,-3.796],[13.5806,-3.7967],[13.5858,-3.7965],[13.5895,-3.7972],[13.5907,-3.7981],[13.5909,-3.7997],[13.5876,-3.8119],[13.5883,-3.8161],[13.5919,-3.8189],[13.6,-3.8222],[13.6002,-3.8256],[13.5978,-3.8318],[13.59,-3.845],[13.5817,-3.8544],[13.5721,-3.8629],[13.5688,-3.8702],[13.5682,-3.8774],[13.5684,-3.8857],[13.567,-3.8944],[13.5603,-3.9069],[13.5338,-3.9336],[13.5257,-3.9438],[13.5212,-3.9528],[13.5206,-3.9604],[13.5212,-3.9758],[13.5208,-3.9833],[13.5128,-4.0206],[13.5078,-4.0288],[13.5025,-4.0349],[13.4984,-4.0378],[13.4858,-4.0435],[13.471,-4.0481],[13.454,-4.0515],[13.443,-4.0522],[13.4107,-4.0456],[13.3954,-4.0444],[13.3879,-4.0426],[13.3809,-4.0393],[13.3747,-4.0333],[13.3704,-4.0261],[13.3537,-3.9781],[13.353,-3.9703],[13.3543,-3.9627],[13.3568,-3.9551],[13.3586,-3.9476],[13.3562,-3.9401],[13.3513,-3.933],[13.3468,-3.928],[13.3404,-3.9263],[13.3344,-3.9308],[13.3273,-3.93],[13.3083,-3.9262],[13.2835,-3.93],[13.2742,-3.9298],[13.2669,-3.9265],[13.2448,-3.9118],[13.233,-3.9109],[13.2178,-3.9127],[13.1736,-3.9278],[13.1615,-3.9298],[13.1374,-3.9214],[13.1293,-3.9201],[13.1215,-3.9198],[13.0695,-3.9246],[13.0513,-3.928],[13.0401,-3.9286],[13.0305,-3.9276],[13.0234,-3.9234],[13.0186,-3.9171],[13.0151,-3.9107],[13.011,-3.9051],[13.0059,-3.9024],[13.0008,-3.9008],[12.9968,-3.8991],[12.9919,-3.8952],[12.9888,-3.8885],[12.9848,-3.8816],[12.9782,-3.8752],[12.9545,-3.8679],[12.9454,-3.8626],[12.9426,-3.8599],[12.9308,-3.8564],[12.8998,-3.8322],[12.8901,-3.8108],[12.8901,-3.7733],[12.8791,-3.768],[12.8748,-3.7629],[12.8796,-3.7555],[12.8835,-3.7509],[12.8901,-3.7317],[12.8775,-3.7284],[12.8695,-3.7185],[12.8544,-3.6731],[12.85,-3.666],[12.8417,-3.6566],[12.8394,-3.652],[12.838,-3.6409],[12.8355,-3.6354],[12.8313,-3.6336],[12.8183,-3.632],[12.8144,-3.6292],[12.8118,-3.6145],[12.8124,-3.6022],[12.809,-3.5931],[12.7939,-3.5877],[12.8076,-3.5809],[12.7959,-3.5623],[12.7794,-3.5577],[12.7393,-3.5598],[12.7181,-3.5499],[12.7236,-3.5245],[12.7012,-3.5194],[12.6922,-3.5215],[12.6722,-3.5308],[12.6601,-3.5331],[12.6569,-3.5282],[12.6567,-3.4952],[12.6525,-3.4911],[12.6431,-3.4917],[12.6337,-3.4907],[12.6294,-3.4819],[12.6286,-3.4708],[12.6255,-3.4631],[12.619,-3.4588],[12.6084,-3.458],[12.6084,-3.4512],[12.615,-3.4384],[12.6028,-3.4264],[12.6043,-3.4159],[12.6075,-3.4128],[12.6111,-3.4103],[12.6168,-3.4076],[12.6201,-3.4068],[12.6396,-3.4074],[12.6448,-3.4061],[12.6487,-3.4039],[12.6515,-3.4009],[12.6532,-3.3983],[12.6601,-3.3814],[12.6697,-3.3383],[12.6716,-3.3343],[12.6743,-3.3301],[12.6783,-3.3252],[12.6812,-3.3227],[12.6849,-3.3206],[12.6982,-3.315],[12.7134,-3.3045],[12.7189,-3.3018],[12.7242,-3.3002],[12.7309,-3.2991],[12.7436,-3.2991],[12.7736,-3.3038],[12.7801,-3.3037],[12.786,-3.3031],[12.7911,-3.3012],[12.8086,-3.2931],[12.8114,-3.2923],[12.8216,-3.2909],[12.8276,-3.2905],[12.8337,-3.291],[12.8386,-3.2928],[12.8511,-3.301],[12.8561,-3.3025],[12.8636,-3.3012],[12.872,-3.2973],[12.8858,-3.2885],[12.8938,-3.2854],[12.8997,-3.2856],[12.9065,-3.2928],[12.9109,-3.2953],[12.9184,-3.2944],[12.9215,-3.2903],[12.9229,-3.2851],[12.9222,-3.2578],[12.9235,-3.2507],[12.9268,-3.2489],[12.9327,-3.2495],[12.9469,-3.2533],[12.9544,-3.2537],[12.9618,-3.2524],[12.985,-3.2433],[12.9919,-3.2415],[12.9987,-3.2407],[13.0145,-3.2329],[13.0237,-3.221],[13.0339,-3.2138],[13.0611,-3.1994],[13.0959,-3.1639],[13.1036,-3.1506],[13.108,-3.1398],[13.1055,-3.0807],[13.1156,-3.0352],[13.1283,-3.0016],[13.1293,-2.9965],[13.1297,-2.9886],[13.1265,-2.9807],[13.121,-2.9729],[13.1145,-2.9656],[13.0686,-2.9282],[13.0615,-2.9257],[13.0469,-2.9247],[13.0251,-2.9187],[13.0189,-2.915],[13.0148,-2.9092],[13.0123,-2.9023],[13.0083,-2.8867],[13.0011,-2.8741],[12.9987,-2.8688],[12.9987,-2.86],[13.0014,-2.8558],[13.0064,-2.8521],[13.0203,-2.8472],[13.0276,-2.8427],[13.0414,-2.8306],[13.0485,-2.8268],[13.0646,-2.8249],[13.0732,-2.8213],[13.0757,-2.8154],[13.0749,-2.8081],[13.0537,-2.7613],[13.0494,-2.7446],[13.0379,-2.6034],[13.042,-2.4322],[13.051,-2.3863],[13.0512,-2.3769],[13.0476,-2.3701],[13.0417,-2.3664],[13.0349,-2.3663],[13.0275,-2.3693],[13.0201,-2.3731],[13.0132,-2.3747],[13.0077,-2.3735],[13.0012,-2.3677],[12.994,-2.3601],[13.0121,-2.342],[13.025,-2.3382],[13.0498,-2.3426],[13.1143,-2.3719],[13.1352,-2.377],[13.1462,-2.3747],[13.1653,-2.3635],[13.1768,-2.362],[13.1867,-2.3641],[13.361,-2.4288],[13.3788,-2.4309],[13.398,-2.4262],[13.4197,-2.4297],[13.4249,-2.4298],[13.439,-2.4254],[13.4454,-2.4271],[13.4537,-2.4394],[13.4589,-2.441],[13.4694,-2.435],[13.474,-2.427],[13.4768,-2.4177],[13.4823,-2.4081],[13.4922,-2.3985],[13.5246,-2.376],[13.5331,-2.3677],[13.5477,-2.3494],[13.5576,-2.3405],[13.5695,-2.3345],[13.5934,-2.3268],[13.6034,-2.32],[13.6078,-2.3111],[13.6107,-2.2899],[13.6174,-2.2796],[13.6935,-2.2059],[13.7016,-2.1947],[13.7052,-2.1843],[13.7068,-2.1646],[13.7095,-2.1535],[13.72,-2.1336],[13.7409,-2.1025],[13.7432,-2.0971]]]}},{"type":"Feature","properties":{"id":"COG-3345","name":"Niari","nameBn":"নিয়ারি বিভাগ","type":"Region","bounds":[11.5256,-4.8853,13.5799,-1.8252],"center":[12.3646,-2.9791]},"geometry":{"type":"Polygon","coordinates":[[[13.3926,-4.8853],[13.3714,-4.8417],[13.3641,-4.8069],[13.3588,-4.7948],[13.3493,-4.7856],[13.3346,-4.7775],[13.274,-4.7558],[13.2558,-4.7439],[13.2088,-4.7031],[13.1821,-4.6861],[13.1724,-4.6761],[13.16,-4.6434],[13.1421,-4.6173],[13.1341,-4.6024],[13.1124,-4.5769],[13.088,-4.5795],[13.0715,-4.6016],[13.0737,-4.6353],[13.0272,-4.6122],[12.9616,-4.5338],[12.922,-4.5023],[12.9024,-4.4802],[12.8845,-4.4321],[12.8699,-4.412],[12.8543,-4.4031],[12.8423,-4.4043],[12.8303,-4.4097],[12.8148,-4.4129],[12.8011,-4.41],[12.7827,-4.4001],[12.779,-4.3889],[12.7513,-4.3618],[12.7322,-4.3466],[12.7214,-4.3403],[12.7064,-4.3338],[12.6963,-4.3308],[12.6874,-4.3298],[12.6233,-4.3329],[12.6159,-4.3322],[12.6082,-4.3308],[12.5998,-4.3267],[12.5908,-4.3195],[12.5554,-4.2725],[12.5481,-4.2565],[12.5459,-4.2481],[12.5453,-4.2402],[12.5456,-4.2326],[12.5545,-4.1851],[12.5543,-4.1786],[12.5521,-4.1711],[12.5455,-4.162],[12.5356,-4.1453],[12.4522,-4.05],[12.4434,-4.0422],[12.4327,-4.036],[12.3986,-4.0284],[12.3927,-4.0243],[12.3896,-4.0177],[12.3894,-4.0111],[12.3906,-4.0051],[12.3908,-4.0013],[12.39,-3.9989],[12.3844,-3.9946],[12.3735,-3.989],[12.3518,-3.9813],[12.3386,-3.9785],[12.3196,-3.9765],[12.2955,-3.9685],[12.2695,-3.964],[12.2392,-3.9538],[12.2184,-3.95],[12.2126,-3.9475],[12.2103,-3.9424],[12.2092,-3.9364],[12.2094,-3.9242],[12.2079,-3.9199],[12.2024,-3.9151],[12.1864,-3.9078],[12.1689,-3.8961],[12.1389,-3.8863],[12.1061,-3.8837],[12.0971,-3.8812],[12.0619,-3.8665],[11.9278,-3.7688],[11.8987,-3.7546],[11.877,-3.7514],[11.8678,-3.7462],[11.8609,-3.7412],[11.8408,-3.71],[11.8584,-3.7033],[11.88,-3.6872],[11.8977,-3.6661],[11.9055,-3.6435],[11.8985,-3.6224],[11.8793,-3.612],[11.8556,-3.6044],[11.8349,-3.5921],[11.825,-3.5712],[11.8278,-3.5481],[11.8848,-3.4133],[11.8984,-3.3892],[11.9415,-3.357],[11.9549,-3.3355],[11.9444,-3.3032],[11.9057,-3.2851],[11.8583,-3.2721],[11.8219,-3.2548],[11.7816,-3.2217],[11.7605,-3.2091],[11.7039,-3.1854],[11.6961,-3.1796],[11.6875,-3.171],[11.6857,-3.1672],[11.6873,-3.1615],[11.6883,-3.0923],[11.6932,-3.0747],[11.7064,-3.0499],[11.7169,-3.0436],[11.7306,-3.0447],[11.7537,-3.0423],[11.7784,-3.0272],[11.7784,-3.0057],[11.7637,-2.9826],[11.6876,-2.9018],[11.6531,-2.8517],[11.6368,-2.8333],[11.6168,-2.8268],[11.5884,-2.8354],[11.5479,-2.8639],[11.5307,-2.8667],[11.5256,-2.8433],[11.5356,-2.805],[11.5375,-2.7977],[11.6103,-2.6789],[11.6195,-2.6535],[11.6244,-2.6328],[11.6244,-2.612],[11.619,-2.5865],[11.6096,-2.564],[11.5843,-2.5236],[11.5765,-2.5025],[11.5761,-2.4851],[11.5834,-2.4297],[11.5797,-2.4077],[11.5582,-2.3494],[11.5662,-2.3297],[11.5684,-2.3291],[11.6054,-2.3303],[11.6559,-2.3456],[11.6697,-2.3527],[11.6759,-2.3604],[11.6799,-2.3688],[11.6875,-2.3777],[11.7213,-2.4041],[11.7395,-2.4138],[11.7561,-2.4151],[11.7727,-2.4054],[11.8066,-2.3742],[11.8288,-2.3653],[11.8649,-2.3582],[11.9071,-2.3446],[11.9384,-2.3291],[11.9487,-2.3352],[11.9668,-2.3485],[12.0007,-2.3906],[12.0313,-2.4116],[12.0623,-2.415],[12.4593,-2.3299],[12.4479,-2.3079],[12.4551,-2.2756],[12.4686,-2.2412],[12.4755,-2.2124],[12.4684,-2.1711],[12.4702,-2.1563],[12.4774,-2.1411],[12.4953,-2.1128],[12.4998,-2.0955],[12.4608,-2.0779],[12.44,-2.0458],[12.4315,-2.0054],[12.4231,-1.8976],[12.4269,-1.8841],[12.4381,-1.8867],[12.45,-1.8993],[12.469,-1.9194],[12.4866,-1.9249],[12.4995,-1.9179],[12.5038,-1.9077],[12.5045,-1.8969],[12.5063,-1.8882],[12.5124,-1.8755],[12.5174,-1.869],[12.5235,-1.8633],[12.5724,-1.8304],[12.5832,-1.8265],[12.6324,-1.8252],[12.675,-1.8428],[12.741,-1.8907],[12.7455,-1.8939],[12.7877,-1.9075],[12.8046,-1.9191],[12.8161,-1.9435],[12.8382,-2.0161],[12.8472,-2.0372],[12.8529,-2.0446],[12.8685,-2.0599],[12.873,-2.0659],[12.8769,-2.0887],[12.8752,-2.0891],[12.8752,-2.0938],[12.8741,-2.0998],[12.8763,-2.1049],[12.8951,-2.1098],[12.8945,-2.1156],[12.8906,-2.1222],[12.8887,-2.1269],[12.8845,-2.1345],[12.8827,-2.1408],[12.8851,-2.1474],[12.8982,-2.1602],[12.902,-2.1673],[12.9028,-2.1776],[12.9071,-2.1954],[12.9214,-2.1949],[12.9456,-2.1824],[12.9543,-2.1909],[12.973,-2.2215],[12.9824,-2.233],[12.9875,-2.26],[12.9902,-2.268],[12.9973,-2.2757],[13.0034,-2.2755],[13.0082,-2.2765],[13.0107,-2.2878],[13.0023,-2.2967],[12.9967,-2.3048],[12.9946,-2.3149],[12.9939,-2.3235],[12.9911,-2.3323],[12.9871,-2.3407],[12.9824,-2.3477],[12.9713,-2.3571],[12.9661,-2.3664],[12.969,-2.3724],[12.9824,-2.3717],[12.994,-2.3601],[13.0012,-2.3677],[13.0077,-2.3735],[13.0132,-2.3747],[13.0201,-2.3731],[13.0275,-2.3693],[13.0349,-2.3663],[13.0417,-2.3664],[13.0476,-2.3701],[13.0512,-2.3769],[13.051,-2.3863],[13.042,-2.4322],[13.0379,-2.6034],[13.0494,-2.7446],[13.0537,-2.7613],[13.0749,-2.8081],[13.0757,-2.8154],[13.0732,-2.8213],[13.0646,-2.8249],[13.0485,-2.8268],[13.0414,-2.8306],[13.0276,-2.8427],[13.0203,-2.8472],[13.0064,-2.8521],[13.0014,-2.8558],[12.9987,-2.86],[12.9987,-2.8688],[13.0011,-2.8741],[13.0083,-2.8867],[13.0123,-2.9023],[13.0148,-2.9092],[13.0189,-2.915],[13.0251,-2.9187],[13.0469,-2.9247],[13.0615,-2.9257],[13.0686,-2.9282],[13.1145,-2.9656],[13.121,-2.9729],[13.1265,-2.9807],[13.1297,-2.9886],[13.1293,-2.9965],[13.1283,-3.0016],[13.1156,-3.0352],[13.1055,-3.0807],[13.108,-3.1398],[13.1036,-3.1506],[13.0959,-3.1639],[13.0611,-3.1994],[13.0339,-3.2138],[13.0237,-3.221],[13.0145,-3.2329],[12.9987,-3.2407],[12.9919,-3.2415],[12.985,-3.2433],[12.9618,-3.2524],[12.9544,-3.2537],[12.9469,-3.2533],[12.9327,-3.2495],[12.9268,-3.2489],[12.9235,-3.2507],[12.9222,-3.2578],[12.9229,-3.2851],[12.9215,-3.2903],[12.9184,-3.2944],[12.9109,-3.2953],[12.9065,-3.2928],[12.8997,-3.2856],[12.8938,-3.2854],[12.8858,-3.2885],[12.872,-3.2973],[12.8636,-3.3012],[12.8561,-3.3025],[12.8511,-3.301],[12.8386,-3.2928],[12.8337,-3.291],[12.8276,-3.2905],[12.8216,-3.2909],[12.8114,-3.2923],[12.8086,-3.2931],[12.7911,-3.3012],[12.786,-3.3031],[12.7801,-3.3037],[12.7736,-3.3038],[12.7436,-3.2991],[12.7309,-3.2991],[12.7242,-3.3002],[12.7189,-3.3018],[12.7134,-3.3045],[12.6982,-3.315],[12.6849,-3.3206],[12.6812,-3.3227],[12.6783,-3.3252],[12.6743,-3.3301],[12.6716,-3.3343],[12.6697,-3.3383],[12.6601,-3.3814],[12.6532,-3.3983],[12.6515,-3.4009],[12.6487,-3.4039],[12.6448,-3.4061],[12.6396,-3.4074],[12.6201,-3.4068],[12.6168,-3.4076],[12.6111,-3.4103],[12.6075,-3.4128],[12.6043,-3.4159],[12.6028,-3.4264],[12.615,-3.4384],[12.6084,-3.4512],[12.6084,-3.458],[12.619,-3.4588],[12.6255,-3.4631],[12.6286,-3.4708],[12.6294,-3.4819],[12.6337,-3.4907],[12.6431,-3.4917],[12.6525,-3.4911],[12.6567,-3.4952],[12.6569,-3.5282],[12.6311,-3.5499],[12.6224,-3.562],[12.6198,-3.5686],[12.618,-3.5764],[12.6167,-3.5874],[12.6173,-3.6047],[12.6282,-3.6556],[12.6396,-3.6825],[12.6384,-3.6909],[12.6301,-3.7074],[12.6308,-3.7237],[12.6329,-3.7313],[12.6448,-3.7587],[12.6418,-3.7657],[12.6363,-3.77],[12.6292,-3.773],[12.6226,-3.7775],[12.6164,-3.7855],[12.6106,-3.7951],[12.6046,-3.8093],[12.6072,-3.8171],[12.613,-3.8232],[12.643,-3.8415],[12.6586,-3.8533],[12.666,-3.8602],[12.6886,-3.8898],[12.7245,-3.9522],[12.7781,-4.0134],[12.7851,-4.0198],[12.83,-4.0537],[12.8516,-4.0757],[12.8643,-4.093],[12.8833,-4.1295],[12.9178,-4.1803],[12.9888,-4.3195],[12.999,-4.3334],[13.0034,-4.3348],[13.0096,-4.3354],[13.0183,-4.3397],[13.029,-4.3469],[13.0447,-4.3657],[13.055,-4.3736],[13.0642,-4.3776],[13.0802,-4.3771],[13.0964,-4.3799],[13.1039,-4.3795],[13.1119,-4.3777],[13.1193,-4.3772],[13.1266,-4.3792],[13.1334,-4.3834],[13.1409,-4.3865],[13.1481,-4.3875],[13.1626,-4.3862],[13.1701,-4.3865],[13.1853,-4.3931],[13.1927,-4.3955],[13.2004,-4.3958],[13.2079,-4.3968],[13.2233,-4.4026],[13.2401,-4.4036],[13.2546,-4.4119],[13.276,-4.4315],[13.3186,-4.4909],[13.3273,-4.5086],[13.3326,-4.523],[13.3426,-4.5359],[13.3524,-4.5533],[13.3632,-4.5669],[13.3737,-4.5774],[13.3794,-4.5859],[13.3814,-4.5934],[13.3833,-4.6108],[13.387,-4.6219],[13.3927,-4.6295],[13.3997,-4.6336],[13.4155,-4.6366],[13.4235,-4.6393],[13.4963,-4.6891],[13.5353,-4.7081],[13.5523,-4.7188],[13.5625,-4.7269],[13.5687,-4.7348],[13.5724,-4.7423],[13.5744,-4.7498],[13.5789,-4.7791],[13.5798,-4.7827],[13.5799,-4.783],[13.5707,-4.7859],[13.5586,-4.7804],[13.5389,-4.76],[13.5262,-4.7543],[13.5147,-4.7559],[13.4823,-4.7748],[13.4924,-4.7835],[13.4964,-4.7921],[13.4935,-4.7997],[13.4823,-4.8055],[13.4308,-4.8434],[13.4032,-4.8769],[13.3926,-4.8853]]]}},{"type":"Feature","properties":{"id":"COG-3346","name":"Plateaux","nameBn":"প্লেটুক্স বিভাগ","type":"Region","bounds":[14.1006,-3.0806,16.656,-0.937],"center":[15.3777,-2.0422]},"geometry":{"type":"Polygon","coordinates":[[[16.656,-1.5903],[16.6362,-1.6208],[16.6289,-1.6373],[16.6238,-1.6538],[16.6225,-1.6652],[16.6231,-1.6992],[16.6172,-1.7287],[16.6042,-1.7541],[16.525,-1.8585],[16.5225,-1.8617],[16.5172,-1.8737],[16.514,-1.8874],[16.5078,-1.8903],[16.4903,-1.9036],[16.4748,-1.9101],[16.47,-1.9127],[16.4609,-1.9209],[16.4456,-1.9405],[16.3826,-2.0022],[16.3402,-2.0341],[16.2844,-2.0876],[16.2561,-2.1068],[16.2313,-2.129],[16.2068,-2.161],[16.1946,-2.182],[16.1874,-2.2046],[16.1886,-2.2277],[16.19,-2.2355],[16.1899,-2.2419],[16.1769,-2.2868],[16.1749,-2.3031],[16.1783,-2.3185],[16.1875,-2.3323],[16.1898,-2.3375],[16.1917,-2.3469],[16.1923,-2.3952],[16.2256,-2.6352],[16.2045,-2.7827],[16.1809,-2.8541],[16.1782,-2.8681],[16.177,-2.8825],[16.184,-2.9404],[16.1834,-2.9404],[16.1444,-2.936],[16.1217,-2.9315],[16.0963,-2.9288],[16.0874,-2.9288],[16.0765,-2.9299],[16.0579,-2.9342],[16.0485,-2.9376],[16.0422,-2.941],[16.0387,-2.9437],[16.0357,-2.9453],[16.0336,-2.9462],[16.0208,-2.9453],[16.0047,-2.9424],[15.9968,-2.9389],[15.9914,-2.9348],[15.9886,-2.9306],[15.985,-2.9274],[15.9807,-2.9248],[15.9757,-2.9228],[15.9713,-2.9203],[15.9678,-2.9169],[15.9633,-2.901],[15.9605,-2.8969],[15.9574,-2.8931],[15.9537,-2.8898],[15.9477,-2.8822],[15.9438,-2.8792],[15.9389,-2.877],[15.9332,-2.8758],[15.9284,-2.8739],[15.924,-2.8713],[15.9128,-2.8619],[15.9008,-2.8545],[15.8735,-2.8432],[15.8615,-2.8412],[15.849,-2.835],[15.833,-2.83],[15.828,-2.8265],[15.8231,-2.8248],[15.8169,-2.829],[15.8097,-2.8379],[15.8061,-2.8394],[15.7962,-2.8338],[15.7896,-2.832],[15.7249,-2.8459],[15.7158,-2.8493],[15.7005,-2.8571],[15.6893,-2.8657],[15.6804,-2.8711],[15.6766,-2.8753],[15.6739,-2.8789],[15.6695,-2.8882],[15.6679,-2.8936],[15.6632,-2.8976],[15.6563,-2.9005],[15.6438,-2.9028],[15.638,-2.9046],[15.6342,-2.9064],[15.6286,-2.9116],[15.6262,-2.9132],[15.6178,-2.9169],[15.5957,-2.9227],[15.586,-2.9266],[15.572,-2.9347],[15.5653,-2.9399],[15.5549,-2.9508],[15.5511,-2.9537],[15.547,-2.9563],[15.5392,-2.9623],[15.5248,-2.9755],[15.5172,-2.9807],[15.5111,-2.9838],[15.4863,-3.0005],[15.4736,-3.0064],[15.4019,-3.0305],[15.3944,-3.0309],[15.3854,-3.0302],[15.349,-3.0196],[15.3405,-3.0188],[15.3296,-3.0191],[15.3099,-3.0217],[15.2917,-3.0262],[15.2818,-3.0263],[15.2428,-3.0198],[15.2232,-3.0124],[15.2195,-3.01],[15.2158,-3.0084],[15.2034,-3.0047],[15.1998,-3.0026],[15.1982,-3.0006],[15.1972,-2.9992],[15.1961,-2.9967],[15.1942,-2.9935],[15.1902,-2.9905],[15.1845,-2.9884],[15.1687,-2.9858],[15.1628,-2.9841],[15.1586,-2.9814],[15.155,-2.9779],[15.1524,-2.9738],[15.1465,-2.9585],[15.1425,-2.9285],[15.1404,-2.9236],[15.1376,-2.9194],[15.1268,-2.9098],[15.1217,-2.9012],[15.1187,-2.8973],[15.1147,-2.8944],[15.1056,-2.8922],[15.0419,-2.886],[15.0346,-2.8866],[15.0124,-2.896],[14.992,-2.9024],[14.9744,-2.9031],[14.9544,-2.9013],[14.9448,-2.8985],[14.9392,-2.8942],[14.9379,-2.8889],[14.9382,-2.8833],[14.9406,-2.874],[14.9407,-2.8711],[14.9401,-2.8665],[14.933,-2.8335],[14.933,-2.8077],[14.9325,-2.8016],[14.9312,-2.7958],[14.929,-2.7914],[14.9258,-2.7875],[14.9188,-2.7809],[14.9157,-2.7775],[14.9141,-2.773],[14.9156,-2.7563],[14.9148,-2.7507],[14.9129,-2.746],[14.9069,-2.7382],[14.8998,-2.7248],[14.897,-2.7208],[14.8933,-2.7175],[14.8853,-2.7177],[14.874,-2.7213],[14.8438,-2.7391],[14.8348,-2.7463],[14.8107,-2.7597],[14.8042,-2.7648],[14.8002,-2.7702],[14.7992,-2.7761],[14.7995,-2.7941],[14.799,-2.7981],[14.7958,-2.8108],[14.7931,-2.8166],[14.7918,-2.8187],[14.7907,-2.8202],[14.7896,-2.8212],[14.7795,-2.8288],[14.7714,-2.8362],[14.7364,-2.8559],[14.7238,-2.8661],[14.7224,-2.8689],[14.7163,-2.8771],[14.6873,-2.904],[14.66,-2.9231],[14.6563,-2.9267],[14.6545,-2.9293],[14.6533,-2.9319],[14.6485,-2.9452],[14.6464,-2.9479],[14.6439,-2.9501],[14.6275,-2.961],[14.6198,-2.9673],[14.5957,-2.9912],[14.5783,-3.0018],[14.5753,-3.0043],[14.5722,-3.0076],[14.5575,-3.0343],[14.5514,-3.0421],[14.536,-3.0571],[14.5242,-3.0769],[14.5205,-3.0806],[14.5111,-3.0802],[14.4959,-3.076],[14.4684,-3.0607],[14.4564,-3.0525],[14.449,-3.046],[14.4459,-3.0423],[14.442,-3.0392],[14.4371,-3.0364],[14.4313,-3.0346],[14.3975,-3.0358],[14.3864,-3.0384],[14.3796,-3.0382],[14.3719,-3.0358],[14.3505,-3.023],[14.3369,-3.0206],[14.3057,-3.0227],[14.2853,-3.0143],[14.2609,-2.9813],[14.266,-2.9713],[14.2675,-2.9675],[14.271,-2.9609],[14.2774,-2.9547],[14.2893,-2.946],[14.2927,-2.9424],[14.2955,-2.938],[14.2973,-2.9331],[14.2994,-2.9219],[14.3025,-2.9157],[14.3076,-2.9097],[14.3143,-2.9049],[14.3286,-2.8975],[14.3354,-2.8925],[14.341,-2.8855],[14.3427,-2.8762],[14.3394,-2.8625],[14.3075,-2.7735],[14.3054,-2.7577],[14.3032,-2.7522],[14.2989,-2.7521],[14.2902,-2.7617],[14.2855,-2.7645],[14.2814,-2.76],[14.2824,-2.7505],[14.2855,-2.7414],[14.2986,-2.7177],[14.3019,-2.7096],[14.3014,-2.7018],[14.2977,-2.6955],[14.2848,-2.693],[14.2753,-2.6944],[14.266,-2.6941],[14.258,-2.6902],[14.2487,-2.6847],[14.2403,-2.6837],[14.2319,-2.6854],[14.2147,-2.6946],[14.2063,-2.6958],[14.1977,-2.6935],[14.1875,-2.6872],[14.1793,-2.684],[14.1709,-2.6827],[14.1549,-2.6826],[14.1475,-2.6807],[14.1411,-2.6753],[14.1371,-2.6687],[14.1352,-2.6616],[14.1391,-2.6553],[14.1524,-2.6452],[14.1655,-2.633],[14.1796,-2.624],[14.1862,-2.6183],[14.1892,-2.6108],[14.1872,-2.6034],[14.1773,-2.5964],[14.1697,-2.597],[14.1638,-2.6009],[14.1598,-2.605],[14.1539,-2.6046],[14.1469,-2.6013],[14.1317,-2.5908],[14.1264,-2.5845],[14.124,-2.5778],[14.1295,-2.5716],[14.1429,-2.5686],[14.1479,-2.5665],[14.1512,-2.5638],[14.154,-2.5592],[14.153,-2.5547],[14.1493,-2.5472],[14.1205,-2.5204],[14.1107,-2.4931],[14.1006,-2.4781],[14.1068,-2.4603],[14.1152,-2.4514],[14.1249,-2.4438],[14.1319,-2.4351],[14.1315,-2.4089],[14.136,-2.3988],[14.1442,-2.3902],[14.1633,-2.374],[14.1724,-2.3679],[14.1823,-2.3633],[14.2301,-2.3522],[14.2344,-2.3549],[14.227,-2.3231],[14.1512,-2.259],[14.148,-2.2248],[14.1615,-2.2143],[14.1959,-2.2018],[14.2092,-2.1872],[14.2094,-2.1799],[14.2032,-2.162],[14.2043,-2.1522],[14.2097,-2.1474],[14.227,-2.1413],[14.2338,-2.1345],[14.2384,-2.1202],[14.244,-2.0675],[14.2506,-2.0478],[14.2517,-2.0379],[14.2468,-2.0294],[14.2386,-2.0234],[14.2335,-2.0182],[14.2329,-2.012],[14.2381,-2.0026],[14.2376,-1.9911],[14.2401,-1.9823],[14.2451,-1.9748],[14.2522,-1.9676],[14.3686,-1.9221],[14.3712,-1.9286],[14.375,-1.9824],[14.3809,-2.0018],[14.388,-2.015],[14.3959,-2.0201],[14.4109,-2.0238],[14.427,-2.0258],[14.4352,-2.0258],[14.443,-2.025],[14.4805,-2.0174],[14.4879,-2.0139],[14.4947,-2.0085],[14.4988,-2.0041],[14.5016,-2.0004],[14.5093,-1.984],[14.5148,-1.9774],[14.5223,-1.9724],[14.5332,-1.9697],[14.55,-1.9622],[14.565,-1.9514],[14.5876,-1.9305],[14.6269,-1.876],[14.631,-1.8686],[14.6421,-1.8389],[14.647,-1.8313],[14.6667,-1.809],[14.6785,-1.7902],[14.6872,-1.7788],[14.715,-1.7518],[14.7221,-1.7428],[14.7355,-1.7206],[14.7379,-1.7132],[14.7415,-1.6898],[14.7495,-1.6775],[14.7627,-1.6624],[14.8113,-1.6221],[14.8243,-1.6135],[14.8736,-1.592],[14.8818,-1.5902],[14.8902,-1.5893],[14.9289,-1.5922],[14.9413,-1.5893],[14.9686,-1.5777],[14.9843,-1.5687],[15.022,-1.5331],[15.0907,-1.4446],[15.1426,-1.2823],[15.163,-1.2393],[15.2286,-1.153],[15.2494,-1.1355],[15.2989,-1.1138],[15.3214,-1.0995],[15.3288,-1.0907],[15.3405,-1.0719],[15.3486,-1.0636],[15.3526,-1.063],[15.363,-1.066],[15.3678,-1.0649],[15.3844,-1.0508],[15.3988,-1.0343],[15.427,-0.991],[15.4429,-0.978],[15.4785,-0.9667],[15.4916,-0.9594],[15.4986,-0.9569],[15.5029,-0.9579],[15.5133,-0.9635],[15.5188,-0.964],[15.5346,-0.9585],[15.5642,-0.9436],[15.5801,-0.9382],[15.5991,-0.937],[15.653,-0.9509],[15.6923,-0.9545],[15.7093,-0.9589],[15.7227,-0.9713],[15.7279,-0.9912],[15.7283,-1.0147],[15.7321,-1.0379],[15.7476,-1.0568],[15.7664,-1.0643],[15.8124,-1.0747],[15.8337,-1.0839],[15.8404,-1.0906],[15.8439,-1.0974],[15.8491,-1.103],[15.8954,-1.1164],[15.903,-1.1198],[15.9172,-1.1412],[15.9254,-1.1512],[15.933,-1.1514],[15.9442,-1.1454],[15.9474,-1.1549],[15.948,-1.1779],[15.966,-1.1869],[16.0302,-1.1932],[16.0623,-1.2051],[16.0933,-1.2206],[16.204,-1.2903],[16.2099,-1.2963],[16.2171,-1.3005],[16.2557,-1.3051],[16.2619,-1.3089],[16.2699,-1.3165],[16.2743,-1.3236],[16.2898,-1.357],[16.3114,-1.3853],[16.3433,-1.4735],[16.3681,-1.4964],[16.4104,-1.4984],[16.4043,-1.5147],[16.4182,-1.5239],[16.4352,-1.5293],[16.439,-1.5346],[16.4413,-1.5423],[16.4629,-1.5457],[16.4892,-1.5451],[16.5055,-1.5404],[16.5236,-1.5289],[16.5439,-1.5271],[16.5643,-1.5319],[16.5937,-1.5438],[16.5972,-1.5424],[16.5984,-1.5436],[16.603,-1.5547],[16.6021,-1.5686],[16.5974,-1.5836],[16.6006,-1.593],[16.6234,-1.5903],[16.6553,-1.5903],[16.656,-1.5903]]]}},{"type":"Feature","properties":{"id":"COG-5855","name":"Pointe Noire","nameBn":"পয়েন্তে নয়ের","type":"Region","bounds":[11.8193,-4.8554,11.8982,-4.7415],"center":[11.859,-4.8054]},"geometry":{"type":"Polygon","coordinates":[[[11.8862,-4.8552],[11.8306,-4.797],[11.8202,-4.7848],[11.8193,-4.7792],[11.8241,-4.7724],[11.83,-4.7735],[11.8433,-4.7888],[11.8484,-4.786],[11.8531,-4.7739],[11.8504,-4.7528],[11.8417,-4.7415],[11.8982,-4.7418],[11.8976,-4.8554],[11.8862,-4.8552]]]}},{"type":"Feature","properties":{"id":"COG-3341","name":"Pool","nameBn":"পুল বিভাগ","type":"Region","bounds":[13.8603,-4.9036,16.2275,-2.7175],"center":[15.0436,-3.7111]},"geometry":{"type":"Polygon","coordinates":[[[16.184,-2.9404],[16.1883,-2.9764],[16.1845,-3.0261],[16.1898,-3.0823],[16.1857,-3.1364],[16.1899,-3.153],[16.1992,-3.1718],[16.1995,-3.1948],[16.1934,-3.2384],[16.1986,-3.2595],[16.2104,-3.2711],[16.2221,-3.2791],[16.2275,-3.2899],[16.2256,-3.3132],[16.2207,-3.3317],[16.2077,-3.3619],[16.1584,-3.4473],[16.1379,-3.5007],[16.1155,-3.5442],[16.0533,-3.62],[16.0127,-3.7023],[16.0053,-3.7248],[15.9911,-3.7389],[15.9742,-3.7865],[15.9578,-3.8151],[15.937,-3.7901],[15.9211,-3.7702],[15.9052,-3.7463],[15.9012,-3.7105],[15.8853,-3.6667],[15.8614,-3.6189],[15.8295,-3.5672],[15.8034,-3.534],[15.7476,-3.514],[15.7118,-3.4981],[15.676,-3.5061],[15.6481,-3.534],[15.6282,-3.5698],[15.6043,-3.6215],[15.5804,-3.6454],[15.5539,-3.6391],[15.5221,-3.6072],[15.4863,-3.5634],[15.4584,-3.5356],[15.4345,-3.5077],[15.3907,-3.4918],[15.3346,-3.4759],[15.3028,-3.452],[15.2749,-3.448],[15.255,-3.4838],[15.247,-3.5475],[15.2431,-3.6152],[15.2351,-3.6789],[15.2152,-3.7386],[15.1776,-3.7786],[15.1219,-3.8104],[15.094,-3.8622],[15.094,-3.9139],[15.1139,-3.9776],[15.1179,-4.0294],[15.102,-4.105],[15.0701,-4.1568],[15.0462,-4.2165],[15.0263,-4.2643],[14.9825,-4.32],[14.956,-4.364],[14.9919,-4.3999],[15.0197,-4.4317],[15.0436,-4.4795],[15.0761,-4.5201],[15.0228,-4.5471],[15.0146,-4.558],[15.0082,-4.571],[14.931,-4.6469],[14.849,-4.7837],[14.8414,-4.8002],[14.8312,-4.8151],[14.8155,-4.828],[14.7684,-4.8482],[14.7022,-4.8896],[14.6727,-4.8999],[14.6345,-4.9036],[14.6233,-4.8995],[14.5921,-4.8806],[14.5796,-4.8763],[14.5751,-4.8737],[14.5669,-4.8605],[14.5621,-4.8559],[14.5539,-4.8552],[14.5325,-4.8562],[14.528,-4.8522],[14.5199,-4.8413],[14.5015,-4.8407],[14.4819,-4.8459],[14.4701,-4.8522],[14.4495,-4.874],[14.4373,-4.8802],[14.4182,-4.8832],[14.4007,-4.8863],[14.3965,-4.8559],[14.4126,-4.7782],[14.4088,-4.7678],[14.4037,-4.7588],[14.3997,-4.7493],[14.399,-4.7375],[14.4015,-4.7281],[14.4092,-4.7106],[14.4109,-4.7011],[14.4069,-4.676],[14.3958,-4.6601],[14.381,-4.6462],[14.3658,-4.6273],[14.3575,-4.5891],[14.35,-4.5669],[14.3508,-4.559],[14.3589,-4.5446],[14.3748,-4.5302],[14.4126,-4.5145],[14.4246,-4.5023],[14.4357,-4.4867],[14.4525,-4.468],[14.4665,-4.448],[14.4697,-4.4293],[14.4632,-4.4226],[14.4286,-4.4004],[14.4091,-4.3776],[14.3927,-4.3528],[14.386,-4.3383],[14.3857,-4.3329],[14.3891,-4.3275],[14.3935,-4.3132],[14.3952,-4.3004],[14.3953,-4.2897],[14.3928,-4.2818],[14.3871,-4.2771],[14.3686,-4.2784],[14.3255,-4.3018],[14.28,-4.3128],[14.2596,-4.3269],[14.2222,-4.3598],[14.1847,-4.3775],[14.1464,-4.3899],[14.0584,-4.4005],[14.0211,-4.4154],[13.9916,-4.4551],[13.9899,-4.458],[13.9877,-4.4601],[13.9718,-4.4716],[13.9549,-4.4919],[13.9445,-4.4981],[13.9346,-4.4985],[13.9054,-4.4901],[13.9054,-4.4894],[13.913,-4.4607],[13.9234,-4.4437],[13.9268,-4.4362],[13.9309,-4.4215],[13.9339,-4.4138],[13.9456,-4.3907],[13.9478,-4.3807],[13.9535,-4.3132],[13.9621,-4.2837],[13.9642,-4.2802],[13.969,-4.2745],[13.9748,-4.2696],[13.9896,-4.2668],[14.0255,-4.2491],[14.0484,-4.232],[14.0782,-4.199],[14.0887,-4.191],[14.1021,-4.1856],[14.1355,-4.1773],[14.1514,-4.1705],[14.1439,-4.1631],[14.1607,-4.1514],[14.1616,-4.1346],[14.1439,-4.0948],[14.1558,-4.0754],[14.1688,-4.0624],[14.2197,-4.0269],[14.2264,-4.0197],[14.2297,-4.0112],[14.2345,-3.9908],[14.2395,-3.9856],[14.2482,-3.9875],[14.2805,-4.0067],[14.3221,-4.0067],[14.3269,-4.0018],[14.3425,-3.9787],[14.357,-3.9616],[14.3651,-3.9554],[14.3773,-3.9514],[14.3645,-3.9298],[14.3552,-3.9023],[14.344,-3.8788],[14.3252,-3.8689],[14.306,-3.8642],[14.2969,-3.852],[14.2942,-3.8355],[14.2941,-3.8176],[14.2611,-3.7641],[14.2395,-3.7391],[14.2128,-3.6907],[14.2105,-3.6753],[14.2148,-3.6747],[14.2248,-3.6784],[14.2395,-3.6765],[14.249,-3.669],[14.2629,-3.6524],[14.2706,-3.6492],[14.278,-3.6471],[14.3033,-3.6336],[14.3075,-3.6323],[14.305,-3.627],[14.3004,-3.6196],[14.2929,-3.61],[14.2893,-3.6015],[14.2843,-3.5786],[14.2846,-3.5642],[14.2831,-3.5567],[14.2783,-3.5486],[14.2712,-3.5388],[14.2623,-3.5225],[14.257,-3.515],[14.2494,-3.5084],[14.2431,-3.5003],[14.2286,-3.4936],[14.2072,-3.4896],[14.1692,-3.4742],[14.1624,-3.4696],[14.1505,-3.4581],[14.1441,-3.4558],[14.1373,-3.4611],[14.1299,-3.4752],[14.1243,-3.4806],[14.1042,-3.4939],[14.0963,-3.5004],[14.0401,-3.5686],[14.0325,-3.5723],[14.0232,-3.5748],[13.9807,-3.5785],[13.9718,-3.5774],[13.9615,-3.5744],[13.9457,-3.5667],[13.9335,-3.563],[13.9054,-3.5605],[13.8959,-3.5586],[13.8603,-3.5384],[13.8717,-3.5315],[13.8745,-3.5281],[13.8766,-3.5239],[13.8775,-3.5153],[13.8766,-3.5042],[13.8767,-3.5013],[13.8782,-3.4991],[13.8891,-3.4892],[13.8956,-3.4814],[13.9073,-3.4596],[13.9119,-3.4482],[13.9194,-3.4336],[13.9207,-3.4273],[13.9203,-3.4228],[13.9198,-3.4209],[13.92,-3.419],[13.9207,-3.4157],[13.9245,-3.4109],[13.9461,-3.3908],[13.9615,-3.3802],[13.9681,-3.377],[13.9704,-3.3753],[14.0073,-3.3339],[14.0117,-3.3277],[14.0181,-3.3152],[14.0222,-3.3087],[14.0268,-3.3037],[14.0428,-3.294],[14.045,-3.2913],[14.0519,-3.2735],[14.0553,-3.2688],[14.0595,-3.2653],[14.0689,-3.2592],[14.082,-3.2533],[14.0854,-3.2501],[14.086,-3.2438],[14.0844,-3.2395],[14.0846,-3.2352],[14.0862,-3.2328],[14.0921,-3.2291],[14.0967,-3.2243],[14.1017,-3.2171],[14.1103,-3.196],[14.1137,-3.191],[14.1236,-3.185],[14.1267,-3.1816],[14.1273,-3.1783],[14.1268,-3.1707],[14.1276,-3.1574],[14.1307,-3.1472],[14.1456,-3.1132],[14.1621,-3.0536],[14.1654,-3.0462],[14.1692,-3.0394],[14.1881,-3.0242],[14.2609,-2.9813],[14.2853,-3.0143],[14.3057,-3.0227],[14.3369,-3.0206],[14.3505,-3.023],[14.3719,-3.0358],[14.3796,-3.0382],[14.3864,-3.0384],[14.3975,-3.0358],[14.4313,-3.0346],[14.4371,-3.0364],[14.442,-3.0392],[14.4459,-3.0423],[14.449,-3.046],[14.4564,-3.0525],[14.4684,-3.0607],[14.4959,-3.076],[14.5111,-3.0802],[14.5205,-3.0806],[14.5242,-3.0769],[14.536,-3.0571],[14.5514,-3.0421],[14.5575,-3.0343],[14.5722,-3.0076],[14.5753,-3.0043],[14.5783,-3.0018],[14.5957,-2.9912],[14.6198,-2.9673],[14.6275,-2.961],[14.6439,-2.9501],[14.6464,-2.9479],[14.6485,-2.9452],[14.6533,-2.9319],[14.6545,-2.9293],[14.6563,-2.9267],[14.66,-2.9231],[14.6873,-2.904],[14.7163,-2.8771],[14.7224,-2.8689],[14.7238,-2.8661],[14.7364,-2.8559],[14.7714,-2.8362],[14.7795,-2.8288],[14.7896,-2.8212],[14.7907,-2.8202],[14.7918,-2.8187],[14.7931,-2.8166],[14.7958,-2.8108],[14.799,-2.7981],[14.7995,-2.7941],[14.7992,-2.7761],[14.8002,-2.7702],[14.8042,-2.7648],[14.8107,-2.7597],[14.8348,-2.7463],[14.8438,-2.7391],[14.874,-2.7213],[14.8853,-2.7177],[14.8933,-2.7175],[14.897,-2.7208],[14.8998,-2.7248],[14.9069,-2.7382],[14.9129,-2.746],[14.9148,-2.7507],[14.9156,-2.7563],[14.9141,-2.773],[14.9157,-2.7775],[14.9188,-2.7809],[14.9258,-2.7875],[14.929,-2.7914],[14.9312,-2.7958],[14.9325,-2.8016],[14.933,-2.8077],[14.933,-2.8335],[14.9401,-2.8665],[14.9407,-2.8711],[14.9406,-2.874],[14.9382,-2.8833],[14.9379,-2.8889],[14.9392,-2.8942],[14.9448,-2.8985],[14.9544,-2.9013],[14.9744,-2.9031],[14.992,-2.9024],[15.0124,-2.896],[15.0346,-2.8866],[15.0419,-2.886],[15.1056,-2.8922],[15.1147,-2.8944],[15.1187,-2.8973],[15.1217,-2.9012],[15.1268,-2.9098],[15.1376,-2.9194],[15.1404,-2.9236],[15.1425,-2.9285],[15.1465,-2.9585],[15.1524,-2.9738],[15.155,-2.9779],[15.1586,-2.9814],[15.1628,-2.9841],[15.1687,-2.9858],[15.1845,-2.9884],[15.1902,-2.9905],[15.1942,-2.9935],[15.1961,-2.9967],[15.1972,-2.9992],[15.1982,-3.0006],[15.1998,-3.0026],[15.2034,-3.0047],[15.2158,-3.0084],[15.2195,-3.01],[15.2232,-3.0124],[15.2428,-3.0198],[15.2818,-3.0263],[15.2917,-3.0262],[15.3099,-3.0217],[15.3296,-3.0191],[15.3405,-3.0188],[15.349,-3.0196],[15.3854,-3.0302],[15.3944,-3.0309],[15.4019,-3.0305],[15.4736,-3.0064],[15.4863,-3.0005],[15.5111,-2.9838],[15.5172,-2.9807],[15.5248,-2.9755],[15.5392,-2.9623],[15.547,-2.9563],[15.5511,-2.9537],[15.5549,-2.9508],[15.5653,-2.9399],[15.572,-2.9347],[15.586,-2.9266],[15.5957,-2.9227],[15.6178,-2.9169],[15.6262,-2.9132],[15.6286,-2.9116],[15.6342,-2.9064],[15.638,-2.9046],[15.6438,-2.9028],[15.6563,-2.9005],[15.6632,-2.8976],[15.6679,-2.8936],[15.6695,-2.8882],[15.6739,-2.8789],[15.6766,-2.8753],[15.6804,-2.8711],[15.6893,-2.8657],[15.7005,-2.8571],[15.7158,-2.8493],[15.7249,-2.8459],[15.7896,-2.832],[15.7962,-2.8338],[15.8061,-2.8394],[15.8097,-2.8379],[15.8169,-2.829],[15.8231,-2.8248],[15.828,-2.8265],[15.833,-2.83],[15.849,-2.835],[15.8615,-2.8412],[15.8735,-2.8432],[15.9008,-2.8545],[15.9128,-2.8619],[15.924,-2.8713],[15.9284,-2.8739],[15.9332,-2.8758],[15.9389,-2.877],[15.9438,-2.8792],[15.9477,-2.8822],[15.9537,-2.8898],[15.9574,-2.8931],[15.9605,-2.8969],[15.9633,-2.901],[15.9678,-2.9169],[15.9713,-2.9203],[15.9757,-2.9228],[15.9807,-2.9248],[15.985,-2.9274],[15.9886,-2.9306],[15.9914,-2.9348],[15.9968,-2.9389],[16.0047,-2.9424],[16.0208,-2.9453],[16.0336,-2.9462],[16.0357,-2.9453],[16.0387,-2.9437],[16.0422,-2.941],[16.0485,-2.9376],[16.0579,-2.9342],[16.0765,-2.9299],[16.0874,-2.9288],[16.0963,-2.9288],[16.1217,-2.9315],[16.1444,-2.936],[16.1834,-2.9404],[16.184,-2.9404]]]}},{"type":"Feature","properties":{"id":"COG-2880","name":"Sangha","nameBn":"সাংহা বিভাগ","type":"Region","bounds":[13.1296,0.0421,17.0495,2.7265],"center":[15.7466,1.1268]},"geometry":{"type":"Polygon","coordinates":[[[13.1644,1.5378],[13.1459,1.5634],[13.1296,1.5925],[13.1468,1.6123],[13.15,1.6363],[13.144,1.6818],[13.1478,1.7029],[13.1546,1.7217],[13.1575,1.7391],[13.1502,1.7563],[13.1628,1.7636],[13.173,1.7769],[13.1807,1.792],[13.191,1.8287],[13.1925,1.8447],[13.1883,1.8566],[13.1832,1.864],[13.1751,1.8821],[13.1622,1.8998],[13.1663,1.9044],[13.1782,1.9078],[13.1849,1.9235],[13.1917,1.9351],[13.1984,1.9431],[13.2051,1.9493],[13.2102,1.9563],[13.2123,1.9664],[13.2066,1.9852],[13.2069,1.9936],[13.216,1.9972],[13.2213,2.0008],[13.2395,2.0207],[13.2455,2.0253],[13.2811,2.045],[13.2914,2.0689],[13.2949,2.1011],[13.2946,2.1611],[13.4665,2.1595],[13.6203,2.1581],[13.6623,2.1578],[13.824,2.1564],[14.0028,2.1548],[14.1617,2.1534],[14.267,2.1524],[14.2763,2.1536],[14.3203,2.1707],[14.3836,2.1621],[14.3994,2.1532],[14.4187,2.1353],[14.4329,2.1321],[14.4387,2.134],[14.4592,2.1465],[14.5381,2.1634],[14.5471,2.1665],[14.5503,2.1752],[14.548,2.1844],[14.5478,2.1937],[14.5571,2.2024],[14.5621,2.2088],[14.5879,2.2017],[14.6209,2.1648],[14.6448,2.1542],[14.6363,2.1383],[14.6461,2.1334],[14.672,2.1343],[14.686,2.1259],[14.7057,2.1055],[14.7205,2.0996],[14.7137,2.124],[14.7209,2.1276],[14.7479,2.1132],[14.7335,2.102],[14.7273,2.0996],[14.7371,2.0961],[14.7476,2.0972],[14.7563,2.0996],[14.7614,2.0996],[14.7625,2.0925],[14.7616,2.0702],[14.7648,2.0655],[14.8263,2.0723],[14.8412,2.0759],[14.8482,2.0852],[14.8502,2.0974],[14.8502,2.1098],[14.857,2.1159],[14.8715,2.1017],[14.8846,2.0821],[14.8878,2.0723],[14.9073,2.0589],[14.8966,2.0309],[14.8925,2.0064],[14.9321,2.0033],[14.9538,2.0058],[14.963,2.0104],[14.971,2.0345],[14.9807,2.0331],[15.0283,1.9953],[15.0437,1.9909],[15.0631,1.9972],[15.0749,1.9794],[15.0916,1.9844],[15.1076,2.0008],[15.1178,2.017],[15.1239,2.017],[15.1385,2.0115],[15.1517,2.041],[15.1836,2.0293],[15.197,2.035],[15.2126,2.0396],[15.2337,2.0313],[15.2387,2.0253],[15.2442,2.0101],[15.2481,2.0033],[15.2536,2.0003],[15.2876,1.9878],[15.2954,1.9815],[15.3011,1.9738],[15.3033,1.9664],[15.3019,1.9533],[15.3002,1.9477],[15.3016,1.9436],[15.3095,1.9351],[15.3143,1.9343],[15.3378,1.9238],[15.3374,1.9215],[15.3492,1.9233],[15.368,1.9329],[15.3881,1.9395],[15.4392,1.9698],[15.4829,1.9759],[15.5266,1.9678],[15.6118,1.9425],[15.7068,1.932],[15.7111,1.9274],[15.7216,1.9216],[15.7341,1.9167],[15.7574,1.913],[15.7646,1.9087],[15.8029,1.86],[15.8154,1.8534],[15.8421,1.8442],[15.8659,1.8285],[15.8757,1.8238],[15.8824,1.8167],[15.885,1.8016],[15.8899,1.7933],[15.9018,1.7937],[15.9152,1.799],[15.9259,1.8047],[15.929,1.789],[15.9438,1.7816],[15.9632,1.7774],[15.9804,1.7706],[15.9908,1.7762],[16.0028,1.7759],[16.0138,1.7713],[16.022,1.7638],[16.0263,1.7523],[16.0249,1.7425],[16.022,1.733],[16.022,1.7228],[16.0305,1.7054],[16.0699,1.6546],[16.1148,1.7191],[16.1236,1.7216],[16.1451,1.7143],[16.1558,1.7191],[16.159,1.7348],[16.1351,1.8453],[16.1014,1.9328],[16.0835,1.963],[16.0749,1.9706],[16.0687,1.9736],[16.0649,1.9789],[16.0638,2.0159],[16.0664,2.0255],[16.0817,2.0468],[16.0815,2.0556],[16.0781,2.0634],[16.0767,2.0723],[16.0762,2.0728],[16.0755,2.0755],[16.0755,2.08],[16.0767,2.0859],[16.0797,2.0903],[16.0841,2.0916],[16.0881,2.0918],[16.0903,2.0927],[16.0925,2.1069],[16.0898,2.1162],[16.0856,2.1249],[16.0835,2.1378],[16.0858,2.1492],[16.0978,2.1715],[16.1044,2.1936],[16.1204,2.2033],[16.1406,2.1998],[16.1593,2.1821],[16.1995,2.2122],[16.2077,2.2231],[16.2023,2.232],[16.1967,2.2365],[16.248,2.3456],[16.2935,2.4421],[16.3256,2.5105],[16.3711,2.6069],[16.4137,2.6972],[16.4275,2.7265],[16.4412,2.7199],[16.468,2.7075],[16.4807,2.6899],[16.4873,2.6755],[16.4891,2.6657],[16.487,2.6573],[16.4832,2.6488],[16.4819,2.6378],[16.485,2.6204],[16.4906,2.6116],[16.4965,2.6063],[16.5008,2.6043],[16.5076,2.5998],[16.5157,2.5928],[16.552,2.5525],[16.5569,2.5434],[16.5591,2.5347],[16.5597,2.5081],[16.5626,2.5026],[16.5646,2.5001],[16.5676,2.4992],[16.5726,2.4992],[16.5794,2.5003],[16.6033,2.5093],[16.6111,2.5115],[16.6196,2.5122],[16.6544,2.4991],[16.6724,2.4896],[16.6793,2.4825],[16.6852,2.4749],[16.7341,2.388],[16.7391,2.3738],[16.7409,2.3623],[16.7398,2.3383],[16.7429,2.3066],[16.7344,2.2422],[16.7373,2.1946],[16.7475,2.1638],[16.7574,2.1489],[16.7611,2.1292],[16.7599,2.1219],[16.7571,2.1156],[16.7515,2.1114],[16.7378,2.1051],[16.7317,2.0998],[16.7278,2.093],[16.7253,2.085],[16.7228,2.0687],[16.7219,2.0526],[16.7293,1.9908],[16.7358,1.9677],[16.7385,1.9262],[16.736,1.9064],[16.7358,1.8977],[16.7369,1.889],[16.7497,1.8386],[16.7574,1.8191],[16.758,1.8057],[16.7562,1.7965],[16.7179,1.6905],[16.7082,1.6733],[16.706,1.6619],[16.7088,1.652],[16.7191,1.627],[16.7313,1.5429],[16.7316,1.5337],[16.7296,1.5259],[16.7253,1.5185],[16.7078,1.498],[16.7039,1.4922],[16.7005,1.4844],[16.6985,1.4744],[16.7024,1.4667],[16.7163,1.4543],[16.7185,1.4472],[16.7182,1.4383],[16.7162,1.428],[16.7151,1.4126],[16.7175,1.3992],[16.7389,1.3388],[16.7462,1.3232],[16.7516,1.3159],[16.7587,1.3089],[16.7661,1.3002],[16.7741,1.2877],[16.796,1.2004],[16.7985,1.1816],[16.7967,1.1676],[16.7915,1.1598],[16.7867,1.1483],[16.7829,1.1338],[16.7828,1.0815],[16.7815,1.0739],[16.7782,1.0664],[16.7735,1.0593],[16.767,1.0533],[16.7525,1.0446],[16.7287,1.0332],[16.7209,1.0281],[16.7132,1.0213],[16.701,1.0072],[16.6961,0.9995],[16.6931,0.9868],[16.694,0.8866],[16.6993,0.8589],[16.7064,0.8427],[16.7157,0.8262],[17.0495,0.3941],[16.3415,0.0421],[16.3384,0.0452],[16.3353,0.0489],[16.3329,0.0535],[16.331,0.0585],[16.33,0.0635],[16.3285,0.0675],[16.3276,0.0695],[16.3263,0.071],[16.3214,0.0713],[16.2912,0.0688],[16.285,0.0702],[16.2816,0.073],[16.2784,0.0767],[16.2706,0.0893],[16.2672,0.0927],[16.2631,0.0955],[16.2487,0.1017],[16.2445,0.1043],[16.2406,0.1073],[16.2328,0.1143],[16.2276,0.1171],[16.2183,0.1185],[16.2127,0.1177],[16.2068,0.1157],[16.1883,0.1066],[16.1798,0.1048],[16.1728,0.1046],[16.1673,0.1061],[16.148,0.1152],[16.1419,0.1173],[16.1329,0.1189],[16.1297,0.1213],[16.1282,0.1239],[16.1304,0.1469],[16.1303,0.1555],[16.1282,0.1652],[16.1264,0.1697],[16.1236,0.1732],[16.1211,0.1752],[16.114,0.1794],[16.1104,0.1821],[16.1075,0.1855],[16.1054,0.1898],[16.1042,0.1941],[16.1039,0.1973],[16.1053,0.2525],[16.1045,0.2573],[16.0864,0.2939],[16.0805,0.3018],[16.0685,0.3105],[16.0547,0.324],[16.0503,0.3265],[16.0457,0.3287],[16.0041,0.3415],[15.98,0.3463],[15.9732,0.3486],[15.9692,0.3512],[15.9654,0.3544],[15.9626,0.3583],[15.9604,0.3629],[15.9593,0.3687],[15.9589,0.3873],[15.9571,0.3923],[15.954,0.3961],[15.9505,0.3995],[15.9413,0.4039],[15.9211,0.4112],[15.9166,0.4136],[15.9082,0.419],[15.9045,0.4221],[15.898,0.4291],[15.8936,0.4316],[15.8892,0.4339],[15.8851,0.4367],[15.8815,0.44],[15.8753,0.4435],[15.8425,0.4493],[15.8178,0.4497],[15.7934,0.4555],[15.7884,0.4558],[15.7849,0.4552],[15.7763,0.4503],[15.7701,0.4475],[15.7603,0.4447],[15.7537,0.445],[15.7491,0.4475],[15.7466,0.4517],[15.7444,0.457],[15.7411,0.4615],[15.734,0.4653],[15.7262,0.4662],[15.7148,0.4657],[15.7096,0.4646],[15.7057,0.4631],[15.6987,0.4593],[15.6967,0.4585],[15.6664,0.4561],[15.6624,0.4552],[15.6545,0.4504],[15.6494,0.4481],[15.6432,0.4464],[15.6345,0.445],[15.6284,0.4431],[15.6238,0.4406],[15.6184,0.4357],[15.6163,0.4343],[15.611,0.4324],[15.599,0.4307],[15.5946,0.4297],[15.5912,0.4284],[15.5891,0.4274],[15.5872,0.4256],[15.5853,0.4232],[15.5814,0.4145],[15.5768,0.3987],[15.5746,0.3939],[15.5721,0.3894],[15.5689,0.3859],[15.5566,0.3777],[15.5532,0.3746],[15.5395,0.358],[15.5333,0.3545],[15.5271,0.3536],[15.5214,0.3545],[15.5166,0.3565],[15.5077,0.3627],[15.5012,0.3656],[15.4908,0.3681],[15.4805,0.3667],[15.4752,0.3665],[15.47,0.3672],[15.4662,0.3694],[15.4622,0.3721],[15.4576,0.3737],[15.4529,0.3757],[15.4401,0.3793],[15.4294,0.3808],[15.4223,0.3824],[15.4075,0.3873],[15.3951,0.3898],[15.3882,0.3887],[15.3818,0.3861],[15.3765,0.3827],[15.3678,0.3786],[15.3611,0.378],[15.3544,0.3781],[15.3359,0.3803],[15.305,0.3886],[15.3009,0.3877],[15.2925,0.3843],[15.2885,0.3856],[15.2861,0.3893],[15.2861,0.3944],[15.288,0.403],[15.2882,0.4063],[15.2867,0.4102],[15.2853,0.4114],[15.2829,0.4136],[15.2793,0.4136],[15.2768,0.4121],[15.274,0.4086],[15.2691,0.4055],[15.2666,0.4079],[15.2655,0.4129],[15.265,0.4193],[15.2639,0.425],[15.2616,0.4295],[15.2576,0.4331],[15.2521,0.4357],[15.2202,0.4447],[15.2115,0.4438],[15.2066,0.4468],[15.2044,0.4504],[15.2042,0.4555],[15.2051,0.4613],[15.1954,0.4674],[15.1796,0.4725],[15.174,0.476],[15.1715,0.4807],[15.1712,0.4854],[15.1693,0.4902],[15.1626,0.4945],[15.159,0.4979],[15.1542,0.5001],[15.102,0.5185],[15.0958,0.5225],[15.0915,0.527],[15.0895,0.5318],[15.0883,0.5372],[15.085,0.5613],[15.0846,0.5737],[15.0853,0.5838],[15.0858,0.5863],[15.0866,0.5886],[15.088,0.5919],[15.1011,0.6124],[15.1026,0.6174],[15.1027,0.6232],[15.1017,0.6288],[15.0886,0.6699],[15.0855,0.6871],[15.085,0.7603],[15.0942,0.8127],[15.094,0.8212],[15.0915,0.8303],[15.0782,0.8511],[15.076,0.8557],[15.0729,0.8662],[15.0701,0.8831],[15.07,0.8885],[15.071,0.8918],[15.0731,0.8945],[15.0804,0.8992],[15.0831,0.9022],[15.0883,0.9111],[15.0905,0.9131],[15.0936,0.9149],[15.0977,0.9162],[15.1008,0.9186],[15.1029,0.9208],[15.1068,0.928],[15.1096,0.9318],[15.1134,0.9348],[15.1178,0.9374],[15.1283,0.9405],[15.1403,0.942],[15.1454,0.9436],[15.1494,0.9465],[15.1519,0.9507],[15.1534,0.9554],[15.154,0.9603],[15.154,0.9631],[15.1518,0.9724],[15.1392,0.9999],[15.1381,1.0013],[15.1332,1.0048],[15.1246,1.0095],[15.0965,1.0214],[15.0895,1.0253],[15.0861,1.0286],[15.0747,1.0435],[15.0676,1.0461],[15.0602,1.0471],[15.0281,1.0453],[15.002,1.0466],[14.9761,1.0516],[14.9497,1.0604],[14.9117,1.0858],[14.8559,1.1138],[14.8448,1.1207],[14.8363,1.129],[14.8247,1.1493],[14.8172,1.1585],[14.795,1.1741],[14.7826,1.1792],[14.773,1.1819],[14.7647,1.1826],[14.7573,1.1819],[14.7491,1.18],[14.6951,1.1875],[14.5866,1.2204],[14.565,1.2298],[14.5354,1.2507],[14.531,1.2572],[14.5284,1.2647],[14.5199,1.3281],[14.5146,1.3439],[14.5129,1.3518],[14.512,1.3683],[14.5103,1.377],[14.5046,1.3864],[14.4997,1.3898],[14.4941,1.3911],[14.4459,1.382],[14.4346,1.3832],[14.4168,1.3865],[14.4105,1.386],[14.405,1.3848],[14.3964,1.3816],[14.3781,1.3783],[14.3657,1.3772],[14.3214,1.3807],[14.315,1.3807],[14.3091,1.38],[14.2712,1.3711],[14.2522,1.3684],[14.236,1.3633],[14.2199,1.355],[14.2184,1.3606],[14.2065,1.3628],[14.199,1.3683],[14.1925,1.375],[14.1839,1.3808],[14.1445,1.3916],[14.1244,1.3936],[14.1065,1.3889],[14.0707,1.3751],[14.0495,1.3764],[14.0338,1.3876],[14.019,1.4021],[14.0008,1.413],[13.9836,1.4168],[13.7947,1.4344],[13.7806,1.431],[13.7798,1.4263],[13.7704,1.4004],[13.7582,1.3765],[13.7548,1.3743],[13.7441,1.3703],[13.7411,1.3713],[13.7294,1.3769],[13.7244,1.378],[13.7175,1.3754],[13.7056,1.366],[13.6991,1.3628],[13.6807,1.3594],[13.6715,1.3588],[13.6621,1.3592],[13.6422,1.3574],[13.6281,1.3481],[13.6151,1.3374],[13.5792,1.3235],[13.5564,1.2928],[13.5434,1.2835],[13.51,1.2773],[13.4798,1.2771],[13.4489,1.2831],[13.4139,1.2955],[13.3987,1.2969],[13.3769,1.2944],[13.3574,1.2891],[13.3493,1.2816],[13.3429,1.2639],[13.326,1.2593],[13.3078,1.2567],[13.2892,1.234],[13.2709,1.226],[13.2502,1.2218],[13.2158,1.2244],[13.1955,1.2211],[13.1849,1.2225],[13.1849,1.2226],[13.1818,1.2365],[13.1723,1.2429],[13.1603,1.2477],[13.1502,1.2566],[13.1692,1.2586],[13.1766,1.2709],[13.1804,1.2848],[13.1883,1.2914],[13.2024,1.2934],[13.2193,1.2992],[13.2336,1.3088],[13.243,1.3289],[13.2491,1.3324],[13.2513,1.3376],[13.2429,1.3498],[13.2396,1.3565],[13.2392,1.3642],[13.2398,1.3723],[13.2384,1.4196],[13.2395,1.428],[13.2235,1.438],[13.2055,1.4864],[13.1849,1.4969],[13.1909,1.5111],[13.1897,1.5247],[13.1826,1.5365],[13.1713,1.5453],[13.1644,1.5378]]]}}]}