{"type":"FeatureCollection","features":[{"type":"Feature","properties":{"id":"COK-4951","name":"Aitutaki","nameBn":"আইতোটাকি","type":null,"bounds":[-158.9556,-19.2692,-158.9181,-19.2421],"center":[-158.892,-19.2709]},"geometry":{"type":"Polygon","coordinates":[[[-158.9252,-19.2692],[-158.9374,-19.2643],[-158.9502,-19.2545],[-158.9556,-19.2453],[-158.9457,-19.2421],[-158.9407,-19.2473],[-158.938,-19.2571],[-158.9322,-19.2643],[-158.9181,-19.2612],[-158.9189,-19.2641],[-158.9204,-19.266],[-158.9252,-19.2692]]]}},{"type":"Feature","properties":{"id":"COK-4950","name":"Atiu","nameBn":"আতিউ","type":null,"bounds":[-158.2974,-20.0197,-158.0783,-19.8106],"center":[-158.089,-20.0232]},"geometry":{"type":"MultiPolygon","coordinates":[[[[-158.0783,-19.9942],[-158.0818,-20.0128],[-158.0965,-20.0197],[-158.1151,-20.0157],[-158.13,-20.0007],[-158.1352,-19.9765],[-158.1203,-19.9728],[-158.0974,-19.9815],[-158.0783,-19.9942]]],[[[-158.2683,-19.8326],[-158.2811,-19.822],[-158.2764,-19.8235],[-158.2733,-19.8263],[-158.2683,-19.8326]]],[[[-158.2877,-19.8106],[-158.2938,-19.8166],[-158.2974,-19.8173],[-158.296,-19.8145],[-158.2877,-19.8106]]]]}},{"type":"Feature","properties":{"id":"COK-4952","name":"Mangaia","nameBn":"মানাগিয়া","type":null,"bounds":[-157.9687,-21.9389,-157.8871,-21.8775],"center":[-157.909,-21.9367]},"geometry":{"type":"Polygon","coordinates":[[[-157.9346,-21.8775],[-157.9213,-21.8823],[-157.9103,-21.8917],[-157.8899,-21.9153],[-157.8871,-21.9264],[-157.8985,-21.9337],[-157.9151,-21.9377],[-157.9277,-21.9389],[-157.9425,-21.9372],[-157.9529,-21.9323],[-157.961,-21.9239],[-157.9687,-21.9123],[-157.9641,-21.9005],[-157.9551,-21.8888],[-157.9444,-21.8805],[-157.9346,-21.8775]]]}},{"type":"Feature","properties":{"id":"COK-4961","name":"Manihiki","nameBn":"মানিহিকি","type":null,"bounds":[-160.9964,-10.4228,-160.9381,-10.3715],"center":[-160.963,-10.4098]},"geometry":{"type":"Polygon","coordinates":[[[-160.9862,-10.3821],[-160.9943,-10.3747],[-160.9964,-10.3715],[-160.9799,-10.381],[-160.9381,-10.4228],[-160.9862,-10.3821]]]}},{"type":"Feature","properties":{"id":"COK-4955","name":"Mauke","nameBn":"মাউকে","type":null,"bounds":[-157.3494,-20.1791,-157.3128,-20.1374],"center":[-157.312,-20.1852]},"geometry":{"type":"Polygon","coordinates":[[[-157.3128,-20.1552],[-157.318,-20.1718],[-157.3286,-20.1791],[-157.3403,-20.1757],[-157.3494,-20.1607],[-157.349,-20.1433],[-157.3386,-20.1374],[-157.3244,-20.1417],[-157.3128,-20.1552]]]}},{"type":"Feature","properties":{"id":"COK-4954","name":"Mitiaro","nameBn":"মিতিয়ারো","type":null,"bounds":[-157.7421,-19.8559,-157.7072,-19.7672],"center":[-157.707,-19.8389]},"geometry":{"type":"Polygon","coordinates":[[[-157.708,-19.7672],[-157.7099,-19.7883],[-157.7072,-19.8159],[-157.7082,-19.8412],[-157.7217,-19.8559],[-157.7217,-19.8422],[-157.7269,-19.8323],[-157.7337,-19.8259],[-157.7396,-19.8185],[-157.7421,-19.8046],[-157.7375,-19.7966],[-157.7156,-19.7732],[-157.708,-19.7672]]]}},{"type":"Feature","properties":{"id":"COK-4956","name":"Palmerston","nameBn":"পামেরস্টন","type":null,"bounds":[-159.8023,-18.888,-159.7614,-18.829],"center":[-159.771,-18.8968]},"geometry":{"type":"Polygon","coordinates":[[[-159.7851,-18.8308],[-159.7726,-18.829],[-159.762,-18.8373],[-159.7614,-18.8454],[-159.765,-18.8417],[-159.7666,-18.8352],[-159.7697,-18.8343],[-159.7792,-18.8529],[-159.7796,-18.8564],[-159.7765,-18.8782],[-159.7829,-18.888],[-159.7936,-18.8875],[-159.8008,-18.8782],[-159.8023,-18.8658],[-159.7979,-18.8465],[-159.7939,-18.8399],[-159.7851,-18.8308]]]}},{"type":"Feature","properties":{"id":"COK-4962","name":"Penrhyn","nameBn":"পেনরাইন","type":null,"bounds":[-158.0083,-8.9807,-157.9407,-8.9467],"center":[-157.956,-8.9961]},"geometry":{"type":"Polygon","coordinates":[[[-157.9407,-8.9807],[-157.9619,-8.9807],[-157.9786,-8.976],[-157.9971,-8.9646],[-158.0083,-8.9529],[-158.0029,-8.9467],[-157.9407,-8.9745],[-157.9407,-8.9807]]]}},{"type":"Feature","properties":{"id":"COK-4959","name":"Pukapuka","nameBn":"পুকাপুকা","type":null,"bounds":[-165.8245,-10.8915,-165.8077,-10.8801],"center":[-165.802,-10.9163]},"geometry":{"type":"Polygon","coordinates":[[[-165.8245,-10.8818],[-165.8159,-10.8803],[-165.8118,-10.8801],[-165.8077,-10.8813],[-165.814,-10.8891],[-165.8187,-10.8915],[-165.8221,-10.8891],[-165.8245,-10.8818]]]}},{"type":"Feature","properties":{"id":"COK-4960","name":"Rakahanga","nameBn":"রাখহাঙ্গা","type":null,"bounds":[-161.088,-10.0446,-161.0701,-10.0274],"center":[-161.065,-10.0641]},"geometry":{"type":"Polygon","coordinates":[[[-161.088,-10.0351],[-161.0701,-10.0274],[-161.0756,-10.0364],[-161.0873,-10.0446],[-161.088,-10.0351]]]}},{"type":"Feature","properties":{"id":"COK-4953","name":"Rarotonga","nameBn":"রারোটোঙ্গা","type":null,"bounds":[-159.8463,-21.2543,-159.736,-21.1861],"center":[-159.789,-21.2088]},"geometry":{"type":"Polygon","coordinates":[[[-159.7978,-21.1861],[-159.7784,-21.1869],[-159.7584,-21.1918],[-159.7427,-21.2016],[-159.7364,-21.2167],[-159.736,-21.237],[-159.7379,-21.2463],[-159.7432,-21.2543],[-159.7709,-21.2502],[-159.7743,-21.2509],[-159.7933,-21.2416],[-159.8331,-21.2446],[-159.8463,-21.2338],[-159.8388,-21.2263],[-159.8328,-21.2076],[-159.8314,-21.1956],[-159.8234,-21.1891],[-159.7978,-21.1861]]]}}]}