{"type":"FeatureCollection","features":[{"type":"Feature","properties":{"id":"COM-4935","name":"Andjazîdja","nameBn":"আন্দজাদিদজা","type":null,"bounds":[43.2132,-11.9329,43.4988,-11.3613],"center":[43.3378,-11.6952]},"geometry":{"type":"Polygon","coordinates":[[[43.4666,-11.8217],[43.4691,-11.8317],[43.4754,-11.843],[43.4988,-11.8736],[43.4983,-11.882],[43.487,-11.8998],[43.4837,-11.9099],[43.4826,-11.9172],[43.48,-11.9228],[43.4727,-11.9279],[43.4631,-11.9309],[43.4496,-11.9329],[43.4377,-11.9316],[43.4324,-11.9241],[43.426,-11.9116],[43.37,-11.8606],[43.3552,-11.8546],[43.3123,-11.8521],[43.3018,-11.8495],[43.2903,-11.8434],[43.271,-11.8282],[43.2629,-11.818],[43.2601,-11.8092],[43.2588,-11.8005],[43.2542,-11.7907],[43.2288,-11.7663],[43.2178,-11.7503],[43.2132,-11.7258],[43.216,-11.716],[43.2225,-11.7039],[43.2442,-11.6729],[43.2444,-11.6623],[43.2415,-11.6515],[43.2406,-11.6398],[43.2544,-11.4631],[43.2523,-11.4513],[43.2468,-11.4406],[43.2566,-11.4233],[43.2661,-11.3987],[43.2765,-11.3796],[43.2883,-11.3792],[43.3308,-11.365],[43.3557,-11.3613],[43.374,-11.3686],[43.386,-11.384],[43.3949,-11.4002],[43.3994,-11.4184],[43.3771,-11.6051],[43.3861,-11.6456],[43.4305,-11.7082],[43.4466,-11.7491],[43.4471,-11.7594],[43.4456,-11.7805],[43.4466,-11.7907],[43.4512,-11.798],[43.4578,-11.8044],[43.4639,-11.8116],[43.4666,-11.8217]]]}},{"type":"Feature","properties":{"id":"COM-4936","name":"Andjouân","nameBn":"আঞ্জুয়ান","type":null,"bounds":[44.2064,-12.3803,44.5291,-12.0641],"center":[44.4518,-12.226]},"geometry":{"type":"Polygon","coordinates":[[[44.5291,-12.2328],[44.5285,-12.3547],[44.523,-12.3728],[44.5115,-12.3803],[44.5027,-12.3767],[44.4924,-12.3683],[44.4841,-12.358],[44.4807,-12.3493],[44.4788,-12.3368],[44.4733,-12.3298],[44.3996,-12.28],[44.3914,-12.267],[44.3853,-12.2517],[44.3701,-12.2443],[44.3306,-12.2363],[44.2684,-12.205],[44.26,-12.1984],[44.2199,-12.175],[44.2064,-12.1606],[44.2225,-12.1601],[44.2358,-12.1633],[44.2616,-12.1742],[44.279,-12.1786],[44.3113,-12.1833],[44.3231,-12.1879],[44.3284,-12.1838],[44.3384,-12.1786],[44.3435,-12.1742],[44.3735,-12.1804],[44.4001,-12.1565],[44.4153,-12.1193],[44.4118,-12.0855],[44.4216,-12.0827],[44.4353,-12.0748],[44.4461,-12.0719],[44.451,-12.0698],[44.4553,-12.0666],[44.4601,-12.0641],[44.4671,-12.0644],[44.4728,-12.0685],[44.4807,-12.0825],[44.4841,-12.0855],[44.5264,-12.2188],[44.5291,-12.2328]]]}},{"type":"Feature","properties":{"id":"COM-4934","name":"Moûhîlî","nameBn":"মুহেলি","type":null,"bounds":[43.6299,-12.3735,43.8616,-12.2369],"center":[43.7462,-12.3178]},"geometry":{"type":"Polygon","coordinates":[[[43.7887,-12.308],[43.797,-12.3116],[43.8501,-12.3461],[43.8616,-12.3634],[43.8582,-12.3714],[43.8429,-12.3735],[43.8193,-12.3735],[43.7515,-12.36],[43.6814,-12.3581],[43.6652,-12.3525],[43.6608,-12.345],[43.6618,-12.3277],[43.6589,-12.3183],[43.6502,-12.3102],[43.6411,-12.3064],[43.634,-12.301],[43.631,-12.2878],[43.6299,-12.2517],[43.6358,-12.2369],[43.6521,-12.2426],[43.6664,-12.2501],[43.7083,-12.2579],[43.7272,-12.2636],[43.7793,-12.2976],[43.7887,-12.308]]]}}]}