{"type":"FeatureCollection","features":[{"type":"Feature","properties":{"id":"CPV-5055","name":"Boa Vista","nameBn":"বুয়ো ভিস্তা","type":null,"bounds":[-22.964,15.9824,-22.6666,16.244],"center":[-22.807,16.1024]},"geometry":{"type":"Polygon","coordinates":[[[-22.6821,16.1136],[-22.6784,16.1119],[-22.6708,16.1022],[-22.6666,16.0915],[-22.6725,16.0863],[-22.6756,16.082],[-22.6771,16.0727],[-22.6798,16.0632],[-22.6964,16.0529],[-22.7511,16.0106],[-22.7876,15.9916],[-22.8061,15.9859],[-22.8637,15.9824],[-22.8739,15.9839],[-22.8837,15.9887],[-22.8978,16.0005],[-22.9093,16.0037],[-22.9455,16.0197],[-22.9578,16.0308],[-22.964,16.0522],[-22.9632,16.0712],[-22.9578,16.089],[-22.9474,16.1022],[-22.9326,16.1074],[-22.9136,16.1256],[-22.9244,16.213],[-22.9156,16.244],[-22.9116,16.2367],[-22.9072,16.2314],[-22.8951,16.2228],[-22.8779,16.2149],[-22.8525,16.2066],[-22.8294,16.204],[-22.8193,16.213],[-22.8117,16.2284],[-22.7938,16.2313],[-22.7347,16.2169],[-22.7239,16.2126],[-22.7139,16.2058],[-22.7098,16.1986],[-22.7038,16.1796],[-22.6996,16.1757],[-22.6825,16.1686],[-22.6787,16.1518],[-22.6821,16.1136]]]}},{"type":"Feature","properties":{"id":"CPV-5041","name":"Brava","nameBn":"ব্রাভা","type":null,"bounds":[-24.7589,14.8039,-24.6833,14.9008],"center":[-24.7204,14.851]},"geometry":{"type":"Polygon","coordinates":[[[-24.7043,14.9008],[-24.6931,14.8907],[-24.6868,14.8762],[-24.6839,14.8594],[-24.6833,14.8425],[-24.6869,14.8266],[-24.6953,14.8194],[-24.7044,14.814],[-24.7106,14.8039],[-24.718,14.8039],[-24.7255,14.8141],[-24.7446,14.8266],[-24.7515,14.8388],[-24.7589,14.8319],[-24.7547,14.8408],[-24.7532,14.8494],[-24.7547,14.8579],[-24.7589,14.8666],[-24.7454,14.8666],[-24.7494,14.8855],[-24.7376,14.892],[-24.7193,14.8944],[-24.7043,14.9008]]]}},{"type":"Feature","properties":{"id":"CPV-5054","name":"Maio","nameBn":"মাইও","type":null,"bounds":[-23.2582,15.1186,-23.1105,15.3328],"center":[-23.1806,15.2115]},"geometry":{"type":"Polygon","coordinates":[[[-23.1278,15.3117],[-23.1219,15.2991],[-23.1205,15.2834],[-23.1216,15.2564],[-23.1105,15.1994],[-23.1119,15.1719],[-23.1278,15.1466],[-23.1328,15.1447],[-23.1487,15.1428],[-23.1551,15.1404],[-23.1588,15.1356],[-23.1636,15.1237],[-23.1688,15.1199],[-23.1827,15.1186],[-23.196,15.1221],[-23.2172,15.1335],[-23.2406,15.1501],[-23.2521,15.1618],[-23.2582,15.1745],[-23.2551,15.1868],[-23.2473,15.1992],[-23.2433,15.2113],[-23.2513,15.2229],[-23.2372,15.231],[-23.2309,15.244],[-23.2349,15.2548],[-23.2513,15.2564],[-23.2457,15.2711],[-23.2241,15.2867],[-23.2098,15.3117],[-23.2145,15.3135],[-23.2152,15.3144],[-23.215,15.3158],[-23.2172,15.3192],[-23.2033,15.3249],[-23.1898,15.3328],[-23.1896,15.3295],[-23.1898,15.3192],[-23.1813,15.3258],[-23.1789,15.3279],[-23.1763,15.3328],[-23.1688,15.3253],[-23.1763,15.3192],[-23.1619,15.3126],[-23.1395,15.3178],[-23.1278,15.3117]]]}},{"type":"Feature","properties":{"id":"CPV-5043","name":"Mosteiros","nameBn":"মস্টেইরোস","type":null,"bounds":[-24.4297,14.9449,-24.3015,15.0454],"center":[-24.3541,15.0008]},"geometry":{"type":"Polygon","coordinates":[[[-24.4297,15.025],[-24.4034,15.038],[-24.3856,15.0435],[-24.3649,15.0454],[-24.3433,15.0407],[-24.3292,15.0287],[-24.3201,15.013],[-24.3072,14.9794],[-24.3015,14.9548],[-24.3379,14.9531],[-24.374,14.9449],[-24.4069,14.9909],[-24.4297,15.025]]]}},{"type":"Feature","properties":{"id":"CPV-5062","name":"Paul","nameBn":"পল","type":null,"bounds":[-25.073,17.0789,-24.9713,17.1449],"center":[-25.0151,17.1179]},"geometry":{"type":"Polygon","coordinates":[[[-25.0259,17.1449],[-25.0206,17.1404],[-24.9971,17.1342],[-24.9918,17.1309],[-24.9887,17.1257],[-24.975,17.1145],[-24.9713,17.1073],[-24.973,17.0966],[-24.979,17.0869],[-24.9867,17.0789],[-25.0005,17.0878],[-25.0283,17.1056],[-25.073,17.1136],[-25.0541,17.1275],[-25.0382,17.1384],[-25.0259,17.1449]]]}},{"type":"Feature","properties":{"id":"CPV-5060","name":"Porto Novo","nameBn":"পোর্টো নোভো","type":null,"bounds":[-25.3604,16.9172,-24.9867,17.1367],"center":[-25.2258,17.0173]},"geometry":{"type":"Polygon","coordinates":[[[-24.9867,17.0789],[-25.0151,17.0491],[-25.0197,17.049],[-25.0239,17.0454],[-25.0427,17.0385],[-25.047,17.0351],[-25.0556,17.0248],[-25.1159,16.9975],[-25.1434,16.97],[-25.163,16.9453],[-25.1879,16.9282],[-25.2313,16.923],[-25.2692,16.923],[-25.2808,16.9207],[-25.2897,16.9172],[-25.2987,16.9174],[-25.3108,16.9261],[-25.3134,16.9385],[-25.3139,17.005],[-25.3275,17.0282],[-25.331,17.031],[-25.3483,17.0341],[-25.3548,17.0385],[-25.3604,17.0552],[-25.3556,17.0696],[-25.3309,17.0968],[-25.3168,17.1061],[-25.3022,17.1081],[-25.2891,17.107],[-25.2798,17.1073],[-25.2696,17.1143],[-25.2454,17.1367],[-25.1911,17.1076],[-25.1583,17.0858],[-25.1127,17.1036],[-25.073,17.1136],[-25.0283,17.1056],[-25.0005,17.0878],[-24.9867,17.0789]]]}},{"type":"Feature","properties":{"id":"CPV-5053","name":"Praia","nameBn":"পারাইয়া","type":null,"bounds":[-23.5641,14.9076,-23.4704,14.9862],"center":[-23.5159,14.9529]},"geometry":{"type":"Polygon","coordinates":[[[-23.4715,14.9737],[-23.4779,14.9691],[-23.4704,14.9622],[-23.4802,14.9466],[-23.4863,14.9309],[-23.494,14.9187],[-23.5083,14.9138],[-23.5162,14.9128],[-23.5318,14.9086],[-23.5393,14.9076],[-23.5476,14.9257],[-23.5605,14.9418],[-23.5641,14.9607],[-23.5364,14.9663],[-23.5109,14.9829],[-23.491,14.9862],[-23.4715,14.9737]]]}},{"type":"Feature","properties":{"id":"CPV-5057","name":"Ribeira Brava","nameBn":"রিবেইরা ব্রাভা","type":null,"bounds":[-24.3765,16.4827,-24.0328,16.6816],"center":[-24.287,16.6197]},"geometry":{"type":"Polygon","coordinates":[[[-24.3756,16.6771],[-24.3615,16.6816],[-24.3542,16.6806],[-24.3406,16.6754],[-24.3287,16.6678],[-24.3052,16.6479],[-24.2928,16.6418],[-24.2824,16.6413],[-24.2268,16.6496],[-24.2171,16.6477],[-24.1806,16.6308],[-24.1725,16.6291],[-24.09,16.6225],[-24.0675,16.6139],[-24.048,16.5988],[-24.0374,16.593],[-24.0328,16.5968],[-24.0328,16.5624],[-24.0441,16.5599],[-24.1147,16.5593],[-24.192,16.5925],[-24.2333,16.6021],[-24.2723,16.5872],[-24.2864,16.5707],[-24.3153,16.5204],[-24.3247,16.4827],[-24.326,16.5126],[-24.3202,16.5548],[-24.3144,16.5813],[-24.3202,16.6128],[-24.3384,16.6277],[-24.3666,16.6294],[-24.3765,16.6426],[-24.3666,16.6559],[-24.3756,16.6771]]]}},{"type":"Feature","properties":{"id":"CPV-5061","name":"Ribeira Grande","nameBn":"রবিরা গ্র্যান্ডে","type":null,"bounds":[-25.2454,17.0858,-25.0259,17.1966],"center":[-25.1204,17.1418]},"geometry":{"type":"Polygon","coordinates":[[[-25.2454,17.1367],[-25.2263,17.1447],[-25.2027,17.1588],[-25.1796,17.1644],[-25.1186,17.1929],[-25.1026,17.1966],[-25.0911,17.193],[-25.0795,17.1854],[-25.0539,17.1862],[-25.0395,17.1824],[-25.0302,17.1755],[-25.0263,17.1677],[-25.0259,17.1449],[-25.0382,17.1384],[-25.0541,17.1275],[-25.073,17.1136],[-25.1127,17.1036],[-25.1583,17.0858],[-25.1911,17.1076],[-25.2454,17.1367]]]}},{"type":"Feature","properties":{"id":"CPV-5052","name":"Ribeira Grande de Santiago","nameBn":"রইবেরা গ্রান্ডে দি সান্তিয়াগু","type":null,"bounds":[-23.7151,14.9076,-23.5393,15.0409],"center":[-23.6404,14.9768]},"geometry":{"type":"Polygon","coordinates":[[[-23.5393,14.9076],[-23.5474,14.9085],[-23.5558,14.9128],[-23.5632,14.9138],[-23.5964,14.9145],[-23.6241,14.9181],[-23.6497,14.9265],[-23.6765,14.9355],[-23.7151,14.9685],[-23.6981,14.9862],[-23.6792,14.9939],[-23.6704,15.0072],[-23.6493,15.0094],[-23.6416,15.0139],[-23.6394,15.0283],[-23.6294,15.0393],[-23.612,15.0409],[-23.6117,15.0249],[-23.5962,15.0117],[-23.584,14.995],[-23.5807,14.9685],[-23.5641,14.9607],[-23.5605,14.9418],[-23.5476,14.9257],[-23.5393,14.9076]]]}},{"type":"Feature","properties":{"id":"CPV-5056","name":"Sal","nameBn":"সাল","type":null,"bounds":[-22.9916,16.5934,-22.8813,16.8603],"center":[-22.9363,16.7251]},"geometry":{"type":"Polygon","coordinates":[[[-22.9292,16.5934],[-22.9414,16.6694],[-22.9565,16.6994],[-22.9776,16.689],[-22.9818,16.7035],[-22.9831,16.723],[-22.9801,16.7411],[-22.9708,16.751],[-22.9708,16.7579],[-22.9827,16.7614],[-22.9892,16.7709],[-22.9916,16.7843],[-22.9908,16.8157],[-22.9701,16.8314],[-22.9224,16.8603],[-22.917,16.8532],[-22.8989,16.8368],[-22.8951,16.8293],[-22.8963,16.825],[-22.9027,16.8132],[-22.9098,16.8034],[-22.9079,16.8006],[-22.904,16.7986],[-22.9018,16.7951],[-22.9047,16.7358],[-22.9018,16.7169],[-22.8974,16.7103],[-22.8842,16.6984],[-22.8813,16.6927],[-22.8824,16.6815],[-22.8866,16.6617],[-22.8876,16.6514],[-22.8896,16.6459],[-22.8988,16.6395],[-22.9018,16.6344],[-22.9015,16.6291],[-22.8994,16.6216],[-22.8968,16.6155],[-22.8951,16.6139],[-22.9017,16.6059],[-22.9088,16.6022],[-22.9176,16.5992],[-22.9292,16.5934]]]}},{"type":"Feature","properties":{"id":"CPV-5046","name":"Santa Catarina","nameBn":"স্যান্টা ক্যাটারিনা","type":null,"bounds":[-23.7926,14.9685,-23.6183,15.1844],"center":[-23.7027,15.0918]},"geometry":{"type":"Polygon","coordinates":[[[-23.7151,14.9685],[-23.7305,14.9858],[-23.7307,15.0185],[-23.7421,15.0264],[-23.7583,15.0313],[-23.7721,15.038],[-23.7727,15.0417],[-23.7795,15.0646],[-23.7823,15.0685],[-23.7863,15.0724],[-23.7901,15.0777],[-23.7926,15.0858],[-23.7899,15.0938],[-23.7756,15.1182],[-23.7721,15.1273],[-23.7729,15.1404],[-23.7858,15.1745],[-23.7762,15.1772],[-23.7701,15.184],[-23.7545,15.1833],[-23.7246,15.18],[-23.6859,15.1844],[-23.687,15.1667],[-23.6682,15.149],[-23.6504,15.1368],[-23.6482,15.1213],[-23.6405,15.1191],[-23.6266,15.1314],[-23.6206,15.1235],[-23.6183,15.1058],[-23.6419,15.0873],[-23.648,15.0819],[-23.6443,15.0631],[-23.637,15.0491],[-23.6294,15.0393],[-23.6394,15.0283],[-23.6416,15.0139],[-23.6493,15.0094],[-23.6704,15.0072],[-23.6792,14.9939],[-23.6981,14.9862],[-23.7151,14.9685]]]}},{"type":"Feature","properties":{"id":"CPV-5044","name":"Santa Catarina do Fogo","nameBn":"স্যান্টা ক্যাটারিনা দো ফোগো","type":null,"bounds":[-24.3834,14.8696,-24.2958,14.9548],"center":[-24.3301,14.9241]},"geometry":{"type":"Polygon","coordinates":[[[-24.3015,14.9548],[-24.2958,14.9305],[-24.2965,14.9175],[-24.3015,14.9065],[-24.2982,14.8955],[-24.3209,14.8728],[-24.353,14.8696],[-24.3738,14.8856],[-24.3834,14.9081],[-24.3786,14.9273],[-24.374,14.9449],[-24.3379,14.9531],[-24.3015,14.9548]]]}},{"type":"Feature","properties":{"id":"CPV-5048","name":"Santa Cruz","nameBn":"সান্তা ক্রুজের","type":null,"bounds":[-23.6266,15.046,-23.4847,15.1702],"center":[-23.5494,15.1157]},"geometry":{"type":"Polygon","coordinates":[[[-23.5916,15.1702],[-23.5842,15.1624],[-23.5674,15.1521],[-23.5524,15.154],[-23.5491,15.1494],[-23.5475,15.1459],[-23.545,15.1431],[-23.5393,15.1404],[-23.5408,15.1391],[-23.5344,15.133],[-23.5273,15.1274],[-23.5257,15.1273],[-23.5229,15.1267],[-23.5141,15.128],[-23.5114,15.1273],[-23.5108,15.1242],[-23.512,15.1161],[-23.5114,15.113],[-23.4847,15.064],[-23.491,15.0515],[-23.5043,15.046],[-23.5143,15.0526],[-23.5264,15.0593],[-23.5496,15.0788],[-23.5642,15.0746],[-23.58,15.0816],[-23.5785,15.0881],[-23.5807,15.098],[-23.6073,15.1036],[-23.6183,15.1058],[-23.6206,15.1235],[-23.6266,15.1314],[-23.6206,15.1368],[-23.5916,15.1702]]]}},{"type":"Feature","properties":{"id":"CPV-5051","name":"São Domingos","nameBn":"সাঁও ডোমিঙ্গো","type":null,"bounds":[-23.5962,14.9607,-23.4431,15.064],"center":[-23.5254,15.0152]},"geometry":{"type":"Polygon","coordinates":[[[-23.4847,15.064],[-23.4704,15.038],[-23.4665,15.0342],[-23.4636,15.0331],[-23.4607,15.031],[-23.4568,15.0237],[-23.4546,15.0189],[-23.4519,15.0151],[-23.4484,15.0124],[-23.4431,15.0107],[-23.4478,14.9958],[-23.4547,14.9859],[-23.4715,14.9737],[-23.491,14.9862],[-23.5109,14.9829],[-23.5364,14.9663],[-23.5641,14.9607],[-23.5807,14.9685],[-23.584,14.995],[-23.5962,15.0117],[-23.5763,15.0227],[-23.5619,15.0382],[-23.543,15.0537],[-23.5264,15.0593],[-23.5143,15.0526],[-23.5043,15.046],[-23.491,15.0515],[-23.4847,15.064]]]}},{"type":"Feature","properties":{"id":"CPV-5042","name":"São Filipe","nameBn":"সাঁও ফিলিপ","type":null,"bounds":[-24.5262,14.816,-24.2928,15.025],"center":[-24.4403,14.9241]},"geometry":{"type":"Polygon","coordinates":[[[-24.2982,14.8955],[-24.2933,14.8843],[-24.2928,14.8729],[-24.2995,14.863],[-24.3345,14.8319],[-24.3765,14.816],[-24.415,14.8209],[-24.4491,14.8381],[-24.5066,14.885],[-24.5204,14.904],[-24.5262,14.9247],[-24.5206,14.9453],[-24.5067,14.9692],[-24.4889,14.9905],[-24.4646,15.0077],[-24.4297,15.025],[-24.4069,14.9909],[-24.374,14.9449],[-24.3786,14.9273],[-24.3834,14.9081],[-24.3738,14.8856],[-24.353,14.8696],[-24.3209,14.8728],[-24.2982,14.8955]]]}},{"type":"Feature","properties":{"id":"CPV-5050","name":"São Lourenço dos Órgãos","nameBn":"সেন্ট লরেন্স দোস অরগ্যাস","type":null,"bounds":[-23.612,15.0117,-23.5264,15.0816],"center":[-23.5781,15.0439]},"geometry":{"type":"Polygon","coordinates":[[[-23.612,15.0409],[-23.605,15.0416],[-23.5851,15.0559],[-23.5818,15.0737],[-23.58,15.0816],[-23.5642,15.0746],[-23.5496,15.0788],[-23.5264,15.0593],[-23.543,15.0537],[-23.5619,15.0382],[-23.5763,15.0227],[-23.5962,15.0117],[-23.6117,15.0249],[-23.612,15.0409]]]}},{"type":"Feature","properties":{"id":"CPV-5047","name":"São Miguel","nameBn":"সাও মিগুয়েল","type":null,"bounds":[-23.687,15.1191,-23.5916,15.2297],"center":[-23.6356,15.178]},"geometry":{"type":"Polygon","coordinates":[[[-23.6561,15.2297],[-23.6388,15.2263],[-23.6303,15.2192],[-23.6151,15.195],[-23.5916,15.1702],[-23.6206,15.1368],[-23.6266,15.1314],[-23.6405,15.1191],[-23.6482,15.1213],[-23.6504,15.1368],[-23.6682,15.149],[-23.687,15.1667],[-23.6859,15.1844],[-23.6704,15.2065],[-23.6561,15.2297]]]}},{"type":"Feature","properties":{"id":"CPV-5049","name":"São Salvador do Mundo","nameBn":"সাও সালভাডর ডু মুন্ডো","type":null,"bounds":[-23.648,15.0393,-23.5785,15.1058],"center":[-23.6164,15.0678]},"geometry":{"type":"Polygon","coordinates":[[[-23.6183,15.1058],[-23.6073,15.1036],[-23.5807,15.098],[-23.5785,15.0881],[-23.58,15.0816],[-23.5818,15.0737],[-23.5851,15.0559],[-23.605,15.0416],[-23.612,15.0409],[-23.6294,15.0393],[-23.637,15.0491],[-23.6443,15.0631],[-23.648,15.0819],[-23.6419,15.0873],[-23.6183,15.1058]]]}},{"type":"Feature","properties":{"id":"CPV-5059","name":"São Vicente","nameBn":"সাঁও ভিন্সেন্ট","type":null,"bounds":[-25.0941,16.6055,-24.5695,16.923],"center":[-24.972,16.8449]},"geometry":{"type":"MultiPolygon","coordinates":[[[[-24.9197,16.8951],[-24.9229,16.8908],[-24.9145,16.8814],[-24.9001,16.872],[-24.8859,16.8677],[-24.8811,16.8623],[-24.8763,16.8498],[-24.8736,16.8359],[-24.8751,16.8262],[-24.8911,16.814],[-24.9155,16.8055],[-24.9429,16.8005],[-24.9681,16.7989],[-24.9745,16.7967],[-24.9842,16.7873],[-24.988,16.7851],[-24.9952,16.7861],[-25.0582,16.8096],[-25.0682,16.8151],[-25.0762,16.8225],[-25.0811,16.8323],[-25.0941,16.8262],[-25.0898,16.8475],[-25.0782,16.8651],[-25.0636,16.877],[-25.0501,16.8814],[-25.0188,16.882],[-25.006,16.8877],[-25.0122,16.9013],[-24.984,16.916],[-24.9781,16.923],[-24.9713,16.923],[-24.9652,16.9089],[-24.9552,16.9108],[-24.9377,16.923],[-24.9277,16.9178],[-24.9188,16.9083],[-24.9147,16.8992],[-24.9197,16.8951]]],[[[-24.5927,16.6243],[-24.5695,16.62],[-24.5753,16.6055],[-24.5898,16.607],[-24.6013,16.6098],[-24.6042,16.6214],[-24.5927,16.6243]]],[[[-24.7735,16.8023],[-24.7489,16.7936],[-24.7359,16.7791],[-24.7258,16.7574],[-24.707,16.7531],[-24.6954,16.7603],[-24.6838,16.756],[-24.6852,16.7429],[-24.7026,16.7357],[-24.7229,16.7343],[-24.7402,16.7343],[-24.7489,16.7429],[-24.7547,16.7545],[-24.7735,16.7618],[-24.788,16.7748],[-24.788,16.7892],[-24.7735,16.8023]]]]}},{"type":"Feature","properties":{"id":"CPV-5045","name":"Tarrafal","nameBn":"তারাফাল","type":null,"bounds":[-23.7858,15.18,-23.6485,15.3328],"center":[-23.717,15.2355]},"geometry":{"type":"Polygon","coordinates":[[[-23.7701,15.184],[-23.7668,15.1938],[-23.7659,15.2055],[-23.7637,15.2163],[-23.7587,15.2231],[-23.7538,15.2281],[-23.7516,15.2335],[-23.755,15.2503],[-23.7633,15.2698],[-23.7744,15.2856],[-23.7858,15.2918],[-23.7791,15.2941],[-23.7584,15.3049],[-23.7731,15.3106],[-23.7795,15.3117],[-23.7516,15.3328],[-23.7441,15.3328],[-23.7436,15.3251],[-23.742,15.3209],[-23.7399,15.3173],[-23.7379,15.3117],[-23.7192,15.3229],[-23.7032,15.3135],[-23.6978,15.2963],[-23.7107,15.2844],[-23.6973,15.266],[-23.6818,15.2548],[-23.6485,15.2372],[-23.6561,15.2297],[-23.6704,15.2065],[-23.6859,15.1844],[-23.7246,15.18],[-23.7545,15.1833],[-23.7701,15.184]]]}},{"type":"Feature","properties":{"id":"CPV-5058","name":"Tarrafal de São Nicolau","nameBn":"ত্ররাফাল দে সাও নিকোলাউ","type":null,"bounds":[-24.4307,16.4827,-24.3144,16.6771],"center":[-24.3493,16.6006]},"geometry":{"type":"Polygon","coordinates":[[[-24.3247,16.4827],[-24.3334,16.4949],[-24.3475,16.532],[-24.3534,16.5404],[-24.3602,16.5472],[-24.3656,16.5556],[-24.3679,16.5692],[-24.3686,16.5795],[-24.3709,16.5871],[-24.3761,16.5918],[-24.3851,16.5934],[-24.4083,16.6002],[-24.4247,16.6171],[-24.4307,16.6395],[-24.4226,16.6623],[-24.3756,16.6771],[-24.3666,16.6559],[-24.3765,16.6426],[-24.3666,16.6294],[-24.3384,16.6277],[-24.3202,16.6128],[-24.3144,16.5813],[-24.3202,16.5548],[-24.326,16.5126],[-24.3247,16.4827]]]}}]}