{"type":"FeatureCollection","features":[{"type":"Feature","properties":{"id":"DMA-1432","name":"Saint Andrew","nameBn":"সেন্ট আন্ড্রু পারিশ","type":"Parish","bounds":[-61.4492,15.4449,-61.2686,15.6331],"center":[-61.3589,15.5378]},"geometry":{"type":"Polygon","coordinates":[[[-61.4492,15.6331],[-61.4372,15.6326],[-61.4259,15.6285],[-61.4137,15.6196],[-61.3976,15.5966],[-61.3846,15.5884],[-61.3697,15.5959],[-61.3573,15.5983],[-61.3077,15.5793],[-61.3059,15.5725],[-61.2996,15.5572],[-61.2896,15.541],[-61.284,15.5314],[-61.2686,15.5099],[-61.2741,15.5031],[-61.2758,15.4994],[-61.2754,15.498],[-61.2747,15.4777],[-61.2749,15.4758],[-61.2753,15.4756],[-61.2759,15.4752],[-61.2795,15.4716],[-61.2806,15.4707],[-61.2811,15.4704],[-61.2817,15.4703],[-61.2821,15.4702],[-61.2838,15.4702],[-61.2841,15.4701],[-61.2845,15.4699],[-61.287,15.4678],[-61.2887,15.466],[-61.2896,15.4653],[-61.2903,15.4649],[-61.2906,15.4649],[-61.2913,15.4651],[-61.2917,15.4651],[-61.2924,15.4649],[-61.2927,15.4649],[-61.293,15.465],[-61.2935,15.4652],[-61.2938,15.4654],[-61.2984,15.4623],[-61.3174,15.4449],[-61.3229,15.4583],[-61.3381,15.4702],[-61.344,15.4734],[-61.3479,15.475],[-61.3509,15.4753],[-61.3541,15.4759],[-61.3577,15.4771],[-61.3681,15.4816],[-61.3693,15.4818],[-61.3704,15.4816],[-61.3745,15.4796],[-61.3786,15.4784],[-61.3845,15.4778],[-61.3893,15.4799],[-61.3929,15.4821],[-61.4057,15.4945],[-61.4077,15.503],[-61.4101,15.5226],[-61.4114,15.5276],[-61.418,15.5328],[-61.4189,15.5387],[-61.4183,15.5677],[-61.4192,15.5785],[-61.4197,15.5787],[-61.4204,15.5797],[-61.4207,15.5799],[-61.4211,15.5801],[-61.4214,15.5801],[-61.4217,15.5801],[-61.4221,15.58],[-61.4225,15.5799],[-61.4234,15.58],[-61.424,15.5801],[-61.4258,15.5808],[-61.4261,15.5811],[-61.4265,15.5815],[-61.427,15.5824],[-61.4273,15.5828],[-61.4309,15.5842],[-61.4376,15.5907],[-61.4403,15.5951],[-61.4492,15.6331]]]}},{"type":"Feature","properties":{"id":"DMA-1433","name":"Saint David","nameBn":"সেন্ট ডেভিড প্যারিশ","type":"Parish","bounds":[-61.3346,15.3167,-61.2493,15.5099],"center":[-61.2919,15.3956]},"geometry":{"type":"Polygon","coordinates":[[[-61.2686,15.5099],[-61.2672,15.5078],[-61.2577,15.4726],[-61.256,15.4359],[-61.2629,15.4079],[-61.2584,15.4063],[-61.2542,15.403],[-61.2493,15.4011],[-61.2555,15.3646],[-61.2541,15.3327],[-61.2964,15.3255],[-61.3002,15.3236],[-61.3082,15.3167],[-61.3067,15.3225],[-61.3066,15.3236],[-61.3068,15.3255],[-61.3073,15.3271],[-61.3081,15.3291],[-61.3083,15.3299],[-61.3083,15.3306],[-61.3079,15.3322],[-61.3112,15.3352],[-61.3276,15.3455],[-61.3274,15.3878],[-61.3346,15.405],[-61.3174,15.4449],[-61.2984,15.4623],[-61.2938,15.4654],[-61.2935,15.4652],[-61.293,15.465],[-61.2927,15.4649],[-61.2924,15.4649],[-61.2917,15.4651],[-61.2913,15.4651],[-61.2906,15.4649],[-61.2903,15.4649],[-61.2896,15.4653],[-61.2887,15.466],[-61.287,15.4678],[-61.2845,15.4699],[-61.2841,15.4701],[-61.2838,15.4702],[-61.2821,15.4702],[-61.2817,15.4703],[-61.2811,15.4704],[-61.2806,15.4707],[-61.2795,15.4716],[-61.2759,15.4752],[-61.2753,15.4756],[-61.2749,15.4758],[-61.2747,15.4777],[-61.2754,15.498],[-61.2758,15.4994],[-61.2741,15.5031],[-61.2686,15.5099]]]}},{"type":"Feature","properties":{"id":"DMA-1434","name":"Saint George","nameBn":"সেন্ট জর্জ পারিশ","type":"Parish","bounds":[-61.3936,15.2538,-61.3042,15.3455],"center":[-61.3489,15.3]},"geometry":{"type":"Polygon","coordinates":[[[-61.3732,15.2603],[-61.3733,15.2664],[-61.3728,15.2707],[-61.3783,15.282],[-61.3909,15.2963],[-61.3932,15.3083],[-61.3936,15.3136],[-61.382,15.3129],[-61.3816,15.3129],[-61.3799,15.3128],[-61.3793,15.3129],[-61.3774,15.3134],[-61.3768,15.3134],[-61.3764,15.3134],[-61.376,15.3132],[-61.3756,15.3132],[-61.3749,15.3133],[-61.3741,15.3135],[-61.3726,15.3148],[-61.3717,15.3164],[-61.3695,15.3234],[-61.3693,15.3238],[-61.3691,15.3242],[-61.3688,15.3249],[-61.3276,15.3455],[-61.3112,15.3352],[-61.3079,15.3322],[-61.3083,15.3306],[-61.3083,15.3299],[-61.3081,15.3291],[-61.3073,15.3271],[-61.3068,15.3255],[-61.3066,15.3236],[-61.3067,15.3225],[-61.3082,15.3167],[-61.3046,15.3141],[-61.3042,15.3135],[-61.3043,15.312],[-61.3166,15.2922],[-61.3195,15.2895],[-61.3235,15.2868],[-61.3327,15.2821],[-61.3427,15.2743],[-61.3566,15.2538],[-61.3732,15.2603]]]}},{"type":"Feature","properties":{"id":"DMA-1435","name":"Saint John","nameBn":"সেন্ট জন প্যারিশ","type":"Parish","bounds":[-61.4889,15.503,-61.4077,15.6339],"center":[-61.4483,15.5767]},"geometry":{"type":"Polygon","coordinates":[[[-61.484,15.5296],[-61.4849,15.5303],[-61.4889,15.5357],[-61.4889,15.5451],[-61.484,15.5516],[-61.4673,15.563],[-61.4621,15.573],[-61.4691,15.5743],[-61.4812,15.5786],[-61.4889,15.5793],[-61.4806,15.591],[-61.469,15.6339],[-61.4492,15.6331],[-61.4403,15.5951],[-61.4376,15.5907],[-61.4309,15.5842],[-61.4273,15.5828],[-61.427,15.5824],[-61.4265,15.5815],[-61.4261,15.5811],[-61.4258,15.5808],[-61.424,15.5801],[-61.4234,15.58],[-61.4225,15.5799],[-61.4221,15.58],[-61.4217,15.5801],[-61.4214,15.5801],[-61.4211,15.5801],[-61.4207,15.5799],[-61.4204,15.5797],[-61.4197,15.5787],[-61.4192,15.5785],[-61.4183,15.5677],[-61.4189,15.5387],[-61.418,15.5328],[-61.4114,15.5276],[-61.4101,15.5226],[-61.4077,15.503],[-61.4632,15.5318],[-61.4636,15.5316],[-61.4642,15.5316],[-61.465,15.5316],[-61.4693,15.5324],[-61.4697,15.5324],[-61.4749,15.5337],[-61.4758,15.5338],[-61.4767,15.5337],[-61.4773,15.5337],[-61.4795,15.5342],[-61.4803,15.5337],[-61.4807,15.5334],[-61.484,15.5296]]]}},{"type":"Feature","properties":{"id":"DMA-1436","name":"Saint Joseph","nameBn":"সেন্ট জোসেফ প্যারিশ","type":"Parish","bounds":[-61.4553,15.3893,-61.3174,15.4945],"center":[-61.3863,15.4355]},"geometry":{"type":"Polygon","coordinates":[[[-61.416,15.3901],[-61.4181,15.406],[-61.4212,15.4147],[-61.4442,15.4368],[-61.4479,15.4451],[-61.4498,15.4547],[-61.4543,15.4648],[-61.4553,15.4663],[-61.4392,15.4795],[-61.4331,15.4855],[-61.4321,15.4871],[-61.4307,15.4889],[-61.4238,15.4921],[-61.4057,15.4945],[-61.3929,15.4821],[-61.3893,15.4799],[-61.3845,15.4778],[-61.3786,15.4784],[-61.3745,15.4796],[-61.3704,15.4816],[-61.3693,15.4818],[-61.3681,15.4816],[-61.3577,15.4771],[-61.3541,15.4759],[-61.3509,15.4753],[-61.3479,15.475],[-61.344,15.4734],[-61.3381,15.4702],[-61.3229,15.4583],[-61.3174,15.4449],[-61.3346,15.405],[-61.368,15.3897],[-61.3711,15.3893],[-61.3755,15.3899],[-61.3926,15.3939],[-61.4049,15.3936],[-61.416,15.3901]]]}},{"type":"Feature","properties":{"id":"DMA-1437","name":"Saint Luke","nameBn":"সেন্ট লুক পারিশ","type":"Parish","bounds":[-61.3732,15.2359,-61.3557,15.2603],"center":[-61.3644,15.2483]},"geometry":{"type":"Polygon","coordinates":[[[-61.3728,15.2372],[-61.3732,15.2603],[-61.3566,15.2538],[-61.3557,15.2438],[-61.3728,15.2359],[-61.3728,15.2372]]]}},{"type":"Feature","properties":{"id":"DMA-1438","name":"Saint Mark","nameBn":"সেন্ট মার্ক পারিশ","type":"Parish","bounds":[-61.3761,15.2018,-61.3464,15.2438],"center":[-61.3612,15.2217]},"geometry":{"type":"Polygon","coordinates":[[[-61.3464,15.2117],[-61.3507,15.2051],[-61.3629,15.2018],[-61.3741,15.2048],[-61.3761,15.2128],[-61.3728,15.2372],[-61.3728,15.2359],[-61.3557,15.2438],[-61.3464,15.2117]]]}},{"type":"Feature","properties":{"id":"DMA-1439","name":"Saint Patrick","nameBn":"সেন্ট প্যাট্রিক প্যারিশ","type":"Parish","bounds":[-61.3566,15.2117,-61.2537,15.3327],"center":[-61.3052,15.2768]},"geometry":{"type":"Polygon","coordinates":[[[-61.2541,15.3327],[-61.2537,15.3247],[-61.2567,15.2853],[-61.2772,15.2502],[-61.2844,15.2448],[-61.2893,15.2436],[-61.2932,15.2439],[-61.3034,15.2426],[-61.3119,15.2445],[-61.3182,15.2434],[-61.3236,15.2386],[-61.3287,15.2256],[-61.3427,15.2197],[-61.3459,15.2123],[-61.3464,15.2117],[-61.3557,15.2438],[-61.3566,15.2538],[-61.3427,15.2743],[-61.3327,15.2821],[-61.3235,15.2868],[-61.3195,15.2895],[-61.3166,15.2922],[-61.3043,15.312],[-61.3042,15.3135],[-61.3046,15.3141],[-61.3082,15.3167],[-61.3002,15.3236],[-61.2964,15.3255],[-61.2541,15.3327]]]}},{"type":"Feature","properties":{"id":"DMA-1440","name":"Saint Paul","nameBn":"সেন্ট পল পারিশ","type":"Parish","bounds":[-61.416,15.3128,-61.3274,15.405],"center":[-61.3717,15.3529]},"geometry":{"type":"Polygon","coordinates":[[[-61.3936,15.3136],[-61.395,15.3331],[-61.3996,15.3511],[-61.4137,15.3806],[-61.4157,15.3876],[-61.416,15.3901],[-61.4049,15.3936],[-61.3926,15.3939],[-61.3755,15.3899],[-61.3711,15.3893],[-61.368,15.3897],[-61.3346,15.405],[-61.3274,15.3878],[-61.3276,15.3455],[-61.3688,15.3249],[-61.3691,15.3242],[-61.3693,15.3238],[-61.3695,15.3234],[-61.3717,15.3164],[-61.3726,15.3148],[-61.3741,15.3135],[-61.3749,15.3133],[-61.3756,15.3132],[-61.376,15.3132],[-61.3764,15.3134],[-61.3768,15.3134],[-61.3774,15.3134],[-61.3793,15.3129],[-61.3799,15.3128],[-61.3816,15.3129],[-61.382,15.3129],[-61.3936,15.3136]]]}},{"type":"Feature","properties":{"id":"DMA-1441","name":"Saint Peter","nameBn":"সেন্ট পিটার প্যারিশ","type":"Parish","bounds":[-61.484,15.4663,-61.4057,15.5342],"center":[-61.4448,15.4986]},"geometry":{"type":"Polygon","coordinates":[[[-61.4553,15.4663],[-61.46,15.4729],[-61.4656,15.4761],[-61.4721,15.4814],[-61.4743,15.4935],[-61.4752,15.5178],[-61.4794,15.5255],[-61.484,15.5296],[-61.4807,15.5334],[-61.4803,15.5337],[-61.4795,15.5342],[-61.4773,15.5337],[-61.4767,15.5337],[-61.4758,15.5338],[-61.4749,15.5337],[-61.4697,15.5324],[-61.4693,15.5324],[-61.465,15.5316],[-61.4642,15.5316],[-61.4636,15.5316],[-61.4632,15.5318],[-61.4077,15.503],[-61.4057,15.4945],[-61.4238,15.4921],[-61.4307,15.4889],[-61.4321,15.4871],[-61.4331,15.4855],[-61.4392,15.4795],[-61.4553,15.4663]]]}}]}