{"type":"FeatureCollection","features":[{"type":"Feature","properties":{"id":"DNK-3419","name":"Hovedstaden","nameBn":"কেপিটাল অঞ্চলঅফ ডেরমার্ক","type":"Region","bounds":[11.8418,54.9916,15.1514,56.1287],"center":[12.3198,55.8486]},"geometry":{"type":"MultiPolygon","coordinates":[[[[15.1514,55.1332],[15.1467,55.1282],[15.1445,55.1248],[15.1423,55.1221],[15.1377,55.1195],[15.145,55.1049],[15.1477,55.0956],[15.1447,55.0871],[15.1343,55.0749],[15.1128,55.0546],[15.1066,55.0447],[15.1104,55.0364],[15.1104,55.0302],[15.1132,55.0183],[15.0974,55.0078],[15.0867,54.9992],[15.0727,54.9916],[15.0237,54.9993],[14.9829,55.001],[14.9273,55.0137],[14.8586,55.0382],[14.7808,55.0511],[14.6996,55.0892],[14.6842,55.1013],[14.697,55.1227],[14.7014,55.1647],[14.7057,55.2257],[14.7092,55.2358],[14.7175,55.2468],[14.7371,55.2667],[14.7451,55.2816],[14.7521,55.2988],[14.7609,55.3093],[14.7746,55.3039],[14.815,55.2704],[14.8289,55.2617],[14.8514,55.2482],[14.889,55.2332],[14.9268,55.2158],[14.9544,55.2193],[14.9734,55.2161],[14.9898,55.196],[15.0005,55.1884],[15.0129,55.1838],[15.0845,55.1546],[15.1316,55.1455],[15.1514,55.1332]]],[[[12.6157,55.6881],[12.6738,55.6055],[12.6746,55.6013],[12.6394,55.5783],[12.6242,55.5756],[12.6057,55.5693],[12.5889,55.5613],[12.578,55.554],[12.5563,55.5505],[12.5348,55.5693],[12.5205,55.5967],[12.5202,55.6192],[12.531,55.6319],[12.544,55.6404],[12.5568,55.647],[12.5674,55.654],[12.5781,55.6664],[12.5951,55.6914],[12.6084,55.7011],[12.6126,55.6951],[12.6141,55.6925],[12.6157,55.6881]]],[[[11.8544,55.7322],[11.8555,55.7328],[11.8533,55.74],[11.844,55.7527],[11.8418,55.7564],[11.845,55.7679],[11.8527,55.7823],[11.8692,55.8048],[11.884,55.8137],[11.9194,55.8194],[11.9373,55.8253],[11.9536,55.8535],[11.9331,55.8861],[11.9095,55.9155],[11.9168,55.9345],[11.9347,55.9337],[11.97,55.9126],[11.9886,55.9072],[11.9982,55.9028],[11.9979,55.8928],[11.9938,55.8815],[11.992,55.8737],[11.9963,55.8611],[12.0002,55.8565],[12.0049,55.8535],[12.0125,55.8458],[12.0313,55.8166],[12.049,55.7753],[12.0519,55.7366],[12.0261,55.7154],[11.99,55.7228],[11.9727,55.7214],[11.9249,55.7379],[11.9091,55.7406],[11.9075,55.7394],[11.9058,55.7369],[11.8935,55.7337],[11.8556,55.7321],[11.8544,55.7322]]],[[[12.0761,55.7789],[12.0535,55.8383],[12.0535,55.8737],[12.0498,55.888],[12.0261,55.9414],[12.0106,55.9553],[11.9924,55.9606],[11.9707,55.9599],[11.8943,55.9423],[11.8655,55.9394],[11.8486,55.9482],[11.8656,55.9727],[11.9173,55.9976],[12.0125,56.0307],[12.1654,56.1037],[12.2451,56.1287],[12.3285,56.1269],[12.4149,56.099],[12.4861,56.099],[12.5054,56.0932],[12.5404,56.0754],[12.5701,56.0683],[12.6219,56.0438],[12.6084,56.028],[12.5674,55.9966],[12.5527,55.9797],[12.5256,55.9399],[12.5127,55.9283],[12.5127,55.9208],[12.5403,55.8983],[12.5545,55.8829],[12.5606,55.8699],[12.5651,55.8511],[12.576,55.8292],[12.5897,55.8095],[12.6022,55.7973],[12.598,55.7876],[12.5959,55.7742],[12.5947,55.753],[12.589,55.7357],[12.5879,55.7291],[12.5892,55.7243],[12.5928,55.7191],[12.6022,55.7086],[12.5812,55.6931],[12.541,55.6489],[12.5033,55.634],[12.4968,55.6218],[12.4872,55.6098],[12.465,55.6055],[12.4486,55.6089],[12.4368,55.6144],[12.4237,55.6188],[12.4036,55.6192],[12.3592,55.6046],[12.3591,55.6046],[12.3167,55.6166],[12.2813,55.619],[12.252,55.6163],[12.2399,55.6216],[12.2202,55.6149],[12.2011,55.6143],[12.1702,55.6222],[12.1691,55.634],[12.1645,55.6384],[12.1626,55.6437],[12.1638,55.6507],[12.1651,55.6547],[12.1666,55.6577],[12.1671,55.6602],[12.1663,55.6624],[12.1655,55.6643],[12.1579,55.6706],[12.1927,55.6863],[12.2157,55.6915],[12.2549,55.7078],[12.258,55.7122],[12.2557,55.7145],[12.2364,55.7212],[12.2329,55.7235],[12.2306,55.7259],[12.2284,55.7284],[12.2267,55.7338],[12.2405,55.7412],[12.1679,55.7486],[12.1516,55.7576],[12.1129,55.7788],[12.0763,55.7789],[12.0761,55.7789]]]]}},{"type":"Feature","properties":{"id":"DNK-3416","name":"Midtjylland","nameBn":"কেন্দ্রিয় ডেনমার্ক অঞ্চল","type":"Region","bounds":[8.1034,55.6745,11.6494,56.8126],"center":[9.2686,56.2367]},"geometry":{"type":"MultiPolygon","coordinates":[[[[8.1756,55.8015],[8.1356,55.966],[8.1307,55.9761],[8.1278,55.9782],[8.1268,55.983],[8.1278,55.9876],[8.1307,55.9897],[8.1367,55.9886],[8.1394,55.986],[8.1411,55.9835],[8.1441,55.9823],[8.1506,55.977],[8.1755,55.9003],[8.1934,55.8738],[8.196,55.8628],[8.1936,55.8532],[8.1838,55.8395],[8.1817,55.8284],[8.1851,55.8146],[8.1936,55.8118],[8.2385,55.8261],[8.2863,55.8475],[8.3088,55.852],[8.3478,55.8693],[8.3877,55.8929],[8.3933,55.9092],[8.3869,55.9265],[8.3729,55.9434],[8.3569,55.9587],[8.3195,55.986],[8.3195,56.017],[8.3081,56.0529],[8.2824,56.0759],[8.2477,56.0898],[8.1706,56.1096],[8.1497,56.1112],[8.1406,56.1027],[8.1416,56.06],[8.1399,56.0397],[8.1338,56.017],[8.1375,56.0004],[8.1348,55.994],[8.1201,55.9966],[8.116,56.0019],[8.1117,56.0123],[8.1079,56.0243],[8.1034,56.0969],[8.1065,56.1195],[8.1306,56.182],[8.1338,56.2055],[8.1224,56.5517],[8.1266,56.5684],[8.1338,56.5856],[8.1787,56.6721],[8.199,56.6989],[8.2139,56.7118],[8.22,56.7092],[8.224,56.7004],[8.2332,56.6955],[8.2324,56.6884],[8.21,56.656],[8.2022,56.647],[8.2022,56.6402],[8.2083,56.6368],[8.2151,56.635],[8.2332,56.634],[8.2366,56.6297],[8.2405,56.6201],[8.2458,56.6104],[8.2539,56.6061],[8.2949,56.602],[8.3059,56.5978],[8.2915,56.593],[8.2952,56.5838],[8.2925,56.5677],[8.2983,56.5583],[8.3074,56.5543],[8.3152,56.5569],[8.318,56.5636],[8.312,56.572],[8.312,56.5788],[8.3435,56.5845],[8.3921,56.5853],[8.4365,56.5802],[8.4559,56.5685],[8.4652,56.5669],[8.5147,56.5447],[8.5285,56.5482],[8.5414,56.5568],[8.5521,56.568],[8.5596,56.5788],[8.5658,56.5788],[8.596,56.5318],[8.5969,56.5242],[8.593,56.5199],[8.5946,56.5105],[8.6011,56.5011],[8.6174,56.4938],[8.637,56.4797],[8.6484,56.4757],[8.6655,56.4759],[8.7266,56.4832],[8.7332,56.4851],[8.7385,56.4901],[8.742,56.4977],[8.7434,56.5071],[8.7437,56.5217],[8.745,56.5316],[8.7508,56.5521],[8.7551,56.5578],[8.7604,56.5601],[8.7625,56.5634],[8.7576,56.572],[8.7266,56.5856],[8.7166,56.5862],[8.709,56.5886],[8.7044,56.5937],[8.703,56.6024],[8.6985,56.6112],[8.6815,56.6163],[8.6819,56.6265],[8.6952,56.6332],[8.7409,56.635],[8.8054,56.6955],[8.8205,56.7004],[8.8616,56.7075],[8.9168,56.7088],[8.9187,56.711],[8.8948,56.716],[8.8511,56.7168],[8.8408,56.7224],[8.8501,56.7402],[8.8648,56.7558],[8.8766,56.7643],[8.9085,56.7774],[8.9557,56.803],[8.9743,56.8054],[8.9852,56.8041],[9.0037,56.7991],[9.0149,56.7978],[9.0266,56.7996],[9.0327,56.8038],[9.0376,56.8085],[9.0456,56.8122],[9.0632,56.8126],[9.0861,56.8084],[9.106,56.8001],[9.1145,56.788],[9.1205,56.7646],[9.1345,56.7507],[9.1506,56.7409],[9.1629,56.7296],[9.176,56.7086],[9.1482,56.7047],[9.1188,56.6788],[9.0934,56.675],[9.0934,56.6675],[9.0975,56.6584],[9.0867,56.6496],[9.0593,56.634],[9.05,56.6198],[9.0488,56.6072],[9.053,56.5754],[9.0606,56.5657],[9.077,56.5674],[9.0934,56.5781],[9.1068,56.6108],[9.1216,56.613],[9.1397,56.611],[9.1554,56.6129],[9.1492,56.6225],[9.1411,56.626],[9.1315,56.6248],[9.1213,56.6203],[9.1289,56.6313],[9.1367,56.6391],[9.1437,56.6477],[9.1486,56.6613],[9.1554,56.6613],[9.1494,56.6389],[9.1755,56.6354],[9.2112,56.6389],[9.2337,56.6372],[9.2472,56.632],[9.2625,56.6337],[9.2762,56.633],[9.2853,56.6203],[9.2824,56.6105],[9.2595,56.5919],[9.2503,56.5788],[9.2612,56.5764],[9.2634,56.572],[9.264,56.5659],[9.2708,56.5583],[9.2806,56.5528],[9.3057,56.5447],[9.3097,56.5405],[9.3122,56.5351],[9.3164,56.5308],[9.3262,56.5303],[9.3406,56.5471],[9.3467,56.5521],[9.3608,56.5447],[9.3731,56.5527],[9.3727,56.5654],[9.3504,56.572],[9.3193,56.5617],[9.3174,56.5587],[9.3128,56.5578],[9.3023,56.5583],[9.2937,56.561],[9.2931,56.5668],[9.2962,56.5716],[9.2988,56.572],[9.3006,56.6091],[9.3171,56.6411],[9.326,56.6694],[9.3977,56.6498],[9.4354,56.6385],[9.4596,56.6612],[9.4507,56.6752],[9.4588,56.6851],[9.4877,56.6838],[9.5025,56.6747],[9.4963,56.6509],[9.5241,56.6337],[9.6377,56.633],[9.6573,56.6225],[9.6313,56.6058],[9.6241,56.584],[9.6433,56.5804],[9.6759,56.5904],[9.7254,56.5591],[9.7693,56.5656],[9.7961,56.5574],[9.813,56.5553],[9.8546,56.5589],[9.8879,56.5807],[9.9277,56.5935],[9.952,56.5977],[10.0116,56.6015],[10.0801,56.6251],[10.1135,56.6513],[10.16,56.6729],[10.1932,56.6936],[10.242,56.6884],[10.2835,56.6898],[10.3103,56.6989],[10.3342,56.7038],[10.3528,56.6818],[10.3577,56.6487],[10.3403,56.6203],[10.273,56.5917],[10.2233,56.5606],[10.2144,56.5583],[10.2073,56.5258],[10.2039,56.5167],[10.2114,56.5053],[10.2068,56.491],[10.1955,56.4777],[10.1834,56.4695],[10.2141,56.4704],[10.2256,56.4757],[10.2244,56.5136],[10.2276,56.5411],[10.2376,56.5544],[10.2796,56.572],[10.3127,56.5966],[10.3303,56.6032],[10.3509,56.5959],[10.3545,56.5895],[10.3599,56.5681],[10.3608,56.5617],[10.3652,56.5584],[10.3949,56.5447],[10.4699,56.5209],[10.5515,56.5156],[10.7891,56.5364],[10.8223,56.5342],[10.855,56.5242],[10.8699,56.5147],[10.9021,56.4832],[10.9641,56.4484],[10.9641,56.4422],[10.9409,56.4295],[10.9285,56.4065],[10.9235,56.3799],[10.9226,56.3563],[10.9116,56.3341],[10.8196,56.2609],[10.773,56.243],[10.7554,56.2293],[10.75,56.2161],[10.7526,56.185],[10.7386,56.1545],[10.707,56.1509],[10.6722,56.1652],[10.6489,56.1884],[10.6747,56.1908],[10.6852,56.1962],[10.6904,56.2089],[10.6877,56.2222],[10.6776,56.2263],[10.6646,56.2276],[10.6526,56.2327],[10.6286,56.2375],[10.6038,56.221],[10.5812,56.1992],[10.5492,56.1782],[10.5562,56.1549],[10.5693,56.1295],[10.5737,56.1126],[10.564,56.1056],[10.548,56.1013],[10.531,56.1002],[10.5186,56.1027],[10.5085,56.111],[10.4985,56.1302],[10.4912,56.14],[10.4992,56.1447],[10.5161,56.1516],[10.5254,56.1536],[10.5182,56.1648],[10.5095,56.1701],[10.4681,56.1771],[10.459,56.1761],[10.4367,56.1679],[10.4087,56.1649],[10.3914,56.1727],[10.3762,56.1867],[10.3547,56.2021],[10.377,56.2033],[10.4104,56.2185],[10.4292,56.2225],[10.4434,56.2166],[10.4607,56.2062],[10.4778,56.2023],[10.4912,56.2163],[10.4743,56.2322],[10.4754,56.2447],[10.5047,56.2778],[10.4912,56.2777],[10.4768,56.2809],[10.4636,56.2869],[10.4536,56.2945],[10.4426,56.2987],[10.4168,56.2919],[10.403,56.2982],[10.3993,56.2849],[10.3938,56.2765],[10.385,56.2722],[10.3711,56.2709],[10.3638,56.2656],[10.3369,56.2327],[10.3125,56.2152],[10.2585,56.1903],[10.2342,56.1713],[10.2202,56.1479],[10.2269,56.1332],[10.2434,56.1196],[10.259,56.099],[10.2656,56.0737],[10.2615,56.0544],[10.2492,56.0369],[10.2311,56.017],[10.2551,56.0236],[10.2727,56.0248],[10.2775,56.0178],[10.2525,55.9862],[10.25,55.9735],[10.2516,55.9482],[10.2507,55.9307],[10.2493,55.923],[10.2454,55.9146],[10.2214,55.8969],[10.2175,55.8898],[10.2127,55.8899],[10.2018,55.8859],[10.1902,55.8797],[10.1834,55.8737],[10.1883,55.8712],[10.1956,55.8613],[10.1994,55.8507],[10.1906,55.8435],[10.1873,55.8386],[10.1821,55.8337],[10.1727,55.8315],[10.1604,55.8333],[10.1511,55.8381],[10.1355,55.852],[10.131,55.8585],[10.1281,55.8659],[10.1238,55.8733],[10.1145,55.8799],[10.1018,55.8824],[10.0046,55.8799],[9.9917,55.8773],[9.9837,55.8714],[9.9774,55.8646],[9.9705,55.8594],[9.9445,55.8536],[9.8918,55.8554],[9.8674,55.852],[9.8926,55.8362],[10.0357,55.8184],[10.0457,55.814],[10.0422,55.8034],[10.0256,55.783],[10.0173,55.7656],[10.0198,55.7579],[10.0337,55.756],[10.0598,55.7564],[10.0598,55.7495],[10.0188,55.7363],[10.0068,55.725],[10.0182,55.7086],[10.0145,55.7069],[10.0052,55.7011],[9.9817,55.7094],[9.8718,55.6912],[9.8218,55.676],[9.7922,55.6745],[9.731,55.6881],[9.6956,55.7058],[9.6865,55.7086],[9.6755,55.7086],[9.6756,55.7087],[9.6797,55.7196],[9.6806,55.7285],[9.6755,55.7371],[9.664,55.743],[9.6417,55.7469],[9.6087,55.7495],[9.5979,55.7534],[9.5963,55.7608],[9.5984,55.7669],[9.6025,55.7727],[9.6055,55.7789],[9.6007,55.7845],[9.5816,55.7868],[9.5462,55.7845],[9.5304,55.7876],[9.5165,55.7976],[9.4911,55.8217],[9.4688,55.8368],[9.4629,55.8461],[9.4597,55.8533],[9.4583,55.8585],[9.4507,55.8658],[9.3999,55.9017],[9.3748,55.9144],[9.3431,55.9255],[9.2494,55.943],[9.2117,55.9383],[9.1844,55.9071],[9.138,55.8739],[9.1211,55.866],[9.1029,55.8632],[9.0939,55.8593],[9.0851,55.8535],[9.0798,55.8483],[9.071,55.8357],[9.0581,55.8366],[9.0473,55.8309],[9.0131,55.8288],[8.9993,55.8347],[8.9594,55.864],[8.9291,55.88],[8.8801,55.8826],[8.8435,55.8723],[8.8283,55.8428],[8.8177,55.8338],[8.823,55.8168],[8.8231,55.8103],[8.807,55.8046],[8.7746,55.7988],[8.7575,55.8018],[8.6872,55.83],[8.6546,55.8348],[8.6441,55.8339],[8.6276,55.8298],[8.6109,55.8279],[8.5989,55.8292],[8.5885,55.8315],[8.5787,55.8352],[8.5696,55.8354],[8.5607,55.8341],[8.5536,55.8315],[8.5485,55.8287],[8.5491,55.8255],[8.5542,55.8191],[8.5559,55.8161],[8.5555,55.8135],[8.5533,55.8113],[8.503,55.7793],[8.4902,55.7715],[8.472,55.7694],[8.4597,55.7711],[8.4245,55.7838],[8.3992,55.7901],[8.3683,55.8025],[8.1758,55.8015],[8.1756,55.8015]]],[[[10.5594,55.8663],[10.5731,55.8789],[10.5811,55.8945],[10.5803,55.9115],[10.5669,55.9283],[10.5486,55.9357],[10.5283,55.9406],[10.5154,55.9512],[10.5186,55.9761],[10.5288,55.9892],[10.544,55.998],[10.5568,55.9958],[10.5642,55.9538],[10.5803,55.9365],[10.6028,55.9252],[10.6283,55.9208],[10.6194,55.911],[10.6154,55.9003],[10.6164,55.8898],[10.6214,55.8799],[10.6387,55.8661],[10.6506,55.8701],[10.6592,55.8808],[10.6663,55.8867],[10.6693,55.88],[10.655,55.8654],[10.6283,55.8458],[10.6233,55.8277],[10.6244,55.7943],[10.6146,55.7768],[10.5822,55.7598],[10.5471,55.7652],[10.5203,55.7886],[10.5116,55.8253],[10.5173,55.8455],[10.5277,55.8539],[10.5422,55.8581],[10.5594,55.8663]]],[[[11.5122,56.6955],[11.5095,56.7101],[11.5208,56.7154],[11.6061,56.7204],[11.6494,56.7296],[11.6494,56.7222],[11.6452,56.722],[11.6419,56.7206],[11.6358,56.716],[11.618,56.7113],[11.6043,56.7012],[11.5925,56.6898],[11.5811,56.6812],[11.5642,56.6774],[11.5437,56.6787],[11.5246,56.6847],[11.5122,56.6955]]]]}},{"type":"Feature","properties":{"id":"DNK-3418","name":"Nordjylland","nameBn":"নর্থ ডেনমার্ক অঞ্চল","type":"Region","bounds":[8.2362,56.5553,11.1973,57.7512],"center":[9.733,56.8261]},"geometry":{"type":"MultiPolygon","coordinates":[[[[9.326,56.6694],[9.3259,56.6696],[9.3057,56.6955],[9.2959,56.7016],[9.2907,56.7038],[9.2708,56.7023],[9.2306,56.6921],[9.2207,56.6843],[9.1991,56.6766],[9.1779,56.6758],[9.1691,56.6887],[9.1803,56.7008],[9.2264,56.7163],[9.2368,56.7331],[9.2425,56.7471],[9.2405,56.754],[9.2155,56.7589],[9.2053,56.7638],[9.1965,56.7705],[9.1897,56.7774],[9.1844,56.784],[9.1787,56.7941],[9.175,56.8061],[9.176,56.8184],[9.1812,56.8217],[9.2041,56.8416],[9.2067,56.8463],[9.2114,56.8515],[9.2106,56.8631],[9.2059,56.8746],[9.1996,56.8798],[9.1878,56.8812],[9.179,56.8846],[9.1629,56.8941],[9.1815,56.9191],[9.2002,56.9389],[9.2205,56.9551],[9.2515,56.9726],[9.2585,56.9748],[9.266,56.9762],[9.2747,56.9766],[9.28,56.9798],[9.2855,56.994],[9.2887,56.9971],[9.437,57.0244],[9.4701,57.0238],[9.5868,56.9971],[9.5868,56.9897],[9.574,56.985],[9.5731,56.9788],[9.5808,56.973],[9.5942,56.9692],[9.6079,56.9699],[9.6177,56.975],[9.6541,57.0068],[9.6707,57.0248],[9.689,57.0391],[9.7282,57.0471],[9.7612,57.0586],[9.8091,57.0517],[9.9158,57.0586],[9.8566,57.0887],[9.8267,57.0949],[9.8064,57.1042],[9.7957,57.1064],[9.7876,57.1039],[9.7525,57.0778],[9.7332,57.0668],[9.7119,57.0613],[9.6932,57.0692],[9.6751,57.0792],[9.6561,57.0764],[9.6211,57.0586],[9.5808,57.0493],[9.494,57.0486],[9.2651,57.0034],[9.2454,57.0023],[9.2264,57.007],[9.1145,57.0586],[9.1209,57.0454],[9.1128,57.0386],[9.0798,57.0312],[9.0554,57.0211],[9.0427,57.0177],[9.0257,57.0176],[9.032,57.0238],[9.014,57.0302],[8.9968,57.0281],[8.9797,57.0205],[8.9631,57.0102],[8.947,57.0112],[8.9264,57.0001],[8.909,56.9882],[8.9016,56.9863],[8.8931,56.9997],[8.8732,57.0048],[8.8504,57.0035],[8.8333,56.9971],[8.848,56.9885],[8.8117,56.9699],[8.7621,56.9555],[8.7264,56.9612],[8.703,56.9584],[8.6795,56.9525],[8.6688,56.9453],[8.6633,56.9259],[8.6499,56.9141],[8.6341,56.9052],[8.6211,56.8941],[8.6154,56.8656],[8.6143,56.8633],[8.6126,56.8547],[8.6079,56.8497],[8.6013,56.8455],[8.5696,56.8184],[8.547,56.8173],[8.5363,56.8145],[8.5317,56.8088],[8.5243,56.8048],[8.5078,56.8011],[8.4914,56.7943],[8.4839,56.7812],[8.4924,56.7473],[8.4915,56.7314],[8.4764,56.7222],[8.4764,56.716],[8.5164,56.7182],[8.5256,56.716],[8.5331,56.7038],[8.527,56.6953],[8.514,56.6903],[8.501,56.6887],[8.4893,56.6907],[8.4658,56.7001],[8.4529,56.7023],[8.4409,56.7004],[8.4209,56.6914],[8.4082,56.6887],[8.4082,56.6812],[8.4559,56.6887],[8.4702,56.6861],[8.4912,56.677],[8.501,56.675],[8.5715,56.692],[8.5863,56.6887],[8.589,56.6813],[8.5863,56.6623],[8.5863,56.6539],[8.6013,56.6406],[8.6081,56.631],[8.5933,56.6164],[8.583,56.6093],[8.5696,56.6061],[8.5554,56.6049],[8.5466,56.6017],[8.547,56.5975],[8.5596,56.593],[8.5393,56.5928],[8.5115,56.607],[8.487,56.6253],[8.4764,56.6372],[8.4673,56.652],[8.4448,56.664],[8.4168,56.6721],[8.3911,56.675],[8.3734,56.6802],[8.3522,56.6929],[8.3325,56.7084],[8.3195,56.7222],[8.3084,56.7582],[8.302,56.7637],[8.2884,56.7663],[8.2603,56.7767],[8.2437,56.7774],[8.2581,56.7405],[8.2632,56.7189],[8.2608,56.7054],[8.2459,56.704],[8.2383,56.725],[8.2362,56.7712],[8.2479,56.8124],[8.2704,56.8432],[8.4497,57.004],[8.5036,57.0347],[8.5863,57.1064],[8.618,57.1229],[8.6538,57.1225],[8.7372,57.1064],[8.7839,57.1048],[8.8744,57.1161],[8.9146,57.1274],[8.9626,57.1566],[8.9805,57.161],[9.2306,57.1411],[9.3215,57.147],[9.4121,57.1654],[9.4978,57.197],[9.5733,57.2429],[9.7884,57.4593],[9.8264,57.4899],[9.8954,57.5316],[9.9299,57.5675],[9.9431,57.5725],[9.967,57.5914],[10.0154,57.5966],[10.1077,57.593],[10.1976,57.6012],[10.2796,57.6209],[10.3506,57.649],[10.4725,57.717],[10.5391,57.7438],[10.5661,57.7495],[10.596,57.7512],[10.625,57.7475],[10.6489,57.737],[10.5944,57.7259],[10.5425,57.6989],[10.4605,57.6306],[10.4304,57.5705],[10.4583,57.5255],[10.509,57.484],[10.5466,57.4353],[10.5174,57.3913],[10.5179,57.3392],[10.5391,57.2367],[10.522,57.2217],[10.4709,57.2012],[10.4468,57.1849],[10.4115,57.1444],[10.3955,57.1173],[10.384,57.0742],[10.3592,57.0261],[10.3472,57.0102],[10.3387,57.0032],[10.3306,56.9993],[10.3197,56.9975],[10.2725,56.9979],[10.258,56.9958],[10.2398,56.9928],[10.156,57.0238],[10.094,57.0605],[10.0527,57.0697],[10.0194,57.0884],[9.9946,57.0927],[9.9745,57.0865],[9.9461,57.0612],[9.9269,57.0586],[9.9455,57.0573],[9.9666,57.0722],[9.9841,57.079],[10.002,57.0839],[10.0226,57.0791],[10.1213,57.0221],[10.154,57.0133],[10.1924,56.994],[10.2144,56.9897],[10.2951,56.9886],[10.3137,56.9829],[10.2857,56.9637],[10.2796,56.9555],[10.2747,56.9423],[10.2693,56.915],[10.2659,56.9077],[10.2731,56.8913],[10.284,56.8403],[10.2883,56.8001],[10.2954,56.7789],[10.32,56.7365],[10.3285,56.7298],[10.3382,56.7239],[10.3406,56.7174],[10.3268,56.7086],[10.3187,56.7082],[10.2952,56.7143],[10.2826,56.716],[10.2376,56.716],[10.2219,56.7121],[10.2039,56.7023],[10.187,56.7122],[10.1681,56.72],[10.1465,56.7224],[10.1213,56.716],[10.099,56.7061],[10.0896,56.704],[10.0735,56.7023],[10.0584,56.6982],[10.0275,56.6843],[9.9909,56.6769],[9.9456,56.6581],[9.8059,56.647],[9.8059,56.6402],[9.8513,56.6357],[10.0015,56.6613],[10.0349,56.6728],[10.0496,56.675],[10.0529,56.6772],[10.0535,56.6818],[10.0554,56.6865],[10.0628,56.6887],[10.071,56.6875],[10.0843,56.6824],[10.0906,56.6812],[10.1013,56.6827],[10.1136,56.6867],[10.1238,56.6923],[10.1281,56.6989],[10.1348,56.7124],[10.1506,56.7144],[10.1834,56.7086],[10.1808,56.7049],[10.1758,56.6955],[10.1932,56.6936],[10.16,56.6729],[10.1135,56.6513],[10.0801,56.6251],[10.0116,56.6015],[9.952,56.5977],[9.9277,56.5935],[9.8879,56.5807],[9.8546,56.5589],[9.813,56.5553],[9.7961,56.5574],[9.7693,56.5656],[9.7254,56.5591],[9.6759,56.5904],[9.6433,56.5804],[9.6241,56.584],[9.6313,56.6058],[9.6573,56.6225],[9.6377,56.633],[9.5241,56.6337],[9.4963,56.6509],[9.5025,56.6747],[9.4877,56.6838],[9.4588,56.6851],[9.4507,56.6752],[9.4596,56.6612],[9.4354,56.6385],[9.3977,56.6498],[9.326,56.6694]]],[[[8.8259,56.7438],[8.8127,56.7346],[8.7713,56.716],[8.7661,56.6987],[8.6864,56.6866],[8.6584,56.6781],[8.6484,56.6811],[8.6218,56.7139],[8.6108,56.7222],[8.5863,56.7365],[8.5623,56.7432],[8.5559,56.7438],[8.5249,56.7373],[8.5147,56.7382],[8.5181,56.7501],[8.5228,56.7551],[8.5303,56.7593],[8.5392,56.7625],[8.5487,56.7637],[8.5532,56.7681],[8.5516,56.7778],[8.548,56.7873],[8.5453,56.7911],[8.573,56.8026],[8.6438,56.8081],[8.6688,56.8258],[8.6563,56.8251],[8.6438,56.8259],[8.632,56.8281],[8.6211,56.832],[8.6267,56.8415],[8.6467,56.8563],[8.6551,56.8668],[8.6519,56.866],[8.6497,56.8743],[8.6484,56.8907],[8.6516,56.8942],[8.6594,56.8945],[8.6682,56.8938],[8.6751,56.8941],[8.7038,56.9001],[8.7625,56.9054],[8.7918,56.9145],[8.8137,56.9103],[8.8338,56.9248],[8.8674,56.963],[8.8904,56.9548],[8.905,56.966],[8.9163,56.9791],[8.9289,56.9766],[8.9231,56.9686],[8.9114,56.9561],[8.9085,56.9487],[8.9104,56.9444],[8.9204,56.9305],[8.9227,56.922],[8.9204,56.9199],[8.9085,56.8873],[8.9004,56.8748],[8.8953,56.8703],[8.888,56.8668],[8.8877,56.8787],[8.8827,56.8864],[8.875,56.8911],[8.8674,56.8941],[8.8438,56.8835],[8.8396,56.8798],[8.8364,56.8693],[8.839,56.8629],[8.8436,56.8582],[8.847,56.8531],[8.8552,56.8198],[8.8639,56.8095],[8.8811,56.8054],[8.8748,56.8004],[8.8684,56.7981],[8.8613,56.7976],[8.8533,56.7978],[8.8607,56.7949],[8.8674,56.7911],[8.8542,56.7799],[8.8391,56.7573],[8.8259,56.7438]]],[[[11.1423,57.3323],[11.1699,57.3327],[11.1815,57.3303],[11.1901,57.3255],[11.1973,57.3134],[11.1965,57.3028],[11.1891,57.2943],[11.1669,57.2968],[11.1432,57.3014],[11.0666,57.2913],[11.0827,57.2839],[11.0942,57.269],[11.0911,57.2528],[11.0672,57.2384],[11.0535,57.2262],[11.0451,57.2127],[11.0288,57.2019],[10.9979,57.1979],[10.978,57.2067],[10.9518,57.2337],[10.9165,57.2374],[10.8888,57.2453],[10.8711,57.2546],[10.855,57.2646],[10.855,57.2709],[10.8884,57.2749],[10.9213,57.2923],[10.9466,57.3046],[10.9869,57.306],[11.0101,57.3099],[11.0277,57.3207],[11.1019,57.3204],[11.1423,57.3323]]]]}},{"type":"Feature","properties":{"id":"DNK-3420","name":"Sjaælland","nameBn":"জিয়াল্যান্ড","type":"Region","bounds":[10.8755,54.5686,12.5537,55.9966],"center":[11.7483,55.4417]},"geometry":{"type":"MultiPolygon","coordinates":[[[[11.8452,54.7319],[11.8338,54.7246],[11.8236,54.7221],[11.8147,54.7187],[11.807,54.708],[11.8464,54.6978],[11.8426,54.6762],[11.8107,54.6551],[11.7661,54.6466],[11.6105,54.6664],[11.5601,54.6596],[11.5122,54.6466],[11.4744,54.6261],[11.4518,54.6284],[11.3587,54.6605],[11.2977,54.6916],[11.1878,54.7322],[11.1382,54.7386],[11.0846,54.7531],[11.0305,54.7606],[11.0093,54.7716],[10.9992,54.7868],[11.0057,54.8037],[11.0308,54.8122],[11.0613,54.8093],[11.0897,54.8106],[11.1082,54.8315],[11.092,54.835],[11.0784,54.8411],[11.0252,54.8795],[11.0188,54.8862],[11.0188,54.9034],[11.0324,54.9193],[11.074,54.9482],[11.0881,54.9442],[11.2317,54.9612],[11.256,54.9546],[11.3035,54.9324],[11.3211,54.9277],[11.3389,54.9191],[11.3689,54.8811],[11.3928,54.8725],[11.4168,54.8693],[11.5947,54.8111],[11.5851,54.8285],[11.5736,54.8393],[11.5728,54.848],[11.5947,54.8589],[11.6221,54.8589],[11.6463,54.8654],[11.6563,54.8663],[11.6472,54.8771],[11.6448,54.8896],[11.6463,54.9023],[11.6494,54.9135],[11.7258,54.8734],[11.7319,54.8589],[11.7556,54.8411],[11.7707,54.8343],[11.7873,54.8315],[11.7772,54.826],[11.773,54.8247],[11.7876,54.8069],[11.8377,54.7828],[11.8486,54.7732],[11.8513,54.7568],[11.8555,54.7495],[11.8555,54.7436],[11.8452,54.7319]]],[[[12.4172,55.0302],[12.5047,55.0198],[12.5376,55.0024],[12.5537,54.9681],[12.5518,54.9572],[12.5427,54.9512],[12.5262,54.9487],[12.5028,54.9482],[12.3846,54.9631],[12.3484,54.96],[12.314,54.9509],[12.28,54.9346],[12.2268,54.8926],[12.2078,54.8862],[12.1787,54.889],[12.115,54.9073],[12.115,54.9135],[12.1292,54.9135],[12.1247,54.9237],[12.1289,54.9316],[12.1382,54.9372],[12.1491,54.9408],[12.1441,54.9438],[12.1345,54.9516],[12.1292,54.9544],[12.1514,54.9689],[12.1644,54.9726],[12.177,54.9681],[12.1843,54.9755],[12.177,54.9892],[12.1931,54.9883],[12.2173,54.9787],[12.2322,54.9755],[12.2422,54.9766],[12.2747,54.9844],[12.2869,54.9892],[12.2815,54.9991],[12.2813,55.0071],[12.2857,55.0131],[12.2942,55.0165],[12.2942,55.0234],[12.2616,55.0368],[12.2527,55.0438],[12.2476,55.0539],[12.251,55.0607],[12.262,55.0643],[12.28,55.0643],[12.3018,55.0421],[12.3353,55.0333],[12.4172,55.0302]]],[[[12.3592,55.6046],[12.3313,55.5954],[12.312,55.584],[12.2484,55.5463],[12.2482,55.5461],[12.1981,55.4875],[12.2249,55.4349],[12.2734,55.4102],[12.2905,55.4069],[12.3521,55.4044],[12.3688,55.4001],[12.4121,55.3791],[12.4347,55.3637],[12.4446,55.3489],[12.4463,55.3317],[12.4509,55.3172],[12.465,55.2903],[12.4502,55.2797],[12.4446,55.2766],[12.3924,55.2553],[12.1828,55.2272],[12.167,55.2174],[12.1414,55.208],[12.1211,55.1911],[12.1091,55.1707],[12.115,55.1537],[12.1074,55.1451],[12.099,55.1414],[12.0901,55.1422],[12.0807,55.1469],[12.0881,55.1684],[12.0767,55.182],[12.0564,55.1857],[12.0368,55.1776],[12.0278,55.1727],[12.02,55.171],[12.0147,55.1675],[12.0125,55.1571],[12.0179,55.153],[12.0466,55.1401],[12.1305,55.1359],[12.1686,55.1285],[12.177,55.1053],[12.1714,55.0954],[12.1651,55.0913],[12.1577,55.0892],[12.1491,55.0854],[12.1284,55.0788],[12.1185,55.0736],[12.1257,55.0711],[12.1633,55.0234],[12.1623,55.0044],[12.1489,54.9941],[12.1284,54.99],[12.105,54.9892],[12.0895,54.9857],[12.0559,54.9708],[12.033,54.9681],[11.9981,54.9765],[11.9439,55.0061],[11.9102,55.0097],[11.9095,55.005],[11.9111,55.0038],[11.9138,55.0039],[11.9168,55.0029],[11.9114,55.0009],[11.9084,54.9986],[11.9046,54.9966],[11.8971,54.9954],[11.9015,54.9764],[11.8944,54.965],[11.885,54.9551],[11.8828,54.9408],[11.8901,54.9296],[11.9033,54.923],[11.9185,54.9219],[11.9312,54.9277],[11.9286,54.9314],[11.9237,54.9408],[11.9324,54.9415],[11.9579,54.9482],[11.966,54.9426],[11.9802,54.9243],[11.9822,54.9203],[11.9915,54.9163],[12.0239,54.898],[12.0404,54.893],[12.0589,54.8944],[12.0783,54.8979],[12.0964,54.8981],[12.1118,54.8896],[12.1399,54.8649],[12.1702,54.8445],[12.1702,54.8383],[12.0817,54.7965],[12.0671,54.7868],[12.028,54.7436],[12.0227,54.7353],[12.0127,54.7311],[11.9858,54.7123],[11.9753,54.708],[11.9607,54.6941],[11.9602,54.6623],[11.9714,54.6056],[11.969,54.5698],[11.9491,54.5686],[11.9282,54.584],[11.9237,54.5981],[11.9094,54.6095],[11.8766,54.647],[11.8692,54.6596],[11.8706,54.6804],[11.8827,54.6964],[11.9102,54.7217],[11.8899,54.7242],[11.8758,54.7297],[11.8723,54.7399],[11.8828,54.7564],[11.8714,54.7603],[11.8652,54.7654],[11.8555,54.7769],[11.8091,54.8049],[11.8054,54.8095],[11.801,54.8179],[11.7988,54.8259],[11.8001,54.8312],[11.7998,54.8366],[11.7935,54.8445],[11.7761,54.8561],[11.7606,54.8632],[11.7497,54.8731],[11.7456,54.893],[11.7454,54.9113],[11.742,54.9254],[11.7319,54.9353],[11.7114,54.9408],[11.7114,54.9482],[11.7498,54.9657],[11.7593,54.9681],[11.7736,54.965],[11.793,54.9513],[11.804,54.9482],[11.8148,54.9521],[11.8376,54.9661],[11.8418,54.9647],[11.8483,54.9591],[11.8625,54.9637],[11.8828,54.9755],[11.8828,54.9818],[11.8723,54.9896],[11.8535,55.0201],[11.8418,55.0302],[11.7747,55.0486],[11.7556,55.0507],[11.7503,55.0528],[11.737,55.0622],[11.7288,55.0643],[11.6655,55.0664],[11.6467,55.0723],[11.6304,55.0811],[11.6159,55.0922],[11.6696,55.0856],[11.7752,55.0574],[11.8275,55.0507],[11.8053,55.0739],[11.7434,55.1005],[11.7176,55.1257],[11.804,55.1348],[11.8096,55.1389],[11.807,55.1469],[11.7854,55.1572],[11.7285,55.1548],[11.7114,55.1679],[11.7262,55.1769],[11.7347,55.1887],[11.7331,55.2001],[11.7176,55.2083],[11.6951,55.2081],[11.6782,55.1994],[11.6638,55.1883],[11.6494,55.181],[11.6362,55.1816],[11.5994,55.1913],[11.5242,55.2021],[11.506,55.2083],[11.4924,55.2042],[11.4232,55.2219],[11.4103,55.2201],[11.383,55.2112],[11.3689,55.2083],[11.3,55.2083],[11.3,55.2015],[11.3205,55.1946],[11.2859,55.1954],[11.261,55.2006],[11.2454,55.2148],[11.2385,55.2424],[11.2531,55.2363],[11.2678,55.2359],[11.28,55.2423],[11.2863,55.2561],[11.2761,55.2516],[11.2654,55.2495],[11.242,55.2487],[11.2388,55.2541],[11.2415,55.2785],[11.2351,55.284],[11.2171,55.2902],[11.1621,55.3192],[11.1528,55.3284],[11.162,55.3309],[11.1764,55.3319],[11.1882,55.3353],[11.1901,55.3454],[11.1823,55.3504],[11.168,55.3528],[11.1526,55.3532],[11.1423,55.3523],[11.1354,55.3469],[11.1309,55.3384],[11.1235,55.3319],[11.1082,55.3319],[11.1019,55.3363],[11.0877,55.3585],[11.0877,55.366],[11.1146,55.3644],[11.1289,55.3652],[11.1389,55.3694],[11.1477,55.3759],[11.1592,55.3813],[11.1717,55.3851],[11.1833,55.3864],[11.2044,55.3918],[11.2142,55.4038],[11.2131,55.4158],[11.2009,55.4212],[11.2048,55.4313],[11.1965,55.4538],[11.1764,55.4894],[11.1639,55.5019],[11.1511,55.5103],[11.1356,55.5151],[11.115,55.5168],[11.0972,55.5095],[11.0858,55.5076],[11.0809,55.5131],[11.0828,55.5266],[11.0886,55.5338],[11.0982,55.5367],[11.1116,55.5373],[11.138,55.5429],[11.1484,55.5573],[11.1457,55.5761],[11.1321,55.5953],[11.0879,55.6269],[11.0392,55.6435],[10.9299,55.6601],[10.9299,55.6676],[11.0877,55.6601],[11.0711,55.6769],[11.0086,55.6923],[10.9846,55.7011],[10.9743,55.7108],[10.9683,55.7184],[10.9602,55.7244],[10.9436,55.7291],[10.8914,55.7313],[10.8755,55.7365],[10.8755,55.7427],[11.0331,55.7291],[11.0657,55.7322],[11.1282,55.7463],[11.1628,55.7495],[11.1628,55.7427],[11.1517,55.7436],[11.1411,55.7432],[11.1309,55.741],[11.1218,55.7365],[11.1375,55.7191],[11.1634,55.7054],[11.1926,55.7003],[11.218,55.7086],[11.1764,55.7291],[11.1901,55.7365],[11.1995,55.7311],[11.2162,55.7287],[11.2522,55.7291],[11.2684,55.7327],[11.3024,55.7465],[11.3367,55.7509],[11.3522,55.7558],[11.364,55.7651],[11.3689,55.78],[11.37,55.7878],[11.3747,55.8016],[11.3757,55.8079],[11.3721,55.8159],[11.3547,55.8302],[11.3484,55.8383],[11.3739,55.8288],[11.3984,55.8264],[11.4217,55.832],[11.4434,55.8458],[11.4776,55.8415],[11.5052,55.8687],[11.5105,55.9083],[11.4774,55.9414],[11.4484,55.9482],[11.3843,55.9508],[11.3045,55.9678],[11.2819,55.9789],[11.2726,55.9966],[11.4006,55.962],[11.4269,55.9655],[11.5811,55.9519],[11.5994,55.9421],[11.6409,55.9434],[11.7114,55.9556],[11.7478,55.9682],[11.7683,55.9705],[11.7798,55.9619],[11.7754,55.9519],[11.7473,55.9328],[11.7388,55.9208],[11.7505,55.9104],[11.744,55.9038],[11.7279,55.9023],[11.7114,55.9072],[11.7136,55.9108],[11.7176,55.9208],[11.6858,55.9199],[11.6729,55.9159],[11.6631,55.9072],[11.7127,55.8581],[11.7316,55.8307],[11.7176,55.811],[11.7024,55.8095],[11.6712,55.8143],[11.6563,55.811],[11.638,55.7961],[11.6262,55.7906],[11.6078,55.7905],[11.6078,55.783],[11.6243,55.78],[11.6736,55.783],[11.687,55.7864],[11.7028,55.7934],[11.7204,55.7987],[11.7388,55.7973],[11.7455,55.7894],[11.7559,55.7729],[11.7637,55.7568],[11.7627,55.7495],[11.6823,55.7413],[11.6646,55.7371],[11.6572,55.7309],[11.6699,55.7228],[11.6843,55.7216],[11.7293,55.7236],[11.7388,55.726],[11.7463,55.731],[11.763,55.7214],[11.7873,55.7011],[11.7944,55.6879],[11.7938,55.683],[11.7879,55.6769],[11.7798,55.6601],[11.7976,55.6696],[11.8106,55.6791],[11.8523,55.7309],[11.8544,55.7322],[11.8556,55.7321],[11.8935,55.7337],[11.9058,55.7369],[11.9075,55.7394],[11.9091,55.7406],[11.9249,55.7379],[11.9727,55.7214],[11.9653,55.7049],[11.9582,55.6934],[11.923,55.6741],[11.9102,55.6601],[11.9304,55.6576],[11.9592,55.6651],[11.9822,55.6789],[11.9852,55.6949],[12.0012,55.6987],[12.0176,55.6957],[12.0319,55.6872],[12.0404,55.6745],[12.0093,55.6805],[12.0051,55.6782],[12.0114,55.669],[12.0266,55.6621],[12.0603,55.654],[12.0691,55.675],[12.0921,55.7067],[12.0951,55.7291],[12.0761,55.7789],[12.0763,55.7789],[12.1129,55.7788],[12.1516,55.7576],[12.1679,55.7486],[12.2405,55.7412],[12.2267,55.7338],[12.2284,55.7284],[12.2306,55.7259],[12.2329,55.7235],[12.2364,55.7212],[12.2557,55.7145],[12.258,55.7122],[12.2549,55.7078],[12.2157,55.6915],[12.1927,55.6863],[12.1579,55.6706],[12.1655,55.6643],[12.1663,55.6624],[12.1671,55.6602],[12.1666,55.6577],[12.1651,55.6547],[12.1638,55.6507],[12.1626,55.6437],[12.1645,55.6384],[12.1691,55.634],[12.1702,55.6222],[12.2011,55.6143],[12.2202,55.6149],[12.2399,55.6216],[12.252,55.6163],[12.2813,55.619],[12.3167,55.6166],[12.3591,55.6046],[12.3592,55.6046]]]]}},{"type":"Feature","properties":{"id":"DNK-3417","name":"Syddanmark","nameBn":"অঞ্চলঅফ সাউদার্ন ডেরমার্ক","type":"Region","bounds":[8.094,54.7353,10.9567,55.943],"center":[9.1292,55.349]},"geometry":{"type":"MultiPolygon","coordinates":[[[[9.317,54.8016],[9.2441,54.8018],[9.2264,54.8059],[9.2191,54.8178],[9.2161,54.8317],[9.2115,54.8418],[9.1948,54.8504],[8.9827,54.8793],[8.9041,54.8979],[8.8242,54.9059],[8.8009,54.9038],[8.7328,54.8891],[8.6959,54.89],[8.6608,54.8963],[8.6688,54.9135],[8.6614,54.9203],[8.6748,54.9479],[8.6664,54.9733],[8.6504,54.998],[8.641,55.0234],[8.6448,55.0557],[8.6565,55.0825],[8.6709,55.1071],[8.6819,55.1332],[8.5755,55.1441],[8.5637,55.1434],[8.5599,55.1351],[8.5574,55.0964],[8.5511,55.0914],[8.5414,55.0903],[8.5286,55.082],[8.5148,55.0708],[8.4994,55.0656],[8.4839,55.0676],[8.4702,55.0786],[8.4588,55.1035],[8.4602,55.1274],[8.4665,55.1516],[8.4702,55.1776],[8.4889,55.1972],[8.5305,55.2008],[8.5726,55.1937],[8.5938,55.181],[8.5803,55.1789],[8.5695,55.1738],[8.5521,55.1605],[8.5552,55.1494],[8.6148,55.1444],[8.6693,55.1369],[8.6895,55.1416],[8.6872,55.1606],[8.6688,55.1946],[8.6559,55.2375],[8.6484,55.2803],[8.6504,55.2917],[8.6594,55.3058],[8.6614,55.3144],[8.6597,55.3272],[8.6484,55.3523],[8.6394,55.3974],[8.6321,55.4188],[8.6177,55.4379],[8.5925,55.4493],[8.5567,55.4543],[8.49,55.4553],[8.4419,55.4639],[8.4011,55.4857],[8.3104,55.5627],[8.3112,55.5698],[8.3324,55.572],[8.3324,55.5783],[8.3132,55.5827],[8.2902,55.5838],[8.2678,55.5805],[8.2505,55.572],[8.239,55.5579],[8.242,55.5485],[8.2717,55.5305],[8.2625,55.5292],[8.2564,55.5268],[8.2437,55.5168],[8.2668,55.5144],[8.294,55.5043],[8.3167,55.4894],[8.3262,55.4721],[8.3133,55.4693],[8.1936,55.5259],[8.1692,55.5341],[8.1106,55.5402],[8.0952,55.5491],[8.094,55.5639],[8.1502,55.6492],[8.1691,55.6879],[8.1817,55.7291],[8.1834,55.7696],[8.1756,55.8015],[8.1758,55.8015],[8.3683,55.8025],[8.3992,55.7901],[8.4245,55.7838],[8.4597,55.7711],[8.472,55.7694],[8.4902,55.7715],[8.503,55.7793],[8.5533,55.8113],[8.5555,55.8135],[8.5559,55.8161],[8.5542,55.8191],[8.5491,55.8255],[8.5485,55.8287],[8.5536,55.8315],[8.5607,55.8341],[8.5696,55.8354],[8.5787,55.8352],[8.5885,55.8315],[8.5989,55.8292],[8.6109,55.8279],[8.6276,55.8298],[8.6441,55.8339],[8.6546,55.8348],[8.6872,55.83],[8.7575,55.8018],[8.7746,55.7988],[8.807,55.8046],[8.8231,55.8103],[8.823,55.8168],[8.8177,55.8338],[8.8283,55.8428],[8.8435,55.8723],[8.8801,55.8826],[8.9291,55.88],[8.9594,55.864],[8.9993,55.8347],[9.0131,55.8288],[9.0473,55.8309],[9.0581,55.8366],[9.071,55.8357],[9.0798,55.8483],[9.0851,55.8535],[9.0939,55.8593],[9.1029,55.8632],[9.1211,55.866],[9.138,55.8739],[9.1844,55.9071],[9.2117,55.9383],[9.2494,55.943],[9.3431,55.9255],[9.3748,55.9144],[9.3999,55.9017],[9.4507,55.8658],[9.4583,55.8585],[9.4597,55.8533],[9.4629,55.8461],[9.4688,55.8368],[9.4911,55.8217],[9.5165,55.7976],[9.5304,55.7876],[9.5462,55.7845],[9.5816,55.7868],[9.6007,55.7845],[9.6055,55.7789],[9.6025,55.7727],[9.5984,55.7669],[9.5963,55.7608],[9.5979,55.7534],[9.6087,55.7495],[9.6417,55.7469],[9.664,55.743],[9.6755,55.7371],[9.6806,55.7285],[9.6797,55.7196],[9.6756,55.7087],[9.6755,55.7086],[9.583,55.7089],[9.5596,55.7154],[9.5564,55.7116],[9.5545,55.7088],[9.5535,55.7058],[9.5527,55.7011],[9.5736,55.6955],[9.6455,55.6949],[9.6585,55.6904],[9.7103,55.6601],[9.721,55.6483],[9.7282,55.6375],[9.7383,55.6297],[9.7581,55.6267],[9.8538,55.6267],[9.8374,55.6152],[9.7855,55.5919],[9.7577,55.5716],[9.7442,55.5664],[9.7209,55.5646],[9.7124,55.5603],[9.7106,55.5509],[9.7103,55.5416],[9.7069,55.5373],[9.6439,55.5283],[9.6211,55.5189],[9.6073,55.5168],[9.5952,55.5184],[9.5728,55.5239],[9.5596,55.5236],[9.5622,55.5195],[9.5664,55.5168],[9.5519,55.5051],[9.5149,55.4982],[9.4981,55.4894],[9.5156,55.4831],[9.5344,55.4838],[9.5837,55.4912],[9.5928,55.4943],[9.6024,55.4958],[9.6602,55.478],[9.6642,55.4667],[9.6599,55.453],[9.6489,55.4411],[9.6353,55.4357],[9.6014,55.4318],[9.5868,55.4274],[9.5921,55.4163],[9.6043,55.4012],[9.6079,55.3933],[9.6052,55.382],[9.5993,55.3734],[9.6008,55.3659],[9.6211,55.3585],[9.6335,55.352],[9.6453,55.3427],[9.6483,55.3329],[9.6346,55.325],[9.6346,55.3176],[9.6449,55.3109],[9.6819,55.2746],[9.6942,55.2716],[9.7061,55.2651],[9.7103,55.2487],[9.7066,55.237],[9.6995,55.2298],[9.6929,55.221],[9.6898,55.2049],[9.6844,55.1976],[9.6716,55.1925],[9.6558,55.1894],[9.6421,55.1884],[9.5833,55.1946],[9.5698,55.1925],[9.5615,55.1872],[9.5549,55.1806],[9.5459,55.1741],[9.5218,55.1654],[9.5072,55.1619],[9.4944,55.1605],[9.4863,55.1562],[9.4863,55.1474],[9.4946,55.1401],[9.5119,55.1401],[9.5119,55.1332],[9.4824,55.1338],[9.4688,55.1318],[9.4566,55.1257],[9.4666,55.1214],[9.4792,55.1197],[9.5081,55.1195],[9.5213,55.1159],[9.5358,55.1069],[9.5596,55.0854],[9.5337,55.0658],[9.5166,55.0565],[9.4981,55.0507],[9.4524,55.0454],[9.4343,55.0375],[9.4429,55.0234],[9.4553,55.0232],[9.5119,55.0364],[9.5374,55.0354],[9.5459,55.0364],[9.5532,55.0396],[9.5602,55.0444],[9.5685,55.0488],[9.5799,55.0507],[9.6016,55.0454],[9.6419,55.0197],[9.6626,55.0097],[9.7175,55.0012],[9.731,54.9954],[9.7386,54.9809],[9.7608,54.905],[9.7632,54.9005],[9.7616,54.8974],[9.752,54.893],[9.7371,54.8928],[9.723,54.8976],[9.7114,54.8986],[9.7035,54.8862],[9.716,54.8838],[9.7279,54.8795],[9.7378,54.8735],[9.7445,54.8663],[9.7483,54.8579],[9.7503,54.8463],[9.7459,54.836],[9.7312,54.8315],[9.7196,54.8358],[9.7053,54.8546],[9.6966,54.8589],[9.655,54.8571],[9.6421,54.8589],[9.6233,54.8653],[9.6247,54.8693],[9.6328,54.8731],[9.6346,54.8793],[9.617,54.8942],[9.6104,54.9032],[9.6175,54.9073],[9.6442,54.9133],[9.6388,54.9248],[9.615,54.9327],[9.5868,54.9277],[9.5812,54.9218],[9.568,54.9014],[9.5568,54.8903],[9.5505,54.8827],[9.5459,54.8793],[9.5383,54.8779],[9.5221,54.8793],[9.5151,54.8759],[9.4981,54.8643],[9.4564,54.8438],[9.4429,54.8315],[9.4363,54.8105],[9.4375,54.8104],[9.4369,54.8101],[9.4221,54.8073],[9.4052,54.8084],[9.385,54.8194],[9.367,54.817],[9.356,54.8113],[9.3417,54.8091],[9.332,54.8032],[9.317,54.8016]]],[[[10.4502,54.8998],[10.4666,54.8906],[10.4857,54.8837],[10.4992,54.8746],[10.4987,54.8589],[10.5081,54.8549],[10.5186,54.852],[10.4401,54.8415],[10.4186,54.8278],[10.4063,54.8247],[10.3835,54.8308],[10.2114,54.9394],[10.1952,54.9619],[10.1892,54.9775],[10.2039,54.9681],[10.2887,54.9407],[10.3137,54.9277],[10.3372,54.9059],[10.3496,54.8967],[10.3643,54.893],[10.3794,54.8931],[10.3914,54.8955],[10.3958,54.9035],[10.3888,54.9203],[10.4031,54.9084],[10.4152,54.8785],[10.426,54.8725],[10.4468,54.8724],[10.4609,54.8745],[10.4636,54.8825],[10.4502,54.8998]]],[[[10.0114,54.9755],[10.0259,54.9598],[10.0651,54.8908],[10.0645,54.881],[10.0505,54.8789],[10.022,54.8793],[10.0071,54.8748],[9.9876,54.8659],[9.968,54.8595],[9.9536,54.8626],[9.9372,54.8709],[9.8911,54.8793],[9.8743,54.8862],[9.8743,54.893],[9.9009,54.9007],[9.9323,54.8928],[9.9639,54.88],[9.9915,54.8725],[9.9915,54.8793],[9.9437,54.9036],[9.8983,54.913],[9.888,54.9135],[9.8779,54.9113],[9.8635,54.9031],[9.8538,54.8998],[9.8147,54.9011],[9.7809,54.9168],[9.7612,54.9431],[9.7644,54.9755],[9.7581,54.9755],[9.7581,54.9818],[9.7803,54.9728],[9.804,54.9572],[9.8274,54.9455],[9.8475,54.9482],[9.8433,54.9517],[9.8367,54.9586],[9.8328,54.9652],[9.8367,54.9681],[9.8421,54.9703],[9.8352,54.9752],[9.7937,54.9922],[9.7868,55.0001],[9.7991,55.0097],[9.7991,55.0165],[9.7206,55.0123],[9.7069,55.0131],[9.697,55.0175],[9.6848,55.0185],[9.6742,55.0211],[9.6688,55.0302],[9.6724,55.0347],[9.6913,55.0428],[9.6966,55.0507],[9.6782,55.0502],[9.6616,55.0465],[9.6455,55.0449],[9.6284,55.0507],[9.6284,55.0581],[9.7166,55.0822],[9.752,55.0854],[9.7935,55.0808],[9.853,55.0401],[9.8848,55.0302],[9.929,55.0262],[9.9609,55.015],[9.9866,54.9977],[10.0114,54.9755]]],[[[10.855,55.0438],[10.862,55.0721],[10.8955,55.1215],[10.9343,55.1597],[10.9567,55.1537],[10.9089,55.0302],[10.8899,54.9974],[10.8377,54.9372],[10.7411,54.7524],[10.7313,54.7401],[10.7175,54.7358],[10.6939,54.7353],[10.6819,54.7448],[10.6564,54.8037],[10.6455,54.8146],[10.6321,54.8234],[10.6011,54.8383],[10.6253,54.8393],[10.6409,54.8432],[10.6535,54.8516],[10.6693,54.8663],[10.6786,54.883],[10.6844,54.8878],[10.6939,54.8828],[10.6989,54.8812],[10.7245,54.8862],[10.7222,54.8961],[10.7178,54.9073],[10.709,54.903],[10.7004,54.9016],[10.6919,54.903],[10.683,54.9073],[10.697,54.9313],[10.7183,54.9492],[10.7741,54.9866],[10.7982,54.9966],[10.855,55.0438]]],[[[8.4764,55.3454],[8.4517,55.3397],[8.4253,55.3555],[8.4024,55.38],[8.3709,55.4274],[8.3643,55.449],[8.3744,55.4633],[8.4082,55.4684],[8.412,55.4387],[8.4286,55.4335],[8.4489,55.4355],[8.4634,55.4274],[8.4631,55.4157],[8.4502,55.3934],[8.4529,55.3834],[8.4605,55.3724],[8.4675,55.3537],[8.4764,55.3454]]],[[[10.6663,55.0643],[10.6214,55.0643],[10.6047,55.0626],[10.5861,55.0575],[10.5689,55.0499],[10.5564,55.0401],[10.5383,55.0297],[10.5169,55.0313],[10.4776,55.0438],[10.4107,55.0469],[10.3888,55.0507],[10.3792,55.0545],[10.3713,55.059],[10.3626,55.0627],[10.3509,55.0643],[10.3259,55.0629],[10.3128,55.0637],[10.2342,55.0922],[10.2053,55.0937],[10.1976,55.0861],[10.197,55.0643],[10.1819,55.0709],[10.1584,55.0867],[10.1418,55.0922],[10.1213,55.0925],[10.0835,55.087],[10.0659,55.0922],[10.1426,55.1258],[10.156,55.1401],[10.1387,55.1543],[10.1262,55.1706],[10.113,55.1838],[10.094,55.1884],[10.0789,55.1859],[10.0676,55.1823],[10.0558,55.1798],[10.0393,55.181],[10.0166,55.1943],[10.0036,55.1973],[9.9915,55.1884],[9.9945,55.1728],[10.0291,55.1424],[10.0256,55.1257],[10.0207,55.1245],[9.9855,55.1278],[9.9829,55.1306],[9.9844,55.1347],[9.9841,55.1401],[9.987,55.1394],[9.9898,55.1434],[9.9888,55.1518],[9.9743,55.174],[9.972,55.1847],[9.9743,55.1953],[9.9807,55.2049],[9.9795,55.2128],[9.9641,55.2182],[9.924,55.2239],[9.9114,55.2285],[9.9002,55.2341],[9.8954,55.239],[9.8932,55.2445],[9.884,55.2535],[9.8817,55.2595],[9.884,55.2656],[9.8932,55.2746],[9.8954,55.2803],[9.8932,55.2912],[9.884,55.3088],[9.8817,55.3144],[9.8848,55.3489],[9.8745,55.3533],[9.8589,55.3541],[9.8298,55.3523],[9.8166,55.3552],[9.8024,55.3624],[9.7781,55.3803],[9.7949,55.3839],[9.8137,55.3852],[9.8301,55.3889],[9.8401,55.4001],[9.7855,55.4138],[9.7937,55.4128],[9.8196,55.4138],[9.8093,55.4255],[9.791,55.4318],[9.7513,55.4349],[9.7373,55.4382],[9.7035,55.4621],[9.7035,55.4684],[9.7302,55.4615],[9.7585,55.4475],[9.7863,55.4372],[9.8122,55.4411],[9.7134,55.491],[9.6763,55.4957],[9.6839,55.506],[9.6935,55.5102],[9.7048,55.5124],[9.7178,55.5168],[9.7551,55.5441],[9.8091,55.5503],[9.8274,55.5484],[9.8308,55.5431],[9.8313,55.5347],[9.8401,55.5236],[9.8882,55.5087],[9.9403,55.5192],[10.0393,55.5578],[10.1686,55.5823],[10.2127,55.6007],[10.2373,55.6055],[10.2642,55.6066],[10.2721,55.6055],[10.2728,55.6025],[10.2791,55.5883],[10.2796,55.5851],[10.2936,55.5881],[10.2971,55.5956],[10.2938,55.6161],[10.3076,55.6182],[10.3384,55.6101],[10.4074,55.583],[10.423,55.572],[10.4354,55.5597],[10.4442,55.5532],[10.4536,55.5503],[10.4719,55.549],[10.4885,55.5455],[10.5188,55.5334],[10.5025,55.5372],[10.4868,55.5372],[10.4753,55.532],[10.4707,55.5202],[10.4744,55.5158],[10.4891,55.5091],[10.4912,55.5031],[10.486,55.4948],[10.4778,55.4925],[10.4678,55.4921],[10.457,55.4894],[10.4196,55.4588],[10.436,55.4421],[10.4715,55.4431],[10.4912,55.4653],[10.5025,55.4636],[10.5669,55.4827],[10.6047,55.4894],[10.6091,55.4926],[10.6072,55.4994],[10.6023,55.5063],[10.5977,55.5093],[10.5887,55.5107],[10.5791,55.5141],[10.5711,55.5187],[10.5669,55.5236],[10.5698,55.5324],[10.5823,55.5291],[10.5956,55.5214],[10.6011,55.5168],[10.6138,55.5279],[10.6105,55.5436],[10.6008,55.5612],[10.5942,55.5783],[10.5991,55.5737],[10.6146,55.5646],[10.615,55.5814],[10.6084,55.6063],[10.6086,55.613],[10.6276,55.6136],[10.6569,55.5949],[10.7041,55.5503],[10.7061,55.5439],[10.707,55.535],[10.7092,55.527],[10.7144,55.5236],[10.7168,55.5214],[10.7381,55.5093],[10.7445,55.4956],[10.7424,55.4875],[10.7331,55.4819],[10.7039,55.4711],[10.6575,55.4597],[10.5884,55.4634],[10.5713,55.4612],[10.5594,55.4553],[10.554,55.4426],[10.5633,55.4362],[10.5794,55.4359],[10.5942,55.4411],[10.5896,55.4462],[10.5886,55.4494],[10.596,55.4597],[10.6157,55.4569],[10.683,55.4479],[10.6979,55.4403],[10.7966,55.3585],[10.8031,55.3498],[10.8284,55.3066],[10.8343,55.2903],[10.8269,55.2903],[10.8151,55.3008],[10.7969,55.3077],[10.7803,55.3049],[10.773,55.2871],[10.7787,55.2748],[10.8053,55.2504],[10.8133,55.2356],[10.8152,55.2141],[10.8127,55.1943],[10.806,55.1774],[10.7908,55.1569],[10.7879,55.1495],[10.7866,55.1295],[10.7834,55.1242],[10.7588,55.1053],[10.7494,55.0931],[10.7427,55.0817],[10.7337,55.0718],[10.7178,55.0643],[10.7056,55.0626],[10.6663,55.0643]]]]}}]}