{"type":"FeatureCollection","features":[{"type":"Feature","properties":{"id":"EGY-1537","name":"Ad Daqahliyah","nameBn":"ডাকাহ্লিয়া গভর্নোরেট","type":"Governorate","bounds":[31.2139,30.5703,32.2566,31.5297],"center":[31.4929,31.0304]},"geometry":{"type":"MultiPolygon","coordinates":[[[[32.2565,31.2762],[32.2468,31.2792],[32.2263,31.2821],[32.2141,31.2783],[32.207,31.2951],[32.2195,31.2938],[32.2327,31.2929],[32.2566,31.2888],[32.2565,31.2818],[32.2565,31.2764],[32.2565,31.2762]]],[[[31.7949,31.2777],[31.7964,31.2783],[31.7944,31.28],[31.7931,31.2805],[31.7918,31.2814],[31.7902,31.2851],[31.8044,31.28],[31.8112,31.2787],[31.8206,31.2783],[31.8286,31.2741],[31.8303,31.2649],[31.8303,31.2558],[31.8342,31.2516],[31.8454,31.249],[31.861,31.2424],[31.876,31.2333],[31.8858,31.2236],[31.8934,31.2399],[31.8986,31.2466],[31.9063,31.2516],[31.9021,31.2423],[31.9006,31.2361],[31.902,31.2306],[31.9063,31.2236],[31.8926,31.2236],[31.8926,31.2168],[31.9063,31.2168],[31.903,31.2146],[31.9002,31.213],[31.8984,31.2099],[31.8994,31.2032],[31.9041,31.2038],[31.9069,31.2056],[31.9092,31.2081],[31.9129,31.2106],[31.9142,31.209],[31.9139,31.2065],[31.9151,31.2042],[31.9198,31.2032],[31.9198,31.2106],[31.9266,31.2106],[31.9216,31.1965],[31.9264,31.187],[31.9347,31.1876],[31.9403,31.2032],[31.9519,31.2046],[31.9675,31.2188],[31.9866,31.2303],[32.0093,31.2236],[31.995,31.2236],[31.995,31.2168],[32.0093,31.2106],[32.012,31.2148],[32.0182,31.2191],[32.0228,31.2236],[32.0371,31.2168],[32.0371,31.2106],[32.033,31.2062],[32.0313,31.2029],[32.0296,31.1895],[32.0408,31.1939],[32.044,31.1964],[32.0423,31.1879],[32.0404,31.1823],[32.0368,31.1786],[32.0296,31.1758],[32.0296,31.1696],[32.0364,31.1611],[32.0369,31.1503],[32.0161,31.1349],[32.0161,31.1281],[32.0269,31.1277],[32.0352,31.1297],[32.041,31.1343],[32.044,31.1417],[32.0501,31.1417],[32.0514,31.1312],[32.0523,31.1288],[32.0218,31.1115],[32.0119,31.1076],[32.0094,31.1075],[31.9918,31.108],[31.9871,31.1075],[31.9832,31.1064],[31.9525,31.0855],[31.9503,31.0846],[31.9482,31.0841],[31.9362,31.0831],[31.8894,31.0736],[31.8752,31.0724],[31.873,31.072],[31.8662,31.0693],[31.8617,31.0682],[31.8594,31.0681],[31.8571,31.0683],[31.8529,31.0692],[31.8453,31.072],[31.8431,31.0724],[31.8406,31.0725],[31.8361,31.0719],[31.8274,31.068],[31.8256,31.0675],[31.8179,31.0673],[31.8133,31.0667],[31.8093,31.0656],[31.8071,31.0653],[31.8021,31.0653],[31.7953,31.0664],[31.7903,31.0667],[31.7855,31.0663],[31.7835,31.0659],[31.7784,31.0604],[31.7416,31.0008],[31.6892,30.9471],[31.6797,30.9303],[31.6747,30.9186],[31.6682,30.9086],[31.6554,30.9003],[31.6477,30.8972],[31.6367,30.8947],[31.6279,30.8915],[31.6203,30.8844],[31.6198,30.8728],[31.6234,30.857],[31.6223,30.8482],[31.6164,30.8392],[31.5856,30.8165],[31.5757,30.8054],[31.5599,30.7973],[31.5472,30.7958],[31.5138,30.7995],[31.5044,30.7968],[31.4889,30.7947],[31.479,30.795],[31.4696,30.7966],[31.4209,30.7957],[31.4015,30.792],[31.3854,30.7869],[31.3756,30.7802],[31.3673,30.7717],[31.3611,30.7604],[31.3582,30.7465],[31.3575,30.7262],[31.3664,30.6917],[31.3709,30.6635],[31.3773,30.6455],[31.3796,30.6361],[31.3807,30.6167],[31.376,30.5966],[31.3529,30.5738],[31.331,30.5793],[31.3225,30.5741],[31.3094,30.5709],[31.2958,30.5703],[31.2831,30.5788],[31.2537,30.5884],[31.269,30.6341],[31.2704,30.661],[31.2586,30.707],[31.2553,30.7341],[31.2531,30.7415],[31.2485,30.7436],[31.2438,30.7442],[31.2416,30.7474],[31.2348,30.7719],[31.2309,30.814],[31.2214,30.8229],[31.2165,30.83],[31.2139,30.837],[31.2189,30.8413],[31.2416,30.847],[31.2484,30.8505],[31.2526,30.8509],[31.2548,30.8537],[31.2553,30.8644],[31.2531,30.8683],[31.2475,30.8735],[31.2409,30.8784],[31.2348,30.8818],[31.2424,30.8829],[31.2466,30.8846],[31.25,30.8866],[31.2553,30.8886],[31.2418,30.8993],[31.2453,30.9072],[31.2555,30.9143],[31.2622,30.9228],[31.2612,30.9354],[31.2565,30.9432],[31.253,30.9511],[31.2553,30.9637],[31.2635,30.9739],[31.2743,30.9767],[31.286,30.9781],[31.2969,30.9842],[31.2993,30.9886],[31.3057,31.017],[31.304,31.0245],[31.3054,31.0297],[31.3015,31.0322],[31.2963,31.0329],[31.2871,31.0292],[31.2773,31.0278],[31.2671,31.0252],[31.2586,31.0209],[31.2475,31.0178],[31.2447,31.0183],[31.2354,31.0217],[31.2292,31.0231],[31.2235,31.0254],[31.2184,31.0311],[31.2196,31.039],[31.2291,31.0655],[31.2362,31.1128],[31.2375,31.1147],[31.2401,31.1133],[31.2419,31.1118],[31.2485,31.1099],[31.2651,31.1177],[31.2732,31.1232],[31.2845,31.1284],[31.2935,31.1285],[31.2995,31.131],[31.2961,31.1402],[31.2792,31.154],[31.2735,31.1622],[31.2724,31.1712],[31.282,31.1937],[31.2854,31.2102],[31.2843,31.2391],[31.2811,31.256],[31.28,31.2734],[31.2832,31.3178],[31.2825,31.349],[31.2735,31.4094],[31.2704,31.4191],[31.266,31.4281],[31.252,31.4419],[31.2477,31.4471],[31.245,31.4553],[31.246,31.4639],[31.2481,31.4727],[31.2517,31.4785],[31.2769,31.496],[31.3498,31.5296],[31.3499,31.5297],[31.3786,31.5185],[31.4196,31.4912],[31.5237,31.4497],[31.5568,31.4433],[31.5716,31.4438],[31.5712,31.4421],[31.568,31.4328],[31.5653,31.4271],[31.5604,31.4201],[31.5534,31.4135],[31.5191,31.3916],[31.5017,31.3743],[31.4992,31.3705],[31.5003,31.365],[31.5085,31.3599],[31.5537,31.3539],[31.5596,31.3513],[31.5624,31.3448],[31.5607,31.3379],[31.5613,31.3309],[31.5643,31.3258],[31.5709,31.3231],[31.5784,31.3248],[31.5858,31.3236],[31.5984,31.3146],[31.6055,31.3114],[31.6122,31.3109],[31.6169,31.307],[31.6238,31.2943],[31.6272,31.2926],[31.6339,31.2906],[31.6438,31.2946],[31.6502,31.2996],[31.6527,31.3055],[31.6524,31.3095],[31.6493,31.3188],[31.6495,31.3219],[31.6511,31.326],[31.6706,31.3328],[31.6758,31.3335],[31.682,31.3334],[31.6862,31.3258],[31.6878,31.3188],[31.6905,31.3106],[31.6867,31.3063],[31.6867,31.2989],[31.6931,31.2911],[31.6898,31.2866],[31.6814,31.2866],[31.673,31.2927],[31.6662,31.2927],[31.6639,31.2897],[31.6621,31.2861],[31.6594,31.2784],[31.678,31.2704],[31.6763,31.259],[31.662,31.2487],[31.6426,31.2443],[31.6256,31.2432],[31.6254,31.2391],[31.6311,31.2308],[31.6321,31.217],[31.6136,31.1956],[31.5968,31.1909],[31.599,31.1786],[31.6031,31.1694],[31.61,31.1648],[31.6223,31.1656],[31.6781,31.2067],[31.7043,31.2187],[31.7489,31.2283],[31.7796,31.246],[31.7949,31.2777]]],[[[32.0938,31.3657],[32.1043,31.3615],[32.1292,31.3374],[32.1353,31.3335],[32.1497,31.3278],[32.1895,31.3008],[32.1996,31.2951],[32.169,31.3007],[32.0701,31.354],[32.0757,31.3535],[32.0801,31.354],[32.0828,31.3528],[32.0906,31.3472],[32.0881,31.3544],[32.0835,31.3588],[32.0829,31.359],[32.0831,31.3591],[32.0867,31.361],[32.0938,31.3657]]]]}},{"type":"Feature","properties":{"id":"EGY-1556","name":"Al Bahr al Ahmar","nameBn":"লোহিত সাগর গভর্নোরেট","type":"Governorate","bounds":[30.8154,21.9954,36.8992,29.2988],"center":[33.7267,25.2164]},"geometry":{"type":"MultiPolygon","coordinates":[[[[32.5245,21.9954],[32.4431,21.9954],[32.3407,21.9954],[32.2383,21.9954],[32.136,21.9954],[32.0336,21.9954],[31.9313,21.9954],[31.8288,21.9954],[31.7265,21.9954],[31.6241,21.9954],[31.5218,21.9954],[31.4947,21.9954],[31.4948,21.9957],[31.4961,22.0001],[31.5244,22.0504],[31.5469,22.075],[31.5695,22.0913],[31.5914,22.1036],[31.7986,22.1938],[31.8102,22.2023],[31.8273,22.2227],[31.8408,22.2449],[31.849,22.2553],[31.8603,22.2649],[31.8736,22.2695],[31.8864,22.2716],[31.9205,22.2724],[31.9327,22.2746],[31.9446,22.2786],[31.9558,22.2846],[31.9961,22.312],[32.0099,22.3256],[32.0276,22.3468],[32.0442,22.3724],[32.1091,22.5421],[32.1201,22.5638],[32.1272,22.5735],[32.137,22.5807],[32.1477,22.5843],[32.1587,22.5829],[32.1702,22.5783],[32.1812,22.5719],[32.227,22.5376],[32.2682,22.4932],[32.2776,22.4863],[32.2883,22.4799],[32.3128,22.4691],[32.3383,22.4615],[32.3514,22.4595],[32.407,22.4583],[32.4548,22.4657],[32.5001,22.4792],[32.52,22.4887],[32.5373,22.4993],[32.5743,22.5299],[32.6061,22.5624],[32.7357,22.6711],[32.7615,22.7023],[32.7751,22.723],[32.7808,22.7366],[32.7844,22.7545],[32.7856,22.7834],[32.7791,22.8268],[32.7799,22.8402],[32.7876,22.854],[32.8073,22.8717],[32.8142,22.881],[32.8244,22.911],[32.8296,22.9205],[32.8378,22.9275],[32.8477,22.9291],[32.8584,22.9266],[32.8699,22.9197],[32.8813,22.9103],[32.9249,22.8667],[32.9487,22.85],[32.9599,22.8454],[32.9706,22.8426],[32.9813,22.8411],[32.991,22.8409],[33.0728,22.8535],[33.0983,22.8512],[33.1214,22.844],[33.1448,22.8306],[33.2254,22.7539],[33.2902,22.7093],[33.3006,22.7048],[33.3112,22.7017],[33.3211,22.7012],[33.3297,22.7063],[33.3337,22.7176],[33.3315,22.7431],[33.2892,22.8737],[33.2831,22.8841],[33.2747,22.8943],[33.2553,22.9104],[33.2465,22.9203],[33.2335,22.9425],[33.2251,22.9524],[33.215,22.9603],[33.2035,22.9661],[33.1441,22.9866],[33.0753,23.0254],[33.0649,23.0337],[33.0581,23.0447],[33.0559,23.057],[33.0618,23.0713],[33.0814,23.0911],[33.0888,23.1009],[33.0942,23.111],[33.1082,23.1454],[33.1152,23.1572],[33.125,23.1671],[33.1555,23.1896],[33.1622,23.1985],[33.1678,23.2088],[33.2033,23.2937],[33.2109,23.3187],[33.2128,23.3296],[33.2119,23.3436],[33.2081,23.3592],[33.1965,23.3822],[33.1683,23.4227],[33.162,23.4382],[33.14,23.5314],[33.1396,23.5572],[33.1422,23.5735],[33.1626,23.6041],[33.167,23.6145],[33.1684,23.6309],[33.1622,23.6839],[33.1619,23.7027],[33.1632,23.7178],[33.1623,23.7313],[33.1583,23.7461],[33.1464,23.7676],[33.1355,23.7795],[33.1244,23.7882],[33.1037,23.801],[33.0846,23.8164],[33.0685,23.8362],[33.0597,23.8536],[33.0331,23.922],[33.0095,23.9622],[33.0004,23.9851],[32.9721,24.1559],[32.981,24.2241],[33.0021,24.3031],[33.0114,24.3211],[33.0932,24.4197],[33.1081,24.4415],[33.1205,24.4634],[33.1242,24.4723],[33.1315,24.4971],[33.1329,24.5158],[33.1315,24.5238],[33.0236,24.7297],[33.0187,24.7441],[33.0119,24.7797],[33.0091,24.9138],[33.0004,24.973],[32.9924,25.0016],[32.9796,25.0312],[32.945,25.0852],[32.9076,25.129],[32.7048,25.2699],[32.673,25.2968],[32.6641,25.3072],[32.6514,25.3285],[32.6402,25.3566],[32.623,25.4315],[32.6211,25.4846],[32.623,25.499],[32.6349,25.5322],[32.6455,25.5521],[32.6606,25.5719],[32.7264,25.6382],[32.8231,25.717],[32.8452,25.7395],[32.864,25.7628],[32.915,25.8585],[32.9243,25.8851],[32.9294,25.9121],[32.9311,25.9355],[32.9299,25.9713],[32.9192,26.0445],[32.9049,26.0911],[32.8944,26.114],[32.8803,26.1368],[32.8409,26.1847],[32.8064,26.2135],[32.7818,26.2292],[32.7625,26.2383],[32.6844,26.2589],[32.6208,26.2625],[32.5916,26.2604],[32.5398,26.2517],[32.3384,26.1644],[32.3075,26.1582],[32.2017,26.278],[32.1747,26.3235],[32.1657,26.3356],[32.1553,26.3468],[32.1398,26.3562],[32.1271,26.3607],[32.0616,26.3739],[32.0327,26.3839],[32.0065,26.3964],[31.9885,26.4077],[31.9745,26.421],[31.9589,26.4391],[31.9347,26.4725],[31.9194,26.4994],[31.9169,26.5108],[31.9118,26.5553],[31.9064,26.5709],[31.8959,26.5892],[31.8698,26.6214],[31.8465,26.6567],[31.831,26.69],[31.7869,26.7284],[31.619,26.8332],[31.5121,27.033],[31.489,27.0678],[31.4749,27.0833],[31.4122,27.1408],[31.3707,27.1719],[31.3478,27.1844],[31.3407,27.1905],[31.3332,27.1993],[31.3255,27.2141],[31.3096,27.2546],[31.3006,27.269],[31.2884,27.2834],[31.2663,27.3011],[31.2508,27.3105],[31.2367,27.3172],[31.1734,27.3348],[31.0719,27.3732],[30.9842,27.4184],[30.9745,27.4262],[30.9656,27.4365],[30.9585,27.4478],[30.9521,27.4609],[30.9425,27.4888],[30.9392,27.5025],[30.9377,27.5318],[30.9412,27.6201],[30.9592,27.7157],[30.96,27.7317],[30.9592,27.7552],[30.9547,27.7857],[30.9498,27.8051],[30.9267,27.8585],[30.9209,27.881],[30.9127,27.9754],[30.9074,28.0027],[30.8917,28.0427],[30.8377,28.1363],[30.8334,28.1481],[30.8312,28.1595],[30.8269,28.2027],[30.8168,28.2479],[30.8154,28.2587],[30.8177,28.2766],[30.8238,28.2994],[30.8526,28.3659],[30.9013,28.4395],[30.9072,28.451],[30.9124,28.4718],[30.9442,28.7157],[30.946,28.7359],[30.953,28.7654],[30.9718,28.8115],[30.9929,28.846],[31.0601,28.9251],[31.1178,29.0071],[31.146,29.0397],[31.1906,29.0818],[31.2044,29.1002],[31.217,29.1221],[31.2347,29.1633],[31.246,29.1842],[31.2533,29.2027],[31.255,29.2169],[31.2512,29.2566],[31.2553,29.2988],[31.3284,29.2199],[31.3495,29.2038],[31.3562,29.1971],[31.3633,29.1877],[31.3771,29.16],[31.3816,29.1527],[31.3934,29.1395],[31.433,29.1031],[31.4524,29.0898],[31.4821,29.0739],[31.5011,29.0659],[31.8691,28.9682],[31.9115,28.9513],[32.0489,28.9692],[32.1299,28.9653],[32.145,28.9679],[32.1665,28.9739],[32.4712,29.0908],[32.4997,29.1061],[32.5407,29.1176],[32.5599,29.1197],[32.6562,29.1206],[32.6589,29.1108],[32.6597,29.0891],[32.6541,29.0809],[32.6442,29.0729],[32.6389,29.0613],[32.6282,29.057],[32.6247,29.0482],[32.6323,29.0376],[32.6272,29.0079],[32.6255,28.9727],[32.6321,28.9619],[32.6628,28.9341],[32.6733,28.9215],[32.6765,28.911],[32.6773,28.8908],[32.6808,28.8806],[32.7035,28.8587],[32.7075,28.8563],[32.7492,28.8048],[32.7845,28.7994],[32.8069,28.7781],[32.8206,28.7479],[32.8652,28.5996],[32.8689,28.5789],[32.8796,28.5754],[32.9273,28.5516],[32.9514,28.531],[32.9636,28.5177],[32.9729,28.4998],[32.9826,28.4966],[32.9938,28.4942],[33.0029,28.4895],[33.0062,28.4833],[33.013,28.463],[33.0418,28.4141],[33.0508,28.4069],[33.051,28.4026],[33.0496,28.4014],[33.0467,28.4014],[33.0432,28.4008],[33.0876,28.3686],[33.1067,28.3471],[33.1053,28.3256],[33.113,28.32],[33.1198,28.3088],[33.1247,28.2963],[33.1265,28.2875],[33.1305,28.2842],[33.1531,28.2562],[33.2005,28.2114],[33.2122,28.1899],[33.2222,28.1846],[33.2337,28.1803],[33.242,28.1749],[33.2468,28.1615],[33.2461,28.1505],[33.2494,28.1429],[33.2661,28.1401],[33.2832,28.1324],[33.3164,28.0964],[33.3381,28.0854],[33.3368,28.0792],[33.3381,28.071],[33.3381,28.065],[33.3361,28.0568],[33.3436,28.0506],[33.3555,28.0481],[33.3661,28.0507],[33.3747,28.0359],[33.3967,28.0272],[33.4417,28.0165],[33.5125,27.9591],[33.5354,27.9164],[33.5474,27.9067],[33.5544,27.8965],[33.5762,27.8505],[33.5784,27.8384],[33.5784,27.8322],[33.5833,27.8245],[33.5871,27.8051],[33.5921,27.7974],[33.5921,27.7912],[33.5852,27.7912],[33.5715,27.7912],[33.5601,27.8134],[33.5365,27.8261],[33.5098,27.8349],[33.4889,27.8459],[33.4822,27.8459],[33.4761,27.8316],[33.4735,27.8232],[33.4754,27.8159],[33.4822,27.8049],[33.5012,27.7875],[33.5117,27.7751],[33.5163,27.7599],[33.5227,27.7519],[33.5371,27.7558],[33.5514,27.7616],[33.5579,27.7599],[33.5564,27.7463],[33.5525,27.7319],[33.5459,27.7185],[33.5368,27.7081],[33.5408,27.7045],[33.5462,27.6982],[33.5505,27.6951],[33.5685,27.6833],[33.575,27.6814],[33.5779,27.6774],[33.5876,27.659],[33.5921,27.6535],[33.5921,27.6466],[33.5816,27.6545],[33.5579,27.6814],[33.5505,27.6814],[33.5505,27.674],[33.554,27.6686],[33.5579,27.6597],[33.5505,27.6597],[33.5442,27.6792],[33.5265,27.6776],[33.5072,27.6637],[33.4963,27.6466],[33.5197,27.6358],[33.5363,27.6162],[33.5647,27.5715],[33.5608,27.5652],[33.5583,27.5571],[33.557,27.5476],[33.5579,27.5368],[33.5745,27.5259],[33.6182,27.5081],[33.633,27.4958],[33.6359,27.4867],[33.6372,27.4648],[33.6404,27.4548],[33.6471,27.4465],[33.6641,27.4303],[33.6712,27.4204],[33.6775,27.4001],[33.6848,27.3557],[33.6917,27.3419],[33.7248,27.3137],[33.7634,27.2904],[33.8057,27.2721],[33.8254,27.2597],[33.8384,27.2426],[33.8405,27.2321],[33.8384,27.1942],[33.8361,27.1908],[33.827,27.1841],[33.8247,27.1805],[33.8254,27.1746],[33.8303,27.1659],[33.8316,27.16],[33.8325,27.1379],[33.8368,27.1208],[33.8472,27.107],[33.866,27.0952],[33.8831,27.0808],[33.9014,27.0587],[33.9087,27.0421],[33.8937,27.0439],[33.8939,27.0279],[33.9009,27.0142],[33.9209,26.9893],[33.9295,26.9742],[33.9421,26.9446],[33.9517,26.931],[33.9644,26.9219],[33.9789,26.9149],[33.991,26.9074],[33.9961,26.8966],[34.0027,26.8649],[34.0036,26.8489],[33.9961,26.8379],[33.9797,26.8371],[33.9688,26.8464],[33.9596,26.8498],[33.9483,26.831],[33.9458,26.8178],[33.9458,26.8],[33.9478,26.7824],[33.9517,26.7693],[33.9519,26.7434],[33.9321,26.6826],[33.9414,26.6535],[33.9554,26.643],[33.9878,26.6341],[34.0036,26.6256],[34.014,26.6116],[34.0239,26.5807],[34.0564,26.5423],[34.0706,26.5149],[34.1048,26.4267],[34.1196,26.4003],[34.14,26.3723],[34.1533,26.3471],[34.1775,26.3148],[34.262,26.1395],[34.301,26.0878],[34.3387,26.0018],[34.4175,25.9031],[34.425,25.8902],[34.4347,25.8619],[34.5018,25.7716],[34.5383,25.7357],[34.5466,25.725],[34.6335,25.5694],[34.6471,25.522],[34.6714,25.4797],[34.6819,25.4287],[34.7,25.401],[34.7433,25.3513],[34.7494,25.3388],[34.7588,25.3096],[34.765,25.2961],[34.7949,25.2544],[34.8069,25.2116],[34.8532,25.1388],[34.9391,25.0034],[34.943,24.9713],[34.9537,24.9441],[34.9699,24.9264],[34.9898,24.905],[34.993,24.8867],[34.9939,24.8493],[34.9966,24.8306],[35.0022,24.8156],[35.0103,24.8044],[35.0218,24.7952],[35.0376,24.7859],[35.0635,24.7641],[35.0807,24.7354],[35.104,24.6569],[35.1095,24.6438],[35.127,24.6177],[35.146,24.5859],[35.1603,24.5746],[35.1607,24.5585],[35.1444,24.5277],[35.1446,24.5002],[35.1857,24.4857],[35.2355,24.4001],[35.3706,24.3061],[35.3919,24.2828],[35.4286,24.186],[35.4557,24.159],[35.4938,24.1089],[35.5105,24.1112],[35.5031,24.1251],[35.4938,24.139],[35.5039,24.1405],[35.5242,24.1213],[35.5521,24.1105],[35.5884,24.0758],[35.6027,24.0481],[35.6053,24.0188],[35.6356,24.0019],[35.6668,24.0073],[35.6913,24.0011],[35.7175,23.9934],[35.7386,23.9833],[35.7537,23.9687],[35.7748,23.9239],[35.7925,23.9023],[35.7858,23.893],[35.7706,23.9123],[35.7504,23.9324],[35.736,23.9332],[35.6997,23.9178],[35.6845,23.9109],[35.6643,23.9186],[35.6457,23.9256],[35.6272,23.9286],[35.6137,23.9271],[35.5985,23.9294],[35.58,23.9363],[35.5732,23.9448],[35.5618,23.9572],[35.5514,23.9604],[35.5505,23.9655],[35.5353,23.9718],[35.5139,23.9771],[35.5049,23.971],[35.4912,23.9476],[35.4839,23.9178],[35.4907,23.87],[35.4814,23.8283],[35.4748,23.7979],[35.4832,23.7725],[35.5017,23.7687],[35.5101,23.7564],[35.5093,23.7417],[35.5061,23.7346],[35.5077,23.7178],[35.5085,23.7063],[35.5102,23.6839],[35.5055,23.6425],[35.5037,23.5556],[35.5015,23.5399],[35.4917,23.5122],[35.4894,23.497],[35.4933,23.4824],[35.5026,23.4672],[35.5242,23.439],[35.5414,23.4096],[35.5475,23.394],[35.5514,23.3775],[35.5503,23.3302],[35.5582,23.2821],[35.5674,23.2454],[35.5747,23.2126],[35.6211,23.1393],[35.6352,23.1109],[35.6546,23.0738],[35.6678,22.9826],[35.6751,22.9666],[35.6953,22.9321],[35.7371,22.884],[35.7637,22.8704],[35.7516,22.886],[35.7234,22.9319],[35.7429,22.9313],[35.7557,22.9223],[35.7644,22.9077],[35.7712,22.8903],[35.7819,22.8411],[35.7849,22.8332],[35.8013,22.8226],[35.8096,22.8113],[35.8167,22.7989],[35.8296,22.7848],[35.8475,22.763],[35.886,22.7357],[35.9222,22.7221],[35.9402,22.7166],[35.9431,22.7128],[35.9558,22.7045],[35.9695,22.698],[35.9844,22.6938],[36.0401,22.6902],[36.1206,22.6757],[36.1978,22.6517],[36.2261,22.6354],[36.2747,22.5924],[36.2905,22.5682],[36.2964,22.522],[36.3134,22.4916],[36.3432,22.4671],[36.3745,22.4453],[36.3899,22.4388],[36.4048,22.4329],[36.4016,22.4486],[36.4069,22.4486],[36.4281,22.426],[36.4228,22.3976],[36.4398,22.3564],[36.5077,22.328],[36.5406,22.3104],[36.5628,22.2967],[36.6233,22.2496],[36.7137,22.1691],[36.7328,22.1596],[36.7476,22.161],[36.7513,22.1669],[36.7533,22.1732],[36.7568,22.1769],[36.7649,22.175],[36.7822,22.1645],[36.7904,22.1576],[36.7957,22.1508],[36.8094,22.1208],[36.8182,22.1088],[36.8333,22.0959],[36.8719,22.0741],[36.8954,22.0661],[36.8992,22.0299],[36.8984,22.0175],[36.8919,22.0067],[36.8838,21.9966],[36.8836,21.9957],[36.6499,21.9957],[36.4172,21.9957],[36.1846,21.9956],[35.9518,21.9956],[35.7192,21.9956],[35.4864,21.9956],[35.2538,21.9956],[35.0211,21.9956],[34.7885,21.9956],[34.5558,21.9955],[34.3231,21.9955],[34.0905,21.9955],[34.0842,21.9955],[34.0761,21.9955],[33.8577,21.9955],[33.6251,21.9955],[33.3924,21.9955],[33.1811,21.9954],[33.1598,21.9954],[33.1587,21.9954],[33.0574,21.9954],[32.9551,21.9954],[32.8527,21.9954],[32.7503,21.9954],[32.6479,21.9954],[32.5454,21.9954],[32.5245,21.9954]]],[[[33.9551,26.79],[33.9706,26.7907],[33.9706,26.7906],[33.9756,26.79],[33.9955,26.7517],[34.0029,26.7316],[34.0036,26.7082],[33.9896,26.7203],[33.9828,26.7341],[33.9551,26.79]]],[[[34.0066,27.5095],[34.0285,27.502],[34.0349,27.485],[34.0384,27.4666],[34.0513,27.4548],[34.0513,27.4486],[34.0442,27.4496],[34.0311,27.4515],[34.013,27.47],[34.0071,27.4761],[33.9858,27.4821],[33.9761,27.4874],[33.9666,27.4976],[33.9564,27.5044],[33.9563,27.5044],[33.9338,27.4947],[33.9245,27.5014],[33.9175,27.5132],[33.9136,27.5237],[33.9192,27.5302],[33.9258,27.5343],[33.9331,27.5364],[33.9414,27.5368],[33.9641,27.5341],[33.9719,27.5296],[33.9807,27.5246],[33.9888,27.5183],[33.9939,27.5143],[34.0066,27.5095]]]]}},{"type":"Feature","properties":{"id":"EGY-1541","name":"Al Buhayrah","nameBn":"বেহিরা গভর্নোরেট","type":"Governorate","bounds":[29.6249,29.8982,30.8795,31.498],"center":[30.2522,30.5945]},"geometry":{"type":"Polygon","coordinates":[[[30.0985,31.2847],[30.136,31.2748],[30.1726,31.2714],[30.1644,31.267],[30.1531,31.2558],[30.1447,31.2516],[30.1441,31.2466],[30.1455,31.2451],[30.1486,31.2451],[30.1521,31.2441],[30.1401,31.2372],[30.1437,31.2295],[30.1546,31.2222],[30.1652,31.2168],[30.2068,31.2379],[30.2017,31.2265],[30.2072,31.2209],[30.2158,31.2194],[30.2205,31.2202],[30.2244,31.2269],[30.2546,31.2516],[30.2573,31.2468],[30.2581,31.2464],[30.2614,31.2441],[30.2638,31.2499],[30.266,31.2532],[30.2678,31.2573],[30.2688,31.2653],[30.2751,31.2653],[30.2746,31.2545],[30.2766,31.2464],[30.2814,31.2409],[30.2887,31.2379],[30.2927,31.2446],[30.303,31.2714],[30.2876,31.2782],[30.2734,31.2753],[30.2586,31.2689],[30.2409,31.2653],[30.2409,31.2714],[30.244,31.2719],[30.2513,31.2711],[30.2546,31.2714],[30.2546,31.2783],[30.2385,31.274],[30.1795,31.2714],[30.1795,31.2783],[30.2166,31.2864],[30.2517,31.3034],[30.3128,31.3506],[30.3345,31.381],[30.3484,31.4213],[30.3524,31.4632],[30.3439,31.498],[30.3508,31.498],[30.3557,31.4788],[30.3646,31.4601],[30.3784,31.4467],[30.3986,31.4433],[30.3982,31.4436],[30.3987,31.4435],[30.4153,31.441],[30.4248,31.4291],[30.4267,31.4097],[30.4261,31.3849],[30.4303,31.3816],[30.4394,31.3796],[30.4486,31.3751],[30.4527,31.3647],[30.4541,31.3551],[30.4583,31.348],[30.4648,31.343],[30.4738,31.3399],[30.4744,31.3435],[30.4777,31.3503],[30.4833,31.3546],[30.4912,31.3507],[30.4956,31.3469],[30.5041,31.3425],[30.508,31.3399],[30.5137,31.3344],[30.5182,31.3281],[30.5212,31.3202],[30.5223,31.3098],[30.5202,31.2895],[30.5146,31.2703],[30.5058,31.2546],[30.4943,31.2443],[30.4943,31.2381],[30.4984,31.2358],[30.4992,31.2349],[30.4995,31.2337],[30.5018,31.2306],[30.508,31.2306],[30.508,31.2381],[30.5148,31.2381],[30.5195,31.2294],[30.5255,31.2023],[30.5254,31.1965],[30.5425,31.196],[30.5428,31.1965],[30.5479,31.1972],[30.551,31.2],[30.555,31.2028],[30.5626,31.2033],[30.5702,31.1996],[30.5812,31.1864],[30.5871,31.1834],[30.5981,31.1801],[30.606,31.1729],[30.652,31.1146],[30.6993,31.0922],[30.7066,31.0832],[30.7095,31.0786],[30.7232,31.0623],[30.7277,31.0525],[30.7281,31.0423],[30.725,31.0275],[30.7277,31.019],[30.7363,31.0131],[30.7534,30.9985],[30.7636,30.9836],[30.7516,30.9768],[30.7537,30.971],[30.7775,30.9392],[30.7823,30.9228],[30.7736,30.9097],[30.7602,30.8964],[30.7571,30.886],[30.7792,30.8818],[30.7899,30.8778],[30.7938,30.8683],[30.793,30.8568],[30.7898,30.847],[30.7851,30.8411],[30.7619,30.8272],[30.7927,30.8327],[30.8068,30.8334],[30.8165,30.8272],[30.815,30.8178],[30.8025,30.8123],[30.7761,30.8061],[30.7703,30.8006],[30.7605,30.789],[30.7532,30.7755],[30.7551,30.7645],[30.7685,30.7601],[30.782,30.7639],[30.7924,30.7636],[30.7966,30.7474],[30.7913,30.7437],[30.7813,30.7306],[30.7744,30.7164],[30.7792,30.7099],[30.7884,30.7055],[30.7937,30.6946],[30.7961,30.6802],[30.7983,30.6377],[30.8047,30.6135],[30.8172,30.5957],[30.8376,30.587],[30.8376,30.5795],[30.8263,30.5754],[30.8213,30.5686],[30.821,30.5605],[30.8239,30.5522],[30.8292,30.547],[30.8357,30.5472],[30.8432,30.5485],[30.8512,30.546],[30.8503,30.5315],[30.8453,30.5184],[30.8382,30.5069],[30.8308,30.4976],[30.8443,30.4751],[30.8493,30.4637],[30.8512,30.4532],[30.8489,30.4431],[30.8444,30.4301],[30.8416,30.4157],[30.8444,30.4014],[30.8731,30.3841],[30.8795,30.3729],[30.8332,30.3617],[30.8266,30.348],[30.8331,30.3338],[30.369,29.9708],[30.3286,29.8982],[29.6718,30.252],[29.6249,30.3371],[29.6845,30.4622],[29.7287,30.5028],[29.8924,30.5694],[29.9284,30.5909],[29.9608,30.6212],[29.9857,30.654],[30.0127,30.6983],[29.999,30.7356],[29.9848,30.7605],[29.9385,30.8089],[29.8744,30.8991],[29.8671,30.9167],[29.8642,30.9397],[29.8786,30.9637],[29.8969,30.9819],[29.9092,30.9995],[29.9098,31.0051],[29.9008,31.0316],[29.8809,31.0419],[29.8746,31.0519],[29.8706,31.0568],[29.8696,31.0603],[29.8684,31.0635],[29.8671,31.0716],[29.8676,31.0756],[29.8689,31.0791],[29.8702,31.0806],[29.8752,31.0842],[29.9322,31.1062],[30.0001,31.1408],[30.0114,31.1487],[30.0385,31.1813],[30.0962,31.2785],[30.0985,31.2847]]]}},{"type":"Feature","properties":{"id":"EGY-1542","name":"Al Fayyum","nameBn":"আল ফায়ুম","type":"Governorate","bounds":[29.8149,28.9762,31.1019,29.7371],"center":[30.4584,29.2965]},"geometry":{"type":"Polygon","coordinates":[[[31.1019,29.4001],[31.0618,29.3649],[31.0232,29.2983],[30.9822,29.2592],[30.9639,29.2278],[30.9323,29.186],[30.8643,29.1206],[30.7802,29.0824],[30.3637,28.9798],[30.3164,28.9762],[30.2498,29.0181],[29.8149,29.0884],[30.2816,29.485],[30.355,29.5364],[30.5363,29.6304],[30.746,29.7143],[30.9558,29.7371],[31.0024,29.7054],[31.0305,29.6805],[31.1019,29.4001]]]}},{"type":"Feature","properties":{"id":"EGY-1530","name":"Al Gharbiyah","nameBn":"ঘারবিয়া গভর্নোরেট","type":"Governorate","bounds":[30.7516,30.5651,31.3057,31.1331],"center":[31.0287,30.8504]},"geometry":{"type":"Polygon","coordinates":[[[30.9965,30.6796],[30.9918,30.6808],[30.9824,30.6911],[30.9743,30.6921],[30.9657,30.6951],[30.9495,30.7119],[30.9391,30.7157],[30.9276,30.7167],[30.9158,30.7152],[30.9049,30.7122],[30.8936,30.7076],[30.8835,30.7023],[30.8323,30.697],[30.8221,30.6944],[30.8089,30.687],[30.7961,30.6802],[30.7937,30.6946],[30.7884,30.7055],[30.7792,30.7099],[30.7744,30.7164],[30.7813,30.7306],[30.7913,30.7437],[30.7966,30.7474],[30.7924,30.7636],[30.782,30.7639],[30.7685,30.7601],[30.7551,30.7645],[30.7532,30.7755],[30.7605,30.789],[30.7703,30.8006],[30.7761,30.8061],[30.8025,30.8123],[30.815,30.8178],[30.8165,30.8272],[30.8068,30.8334],[30.7927,30.8327],[30.7619,30.8272],[30.7851,30.8411],[30.7898,30.847],[30.793,30.8568],[30.7938,30.8683],[30.7899,30.8778],[30.7792,30.8818],[30.7571,30.886],[30.7602,30.8964],[30.7736,30.9097],[30.7823,30.9228],[30.7775,30.9392],[30.7537,30.971],[30.7516,30.9768],[30.7636,30.9836],[30.7729,31.0033],[30.7802,31.0045],[30.7875,31.0024],[30.7901,31.001],[30.8491,30.9825],[30.8608,30.9844],[30.8781,30.9905],[30.8927,30.9917],[30.9085,30.9901],[30.9161,30.9932],[30.9188,30.995],[30.9172,30.9986],[30.9181,31.0002],[30.922,31.0028],[30.9332,31.0075],[30.9429,31.0129],[30.9518,31.0152],[31.0238,31.019],[31.0401,31.0257],[31.0489,31.0343],[31.0547,31.0538],[31.059,31.0627],[31.0621,31.0707],[31.0629,31.0764],[31.0612,31.0928],[31.0612,31.1031],[31.0627,31.1123],[31.0708,31.1212],[31.1243,31.1189],[31.1467,31.1103],[31.1573,31.1106],[31.1786,31.1277],[31.1901,31.1324],[31.2016,31.1331],[31.2123,31.1322],[31.2219,31.1298],[31.228,31.1267],[31.2485,31.1099],[31.2419,31.1118],[31.2401,31.1133],[31.2375,31.1147],[31.2362,31.1128],[31.2291,31.0655],[31.2196,31.039],[31.2184,31.0311],[31.2235,31.0254],[31.2292,31.0231],[31.2354,31.0217],[31.2447,31.0183],[31.2475,31.0178],[31.2586,31.0209],[31.2671,31.0252],[31.2773,31.0278],[31.2871,31.0292],[31.2963,31.0329],[31.3015,31.0322],[31.3054,31.0297],[31.304,31.0245],[31.3057,31.017],[31.2993,30.9886],[31.2969,30.9842],[31.286,30.9781],[31.2743,30.9767],[31.2635,30.9739],[31.2553,30.9637],[31.253,30.9511],[31.2565,30.9432],[31.2612,30.9354],[31.2622,30.9228],[31.2555,30.9143],[31.2453,30.9072],[31.2418,30.8993],[31.2553,30.8886],[31.25,30.8866],[31.2466,30.8846],[31.2424,30.8829],[31.2348,30.8818],[31.2409,30.8784],[31.2475,30.8735],[31.2531,30.8683],[31.2553,30.8644],[31.2548,30.8537],[31.2526,30.8509],[31.2484,30.8505],[31.2416,30.847],[31.2189,30.8413],[31.2139,30.837],[31.2165,30.83],[31.2214,30.8229],[31.2309,30.814],[31.2348,30.7719],[31.2416,30.7474],[31.2438,30.7442],[31.2485,30.7436],[31.2531,30.7415],[31.2553,30.7341],[31.2586,30.707],[31.2704,30.661],[31.269,30.6341],[31.2537,30.5884],[31.2512,30.5651],[31.2297,30.5771],[31.2219,30.5888],[31.201,30.6054],[31.1928,30.6106],[31.1883,30.618],[31.1861,30.6251],[31.1796,30.6306],[31.1721,30.635],[31.1579,30.6416],[31.1456,30.6454],[31.1104,30.6491],[31.0957,30.6466],[31.0903,30.6462],[31.0878,30.6496],[31.0847,30.6555],[31.0643,30.6852],[31.0606,30.6881],[31.0576,30.6886],[31.0406,30.6815],[31.0359,30.6802],[31.0283,30.6798],[31.023,30.6801],[31.0143,30.6815],[30.9965,30.6796]]]}},{"type":"Feature","properties":{"id":"EGY-1543","name":"Al Iskandariyah","nameBn":"আলেক্সান্দ্রিয়া গভর্নোরেট","type":"Governorate","bounds":[29.5981,30.3371,30.0985,31.3335],"center":[29.754,30.8251]},"geometry":{"type":"Polygon","coordinates":[[[29.5981,31.0095],[29.6038,31.012],[29.611,31.0219],[29.6187,31.0293],[29.766,31.1216],[29.7815,31.1479],[29.8093,31.1423],[29.8384,31.1541],[29.8846,31.1895],[29.8757,31.2009],[29.8718,31.2001],[29.8635,31.1964],[29.8692,31.2065],[29.877,31.2136],[29.8848,31.2138],[29.8909,31.2032],[29.8982,31.2032],[29.9097,31.2141],[29.9562,31.2501],[29.97,31.2578],[29.9832,31.2633],[30.0031,31.2871],[30.0112,31.2925],[30.0251,31.2949],[30.033,31.3004],[30.0396,31.3071],[30.0491,31.3131],[30.0459,31.3142],[30.0432,31.3142],[30.0417,31.3155],[30.0422,31.3205],[30.0696,31.3335],[30.0667,31.3049],[30.0949,31.2856],[30.0985,31.2847],[30.0962,31.2785],[30.0385,31.1813],[30.0114,31.1487],[30.0001,31.1408],[29.9322,31.1062],[29.8752,31.0842],[29.8702,31.0806],[29.8689,31.0791],[29.8676,31.0756],[29.8671,31.0716],[29.8684,31.0635],[29.8696,31.0603],[29.8706,31.0568],[29.8746,31.0519],[29.8809,31.0419],[29.9008,31.0316],[29.9098,31.0051],[29.9092,30.9995],[29.8969,30.9819],[29.8786,30.9637],[29.8642,30.9397],[29.8671,30.9167],[29.8744,30.8991],[29.9385,30.8089],[29.9848,30.7605],[29.999,30.7356],[30.0127,30.6983],[29.9857,30.654],[29.9608,30.6212],[29.9284,30.5909],[29.8924,30.5694],[29.7287,30.5028],[29.6845,30.4622],[29.6249,30.3371],[29.5981,31.0088],[29.5981,31.0095]]]}},{"type":"Feature","properties":{"id":"EGY-1531","name":"Al Isma`iliyah","nameBn":"ইস্মাইলিয়া গভর্নোরেট","type":"Governorate","bounds":[31.7635,30.2038,32.7987,31.1188],"center":[32.2811,30.6765]},"geometry":{"type":"Polygon","coordinates":[[[32.1426,31.0803],[32.1463,31.0797],[32.1418,31.0874],[32.1421,31.0874],[32.2285,31.0959],[32.2645,31.103],[32.29,31.1138],[32.3112,31.1188],[32.6021,30.9737],[32.643,30.6269],[32.6452,30.538],[32.6484,30.5175],[32.652,30.5041],[32.654,30.5002],[32.654,30.5],[32.7457,30.3729],[32.7987,30.254],[32.6087,30.2656],[32.5774,30.2633],[32.5452,30.255],[32.5375,30.2512],[32.4979,30.219],[32.4936,30.2167],[32.4643,30.2048],[32.4591,30.2038],[32.4466,30.2039],[32.3949,30.2107],[32.3772,30.2153],[32.3632,30.2204],[32.3341,30.2371],[32.2476,30.243],[31.8873,30.2324],[31.8431,30.339],[31.8134,30.4429],[31.8097,30.4792],[31.8004,30.5044],[31.7906,30.5158],[31.7793,30.5238],[31.7682,30.5362],[31.7635,30.5468],[31.7638,30.5572],[31.766,30.5607],[31.7686,30.5621],[31.7731,30.5616],[31.7793,30.5601],[31.7813,30.56],[31.7848,30.5605],[31.8305,30.5483],[31.8338,30.5477],[31.8773,30.548],[31.9041,30.5509],[31.9193,30.5556],[31.9449,30.5588],[31.974,30.5596],[32.0012,30.5743],[32.0321,30.6018],[32.0986,30.6773],[32.1196,30.7161],[32.13,30.7421],[32.1171,30.7948],[32.1179,30.8334],[32.1305,30.8581],[32.1367,30.8757],[32.1506,30.8962],[32.1648,30.9336],[32.1944,30.9656],[32.2004,30.9814],[32.2018,30.9938],[32.2015,31.0055],[32.1922,31.036],[32.1747,31.0473],[32.16,31.0549],[32.1432,31.0743],[32.1426,31.0803]]]}},{"type":"Feature","properties":{"id":"EGY-1544","name":"Al Jizah","nameBn":"গিজা গভর্নোরেট","type":"Governorate","bounds":[27.3248,27.6679,31.9327,30.3458],"center":[29.7204,29.3499]},"geometry":{"type":"Polygon","coordinates":[[[29.7492,28.7593],[29.5871,28.3844],[29.4599,28.2361],[29.3085,28.1364],[28.8461,27.9208],[28.7749,27.8732],[28.7247,27.8062],[28.6532,27.6679],[27.3248,27.6679],[27.7571,28.4836],[27.7846,28.5206],[27.8319,28.5665],[27.9062,28.5929],[28.6992,28.7751],[28.901,28.9089],[29.5506,29.4828],[30.3286,29.8982],[30.369,29.9708],[30.8331,30.3338],[30.8512,30.3263],[30.8827,30.3458],[30.9096,30.3399],[30.917,30.3362],[30.9185,30.3271],[30.9182,30.3159],[30.9201,30.3058],[30.927,30.2918],[30.9299,30.2912],[30.9394,30.2881],[30.9505,30.2851],[30.9623,30.2803],[30.9636,30.2779],[30.9699,30.2735],[30.973,30.263],[30.9742,30.2406],[30.9788,30.2258],[30.9912,30.2154],[31.0089,30.2098],[31.0294,30.2096],[31.0372,30.2124],[31.051,30.2219],[31.0598,30.2239],[31.0679,30.2216],[31.0814,30.2118],[31.0934,30.2068],[31.1181,30.1891],[31.1299,30.1832],[31.1454,30.1754],[31.1666,30.156],[31.1796,30.1502],[31.2187,30.1463],[31.2286,30.1412],[31.2345,30.1335],[31.2371,30.124],[31.2376,30.1148],[31.2212,30.0079],[31.2257,29.9895],[31.2366,29.9746],[31.2622,29.9489],[31.2763,29.9228],[31.2888,29.8851],[31.2967,29.8434],[31.2969,29.8055],[31.2905,29.7845],[31.2835,29.7727],[31.2916,29.7599],[31.9289,29.7832],[31.9327,29.7368],[31.8691,28.9682],[31.5011,29.0659],[31.4821,29.0739],[31.4524,29.0898],[31.433,29.1031],[31.3934,29.1395],[31.3816,29.1527],[31.3771,29.16],[31.3633,29.1877],[31.3562,29.1971],[31.3495,29.2038],[31.3284,29.2199],[31.2553,29.2988],[31.258,29.3103],[31.2589,29.3184],[31.2586,29.3292],[31.2559,29.3393],[31.2511,29.3492],[31.2416,29.3639],[31.2348,29.3715],[31.2263,29.3779],[31.2173,29.3833],[31.2024,29.3899],[31.1726,29.3979],[31.1469,29.4012],[31.1019,29.4001],[31.0305,29.6805],[31.0024,29.7054],[30.9558,29.7371],[30.746,29.7143],[30.5363,29.6304],[30.355,29.5364],[30.2816,29.485],[29.8149,29.0884],[29.7742,28.836],[29.7492,28.7593]]]}},{"type":"Feature","properties":{"id":"EGY-1532","name":"Al Minufiyah","nameBn":"মনুফিয়া গভর্নোরেট","type":"Governorate","bounds":[30.7961,30.1754,31.2622,30.7167],"center":[31.0029,30.5076]},"geometry":{"type":"Polygon","coordinates":[[[31.0294,30.2096],[31.0089,30.2098],[30.9912,30.2154],[30.9788,30.2258],[30.9742,30.2406],[30.973,30.263],[30.9699,30.2735],[30.9636,30.2779],[30.9623,30.2803],[30.9505,30.2851],[30.9394,30.2881],[30.9299,30.2912],[30.927,30.2918],[30.9201,30.3058],[30.9182,30.3159],[30.9185,30.3271],[30.917,30.3362],[30.9096,30.3399],[30.8827,30.3458],[30.8512,30.3263],[30.8331,30.3338],[30.8266,30.348],[30.8332,30.3617],[30.8795,30.3729],[30.8731,30.3841],[30.8444,30.4014],[30.8416,30.4157],[30.8444,30.4301],[30.8489,30.4431],[30.8512,30.4532],[30.8493,30.4637],[30.8443,30.4751],[30.8308,30.4976],[30.8382,30.5069],[30.8453,30.5184],[30.8503,30.5315],[30.8512,30.546],[30.8432,30.5485],[30.8357,30.5472],[30.8292,30.547],[30.8239,30.5522],[30.821,30.5605],[30.8213,30.5686],[30.8263,30.5754],[30.8376,30.5795],[30.8376,30.587],[30.8172,30.5957],[30.8047,30.6135],[30.7983,30.6377],[30.7961,30.6802],[30.8089,30.687],[30.8221,30.6944],[30.8323,30.697],[30.8835,30.7023],[30.8936,30.7076],[30.9049,30.7122],[30.9158,30.7152],[30.9276,30.7167],[30.9391,30.7157],[30.9495,30.7119],[30.9657,30.6951],[30.9743,30.6921],[30.9824,30.6911],[30.9918,30.6808],[30.9965,30.6796],[31.0143,30.6815],[31.023,30.6801],[31.0283,30.6798],[31.0359,30.6802],[31.0406,30.6815],[31.0576,30.6886],[31.0606,30.6881],[31.0643,30.6852],[31.0847,30.6555],[31.0878,30.6496],[31.0903,30.6462],[31.0957,30.6466],[31.1104,30.6491],[31.1456,30.6454],[31.1579,30.6416],[31.1721,30.635],[31.1796,30.6306],[31.1861,30.6251],[31.1883,30.618],[31.1928,30.6106],[31.201,30.6054],[31.2219,30.5888],[31.2297,30.5771],[31.2512,30.5651],[31.2622,30.5522],[31.2491,30.5479],[31.2402,30.5523],[31.2337,30.5585],[31.228,30.5597],[31.2222,30.5523],[31.2203,30.542],[31.2223,30.5317],[31.228,30.5243],[31.228,30.5181],[31.2001,30.4976],[31.1844,30.4918],[31.1833,30.4907],[31.1791,30.4882],[31.1794,30.4821],[31.1808,30.4751],[31.1796,30.4697],[31.1715,30.4641],[31.1548,30.4614],[31.1454,30.4566],[31.1361,30.4464],[31.1347,30.438],[31.1352,30.4285],[31.1318,30.415],[31.1252,30.4028],[31.1225,30.4042],[31.1193,30.4111],[31.1113,30.415],[31.1022,30.4158],[31.1013,30.4164],[31.1036,30.4129],[31.1039,30.4014],[31.105,30.3945],[31.1076,30.3886],[31.1067,30.3825],[31.0977,30.3747],[31.0871,30.3703],[31.0779,30.3701],[31.0561,30.3747],[31.067,30.3607],[31.093,30.3441],[31.1039,30.3325],[31.1042,30.3224],[31.1008,30.2779],[31.1081,30.2709],[31.1111,30.2551],[31.1113,30.227],[31.1155,30.2155],[31.1344,30.1925],[31.1454,30.1754],[31.1299,30.1832],[31.1181,30.1891],[31.0934,30.2068],[31.0814,30.2118],[31.0679,30.2216],[31.0598,30.2239],[31.051,30.2219],[31.0372,30.2124],[31.0294,30.2096]]]}},{"type":"Feature","properties":{"id":"EGY-1545","name":"Al Minya","nameBn":"মিন্যা গভর্নোরেট","type":"Governorate","bounds":[28.6532,27.6087,30.96,28.781],"center":[30.1604,28.2141]},"geometry":{"type":"Polygon","coordinates":[[[28.6532,27.6679],[28.7247,27.8062],[28.7749,27.8732],[28.8461,27.9208],[29.3085,28.1364],[29.4599,28.2361],[29.5871,28.3844],[29.7492,28.7593],[30.7687,28.781],[30.7865,28.7641],[30.9442,28.7157],[30.9124,28.4718],[30.9072,28.451],[30.9013,28.4395],[30.8526,28.3659],[30.8238,28.2994],[30.8177,28.2766],[30.8154,28.2587],[30.8168,28.2479],[30.8269,28.2027],[30.8312,28.1595],[30.8334,28.1481],[30.8377,28.1363],[30.8917,28.0427],[30.9074,28.0027],[30.9127,27.9754],[30.9209,27.881],[30.9267,27.8585],[30.9498,27.8051],[30.9547,27.7857],[30.9592,27.7552],[30.96,27.7317],[30.9592,27.7157],[30.9412,27.6201],[30.8345,27.6087],[30.8239,27.6104],[30.7654,27.6309],[30.7589,27.631],[30.7493,27.6302],[30.7173,27.6239],[30.6984,27.6236],[30.6712,27.634],[30.676,27.6462],[30.6878,27.6676],[28.6532,27.6679]]]}},{"type":"Feature","properties":{"id":"EGY-1533","name":"Al Qahirah","nameBn":"কায়রো গভর্নোরেট","type":"Governorate","bounds":[31.2212,29.7599,31.9364,30.339],"center":[31.5788,29.9801]},"geometry":{"type":"Polygon","coordinates":[[[31.8873,30.2324],[31.8886,30.1754],[31.9148,30.0779],[31.9364,29.8725],[31.9289,29.7832],[31.2916,29.7599],[31.2835,29.7727],[31.2905,29.7845],[31.2969,29.8055],[31.2967,29.8434],[31.2888,29.8851],[31.2763,29.9228],[31.2622,29.9489],[31.2366,29.9746],[31.2257,29.9895],[31.2212,30.0079],[31.2376,30.1148],[31.3062,30.1372],[31.3096,30.1391],[31.3121,30.1412],[31.3146,30.1437],[31.3166,30.147],[31.3183,30.1512],[31.3203,30.1593],[31.3216,30.1622],[31.3233,30.1639],[31.3262,30.1646],[31.3301,30.1641],[31.3365,30.1613],[31.3403,30.1592],[31.3448,30.1586],[31.3509,30.1597],[31.3627,30.1643],[31.3689,30.1679],[31.3909,30.1765],[31.4403,30.1844],[31.5939,30.1904],[31.8431,30.339],[31.8873,30.2324]]]}},{"type":"Feature","properties":{"id":"EGY-1534","name":"Al Qalyubiyah","nameBn":"কালুবিয়া গভর্নোরেট","type":"Governorate","bounds":[31.0561,30.1148,31.5939,30.5884],"center":[31.325,30.2725]},"geometry":{"type":"Polygon","coordinates":[[[31.5939,30.1904],[31.4403,30.1844],[31.3909,30.1765],[31.3689,30.1679],[31.3627,30.1643],[31.3509,30.1597],[31.3448,30.1586],[31.3403,30.1592],[31.3365,30.1613],[31.3301,30.1641],[31.3262,30.1646],[31.3233,30.1639],[31.3216,30.1622],[31.3203,30.1593],[31.3183,30.1512],[31.3166,30.147],[31.3146,30.1437],[31.3121,30.1412],[31.3096,30.1391],[31.3062,30.1372],[31.2376,30.1148],[31.2371,30.124],[31.2345,30.1335],[31.2286,30.1412],[31.2187,30.1463],[31.1796,30.1502],[31.1666,30.156],[31.1454,30.1754],[31.1344,30.1925],[31.1155,30.2155],[31.1113,30.227],[31.1111,30.2551],[31.1081,30.2709],[31.1008,30.2779],[31.1042,30.3224],[31.1039,30.3325],[31.093,30.3441],[31.067,30.3607],[31.0561,30.3747],[31.0779,30.3701],[31.0871,30.3703],[31.0977,30.3747],[31.1067,30.3825],[31.1076,30.3886],[31.105,30.3945],[31.1039,30.4014],[31.1036,30.4129],[31.1013,30.4164],[31.1022,30.4158],[31.1113,30.415],[31.1193,30.4111],[31.1225,30.4042],[31.1252,30.4028],[31.1318,30.415],[31.1352,30.4285],[31.1347,30.438],[31.1361,30.4464],[31.1454,30.4566],[31.1548,30.4614],[31.1715,30.4641],[31.1796,30.4697],[31.1808,30.4751],[31.1794,30.4821],[31.1791,30.4882],[31.1833,30.4907],[31.1844,30.4918],[31.2001,30.4976],[31.228,30.5181],[31.228,30.5243],[31.2223,30.5317],[31.2203,30.542],[31.2222,30.5523],[31.228,30.5597],[31.2337,30.5585],[31.2402,30.5523],[31.2491,30.5479],[31.2622,30.5522],[31.2512,30.5651],[31.2537,30.5884],[31.2831,30.5788],[31.2958,30.5703],[31.3094,30.5709],[31.3225,30.5741],[31.331,30.5793],[31.3529,30.5738],[31.3309,30.5564],[31.3053,30.5409],[31.2941,30.5282],[31.2885,30.517],[31.287,30.4998],[31.2742,30.4646],[31.2725,30.437],[31.2797,30.4297],[31.2967,30.4176],[31.3065,30.3997],[31.3138,30.3906],[31.3231,30.3827],[31.3331,30.3722],[31.3427,30.3592],[31.3501,30.3346],[31.3591,30.3186],[31.3676,30.2982],[31.3759,30.2888],[31.3857,30.2805],[31.5939,30.1904]]]}},{"type":"Feature","properties":{"id":"EGY-1550","name":"Al Wadi at Jadid","nameBn":"নিউ ভ্যালি গভর্নোরেট","type":"Governorate","bounds":[24.9812,21.9944,32.9303,27.6679],"center":[28.9556,24.8314]},"geometry":{"type":"Polygon","coordinates":[[[24.9812,27.0492],[24.9812,27.138],[24.9812,27.4755],[24.9812,27.6278],[24.9812,27.6665],[25.0,27.6665],[27.3248,27.6679],[28.6532,27.6679],[30.6878,27.6676],[30.676,27.6462],[30.6712,27.634],[30.6672,27.5954],[30.6703,27.5681],[30.681,27.5366],[30.7737,27.3601],[30.7909,27.3375],[30.8065,27.3203],[30.9394,27.209],[30.988,27.1834],[31.0804,27.1495],[31.0966,27.1395],[31.1153,27.1256],[31.1621,27.0798],[31.1743,27.0642],[31.3,26.8374],[31.4389,26.6835],[31.534,26.6106],[31.9523,26.1399],[32.1108,26.0054],[32.1209,25.9984],[32.1384,25.989],[32.1629,25.9787],[32.1775,25.9746],[32.1958,25.9713],[32.2241,25.9701],[32.2726,25.9773],[32.3611,26.0001],[32.5916,26.0973],[32.6187,26.1041],[32.6646,26.1089],[32.6817,26.1082],[32.6961,26.1058],[32.7069,26.1016],[32.7175,26.0948],[32.7273,26.0865],[32.7358,26.0766],[32.7423,26.066],[32.7467,26.0555],[32.7504,26.0353],[32.7504,26.0147],[32.7481,26.0012],[32.7443,25.9909],[32.7346,25.9709],[32.6925,25.9057],[32.6871,25.8942],[32.6834,25.8823],[32.6756,25.8353],[32.6689,25.8131],[32.6644,25.8027],[32.6584,25.7926],[32.6511,25.7828],[32.632,25.7632],[32.4941,25.6648],[32.4647,25.6374],[32.4501,25.6178],[32.4456,25.6076],[32.443,25.5971],[32.4419,25.5763],[32.4435,25.561],[32.4776,25.4398],[32.5043,25.2964],[32.5193,25.2603],[32.5286,25.2448],[32.5381,25.2321],[32.5589,25.2117],[32.6539,25.1457],[32.7352,25.1031],[32.7702,25.0785],[32.7912,25.0562],[32.8084,25.033],[32.8204,25.0113],[32.8348,24.9739],[32.846,24.8713],[32.8497,24.8571],[32.8565,24.8402],[32.8992,24.7586],[32.9184,24.7055],[32.9263,24.6683],[32.9269,24.6626],[32.9303,24.649],[32.9206,24.611],[32.8835,24.53],[32.878,24.49],[32.8794,24.4876],[32.8795,24.4737],[32.8764,24.4525],[32.8739,24.3975],[32.8828,24.3277],[32.8826,24.3161],[32.8756,24.266],[32.875,24.2429],[32.8728,24.2311],[32.8707,24.1991],[32.8728,24.1864],[32.8859,24.1448],[32.8864,24.1263],[32.8757,24.0903],[32.874,24.0803],[32.8647,24.0718],[32.8613,24.0645],[32.8531,24.0535],[32.8424,24.0446],[32.8311,24.0378],[32.8186,24.0325],[32.8066,24.0289],[32.7824,24.0255],[32.7182,24.0276],[32.6945,24.0243],[32.6826,24.0207],[32.672,24.0158],[32.6632,24.0087],[32.6581,24.0028],[32.6552,23.9991],[32.6486,23.9862],[32.6416,23.9554],[32.6387,23.9267],[32.6407,23.9098],[32.6456,23.8958],[32.6548,23.8859],[32.6657,23.8776],[32.7108,23.8532],[32.734,23.8433],[32.7451,23.836],[32.7549,23.8259],[32.7634,23.8072],[32.7629,23.7942],[32.7566,23.7832],[32.7454,23.7768],[32.7329,23.7725],[32.61,23.7566],[32.5847,23.751],[32.5729,23.7466],[32.5614,23.7409],[32.5498,23.7335],[32.5277,23.714],[32.509,23.6939],[32.4849,23.6614],[32.479,23.6511],[32.4666,23.6073],[32.4523,23.5316],[32.4449,23.5053],[32.4363,23.4876],[32.4316,23.4736],[32.4264,23.4489],[32.4296,23.4336],[32.4378,23.4226],[32.4486,23.417],[32.4604,23.4129],[32.501,23.4058],[32.6009,23.4026],[32.7358,23.4209],[32.7477,23.4195],[32.758,23.4143],[32.7648,23.3962],[32.7656,23.3802],[32.7619,23.3618],[32.7558,23.3484],[32.7471,23.3345],[32.6594,23.2478],[32.6337,23.2155],[32.585,23.1154],[32.5552,23.0253],[32.5462,23.0068],[32.5427,23.0015],[32.5333,22.9903],[32.5232,22.9714],[32.5131,22.9435],[32.501,22.8871],[32.4916,22.8599],[32.4815,22.8412],[32.4726,22.8311],[32.4655,22.8212],[32.4453,22.7826],[32.436,22.7727],[32.425,22.7688],[32.4146,22.7715],[32.4064,22.7797],[32.394,22.799],[32.3853,22.8077],[32.3749,22.8136],[32.3632,22.8161],[32.3514,22.8157],[32.3238,22.8111],[32.3103,22.8111],[32.297,22.8137],[32.285,22.819],[32.2396,22.8537],[32.2175,22.8671],[32.2052,22.871],[32.1933,22.8721],[32.1801,22.8704],[32.1522,22.8629],[31.834,22.7226],[31.8228,22.7214],[31.8119,22.7223],[31.726,22.7435],[31.7031,22.7443],[31.6909,22.743],[31.6783,22.7403],[31.6648,22.7361],[31.6514,22.7302],[31.6369,22.7192],[31.6229,22.7048],[31.6054,22.679],[31.5976,22.6631],[31.5936,22.6484],[31.5936,22.6379],[31.5973,22.616],[31.6139,22.5571],[31.6203,22.5027],[31.6197,22.4961],[31.6121,22.4641],[31.6057,22.4482],[31.5973,22.4325],[31.527,22.3494],[31.4918,22.3237],[31.4756,22.315],[31.4514,22.3047],[31.4267,22.297],[31.403,22.2933],[31.3523,22.2907],[31.3272,22.2873],[31.3025,22.2805],[31.2775,22.2692],[31.264,22.2593],[31.2508,22.2467],[31.2357,22.2256],[31.2283,22.2106],[31.225,22.1969],[31.2271,22.1862],[31.2323,22.1754],[31.2412,22.1657],[31.2514,22.1563],[31.2955,22.1265],[31.3054,22.1166],[31.3127,22.1057],[31.3142,22.1027],[31.3144,22.1023],[31.3109,22.0957],[31.2616,22.0018],[31.2484,21.9944],[31.2101,21.9944],[31.1129,21.9944],[31.0156,21.9944],[30.9181,21.9945],[30.8207,21.9945],[30.7235,21.9945],[30.6261,21.9945],[30.5288,21.9945],[30.4315,21.9945],[30.3343,21.9945],[30.2369,21.9945],[30.1394,21.9945],[30.0422,21.9945],[29.9448,21.9945],[29.8476,21.9946],[29.7503,21.9946],[29.6529,21.9946],[29.5556,21.9946],[29.4582,21.9946],[29.3608,21.9947],[29.2636,21.9947],[29.1664,21.9947],[29.069,21.9947],[28.9716,21.9947],[28.8744,21.9947],[28.777,21.9948],[28.6797,21.9948],[28.5823,21.9948],[28.4849,21.9948],[28.3877,21.9948],[28.2903,21.9948],[28.1929,21.9948],[28.0957,21.9948],[27.9984,21.9948],[27.901,21.9949],[27.8037,21.9949],[27.7064,21.9949],[27.609,21.9949],[27.5117,21.9949],[27.4143,21.9949],[27.317,21.9949],[27.2197,21.995],[27.1224,21.995],[27.025,21.995],[26.9277,21.995],[26.8304,21.995],[26.7331,21.995],[26.6358,21.9951],[26.5384,21.9951],[26.4411,21.9951],[26.3438,21.9951],[26.2465,21.9951],[26.1492,21.9951],[26.0519,21.9951],[25.9545,21.9952],[25.8571,21.9952],[25.7599,21.9952],[25.6626,21.9952],[25.5652,21.9952],[25.4679,21.9953],[25.3707,21.9953],[25.2732,21.9953],[25.1759,21.9953],[25.0785,21.9953],[24.9812,21.9954],[24.9812,22.2872],[24.9812,22.579],[24.9812,22.8708],[24.9812,23.1627],[24.9812,23.4544],[24.9812,23.7463],[24.9812,24.0381],[24.9812,24.33],[24.9812,24.6217],[24.9812,24.9136],[24.9812,25.2054],[24.9812,25.4973],[24.9812,25.789],[24.9812,26.0808],[24.9812,26.3727],[24.9812,26.6645],[24.9812,26.86],[24.9812,27.0492]]]}},{"type":"Feature","properties":{"id":"EGY-1536","name":"As Suways","nameBn":"সুয়েজ গভর্নোরেট","type":"Governorate","bounds":[31.8691,28.9513,32.8548,30.2656],"center":[32.1523,29.6098]},"geometry":{"type":"Polygon","coordinates":[[[32.6518,29.79],[32.6484,29.7946],[32.6255,29.8153],[32.6045,29.8242],[32.6095,29.8339],[32.62,29.8432],[32.6255,29.8463],[32.6253,29.8743],[32.6125,29.8937],[32.5715,29.9289],[32.5804,29.934],[32.5843,29.9387],[32.5835,29.9434],[32.5778,29.9488],[32.5835,29.9506],[32.5855,29.9525],[32.5835,29.9543],[32.5778,29.9562],[32.5737,29.9621],[32.569,29.9676],[32.5635,29.9724],[32.5616,29.9764],[32.5628,29.9789],[32.5661,29.981],[32.5701,29.9827],[32.5778,29.9835],[32.5778,29.9897],[32.5754,29.997],[32.5754,30.0029],[32.5778,30.0114],[32.5715,30.0114],[32.5586,29.9871],[32.5575,29.9765],[32.5601,29.9686],[32.5656,29.963],[32.5705,29.9558],[32.5715,29.9426],[32.5641,29.9426],[32.5618,29.9552],[32.554,29.9621],[32.5427,29.9626],[32.53,29.9562],[32.5134,29.9616],[32.4939,29.9506],[32.4769,29.9322],[32.4679,29.9152],[32.4668,29.8969],[32.4729,29.882],[32.487,29.8716],[32.5095,29.8668],[32.4915,29.8541],[32.408,29.7519],[32.403,29.744],[32.3928,29.7344],[32.3639,29.6882],[32.3581,29.6719],[32.3574,29.6306],[32.3516,29.6137],[32.3377,29.5999],[32.3377,29.5925],[32.3483,29.585],[32.3596,29.5713],[32.3687,29.5572],[32.3768,29.5361],[32.3877,29.5256],[32.4387,29.4968],[32.4513,29.4873],[32.4973,29.4401],[32.5286,29.4237],[32.557,29.3979],[32.5812,29.3691],[32.5915,29.3495],[32.5954,29.3249],[32.6055,29.2919],[32.6187,29.2612],[32.6323,29.2431],[32.6323,29.2368],[32.6287,29.2189],[32.6562,29.1206],[32.5599,29.1197],[32.5407,29.1176],[32.4997,29.1061],[32.4712,29.0908],[32.1665,28.9739],[32.145,28.9679],[32.1299,28.9653],[32.0489,28.9692],[31.9115,28.9513],[31.8691,28.9682],[31.9327,29.7368],[31.9289,29.7832],[31.9364,29.8725],[31.9148,30.0779],[31.8886,30.1754],[31.8873,30.2324],[32.2476,30.243],[32.3341,30.2371],[32.3632,30.2204],[32.3772,30.2153],[32.3949,30.2107],[32.4466,30.2039],[32.4591,30.2038],[32.4643,30.2048],[32.4936,30.2167],[32.4979,30.219],[32.5375,30.2512],[32.5452,30.255],[32.5774,30.2633],[32.6087,30.2656],[32.7987,30.254],[32.8176,30.1611],[32.8299,29.9576],[32.8387,29.9366],[32.8474,29.923],[32.8548,29.9138],[32.6519,29.7901],[32.6518,29.79]]]}},{"type":"Feature","properties":{"id":"EGY-1535","name":"Ash Sharqiyah","nameBn":"আল শারকিয়া গভর্নোরেট","type":"Governorate","bounds":[31.2725,30.1904,32.29,31.1704],"center":[31.8817,30.8161]},"geometry":{"type":"MultiPolygon","coordinates":[[[[32.1418,31.0874],[32.1384,31.0933],[32.1543,31.0938],[32.1594,31.0933],[32.1594,31.1008],[32.155,31.1018],[32.1541,31.1025],[32.1543,31.104],[32.1528,31.1066],[32.1543,31.1077],[32.1663,31.1144],[32.1668,31.1083],[32.1697,31.1071],[32.1742,31.1076],[32.1799,31.1069],[32.176,31.1178],[32.1838,31.1249],[32.1948,31.1258],[32.2057,31.1092],[32.2185,31.1052],[32.2341,31.1049],[32.2482,31.1069],[32.2722,31.1189],[32.2835,31.1365],[32.2805,31.155],[32.2625,31.1696],[32.2865,31.1704],[32.2874,31.1702],[32.2881,31.169],[32.29,31.1138],[32.2645,31.103],[32.2285,31.0959],[32.1421,31.0874],[32.1418,31.0874]]],[[[32.0523,31.1288],[32.0545,31.123],[32.0606,31.1174],[32.0701,31.1144],[32.0701,31.1069],[32.0599,31.1046],[32.0526,31.1008],[32.0476,31.0949],[32.044,31.0865],[32.049,31.0845],[32.057,31.0797],[32.0666,31.0849],[32.0755,31.0864],[32.0838,31.0844],[32.0906,31.0797],[32.0906,31.0734],[32.0838,31.0734],[32.0838,31.066],[32.0938,31.0585],[32.1065,31.0534],[32.1198,31.0529],[32.1321,31.0598],[32.1321,31.066],[32.1174,31.0663],[32.1074,31.0728],[32.1012,31.0828],[32.098,31.0933],[32.113,31.0906],[32.1331,31.0817],[32.1426,31.0803],[32.1432,31.0743],[32.16,31.0549],[32.1747,31.0473],[32.1922,31.036],[32.2015,31.0055],[32.2018,30.9938],[32.2004,30.9814],[32.1944,30.9656],[32.1648,30.9336],[32.1506,30.8962],[32.1367,30.8757],[32.1305,30.8581],[32.1179,30.8334],[32.1171,30.7948],[32.13,30.7421],[32.1196,30.7161],[32.0986,30.6773],[32.0321,30.6018],[32.0012,30.5743],[31.974,30.5596],[31.9449,30.5588],[31.9193,30.5556],[31.9041,30.5509],[31.8773,30.548],[31.8338,30.5477],[31.8305,30.5483],[31.7848,30.5605],[31.7813,30.56],[31.7793,30.5601],[31.7731,30.5616],[31.7686,30.5621],[31.766,30.5607],[31.7638,30.5572],[31.7635,30.5468],[31.7682,30.5362],[31.7793,30.5238],[31.7906,30.5158],[31.8004,30.5044],[31.8097,30.4792],[31.8134,30.4429],[31.8431,30.339],[31.5939,30.1904],[31.3857,30.2805],[31.3759,30.2888],[31.3676,30.2982],[31.3591,30.3186],[31.3501,30.3346],[31.3427,30.3592],[31.3331,30.3722],[31.3231,30.3827],[31.3138,30.3906],[31.3065,30.3997],[31.2967,30.4176],[31.2797,30.4297],[31.2725,30.437],[31.2742,30.4646],[31.287,30.4998],[31.2885,30.517],[31.2941,30.5282],[31.3053,30.5409],[31.3309,30.5564],[31.3529,30.5738],[31.376,30.5966],[31.3807,30.6167],[31.3796,30.6361],[31.3773,30.6455],[31.3709,30.6635],[31.3664,30.6917],[31.3575,30.7262],[31.3582,30.7465],[31.3611,30.7604],[31.3673,30.7717],[31.3756,30.7802],[31.3854,30.7869],[31.4015,30.792],[31.4209,30.7957],[31.4696,30.7966],[31.479,30.795],[31.4889,30.7947],[31.5044,30.7968],[31.5138,30.7995],[31.5472,30.7958],[31.5599,30.7973],[31.5757,30.8054],[31.5856,30.8165],[31.6164,30.8392],[31.6223,30.8482],[31.6234,30.857],[31.6198,30.8728],[31.6203,30.8844],[31.6279,30.8915],[31.6367,30.8947],[31.6477,30.8972],[31.6554,30.9003],[31.6682,30.9086],[31.6747,30.9186],[31.6797,30.9303],[31.6892,30.9471],[31.7416,31.0008],[31.7784,31.0604],[31.7835,31.0659],[31.7855,31.0663],[31.7903,31.0667],[31.7953,31.0664],[31.8021,31.0653],[31.8071,31.0653],[31.8093,31.0656],[31.8133,31.0667],[31.8179,31.0673],[31.8256,31.0675],[31.8274,31.068],[31.8361,31.0719],[31.8406,31.0725],[31.8431,31.0724],[31.8453,31.072],[31.8529,31.0692],[31.8571,31.0683],[31.8594,31.0681],[31.8617,31.0682],[31.8662,31.0693],[31.873,31.072],[31.8752,31.0724],[31.8894,31.0736],[31.9362,31.0831],[31.9482,31.0841],[31.9503,31.0846],[31.9525,31.0855],[31.9832,31.1064],[31.9871,31.1075],[31.9918,31.108],[32.0094,31.1075],[32.0119,31.1076],[32.0218,31.1115],[32.0523,31.1288]]]]}},{"type":"Feature","properties":{"id":"EGY-1548","name":"Aswan","nameBn":"আসোয়ান","type":"Governorate","bounds":[31.225,21.9954,33.3337,25.2699],"center":[32.2794,22.6543]},"geometry":{"type":"Polygon","coordinates":[[[31.4947,21.9954],[31.4355,21.9954],[31.4674,22.0841],[31.4906,22.1482],[31.4918,22.1732],[31.4829,22.1954],[31.4609,22.2155],[31.4425,22.2242],[31.4233,22.227],[31.4041,22.2238],[31.3853,22.2145],[31.3595,22.1881],[31.3144,22.1023],[31.3142,22.1027],[31.3127,22.1057],[31.3054,22.1166],[31.2955,22.1265],[31.2514,22.1563],[31.2412,22.1657],[31.2323,22.1754],[31.2271,22.1862],[31.225,22.1969],[31.2283,22.2106],[31.2357,22.2256],[31.2508,22.2467],[31.264,22.2593],[31.2775,22.2692],[31.3025,22.2805],[31.3272,22.2873],[31.3523,22.2907],[31.403,22.2933],[31.4267,22.297],[31.4514,22.3047],[31.4756,22.315],[31.4918,22.3237],[31.527,22.3494],[31.5973,22.4325],[31.6057,22.4482],[31.6121,22.4641],[31.6197,22.4961],[31.6203,22.5027],[31.6139,22.5571],[31.5973,22.616],[31.5936,22.6379],[31.5936,22.6484],[31.5976,22.6631],[31.6054,22.679],[31.6229,22.7048],[31.6369,22.7192],[31.6514,22.7302],[31.6648,22.7361],[31.6783,22.7403],[31.6909,22.743],[31.7031,22.7443],[31.726,22.7435],[31.8119,22.7223],[31.8228,22.7214],[31.834,22.7226],[32.1522,22.8629],[32.1801,22.8704],[32.1933,22.8721],[32.2052,22.871],[32.2175,22.8671],[32.2396,22.8537],[32.285,22.819],[32.297,22.8137],[32.3103,22.8111],[32.3238,22.8111],[32.3514,22.8157],[32.3632,22.8161],[32.3749,22.8136],[32.3853,22.8077],[32.394,22.799],[32.4064,22.7797],[32.4146,22.7715],[32.425,22.7688],[32.436,22.7727],[32.4453,22.7826],[32.4655,22.8212],[32.4726,22.8311],[32.4815,22.8412],[32.4916,22.8599],[32.501,22.8871],[32.5131,22.9435],[32.5232,22.9714],[32.5333,22.9903],[32.5427,23.0015],[32.5462,23.0068],[32.5552,23.0253],[32.585,23.1154],[32.6337,23.2155],[32.6594,23.2478],[32.7471,23.3345],[32.7558,23.3484],[32.7619,23.3618],[32.7656,23.3802],[32.7648,23.3962],[32.758,23.4143],[32.7477,23.4195],[32.7358,23.4209],[32.6009,23.4026],[32.501,23.4058],[32.4604,23.4129],[32.4486,23.417],[32.4378,23.4226],[32.4296,23.4336],[32.4264,23.4489],[32.4316,23.4736],[32.4363,23.4876],[32.4449,23.5053],[32.4523,23.5316],[32.4666,23.6073],[32.479,23.6511],[32.4849,23.6614],[32.509,23.6939],[32.5277,23.714],[32.5498,23.7335],[32.5614,23.7409],[32.5729,23.7466],[32.5847,23.751],[32.61,23.7566],[32.7329,23.7725],[32.7454,23.7768],[32.7566,23.7832],[32.7629,23.7942],[32.7634,23.8072],[32.7549,23.8259],[32.7451,23.836],[32.734,23.8433],[32.7108,23.8532],[32.6657,23.8776],[32.6548,23.8859],[32.6456,23.8958],[32.6407,23.9098],[32.6387,23.9267],[32.6416,23.9554],[32.6486,23.9862],[32.6552,23.9991],[32.6581,24.0028],[32.6632,24.0087],[32.672,24.0158],[32.6826,24.0207],[32.6945,24.0243],[32.7182,24.0276],[32.7824,24.0255],[32.8066,24.0289],[32.8186,24.0325],[32.8311,24.0378],[32.8424,24.0446],[32.8531,24.0535],[32.8613,24.0645],[32.8647,24.0718],[32.874,24.0803],[32.8757,24.0903],[32.8864,24.1263],[32.8859,24.1448],[32.8728,24.1864],[32.8707,24.1991],[32.8728,24.2311],[32.875,24.2429],[32.8756,24.266],[32.8826,24.3161],[32.8828,24.3277],[32.8739,24.3975],[32.8764,24.4525],[32.8795,24.4737],[32.8794,24.4876],[32.878,24.49],[32.8835,24.53],[32.9206,24.611],[32.9303,24.649],[32.9269,24.6626],[32.9263,24.6683],[32.9184,24.7055],[32.8992,24.7586],[32.8565,24.8402],[32.8497,24.8571],[32.846,24.8713],[32.8348,24.9739],[32.8204,25.0113],[32.8084,25.033],[32.7912,25.0562],[32.7702,25.0785],[32.7352,25.1031],[32.6539,25.1457],[32.6713,25.159],[32.6796,25.1633],[32.6894,25.17],[32.6937,25.1792],[32.697,25.1935],[32.6973,25.2466],[32.7048,25.2699],[32.9076,25.129],[32.945,25.0852],[32.9796,25.0312],[32.9924,25.0016],[33.0004,24.973],[33.0091,24.9138],[33.0119,24.7797],[33.0187,24.7441],[33.0236,24.7297],[33.1315,24.5238],[33.1329,24.5158],[33.1315,24.4971],[33.1242,24.4723],[33.1205,24.4634],[33.1081,24.4415],[33.0932,24.4197],[33.0114,24.3211],[33.0021,24.3031],[32.981,24.2241],[32.9721,24.1559],[33.0004,23.9851],[33.0095,23.9622],[33.0331,23.922],[33.0597,23.8536],[33.0685,23.8362],[33.0846,23.8164],[33.1037,23.801],[33.1244,23.7882],[33.1355,23.7795],[33.1464,23.7676],[33.1583,23.7461],[33.1623,23.7313],[33.1632,23.7178],[33.1619,23.7027],[33.1622,23.6839],[33.1684,23.6309],[33.167,23.6145],[33.1626,23.6041],[33.1422,23.5735],[33.1396,23.5572],[33.14,23.5314],[33.162,23.4382],[33.1683,23.4227],[33.1965,23.3822],[33.2081,23.3592],[33.2119,23.3436],[33.2128,23.3296],[33.2109,23.3187],[33.2033,23.2937],[33.1678,23.2088],[33.1622,23.1985],[33.1555,23.1896],[33.125,23.1671],[33.1152,23.1572],[33.1082,23.1454],[33.0942,23.111],[33.0888,23.1009],[33.0814,23.0911],[33.0618,23.0713],[33.0559,23.057],[33.0581,23.0447],[33.0649,23.0337],[33.0753,23.0254],[33.1441,22.9866],[33.2035,22.9661],[33.215,22.9603],[33.2251,22.9524],[33.2335,22.9425],[33.2465,22.9203],[33.2553,22.9104],[33.2747,22.8943],[33.2831,22.8841],[33.2892,22.8737],[33.3315,22.7431],[33.3337,22.7176],[33.3297,22.7063],[33.3211,22.7012],[33.3112,22.7017],[33.3006,22.7048],[33.2902,22.7093],[33.2254,22.7539],[33.1448,22.8306],[33.1214,22.844],[33.0983,22.8512],[33.0728,22.8535],[32.991,22.8409],[32.9813,22.8411],[32.9706,22.8426],[32.9599,22.8454],[32.9487,22.85],[32.9249,22.8667],[32.8813,22.9103],[32.8699,22.9197],[32.8584,22.9266],[32.8477,22.9291],[32.8378,22.9275],[32.8296,22.9205],[32.8244,22.911],[32.8142,22.881],[32.8073,22.8717],[32.7876,22.854],[32.7799,22.8402],[32.7791,22.8268],[32.7856,22.7834],[32.7844,22.7545],[32.7808,22.7366],[32.7751,22.723],[32.7615,22.7023],[32.7357,22.6711],[32.6061,22.5624],[32.5743,22.5299],[32.5373,22.4993],[32.52,22.4887],[32.5001,22.4792],[32.4548,22.4657],[32.407,22.4583],[32.3514,22.4595],[32.3383,22.4615],[32.3128,22.4691],[32.2883,22.4799],[32.2776,22.4863],[32.2682,22.4932],[32.227,22.5376],[32.1812,22.5719],[32.1702,22.5783],[32.1587,22.5829],[32.1477,22.5843],[32.137,22.5807],[32.1272,22.5735],[32.1201,22.5638],[32.1091,22.5421],[32.0442,22.3724],[32.0276,22.3468],[32.0099,22.3256],[31.9961,22.312],[31.9558,22.2846],[31.9446,22.2786],[31.9327,22.2746],[31.9205,22.2724],[31.8864,22.2716],[31.8736,22.2695],[31.8603,22.2649],[31.849,22.2553],[31.8408,22.2449],[31.8273,22.2227],[31.8102,22.2023],[31.7986,22.1938],[31.5914,22.1036],[31.5695,22.0913],[31.5469,22.075],[31.5244,22.0504],[31.4961,22.0001],[31.4948,21.9957],[31.4947,21.9954]]]}},{"type":"Feature","properties":{"id":"EGY-1549","name":"Asyut","nameBn":"আসুত গভর্নোরেট","type":"Governorate","bounds":[30.6672,26.8288,31.619,27.634],"center":[31.1431,27.2223]},"geometry":{"type":"Polygon","coordinates":[[[30.6712,27.634],[30.6984,27.6236],[30.7173,27.6239],[30.7493,27.6302],[30.7589,27.631],[30.7654,27.6309],[30.8239,27.6104],[30.8345,27.6087],[30.9412,27.6201],[30.9377,27.5318],[30.9392,27.5025],[30.9425,27.4888],[30.9521,27.4609],[30.9585,27.4478],[30.9656,27.4365],[30.9745,27.4262],[30.9842,27.4184],[31.0719,27.3732],[31.1734,27.3348],[31.2367,27.3172],[31.2508,27.3105],[31.2663,27.3011],[31.2884,27.2834],[31.3006,27.269],[31.3096,27.2546],[31.3255,27.2141],[31.3332,27.1993],[31.3407,27.1905],[31.3478,27.1844],[31.3707,27.1719],[31.4122,27.1408],[31.4749,27.0833],[31.489,27.0678],[31.5121,27.033],[31.619,26.8332],[31.579,26.8288],[31.5675,26.8318],[31.5528,26.8372],[31.5413,26.8458],[31.5315,26.8566],[31.5233,26.8687],[31.5075,26.9005],[31.5002,26.9118],[31.4921,26.9205],[31.4747,26.9353],[31.462,26.9401],[31.451,26.9398],[31.4448,26.9364],[31.437,26.9296],[31.4271,26.9174],[31.4204,26.9071],[31.4137,26.8989],[31.4043,26.8905],[31.3931,26.8825],[31.3,26.8374],[31.1743,27.0642],[31.1621,27.0798],[31.1153,27.1256],[31.0966,27.1395],[31.0804,27.1495],[30.988,27.1834],[30.9394,27.209],[30.8065,27.3203],[30.7909,27.3375],[30.7737,27.3601],[30.681,27.5366],[30.6703,27.5681],[30.6672,27.5954],[30.6712,27.634]]]}},{"type":"Feature","properties":{"id":"EGY-1546","name":"Bani Suwayf","nameBn":"বানি সুয়েফ গভর্নোরেট","type":"Governorate","bounds":[29.7492,28.7157,31.2589,29.4012],"center":[30.5041,28.8948]},"geometry":{"type":"Polygon","coordinates":[[[30.3164,28.9762],[30.3637,28.9798],[30.7802,29.0824],[30.8643,29.1206],[30.9323,29.186],[30.9639,29.2278],[30.9822,29.2592],[31.0232,29.2983],[31.0618,29.3649],[31.1019,29.4001],[31.1469,29.4012],[31.1726,29.3979],[31.2024,29.3899],[31.2173,29.3833],[31.2263,29.3779],[31.2348,29.3715],[31.2416,29.3639],[31.2511,29.3492],[31.2559,29.3393],[31.2586,29.3292],[31.2589,29.3184],[31.258,29.3103],[31.2553,29.2988],[31.2512,29.2566],[31.255,29.2169],[31.2533,29.2027],[31.246,29.1842],[31.2347,29.1633],[31.217,29.1221],[31.2044,29.1002],[31.1906,29.0818],[31.146,29.0397],[31.1178,29.0071],[31.0601,28.9251],[30.9929,28.846],[30.9718,28.8115],[30.953,28.7654],[30.946,28.7359],[30.9442,28.7157],[30.7865,28.7641],[30.7687,28.781],[29.7492,28.7593],[29.7742,28.836],[29.8149,29.0884],[30.2498,29.0181],[30.3164,28.9762]]]}},{"type":"Feature","properties":{"id":"EGY-1538","name":"Bur Sa`id","nameBn":"পোর্ট সঈদ গভর্নোরেট","type":"Governorate","bounds":[32.2565,30.9737,32.6021,31.2888],"center":[32.4293,31.1245]},"geometry":{"type":"Polygon","coordinates":[[[32.2566,31.2888],[32.3005,31.2814],[32.3138,31.2727],[32.3201,31.2727],[32.3314,31.2714],[32.3338,31.2547],[32.3442,31.2419],[32.3591,31.2335],[32.3899,31.2265],[32.4014,31.2171],[32.4202,31.1964],[32.4627,31.161],[32.4812,31.1489],[32.5095,31.1069],[32.5358,31.0866],[32.5657,31.0705],[32.5997,31.0615],[32.5995,31.0604],[32.6021,30.9737],[32.3112,31.1188],[32.29,31.1138],[32.2881,31.169],[32.2874,31.1702],[32.2898,31.1696],[32.2948,31.1994],[32.2951,31.2134],[32.2898,31.2305],[32.273,31.2488],[32.2705,31.2576],[32.283,31.2653],[32.2679,31.2726],[32.2565,31.2762],[32.2565,31.2764],[32.2565,31.2818],[32.2566,31.2888]]]}},{"type":"Feature","properties":{"id":"EGY-1539","name":"Dumyat","nameBn":"দামিয়েট্টা গভর্নোরেট","type":"Governorate","bounds":[31.4992,31.1648,32.0938,31.5356],"center":[31.7285,31.4067]},"geometry":{"type":"Polygon","coordinates":[[[32.0829,31.359],[32.0765,31.3609],[32.056,31.3629],[32.0514,31.3664],[32.0488,31.371],[32.044,31.3751],[32.0173,31.3875],[32.0066,31.3953],[32.0025,31.395],[31.995,31.395],[31.992,31.4085],[31.9857,31.4204],[31.9776,31.4299],[31.9683,31.4365],[31.9813,31.4365],[31.9935,31.4378],[31.9431,31.4916],[31.9324,31.5078],[31.918,31.524],[31.9066,31.5296],[31.9063,31.5253],[31.8895,31.5321],[31.883,31.5285],[31.8789,31.5185],[31.8652,31.5253],[31.865,31.5221],[31.8657,31.5153],[31.8652,31.5123],[31.8617,31.5144],[31.8547,31.5165],[31.8509,31.5185],[31.8513,31.5106],[31.8495,31.5051],[31.8447,31.498],[31.8652,31.498],[31.8597,31.4869],[31.875,31.4633],[31.8721,31.4496],[31.8789,31.4496],[31.8789,31.4433],[31.8721,31.4433],[31.8743,31.4389],[31.8775,31.4341],[31.8789,31.4291],[31.8721,31.4291],[31.8687,31.4414],[31.8621,31.4506],[31.8519,31.4561],[31.8379,31.457],[31.8416,31.4645],[31.8377,31.4655],[31.8304,31.4588],[31.8242,31.4433],[31.8304,31.4426],[31.8338,31.4438],[31.8379,31.4496],[31.845,31.4448],[31.8506,31.4429],[31.8584,31.4433],[31.8584,31.4365],[31.8509,31.4365],[31.8509,31.4291],[31.8548,31.4232],[31.8606,31.419],[31.8684,31.4166],[31.8789,31.4161],[31.8718,31.4098],[31.8617,31.4076],[31.8517,31.4097],[31.8447,31.4161],[31.8379,31.4161],[31.8386,31.4108],[31.8367,31.4097],[31.8337,31.4098],[31.8304,31.4086],[31.835,31.4057],[31.8386,31.4025],[31.8447,31.395],[31.8307,31.3798],[31.8279,31.3684],[31.8369,31.3619],[31.8584,31.3615],[31.8584,31.354],[31.8451,31.3562],[31.8342,31.3599],[31.825,31.3607],[31.8167,31.354],[31.8106,31.354],[31.8039,31.3601],[31.7972,31.3595],[31.7922,31.3536],[31.7902,31.3435],[31.7943,31.3384],[31.8013,31.3349],[31.8027,31.3313],[31.7902,31.3266],[31.7902,31.3205],[31.7959,31.311],[31.7889,31.3074],[31.7775,31.305],[31.7691,31.2988],[31.7669,31.2847],[31.7732,31.2759],[31.7842,31.2734],[31.7949,31.2777],[31.7796,31.246],[31.7489,31.2283],[31.7043,31.2187],[31.6781,31.2067],[31.6223,31.1656],[31.61,31.1648],[31.6031,31.1694],[31.599,31.1786],[31.5968,31.1909],[31.6136,31.1956],[31.6321,31.217],[31.6311,31.2308],[31.6254,31.2391],[31.6256,31.2432],[31.6426,31.2443],[31.662,31.2487],[31.6763,31.259],[31.678,31.2704],[31.6594,31.2784],[31.6621,31.2861],[31.6639,31.2897],[31.6662,31.2927],[31.673,31.2927],[31.6814,31.2866],[31.6898,31.2866],[31.6931,31.2911],[31.6867,31.2989],[31.6867,31.3063],[31.6905,31.3106],[31.6878,31.3188],[31.6862,31.3258],[31.682,31.3334],[31.6758,31.3335],[31.6706,31.3328],[31.6511,31.326],[31.6495,31.3219],[31.6493,31.3188],[31.6524,31.3095],[31.6527,31.3055],[31.6502,31.2996],[31.6438,31.2946],[31.6339,31.2906],[31.6272,31.2926],[31.6238,31.2943],[31.6169,31.307],[31.6122,31.3109],[31.6055,31.3114],[31.5984,31.3146],[31.5858,31.3236],[31.5784,31.3248],[31.5709,31.3231],[31.5643,31.3258],[31.5613,31.3309],[31.5607,31.3379],[31.5624,31.3448],[31.5596,31.3513],[31.5537,31.3539],[31.5085,31.3599],[31.5003,31.365],[31.4992,31.3705],[31.5017,31.3743],[31.5191,31.3916],[31.5534,31.4135],[31.5604,31.4201],[31.5653,31.4271],[31.568,31.4328],[31.5712,31.4421],[31.5716,31.4438],[31.5974,31.4445],[31.7483,31.4816],[31.8379,31.5253],[31.8744,31.5356],[31.9129,31.5349],[31.9448,31.5209],[31.9592,31.4943],[31.9642,31.4824],[31.9958,31.4457],[32.009,31.4172],[32.0249,31.4001],[32.057,31.3751],[32.0676,31.3711],[32.092,31.3664],[32.0938,31.3657],[32.0867,31.361],[32.0831,31.3591],[32.0829,31.359]]]}},{"type":"Feature","properties":{"id":"EGY-1557","name":"Janub Sina'","nameBn":"দক্ষিন সিনাই গভর্নোরেট","type":"Governorate","bounds":[32.6518,27.7286,34.8855,29.9252],"center":[33.7687,28.925]},"geometry":{"type":"MultiPolygon","coordinates":[[[[34.8855,29.4895],[34.8753,29.4848],[34.8669,29.4792],[34.8597,29.4722],[34.8526,29.4628],[34.847,29.4511],[34.8438,29.4408],[34.8381,29.4329],[34.8254,29.4286],[34.8289,29.4277],[34.8317,29.4276],[34.8333,29.4262],[34.8328,29.4211],[34.8242,29.4174],[34.8176,29.4122],[34.8152,29.4064],[34.8191,29.4007],[34.8096,29.3991],[34.8052,29.3964],[34.8059,29.3926],[34.8123,29.3876],[34.8006,29.3779],[34.7776,29.3461],[34.7727,29.3419],[34.762,29.3369],[34.757,29.3331],[34.7529,29.3271],[34.7498,29.3212],[34.745,29.3158],[34.7366,29.3113],[34.7366,29.3051],[34.7453,29.2913],[34.742,29.277],[34.7341,29.2631],[34.729,29.2505],[34.729,29.1989],[34.7236,29.1867],[34.7121,29.1774],[34.7004,29.1704],[34.695,29.1645],[34.6939,29.1505],[34.6901,29.1345],[34.6838,29.119],[34.6746,29.1065],[34.677,29.0949],[34.6746,29.0344],[34.6766,29.0248],[34.6865,29.0124],[34.6887,29.0004],[34.6857,28.9887],[34.6782,28.9831],[34.6691,28.9802],[34.6467,28.9674],[34.6432,28.9621],[34.6403,28.9488],[34.641,28.9427],[34.646,28.9223],[34.6471,28.8629],[34.6205,28.8459],[34.6205,28.8396],[34.6234,28.8306],[34.6263,28.817],[34.6263,28.8024],[34.6205,28.7906],[34.624,28.7871],[34.6273,28.7825],[34.6335,28.7707],[34.6244,28.7653],[34.6228,28.7598],[34.625,28.7537],[34.6267,28.7465],[34.6245,28.736],[34.6199,28.7292],[34.6152,28.7242],[34.613,28.7192],[34.6077,28.7015],[34.5842,28.6723],[34.5703,28.6262],[34.5301,28.5727],[34.5173,28.5441],[34.5164,28.5415],[34.5164,28.539],[34.5153,28.5374],[34.5106,28.538],[34.5236,28.5073],[34.5116,28.4878],[34.4888,28.4727],[34.469,28.4554],[34.4719,28.4533],[34.4728,28.4528],[34.4753,28.4479],[34.4617,28.442],[34.4543,28.4289],[34.4448,28.3845],[34.4412,28.3735],[34.4294,28.3568],[34.4274,28.3561],[34.4243,28.3447],[34.4102,28.32],[34.4069,28.308],[34.4079,28.2912],[34.4107,28.2781],[34.4151,28.2671],[34.4206,28.2562],[34.4206,28.2499],[34.4129,28.2331],[34.4212,28.2182],[34.4343,28.2044],[34.4431,28.1883],[34.4525,28.1804],[34.4553,28.1749],[34.4553,28.1675],[34.4526,28.1632],[34.45,28.1603],[34.4486,28.1572],[34.4478,28.1447],[34.4386,28.1096],[34.4268,28.0815],[34.444,28.0535],[34.4274,27.9831],[34.4349,27.9756],[34.4089,27.9721],[34.4007,27.9687],[34.3975,27.9631],[34.3944,27.9538],[34.39,27.9453],[34.377,27.9382],[34.3709,27.9237],[34.3626,27.9204],[34.355,27.9195],[34.3412,27.9155],[34.3313,27.9141],[34.3333,27.9101],[34.3335,27.9091],[34.3345,27.9088],[34.3387,27.9067],[34.3312,27.8915],[34.321,27.8613],[34.3113,27.852],[34.3045,27.852],[34.3013,27.8573],[34.293,27.8598],[34.2864,27.8644],[34.2795,27.8583],[34.2727,27.8362],[34.2635,27.8248],[34.2717,27.8124],[34.2591,27.8017],[34.2395,27.7941],[34.2261,27.7912],[34.2168,27.7919],[34.2141,27.7915],[34.2181,27.7758],[34.2212,27.7698],[34.2573,27.7695],[34.2573,27.7633],[34.2498,27.7633],[34.2498,27.7565],[34.2551,27.7524],[34.2585,27.7478],[34.2635,27.736],[34.2538,27.7404],[34.2498,27.7428],[34.2512,27.7391],[34.2512,27.7372],[34.2525,27.7365],[34.2573,27.736],[34.2573,27.7286],[34.2498,27.7286],[34.245,27.7374],[34.2276,27.7582],[34.2085,27.7759],[34.2,27.7822],[34.1898,27.7868],[34.1748,27.7912],[34.0785,27.8007],[34.0545,27.8145],[33.9876,27.8867],[33.9824,27.89],[33.9738,27.8892],[33.9168,27.9357],[33.904,27.9418],[33.8909,27.9425],[33.8794,27.9346],[33.8656,27.9613],[33.8589,27.9551],[33.8499,27.9648],[33.8151,27.991],[33.8069,27.9946],[33.8042,27.996],[33.8005,28.0005],[33.7969,28.009],[33.7937,28.0131],[33.7868,28.018],[33.7791,28.0208],[33.7634,28.024],[33.7639,28.049],[33.716,28.0753],[33.7155,28.0929],[33.7014,28.1038],[33.6843,28.1243],[33.6725,28.146],[33.6746,28.1605],[33.6698,28.1637],[33.6657,28.1657],[33.6624,28.1688],[33.6603,28.1749],[33.6541,28.1749],[33.6541,28.1674],[33.6467,28.1674],[33.6436,28.1723],[33.6348,28.1813],[33.633,28.1845],[33.6182,28.2333],[33.6128,28.2406],[33.6056,28.2363],[33.5979,28.2497],[33.5744,28.2807],[33.5647,28.2971],[33.4339,28.3664],[33.4275,28.3769],[33.4232,28.3782],[33.4002,28.4145],[33.3809,28.4302],[33.369,28.4423],[33.3692,28.4479],[33.3052,28.4897],[33.2948,28.4994],[33.2903,28.5069],[33.2871,28.5151],[33.2788,28.5275],[33.2678,28.5389],[33.2562,28.5441],[33.2625,28.5516],[33.2625,28.5441],[33.2698,28.5441],[33.2629,28.5771],[33.2461,28.5795],[33.2376,28.5661],[33.2562,28.5516],[33.2394,28.5566],[33.2287,28.5694],[33.2232,28.5878],[33.219,28.628],[33.2126,28.645],[33.1948,28.6751],[33.2048,28.695],[33.2178,28.741],[33.2283,28.7639],[33.2158,28.7772],[33.2101,28.7851],[33.2048,28.8052],[33.1975,28.81],[33.1887,28.8129],[33.181,28.8185],[33.1746,28.837],[33.1714,28.8814],[33.1673,28.8942],[33.1673,28.9004],[33.176,28.9097],[33.1776,28.9184],[33.1736,28.9414],[33.1716,28.9467],[33.1677,28.9611],[33.1659,28.9761],[33.1706,28.983],[33.1779,28.9896],[33.1707,29.0031],[33.1592,29.0141],[33.1531,29.0134],[33.1511,29.0242],[33.145,29.0317],[33.1365,29.0346],[33.1265,29.0314],[33.1161,29.0431],[33.089,29.056],[33.0786,29.0649],[33.0662,29.09],[33.0643,29.0959],[33.0612,29.1014],[33.0466,29.1116],[33.0432,29.1164],[33.0402,29.1181],[33.0234,29.1406],[33.0204,29.1425],[33.0121,29.1458],[33.0091,29.1474],[33.0075,29.1503],[33.0049,29.1584],[33.0029,29.1611],[32.9579,29.2021],[32.9421,29.2066],[32.9198,29.2175],[32.8986,29.231],[32.8856,29.2431],[32.8801,29.2589],[32.8755,29.2795],[32.8683,29.2974],[32.8552,29.3051],[32.846,29.3083],[32.8394,29.3162],[32.8191,29.3591],[32.8174,29.3598],[32.8211,29.397],[32.8172,29.414],[32.7903,29.4254],[32.7415,29.456],[32.7492,29.456],[32.7454,29.4631],[32.7411,29.4667],[32.7357,29.4683],[32.7285,29.4696],[32.731,29.4719],[32.7337,29.4739],[32.7354,29.4773],[32.7347,29.4838],[32.7285,29.4838],[32.7238,29.4753],[32.7214,29.4675],[32.7229,29.4609],[32.7285,29.456],[32.715,29.456],[32.7225,29.4927],[32.7241,29.5395],[32.7124,29.5805],[32.6808,29.5999],[32.6808,29.6061],[32.6869,29.6181],[32.686,29.6323],[32.6825,29.647],[32.6808,29.6614],[32.6833,29.6761],[32.6919,29.6965],[32.6939,29.706],[32.6931,29.7228],[32.6907,29.7336],[32.6868,29.7418],[32.6808,29.7508],[32.6564,29.7771],[32.653,29.7883],[32.6518,29.79],[32.6519,29.7901],[32.8548,29.9138],[33.1303,29.9252],[33.7683,29.827],[34.0244,29.7072],[34.2273,29.6404],[34.3433,29.5861],[34.4682,29.5465],[34.8855,29.4895]]],[[[34.5851,27.9551],[34.5852,27.9551],[34.6013,27.9426],[34.6205,27.9278],[34.6205,27.9204],[34.5822,27.9179],[34.5472,27.9197],[34.5181,27.9304],[34.4981,27.9531],[34.4963,27.9551],[34.4978,27.9687],[34.4944,27.9882],[34.4895,27.996],[34.493,28.0008],[34.4944,28.0018],[34.4945,28.0017],[34.4963,27.996],[34.4964,27.9962],[34.5,28.0038],[34.5049,28.0099],[34.5108,28.0141],[34.5173,28.0165],[34.5174,28.0165],[34.5348,28.0082],[34.5405,28.0031],[34.5442,27.996],[34.5182,27.9914],[34.5068,27.9862],[34.5032,27.9756],[34.5079,27.9712],[34.5119,27.9675],[34.5288,27.9659],[34.558,27.9702],[34.5706,27.9741],[34.5728,27.9722],[34.5749,27.9721],[34.5796,27.9655],[34.584,27.958],[34.5851,27.9551]]],[[[34.7319,27.9571],[34.7322,27.9189],[34.7047,27.9084],[34.681,27.9152],[34.6618,27.9302],[34.6818,27.9587],[34.7319,27.9571]]]]}},{"type":"Feature","properties":{"id":"EGY-1547","name":"Kafr ash Shaykh","nameBn":"কাফ্র এল-শেইখ গভর্নোরেট","type":"Governorate","bounds":[30.3557,30.9825,31.3499,31.6079],"center":[30.853,31.2075]},"geometry":{"type":"Polygon","coordinates":[[[30.3982,31.4436],[30.3706,31.4616],[30.3557,31.4911],[30.3622,31.5087],[30.3986,31.4912],[30.4256,31.4736],[30.4564,31.4627],[30.4925,31.4592],[30.5358,31.4639],[30.6765,31.4962],[30.9739,31.5867],[30.9739,31.5799],[30.9588,31.5781],[30.8664,31.5483],[30.7891,31.5103],[30.7361,31.4887],[30.6934,31.4639],[30.6878,31.4616],[30.6741,31.4597],[30.666,31.457],[30.6281,31.4343],[30.6107,31.4291],[30.571,31.4266],[30.5623,31.4223],[30.5579,31.4222],[30.5427,31.4024],[30.5427,31.395],[30.5632,31.3902],[30.5703,31.3901],[30.5767,31.395],[30.5835,31.395],[30.5986,31.3874],[30.6267,31.3887],[30.6538,31.3958],[30.666,31.4055],[30.6751,31.4216],[30.6951,31.4169],[30.716,31.4021],[30.7276,31.3881],[30.7344,31.3881],[30.7407,31.4055],[30.7562,31.423],[30.7747,31.4368],[30.7896,31.4433],[30.7985,31.4465],[30.8096,31.4421],[30.8226,31.4347],[30.8374,31.4291],[30.8469,31.4302],[30.8597,31.4333],[30.8737,31.4345],[30.8858,31.4291],[30.8827,31.4281],[30.8799,31.4282],[30.8784,31.427],[30.8789,31.4223],[30.8924,31.4191],[30.9094,31.4238],[30.9264,31.4331],[30.9397,31.4433],[30.9373,31.4444],[30.9348,31.4442],[30.9333,31.4451],[30.9336,31.4496],[30.937,31.4517],[30.9375,31.4526],[30.9377,31.4538],[30.9397,31.457],[30.974,31.4441],[30.9807,31.4365],[30.99,31.4433],[30.9969,31.4511],[31.0081,31.4713],[31.0022,31.4796],[31.0057,31.4862],[31.0217,31.498],[31.0247,31.5041],[31.0236,31.5092],[31.0233,31.5138],[31.0291,31.5185],[31.0349,31.5197],[31.0713,31.5173],[31.0807,31.5142],[31.0974,31.5048],[31.1001,31.501],[31.0998,31.4964],[31.1016,31.4925],[31.1111,31.4912],[31.1192,31.4931],[31.1253,31.4978],[31.1292,31.5045],[31.1111,31.5123],[31.1175,31.516],[31.1235,31.5179],[31.1304,31.517],[31.1111,31.5397],[31.0708,31.5654],[31.0232,31.583],[30.978,31.5843],[30.9876,31.5889],[31.0124,31.5969],[31.0974,31.6079],[31.1287,31.6049],[31.221,31.5799],[31.3499,31.5297],[31.3498,31.5296],[31.2769,31.496],[31.2517,31.4785],[31.2481,31.4727],[31.246,31.4639],[31.245,31.4553],[31.2477,31.4471],[31.252,31.4419],[31.266,31.4281],[31.2704,31.4191],[31.2735,31.4094],[31.2825,31.349],[31.2832,31.3178],[31.28,31.2734],[31.2811,31.256],[31.2843,31.2391],[31.2854,31.2102],[31.282,31.1937],[31.2724,31.1712],[31.2735,31.1622],[31.2792,31.154],[31.2961,31.1402],[31.2995,31.131],[31.2935,31.1285],[31.2845,31.1284],[31.2732,31.1232],[31.2651,31.1177],[31.2485,31.1099],[31.228,31.1267],[31.2219,31.1298],[31.2123,31.1322],[31.2016,31.1331],[31.1901,31.1324],[31.1786,31.1277],[31.1573,31.1106],[31.1467,31.1103],[31.1243,31.1189],[31.0708,31.1212],[31.0627,31.1123],[31.0612,31.1031],[31.0612,31.0928],[31.0629,31.0764],[31.0621,31.0707],[31.059,31.0627],[31.0547,31.0538],[31.0489,31.0343],[31.0401,31.0257],[31.0238,31.019],[30.9518,31.0152],[30.9429,31.0129],[30.9332,31.0075],[30.922,31.0028],[30.9181,31.0002],[30.9172,30.9986],[30.9188,30.995],[30.9161,30.9932],[30.9085,30.9901],[30.8927,30.9917],[30.8781,30.9905],[30.8608,30.9844],[30.8491,30.9825],[30.7901,31.001],[30.7875,31.0024],[30.7802,31.0045],[30.7729,31.0033],[30.7636,30.9836],[30.7534,30.9985],[30.7363,31.0131],[30.7277,31.019],[30.725,31.0275],[30.7281,31.0423],[30.7277,31.0525],[30.7232,31.0623],[30.7095,31.0786],[30.7066,31.0832],[30.6993,31.0922],[30.652,31.1146],[30.606,31.1729],[30.5981,31.1801],[30.5871,31.1834],[30.5812,31.1864],[30.5702,31.1996],[30.5626,31.2033],[30.555,31.2028],[30.551,31.2],[30.5479,31.1972],[30.5428,31.1965],[30.5425,31.196],[30.5254,31.1965],[30.5255,31.2023],[30.5195,31.2294],[30.5148,31.2381],[30.508,31.2381],[30.508,31.2306],[30.5018,31.2306],[30.4995,31.2337],[30.4992,31.2349],[30.4984,31.2358],[30.4943,31.2381],[30.4943,31.2443],[30.5058,31.2546],[30.5146,31.2703],[30.5202,31.2895],[30.5223,31.3098],[30.5212,31.3202],[30.5182,31.3281],[30.5137,31.3344],[30.508,31.3399],[30.5041,31.3425],[30.4956,31.3469],[30.4912,31.3507],[30.4833,31.3546],[30.4777,31.3503],[30.4744,31.3435],[30.4738,31.3399],[30.4648,31.343],[30.4583,31.348],[30.4541,31.3551],[30.4527,31.3647],[30.4486,31.3751],[30.4394,31.3796],[30.4303,31.3816],[30.4261,31.3849],[30.4267,31.4097],[30.4248,31.4291],[30.4153,31.441],[30.3987,31.4435],[30.3982,31.4436]]]}},{"type":"Feature","properties":{"id":"EGY-5494","name":"Luxor","nameBn":"লাক্সর","type":"Governorate","bounds":[32.6249,25.6831,32.6694,25.7299],"center":[32.6501,25.705]},"geometry":{"type":"Polygon","coordinates":[[[32.6497,25.7299],[32.6694,25.7211],[32.6684,25.713],[32.6585,25.6991],[32.6514,25.6831],[32.6371,25.6845],[32.6249,25.6872],[32.6497,25.7299]]]}},{"type":"Feature","properties":{"id":"EGY-1540","name":"Matruh","nameBn":"মাত্রুহ গভর্নোরেট","type":"Governorate","bounds":[24.6883,27.6665,30.3286,31.6565],"center":[27.5083,29.6121]},"geometry":{"type":"Polygon","coordinates":[[[24.9812,28.0967],[24.9812,28.4915],[24.9812,28.8902],[24.9812,29.0579],[24.9812,29.1814],[24.9743,29.2389],[24.9566,29.2927],[24.8738,29.4683],[24.8638,29.5029],[24.8616,29.5416],[24.8706,29.614],[24.8707,29.6383],[24.8562,29.6795],[24.8049,29.7548],[24.7982,29.7964],[24.8149,29.8486],[24.8162,29.8684],[24.8116,29.8909],[24.7255,30.0784],[24.6973,30.1226],[24.6883,30.1442],[24.6887,30.1828],[24.7047,30.2179],[24.7461,30.2828],[24.7629,30.3171],[24.7724,30.331],[24.7994,30.3608],[24.8297,30.3876],[24.8881,30.4643],[24.9077,30.4987],[24.9171,30.5325],[24.9204,30.5523],[24.9507,30.6212],[24.9612,30.6763],[24.9736,30.7163],[24.9886,30.7506],[24.9949,30.7851],[24.9812,30.8254],[24.9376,30.9058],[24.9246,30.9568],[24.8896,31.0188],[24.8826,31.0391],[24.8595,31.146],[24.8586,31.2279],[24.8486,31.312],[24.849,31.3486],[24.8613,31.3804],[25.0237,31.4944],[25.0604,31.5794],[25.0884,31.6135],[25.1509,31.6565],[25.1494,31.6489],[25.1618,31.5836],[25.1729,31.5516],[25.1909,31.5315],[25.2126,31.5264],[25.2634,31.5237],[25.3021,31.5065],[25.3228,31.5064],[25.3685,31.5123],[25.3781,31.5097],[25.3897,31.5051],[25.4019,31.5032],[25.4202,31.5122],[25.4448,31.5176],[25.4739,31.5205],[25.6365,31.5607],[25.8241,31.6149],[25.8688,31.6209],[25.9668,31.6166],[26.3622,31.5219],[26.6506,31.4888],[26.6672,31.4809],[26.6831,31.4762],[26.7329,31.4792],[26.7532,31.4775],[26.8247,31.4478],[26.8657,31.4368],[26.9116,31.4365],[26.9479,31.4482],[26.9655,31.4497],[26.9826,31.4399],[26.9964,31.4287],[27.0065,31.425],[27.0158,31.4245],[27.027,31.4223],[27.0544,31.4086],[27.1174,31.3904],[27.1851,31.3843],[27.21,31.3781],[27.2262,31.3677],[27.2324,31.3723],[27.242,31.3773],[27.2461,31.3813],[27.258,31.38],[27.3206,31.381],[27.3275,31.3792],[27.3348,31.3751],[27.3423,31.3682],[27.342,31.3647],[27.3401,31.361],[27.3423,31.354],[27.3498,31.3413],[27.3543,31.3358],[27.3594,31.3335],[27.3623,31.3305],[27.3638,31.3155],[27.3665,31.3096],[27.3735,31.2984],[27.3835,31.2685],[27.3936,31.2547],[27.4175,31.2372],[27.4463,31.2232],[27.478,31.2139],[27.5405,31.2058],[27.5654,31.197],[27.5877,31.1931],[27.6099,31.2032],[27.6603,31.1802],[27.7195,31.1893],[27.8357,31.2379],[27.8529,31.2403],[27.8633,31.2335],[27.8685,31.2194],[27.8699,31.1998],[27.8727,31.1916],[27.8903,31.1554],[27.8943,31.1226],[27.8971,31.1144],[27.9269,31.099],[27.9751,31.0931],[28.1546,31.0933],[28.1663,31.0908],[28.1753,31.0849],[28.1833,31.0783],[28.1914,31.0734],[28.2039,31.0705],[28.2336,31.0734],[28.2564,31.0713],[28.2991,31.062],[28.3184,31.0598],[28.3386,31.0641],[28.3821,31.0828],[28.405,31.0865],[28.4243,31.0834],[28.4422,31.0764],[28.4578,31.0668],[28.4697,31.0561],[28.4785,31.0518],[28.5142,31.0523],[28.5276,31.0501],[28.5383,31.0465],[28.555,31.0387],[28.7327,30.9841],[28.7682,30.9667],[28.7878,30.9597],[28.812,30.9568],[28.818,30.9512],[28.825,30.9245],[28.8289,30.9152],[28.8357,30.9108],[28.8543,30.906],[29.0281,30.8271],[29.1892,30.8332],[29.2189,30.838],[29.3557,30.8951],[29.5033,30.9567],[29.5563,30.9909],[29.5981,31.0095],[29.5981,31.0088],[29.6249,30.3371],[29.6718,30.252],[30.3286,29.8982],[29.5506,29.4828],[28.901,28.9089],[28.6992,28.7751],[27.9062,28.5929],[27.8319,28.5665],[27.7846,28.5206],[27.7571,28.4836],[27.3248,27.6679],[25.0,27.6665],[24.9812,27.6665],[24.9812,28.0185],[24.9812,28.0967]]]}},{"type":"Feature","properties":{"id":"EGY-1551","name":"Qina","nameBn":"কেনা গভর্নোরেট","type":"Governorate","bounds":[31.9523,25.1457,32.9311,26.2625],"center":[32.4417,26.1216]},"geometry":{"type":"Polygon","coordinates":[[[32.1371,26.2368],[32.1492,26.2349],[32.1618,26.2235],[32.1913,26.1792],[32.2112,26.1588],[32.2327,26.1433],[32.2565,26.1317],[32.27,26.1312],[32.2805,26.1321],[32.3075,26.1582],[32.3384,26.1644],[32.5398,26.2517],[32.5916,26.2604],[32.6208,26.2625],[32.6844,26.2589],[32.7625,26.2383],[32.7818,26.2292],[32.8064,26.2135],[32.8409,26.1847],[32.8803,26.1368],[32.8944,26.114],[32.9049,26.0911],[32.9192,26.0445],[32.9299,25.9713],[32.9311,25.9355],[32.9294,25.9121],[32.9243,25.8851],[32.915,25.8585],[32.864,25.7628],[32.8452,25.7395],[32.8231,25.717],[32.7264,25.6382],[32.6606,25.5719],[32.6455,25.5521],[32.6349,25.5322],[32.623,25.499],[32.6211,25.4846],[32.623,25.4315],[32.6402,25.3566],[32.6514,25.3285],[32.6641,25.3072],[32.673,25.2968],[32.7048,25.2699],[32.6973,25.2466],[32.697,25.1935],[32.6937,25.1792],[32.6894,25.17],[32.6796,25.1633],[32.6713,25.159],[32.6539,25.1457],[32.5589,25.2117],[32.5381,25.2321],[32.5286,25.2448],[32.5193,25.2603],[32.5043,25.2964],[32.4776,25.4398],[32.4435,25.561],[32.4419,25.5763],[32.443,25.5971],[32.4456,25.6076],[32.4501,25.6178],[32.4647,25.6374],[32.4941,25.6648],[32.632,25.7632],[32.6511,25.7828],[32.6584,25.7926],[32.6644,25.8027],[32.6689,25.8131],[32.6756,25.8353],[32.6834,25.8823],[32.6871,25.8942],[32.6925,25.9057],[32.7346,25.9709],[32.7443,25.9909],[32.7481,26.0012],[32.7504,26.0147],[32.7504,26.0353],[32.7467,26.0555],[32.7423,26.066],[32.7358,26.0766],[32.7273,26.0865],[32.7175,26.0948],[32.7069,26.1016],[32.6961,26.1058],[32.6817,26.1082],[32.6646,26.1089],[32.6187,26.1041],[32.5916,26.0973],[32.3611,26.0001],[32.2726,25.9773],[32.2241,25.9701],[32.1958,25.9713],[32.1775,25.9746],[32.1629,25.9787],[32.1384,25.989],[32.1209,25.9984],[32.1108,26.0054],[31.9523,26.1399],[31.9916,26.1728],[32.0025,26.1792],[32.013,26.1841],[32.0703,26.1906],[32.0855,26.195],[32.0979,26.2021],[32.1209,26.2283],[32.1264,26.2327],[32.1371,26.2368]],[[32.6514,25.6831],[32.6585,25.6991],[32.6684,25.713],[32.6694,25.7211],[32.6497,25.7299],[32.6249,25.6872],[32.6371,25.6845],[32.6514,25.6831]]]}},{"type":"Feature","properties":{"id":"EGY-1558","name":"Shamal Sina'","nameBn":"নর্থ সিনাই গভর্নোরেট","type":"Governorate","bounds":[32.5995,29.4895,34.8867,31.3143],"center":[33.6723,30.5071]},"geometry":{"type":"MultiPolygon","coordinates":[[[[34.2484,31.2114],[34.2586,31.1841],[34.298,31.0788],[34.3295,30.9945],[34.3679,30.9074],[34.4188,30.7913],[34.4804,30.6512],[34.5022,30.5717],[34.5044,30.5303],[34.5104,30.5133],[34.5263,30.4946],[34.5362,30.4822],[34.536,30.4686],[34.5265,30.4387],[34.5247,30.4211],[34.5269,30.4096],[34.5338,30.4002],[34.5884,30.3588],[34.5995,30.3445],[34.6326,30.262],[34.6917,30.1145],[34.7304,30.0182],[34.7332,30.0126],[34.735,30.0067],[34.7356,30.0007],[34.7351,29.9946],[34.7414,29.9402],[34.7852,29.8357],[34.8244,29.7417],[34.8501,29.6388],[34.8482,29.5696],[34.8553,29.5457],[34.8781,29.5043],[34.8867,29.4901],[34.8855,29.4895],[34.4682,29.5465],[34.3433,29.5861],[34.2273,29.6404],[34.0244,29.7072],[33.7683,29.827],[33.1303,29.9252],[32.8548,29.9138],[32.8474,29.923],[32.8387,29.9366],[32.8299,29.9576],[32.8176,30.1611],[32.7987,30.254],[32.7457,30.3729],[32.654,30.5],[32.654,30.5002],[32.652,30.5041],[32.6484,30.5175],[32.6452,30.538],[32.643,30.6269],[32.6021,30.9737],[32.5995,31.0604],[32.5997,31.0615],[32.6016,31.061],[32.6455,31.0598],[32.6875,31.0644],[32.762,31.0812],[32.8508,31.1188],[32.868,31.1303],[32.9092,31.1482],[32.9204,31.1554],[32.9273,31.1554],[32.9273,31.1479],[32.8954,31.1374],[32.8396,31.1012],[32.8071,31.0933],[32.7525,31.0714],[32.6665,31.0523],[32.715,31.0523],[32.715,31.0456],[32.7007,31.0387],[32.7313,31.0388],[32.7428,31.0426],[32.7492,31.0523],[32.7554,31.0523],[32.7562,31.0465],[32.7595,31.0456],[32.7638,31.0463],[32.7695,31.0456],[32.8311,31.0797],[32.8828,31.0936],[32.8931,31.1008],[32.8993,31.1008],[32.9035,31.0954],[32.9177,31.0922],[32.9144,31.0873],[32.9067,31.0865],[32.9067,31.0797],[32.9172,31.0828],[32.9409,31.0933],[32.9409,31.1008],[32.9136,31.1008],[32.9136,31.1069],[32.9271,31.1118],[32.944,31.1079],[32.9595,31.0985],[32.9688,31.0865],[32.9712,31.0809],[32.9733,31.071],[32.9751,31.066],[32.9613,31.066],[32.9945,31.0556],[33.0099,31.0563],[33.0234,31.066],[33.0234,31.0734],[33.0139,31.0782],[33.0091,31.0797],[33.0091,31.0865],[33.0479,31.0951],[33.0575,31.1008],[33.0525,31.1083],[33.0547,31.1155],[33.0601,31.1239],[33.0643,31.1349],[33.0575,31.1349],[33.051,31.1281],[33.0303,31.1144],[33.0271,31.1107],[33.0238,31.1077],[33.0238,31.1046],[33.0303,31.1008],[33.0169,31.0981],[32.9942,31.0985],[32.9706,31.1015],[32.9544,31.1069],[32.9846,31.1095],[33.0018,31.1248],[33.0144,31.145],[33.0303,31.1622],[33.0423,31.1672],[33.0671,31.171],[33.0786,31.1758],[33.0978,31.1916],[33.1094,31.1964],[33.1265,31.1964],[33.1265,31.1895],[33.0986,31.1895],[33.0986,31.1833],[33.1111,31.1754],[33.147,31.1349],[33.1577,31.1179],[33.1536,31.1124],[33.141,31.1096],[33.1265,31.1008],[33.1253,31.1033],[33.1253,31.1059],[33.124,31.1076],[33.119,31.1069],[33.119,31.1008],[33.1358,31.0908],[33.1447,31.0779],[33.1443,31.0626],[33.1333,31.0456],[33.1691,31.058],[33.1877,31.0617],[33.2009,31.0598],[33.2077,31.061],[33.2124,31.061],[33.2214,31.0598],[33.2214,31.066],[33.2078,31.0734],[33.2009,31.0734],[33.2009,31.066],[33.1948,31.066],[33.1948,31.0734],[33.2479,31.0913],[33.2625,31.1008],[33.2698,31.1008],[33.2625,31.0933],[33.2698,31.0865],[33.2772,31.0921],[33.2854,31.0927],[33.2925,31.0884],[33.2966,31.0797],[33.304,31.0797],[33.3049,31.0881],[33.3045,31.0982],[33.3032,31.0998],[33.3176,31.1008],[33.3081,31.1051],[33.2982,31.1039],[33.2887,31.1049],[33.2772,31.1069],[33.3865,31.1144],[33.3777,31.1326],[33.3906,31.1362],[33.4064,31.1373],[33.4064,31.1554],[33.4172,31.1508],[33.4207,31.1479],[33.4275,31.1479],[33.4409,31.1512],[33.4808,31.1332],[33.4995,31.1281],[33.5725,31.1216],[33.5921,31.1144],[33.5921,31.1213],[33.6148,31.1154],[33.648,31.1173],[33.8543,31.1635],[34.047,31.2292],[34.1985,31.3133],[34.2003,31.3143],[34.2246,31.2757],[34.2304,31.2592],[34.2484,31.2114]]],[[[32.9785,31.0817],[32.9751,31.0865],[32.9697,31.0866],[32.9771,31.0913],[32.9831,31.0899],[32.987,31.0836],[32.9893,31.0734],[32.9785,31.0817]]],[[[33.376,31.1895],[33.406,31.1845],[33.433,31.1721],[33.4759,31.1417],[33.4544,31.1547],[33.2987,31.2128],[33.2698,31.2168],[33.3011,31.2159],[33.3526,31.1949],[33.376,31.1895]]],[[[33.0786,31.2271],[33.1047,31.2403],[33.2625,31.2236],[33.2561,31.2193],[33.2435,31.2193],[33.2126,31.2243],[33.1829,31.228],[33.1531,31.2318],[33.119,31.2236],[33.1026,31.2268],[33.0764,31.2187],[32.9559,31.1632],[32.9347,31.1479],[32.9465,31.1633],[32.9697,31.173],[32.9891,31.1821],[33.0015,31.1883],[33.0148,31.1967],[33.0669,31.2174],[33.0786,31.2271]]]]}},{"type":"Feature","properties":{"id":"EGY-1552","name":"Suhaj","nameBn":"সোহাগ গভর্নোরেট","type":"Governorate","bounds":[31.3,26.1312,32.3075,26.9401],"center":[31.8037,26.5104]},"geometry":{"type":"Polygon","coordinates":[[[32.27,26.1312],[32.2565,26.1317],[32.2327,26.1433],[32.2112,26.1588],[32.1913,26.1792],[32.1618,26.2235],[32.1492,26.2349],[32.1371,26.2368],[32.1264,26.2327],[32.1209,26.2283],[32.0979,26.2021],[32.0855,26.195],[32.0703,26.1906],[32.013,26.1841],[32.0025,26.1792],[31.9916,26.1728],[31.9523,26.1399],[31.534,26.6106],[31.4389,26.6835],[31.3,26.8374],[31.3931,26.8825],[31.4043,26.8905],[31.4137,26.8989],[31.4204,26.9071],[31.4271,26.9174],[31.437,26.9296],[31.4448,26.9364],[31.451,26.9398],[31.462,26.9401],[31.4747,26.9353],[31.4921,26.9205],[31.5002,26.9118],[31.5075,26.9005],[31.5233,26.8687],[31.5315,26.8566],[31.5413,26.8458],[31.5528,26.8372],[31.5675,26.8318],[31.579,26.8288],[31.619,26.8332],[31.7869,26.7284],[31.831,26.69],[31.8465,26.6567],[31.8698,26.6214],[31.8959,26.5892],[31.9064,26.5709],[31.9118,26.5553],[31.9169,26.5108],[31.9194,26.4994],[31.9347,26.4725],[31.9589,26.4391],[31.9745,26.421],[31.9885,26.4077],[32.0065,26.3964],[32.0327,26.3839],[32.0616,26.3739],[32.1271,26.3607],[32.1398,26.3562],[32.1553,26.3468],[32.1657,26.3356],[32.1747,26.3235],[32.2017,26.278],[32.3075,26.1582],[32.2805,26.1321],[32.27,26.1312]]]}}]}