{"type":"FeatureCollection","features":[{"type":"Feature","properties":{"id":"GMB-2153","name":"Banjul","nameBn":"বাঞ্জুল","type":"Independent City","bounds":[-16.7629,13.3346,-16.5853,13.4962],"center":[-16.6831,13.4063]},"geometry":{"type":"Polygon","coordinates":[[[-16.7629,13.405],[-16.7045,13.4754],[-16.6788,13.4962],[-16.6767,13.4859],[-16.6711,13.4787],[-16.6625,13.4731],[-16.6523,13.4682],[-16.6346,13.4774],[-16.6169,13.4782],[-16.6014,13.4722],[-16.5907,13.4614],[-16.5853,13.4433],[-16.5963,13.4403],[-16.6128,13.4392],[-16.6243,13.4272],[-16.6087,13.4137],[-16.5955,13.3851],[-16.6193,13.3661],[-16.6634,13.3346],[-16.7044,13.3378],[-16.7359,13.3693],[-16.7629,13.405]]]}},{"type":"Feature","properties":{"id":"GMB-2151","name":"Central River","nameBn":"সেন্ট্রাল রিভার ডিভিশন","type":"Division","bounds":[-15.498,13.3231,-14.4621,13.82],"center":[-14.9804,13.637]},"geometry":{"type":"Polygon","coordinates":[[[-15.0977,13.82],[-15.0763,13.819],[-15.0168,13.7969],[-14.9158,13.7924],[-14.8793,13.7806],[-14.8603,13.7656],[-14.844,13.7527],[-14.8313,13.7356],[-14.8224,13.7172],[-14.8029,13.6523],[-14.796,13.6447],[-14.7549,13.6204],[-14.7409,13.6154],[-14.7286,13.6193],[-14.6672,13.6529],[-14.6267,13.6635],[-14.5855,13.6605],[-14.5426,13.6408],[-14.5232,13.6257],[-14.5097,13.6091],[-14.5002,13.59],[-14.4869,13.5465],[-14.4804,13.5331],[-14.4703,13.5224],[-14.4621,13.5167],[-14.4622,13.5166],[-14.4775,13.507],[-14.4815,13.5029],[-14.4863,13.4967],[-14.4883,13.4893],[-14.4932,13.4759],[-14.4972,13.4694],[-14.5013,13.465],[-14.5188,13.4534],[-14.4945,13.4024],[-14.4886,13.3986],[-14.503,13.3906],[-14.507,13.3929],[-14.5116,13.3946],[-14.5187,13.3902],[-14.5256,13.3842],[-14.5477,13.3359],[-14.5521,13.3231],[-14.5807,13.3492],[-14.5922,13.3531],[-14.6246,13.3452],[-14.6616,13.3409],[-14.6981,13.3452],[-14.7316,13.359],[-14.7595,13.3834],[-14.7796,13.4109],[-14.7903,13.4173],[-14.8108,13.4212],[-14.8291,13.427],[-14.8626,13.4471],[-14.8776,13.4514],[-14.9159,13.4544],[-14.9497,13.4631],[-15.0151,13.4957],[-15.0152,13.4958],[-15.0154,13.496],[-15.0156,13.4961],[-15.0653,13.5313],[-15.1102,13.5725],[-15.1377,13.59],[-15.1605,13.581],[-15.1813,13.5598],[-15.1818,13.5602],[-15.1838,13.5617],[-15.1897,13.5627],[-15.1974,13.5609],[-15.2095,13.5521],[-15.2344,13.5409],[-15.2976,13.5048],[-15.3,13.4962],[-15.3019,13.4962],[-15.3608,13.538],[-15.3726,13.5661],[-15.3709,13.6123],[-15.3679,13.6264],[-15.3793,13.6326],[-15.4139,13.6345],[-15.4215,13.6338],[-15.439,13.6343],[-15.4841,13.6409],[-15.498,13.6415],[-15.4968,13.6483],[-15.4889,13.6703],[-15.4786,13.6913],[-15.4675,13.7083],[-15.4363,13.7412],[-15.3941,13.7715],[-15.3478,13.7886],[-15.3045,13.7819],[-15.2951,13.7732],[-15.2757,13.7481],[-15.2673,13.7418],[-15.246,13.7467],[-15.1706,13.7938],[-15.0977,13.82]]]}},{"type":"Feature","properties":{"id":"GMB-2154","name":"Lower River","nameBn":"লোয়ার রিভার ডিভিশন","type":"Division","bounds":[-16.2276,13.2485,-15.1813,13.5627],"center":[-15.7046,13.4062]},"geometry":{"type":"Polygon","coordinates":[[[-15.1813,13.5598],[-15.204,13.5369],[-15.218,13.5147],[-15.2217,13.4528],[-15.2278,13.4252],[-15.2483,13.399],[-15.2771,13.3803],[-15.3098,13.3684],[-15.3424,13.3626],[-15.3792,13.3625],[-15.4883,13.3853],[-15.5195,13.3866],[-15.5429,13.378],[-15.566,13.3657],[-15.5961,13.3558],[-15.6125,13.3542],[-15.6799,13.3607],[-15.6925,13.3603],[-15.7374,13.3463],[-15.8071,13.3398],[-15.8187,13.3335],[-15.8227,13.3194],[-15.8244,13.2485],[-15.8249,13.2486],[-15.9708,13.2794],[-15.9788,13.2798],[-16.0058,13.2732],[-16.0262,13.271],[-16.0335,13.2691],[-16.0405,13.2683],[-16.0466,13.2688],[-16.056,13.2722],[-16.0635,13.2729],[-16.0738,13.2684],[-16.0807,13.2571],[-16.0839,13.2536],[-16.0901,13.2534],[-16.0975,13.2564],[-16.1077,13.2657],[-16.1112,13.2729],[-16.1124,13.2793],[-16.114,13.2844],[-16.1182,13.2888],[-16.1373,13.2907],[-16.1513,13.2839],[-16.1623,13.2827],[-16.1725,13.2793],[-16.1818,13.2737],[-16.1898,13.2659],[-16.1993,13.2591],[-16.2035,13.265],[-16.2081,13.2924],[-16.2086,13.3035],[-16.2108,13.3133],[-16.217,13.3174],[-16.222,13.3198],[-16.2252,13.3258],[-16.2271,13.3337],[-16.2276,13.3419],[-16.2244,13.3603],[-16.2162,13.3727],[-16.1762,13.4054],[-16.1687,13.4133],[-16.1655,13.4238],[-16.1612,13.4287],[-16.1514,13.4269],[-16.1351,13.4205],[-15.9949,13.413],[-15.9413,13.4254],[-15.9222,13.4272],[-15.9113,13.4267],[-15.9056,13.4258],[-15.9006,13.4255],[-15.8912,13.4272],[-15.8838,13.4304],[-15.8784,13.4348],[-15.8744,13.4389],[-15.8713,13.4409],[-15.8495,13.4422],[-15.785,13.4348],[-15.7645,13.4369],[-15.7062,13.4546],[-15.6968,13.4599],[-15.678,13.473],[-15.6687,13.4757],[-15.6589,13.4724],[-15.6447,13.4579],[-15.6349,13.4546],[-15.6208,13.4548],[-15.6104,13.4564],[-15.6009,13.4604],[-15.5896,13.4682],[-15.5809,13.4782],[-15.5651,13.5025],[-15.5554,13.5092],[-15.5434,13.5097],[-15.531,13.5058],[-15.5196,13.4997],[-15.5107,13.4927],[-15.5004,13.4882],[-15.4897,13.4899],[-15.4794,13.494],[-15.47,13.4962],[-15.4511,13.4909],[-15.4389,13.4786],[-15.4294,13.4647],[-15.4189,13.4546],[-15.3844,13.4435],[-15.3406,13.4408],[-15.3048,13.4553],[-15.2947,13.4962],[-15.3,13.4962],[-15.2976,13.5048],[-15.2344,13.5409],[-15.2095,13.5521],[-15.1974,13.5609],[-15.1897,13.5627],[-15.1838,13.5617],[-15.1818,13.5602],[-15.1813,13.5598]]]}},{"type":"Feature","properties":{"id":"GMB-5513","name":"North Bank","nameBn":"নর্থ ব্যাঙ্ক ডিভিশন","type":"Division","bounds":[-16.5614,13.3369,-15.3019,13.6415],"center":[-15.9799,13.5236]},"geometry":{"type":"Polygon","coordinates":[[[-15.5182,13.5831],[-15.5025,13.5883],[-15.5005,13.628],[-15.498,13.6415],[-15.4841,13.6409],[-15.439,13.6343],[-15.4215,13.6338],[-15.4139,13.6345],[-15.3793,13.6326],[-15.3679,13.6264],[-15.3709,13.6123],[-15.3726,13.5661],[-15.3608,13.538],[-15.3019,13.4962],[-15.3022,13.4962],[-15.3041,13.4811],[-15.3114,13.4678],[-15.3218,13.4582],[-15.3329,13.4546],[-15.3517,13.4567],[-15.386,13.4661],[-15.4015,13.4682],[-15.4158,13.4732],[-15.4322,13.4848],[-15.4565,13.5061],[-15.4652,13.5102],[-15.4741,13.5085],[-15.4828,13.505],[-15.4908,13.503],[-15.4999,13.5051],[-15.5076,13.5098],[-15.5136,13.5146],[-15.5179,13.5167],[-15.5317,13.5198],[-15.543,13.5255],[-15.5561,13.5283],[-15.5758,13.5229],[-15.586,13.515],[-15.6007,13.4955],[-15.6107,13.4893],[-15.6278,13.4885],[-15.6547,13.501],[-15.6721,13.503],[-15.6902,13.499],[-15.7342,13.4757],[-15.7699,13.4651],[-16.0902,13.4405],[-16.1219,13.4516],[-16.1416,13.4546],[-16.1604,13.4506],[-16.1785,13.441],[-16.2065,13.4205],[-16.2484,13.379],[-16.258,13.372],[-16.2656,13.3687],[-16.273,13.3626],[-16.2806,13.3598],[-16.2891,13.3659],[-16.2897,13.3732],[-16.2867,13.3836],[-16.2849,13.3953],[-16.2891,13.4068],[-16.306,13.3917],[-16.3081,13.3834],[-16.3021,13.372],[-16.3121,13.3669],[-16.3164,13.3659],[-16.3164,13.359],[-16.3116,13.3576],[-16.307,13.3546],[-16.3021,13.3528],[-16.3219,13.3428],[-16.3559,13.338],[-16.3905,13.3369],[-16.412,13.3385],[-16.4895,13.3571],[-16.5218,13.359],[-16.5158,13.3679],[-16.5035,13.3926],[-16.5013,13.4031],[-16.5035,13.4169],[-16.5134,13.4368],[-16.5157,13.4443],[-16.5198,13.4513],[-16.5382,13.4648],[-16.5445,13.4759],[-16.5544,13.4818],[-16.5565,13.4856],[-16.5565,13.5061],[-16.548,13.5481],[-16.5491,13.5639],[-16.5548,13.5771],[-16.5614,13.5869],[-16.4988,13.5867],[-16.4366,13.5865],[-16.3746,13.5862],[-16.3125,13.586],[-16.2503,13.5857],[-16.1882,13.5855],[-16.1261,13.5853],[-16.0854,13.5852],[-16.0641,13.5851],[-16.0019,13.5849],[-15.9398,13.5846],[-15.8777,13.5844],[-15.8156,13.5842],[-15.7534,13.584],[-15.6914,13.5837],[-15.6292,13.5835],[-15.5671,13.5833],[-15.5182,13.5831]]]}},{"type":"Feature","properties":{"id":"GMB-2152","name":"Upper River","nameBn":"আপার রিভার ডিভিশন","type":"Division","bounds":[-14.5521,13.2286,-13.8187,13.5791],"center":[-14.1857,13.3797]},"geometry":{"type":"Polygon","coordinates":[[[-14.4621,13.5167],[-14.3896,13.4659],[-14.3656,13.4548],[-14.3473,13.4524],[-14.3299,13.4564],[-14.2712,13.477],[-14.2158,13.5108],[-14.1968,13.5188],[-14.1391,13.5316],[-14.0929,13.5547],[-14.0726,13.5597],[-14.0618,13.5601],[-14.0445,13.5586],[-14.034,13.5602],[-14.0223,13.5653],[-14.0019,13.577],[-13.9885,13.5791],[-13.9675,13.5756],[-13.9421,13.5669],[-13.9181,13.555],[-13.9013,13.5416],[-13.8962,13.5329],[-13.8898,13.514],[-13.8846,13.5055],[-13.8825,13.5038],[-13.8755,13.4979],[-13.8528,13.4848],[-13.8427,13.4766],[-13.8187,13.4294],[-13.8226,13.3782],[-13.851,13.3358],[-13.9006,13.3146],[-13.9761,13.3082],[-14.0163,13.2976],[-14.0566,13.2972],[-14.0995,13.282],[-14.1168,13.2822],[-14.1318,13.2756],[-14.1798,13.2401],[-14.2017,13.2296],[-14.2306,13.2286],[-14.2849,13.2385],[-14.3418,13.2336],[-14.3688,13.2357],[-14.395,13.243],[-14.4314,13.2614],[-14.442,13.2685],[-14.4515,13.2769],[-14.4591,13.2869],[-14.4703,13.2983],[-14.4836,13.3019],[-14.5151,13.3032],[-14.5296,13.3073],[-14.5429,13.3147],[-14.5521,13.3231],[-14.5477,13.3359],[-14.5256,13.3842],[-14.5187,13.3902],[-14.5116,13.3946],[-14.507,13.3929],[-14.503,13.3906],[-14.4886,13.3986],[-14.4945,13.4024],[-14.5188,13.4534],[-14.5013,13.465],[-14.4972,13.4694],[-14.4932,13.4759],[-14.4883,13.4893],[-14.4863,13.4967],[-14.4815,13.5029],[-14.4775,13.507],[-14.4622,13.5166],[-14.4621,13.5167]]]}},{"type":"Feature","properties":{"id":"GMB-5512","name":"West Coast","nameBn":"ওয়েস্ট কোস্ট জেলা","type":"Division","bounds":[-16.8297,13.065,-15.8244,13.405],"center":[-16.3138,13.2212]},"geometry":{"type":"Polygon","coordinates":[[[-15.8244,13.2485],[-15.8247,13.2329],[-15.8266,13.1617],[-15.8333,13.1568],[-15.8708,13.1572],[-15.8974,13.1574],[-15.9617,13.158],[-16.0921,13.1591],[-16.3133,13.1611],[-16.4652,13.1624],[-16.63,13.1639],[-16.6735,13.1643],[-16.7084,13.1567],[-16.7232,13.1322],[-16.7263,13.1226],[-16.7422,13.1074],[-16.7485,13.0992],[-16.7521,13.088],[-16.7537,13.065],[-16.7689,13.0778],[-16.7843,13.083],[-16.7867,13.0901],[-16.7825,13.0983],[-16.7755,13.1127],[-16.7773,13.1278],[-16.7967,13.1772],[-16.7975,13.1891],[-16.795,13.2359],[-16.7974,13.2489],[-16.803,13.2622],[-16.8201,13.2813],[-16.8245,13.2946],[-16.8166,13.3106],[-16.8203,13.3158],[-16.8297,13.3385],[-16.8207,13.3491],[-16.81,13.3799],[-16.7995,13.3863],[-16.7873,13.3891],[-16.7743,13.3962],[-16.7629,13.405],[-16.7359,13.3693],[-16.7044,13.3378],[-16.6634,13.3346],[-16.6193,13.3661],[-16.5955,13.3851],[-16.5884,13.3553],[-16.5907,13.3385],[-16.5539,13.2958],[-16.5458,13.2901],[-16.4952,13.2879],[-16.4808,13.2839],[-16.4678,13.2759],[-16.4599,13.2689],[-16.4497,13.2641],[-16.4294,13.2622],[-16.4197,13.2556],[-16.4139,13.24],[-16.4135,13.2221],[-16.4194,13.2082],[-16.3998,13.2243],[-16.3909,13.2248],[-16.3778,13.215],[-16.3837,13.2252],[-16.4019,13.2434],[-16.4058,13.246],[-16.4083,13.2587],[-16.4153,13.267],[-16.426,13.2707],[-16.4399,13.2696],[-16.4399,13.2764],[-16.4105,13.2759],[-16.3968,13.2779],[-16.3846,13.2839],[-16.3747,13.2639],[-16.3633,13.2683],[-16.3497,13.2822],[-16.3334,13.2901],[-16.3148,13.2956],[-16.2779,13.3195],[-16.258,13.3249],[-16.2301,13.3164],[-16.2259,13.2966],[-16.2302,13.2736],[-16.2276,13.256],[-16.2097,13.2512],[-16.1855,13.2583],[-16.1513,13.2764],[-16.1513,13.2839],[-16.1373,13.2907],[-16.1182,13.2888],[-16.114,13.2844],[-16.1124,13.2793],[-16.1112,13.2729],[-16.1077,13.2657],[-16.0975,13.2564],[-16.0901,13.2534],[-16.0839,13.2536],[-16.0807,13.2571],[-16.0738,13.2684],[-16.0635,13.2729],[-16.056,13.2722],[-16.0466,13.2688],[-16.0405,13.2683],[-16.0335,13.2691],[-16.0262,13.271],[-16.0058,13.2732],[-15.9788,13.2798],[-15.9708,13.2794],[-15.8249,13.2486],[-15.8244,13.2485]]]}}]}