{"type":"FeatureCollection","features":[{"type":"Feature","properties":{"id":"GNB-776","name":"Bafatá","nameBn":"বোফাতা অঞ্চল","type":"Region","bounds":[-15.0709,11.5976,-14.3431,12.6781],"center":[-14.707,12.1429]},"geometry":{"type":"Polygon","coordinates":[[[-14.8722,12.6781],[-14.7917,12.6778],[-14.4373,12.6763],[-14.3431,12.6759],[-14.3593,12.6431],[-14.3636,12.6291],[-14.368,12.6223],[-14.3728,12.6176],[-14.3781,12.6159],[-14.3835,12.6154],[-14.3882,12.6166],[-14.3916,12.6197],[-14.3972,12.6281],[-14.4046,12.6344],[-14.4083,12.6366],[-14.412,12.6348],[-14.4139,12.6277],[-14.4094,12.5709],[-14.4059,12.5577],[-14.4032,12.5534],[-14.3994,12.5503],[-14.3894,12.5466],[-14.3829,12.5401],[-14.3789,12.5387],[-14.3753,12.5383],[-14.3734,12.534],[-14.3745,12.5268],[-14.3798,12.5133],[-14.3838,12.5065],[-14.3873,12.5018],[-14.3893,12.5005],[-14.3911,12.5],[-14.394,12.4996],[-14.3987,12.5003],[-14.4006,12.5014],[-14.4037,12.5035],[-14.4104,12.5099],[-14.4145,12.5129],[-14.4191,12.5148],[-14.4248,12.5148],[-14.4296,12.513],[-14.4335,12.5099],[-14.445,12.4983],[-14.448,12.4962],[-14.4521,12.4948],[-14.4562,12.4952],[-14.4593,12.4971],[-14.461,12.4993],[-14.4645,12.508],[-14.4679,12.511],[-14.4728,12.5122],[-14.4839,12.5107],[-14.4894,12.5107],[-14.4939,12.5124],[-14.4967,12.5157],[-14.4995,12.5179],[-14.5017,12.5185],[-14.5099,12.5154],[-14.5147,12.5147],[-14.5186,12.5164],[-14.5198,12.5209],[-14.5187,12.5273],[-14.5189,12.5324],[-14.5235,12.5363],[-14.5284,12.5361],[-14.5327,12.5339],[-14.5351,12.5274],[-14.5358,12.5183],[-14.5325,12.5006],[-14.5295,12.4914],[-14.5257,12.4852],[-14.5213,12.4831],[-14.5156,12.483],[-14.5106,12.4844],[-14.5059,12.4863],[-14.4921,12.4942],[-14.4875,12.4957],[-14.4829,12.4954],[-14.4786,12.4934],[-14.4749,12.4903],[-14.4617,12.4754],[-14.4591,12.4709],[-14.4572,12.4659],[-14.4571,12.4597],[-14.4589,12.4539],[-14.4649,12.4485],[-14.4703,12.4468],[-14.4754,12.4444],[-14.4789,12.4414],[-14.4818,12.4376],[-14.4854,12.4354],[-14.4893,12.4356],[-14.4928,12.4383],[-14.4974,12.4465],[-14.4999,12.4491],[-14.5024,12.45],[-14.5061,12.4491],[-14.5084,12.4449],[-14.5086,12.4381],[-14.5039,12.4209],[-14.5015,12.4159],[-14.5008,12.4124],[-14.5012,12.4091],[-14.5048,12.4045],[-14.5094,12.4016],[-14.515,12.3996],[-14.521,12.3985],[-14.5268,12.3982],[-14.5322,12.3988],[-14.5399,12.4025],[-14.5438,12.4019],[-14.5476,12.3998],[-14.5512,12.3965],[-14.5545,12.3929],[-14.5573,12.389],[-14.5584,12.3851],[-14.5571,12.3818],[-14.5525,12.3802],[-14.5498,12.3774],[-14.5515,12.373],[-14.5539,12.3697],[-14.5557,12.3678],[-14.5565,12.3664],[-14.5564,12.3641],[-14.5548,12.362],[-14.5382,12.359],[-14.5337,12.3566],[-14.5302,12.3531],[-14.5245,12.3449],[-14.5211,12.3412],[-14.5171,12.3383],[-14.5123,12.3361],[-14.4953,12.3313],[-14.491,12.3296],[-14.4824,12.3245],[-14.4751,12.3178],[-14.4722,12.3139],[-14.4706,12.308],[-14.4706,12.3012],[-14.4739,12.2895],[-14.4768,12.283],[-14.4824,12.2733],[-14.4837,12.267],[-14.4834,12.259],[-14.4676,12.2068],[-14.4661,12.2038],[-14.464,12.2009],[-14.461,12.1977],[-14.4569,12.195],[-14.4523,12.1926],[-14.442,12.1891],[-14.4377,12.1866],[-14.4346,12.1828],[-14.4336,12.1747],[-14.4358,12.163],[-14.4441,12.1412],[-14.4507,12.1336],[-14.4568,12.1305],[-14.4619,12.1311],[-14.4669,12.1301],[-14.4711,12.1279],[-14.482,12.119],[-14.4863,12.1167],[-14.491,12.1155],[-14.4958,12.1156],[-14.5082,12.118],[-14.5138,12.1179],[-14.5192,12.1167],[-14.5237,12.113],[-14.5269,12.107],[-14.5287,12.0956],[-14.5287,12.087],[-14.5253,12.0773],[-14.5214,12.0721],[-14.5171,12.0685],[-14.5088,12.0638],[-14.4939,12.0572],[-14.4899,12.0548],[-14.4872,12.047],[-14.4875,12.0338],[-14.4922,12.006],[-14.496,11.9939],[-14.4994,11.9867],[-14.5015,11.9846],[-14.5034,11.9801],[-14.5036,11.9742],[-14.5006,11.9645],[-14.4977,11.9596],[-14.4939,11.9556],[-14.4735,11.9409],[-14.4701,11.9375],[-14.4684,11.9316],[-14.469,11.9237],[-14.481,11.8898],[-14.4825,11.8811],[-14.4832,11.8695],[-14.4812,11.824],[-14.4755,11.7872],[-14.4758,11.7684],[-14.4741,11.7619],[-14.4713,11.7568],[-14.4639,11.7503],[-14.4606,11.7467],[-14.4597,11.7416],[-14.4612,11.7356],[-14.4686,11.7274],[-14.4744,11.7231],[-14.4905,11.716],[-14.4946,11.7134],[-14.498,11.7107],[-14.5018,11.6973],[-14.5071,11.6416],[-14.5298,11.643],[-14.5756,11.6383],[-14.5981,11.6334],[-14.6263,11.6214],[-14.6354,11.6204],[-14.642,11.623],[-14.6532,11.6321],[-14.6567,11.6342],[-14.6733,11.6352],[-14.6833,11.6317],[-14.71,11.6051],[-14.7339,11.5976],[-14.7615,11.609],[-14.7866,11.6302],[-14.803,11.6527],[-14.8078,11.6692],[-14.8079,11.6806],[-14.8122,11.6896],[-14.8298,11.6986],[-14.8614,11.6954],[-14.8629,11.7007],[-14.8376,11.7299],[-14.834,11.7379],[-14.838,11.742],[-14.8634,11.7533],[-14.8675,11.7537],[-14.8721,11.752],[-14.8776,11.7487],[-14.8805,11.7524],[-14.8841,11.761],[-14.8896,11.7699],[-14.8912,11.7776],[-14.8947,11.7847],[-14.9038,11.7888],[-14.9144,11.788],[-14.9211,11.7826],[-14.9252,11.7696],[-14.9254,11.7694],[-14.9514,11.7606],[-14.9695,11.7764],[-14.9833,11.799],[-14.9968,11.8104],[-15.0264,11.8139],[-15.0353,11.8166],[-15.0467,11.8235],[-15.0525,11.8305],[-15.0574,11.8383],[-15.0657,11.8479],[-15.0702,11.8607],[-15.0612,11.8727],[-15.0486,11.8843],[-15.0421,11.8961],[-15.0238,11.9449],[-15.0231,11.9511],[-15.0187,11.9538],[-15.0039,11.9544],[-14.9938,11.9572],[-14.9938,11.9576],[-14.9936,11.9575],[-14.9908,11.9568],[-14.9794,11.9562],[-14.9687,11.9585],[-14.9633,11.9604],[-14.9586,11.9626],[-14.9547,11.965],[-14.9515,11.9672],[-14.95,11.9687],[-14.9493,11.9717],[-14.9497,11.9753],[-14.9521,11.9818],[-14.9589,11.996],[-14.9603,12.0007],[-14.9606,12.0031],[-14.9603,12.0095],[-14.9585,12.0164],[-14.9548,12.0253],[-14.9532,12.0306],[-14.9562,12.0352],[-14.9969,12.058],[-15.0021,12.0621],[-15.0104,12.066],[-15.0216,12.0686],[-15.0262,12.0712],[-15.0294,12.0749],[-15.0311,12.08],[-15.0348,12.1046],[-15.0391,12.1144],[-15.0703,12.1673],[-15.0709,12.1735],[-15.0691,12.1808],[-15.0616,12.1924],[-15.0519,12.2035],[-15.0482,12.2069],[-15.0441,12.2098],[-15.0399,12.2116],[-15.0348,12.2113],[-15.0297,12.2099],[-15.0242,12.2092],[-15.0187,12.2099],[-15.0137,12.2116],[-15.0084,12.2129],[-15.0035,12.2129],[-14.9999,12.2122],[-14.9964,12.211],[-14.9701,12.1969],[-14.9649,12.1955],[-14.959,12.1945],[-14.9398,12.1935],[-14.9288,12.1916],[-14.9246,12.1945],[-14.9227,12.2027],[-14.9221,12.2488],[-14.9193,12.2682],[-14.9213,12.2818],[-14.9241,12.2898],[-14.9282,12.2941],[-14.9473,12.3097],[-14.9504,12.3135],[-14.9528,12.3178],[-14.9546,12.3231],[-14.9556,12.3293],[-14.9594,12.4275],[-14.9578,12.4327],[-14.9527,12.435],[-14.9045,12.4446],[-14.8886,12.4502],[-14.8843,12.4529],[-14.8723,12.4622],[-14.8675,12.4646],[-14.8624,12.4664],[-14.8577,12.4687],[-14.8537,12.4716],[-14.8508,12.4757],[-14.8497,12.4811],[-14.8531,12.4896],[-14.856,12.495],[-14.8584,12.4988],[-14.8608,12.5018],[-14.8742,12.5146],[-14.8993,12.5313],[-14.9028,12.5345],[-14.9047,12.5404],[-14.9045,12.5488],[-14.8984,12.5643],[-14.894,12.5726],[-14.8843,12.5867],[-14.8798,12.5966],[-14.8639,12.6227],[-14.8614,12.6278],[-14.8594,12.6348],[-14.8592,12.6463],[-14.8609,12.658],[-14.8722,12.6781]]]}},{"type":"Feature","properties":{"id":"GNB-5500","name":"Biombo","nameBn":"বায়োম্বু অঞ্চল","type":"Region","bounds":[-16.1655,11.7348,-15.6241,12.0315],"center":[-15.7839,11.8108]},"geometry":{"type":"MultiPolygon","coordinates":[[[[-15.6768,11.8048],[-15.6796,11.8036],[-15.7443,11.7919],[-15.754,11.7862],[-15.7636,11.7777],[-15.8113,11.7532],[-15.8304,11.7484],[-15.8099,11.8295],[-15.7915,11.8632],[-15.7672,11.8647],[-15.7616,11.861],[-15.754,11.8586],[-15.7448,11.8576],[-15.7342,11.8581],[-15.7342,11.865],[-15.753,11.8661],[-15.7764,11.8857],[-15.7956,11.8854],[-15.8116,11.8737],[-15.8158,11.8565],[-15.8178,11.8376],[-15.8502,11.7753],[-15.8605,11.7694],[-15.88,11.7744],[-15.8841,11.7871],[-15.8776,11.824],[-15.8943,11.8162],[-15.8983,11.8],[-15.8988,11.7802],[-15.9055,11.7619],[-15.9116,11.7587],[-15.9337,11.7509],[-15.943,11.7449],[-15.9531,11.7363],[-15.959,11.7348],[-15.963,11.7393],[-15.9669,11.7484],[-15.9696,11.7683],[-15.9638,11.7883],[-15.9464,11.824],[-15.932,11.8796],[-15.9259,11.893],[-15.9219,11.8969],[-15.9156,11.9012],[-15.9084,11.9045],[-15.9017,11.906],[-15.8978,11.9096],[-15.8912,11.9339],[-15.8653,11.9722],[-15.8571,11.9811],[-15.8429,11.9894],[-15.8218,11.9979],[-15.7995,12.0034],[-15.782,12.0028],[-15.7766,11.997],[-15.7728,11.9875],[-15.7676,11.9787],[-15.7578,11.9748],[-15.7379,11.9737],[-15.7292,11.9714],[-15.7205,11.9674],[-15.7174,11.9816],[-15.7101,11.996],[-15.7063,12.0083],[-15.7068,12.0091],[-15.7058,12.0101],[-15.6658,12.0315],[-15.6336,11.9924],[-15.6304,11.9866],[-15.6241,11.9659],[-15.6715,11.8811],[-15.6775,11.8475],[-15.6783,11.8304],[-15.6768,11.8048]]],[[[-16.1655,11.8712],[-16.1481,11.8773],[-16.1287,11.8766],[-16.0933,11.8712],[-16.0799,11.8732],[-16.0651,11.8784],[-16.0352,11.893],[-16.0391,11.897],[-16.0389,11.8977],[-16.037,11.8992],[-16.0226,11.8996],[-16.0094,11.9003],[-15.9949,11.8991],[-15.9875,11.8904],[-15.9856,11.8874],[-15.9891,11.8615],[-15.9969,11.8493],[-16.0069,11.838],[-16.0147,11.824],[-16.0235,11.7852],[-16.0294,11.7692],[-16.0414,11.7551],[-16.0517,11.7622],[-16.0634,11.7607],[-16.0746,11.7564],[-16.0836,11.7551],[-16.0963,11.7629],[-16.1212,11.7998],[-16.1328,11.8055],[-16.145,11.8055],[-16.1548,11.8078],[-16.1588,11.8203],[-16.1592,11.8481],[-16.1611,11.8612],[-16.1655,11.8712]]]]}},{"type":"Feature","properties":{"id":"GNB-769","name":"Bissau","nameBn":"বিসাউ","type":"Autonomous Sector","bounds":[-15.6783,11.8048,-15.5456,11.9659],"center":[-15.6119,11.8919]},"geometry":{"type":"Polygon","coordinates":[[[-15.5456,11.8981],[-15.5492,11.8966],[-15.5554,11.893],[-15.5849,11.8513],[-15.5933,11.8445],[-15.6133,11.839],[-15.6577,11.8127],[-15.6768,11.8048],[-15.6783,11.8304],[-15.6775,11.8475],[-15.6715,11.8811],[-15.6241,11.9659],[-15.6124,11.9448],[-15.6086,11.9412],[-15.6031,11.9369],[-15.5908,11.9331],[-15.5827,11.9294],[-15.5695,11.9137],[-15.564,11.9088],[-15.5456,11.8981]]]}},{"type":"Feature","properties":{"id":"GNB-770","name":"Bolama","nameBn":"বুলামা অঞ্চল","type":"Region","bounds":[-16.4263,11.029,-15.3363,11.6927],"center":[-15.962,11.5187]},"geometry":{"type":"MultiPolygon","coordinates":[[[[-15.3414,11.6828],[-15.35,11.6801],[-15.3431,11.6664],[-15.3568,11.6664],[-15.3529,11.6401],[-15.3481,11.6288],[-15.3363,11.6186],[-15.3431,11.6049],[-15.3581,11.6155],[-15.3716,11.6297],[-15.3916,11.6596],[-15.3947,11.6419],[-15.3877,11.6253],[-15.3776,11.6088],[-15.3711,11.5913],[-15.3758,11.5934],[-15.3916,11.5981],[-15.3961,11.5846],[-15.4045,11.5845],[-15.4116,11.5946],[-15.412,11.6118],[-15.4189,11.6118],[-15.4231,11.6026],[-15.4259,11.5924],[-15.4271,11.5815],[-15.4263,11.5702],[-15.4352,11.5745],[-15.4387,11.577],[-15.4387,11.5571],[-15.4491,11.5638],[-15.453,11.5727],[-15.4558,11.5833],[-15.4632,11.5947],[-15.4689,11.6058],[-15.4646,11.6136],[-15.453,11.6217],[-15.4481,11.6369],[-15.4379,11.6523],[-15.4285,11.6705],[-15.4276,11.6804],[-15.4273,11.6805],[-15.4245,11.6831],[-15.3905,11.6912],[-15.3766,11.6927],[-15.3712,11.6923],[-15.3528,11.6889],[-15.3417,11.6846],[-15.3414,11.6828]]],[[[-15.9464,11.2003],[-15.927,11.1859],[-15.9117,11.1663],[-15.9016,11.1423],[-15.8948,11.0989],[-15.8878,11.0893],[-15.8808,11.0822],[-15.8776,11.0736],[-15.8827,11.0606],[-15.8946,11.0543],[-15.9083,11.0534],[-15.9184,11.0562],[-15.9264,11.0514],[-15.9369,11.0519],[-15.9632,11.0562],[-15.9656,11.0539],[-15.9718,11.0498],[-15.9782,11.0481],[-15.9812,11.0529],[-15.9814,11.0609],[-15.981,11.0662],[-15.9779,11.069],[-15.9703,11.0699],[-15.9599,11.0726],[-15.9319,11.0855],[-15.9259,11.0904],[-15.9305,11.1016],[-15.9418,11.1054],[-15.9519,11.0999],[-15.9533,11.0836],[-15.9606,11.0903],[-15.9669,11.0978],[-15.9581,11.1127],[-15.9535,11.1245],[-15.9524,11.1364],[-15.9533,11.1518],[-15.9586,11.1743],[-15.9571,11.1872],[-15.9464,11.2003]]],[[[-15.9738,11.1592],[-15.9717,11.1299],[-15.9745,11.1162],[-15.9843,11.1013],[-16.0055,11.0758],[-16.0171,11.0687],[-16.0221,11.0805],[-16.0255,11.0963],[-16.0314,11.1086],[-16.0325,11.1215],[-16.0221,11.1388],[-16.045,11.1387],[-16.0561,11.1486],[-16.057,11.1636],[-16.0489,11.1791],[-16.0345,11.1905],[-15.9812,11.2071],[-15.9771,11.1988],[-15.9749,11.1854],[-15.9738,11.1592]]],[[[-16.0489,11.1183],[-16.0631,11.1183],[-16.0631,11.1108],[-16.0533,11.0915],[-16.0573,11.0733],[-16.0622,11.0584],[-16.0557,11.0495],[-16.0762,11.0361],[-16.0939,11.0353],[-16.1116,11.0366],[-16.132,11.029],[-16.1354,11.0377],[-16.1366,11.0458],[-16.1355,11.0542],[-16.132,11.0637],[-16.1383,11.0637],[-16.1513,11.0425],[-16.145,11.029],[-16.1576,11.0327],[-16.1609,11.0355],[-16.1655,11.0425],[-16.1885,11.0396],[-16.2131,11.0556],[-16.2347,11.0806],[-16.248,11.1047],[-16.235,11.1179],[-16.2186,11.1296],[-16.2017,11.1356],[-16.1867,11.132],[-16.2003,11.1263],[-16.2065,11.1251],[-16.2056,11.1208],[-16.2046,11.1176],[-16.2028,11.1147],[-16.1997,11.1108],[-16.1908,11.1196],[-16.1794,11.1247],[-16.1697,11.1323],[-16.1619,11.1662],[-16.1534,11.1722],[-16.1443,11.1758],[-16.1383,11.1866],[-16.1332,11.1814],[-16.1177,11.1729],[-16.1151,11.1975],[-16.1,11.2082],[-16.08,11.2062],[-16.0631,11.1928],[-16.0566,11.1852],[-16.0596,11.1795],[-16.0658,11.1729],[-16.0694,11.1627],[-16.0677,11.1479],[-16.0633,11.1386],[-16.0489,11.1183]]],[[[-15.8571,11.3027],[-15.8312,11.303],[-15.8258,11.2927],[-15.8365,11.2555],[-15.8376,11.214],[-15.8465,11.201],[-15.8713,11.2003],[-15.8961,11.2182],[-15.8965,11.2487],[-15.8808,11.2806],[-15.8571,11.3027]]],[[[-15.6584,11.3027],[-15.6615,11.2846],[-15.6565,11.2517],[-15.6584,11.2338],[-15.6634,11.2299],[-15.6695,11.2412],[-15.6788,11.2541],[-15.6932,11.2555],[-15.6932,11.248],[-15.6857,11.248],[-15.6857,11.2412],[-15.6933,11.2277],[-15.6986,11.2209],[-15.7062,11.2145],[-15.7118,11.2224],[-15.7145,11.2249],[-15.7268,11.2208],[-15.7213,11.2102],[-15.7203,11.1956],[-15.7225,11.18],[-15.7268,11.1661],[-15.7288,11.1704],[-15.732,11.1751],[-15.7342,11.1791],[-15.7402,11.1786],[-15.7425,11.1779],[-15.7442,11.1779],[-15.7479,11.1791],[-15.754,11.1791],[-15.7638,11.1679],[-15.7733,11.1731],[-15.78,11.1866],[-15.782,11.2003],[-15.775,11.2067],[-15.7635,11.2145],[-15.7595,11.2219],[-15.7751,11.2275],[-15.7751,11.2338],[-15.754,11.2555],[-15.7531,11.2598],[-15.755,11.2717],[-15.754,11.2759],[-15.7493,11.2771],[-15.7425,11.2759],[-15.7367,11.2755],[-15.7342,11.279],[-15.7235,11.299],[-15.6995,11.3058],[-15.6739,11.305],[-15.6584,11.3027]]],[[[-16.173,11.2208],[-16.2385,11.2153],[-16.2515,11.2177],[-16.2782,11.2304],[-16.2828,11.2307],[-16.2816,11.2426],[-16.2779,11.2524],[-16.2711,11.2592],[-16.2611,11.2617],[-16.2625,11.2786],[-16.2487,11.2944],[-16.2293,11.3041],[-16.214,11.3027],[-16.2065,11.3101],[-16.1975,11.2984],[-16.1862,11.2973],[-16.1732,11.2991],[-16.1588,11.2965],[-16.1544,11.2892],[-16.1515,11.2762],[-16.1504,11.2631],[-16.1513,11.2555],[-16.1631,11.2507],[-16.1728,11.2446],[-16.1773,11.2352],[-16.173,11.2208]]],[[[-15.6653,11.4945],[-15.6632,11.4922],[-15.6614,11.4894],[-15.658,11.4877],[-15.6516,11.4882],[-15.6523,11.4835],[-15.6534,11.4805],[-15.6584,11.4739],[-15.6527,11.4661],[-15.6576,11.458],[-15.6796,11.4404],[-15.6844,11.4498],[-15.6857,11.4535],[-15.6932,11.4535],[-15.7047,11.4427],[-15.7209,11.4427],[-15.7351,11.4499],[-15.7404,11.4604],[-15.7355,11.4694],[-15.7273,11.4704],[-15.7189,11.4682],[-15.7137,11.4678],[-15.7062,11.4752],[-15.7005,11.4834],[-15.6963,11.4923],[-15.6932,11.5019],[-15.6857,11.4945],[-15.6805,11.4987],[-15.6653,11.5087],[-15.6603,11.5047],[-15.6601,11.5019],[-15.6653,11.4945]]],[[[-16.2549,11.4473],[-16.2759,11.447],[-16.2878,11.4487],[-16.3021,11.4535],[-16.29,11.4616],[-16.2718,11.4709],[-16.2554,11.4827],[-16.248,11.4982],[-16.2367,11.508],[-16.211,11.5154],[-16.1831,11.5185],[-16.1655,11.5156],[-16.1606,11.5056],[-16.1642,11.4961],[-16.1938,11.465],[-16.1997,11.4604],[-16.2031,11.456],[-16.2056,11.4503],[-16.2086,11.4446],[-16.214,11.4404],[-16.2225,11.4401],[-16.2549,11.4473]]],[[[-16.2755,11.4955],[-16.2817,11.4931],[-16.292,11.4931],[-16.3021,11.4882],[-16.3067,11.4866],[-16.31,11.4827],[-16.3138,11.4805],[-16.3198,11.4845],[-16.3328,11.4992],[-16.3368,11.5019],[-16.3391,11.5013],[-16.3915,11.5019],[-16.4005,11.494],[-16.4085,11.4892],[-16.4194,11.4882],[-16.4163,11.4951],[-16.412,11.5019],[-16.4183,11.5144],[-16.417,11.5172],[-16.412,11.5224],[-16.4219,11.528],[-16.4263,11.5292],[-16.3892,11.5477],[-16.3479,11.5485],[-16.31,11.5535],[-16.2828,11.5838],[-16.2781,11.5824],[-16.2773,11.5819],[-16.2773,11.5806],[-16.2754,11.577],[-16.2679,11.5769],[-16.2605,11.5779],[-16.2538,11.5802],[-16.248,11.5838],[-16.2444,11.5809],[-16.2426,11.5778],[-16.2413,11.5702],[-16.2445,11.5522],[-16.2522,11.5373],[-16.2686,11.5156],[-16.2726,11.5068],[-16.2735,11.5009],[-16.2755,11.4955]]],[[[-16.0221,11.5122],[-16.0191,11.5288],[-16.0114,11.5503],[-16.0013,11.569],[-15.9911,11.577],[-15.9749,11.5834],[-15.9523,11.6068],[-15.9396,11.6049],[-15.9384,11.5891],[-15.9309,11.5787],[-15.9224,11.578],[-15.9184,11.5913],[-15.9061,11.5784],[-15.9093,11.5517],[-15.898,11.5429],[-15.9104,11.5227],[-15.9134,11.4984],[-15.9088,11.4739],[-15.898,11.4535],[-15.9178,11.4466],[-15.9437,11.4321],[-15.9657,11.4267],[-15.9738,11.4473],[-15.9812,11.4473],[-15.9825,11.4426],[-15.9855,11.4376],[-15.9874,11.433],[-15.9906,11.4367],[-15.9979,11.4435],[-16.0011,11.4473],[-16.0069,11.4363],[-16.0159,11.4283],[-16.0259,11.4229],[-16.0352,11.42],[-16.0448,11.4331],[-16.0792,11.457],[-16.0836,11.4678],[-16.0489,11.4882],[-16.0263,11.5123],[-16.0221,11.5122]]],[[[-15.4735,11.6323],[-15.4739,11.6186],[-15.4849,11.6071],[-15.4878,11.5947],[-15.482,11.5836],[-15.4726,11.5734],[-15.4717,11.5661],[-15.4908,11.5634],[-15.5034,11.5652],[-15.5121,11.5715],[-15.5213,11.5702],[-15.5228,11.5674],[-15.5423,11.5497],[-15.5474,11.5485],[-15.5697,11.5497],[-15.5697,11.5429],[-15.5484,11.5351],[-15.5522,11.5195],[-15.5663,11.5105],[-15.5758,11.5224],[-15.5871,11.5194],[-15.6007,11.5207],[-15.612,11.5239],[-15.6169,11.5258],[-15.6217,11.5224],[-15.6303,11.529],[-15.633,11.5382],[-15.6206,11.5429],[-15.6074,11.5501],[-15.5983,11.5652],[-15.5857,11.5775],[-15.5622,11.577],[-15.5603,11.5922],[-15.5503,11.6032],[-15.5379,11.613],[-15.5287,11.6248],[-15.5118,11.6204],[-15.4967,11.6249],[-15.4839,11.6311],[-15.4735,11.6323]]]]}},{"type":"Feature","properties":{"id":"GNB-771","name":"Cacheu","nameBn":"কাচেউ অঞ্চল","type":"Region","bounds":[-16.7284,11.8854,-15.3973,12.5571],"center":[-16.0628,12.19]},"geometry":{"type":"Polygon","coordinates":[[[-15.7115,12.4322],[-15.677,12.4393],[-15.4246,12.555],[-15.4217,12.5571],[-15.4194,12.5514],[-15.4008,12.4902],[-15.3973,12.4674],[-15.3981,12.4539],[-15.4003,12.4396],[-15.4062,12.4174],[-15.411,12.4113],[-15.4161,12.4073],[-15.4211,12.405],[-15.4545,12.3822],[-15.4603,12.3799],[-15.4658,12.38],[-15.4698,12.3827],[-15.4728,12.3866],[-15.4781,12.4028],[-15.4822,12.4056],[-15.4878,12.4063],[-15.4936,12.406],[-15.4984,12.4047],[-15.5015,12.4043],[-15.5062,12.4041],[-15.5109,12.4053],[-15.5187,12.4041],[-15.5286,12.4005],[-15.547,12.3876],[-15.5572,12.3827],[-15.5765,12.3757],[-15.6145,12.352],[-15.6198,12.3457],[-15.6253,12.3365],[-15.6302,12.332],[-15.65,12.3223],[-15.6557,12.3212],[-15.6745,12.3223],[-15.6818,12.3212],[-15.6908,12.3175],[-15.6938,12.3129],[-15.6937,12.3079],[-15.6924,12.303],[-15.6933,12.2966],[-15.6974,12.2935],[-15.703,12.2917],[-15.7093,12.2911],[-15.7144,12.2911],[-15.7178,12.2935],[-15.7197,12.3031],[-15.7226,12.3078],[-15.7279,12.3047],[-15.7341,12.2979],[-15.7455,12.2829],[-15.7463,12.2764],[-15.7443,12.2717],[-15.7422,12.268],[-15.7433,12.2617],[-15.7512,12.2551],[-15.7528,12.2508],[-15.7527,12.2464],[-15.7506,12.2423],[-15.7478,12.2381],[-15.7341,12.223],[-15.7111,12.2039],[-15.7013,12.1931],[-15.6975,12.19],[-15.6932,12.1872],[-15.6884,12.1847],[-15.6615,12.1763],[-15.6572,12.1734],[-15.6538,12.1696],[-15.6514,12.1654],[-15.6507,12.1576],[-15.6519,12.147],[-15.6639,12.106],[-15.6639,12.0999],[-15.6626,12.0945],[-15.6617,12.0876],[-15.6619,12.0794],[-15.6697,12.0502],[-15.6696,12.0439],[-15.6686,12.0393],[-15.6658,12.0315],[-15.7058,12.0101],[-15.7068,12.0091],[-15.7063,12.0083],[-15.7137,12.0158],[-15.7195,12.012],[-15.7289,12.0028],[-15.7428,11.9949],[-15.7615,11.9953],[-15.7674,11.9993],[-15.7742,12.0109],[-15.782,12.0158],[-15.7908,12.0184],[-15.7949,12.0181],[-15.7992,12.0167],[-15.8371,12.0139],[-15.85,12.0175],[-15.8571,12.0295],[-15.8639,12.0295],[-15.871,12.013],[-15.8896,12.0026],[-15.9125,11.9971],[-15.9328,11.9953],[-15.9303,11.9882],[-15.9288,11.9852],[-15.9259,11.9811],[-15.9294,11.9802],[-15.9317,11.9803],[-15.933,11.9792],[-15.9328,11.9748],[-15.9408,11.9792],[-15.9464,11.9836],[-15.9462,11.979],[-15.9429,11.9655],[-15.9447,11.9531],[-15.9533,11.9401],[-15.9679,11.927],[-15.9816,11.9213],[-16.0557,11.9202],[-16.0653,11.917],[-16.0853,11.9079],[-16.0933,11.906],[-16.0985,11.9027],[-16.1049,11.8953],[-16.1133,11.8883],[-16.1246,11.8854],[-16.1343,11.8889],[-16.1431,11.8961],[-16.1588,11.9134],[-16.1832,11.9079],[-16.2152,11.9138],[-16.243,11.9254],[-16.2549,11.937],[-16.2754,11.9811],[-16.285,11.9866],[-16.3118,11.9906],[-16.3232,11.9953],[-16.3318,12.0046],[-16.338,12.017],[-16.3418,12.0312],[-16.3453,12.0618],[-16.3551,12.0873],[-16.3573,12.1011],[-16.3301,12.1592],[-16.3196,12.1717],[-16.308,12.1812],[-16.2957,12.1884],[-16.2828,12.194],[-16.2823,12.1821],[-16.2775,12.1733],[-16.2699,12.1713],[-16.2611,12.1803],[-16.2602,12.1886],[-16.269,12.2034],[-16.2686,12.2144],[-16.2574,12.2302],[-16.2403,12.2405],[-16.2218,12.2482],[-16.1484,12.2907],[-16.132,12.3039],[-16.1243,12.3132],[-16.113,12.3302],[-16.1041,12.338],[-16.0951,12.3419],[-16.0731,12.3472],[-16.0631,12.351],[-16.0898,12.352],[-16.1075,12.3447],[-16.1212,12.3312],[-16.1351,12.3138],[-16.1554,12.3],[-16.2068,12.2895],[-16.2276,12.2827],[-16.2621,12.2609],[-16.272,12.2523],[-16.3058,12.2144],[-16.3246,12.2222],[-16.3231,12.2407],[-16.3157,12.2632],[-16.3164,12.2827],[-16.3215,12.2679],[-16.3343,12.2481],[-16.3404,12.2117],[-16.3502,12.1972],[-16.3653,12.1923],[-16.3846,12.2008],[-16.3915,12.194],[-16.3944,12.1983],[-16.4058,12.2077],[-16.4078,12.1944],[-16.4157,12.1885],[-16.4281,12.187],[-16.4433,12.1872],[-16.4457,12.1834],[-16.4516,12.1763],[-16.4576,12.1719],[-16.4604,12.1766],[-16.4621,12.1806],[-16.4663,12.1839],[-16.4719,12.1863],[-16.4912,12.1898],[-16.5006,12.1966],[-16.5063,12.2065],[-16.5082,12.2178],[-16.5144,12.223],[-16.5383,12.2498],[-16.5389,12.256],[-16.5459,12.2598],[-16.567,12.2773],[-16.5764,12.2827],[-16.5811,12.2817],[-16.5962,12.2761],[-16.6037,12.2765],[-16.6096,12.2813],[-16.6189,12.2969],[-16.6243,12.3039],[-16.6615,12.3323],[-16.6727,12.338],[-16.6876,12.338],[-16.6989,12.3332],[-16.7092,12.3274],[-16.7211,12.3237],[-16.7284,12.3325],[-16.7056,12.348],[-16.6689,12.3567],[-16.5333,12.3478],[-16.5149,12.3485],[-16.4627,12.3613],[-16.4123,12.3617],[-16.382,12.3738],[-16.3019,12.4162],[-16.2329,12.4529],[-16.2224,12.4551],[-16.2117,12.4531],[-16.1901,12.4448],[-16.1819,12.4434],[-16.1772,12.4452],[-16.1728,12.4485],[-16.1661,12.4514],[-16.0905,12.4643],[-16.055,12.4612],[-15.9925,12.4407],[-15.9733,12.4372],[-15.8939,12.4428],[-15.884,12.4422],[-15.7115,12.4322]]]}},{"type":"Feature","properties":{"id":"GNB-777","name":"Gabú","nameBn":"গাবু অঞ্চল","type":"Region","bounds":[-14.5584,11.5606,-13.6607,12.6759],"center":[-14.1098,12.1569]},"geometry":{"type":"Polygon","coordinates":[[[-13.6953,12.2925],[-13.7118,12.2675],[-13.7408,12.2569],[-13.8086,12.2561],[-13.7957,12.2787],[-13.8126,12.2836],[-13.84,12.2771],[-13.859,12.266],[-13.8832,12.2464],[-13.9439,12.2186],[-13.9657,12.1942],[-13.9683,12.184],[-13.9684,12.1626],[-13.9725,12.1516],[-13.9649,12.1479],[-13.9387,12.1443],[-13.9184,12.1378],[-13.8993,12.1262],[-13.8798,12.1077],[-13.8697,12.1007],[-13.8424,12.0913],[-13.8377,12.0854],[-13.8352,12.0778],[-13.8296,12.0681],[-13.8078,12.0443],[-13.7959,12.0363],[-13.7796,12.0293],[-13.7444,12.0239],[-13.7349,12.0193],[-13.7239,12.0028],[-13.7226,11.9839],[-13.7313,11.9434],[-13.7346,11.9019],[-13.7194,11.784],[-13.7196,11.7661],[-13.7248,11.7231],[-13.7299,11.7098],[-13.7458,11.6982],[-13.77,11.6887],[-13.7957,11.684],[-13.8158,11.6868],[-13.8217,11.6942],[-13.8195,11.7017],[-13.8201,11.7081],[-13.8346,11.7121],[-13.843,11.7173],[-13.8463,11.7373],[-13.855,11.7434],[-13.8701,11.7437],[-13.873,11.7384],[-13.8685,11.727],[-13.8707,11.7041],[-13.8735,11.6945],[-13.8864,11.6756],[-13.9036,11.6654],[-13.9237,11.665],[-13.9454,11.6757],[-13.9534,11.6697],[-13.9965,11.6438],[-14.0151,11.6371],[-14.0588,11.644],[-14.0746,11.6437],[-14.1047,11.6386],[-14.1186,11.638],[-14.1349,11.6418],[-14.1445,11.6474],[-14.1531,11.6548],[-14.1618,11.6609],[-14.172,11.6628],[-14.195,11.6597],[-14.2787,11.6651],[-14.2845,11.6682],[-14.2897,11.6689],[-14.3004,11.6632],[-14.3082,11.6545],[-14.3198,11.6305],[-14.3265,11.6206],[-14.3392,11.6106],[-14.4323,11.5606],[-14.4325,11.5609],[-14.4552,11.5925],[-14.4601,11.6098],[-14.4602,11.6172],[-14.4639,11.6317],[-14.5071,11.6416],[-14.5018,11.6973],[-14.498,11.7107],[-14.4946,11.7134],[-14.4905,11.716],[-14.4744,11.7231],[-14.4686,11.7274],[-14.4612,11.7356],[-14.4597,11.7416],[-14.4606,11.7467],[-14.4639,11.7503],[-14.4713,11.7568],[-14.4741,11.7619],[-14.4758,11.7684],[-14.4755,11.7872],[-14.4812,11.824],[-14.4832,11.8695],[-14.4825,11.8811],[-14.481,11.8898],[-14.469,11.9237],[-14.4684,11.9316],[-14.4701,11.9375],[-14.4735,11.9409],[-14.4939,11.9556],[-14.4977,11.9596],[-14.5006,11.9645],[-14.5036,11.9742],[-14.5034,11.9801],[-14.5015,11.9846],[-14.4994,11.9867],[-14.496,11.9939],[-14.4922,12.006],[-14.4875,12.0338],[-14.4872,12.047],[-14.4899,12.0548],[-14.4939,12.0572],[-14.5088,12.0638],[-14.5171,12.0685],[-14.5214,12.0721],[-14.5253,12.0773],[-14.5287,12.087],[-14.5287,12.0956],[-14.5269,12.107],[-14.5237,12.113],[-14.5192,12.1167],[-14.5138,12.1179],[-14.5082,12.118],[-14.4958,12.1156],[-14.491,12.1155],[-14.4863,12.1167],[-14.482,12.119],[-14.4711,12.1279],[-14.4669,12.1301],[-14.4619,12.1311],[-14.4568,12.1305],[-14.4507,12.1336],[-14.4441,12.1412],[-14.4358,12.163],[-14.4336,12.1747],[-14.4346,12.1828],[-14.4377,12.1866],[-14.442,12.1891],[-14.4523,12.1926],[-14.4569,12.195],[-14.461,12.1977],[-14.464,12.2009],[-14.4661,12.2038],[-14.4676,12.2068],[-14.4834,12.259],[-14.4837,12.267],[-14.4824,12.2733],[-14.4768,12.283],[-14.4739,12.2895],[-14.4706,12.3012],[-14.4706,12.308],[-14.4722,12.3139],[-14.4751,12.3178],[-14.4824,12.3245],[-14.491,12.3296],[-14.4953,12.3313],[-14.5123,12.3361],[-14.5171,12.3383],[-14.5211,12.3412],[-14.5245,12.3449],[-14.5302,12.3531],[-14.5337,12.3566],[-14.5382,12.359],[-14.5548,12.362],[-14.5564,12.3641],[-14.5565,12.3664],[-14.5557,12.3678],[-14.5539,12.3697],[-14.5515,12.373],[-14.5498,12.3774],[-14.5525,12.3802],[-14.5571,12.3818],[-14.5584,12.3851],[-14.5573,12.389],[-14.5545,12.3929],[-14.5512,12.3965],[-14.5476,12.3998],[-14.5438,12.4019],[-14.5399,12.4025],[-14.5322,12.3988],[-14.5268,12.3982],[-14.521,12.3985],[-14.515,12.3996],[-14.5094,12.4016],[-14.5048,12.4045],[-14.5012,12.4091],[-14.5008,12.4124],[-14.5015,12.4159],[-14.5039,12.4209],[-14.5086,12.4381],[-14.5084,12.4449],[-14.5061,12.4491],[-14.5024,12.45],[-14.4999,12.4491],[-14.4974,12.4465],[-14.4928,12.4383],[-14.4893,12.4356],[-14.4854,12.4354],[-14.4818,12.4376],[-14.4789,12.4414],[-14.4754,12.4444],[-14.4703,12.4468],[-14.4649,12.4485],[-14.4589,12.4539],[-14.4571,12.4597],[-14.4572,12.4659],[-14.4591,12.4709],[-14.4617,12.4754],[-14.4749,12.4903],[-14.4786,12.4934],[-14.4829,12.4954],[-14.4875,12.4957],[-14.4921,12.4942],[-14.5059,12.4863],[-14.5106,12.4844],[-14.5156,12.483],[-14.5213,12.4831],[-14.5257,12.4852],[-14.5295,12.4914],[-14.5325,12.5006],[-14.5358,12.5183],[-14.5351,12.5274],[-14.5327,12.5339],[-14.5284,12.5361],[-14.5235,12.5363],[-14.5189,12.5324],[-14.5187,12.5273],[-14.5198,12.5209],[-14.5186,12.5164],[-14.5147,12.5147],[-14.5099,12.5154],[-14.5017,12.5185],[-14.4995,12.5179],[-14.4967,12.5157],[-14.4939,12.5124],[-14.4894,12.5107],[-14.4839,12.5107],[-14.4728,12.5122],[-14.4679,12.511],[-14.4645,12.508],[-14.461,12.4993],[-14.4593,12.4971],[-14.4562,12.4952],[-14.4521,12.4948],[-14.448,12.4962],[-14.445,12.4983],[-14.4335,12.5099],[-14.4296,12.513],[-14.4248,12.5148],[-14.4191,12.5148],[-14.4145,12.5129],[-14.4104,12.5099],[-14.4037,12.5035],[-14.4006,12.5014],[-14.3987,12.5003],[-14.394,12.4996],[-14.3911,12.5],[-14.3893,12.5005],[-14.3873,12.5018],[-14.3838,12.5065],[-14.3798,12.5133],[-14.3745,12.5268],[-14.3734,12.534],[-14.3753,12.5383],[-14.3789,12.5387],[-14.3829,12.5401],[-14.3894,12.5466],[-14.3994,12.5503],[-14.4032,12.5534],[-14.4059,12.5577],[-14.4094,12.5709],[-14.4139,12.6277],[-14.412,12.6348],[-14.4083,12.6366],[-14.4046,12.6344],[-14.3972,12.6281],[-14.3916,12.6197],[-14.3882,12.6166],[-14.3835,12.6154],[-14.3781,12.6159],[-14.3728,12.6176],[-14.368,12.6223],[-14.3636,12.6291],[-14.3593,12.6431],[-14.3431,12.6759],[-14.0828,12.6748],[-13.7283,12.6734],[-13.7363,12.6076],[-13.7346,12.5853],[-13.7251,12.5581],[-13.6747,12.4961],[-13.6634,12.4758],[-13.6607,12.4587],[-13.6644,12.4415],[-13.682,12.4003],[-13.6841,12.392],[-13.6852,12.3792],[-13.682,12.3503],[-13.683,12.3387],[-13.691,12.3193],[-13.695,12.2929],[-13.6953,12.2925]]]}},{"type":"Feature","properties":{"id":"GNB-772","name":"Oio","nameBn":"ওইও অঞ্চল","type":"Region","bounds":[-15.7528,11.8981,-14.8497,12.6794],"center":[-15.3013,12.2794]},"geometry":{"type":"Polygon","coordinates":[[[-15.1462,12.6792],[-14.8722,12.6781],[-14.8609,12.658],[-14.8592,12.6463],[-14.8594,12.6348],[-14.8614,12.6278],[-14.8639,12.6227],[-14.8798,12.5966],[-14.8843,12.5867],[-14.894,12.5726],[-14.8984,12.5643],[-14.9045,12.5488],[-14.9047,12.5404],[-14.9028,12.5345],[-14.8993,12.5313],[-14.8742,12.5146],[-14.8608,12.5018],[-14.8584,12.4988],[-14.856,12.495],[-14.8531,12.4896],[-14.8497,12.4811],[-14.8508,12.4757],[-14.8537,12.4716],[-14.8577,12.4687],[-14.8624,12.4664],[-14.8675,12.4646],[-14.8723,12.4622],[-14.8843,12.4529],[-14.8886,12.4502],[-14.9045,12.4446],[-14.9527,12.435],[-14.9578,12.4327],[-14.9594,12.4275],[-14.9556,12.3293],[-14.9546,12.3231],[-14.9528,12.3178],[-14.9504,12.3135],[-14.9473,12.3097],[-14.9282,12.2941],[-14.9241,12.2898],[-14.9213,12.2818],[-14.9193,12.2682],[-14.9221,12.2488],[-14.9227,12.2027],[-14.9246,12.1945],[-14.9288,12.1916],[-14.9398,12.1935],[-14.959,12.1945],[-14.9649,12.1955],[-14.9701,12.1969],[-14.9964,12.211],[-14.9999,12.2122],[-15.0035,12.2129],[-15.0084,12.2129],[-15.0137,12.2116],[-15.0187,12.2099],[-15.0242,12.2092],[-15.0297,12.2099],[-15.0348,12.2113],[-15.0399,12.2116],[-15.0441,12.2098],[-15.0482,12.2069],[-15.0519,12.2035],[-15.0616,12.1924],[-15.0691,12.1808],[-15.0709,12.1735],[-15.0703,12.1673],[-15.0391,12.1144],[-15.0348,12.1046],[-15.0311,12.08],[-15.0294,12.0749],[-15.0262,12.0712],[-15.0216,12.0686],[-15.0104,12.066],[-15.0021,12.0621],[-14.9969,12.058],[-14.9562,12.0352],[-14.9532,12.0306],[-14.9548,12.0253],[-14.9585,12.0164],[-14.9603,12.0095],[-14.9606,12.0031],[-14.9603,12.0007],[-14.9589,11.996],[-14.9521,11.9818],[-14.9497,11.9753],[-14.9493,11.9717],[-14.95,11.9687],[-14.9515,11.9672],[-14.9547,11.965],[-14.9586,11.9626],[-14.9633,11.9604],[-14.9687,11.9585],[-14.9794,11.9562],[-14.9908,11.9568],[-14.9936,11.9575],[-14.9938,11.9576],[-14.994,11.9637],[-15.0002,11.9706],[-15.0073,11.9748],[-15.0072,11.9783],[-15.0176,11.9815],[-15.0289,11.9822],[-15.0387,11.978],[-15.0466,11.9765],[-15.0688,11.9853],[-15.0797,11.9879],[-15.0939,11.9837],[-15.1247,11.9654],[-15.1408,11.9612],[-15.1494,11.9545],[-15.1778,11.9234],[-15.1923,11.9134],[-15.2151,11.9096],[-15.234,11.9132],[-15.2742,11.9265],[-15.3131,11.9328],[-15.3254,11.9386],[-15.3398,11.951],[-15.3585,11.9632],[-15.381,11.9682],[-15.4044,11.9672],[-15.4263,11.9612],[-15.4337,11.9565],[-15.4501,11.9429],[-15.4565,11.9401],[-15.478,11.9412],[-15.4891,11.9406],[-15.4974,11.937],[-15.5287,11.906],[-15.5347,11.9024],[-15.5456,11.8981],[-15.564,11.9088],[-15.5695,11.9137],[-15.5827,11.9294],[-15.5908,11.9331],[-15.6031,11.9369],[-15.6086,11.9412],[-15.6124,11.9448],[-15.6241,11.9659],[-15.6304,11.9866],[-15.6336,11.9924],[-15.6658,12.0315],[-15.6686,12.0393],[-15.6696,12.0439],[-15.6697,12.0502],[-15.6619,12.0794],[-15.6617,12.0876],[-15.6626,12.0945],[-15.6639,12.0999],[-15.6639,12.106],[-15.6519,12.147],[-15.6507,12.1576],[-15.6514,12.1654],[-15.6538,12.1696],[-15.6572,12.1734],[-15.6615,12.1763],[-15.6884,12.1847],[-15.6932,12.1872],[-15.6975,12.19],[-15.7013,12.1931],[-15.7111,12.2039],[-15.7341,12.223],[-15.7478,12.2381],[-15.7506,12.2423],[-15.7527,12.2464],[-15.7528,12.2508],[-15.7512,12.2551],[-15.7433,12.2617],[-15.7422,12.268],[-15.7443,12.2717],[-15.7463,12.2764],[-15.7455,12.2829],[-15.7341,12.2979],[-15.7279,12.3047],[-15.7226,12.3078],[-15.7197,12.3031],[-15.7178,12.2935],[-15.7144,12.2911],[-15.7093,12.2911],[-15.703,12.2917],[-15.6974,12.2935],[-15.6933,12.2966],[-15.6924,12.303],[-15.6937,12.3079],[-15.6938,12.3129],[-15.6908,12.3175],[-15.6818,12.3212],[-15.6745,12.3223],[-15.6557,12.3212],[-15.65,12.3223],[-15.6302,12.332],[-15.6253,12.3365],[-15.6198,12.3457],[-15.6145,12.352],[-15.5765,12.3757],[-15.5572,12.3827],[-15.547,12.3876],[-15.5286,12.4005],[-15.5187,12.4041],[-15.5109,12.4053],[-15.5062,12.4041],[-15.5015,12.4043],[-15.4984,12.4047],[-15.4936,12.406],[-15.4878,12.4063],[-15.4822,12.4056],[-15.4781,12.4028],[-15.4728,12.3866],[-15.4698,12.3827],[-15.4658,12.38],[-15.4603,12.3799],[-15.4545,12.3822],[-15.4211,12.405],[-15.4161,12.4073],[-15.411,12.4113],[-15.4062,12.4174],[-15.4003,12.4396],[-15.3981,12.4539],[-15.3973,12.4674],[-15.4008,12.4902],[-15.4194,12.5514],[-15.4217,12.5571],[-15.3686,12.5954],[-15.3078,12.6227],[-15.2497,12.6636],[-15.2238,12.6752],[-15.1951,12.6794],[-15.1462,12.6792]]]}},{"type":"Feature","properties":{"id":"GNB-773","name":"Quinara","nameBn":"কিনারা অঞ্চল","type":"Region","bounds":[-15.5514,11.3339,-14.8298,11.9401],"center":[-15.1905,11.5576]},"geometry":{"type":"Polygon","coordinates":[[[-15.4276,11.6804],[-15.4263,11.6937],[-15.4589,11.663],[-15.4761,11.6544],[-15.494,11.6664],[-15.4892,11.675],[-15.4893,11.6961],[-15.4878,11.708],[-15.5009,11.7086],[-15.5089,11.7045],[-15.5148,11.6987],[-15.5213,11.6937],[-15.5216,11.6904],[-15.5292,11.6816],[-15.5381,11.6762],[-15.5423,11.6834],[-15.5458,11.7001],[-15.5513,11.7164],[-15.5514,11.7331],[-15.5329,11.7603],[-15.5248,11.7825],[-15.5179,11.7927],[-15.4803,11.8303],[-15.4693,11.8377],[-15.4631,11.84],[-15.4604,11.8435],[-15.4598,11.8547],[-15.4574,11.8647],[-15.4515,11.8734],[-15.4387,11.8854],[-15.4325,11.8854],[-15.4298,11.879],[-15.4267,11.8762],[-15.4231,11.8744],[-15.4189,11.8712],[-15.415,11.8805],[-15.4101,11.8842],[-15.4042,11.8832],[-15.3978,11.8854],[-15.3747,11.8848],[-15.3346,11.8739],[-15.3127,11.8712],[-15.1892,11.8712],[-15.184,11.8747],[-15.1672,11.8896],[-15.1619,11.893],[-15.1356,11.8992],[-15.119,11.9135],[-15.1058,11.9293],[-15.0899,11.9401],[-15.067,11.9401],[-15.0629,11.925],[-15.0697,11.9047],[-15.0797,11.8892],[-15.0871,11.8703],[-15.0864,11.8454],[-15.0797,11.8209],[-15.0694,11.8036],[-15.0501,11.795],[-15.0248,11.7908],[-15.0026,11.7835],[-14.993,11.7657],[-14.9824,11.7541],[-14.9591,11.7489],[-14.9359,11.753],[-14.9254,11.7694],[-14.9252,11.7696],[-14.9211,11.7826],[-14.9144,11.788],[-14.9038,11.7888],[-14.8947,11.7847],[-14.8912,11.7776],[-14.8896,11.7699],[-14.8841,11.761],[-14.8805,11.7524],[-14.8776,11.7487],[-14.8721,11.752],[-14.8675,11.7537],[-14.8634,11.7533],[-14.838,11.742],[-14.834,11.7379],[-14.8376,11.7299],[-14.8629,11.7007],[-14.8614,11.6954],[-14.8298,11.6986],[-14.8536,11.6557],[-14.8989,11.5898],[-14.9124,11.561],[-14.9136,11.5553],[-14.915,11.5429],[-14.9141,11.5243],[-14.9145,11.5182],[-14.9157,11.5127],[-14.9174,11.5076],[-14.9197,11.5038],[-14.9229,11.4999],[-14.9271,11.4955],[-14.9332,11.488],[-14.9448,11.4643],[-14.9556,11.4481],[-14.9616,11.444],[-14.9702,11.44],[-15.009,11.4311],[-15.0139,11.4294],[-15.0236,11.4249],[-15.0291,11.4234],[-15.0528,11.4197],[-15.0892,11.4071],[-15.0961,11.4073],[-15.1041,11.4088],[-15.1153,11.4143],[-15.1214,11.4186],[-15.1261,11.4228],[-15.1416,11.4423],[-15.145,11.4452],[-15.1487,11.4471],[-15.1566,11.4502],[-15.1733,11.4622],[-15.1913,11.4712],[-15.1963,11.473],[-15.2146,11.4671],[-15.2638,11.4265],[-15.273,11.4202],[-15.2732,11.42],[-15.2681,11.433],[-15.3231,11.3891],[-15.3431,11.3784],[-15.3585,11.3874],[-15.3617,11.3991],[-15.3568,11.4296],[-15.3508,11.4394],[-15.3391,11.4517],[-15.331,11.4626],[-15.3363,11.4678],[-15.3534,11.4633],[-15.3664,11.4508],[-15.3749,11.4337],[-15.3779,11.4162],[-15.3842,11.4047],[-15.3986,11.3974],[-15.4149,11.3918],[-15.4263,11.3852],[-15.4357,11.3695],[-15.4407,11.3561],[-15.4495,11.3471],[-15.47,11.3437],[-15.4831,11.3395],[-15.4943,11.3339],[-15.5027,11.3367],[-15.5071,11.3579],[-15.504,11.3686],[-15.489,11.4047],[-15.484,11.4125],[-15.481,11.4194],[-15.453,11.4604],[-15.4705,11.4611],[-15.4767,11.468],[-15.4763,11.4796],[-15.4735,11.4945],[-15.4656,11.4897],[-15.4568,11.4891],[-15.4477,11.4931],[-15.4387,11.5019],[-15.438,11.4955],[-15.4325,11.4808],[-15.428,11.494],[-15.4206,11.5053],[-15.4123,11.5077],[-15.4053,11.4945],[-15.3978,11.4945],[-15.3988,11.5043],[-15.4014,11.5134],[-15.4059,11.5217],[-15.412,11.5292],[-15.4073,11.53],[-15.4066,11.531],[-15.4069,11.5327],[-15.4053,11.536],[-15.3961,11.5321],[-15.3852,11.53],[-15.3711,11.5292],[-15.3544,11.5251],[-15.3489,11.5283],[-15.3568,11.5429],[-15.3534,11.5505],[-15.35,11.5634],[-15.3431,11.5634],[-15.3351,11.5524],[-15.3211,11.5543],[-15.3096,11.5539],[-15.309,11.536],[-15.2899,11.5428],[-15.2904,11.5563],[-15.3021,11.5717],[-15.3165,11.5838],[-15.3207,11.5812],[-15.3243,11.58],[-15.3363,11.577],[-15.3363,11.5838],[-15.3145,11.5913],[-15.3042,11.5969],[-15.2947,11.6049],[-15.2873,11.5925],[-15.2748,11.5781],[-15.2585,11.5703],[-15.2401,11.577],[-15.2523,11.5788],[-15.2532,11.5855],[-15.251,11.595],[-15.2538,11.6049],[-15.2617,11.6088],[-15.2701,11.6087],[-15.2773,11.6116],[-15.2811,11.6248],[-15.2697,11.6211],[-15.2479,11.6165],[-15.2401,11.6118],[-15.2265,11.6186],[-15.2286,11.612],[-15.2313,11.5978],[-15.2339,11.5913],[-15.2091,11.574],[-15.2017,11.5754],[-15.1923,11.5913],[-15.1974,11.6],[-15.2102,11.6168],[-15.2128,11.6217],[-15.21,11.6286],[-15.2031,11.6364],[-15.1944,11.6428],[-15.1861,11.6459],[-15.184,11.6437],[-15.1764,11.639],[-15.1658,11.6343],[-15.1548,11.6323],[-15.1484,11.6288],[-15.1449,11.6202],[-15.1435,11.6091],[-15.144,11.5981],[-15.1246,11.6049],[-15.1266,11.6083],[-15.1289,11.6154],[-15.1308,11.6186],[-15.1159,11.6177],[-15.1055,11.6122],[-15.0975,11.603],[-15.0899,11.5913],[-15.1294,11.5836],[-15.144,11.5838],[-15.1393,11.5784],[-15.137,11.5747],[-15.1333,11.5721],[-15.1246,11.5702],[-15.1289,11.5544],[-15.1233,11.5455],[-15.1147,11.5463],[-15.1051,11.5729],[-15.0933,11.574],[-15.0815,11.5717],[-15.0763,11.5736],[-15.0445,11.5754],[-15.0353,11.577],[-15.0238,11.5827],[-15.0158,11.5892],[-15.0106,11.5983],[-15.0073,11.6118],[-15.0198,11.6077],[-15.0289,11.6029],[-15.0392,11.5991],[-15.0725,11.5955],[-15.0799,11.598],[-15.0831,11.6083],[-15.081,11.6129],[-15.0759,11.6162],[-15.0692,11.6181],[-15.062,11.6186],[-15.0659,11.6276],[-15.0662,11.633],[-15.062,11.6459],[-15.0734,11.6485],[-15.0824,11.6433],[-15.0882,11.6325],[-15.0899,11.6186],[-15.1036,11.634],[-15.1123,11.6387],[-15.1246,11.6385],[-15.1246,11.6459],[-15.1175,11.6498],[-15.1029,11.6664],[-15.1029,11.6732],[-15.1103,11.6868],[-15.1172,11.6868],[-15.1308,11.6527],[-15.1428,11.6499],[-15.1579,11.6584],[-15.1719,11.6596],[-15.1614,11.6749],[-15.1473,11.6816],[-15.1352,11.6895],[-15.1308,11.708],[-15.1393,11.6993],[-15.1487,11.6945],[-15.1578,11.6948],[-15.1656,11.7011],[-15.1719,11.7011],[-15.1728,11.6908],[-15.1758,11.6845],[-15.182,11.6811],[-15.1923,11.6801],[-15.1893,11.6655],[-15.1967,11.6615],[-15.2069,11.6668],[-15.2128,11.6801],[-15.228,11.6586],[-15.2363,11.6643],[-15.2314,11.6813],[-15.2066,11.6937],[-15.2154,11.7],[-15.2191,11.7082],[-15.2181,11.7175],[-15.2128,11.7279],[-15.2066,11.7279],[-15.2023,11.7251],[-15.1984,11.7239],[-15.1861,11.7216],[-15.1905,11.7354],[-15.1995,11.7445],[-15.2196,11.7551],[-15.2265,11.7551],[-15.2292,11.7388],[-15.2361,11.7258],[-15.2414,11.7121],[-15.2401,11.6937],[-15.2505,11.6895],[-15.2593,11.6768],[-15.2681,11.6732],[-15.2742,11.6766],[-15.2715,11.6859],[-15.2612,11.7011],[-15.2729,11.7062],[-15.275,11.7185],[-15.2681,11.7484],[-15.2778,11.7426],[-15.2841,11.7341],[-15.2875,11.7235],[-15.2886,11.7111],[-15.2926,11.7103],[-15.3135,11.7106],[-15.3226,11.708],[-15.309,11.7011],[-15.309,11.6937],[-15.2975,11.6858],[-15.286,11.6788],[-15.2811,11.6698],[-15.285,11.6564],[-15.2939,11.6531],[-15.3034,11.6573],[-15.309,11.6664],[-15.3138,11.6585],[-15.3176,11.6501],[-15.3205,11.6414],[-15.3226,11.6323],[-15.3302,11.6709],[-15.3364,11.6844],[-15.3414,11.6828],[-15.3417,11.6846],[-15.3528,11.6889],[-15.3712,11.6923],[-15.3766,11.6927],[-15.3905,11.6912],[-15.4245,11.6831],[-15.4273,11.6805],[-15.4276,11.6804]]]}},{"type":"Feature","properties":{"id":"GNB-778","name":"Tombali","nameBn":"তুম্বালি অঞ্চল","type":"Region","bounds":[-15.4263,10.9276,-14.4323,11.6986],"center":[-14.9293,11.2932]},"geometry":{"type":"Polygon","coordinates":[[[-14.4323,11.5606],[-14.5209,11.5129],[-14.5623,11.5056],[-14.6454,11.5151],[-14.6868,11.5107],[-14.7111,11.4976],[-14.729,11.478],[-14.8282,11.3348],[-14.8432,11.2972],[-14.8631,11.2186],[-14.9591,11.0358],[-14.9926,10.9964],[-14.9926,10.9962],[-15.021,10.9675],[-15.0598,10.9404],[-15.0852,10.9276],[-15.0968,10.9293],[-15.094,10.9425],[-15.087,10.9493],[-15.0782,10.9538],[-15.0694,10.96],[-15.0547,10.9826],[-15.0483,10.988],[-15.0483,10.9948],[-15.0558,10.9948],[-15.06,10.9854],[-15.0651,10.9774],[-15.0723,10.9711],[-15.0831,10.9675],[-15.0948,10.967],[-15.1058,10.9694],[-15.114,10.9752],[-15.1172,10.9843],[-15.0994,11.0577],[-15.0933,11.0699],[-15.0828,11.0754],[-15.0765,11.0884],[-15.0717,11.1033],[-15.0657,11.1146],[-15.0599,11.1174],[-15.0474,11.1166],[-15.0421,11.1183],[-15.0414,11.1221],[-15.0429,11.1354],[-15.0421,11.1388],[-15.0006,11.1422],[-15.0024,11.1506],[-15.0076,11.1574],[-15.0142,11.1625],[-15.021,11.1661],[-15.0077,11.1801],[-14.9997,11.199],[-15.0009,11.2168],[-15.0148,11.2275],[-15.0238,11.2015],[-15.0387,11.1826],[-15.0587,11.1708],[-15.0831,11.1661],[-15.0775,11.1501],[-15.0819,11.1402],[-15.0918,11.1381],[-15.1029,11.1457],[-15.1051,11.1404],[-15.1078,11.1365],[-15.1099,11.132],[-15.1103,11.1251],[-15.1143,11.1277],[-15.1246,11.132],[-15.1251,11.1127],[-15.1308,11.1037],[-15.1411,11.0974],[-15.1548,11.087],[-15.1662,11.0725],[-15.181,11.0443],[-15.2069,11.0096],[-15.2179,10.9992],[-15.2301,10.9948],[-15.243,11.0004],[-15.2585,11.0136],[-15.2699,11.0285],[-15.2711,11.0392],[-15.2601,11.0471],[-15.2302,11.0618],[-15.2196,11.0699],[-15.2145,11.0814],[-15.2066,11.1251],[-15.2174,11.2094],[-15.2066,11.2338],[-15.2291,11.2304],[-15.235,11.2156],[-15.2317,11.1963],[-15.2265,11.1791],[-15.2251,11.164],[-15.2262,11.1398],[-15.2335,11.1225],[-15.2593,11.1326],[-15.2947,11.132],[-15.3053,11.1351],[-15.3129,11.1394],[-15.3185,11.1434],[-15.3226,11.1457],[-15.3459,11.1423],[-15.3582,11.1442],[-15.3636,11.1555],[-15.3664,11.1665],[-15.3735,11.1738],[-15.3835,11.1779],[-15.3947,11.1791],[-15.4095,11.1896],[-15.4131,11.2138],[-15.412,11.2617],[-15.4095,11.2724],[-15.4101,11.2792],[-15.4154,11.2822],[-15.4217,11.2823],[-15.425,11.2834],[-15.4261,11.2865],[-15.4263,11.2927],[-15.4252,11.3034],[-15.42,11.3166],[-15.4189,11.3271],[-15.4139,11.3364],[-15.3886,11.3699],[-15.3779,11.3784],[-15.3714,11.3769],[-15.3513,11.3676],[-15.3398,11.3654],[-15.3297,11.3685],[-15.3156,11.3821],[-15.3056,11.3852],[-15.2954,11.3908],[-15.2835,11.4042],[-15.2732,11.42],[-15.273,11.4202],[-15.2638,11.4265],[-15.2146,11.4671],[-15.1963,11.473],[-15.1913,11.4712],[-15.1733,11.4622],[-15.1566,11.4502],[-15.1487,11.4471],[-15.145,11.4452],[-15.1416,11.4423],[-15.1261,11.4228],[-15.1214,11.4186],[-15.1153,11.4143],[-15.1041,11.4088],[-15.0961,11.4073],[-15.0892,11.4071],[-15.0528,11.4197],[-15.0291,11.4234],[-15.0236,11.4249],[-15.0139,11.4294],[-15.009,11.4311],[-14.9702,11.44],[-14.9616,11.444],[-14.9556,11.4481],[-14.9448,11.4643],[-14.9332,11.488],[-14.9271,11.4955],[-14.9229,11.4999],[-14.9197,11.5038],[-14.9174,11.5076],[-14.9157,11.5127],[-14.9145,11.5182],[-14.9141,11.5243],[-14.915,11.5429],[-14.9136,11.5553],[-14.9124,11.561],[-14.8989,11.5898],[-14.8536,11.6557],[-14.8298,11.6986],[-14.8122,11.6896],[-14.8079,11.6806],[-14.8078,11.6692],[-14.803,11.6527],[-14.7866,11.6302],[-14.7615,11.609],[-14.7339,11.5976],[-14.71,11.6051],[-14.6833,11.6317],[-14.6733,11.6352],[-14.6567,11.6342],[-14.6532,11.6321],[-14.642,11.623],[-14.6354,11.6204],[-14.6263,11.6214],[-14.5981,11.6334],[-14.5756,11.6383],[-14.5298,11.643],[-14.5071,11.6416],[-14.4639,11.6317],[-14.4602,11.6172],[-14.4601,11.6098],[-14.4552,11.5925],[-14.4325,11.5609],[-14.4323,11.5606]]]}}]}