{"type":"FeatureCollection","features":[{"type":"Feature","properties":{"id":"GNQ-1467","name":"Annobón","nameBn":"অ্যানোবোন প্রদেশ","type":"Province","bounds":[5.612,-1.4757,5.6463,-1.4158],"center":[5.6293,-1.447]},"geometry":{"type":"Polygon","coordinates":[[[5.6262,-1.4562],[5.62,-1.4446],[5.6187,-1.433],[5.6228,-1.4229],[5.6331,-1.4158],[5.6463,-1.4384],[5.6428,-1.4628],[5.6289,-1.4757],[5.612,-1.4636],[5.617,-1.4621],[5.6213,-1.4583],[5.6262,-1.4562]]]}},{"type":"Feature","properties":{"id":"GNQ-1478","name":"Bioko Norte","nameBn":"বিওকোঁ নর্টে প্রদেশ","type":"Province","bounds":[8.6268,3.5151,8.9631,3.7724],"center":[8.7951,3.6678]},"geometry":{"type":"Polygon","coordinates":[[[8.6268,3.6331],[8.6279,3.6483],[8.641,3.6835],[8.6672,3.7263],[8.7024,3.7609],[8.7434,3.7724],[8.7412,3.7686],[8.7372,3.7582],[8.7682,3.7517],[8.7819,3.751],[8.7918,3.7582],[8.8143,3.7513],[8.8467,3.7464],[8.8806,3.7473],[8.9085,3.7582],[8.9115,3.7538],[8.9146,3.7521],[8.9227,3.7507],[8.9492,3.7179],[8.9592,3.7008],[8.9631,3.6797],[8.9616,3.6605],[8.9575,3.643],[8.9512,3.6274],[8.9431,3.6142],[8.907,3.5821],[8.8967,3.5544],[8.8635,3.5151],[8.8477,3.5542],[8.845,3.5585],[8.8421,3.5623],[8.8328,3.5685],[8.8197,3.5734],[8.7926,3.5789],[8.7672,3.5801],[8.7597,3.5792],[8.7511,3.579],[8.7392,3.5813],[8.7255,3.5867],[8.6818,3.6175],[8.6686,3.625],[8.6416,3.6339],[8.6269,3.6331],[8.6268,3.6331]]]}},{"type":"Feature","properties":{"id":"GNQ-1479","name":"Bioko Sur","nameBn":"বিয়োকো সুর প্রদেশ","type":"Province","bounds":[8.422,3.1973,8.8635,3.6339],"center":[8.6429,3.4256]},"geometry":{"type":"Polygon","coordinates":[[[8.8635,3.5151],[8.8607,3.5118],[8.8407,3.4581],[8.8234,3.4444],[8.8187,3.4209],[8.8159,3.4155],[8.8137,3.4122],[8.7849,3.3951],[8.7814,3.379],[8.7809,3.3329],[8.7747,3.3166],[8.7297,3.2648],[8.6955,3.2086],[8.6862,3.1973],[8.6766,3.2038],[8.6537,3.2136],[8.6484,3.22],[8.6421,3.2174],[8.6276,3.2226],[8.5999,3.238],[8.5926,3.2355],[8.5697,3.2304],[8.5596,3.2306],[8.5488,3.2353],[8.5277,3.2488],[8.5147,3.2517],[8.4932,3.2524],[8.4694,3.258],[8.4502,3.2729],[8.4422,3.3023],[8.4377,3.3131],[8.4286,3.3262],[8.422,3.3393],[8.4253,3.3504],[8.4292,3.3596],[8.4354,3.4019],[8.4421,3.4213],[8.4553,3.4465],[8.4739,3.4631],[8.4976,3.4565],[8.5103,3.4638],[8.5271,3.463],[8.5628,3.4565],[8.5796,3.4633],[8.5851,3.4793],[8.5823,3.4977],[8.5733,3.5118],[8.5857,3.5185],[8.6014,3.5297],[8.6152,3.5431],[8.6211,3.5559],[8.6268,3.6331],[8.6269,3.6331],[8.6416,3.6339],[8.6686,3.625],[8.6818,3.6175],[8.7255,3.5867],[8.7392,3.5813],[8.7511,3.579],[8.7597,3.5792],[8.7672,3.5801],[8.7926,3.5789],[8.8197,3.5734],[8.8328,3.5685],[8.8421,3.5623],[8.845,3.5585],[8.8477,3.5542],[8.8635,3.5151]]]}},{"type":"Feature","properties":{"id":"GNQ-1468","name":"Centro Sur","nameBn":"সেন্ট্রো সুর প্রদেশ","type":"Province","bounds":[9.9179,0.9997,10.981,2.1657],"center":[10.4494,1.4624]},"geometry":{"type":"Polygon","coordinates":[[[10.19,2.1656],[10.4097,2.1657],[10.4112,2.1159],[10.4197,2.0835],[10.4351,2.0409],[10.4372,2.0265],[10.4357,2.0143],[10.4275,1.9944],[10.4236,1.9795],[10.4211,1.9562],[10.423,1.9435],[10.4275,1.9346],[10.4293,1.9336],[10.4405,1.9236],[10.4514,1.9221],[10.4939,1.9257],[10.5119,1.9215],[10.5174,1.9149],[10.5432,1.8838],[10.6104,1.8302],[10.6158,1.8138],[10.6141,1.7906],[10.6085,1.7668],[10.602,1.7484],[10.5763,1.7101],[10.5722,1.6958],[10.5742,1.6826],[10.5865,1.6634],[10.5904,1.6523],[10.585,1.6242],[10.5735,1.6037],[10.5749,1.5872],[10.6079,1.5712],[10.6389,1.5632],[10.6663,1.5601],[10.6928,1.5626],[10.7214,1.5717],[10.7545,1.5882],[10.7661,1.5907],[10.7756,1.5899],[10.793,1.5843],[10.8028,1.5829],[10.8126,1.5873],[10.8206,1.5948],[10.8274,1.5969],[10.8407,1.573],[10.8485,1.576],[10.8607,1.5899],[10.8682,1.5931],[10.8753,1.5978],[10.8824,1.6003],[10.8891,1.5971],[10.8911,1.5925],[10.8928,1.5819],[10.896,1.5787],[10.9119,1.574],[10.9627,1.5655],[10.9676,1.5661],[10.9715,1.5685],[10.981,1.573],[10.981,1.5671],[10.9748,1.5563],[10.9648,1.5511],[10.9293,1.5375],[10.918,1.5294],[10.8728,1.4805],[10.8651,1.4687],[10.8503,1.4406],[10.809,1.385],[10.7901,1.3537],[10.7772,1.3222],[10.7755,1.3113],[10.7777,1.2976],[10.7853,1.2818],[10.8502,1.2098],[10.8624,1.2013],[10.904,1.1824],[10.9155,1.1685],[10.9256,1.1481],[10.942,1.0826],[10.951,1.0653],[10.9589,1.0598],[10.9672,1.0557],[10.9741,1.0502],[10.9799,1.0431],[10.9807,1.0323],[10.9797,1.0234],[10.9658,1.0032],[10.964,1.0006],[10.9638,1.0004],[10.7374,1.0011],[10.4381,1.0022],[10.415,1.0022],[10.1386,1.0031],[10.0294,1.0035],[10.0004,0.9997],[10.0004,1.0],[10.0001,1.002],[10.0067,1.0226],[10.0161,1.0423],[10.0217,1.0503],[10.0273,1.0564],[10.0325,1.0608],[10.0558,1.0736],[10.08,1.083],[10.0847,1.0856],[10.0968,1.0902],[10.1061,1.0915],[10.1152,1.0905],[10.1357,1.0847],[10.148,1.0824],[10.1633,1.0816],[10.1825,1.0832],[10.2198,1.0908],[10.2355,1.0963],[10.2509,1.104],[10.2641,1.1143],[10.2729,1.1271],[10.2763,1.1396],[10.2754,1.1524],[10.2715,1.1642],[10.2661,1.1734],[10.2574,1.1784],[10.2513,1.1776],[10.2451,1.1721],[10.2382,1.1645],[10.2296,1.1608],[10.2192,1.162],[10.2083,1.1678],[10.2031,1.1753],[10.198,1.2005],[10.1946,1.2086],[10.189,1.2153],[10.1859,1.2236],[10.1851,1.2373],[10.1854,1.2488],[10.1835,1.2583],[10.178,1.2643],[10.1667,1.2646],[10.1576,1.2676],[10.1494,1.2749],[10.1436,1.2945],[10.1409,1.3102],[10.1381,1.3756],[10.1342,1.3865],[10.1143,1.3972],[10.1055,1.4054],[10.0982,1.4211],[10.0965,1.4346],[10.0982,1.4465],[10.1086,1.4691],[10.1157,1.4817],[10.1148,1.4864],[10.1114,1.4916],[10.0937,1.5065],[10.0641,1.5203],[10.0001,1.539],[9.9298,1.558],[9.9227,1.5623],[9.9188,1.5684],[9.9179,1.5771],[9.9233,1.5882],[9.9323,1.596],[9.9491,1.6018],[9.9685,1.6059],[9.9816,1.6146],[10.0001,1.6408],[10.0617,1.7499],[10.0976,1.7975],[10.1061,1.8174],[10.1115,1.9254],[10.1152,1.9434],[10.1212,1.9592],[10.1328,1.9784],[10.1419,1.989],[10.1801,2.0226],[10.1874,2.0324],[10.1925,2.045],[10.1966,2.0625],[10.1977,2.1103],[10.19,2.1656]]]}},{"type":"Feature","properties":{"id":"GNQ-1469","name":"Kié-Ntem","nameBn":"কিন্টেম প্রদেশ","type":"Province","bounds":[10.4097,1.732,11.332,2.1658],"center":[10.8707,2.0485]},"geometry":{"type":"Polygon","coordinates":[[[10.4097,2.1657],[10.4247,2.1657],[10.7238,2.1657],[11.023,2.1657],[11.3221,2.1658],[11.3297,2.1274],[11.3301,2.0471],[11.3317,1.7851],[11.332,1.7326],[11.3316,1.7327],[11.2277,1.7465],[11.1843,1.74],[11.1729,1.7346],[11.1608,1.7328],[11.097,1.7396],[11.075,1.7385],[11.055,1.7343],[11.0353,1.732],[11.0187,1.7329],[11.0019,1.7415],[10.9935,1.7502],[10.9884,1.7624],[10.9591,1.9495],[10.9547,1.963],[10.9479,1.971],[10.9392,1.9745],[10.9256,1.9691],[10.9156,1.9614],[10.8998,1.9446],[10.89,1.9367],[10.8764,1.9317],[10.8601,1.9302],[10.8346,1.9349],[10.8171,1.9404],[10.7024,1.9892],[10.6749,1.9949],[10.6652,1.9956],[10.629,1.9815],[10.5174,1.9149],[10.5119,1.9215],[10.4939,1.9257],[10.4514,1.9221],[10.4405,1.9236],[10.4293,1.9336],[10.4275,1.9346],[10.423,1.9435],[10.4211,1.9562],[10.4236,1.9795],[10.4275,1.9944],[10.4357,2.0143],[10.4372,2.0265],[10.4351,2.0409],[10.4197,2.0835],[10.4112,2.1159],[10.4097,2.1657]]]}},{"type":"Feature","properties":{"id":"GNQ-1470","name":"Litoral","nameBn":"লিটরাল প্রদেশ","type":"Province","bounds":[9.3467,0.9249,10.2763,2.3417],"center":[9.7992,1.3072]},"geometry":{"type":"Polygon","coordinates":[[[9.7996,2.3417],[9.8111,2.3249],[9.8119,2.3062],[9.8087,2.2855],[9.8109,2.2649],[9.8237,2.249],[9.8468,2.2285],[9.8721,2.2112],[9.8901,2.2046],[9.9075,2.2005],[9.9707,2.1689],[9.991,2.1656],[10.1256,2.1656],[10.19,2.1656],[10.1977,2.1103],[10.1966,2.0625],[10.1925,2.045],[10.1874,2.0324],[10.1801,2.0226],[10.1419,1.989],[10.1328,1.9784],[10.1212,1.9592],[10.1152,1.9434],[10.1115,1.9254],[10.1061,1.8174],[10.0976,1.7975],[10.0617,1.7499],[10.0001,1.6408],[9.9816,1.6146],[9.9685,1.6059],[9.9491,1.6018],[9.9323,1.596],[9.9233,1.5882],[9.9179,1.5771],[9.9188,1.5684],[9.9227,1.5623],[9.9298,1.558],[10.0001,1.539],[10.0641,1.5203],[10.0937,1.5065],[10.1114,1.4916],[10.1148,1.4864],[10.1157,1.4817],[10.1086,1.4691],[10.0982,1.4465],[10.0965,1.4346],[10.0982,1.4211],[10.1055,1.4054],[10.1143,1.3972],[10.1342,1.3865],[10.1381,1.3756],[10.1409,1.3102],[10.1436,1.2945],[10.1494,1.2749],[10.1576,1.2676],[10.1667,1.2646],[10.178,1.2643],[10.1835,1.2583],[10.1854,1.2488],[10.1851,1.2373],[10.1859,1.2236],[10.189,1.2153],[10.1946,1.2086],[10.198,1.2005],[10.2031,1.1753],[10.2083,1.1678],[10.2192,1.162],[10.2296,1.1608],[10.2382,1.1645],[10.2451,1.1721],[10.2513,1.1776],[10.2574,1.1784],[10.2661,1.1734],[10.2715,1.1642],[10.2754,1.1524],[10.2763,1.1396],[10.2729,1.1271],[10.2641,1.1143],[10.2509,1.104],[10.2355,1.0963],[10.2198,1.0908],[10.1825,1.0832],[10.1633,1.0816],[10.148,1.0824],[10.1357,1.0847],[10.1152,1.0905],[10.1061,1.0915],[10.0968,1.0902],[10.0847,1.0856],[10.08,1.083],[10.0558,1.0736],[10.0325,1.0608],[10.0273,1.0564],[10.0217,1.0503],[10.0161,1.0423],[10.0067,1.0226],[10.0001,1.002],[10.0004,1.0],[10.0004,0.9997],[9.9808,0.9972],[9.9755,0.9826],[9.9754,0.953],[9.9718,0.9398],[9.96,0.9284],[9.9441,0.9249],[9.9263,0.9275],[9.9086,0.9351],[9.8921,0.9479],[9.8661,0.9776],[9.8496,0.9892],[9.8341,0.9949],[9.8044,0.9984],[9.8059,1.0036],[9.8045,1.0207],[9.7969,1.0463],[9.7991,1.0582],[9.8068,1.0644],[9.8198,1.0689],[9.8347,1.0716],[9.8475,1.0725],[9.8415,1.0777],[9.8293,1.0819],[9.8148,1.0845],[9.8025,1.0855],[9.7922,1.0887],[9.7673,1.1029],[9.7551,1.1059],[9.7141,1.0971],[9.7035,1.0998],[9.6994,1.1098],[9.7038,1.1206],[9.7116,1.1293],[9.7178,1.1333],[9.6992,1.1255],[9.6764,1.1054],[9.6571,1.0832],[9.6489,1.0688],[9.6421,1.0616],[9.6091,1.0535],[9.5843,1.043],[9.5754,1.0548],[9.5597,1.1028],[9.5516,1.1154],[9.5408,1.1251],[9.5247,1.1333],[9.5065,1.1376],[9.4935,1.1346],[9.4818,1.1293],[9.45,1.1233],[9.4204,1.1092],[9.4053,1.1059],[9.3965,1.1115],[9.3731,1.1377],[9.3602,1.147],[9.3622,1.157],[9.3596,1.1649],[9.3467,1.1817],[9.3623,1.1881],[9.374,1.1999],[9.3825,1.2145],[9.3988,1.2657],[9.4076,1.2838],[9.419,1.2916],[9.4343,1.2997],[9.4483,1.3191],[9.459,1.3417],[9.464,1.3598],[9.4614,1.3981],[9.4653,1.4145],[9.4928,1.4266],[9.5322,1.4623],[9.5496,1.4848],[9.5527,1.4865],[9.5549,1.4918],[9.5596,1.4967],[9.5642,1.5034],[9.5664,1.5141],[9.5781,1.5427],[9.5942,1.5722],[9.6148,1.588],[9.6278,1.5837],[9.6403,1.572],[9.6592,1.5653],[9.6859,1.5688],[9.7048,1.5777],[9.7222,1.589],[9.7445,1.6],[9.7243,1.599],[9.6834,1.5714],[9.6657,1.5756],[9.6223,1.6168],[9.6073,1.6444],[9.6175,1.6715],[9.6763,1.7297],[9.679,1.7335],[9.6848,1.7446],[9.6898,1.7502],[9.7103,1.7639],[9.7181,1.7718],[9.7224,1.7789],[9.731,1.7987],[9.7352,1.8048],[9.7398,1.809],[9.743,1.8157],[9.7468,1.8399],[9.7513,1.8466],[9.756,1.8515],[9.7581,1.8567],[9.7637,1.8661],[9.7991,1.9011],[9.8097,1.935],[9.8058,1.9764],[9.7781,2.0581],[9.7686,2.0768],[9.7655,2.0854],[9.7644,2.0963],[9.7666,2.1069],[9.7713,2.1136],[9.7759,2.1186],[9.7781,2.124],[9.7864,2.2481],[9.7835,2.2707],[9.7749,2.2881],[9.7669,2.3105],[9.7798,2.3279],[9.7996,2.3417]]]}},{"type":"Feature","properties":{"id":"GNQ-1471","name":"Wele-Nzás","nameBn":"ওয়েলে-জাস প্রদেশ","type":"Province","bounds":[10.5174,0.9992,11.3363,1.9956],"center":[10.9267,1.3397]},"geometry":{"type":"Polygon","coordinates":[[[11.332,1.7326],[11.3332,1.5231],[11.3348,1.2612],[11.3363,0.9992],[11.0368,1.0002],[10.9638,1.0004],[10.964,1.0006],[10.9658,1.0032],[10.9797,1.0234],[10.9807,1.0323],[10.9799,1.0431],[10.9741,1.0502],[10.9672,1.0557],[10.9589,1.0598],[10.951,1.0653],[10.942,1.0826],[10.9256,1.1481],[10.9155,1.1685],[10.904,1.1824],[10.8624,1.2013],[10.8502,1.2098],[10.7853,1.2818],[10.7777,1.2976],[10.7755,1.3113],[10.7772,1.3222],[10.7901,1.3537],[10.809,1.385],[10.8503,1.4406],[10.8651,1.4687],[10.8728,1.4805],[10.918,1.5294],[10.9293,1.5375],[10.9648,1.5511],[10.9748,1.5563],[10.981,1.5671],[10.981,1.573],[10.9715,1.5685],[10.9676,1.5661],[10.9627,1.5655],[10.9119,1.574],[10.896,1.5787],[10.8928,1.5819],[10.8911,1.5925],[10.8891,1.5971],[10.8824,1.6003],[10.8753,1.5978],[10.8682,1.5931],[10.8607,1.5899],[10.8485,1.576],[10.8407,1.573],[10.8274,1.5969],[10.8206,1.5948],[10.8126,1.5873],[10.8028,1.5829],[10.793,1.5843],[10.7756,1.5899],[10.7661,1.5907],[10.7545,1.5882],[10.7214,1.5717],[10.6928,1.5626],[10.6663,1.5601],[10.6389,1.5632],[10.6079,1.5712],[10.5749,1.5872],[10.5735,1.6037],[10.585,1.6242],[10.5904,1.6523],[10.5865,1.6634],[10.5742,1.6826],[10.5722,1.6958],[10.5763,1.7101],[10.602,1.7484],[10.6085,1.7668],[10.6141,1.7906],[10.6158,1.8138],[10.6104,1.8302],[10.5432,1.8838],[10.5174,1.9149],[10.629,1.9815],[10.6652,1.9956],[10.6749,1.9949],[10.7024,1.9892],[10.8171,1.9404],[10.8346,1.9349],[10.8601,1.9302],[10.8764,1.9317],[10.89,1.9367],[10.8998,1.9446],[10.9156,1.9614],[10.9256,1.9691],[10.9392,1.9745],[10.9479,1.971],[10.9547,1.963],[10.9591,1.9495],[10.9884,1.7624],[10.9935,1.7502],[11.0019,1.7415],[11.0187,1.7329],[11.0353,1.732],[11.055,1.7343],[11.075,1.7385],[11.097,1.7396],[11.1608,1.7328],[11.1729,1.7346],[11.1843,1.74],[11.2277,1.7465],[11.3316,1.7327],[11.332,1.7326]]]}}]}