{"type":"FeatureCollection","features":[{"type":"Feature","properties":{"id":"HTI-1385","name":"Centre","nameBn":"সেন্টার","type":"Department","bounds":[-72.3652,18.6807,-71.6391,19.3358],"center":[-72.0025,19.029]},"geometry":{"type":"Polygon","coordinates":[[[-71.7495,19.2797],[-71.7165,19.2478],[-71.6517,19.2179],[-71.6391,19.2121],[-71.6437,19.1525],[-71.6488,19.1353],[-71.6614,19.1176],[-71.6953,19.0945],[-71.7104,19.0817],[-71.7403,19.0419],[-71.7837,18.9963],[-71.7968,18.9886],[-71.8481,18.9755],[-71.8654,18.9644],[-71.8625,18.9471],[-71.8445,18.9497],[-71.8197,18.9578],[-71.7963,18.9571],[-71.7871,18.95],[-71.773,18.9217],[-71.7638,18.9115],[-71.7409,18.8916],[-71.7335,18.8826],[-71.7279,18.8641],[-71.7269,18.8235],[-71.7188,18.7842],[-71.7203,18.7654],[-71.7253,18.747],[-71.7321,18.7301],[-71.7441,18.7114],[-71.7581,18.7005],[-71.7849,18.6847],[-71.7918,18.6807],[-71.7921,18.6811],[-71.7988,18.6889],[-71.8367,18.7103],[-71.8785,18.7207],[-71.9121,18.7322],[-71.9462,18.7435],[-72.0267,18.7296],[-72.1059,18.7051],[-72.1821,18.73],[-72.2423,18.7865],[-72.2721,18.806],[-72.3063,18.8142],[-72.3391,18.8338],[-72.3652,18.867],[-72.3184,18.8697],[-72.271,18.8644],[-72.2474,18.8771],[-72.2437,18.908],[-72.2299,18.9406],[-72.2328,18.9671],[-72.2389,19.0171],[-72.2251,19.0679],[-72.2319,19.0975],[-72.2341,19.1218],[-72.2247,19.1431],[-72.2516,19.1685],[-72.2459,19.2409],[-72.2001,19.3019],[-72.1706,19.2921],[-72.1486,19.2714],[-72.1395,19.2583],[-72.1201,19.2601],[-72.0509,19.3009],[-71.9789,19.3358],[-71.9433,19.3158],[-71.9062,19.2998],[-71.8876,19.2849],[-71.8604,19.2813],[-71.8377,19.2771],[-71.8193,19.2784],[-71.7839,19.2755],[-71.75,19.2797],[-71.7495,19.2797]]]}},{"type":"Feature","properties":{"id":"HTI-1359","name":"Grand'Anse","nameBn":"গ্রান্ড'আন্সে","type":"Department","bounds":[-74.4892,18.3601,-73.7146,18.6703],"center":[-74.1273,18.5137]},"geometry":{"type":"MultiPolygon","coordinates":[[[[-73.7965,18.6286],[-73.7727,18.6394],[-73.74,18.6369],[-73.715,18.6235],[-73.7146,18.6013],[-73.7376,18.5882],[-73.7695,18.5884],[-73.7944,18.6019],[-73.7965,18.6286]]],[[[-74.4526,18.361],[-74.4544,18.3648],[-74.4567,18.3843],[-74.4632,18.3982],[-74.4892,18.4294],[-74.4544,18.4778],[-74.4574,18.4818],[-74.4618,18.4914],[-74.4435,18.5038],[-74.4318,18.5501],[-74.4169,18.5604],[-74.4141,18.5656],[-74.4158,18.5773],[-74.4198,18.5898],[-74.4237,18.5976],[-74.4263,18.6082],[-74.4185,18.6175],[-74.3846,18.6363],[-74.3402,18.6534],[-74.3213,18.6566],[-74.2982,18.6512],[-74.288,18.6515],[-74.2838,18.6597],[-74.2788,18.6666],[-74.2677,18.6696],[-74.2559,18.6703],[-74.1998,18.6673],[-74.16,18.6592],[-74.0291,18.6037],[-73.9715,18.6013],[-73.9695,18.5998],[-73.963,18.5928],[-73.9616,18.5908],[-73.9593,18.583],[-73.9537,18.5836],[-73.9468,18.587],[-73.9405,18.5876],[-73.9114,18.5732],[-73.8985,18.5688],[-73.8536,18.5672],[-73.8429,18.5653],[-73.8312,18.5604],[-73.8097,18.5428],[-73.8033,18.5393],[-73.793,18.5385],[-73.7881,18.5413],[-73.7847,18.5449],[-73.7794,18.5467],[-73.7694,18.5452],[-73.7571,18.5394],[-73.7481,18.5393],[-73.742,18.5419],[-73.7394,18.5438],[-73.7394,18.5437],[-73.7477,18.5273],[-73.7651,18.5085],[-73.7602,18.4945],[-73.7437,18.4872],[-73.766,18.4633],[-73.784,18.4247],[-73.816,18.4161],[-73.8479,18.4079],[-73.8711,18.4078],[-73.8942,18.4073],[-73.908,18.3876],[-73.9063,18.3638],[-73.9538,18.3675],[-74.0015,18.3804],[-74.0431,18.3938],[-74.0853,18.4036],[-74.1867,18.3959],[-74.287,18.3764],[-74.3417,18.3653],[-74.3971,18.3601],[-74.4249,18.3651],[-74.4488,18.3627],[-74.4526,18.361]]]]}},{"type":"Feature","properties":{"id":"HTI-1384","name":"L'Artibonite","nameBn":"আর্টিবোনাইট","type":"Department","bounds":[-73.1218,18.8644,-72.2001,19.8108],"center":[-72.5089,19.3089]},"geometry":{"type":"Polygon","coordinates":[[[-72.706,18.9442],[-72.7087,18.9455],[-72.8135,19.0529],[-72.8183,19.0786],[-72.776,19.0948],[-72.7377,19.0972],[-72.7165,19.1039],[-72.7072,19.1186],[-72.7131,19.1374],[-72.7277,19.1472],[-72.7458,19.1538],[-72.7624,19.1631],[-72.773,19.1758],[-72.797,19.216],[-72.8034,19.2319],[-72.7965,19.2366],[-72.7958,19.2383],[-72.7969,19.2403],[-72.796,19.2456],[-72.7862,19.2543],[-72.7752,19.2773],[-72.7686,19.2866],[-72.7577,19.2917],[-72.7418,19.2947],[-72.7257,19.2953],[-72.714,19.2934],[-72.7283,19.3204],[-72.7387,19.3259],[-72.7587,19.3276],[-72.7706,19.3362],[-72.7745,19.3557],[-72.7729,19.3765],[-72.7686,19.389],[-72.7623,19.3828],[-72.754,19.3773],[-72.7444,19.3745],[-72.7345,19.3759],[-72.7235,19.3835],[-72.7229,19.3908],[-72.7264,19.3991],[-72.7281,19.4221],[-72.7306,19.4264],[-72.7283,19.4256],[-72.714,19.4232],[-72.709,19.4202],[-72.702,19.4145],[-72.6924,19.4097],[-72.6798,19.4095],[-72.6991,19.4459],[-72.7092,19.4512],[-72.7609,19.4543],[-72.774,19.4634],[-72.7828,19.4767],[-72.796,19.492],[-72.8148,19.5048],[-72.8785,19.5324],[-72.9315,19.5635],[-72.9505,19.5678],[-72.9669,19.575],[-73.0022,19.6035],[-73.0089,19.605],[-73.0189,19.6007],[-73.0808,19.6224],[-73.0911,19.6235],[-73.1107,19.6281],[-73.1208,19.6291],[-73.1218,19.6318],[-73.1138,19.6864],[-73.0668,19.7333],[-73.0282,19.7368],[-72.9879,19.7274],[-72.9466,19.7242],[-72.9058,19.717],[-72.8303,19.7296],[-72.7682,19.7798],[-72.7472,19.785],[-72.7305,19.7941],[-72.706,19.8108],[-72.6756,19.8068],[-72.6637,19.7826],[-72.6432,19.7673],[-72.6403,19.745],[-72.6187,19.7478],[-72.5979,19.7332],[-72.6073,19.6994],[-72.5948,19.6823],[-72.5706,19.6724],[-72.5568,19.6327],[-72.5403,19.5919],[-72.5126,19.5661],[-72.4824,19.543],[-72.4467,19.529],[-72.4166,19.5381],[-72.4165,19.564],[-72.3966,19.5634],[-72.3782,19.58],[-72.361,19.5815],[-72.3465,19.5745],[-72.3272,19.5652],[-72.3224,19.5017],[-72.2838,19.4678],[-72.2436,19.4491],[-72.2268,19.4134],[-72.232,19.3857],[-72.2272,19.3573],[-72.2105,19.3288],[-72.2001,19.3019],[-72.2459,19.2409],[-72.2516,19.1685],[-72.2247,19.1431],[-72.2341,19.1218],[-72.2319,19.0975],[-72.2251,19.0679],[-72.2389,19.0171],[-72.2328,18.9671],[-72.2299,18.9406],[-72.2437,18.908],[-72.2474,18.8771],[-72.271,18.8644],[-72.3184,18.8697],[-72.3652,18.867],[-72.3886,18.89],[-72.4155,18.9087],[-72.442,18.9188],[-72.4669,18.929],[-72.4769,18.9444],[-72.4877,18.9589],[-72.5125,18.9578],[-72.536,18.9604],[-72.6115,18.9706],[-72.6753,18.9728],[-72.692,18.9612],[-72.706,18.9442]]]}},{"type":"Feature","properties":{"id":"HTI-1360","name":"Nippes","nameBn":"নিপেস","type":"Department","bounds":[-73.784,18.2209,-72.9977,18.5876],"center":[-73.3909,18.4297]},"geometry":{"type":"Polygon","coordinates":[[[-73.7394,18.5438],[-73.7292,18.5509],[-73.7251,18.5529],[-73.7239,18.5553],[-73.7112,18.5703],[-73.7045,18.5735],[-73.6965,18.5738],[-73.6883,18.5731],[-73.6804,18.5734],[-73.6351,18.5859],[-73.6221,18.5876],[-73.5864,18.5792],[-73.5858,18.562],[-73.6061,18.549],[-73.6326,18.5529],[-73.6326,18.5467],[-73.6542,18.5536],[-73.6735,18.5561],[-73.6928,18.554],[-73.7146,18.5467],[-73.708,18.5424],[-73.6914,18.534],[-73.6749,18.5302],[-73.6738,18.5243],[-73.6742,18.5167],[-73.6698,18.5089],[-73.6522,18.5014],[-73.6204,18.5058],[-73.6047,18.4983],[-73.5697,18.5184],[-73.5267,18.5235],[-73.3685,18.5119],[-73.3483,18.5076],[-73.3085,18.4883],[-73.2862,18.484],[-73.2061,18.4868],[-73.167,18.4835],[-73.1317,18.471],[-73.1131,18.4608],[-73.098,18.4553],[-73.0812,18.4542],[-73.0559,18.4585],[-73.0502,18.4473],[-73.0497,18.4352],[-73.0653,18.4102],[-73.063,18.3834],[-73.038,18.3824],[-73.0208,18.3658],[-73.0134,18.3415],[-72.9977,18.3228],[-73.0017,18.2931],[-73.0145,18.2648],[-73.0144,18.2429],[-73.0125,18.2209],[-73.0379,18.254],[-73.046,18.2975],[-73.0779,18.3258],[-73.1159,18.3551],[-73.1401,18.3615],[-73.1628,18.355],[-73.1881,18.3577],[-73.2143,18.3607],[-73.2673,18.3598],[-73.3193,18.3666],[-73.3506,18.3545],[-73.3865,18.3456],[-73.4181,18.3466],[-73.4496,18.3437],[-73.5134,18.334],[-73.5641,18.3463],[-73.5541,18.3678],[-73.5451,18.3851],[-73.5674,18.3958],[-73.5819,18.4128],[-73.5994,18.427],[-73.6267,18.4293],[-73.6588,18.4251],[-73.6814,18.407],[-73.6984,18.4123],[-73.7184,18.4219],[-73.7516,18.4204],[-73.784,18.4247],[-73.766,18.4633],[-73.7437,18.4872],[-73.7602,18.4945],[-73.7651,18.5085],[-73.7477,18.5273],[-73.7394,18.5437],[-73.7394,18.5438]]]}},{"type":"Feature","properties":{"id":"HTI-1387","name":"Nord","nameBn":"নর্ড","type":"Department","bounds":[-72.6758,19.2583,-71.9789,19.8757],"center":[-72.3274,19.6412]},"geometry":{"type":"Polygon","coordinates":[[[-72.5652,19.8757],[-72.5443,19.8513],[-72.5176,19.8341],[-72.4897,19.8247],[-72.4744,19.8341],[-72.4562,19.8249],[-72.4259,19.8138],[-72.3976,19.807],[-72.3851,19.8105],[-72.3787,19.7947],[-72.3304,19.7521],[-72.3304,19.7458],[-72.3352,19.7479],[-72.3509,19.7521],[-72.3382,19.723],[-72.3339,19.7186],[-72.3162,19.7148],[-72.3124,19.7161],[-72.3162,19.7248],[-72.3031,19.7391],[-72.3064,19.7392],[-72.3129,19.7388],[-72.3162,19.7391],[-72.3159,19.7403],[-72.3138,19.7445],[-72.3114,19.7478],[-72.3099,19.7458],[-72.3099,19.7521],[-72.3122,19.7552],[-72.3162,19.7657],[-72.3099,19.7657],[-72.2951,19.758],[-72.2746,19.7563],[-72.2564,19.7619],[-72.2484,19.7766],[-72.2384,19.7864],[-72.2187,19.7869],[-72.2052,19.7762],[-72.2137,19.7521],[-72.1968,19.7425],[-72.1804,19.7409],[-72.1409,19.7475],[-72.1374,19.7472],[-72.1318,19.7458],[-72.1249,19.7414],[-72.1105,19.7277],[-72.1008,19.7248],[-72.0663,19.7248],[-72.0582,19.7226],[-72.0538,19.718],[-72.0506,19.7133],[-72.0479,19.712],[-72.0527,19.7026],[-72.0565,19.6951],[-72.061,19.6565],[-72.0823,19.6269],[-72.0984,19.6237],[-72.1105,19.6161],[-72.1098,19.6024],[-72.1137,19.5897],[-72.1107,19.5661],[-72.0973,19.5425],[-72.087,19.513],[-72.07,19.4869],[-72.0731,19.4604],[-72.083,19.4457],[-72.0646,19.4409],[-72.046,19.4358],[-71.9955,19.3873],[-71.9789,19.3358],[-72.0509,19.3009],[-72.1201,19.2601],[-72.1395,19.2583],[-72.1486,19.2714],[-72.1706,19.2921],[-72.2001,19.3019],[-72.2105,19.3288],[-72.2272,19.3573],[-72.232,19.3857],[-72.2268,19.4134],[-72.2436,19.4491],[-72.2838,19.4678],[-72.3224,19.5017],[-72.3272,19.5652],[-72.3465,19.5745],[-72.361,19.5815],[-72.3782,19.58],[-72.3966,19.5634],[-72.4165,19.564],[-72.4166,19.5381],[-72.4467,19.529],[-72.4824,19.543],[-72.5126,19.5661],[-72.5403,19.5919],[-72.5568,19.6327],[-72.5706,19.6724],[-72.5948,19.6823],[-72.6073,19.6994],[-72.5979,19.7332],[-72.6187,19.7478],[-72.6403,19.745],[-72.6432,19.7673],[-72.6637,19.7826],[-72.6756,19.8068],[-72.6758,19.8128],[-72.6725,19.8248],[-72.6586,19.8284],[-72.6426,19.8244],[-72.6327,19.8185],[-72.6221,19.8172],[-72.609,19.8281],[-72.5979,19.838],[-72.5896,19.8441],[-72.5832,19.8562],[-72.5732,19.8703],[-72.5652,19.8757]]]}},{"type":"Feature","properties":{"id":"HTI-1386","name":"Nord-Est","nameBn":"নর্ড-এস্ট","type":"Department","bounds":[-72.1137,19.2755,-71.7032,19.7323],"center":[-71.9088,19.4929]},"geometry":{"type":"Polygon","coordinates":[[[-71.7574,19.7101],[-71.7486,19.6826],[-71.745,19.6649],[-71.746,19.649],[-71.7477,19.6228],[-71.7431,19.6001],[-71.7151,19.5375],[-71.7032,19.4593],[-71.7039,19.4146],[-71.7153,19.3917],[-71.7208,19.386],[-71.7335,19.3555],[-71.743,19.3484],[-71.77,19.3338],[-71.7765,19.3275],[-71.7716,19.3076],[-71.7537,19.2838],[-71.7495,19.2797],[-71.75,19.2797],[-71.7839,19.2755],[-71.8193,19.2784],[-71.8377,19.2771],[-71.8604,19.2813],[-71.8876,19.2849],[-71.9062,19.2998],[-71.9433,19.3158],[-71.9789,19.3358],[-71.9955,19.3873],[-72.046,19.4358],[-72.0646,19.4409],[-72.083,19.4457],[-72.0731,19.4604],[-72.07,19.4869],[-72.087,19.513],[-72.0973,19.5425],[-72.1107,19.5661],[-72.1137,19.5897],[-72.1098,19.6024],[-72.1105,19.6161],[-72.0984,19.6237],[-72.0823,19.6269],[-72.061,19.6565],[-72.0565,19.6951],[-72.0527,19.7026],[-72.0479,19.712],[-72.0412,19.709],[-72.0277,19.6996],[-72.0185,19.6975],[-72.0108,19.7009],[-72.0057,19.7083],[-71.9993,19.7156],[-71.9879,19.7186],[-71.9689,19.7323],[-71.9405,19.7321],[-71.8916,19.7186],[-71.8647,19.7151],[-71.8576,19.71],[-71.8636,19.6975],[-71.8723,19.6921],[-71.8842,19.6903],[-71.9121,19.6906],[-71.9016,19.6723],[-71.8843,19.6704],[-71.8655,19.6754],[-71.8507,19.6776],[-71.8326,19.6633],[-71.8214,19.6567],[-71.8165,19.6599],[-71.8111,19.6736],[-71.8133,19.6807],[-71.8354,19.6862],[-71.8424,19.6923],[-71.846,19.7011],[-71.8444,19.7111],[-71.8367,19.7174],[-71.8253,19.7166],[-71.7994,19.7111],[-71.7574,19.7101]]]}},{"type":"Feature","properties":{"id":"HTI-1361","name":"Nord-Ouest","nameBn":"নর্ড-কুয়েস্ট","type":"Department","bounds":[-73.4681,19.6149,-72.5652,20.0898],"center":[-73.0166,19.8257]},"geometry":{"type":"MultiPolygon","coordinates":[[[[-72.8506,20.0885],[-72.8217,20.0898],[-72.8024,20.0872],[-72.7851,20.08],[-72.7624,20.0674],[-72.6678,20.0323],[-72.6276,20.0082],[-72.6389,19.9848],[-72.6551,19.9914],[-72.7399,20.0024],[-72.7792,20.017],[-72.8277,20.0273],[-72.8443,20.0345],[-72.8558,20.0324],[-72.8677,20.0282],[-72.8785,20.0264],[-72.8994,20.0304],[-72.9239,20.0382],[-72.9461,20.0488],[-72.9604,20.0612],[-72.956,20.0612],[-72.9532,20.0625],[-72.9474,20.0674],[-72.9011,20.082],[-72.8506,20.0885]]],[[[-73.1208,19.6291],[-73.1221,19.6292],[-73.1272,19.6269],[-73.1318,19.6221],[-73.1384,19.6171],[-73.1491,19.6149],[-73.1639,19.6184],[-73.186,19.6271],[-73.2076,19.6384],[-73.2211,19.6496],[-73.2413,19.631],[-73.2843,19.6257],[-73.3795,19.6303],[-73.3984,19.635],[-73.4095,19.636],[-73.4166,19.6403],[-73.4342,19.6591],[-73.444,19.6633],[-73.4578,19.6722],[-73.4634,19.6921],[-73.4652,19.7131],[-73.4681,19.7248],[-73.4324,19.779],[-73.4272,19.7903],[-73.4173,19.7905],[-73.3651,19.8135],[-73.3651,19.821],[-73.4203,19.821],[-73.4042,19.8325],[-73.3851,19.8344],[-73.3647,19.8328],[-73.3446,19.8341],[-73.2228,19.8869],[-73.1871,19.9114],[-73.1671,19.9377],[-73.1551,19.924],[-73.1437,19.9203],[-73.1153,19.9234],[-73.1007,19.9214],[-73.0743,19.9123],[-73.0604,19.9103],[-73.0485,19.9106],[-73.0418,19.9115],[-73.0218,19.9166],[-73.0071,19.9184],[-72.9918,19.9172],[-72.9779,19.9123],[-72.9673,19.9029],[-72.9601,19.9184],[-72.9413,19.928],[-72.9183,19.9302],[-72.899,19.9234],[-72.8723,19.9338],[-72.8404,19.9416],[-72.8071,19.9456],[-72.776,19.9439],[-72.674,19.9214],[-72.6488,19.9066],[-72.628,19.8973],[-72.5687,19.8799],[-72.5652,19.8757],[-72.5732,19.8703],[-72.5832,19.8562],[-72.5896,19.8441],[-72.5979,19.838],[-72.609,19.8281],[-72.6221,19.8172],[-72.6327,19.8185],[-72.6426,19.8244],[-72.6586,19.8284],[-72.6725,19.8248],[-72.6758,19.8128],[-72.6756,19.8068],[-72.706,19.8108],[-72.7305,19.7941],[-72.7472,19.785],[-72.7682,19.7798],[-72.8303,19.7296],[-72.9058,19.717],[-72.9466,19.7242],[-72.9879,19.7274],[-73.0282,19.7368],[-73.0668,19.7333],[-73.1138,19.6864],[-73.1218,19.6318],[-73.1208,19.6291]]]]}},{"type":"Feature","properties":{"id":"HTI-1388","name":"Ouest","nameBn":"আউয়েস্ট","type":"Department","bounds":[-73.2996,18.263,-71.7093,18.9728],"center":[-72.2399,18.5501]},"geometry":{"type":"MultiPolygon","coordinates":[[[[-71.7918,18.6807],[-71.7943,18.6792],[-71.808,18.6647],[-71.8286,18.6313],[-71.8416,18.618],[-71.8803,18.6054],[-71.9555,18.6186],[-71.9926,18.6111],[-72.0098,18.5988],[-72.0009,18.5825],[-71.9105,18.4943],[-71.9041,18.4848],[-71.9016,18.4698],[-71.9069,18.4643],[-71.9144,18.4602],[-71.9182,18.4492],[-71.9122,18.4307],[-71.8972,18.4229],[-71.8582,18.4136],[-71.8497,18.4064],[-71.8346,18.3851],[-71.8264,18.3762],[-71.7887,18.3522],[-71.735,18.3329],[-71.7207,18.324],[-71.7115,18.3161],[-71.7093,18.3133],[-71.7211,18.294],[-71.7221,18.2938],[-71.8095,18.2794],[-71.8613,18.31],[-71.9287,18.315],[-72.0127,18.314],[-72.0992,18.3326],[-72.1861,18.3496],[-72.2713,18.3446],[-72.3541,18.3493],[-72.3679,18.364],[-72.38,18.3799],[-72.409,18.3778],[-72.428,18.387],[-72.4543,18.3993],[-72.4903,18.4015],[-72.5234,18.3867],[-72.5482,18.3585],[-72.5582,18.3512],[-72.5703,18.3508],[-72.5949,18.3408],[-72.618,18.3381],[-72.6313,18.3365],[-72.6426,18.3273],[-72.6618,18.3249],[-72.6812,18.3242],[-72.6928,18.3146],[-72.7038,18.3048],[-72.7212,18.3072],[-72.7369,18.3153],[-72.7396,18.301],[-72.745,18.2885],[-72.7572,18.2794],[-72.765,18.2653],[-72.7981,18.2733],[-72.8321,18.2842],[-72.849,18.2745],[-72.8603,18.263],[-72.8818,18.2734],[-72.8931,18.2891],[-72.9079,18.2899],[-72.9235,18.2909],[-72.9501,18.2853],[-72.9713,18.2826],[-72.9833,18.3046],[-72.9977,18.3228],[-73.0134,18.3415],[-73.0208,18.3658],[-73.038,18.3824],[-73.063,18.3834],[-73.0653,18.4102],[-73.0497,18.4352],[-73.0502,18.4473],[-73.0559,18.4585],[-72.9856,18.4704],[-72.899,18.4505],[-72.9042,18.4341],[-72.8851,18.4377],[-72.8583,18.4467],[-72.8406,18.4468],[-72.826,18.4408],[-72.755,18.4294],[-72.7165,18.4377],[-72.6893,18.4597],[-72.6693,18.4905],[-72.6526,18.5256],[-72.6283,18.5541],[-72.5965,18.5609],[-72.4298,18.5467],[-72.4237,18.5488],[-72.4211,18.5535],[-72.4195,18.5583],[-72.4161,18.5604],[-72.4098,18.5591],[-72.4069,18.5566],[-72.4049,18.5541],[-72.4018,18.5529],[-72.381,18.5307],[-72.3714,18.5256],[-72.3538,18.5301],[-72.3457,18.5469],[-72.3434,18.5701],[-72.3451,18.631],[-72.3434,18.6423],[-72.3364,18.6558],[-72.3287,18.6639],[-72.3251,18.6714],[-72.3304,18.6833],[-72.3394,18.6894],[-72.3851,18.7106],[-72.3974,18.7126],[-72.4217,18.7134],[-72.4335,18.7168],[-72.4537,18.7333],[-72.4718,18.7541],[-72.4911,18.7685],[-72.5154,18.7658],[-72.5495,18.7856],[-72.5581,18.7946],[-72.5665,18.8136],[-72.6178,18.8894],[-72.6319,18.9031],[-72.652,18.9186],[-72.673,18.9313],[-72.6901,18.9365],[-72.706,18.9442],[-72.692,18.9612],[-72.6753,18.9728],[-72.6115,18.9706],[-72.536,18.9604],[-72.5125,18.9578],[-72.4877,18.9589],[-72.4769,18.9444],[-72.4669,18.929],[-72.442,18.9188],[-72.4155,18.9087],[-72.3886,18.89],[-72.3652,18.867],[-72.3391,18.8338],[-72.3063,18.8142],[-72.2721,18.806],[-72.2423,18.7865],[-72.1821,18.73],[-72.1059,18.7051],[-72.0267,18.7296],[-71.9462,18.7435],[-71.9121,18.7322],[-71.8785,18.7207],[-71.8367,18.7103],[-71.7988,18.6889],[-71.7921,18.6811],[-71.7918,18.6807]]],[[[-73.2587,18.8785],[-73.2773,18.8911],[-73.2826,18.8955],[-73.2899,18.9042],[-73.2965,18.9145],[-73.2996,18.9255],[-73.2962,18.9365],[-73.2838,18.9497],[-73.2663,18.9608],[-73.246,18.9684],[-73.2245,18.9713],[-73.2008,18.9687],[-73.0619,18.9133],[-72.9934,18.892],[-72.9172,18.8555],[-72.8461,18.8271],[-72.817,18.7931],[-72.8095,18.7715],[-72.8059,18.7457],[-72.8087,18.7204],[-72.8205,18.7007],[-72.8311,18.6964],[-72.8382,18.7026],[-72.8472,18.7205],[-72.8557,18.7277],[-72.8634,18.7296],[-72.8859,18.731],[-72.975,18.7499],[-73.0054,18.7521],[-73.0374,18.7596],[-73.1256,18.8136],[-73.2146,18.8366],[-73.2385,18.8515],[-73.2587,18.8785]]]]}},{"type":"Feature","properties":{"id":"HTI-1362","name":"Sud","nameBn":"সুদ","type":"Department","bounds":[-74.4526,18.0259,-73.0069,18.4293],"center":[-73.7855,18.2929]},"geometry":{"type":"MultiPolygon","coordinates":[[[[-73.6289,18.0942],[-73.612,18.0932],[-73.5923,18.0893],[-73.578,18.0811],[-73.578,18.067],[-73.5904,18.0594],[-73.6108,18.0576],[-73.6497,18.0595],[-73.6672,18.0631],[-73.6825,18.072],[-73.7077,18.0942],[-73.7045,18.1042],[-73.6999,18.1083],[-73.6942,18.1069],[-73.6879,18.1005],[-73.6764,18.1081],[-73.6709,18.1054],[-73.6669,18.0986],[-73.66,18.0942],[-73.6289,18.0942]]],[[[-73.008,18.1811],[-73.0908,18.1898],[-73.1173,18.1886],[-73.1256,18.1898],[-73.1547,18.2075],[-73.1634,18.2104],[-73.2962,18.2308],[-73.3559,18.2249],[-73.3651,18.2274],[-73.3599,18.2404],[-73.3466,18.2453],[-73.3105,18.2451],[-73.3105,18.2513],[-73.3773,18.2581],[-73.4582,18.2575],[-73.4818,18.2513],[-73.514,18.2331],[-73.5262,18.2308],[-73.5342,18.2348],[-73.5428,18.2531],[-73.5501,18.2587],[-73.5635,18.251],[-73.5707,18.2315],[-73.5781,18.2169],[-73.5917,18.2239],[-73.5979,18.2239],[-73.6097,18.2168],[-73.6196,18.2219],[-73.624,18.2348],[-73.619,18.2513],[-73.6332,18.2473],[-73.6456,18.2211],[-73.66,18.2104],[-73.6593,18.2238],[-73.656,18.2358],[-73.6463,18.2587],[-73.6542,18.2527],[-73.6654,18.2385],[-73.6736,18.2308],[-73.6744,18.2332],[-73.6802,18.2354],[-73.691,18.2376],[-73.6946,18.2359],[-73.6942,18.2319],[-73.693,18.2274],[-73.6941,18.2239],[-73.7378,18.1907],[-73.8093,18.1592],[-73.8275,18.142],[-73.8449,18.1147],[-73.8028,18.0719],[-73.7965,18.0563],[-73.7914,18.0367],[-73.7938,18.029],[-73.807,18.0259],[-73.8733,18.0262],[-73.883,18.0277],[-73.8927,18.0322],[-73.9,18.0391],[-73.9038,18.0539],[-73.9678,18.1414],[-73.9709,18.1437],[-73.9785,18.1469],[-73.982,18.1489],[-73.9856,18.1527],[-73.9864,18.1557],[-73.9869,18.1589],[-73.9896,18.1632],[-74.0082,18.1798],[-74.1051,18.2476],[-74.1224,18.2557],[-74.1529,18.2606],[-74.1658,18.2656],[-74.1767,18.2732],[-74.1813,18.2826],[-74.1834,18.2933],[-74.1891,18.2965],[-74.1976,18.2971],[-74.208,18.2997],[-74.2338,18.3093],[-74.2422,18.314],[-74.2489,18.3065],[-74.2678,18.313],[-74.2878,18.3049],[-74.3089,18.2925],[-74.3309,18.286],[-74.3494,18.2897],[-74.3722,18.2985],[-74.3916,18.3088],[-74.3998,18.3171],[-74.4083,18.3283],[-74.4459,18.3464],[-74.4526,18.361],[-74.4488,18.3627],[-74.4249,18.3651],[-74.3971,18.3601],[-74.3417,18.3653],[-74.287,18.3764],[-74.1867,18.3959],[-74.0853,18.4036],[-74.0431,18.3938],[-74.0015,18.3804],[-73.9538,18.3675],[-73.9063,18.3638],[-73.908,18.3876],[-73.8942,18.4073],[-73.8711,18.4078],[-73.8479,18.4079],[-73.816,18.4161],[-73.784,18.4247],[-73.7516,18.4204],[-73.7184,18.4219],[-73.6984,18.4123],[-73.6814,18.407],[-73.6588,18.4251],[-73.6267,18.4293],[-73.5994,18.427],[-73.5819,18.4128],[-73.5674,18.3958],[-73.5451,18.3851],[-73.5541,18.3678],[-73.5641,18.3463],[-73.5134,18.334],[-73.4496,18.3437],[-73.4181,18.3466],[-73.3865,18.3456],[-73.3506,18.3545],[-73.3193,18.3666],[-73.2673,18.3598],[-73.2143,18.3607],[-73.1881,18.3577],[-73.1628,18.355],[-73.1401,18.3615],[-73.1159,18.3551],[-73.0779,18.3258],[-73.046,18.2975],[-73.0379,18.254],[-73.0125,18.2209],[-73.0101,18.2034],[-73.0069,18.186],[-73.008,18.1811]]]]}},{"type":"Feature","properties":{"id":"HTI-1389","name":"Sud-Est","nameBn":"সাদ- ইস্ট","type":"Department","bounds":[-73.0145,18.0393,-71.7211,18.4015],"center":[-72.3683,18.2947]},"geometry":{"type":"Polygon","coordinates":[[[-71.7211,18.294],[-71.7217,18.293],[-71.7661,18.2203],[-71.774,18.2015],[-71.7768,18.1818],[-71.7753,18.1723],[-71.7646,18.1437],[-71.7622,18.1325],[-71.7629,18.1158],[-71.7607,18.0868],[-71.7643,18.0695],[-71.7762,18.0393],[-71.7926,18.0499],[-71.8625,18.1365],[-71.893,18.1628],[-71.9281,18.1838],[-72.0067,18.2095],[-72.0393,18.2257],[-72.0718,18.2375],[-72.1107,18.2376],[-72.1905,18.2248],[-72.2945,18.2258],[-72.4403,18.2239],[-72.5188,18.2104],[-72.5389,18.2204],[-72.5509,18.2248],[-72.5563,18.2209],[-72.5495,18.1824],[-72.559,18.1726],[-72.5707,18.1723],[-72.598,18.1824],[-72.6133,18.185],[-72.7309,18.1747],[-72.755,18.1762],[-72.753,18.1716],[-72.7501,18.1603],[-72.7482,18.1557],[-72.763,18.1567],[-72.769,18.1583],[-72.776,18.1632],[-72.8037,18.1461],[-72.8589,18.1513],[-72.8859,18.1414],[-72.9122,18.1559],[-72.9475,18.1691],[-72.9853,18.1787],[-73.008,18.1811],[-73.0069,18.186],[-73.0101,18.2034],[-73.0125,18.2209],[-73.0144,18.2429],[-73.0145,18.2648],[-73.0017,18.2931],[-72.9977,18.3228],[-72.9833,18.3046],[-72.9713,18.2826],[-72.9501,18.2853],[-72.9235,18.2909],[-72.9079,18.2899],[-72.8931,18.2891],[-72.8818,18.2734],[-72.8603,18.263],[-72.849,18.2745],[-72.8321,18.2842],[-72.7981,18.2733],[-72.765,18.2653],[-72.7572,18.2794],[-72.745,18.2885],[-72.7396,18.301],[-72.7369,18.3153],[-72.7212,18.3072],[-72.7038,18.3048],[-72.6928,18.3146],[-72.6812,18.3242],[-72.6618,18.3249],[-72.6426,18.3273],[-72.6313,18.3365],[-72.618,18.3381],[-72.5949,18.3408],[-72.5703,18.3508],[-72.5582,18.3512],[-72.5482,18.3585],[-72.5234,18.3867],[-72.4903,18.4015],[-72.4543,18.3993],[-72.428,18.387],[-72.409,18.3778],[-72.38,18.3799],[-72.3679,18.364],[-72.3541,18.3493],[-72.2713,18.3446],[-72.1861,18.3496],[-72.0992,18.3326],[-72.0127,18.314],[-71.9287,18.315],[-71.8613,18.31],[-71.8095,18.2794],[-71.7221,18.2938],[-71.7211,18.294]]]}}]}