{"type":"FeatureCollection","features":[{"type":"Feature","properties":{"id":"IOA-2652","name":"Christmas Island","nameBn":"ক্রিসমাস দ্বীপমালা","type":null,"bounds":[105.5818,-10.566,105.7147,-10.4308],"center":[105.648,-10.4913]},"geometry":{"type":"Polygon","coordinates":[[[105.7041,-10.4308],[105.7147,-10.4372],[105.7127,-10.4509],[105.7114,-10.4699],[105.7063,-10.4942],[105.7063,-10.5143],[105.6979,-10.529],[105.6999,-10.5534],[105.6946,-10.5649],[105.6787,-10.566],[105.6735,-10.5491],[105.6672,-10.5333],[105.6641,-10.5185],[105.6493,-10.5131],[105.6282,-10.509],[105.605,-10.51],[105.585,-10.5164],[105.5818,-10.5048],[105.5923,-10.4985],[105.5996,-10.4806],[105.5942,-10.4667],[105.5942,-10.454],[105.6072,-10.4584],[105.6271,-10.4689],[105.6546,-10.4699],[105.6693,-10.4562],[105.6852,-10.4404],[105.7041,-10.4308]]]}},{"type":"Feature","properties":{"id":"IOA-1928","name":"Cocos (Keeling) Islands","nameBn":"কোকোস","type":"Province","bounds":[96.8215,-12.2,96.9211,-12.1266],"center":[96.905,-12.1915]},"geometry":{"type":"MultiPolygon","coordinates":[[[[96.8631,-12.1817],[96.8694,-12.1879],[96.8452,-12.1977],[96.8306,-12.1799],[96.8234,-12.151],[96.8215,-12.1266],[96.8284,-12.1266],[96.8284,-12.1363],[96.8298,-12.1445],[96.8352,-12.1606],[96.8313,-12.1715],[96.8362,-12.1821],[96.8477,-12.1872],[96.8631,-12.1817]]],[[[96.9022,-12.2],[96.8923,-12.1959],[96.8897,-12.1928],[96.8885,-12.1874],[96.9001,-12.1868],[96.909,-12.1821],[96.9146,-12.1735],[96.9162,-12.1618],[96.9211,-12.1735],[96.9202,-12.185],[96.9139,-12.1945],[96.9022,-12.2]]]]}}]}