{"type":"FeatureCollection","features":[{"type":"Feature","properties":{"id":"JOR-855","name":"Ajlun","nameBn":"আজলুন গভর্নোরেট","type":"Province","bounds":[35.6167,32.1562,35.9053,32.402],"center":[35.761,32.2932]},"geometry":{"type":"Polygon","coordinates":[[[35.6948,32.1562],[35.6687,32.1607],[35.6518,32.1666],[35.6355,32.1838],[35.64,32.1938],[35.6408,32.1997],[35.6383,32.2083],[35.6245,32.2353],[35.6184,32.2515],[35.6167,32.2668],[35.6321,32.3293],[35.6391,32.3448],[35.6489,32.3554],[35.6631,32.3605],[35.6805,32.3617],[35.7057,32.3602],[35.7297,32.366],[35.7601,32.3802],[35.7766,32.383],[35.8056,32.3816],[35.8219,32.3837],[35.8338,32.3896],[35.8409,32.3981],[35.8481,32.402],[35.8548,32.3994],[35.8591,32.3864],[35.8641,32.3782],[35.8838,32.3646],[35.9053,32.3389],[35.8841,32.329],[35.8732,32.325],[35.8577,32.3162],[35.8419,32.3029],[35.825,32.2803],[35.818,32.2638],[35.8152,32.2499],[35.816,32.2404],[35.8137,32.2315],[35.8047,32.2227],[35.7365,32.1965],[35.6948,32.1562]]]}},{"type":"Feature","properties":{"id":"JOR-851","name":"Amman","nameBn":"আম্মান গভর্নোরেট","type":"Province","bounds":[35.6617,31.2473,37.2217,32.0458],"center":[36.4418,31.6211]},"geometry":{"type":"Polygon","coordinates":[[[36.9979,31.5008],[36.9595,31.491],[37.0897,31.3701],[37.2198,31.2491],[37.2217,31.2473],[36.1518,31.2486],[35.8492,31.2549],[35.8392,31.2625],[35.8357,31.2746],[35.8382,31.294],[35.8419,31.3082],[35.8499,31.3281],[35.8518,31.3371],[35.8492,31.3502],[35.8423,31.3692],[35.818,31.4059],[35.8289,31.4148],[35.8349,31.4188],[35.8425,31.4256],[35.8468,31.4321],[35.8639,31.4774],[35.8706,31.4883],[35.8844,31.5054],[35.8875,31.5117],[35.8856,31.5179],[35.8777,31.5245],[35.8718,31.5307],[35.8709,31.5386],[35.8743,31.5458],[35.8751,31.5553],[35.8691,31.568],[35.8256,31.6081],[35.8182,31.6238],[35.8104,31.6495],[35.8089,31.6592],[35.8102,31.6679],[35.8152,31.6756],[35.8324,31.6932],[35.8383,31.7024],[35.8405,31.7118],[35.8382,31.7842],[35.831,31.7899],[35.8244,31.7908],[35.8118,31.7864],[35.7964,31.7831],[35.7459,31.783],[35.7083,31.7747],[35.7102,31.7925],[35.7125,31.8031],[35.7252,31.8337],[35.7235,31.8422],[35.7177,31.8476],[35.6948,31.8508],[35.6816,31.8541],[35.6709,31.8588],[35.6639,31.8657],[35.6617,31.8749],[35.6687,31.8859],[35.6837,31.8974],[35.7419,31.9228],[35.7669,31.9383],[35.812,31.9837],[35.8268,31.9942],[35.8649,32.0041],[35.8805,32.0116],[35.9117,32.0376],[35.9412,32.0458],[35.9641,32.0202],[35.9882,32.0013],[36.0219,31.9663],[36.0413,31.9545],[36.0545,31.951],[36.074,31.9605],[36.0863,31.9627],[36.1024,31.9639],[36.1515,31.9772],[36.2159,31.9768],[36.2365,31.9801],[36.2494,31.9869],[36.2685,32.0066],[36.2804,32.0154],[36.3017,32.0193],[36.4075,32.0115],[36.4285,32.0035],[36.4491,31.9887],[36.5059,31.9356],[36.5346,31.9038],[36.5363,31.888],[36.5271,31.8758],[36.499,31.8608],[36.4766,31.8452],[36.4689,31.8362],[36.4675,31.8269],[36.4738,31.8159],[36.5007,31.7897],[36.5456,31.754],[36.5891,31.7286],[36.6123,31.7211],[36.6311,31.7216],[36.6786,31.7466],[36.6957,31.7506],[36.7143,31.7469],[36.9944,31.5025],[36.9975,31.501],[36.9979,31.5008]]]}},{"type":"Feature","properties":{"id":"JOR-849","name":"Aqaba","nameBn":"আকাবা গভর্নোরেট","type":"Province","bounds":[34.9494,29.2317,35.7403,30.72],"center":[35.3449,29.6276]},"geometry":{"type":"Polygon","coordinates":[[[34.9556,29.559],[34.9599,29.5862],[34.967,29.6081],[34.9803,29.627],[34.9898,29.652],[34.9951,29.7082],[35.0025,29.7331],[35.049,29.8423],[35.0532,29.8626],[35.0541,29.9234],[35.0615,29.9573],[35.0654,29.966],[35.0703,29.9737],[35.0741,29.9826],[35.0747,29.9946],[35.0863,30.034],[35.129,30.0897],[35.1453,30.1234],[35.1453,30.1549],[35.1248,30.2161],[35.1252,30.2447],[35.1324,30.2619],[35.1418,30.314],[35.1478,30.3265],[35.1545,30.3368],[35.16,30.3475],[35.1621,30.3614],[35.1593,30.3756],[35.145,30.3959],[35.14,30.4062],[35.14,30.4302],[35.1574,30.4709],[35.1621,30.4947],[35.2053,30.6171],[35.2638,30.7198],[35.2639,30.72],[35.2789,30.7101],[35.3472,30.6678],[35.3626,30.6608],[35.3756,30.6507],[35.3875,30.6328],[35.3998,30.619],[35.4139,30.6129],[35.4253,30.6093],[35.448,30.6085],[35.4423,30.546],[35.4218,30.4668],[35.3775,30.345],[35.3795,30.2324],[35.3714,30.2032],[35.3129,30.1031],[35.3014,30.0534],[35.2991,30.0271],[35.3038,30.0083],[35.309,29.9985],[35.3168,29.987],[35.3259,29.9766],[35.3382,29.9667],[35.3519,29.9597],[35.3683,29.955],[35.3843,29.9544],[35.3992,29.9561],[35.4121,29.9601],[35.4249,29.9624],[35.4507,29.9631],[35.4805,29.958],[35.4991,29.9519],[35.5187,29.9425],[35.5381,29.9277],[35.5561,29.911],[35.5709,29.8909],[35.6235,29.7874],[35.6884,29.5572],[35.7379,29.2406],[35.7402,29.232],[35.7403,29.2317],[35.622,29.2497],[35.4736,29.2721],[35.3346,29.2931],[35.1791,29.3167],[35.0603,29.3347],[34.9494,29.3517],[34.9624,29.3598],[34.969,29.4508],[34.9761,29.477],[34.9978,29.518],[34.9968,29.5339],[34.9761,29.5522],[34.9624,29.5522],[34.9616,29.5554],[34.9616,29.5581],[34.9602,29.5595],[34.9556,29.559]]]}},{"type":"Feature","properties":{"id":"JOR-857","name":"Balqa","nameBn":"বাল্কা গভর্নোরেট","type":"Province","bounds":[35.5025,31.6808,35.9412,32.1909],"center":[35.7216,31.8345]},"geometry":{"type":"Polygon","coordinates":[[[35.5025,31.6854],[35.5276,31.7351],[35.5594,31.7653],[35.5383,31.8193],[35.5383,31.8267],[35.5491,31.8392],[35.5247,31.9192],[35.5275,31.9274],[35.5337,31.9303],[35.5406,31.932],[35.5451,31.9366],[35.5459,31.9446],[35.54,31.9556],[35.5383,31.9639],[35.5377,31.9776],[35.5355,31.9882],[35.5247,32.0117],[35.5228,32.0578],[35.5283,32.0751],[35.5451,32.0868],[35.5346,32.0992],[35.5352,32.1108],[35.552,32.1352],[35.5467,32.1416],[35.5467,32.147],[35.5512,32.1515],[35.5594,32.1551],[35.5594,32.1625],[35.5552,32.1744],[35.5596,32.1904],[35.566,32.1909],[35.6355,32.1838],[35.6518,32.1666],[35.6687,32.1607],[35.6948,32.1562],[35.6962,32.1478],[35.7064,32.1446],[35.7198,32.1435],[35.8067,32.1454],[35.8264,32.1422],[35.8403,32.1371],[35.8516,32.1274],[35.8591,32.119],[35.8959,32.0957],[35.9016,32.0699],[35.9067,32.0647],[35.9148,32.0582],[35.9217,32.0557],[35.9412,32.0458],[35.9117,32.0376],[35.8805,32.0116],[35.8649,32.0041],[35.8268,31.9942],[35.812,31.9837],[35.7669,31.9383],[35.7419,31.9228],[35.6837,31.8974],[35.6687,31.8859],[35.6617,31.8749],[35.6639,31.8657],[35.6709,31.8588],[35.6816,31.8541],[35.6948,31.8508],[35.7177,31.8476],[35.7235,31.8422],[35.7252,31.8337],[35.7125,31.8031],[35.7102,31.7925],[35.7083,31.7747],[35.6954,31.7681],[35.6687,31.7661],[35.6563,31.7628],[35.6442,31.756],[35.6382,31.7492],[35.6265,31.7223],[35.6101,31.6969],[35.5975,31.6865],[35.5835,31.6808],[35.5148,31.6841],[35.5025,31.6854]]]}},{"type":"Feature","properties":{"id":"JOR-854","name":"Irbid","nameBn":"ইরবিদ গভর্নোরেট","type":"Province","bounds":[35.5451,32.1838,36.0942,32.7481],"center":[35.8195,32.5559]},"geometry":{"type":"Polygon","coordinates":[[[35.5744,32.5544],[35.5758,32.555],[35.58,32.5604],[35.5744,32.5728],[35.5713,32.5986],[35.5656,32.6075],[35.5656,32.615],[35.5725,32.615],[35.5725,32.6212],[35.5641,32.6255],[35.56,32.6327],[35.5605,32.6409],[35.5627,32.6442],[35.5698,32.6468],[35.5787,32.6534],[35.5938,32.6704],[35.6123,32.6816],[35.6123,32.6815],[35.636,32.6791],[35.652,32.6862],[35.6852,32.7112],[35.7402,32.7405],[35.7574,32.7443],[35.7576,32.7443],[35.7638,32.747],[35.7697,32.7481],[35.7749,32.7473],[35.7791,32.7445],[35.779,32.7444],[35.779,32.7443],[35.7882,32.7344],[35.8957,32.7133],[35.9052,32.7086],[35.9225,32.6938],[35.9275,32.6924],[35.9404,32.6925],[35.9442,32.6908],[35.9457,32.6841],[35.9444,32.6776],[35.9412,32.6735],[35.9375,32.674],[35.9466,32.6644],[35.9554,32.6574],[35.9658,32.6544],[35.9803,32.6566],[36.0036,32.6551],[36.0083,32.6437],[36.0053,32.6267],[36.006,32.6079],[36.0154,32.5912],[36.0605,32.5333],[36.066,32.5216],[36.0663,32.5173],[36.0699,32.5166],[36.0819,32.5163],[36.0942,32.4342],[36.0872,32.4083],[36.0801,32.4062],[36.0714,32.4077],[36.0531,32.4199],[36.0418,32.4232],[36.0294,32.4214],[36.015,32.4114],[36.0116,32.4033],[36.0129,32.3951],[36.0181,32.3871],[36.0233,32.3771],[36.0264,32.3623],[36.025,32.3546],[36.0172,32.346],[35.984,32.3471],[35.953,32.3547],[35.9396,32.3513],[35.9053,32.3389],[35.8838,32.3646],[35.8641,32.3782],[35.8591,32.3864],[35.8548,32.3994],[35.8481,32.402],[35.8409,32.3981],[35.8338,32.3896],[35.8219,32.3837],[35.8056,32.3816],[35.7766,32.383],[35.7601,32.3802],[35.7297,32.366],[35.7057,32.3602],[35.6805,32.3617],[35.6631,32.3605],[35.6489,32.3554],[35.6391,32.3448],[35.6321,32.3293],[35.6167,32.2668],[35.6184,32.2515],[35.6245,32.2353],[35.6383,32.2083],[35.6408,32.1997],[35.64,32.1938],[35.6355,32.1838],[35.566,32.1909],[35.5596,32.1904],[35.5725,32.2376],[35.5594,32.2376],[35.5611,32.2431],[35.5638,32.2468],[35.5676,32.2495],[35.5725,32.2519],[35.5646,32.2636],[35.5609,32.2826],[35.5612,32.3017],[35.5656,32.3134],[35.5565,32.3282],[35.5573,32.3582],[35.552,32.3679],[35.552,32.3748],[35.5594,32.3748],[35.5594,32.3679],[35.5656,32.3679],[35.564,32.377],[35.561,32.3847],[35.5568,32.3909],[35.552,32.3953],[35.5496,32.3985],[35.5451,32.4096],[35.5549,32.4112],[35.5591,32.414],[35.5582,32.418],[35.552,32.4232],[35.552,32.4294],[35.5594,32.4294],[35.5579,32.4341],[35.5562,32.4348],[35.5541,32.4345],[35.552,32.4362],[35.5656,32.4437],[35.5594,32.4505],[35.5662,32.4531],[35.5725,32.4567],[35.5725,32.4642],[35.5681,32.465],[35.5654,32.4663],[35.5631,32.4682],[35.5594,32.4704],[35.5613,32.4771],[35.565,32.4839],[35.571,32.4892],[35.58,32.4915],[35.58,32.4977],[35.5706,32.506],[35.5685,32.5103],[35.5614,32.5192],[35.5572,32.5193],[35.552,32.5188],[35.552,32.5256],[35.5656,32.5256],[35.5628,32.532],[35.5594,32.553],[35.5656,32.5461],[35.5702,32.5568],[35.5725,32.5604],[35.5739,32.5567],[35.5744,32.5544]]]}},{"type":"Feature","properties":{"id":"JOR-856","name":"Jarash","nameBn":"জারাশ গভর্নোরেট","type":"Province","bounds":[35.6948,32.0957,36.0172,32.3547],"center":[35.856,32.2186]},"geometry":{"type":"Polygon","coordinates":[[[35.7198,32.1435],[35.7064,32.1446],[35.6962,32.1478],[35.6948,32.1562],[35.7365,32.1965],[35.8047,32.2227],[35.8137,32.2315],[35.816,32.2404],[35.8152,32.2499],[35.818,32.2638],[35.825,32.2803],[35.8419,32.3029],[35.8577,32.3162],[35.8732,32.325],[35.8841,32.329],[35.9053,32.3389],[35.9396,32.3513],[35.953,32.3547],[35.984,32.3471],[36.0172,32.346],[36.0031,32.3216],[35.9576,32.2781],[35.948,32.2625],[35.9472,32.2526],[35.952,32.2458],[35.9603,32.2411],[35.9671,32.2358],[35.9803,32.2171],[35.9907,32.1967],[35.9873,32.1756],[35.9823,32.1668],[35.9738,32.1594],[35.9607,32.1542],[35.9449,32.1462],[35.9333,32.1384],[35.8959,32.0957],[35.8591,32.119],[35.8516,32.1274],[35.8403,32.1371],[35.8264,32.1422],[35.8067,32.1454],[35.7198,32.1435]]]}},{"type":"Feature","properties":{"id":"JOR-859","name":"Karak","nameBn":"কারাক গভর্নোরেট","type":"Province","bounds":[35.3471,30.7671,36.1919,31.4385],"center":[35.7693,31.1753]},"geometry":{"type":"Polygon","coordinates":[[[35.3471,30.9227],[35.3741,30.9451],[35.3853,30.9633],[35.3852,30.9946],[35.3916,31.0239],[35.4385,31.1037],[35.4432,31.1322],[35.4362,31.1595],[35.4213,31.1845],[35.4107,31.2046],[35.4012,31.2303],[35.3957,31.2577],[35.4082,31.282],[35.4223,31.303],[35.4239,31.3246],[35.4165,31.3318],[35.4351,31.3606],[35.4529,31.4008],[35.4569,31.4235],[35.4571,31.4335],[35.4785,31.4385],[35.5542,31.4359],[35.6544,31.4072],[35.6734,31.4039],[35.6872,31.4038],[35.7181,31.4123],[35.7522,31.4151],[35.7733,31.4147],[35.818,31.4059],[35.8423,31.3692],[35.8492,31.3502],[35.8518,31.3371],[35.8499,31.3281],[35.8419,31.3082],[35.8382,31.294],[35.8357,31.2746],[35.8392,31.2625],[35.8492,31.2549],[36.1518,31.2486],[36.1685,31.1505],[36.1919,31.0948],[36.1409,30.9551],[36.0238,30.7671],[35.9809,30.8042],[35.9386,30.8313],[35.9307,30.8389],[35.9203,30.854],[35.9125,30.8613],[35.9021,30.8666],[35.8658,30.8811],[35.8532,30.8888],[35.8439,30.8966],[35.8397,30.9037],[35.8369,30.9098],[35.8302,30.9149],[35.6699,30.9699],[35.5846,30.9735],[35.5703,30.9784],[35.5564,30.9862],[35.5452,30.9948],[35.5339,30.9977],[35.5212,30.9984],[35.5034,30.9962],[35.4907,30.9967],[35.4813,30.9941],[35.4751,30.9862],[35.4707,30.9659],[35.4606,30.94],[35.4543,30.8994],[35.4477,30.8894],[35.4366,30.8836],[35.4187,30.8847],[35.4048,30.888],[35.3548,30.9182],[35.3471,30.9227]]]}},{"type":"Feature","properties":{"id":"JOR-853","name":"Ma`an","nameBn":"মা'আন গভার্নোরেট","type":"Province","bounds":[35.2991,29.19,37.9814,31.2486],"center":[36.6401,30.492]},"geometry":{"type":"Polygon","coordinates":[[[37.2217,31.2473],[37.3499,31.1282],[37.48,31.0073],[37.4831,31.0041],[37.4863,31.0009],[37.4894,30.9977],[37.4926,30.9945],[37.6023,30.8832],[37.712,30.772],[37.8219,30.6609],[37.9316,30.5497],[37.9811,30.4995],[37.9814,30.4988],[37.981,30.4984],[37.98,30.4981],[37.9733,30.4945],[37.9001,30.4591],[37.7793,30.4004],[37.6707,30.3476],[37.6476,30.3309],[37.6345,30.3128],[37.6052,30.2507],[37.5692,30.175],[37.5361,30.1053],[37.4917,30.0112],[37.4702,29.9946],[37.3524,29.9733],[37.2185,29.9491],[37.0758,29.9233],[36.9319,29.8972],[36.843,29.8812],[36.7562,29.8655],[36.7287,29.8535],[36.7049,29.8312],[36.6496,29.7494],[36.6036,29.6815],[36.5413,29.5894],[36.4771,29.4946],[36.4,29.4389],[36.2837,29.3548],[36.178,29.2784],[36.0695,29.2],[36.0438,29.1909],[36.0164,29.19],[35.9125,29.2057],[35.7972,29.2231],[35.7403,29.2317],[35.7402,29.232],[35.7379,29.2406],[35.6884,29.5572],[35.6235,29.7874],[35.5709,29.8909],[35.5561,29.911],[35.5381,29.9277],[35.5187,29.9425],[35.4991,29.9519],[35.4805,29.958],[35.4507,29.9631],[35.4249,29.9624],[35.4121,29.9601],[35.3992,29.9561],[35.3843,29.9544],[35.3683,29.955],[35.3519,29.9597],[35.3382,29.9667],[35.3259,29.9766],[35.3168,29.987],[35.309,29.9985],[35.3038,30.0083],[35.2991,30.0271],[35.3014,30.0534],[35.3129,30.1031],[35.3714,30.2032],[35.3795,30.2324],[35.3775,30.345],[35.4218,30.4668],[35.4423,30.546],[35.448,30.6085],[35.4881,30.6086],[35.5289,30.6033],[35.6283,30.606],[35.6624,30.6034],[35.7558,30.6142],[35.8267,30.6289],[35.8408,30.6367],[35.8507,30.6451],[35.8632,30.6525],[35.8739,30.6545],[35.8844,30.6538],[35.9112,30.6447],[35.9477,30.6564],[36.0238,30.7671],[36.1409,30.9551],[36.1919,31.0948],[36.1685,31.1505],[36.1518,31.2486],[37.2217,31.2473]]]}},{"type":"Feature","properties":{"id":"JOR-858","name":"Madaba","nameBn":"মাদাবা গভর্নোরেট","type":"Province","bounds":[35.4571,31.4038,35.8875,31.7908],"center":[35.6722,31.5852]},"geometry":{"type":"Polygon","coordinates":[[[35.4571,31.4335],[35.4585,31.4916],[35.4581,31.4919],[35.4587,31.4916],[35.4592,31.4919],[35.4591,31.4928],[35.4587,31.4944],[35.4642,31.5686],[35.4801,31.6411],[35.5025,31.6854],[35.5148,31.6841],[35.5835,31.6808],[35.5975,31.6865],[35.6101,31.6969],[35.6265,31.7223],[35.6382,31.7492],[35.6442,31.756],[35.6563,31.7628],[35.6687,31.7661],[35.6954,31.7681],[35.7083,31.7747],[35.7459,31.783],[35.7964,31.7831],[35.8118,31.7864],[35.8244,31.7908],[35.831,31.7899],[35.8382,31.7842],[35.8405,31.7118],[35.8383,31.7024],[35.8324,31.6932],[35.8152,31.6756],[35.8102,31.6679],[35.8089,31.6592],[35.8104,31.6495],[35.8182,31.6238],[35.8256,31.6081],[35.8691,31.568],[35.8751,31.5553],[35.8743,31.5458],[35.8709,31.5386],[35.8718,31.5307],[35.8777,31.5245],[35.8856,31.5179],[35.8875,31.5117],[35.8844,31.5054],[35.8706,31.4883],[35.8639,31.4774],[35.8468,31.4321],[35.8425,31.4256],[35.8349,31.4188],[35.8289,31.4148],[35.818,31.4059],[35.7733,31.4147],[35.7522,31.4151],[35.7181,31.4123],[35.6872,31.4038],[35.6734,31.4039],[35.6544,31.4072],[35.5542,31.4359],[35.4785,31.4385],[35.4571,31.4335]]]}},{"type":"Feature","properties":{"id":"JOR-850","name":"Mafraq","nameBn":"মাফ্রাক গভর্নোরেট","type":"Province","bounds":[35.9472,31.6961,39.292,33.3717],"center":[37.6195,32.2481]},"geometry":{"type":"Polygon","coordinates":[[[36.8066,32.313],[36.8194,32.3168],[36.9801,32.41],[37.1332,32.4945],[37.1334,32.4945],[37.2441,32.5544],[37.4152,32.6471],[37.4946,32.6901],[37.5867,32.7398],[37.758,32.8325],[37.9294,32.9253],[38.0567,32.9943],[38.2309,33.0863],[38.3157,33.1312],[38.5296,33.2443],[38.7745,33.3717],[38.821,33.229],[38.8626,33.1007],[38.8972,32.9943],[38.9428,32.8523],[38.99,32.7056],[39.0572,32.4966],[38.98,32.4761],[38.9786,32.4757],[38.9782,32.475],[38.9786,32.4737],[38.98,32.4721],[39.0288,32.3283],[39.0362,32.3134],[39.0463,32.3085],[39.2358,32.3529],[39.2563,32.3427],[39.2711,32.312],[39.292,32.2445],[39.2665,32.2129],[39.1462,32.1258],[39.1464,32.1181],[39.1362,32.1154],[39.1168,32.1029],[38.9981,32.0069],[38.9634,31.9945],[38.9634,31.9943],[38.9633,31.9944],[38.8498,31.9663],[38.6249,31.9109],[38.4002,31.8554],[38.1754,31.7999],[37.9865,31.7534],[37.9505,31.7445],[37.7614,31.6961],[37.7608,31.6963],[37.7594,31.6968],[36.518,32.0634],[36.4828,32.0808],[36.4509,32.1063],[36.4334,32.1141],[36.3794,32.1191],[36.3609,32.1175],[36.348,32.1125],[36.3375,32.1057],[36.3246,32.1007],[36.3096,32.1003],[36.2942,32.1042],[36.2767,32.115],[36.2363,32.132],[36.1959,32.1353],[36.1834,32.1339],[36.173,32.1318],[36.1522,32.1246],[36.1384,32.1236],[36.123,32.1272],[36.0987,32.1429],[36.0861,32.1495],[36.0762,32.1506],[36.0625,32.1391],[36.0525,32.1344],[36.0407,32.1322],[36.03,32.1338],[36.0197,32.14],[36.0147,32.1468],[36.014,32.1563],[36.0169,32.1635],[36.0214,32.1697],[36.0229,32.1761],[36.0194,32.183],[36.0109,32.1909],[35.9907,32.1967],[35.9803,32.2171],[35.9671,32.2358],[35.9603,32.2411],[35.952,32.2458],[35.9472,32.2526],[35.948,32.2625],[35.9576,32.2781],[36.0031,32.3216],[36.0172,32.346],[36.025,32.3546],[36.0264,32.3623],[36.0233,32.3771],[36.0181,32.3871],[36.0129,32.3951],[36.0116,32.4033],[36.015,32.4114],[36.0294,32.4214],[36.0418,32.4232],[36.0531,32.4199],[36.0714,32.4077],[36.0801,32.4062],[36.0872,32.4083],[36.0942,32.4342],[36.0819,32.5163],[36.0962,32.5159],[36.1332,32.5201],[36.1395,32.5195],[36.1499,32.5161],[36.1559,32.5152],[36.1608,32.5172],[36.1722,32.5259],[36.1774,32.5273],[36.1882,32.5223],[36.2208,32.4946],[36.2853,32.4569],[36.3731,32.3864],[36.3879,32.3793],[36.4076,32.3742],[36.464,32.3694],[36.4802,32.3608],[36.5167,32.357],[36.6535,32.3429],[36.6896,32.3197],[36.7069,32.3283],[36.7286,32.3278],[36.7925,32.3135],[36.8066,32.313]]]}},{"type":"Feature","properties":{"id":"JOR-852","name":"Tafilah","nameBn":"তাফিলাহ গভর্নোরেট","type":"Province","bounds":[35.2639,30.6033,36.0238,30.9984],"center":[35.6436,30.7879]},"geometry":{"type":"Polygon","coordinates":[[[35.2639,30.72],[35.2716,30.7437],[35.2761,30.769],[35.2795,30.7802],[35.2861,30.7923],[35.2939,30.8002],[35.3108,30.8133],[35.3166,30.8228],[35.32,30.8449],[35.3195,30.8673],[35.3222,30.8899],[35.3349,30.9126],[35.3471,30.9227],[35.3548,30.9182],[35.4048,30.888],[35.4187,30.8847],[35.4366,30.8836],[35.4477,30.8894],[35.4543,30.8994],[35.4606,30.94],[35.4707,30.9659],[35.4751,30.9862],[35.4813,30.9941],[35.4907,30.9967],[35.5034,30.9962],[35.5212,30.9984],[35.5339,30.9977],[35.5452,30.9948],[35.5564,30.9862],[35.5703,30.9784],[35.5846,30.9735],[35.6699,30.9699],[35.8302,30.9149],[35.8369,30.9098],[35.8397,30.9037],[35.8439,30.8966],[35.8532,30.8888],[35.8658,30.8811],[35.9021,30.8666],[35.9125,30.8613],[35.9203,30.854],[35.9307,30.8389],[35.9386,30.8313],[35.9809,30.8042],[36.0238,30.7671],[35.9477,30.6564],[35.9112,30.6447],[35.8844,30.6538],[35.8739,30.6545],[35.8632,30.6525],[35.8507,30.6451],[35.8408,30.6367],[35.8267,30.6289],[35.7558,30.6142],[35.6624,30.6034],[35.6283,30.606],[35.5289,30.6033],[35.4881,30.6086],[35.448,30.6085],[35.4253,30.6093],[35.4139,30.6129],[35.3998,30.619],[35.3875,30.6328],[35.3756,30.6507],[35.3626,30.6608],[35.3472,30.6678],[35.2789,30.7101],[35.2639,30.72]]]}},{"type":"Feature","properties":{"id":"JOR-860","name":"Zarqa","nameBn":"জারকা গভর্নোরেট","type":"Province","bounds":[35.8959,31.5008,37.7614,32.1967],"center":[36.8284,31.8095]},"geometry":{"type":"Polygon","coordinates":[[[37.7614,31.6961],[37.7027,31.6811],[37.455,31.6177],[37.2073,31.5544],[36.9979,31.5008],[36.9975,31.501],[36.9944,31.5025],[36.7143,31.7469],[36.6957,31.7506],[36.6786,31.7466],[36.6311,31.7216],[36.6123,31.7211],[36.5891,31.7286],[36.5456,31.754],[36.5007,31.7897],[36.4738,31.8159],[36.4675,31.8269],[36.4689,31.8362],[36.4766,31.8452],[36.499,31.8608],[36.5271,31.8758],[36.5363,31.888],[36.5346,31.9038],[36.5059,31.9356],[36.4491,31.9887],[36.4285,32.0035],[36.4075,32.0115],[36.3017,32.0193],[36.2804,32.0154],[36.2685,32.0066],[36.2494,31.9869],[36.2365,31.9801],[36.2159,31.9768],[36.1515,31.9772],[36.1024,31.9639],[36.0863,31.9627],[36.074,31.9605],[36.0545,31.951],[36.0413,31.9545],[36.0219,31.9663],[35.9882,32.0013],[35.9641,32.0202],[35.9412,32.0458],[35.9217,32.0557],[35.9148,32.0582],[35.9067,32.0647],[35.9016,32.0699],[35.8959,32.0957],[35.9333,32.1384],[35.9449,32.1462],[35.9607,32.1542],[35.9738,32.1594],[35.9823,32.1668],[35.9873,32.1756],[35.9907,32.1967],[36.0109,32.1909],[36.0194,32.183],[36.0229,32.1761],[36.0214,32.1697],[36.0169,32.1635],[36.014,32.1563],[36.0147,32.1468],[36.0197,32.14],[36.03,32.1338],[36.0407,32.1322],[36.0525,32.1344],[36.0625,32.1391],[36.0762,32.1506],[36.0861,32.1495],[36.0987,32.1429],[36.123,32.1272],[36.1384,32.1236],[36.1522,32.1246],[36.173,32.1318],[36.1834,32.1339],[36.1959,32.1353],[36.2363,32.132],[36.2767,32.115],[36.2942,32.1042],[36.3096,32.1003],[36.3246,32.1007],[36.3375,32.1057],[36.348,32.1125],[36.3609,32.1175],[36.3794,32.1191],[36.4334,32.1141],[36.4509,32.1063],[36.4828,32.0808],[36.518,32.0634],[37.7594,31.6968],[37.7608,31.6963],[37.7614,31.6961]]]}}]}