{"type":"FeatureCollection","features":[{"type":"Feature","properties":{"id":"KHM-1778","name":"Batdâmbâng","nameBn":"বাতদামবাং প্রদেশ","type":"Province","bounds":[102.3271,12.4086,103.8087,13.4846],"center":[103.068,12.9675]},"geometry":{"type":"Polygon","coordinates":[[[102.7638,12.4253],[102.7621,12.4361],[102.7506,12.449],[102.7184,12.4659],[102.7048,12.4803],[102.7021,12.4881],[102.7005,12.5049],[102.6968,12.5131],[102.6897,12.5197],[102.6648,12.5342],[102.5885,12.6098],[102.5586,12.6312],[102.5018,12.6498],[102.4959,12.6542],[102.496,12.6542],[102.5171,12.6606],[102.6603,12.6945],[102.7391,12.7417],[102.7536,12.7676],[102.7582,12.8093],[102.7581,12.9394],[102.7525,12.9999],[102.7405,13.043],[102.7215,13.0759],[102.6977,13.1008],[102.6741,13.1134],[102.6499,13.1155],[102.629,13.1084],[102.6088,13.0956],[102.5951,13.0765],[102.5902,13.06],[102.5898,13.0408],[102.5861,13.0195],[102.577,13.0064],[102.5604,13.0006],[102.5467,12.9984],[102.5165,12.9984],[102.4901,12.9952],[102.4902,12.9961],[102.4732,13.0061],[102.4632,13.0193],[102.4473,13.0508],[102.4019,13.103],[102.3821,13.1366],[102.3292,13.2726],[102.3282,13.2752],[102.3271,13.3454],[102.3336,13.4063],[102.3294,13.4819],[102.3295,13.4846],[102.3571,13.484],[102.6409,13.4612],[102.6685,13.4248],[102.7078,13.4173],[102.7162,13.4171],[102.7381,13.4406],[102.7464,13.4523],[102.7625,13.4671],[102.7792,13.4511],[102.8111,13.4355],[102.8972,13.4139],[102.9638,13.4082],[102.9781,13.4126],[103.1105,13.4527],[103.1609,13.4584],[103.173,13.4547],[103.1953,13.441],[103.2221,13.4287],[103.2521,13.4226],[103.4055,13.4282],[103.4247,13.4053],[103.4323,13.3994],[103.4408,13.3945],[103.4559,13.3916],[103.4888,13.3973],[103.5228,13.384],[103.5381,13.3813],[103.5431,13.3792],[103.5479,13.3751],[103.5596,13.3593],[103.5662,13.3537],[103.5747,13.349],[103.5896,13.3437],[103.6696,13.3287],[103.6839,13.3164],[103.711,13.2657],[103.749,13.208],[103.8087,13.1452],[103.7307,13.0682],[103.6897,13.0372],[103.6852,13.0328],[103.6812,13.0272],[103.6795,13.0194],[103.6818,13.0098],[103.6869,13.0029],[103.691,12.9991],[103.6975,12.9949],[103.7032,12.99],[103.7058,12.9819],[103.7032,12.9714],[103.686,12.9473],[103.6809,12.9381],[103.6796,12.9262],[103.6798,12.92],[103.681,12.9119],[103.6806,12.9038],[103.6778,12.8957],[103.6694,12.8861],[103.6627,12.8811],[103.6562,12.8775],[103.636,12.8692],[103.6326,12.8666],[103.6278,12.8609],[103.6242,12.852],[103.6225,12.8382],[103.6249,12.8288],[103.6295,12.8228],[103.6373,12.82],[103.6394,12.8185],[103.641,12.8163],[103.6422,12.8139],[103.6429,12.8105],[103.6427,12.8089],[103.6422,12.8051],[103.6225,12.7506],[103.6232,12.7429],[103.6292,12.7168],[103.6356,12.7029],[103.6422,12.6775],[103.6424,12.6736],[103.6418,12.6694],[103.6351,12.6536],[103.6143,12.6227],[103.6123,12.6178],[103.6117,12.6158],[103.6024,12.5964],[103.5957,12.5886],[103.5862,12.5808],[103.5699,12.5719],[103.5404,12.5623],[103.5055,12.5587],[103.4363,12.5759],[103.3397,12.5877],[103.3192,12.5851],[103.2354,12.5622],[103.1913,12.5444],[103.1687,12.5288],[103.1508,12.5193],[103.1399,12.5171],[103.1113,12.5169],[103.0918,12.5128],[103.0839,12.5092],[103.0796,12.5064],[103.0759,12.5005],[103.0737,12.4981],[103.069,12.4956],[103.0621,12.4932],[103.052,12.4918],[103.0442,12.4916],[103.0374,12.4922],[103.0315,12.4932],[103.0197,12.4977],[103.0062,12.5091],[103.0003,12.5152],[102.9981,12.5166],[102.9924,12.516],[102.9884,12.5145],[102.9691,12.4925],[102.9579,12.4779],[102.9501,12.4734],[102.8963,12.4518],[102.8776,12.4412],[102.863,12.4359],[102.8526,12.4334],[102.8433,12.432],[102.8358,12.4276],[102.8176,12.4129],[102.8107,12.4096],[102.8045,12.4086],[102.8,12.4093],[102.7959,12.4104],[102.7936,12.4115],[102.7921,12.4125],[102.7879,12.4159],[102.7638,12.4253]]]}},{"type":"Feature","properties":{"id":"KHM-1777","name":"Bântéay Méanchey","nameBn":"বানতিয়েই মিয়েঞ্চিয়েই প্রদেশ","type":"Province","bounds":[102.3134,13.4082,103.4332,14.2389],"center":[102.873,13.7359]},"geometry":{"type":"Polygon","coordinates":[[[102.4522,13.5622],[102.5132,13.5672],[102.5325,13.5738],[102.5796,13.6005],[102.5977,13.6054],[102.5625,13.628],[102.5411,13.6486],[102.5423,13.6697],[102.5744,13.6939],[102.675,13.7419],[102.6986,13.7618],[102.7027,13.7712],[102.704,13.7918],[102.7065,13.8019],[102.7113,13.8104],[102.7291,13.8322],[102.7372,13.8496],[102.7544,13.9041],[102.7728,13.9361],[102.7974,13.96],[102.855,14.004],[102.8698,14.0206],[102.8733,14.0334],[102.8729,14.0484],[102.8762,14.0713],[102.8833,14.0869],[102.9041,14.116],[102.9113,14.1321],[102.9137,14.1518],[102.9139,14.1649],[102.914,14.1693],[102.9186,14.1855],[102.9341,14.201],[102.9509,14.2086],[102.9878,14.219],[103.0049,14.2288],[103.0169,14.2389],[103.0305,14.233],[103.0774,14.1995],[103.0887,14.1942],[103.0939,14.1903],[103.0992,14.1852],[103.1072,14.1709],[103.1159,14.1491],[103.1222,14.1371],[103.1257,14.1338],[103.1314,14.1302],[103.1421,14.1273],[103.1905,14.1213],[103.193,14.1193],[103.1935,14.1142],[103.1932,14.1097],[103.1837,14.0598],[103.1842,14.0539],[103.1896,14.0532],[103.1949,14.0534],[103.1997,14.0542],[103.2085,14.0545],[103.2116,14.0542],[103.2244,14.0443],[103.2638,14.0009],[103.292,14.0351],[103.3063,14.0487],[103.3301,14.0636],[103.3425,14.0039],[103.3435,14.0011],[103.3497,13.9951],[103.4096,13.9484],[103.4171,13.9412],[103.4306,13.9187],[103.4332,13.8872],[103.4205,13.872],[103.4178,13.8504],[103.42,13.8067],[103.4172,13.7738],[103.4318,13.7156],[103.43,13.6972],[103.4188,13.6758],[103.409,13.6632],[103.4035,13.6483],[103.4055,13.4282],[103.2521,13.4226],[103.2221,13.4287],[103.1953,13.441],[103.173,13.4547],[103.1609,13.4584],[103.1105,13.4527],[102.9781,13.4126],[102.9638,13.4082],[102.8972,13.4139],[102.8111,13.4355],[102.7792,13.4511],[102.7625,13.4671],[102.7464,13.4523],[102.7381,13.4406],[102.7162,13.4171],[102.7078,13.4173],[102.6685,13.4248],[102.6409,13.4612],[102.3571,13.484],[102.3295,13.4846],[102.3301,13.4964],[102.3294,13.5043],[102.3255,13.5134],[102.3148,13.5303],[102.3134,13.541],[102.3322,13.5646],[102.3713,13.5689],[102.4522,13.5622]]]}},{"type":"Feature","properties":{"id":"KHM-1779","name":"Kaôh Kong","nameBn":"কোহ কোং প্রদেশ","type":"Province","bounds":[102.765,10.5452,104.1447,12.1423],"center":[103.466,11.5609]},"geometry":{"type":"MultiPolygon","coordinates":[[[[102.9136,11.6459],[102.9288,11.6687],[102.9251,11.7258],[102.9138,11.7655],[102.8852,11.8077],[102.843,11.866],[102.7971,11.953],[102.7871,12.0026],[102.7711,12.0374],[102.765,12.0446],[102.7651,12.0446],[102.7808,12.0444],[103.0008,12.0291],[103.0398,12.013],[103.0604,12.0016],[103.0853,11.9908],[103.1107,11.9827],[103.1291,11.9798],[103.1461,11.9795],[103.1577,11.9828],[103.1838,11.9984],[103.2,12.0036],[103.2937,12.029],[103.3333,12.0508],[103.3528,12.0684],[103.3818,12.1031],[103.3946,12.1238],[103.4037,12.1336],[103.4121,12.1365],[103.4387,12.1366],[103.4666,12.1418],[103.4913,12.1423],[103.5189,12.1341],[103.5261,12.1309],[103.5331,12.1263],[103.5443,12.1161],[103.5501,12.1122],[103.5744,12.1013],[103.5771,12.0995],[103.6173,12.0599],[103.6338,12.0363],[103.6415,12.0282],[103.65,12.0213],[103.6714,12.0084],[103.6876,12.0005],[103.716,11.9901],[103.7329,11.9857],[103.7496,11.9787],[103.7527,11.9762],[103.7833,11.9629],[103.7928,11.9575],[103.8145,11.94],[103.8525,11.9167],[103.8635,11.9084],[103.7931,11.8983],[103.7887,11.8962],[103.7867,11.8948],[103.785,11.8925],[103.7838,11.889],[103.783,11.8823],[103.7833,11.8749],[103.7845,11.8675],[103.7867,11.8603],[103.7876,11.8509],[103.787,11.8386],[103.7805,11.8194],[103.7779,11.8073],[103.7767,11.7964],[103.7785,11.7777],[103.7974,11.7067],[103.7985,11.6965],[103.7978,11.6796],[103.7982,11.6715],[103.7997,11.6649],[103.8025,11.6593],[103.8055,11.6561],[103.809,11.6537],[103.819,11.6503],[103.8268,11.6484],[103.8471,11.6293],[103.9175,11.5847],[103.9274,11.5762],[103.9351,11.5633],[103.9388,11.5601],[103.9423,11.5585],[103.956,11.5557],[103.9608,11.5564],[103.971,11.5598],[103.979,11.5615],[103.9908,11.5609],[104.0085,11.5565],[104.026,11.5469],[104.054,11.5373],[104.0727,11.5194],[104.0733,11.5137],[104.0732,11.5071],[104.062,11.4911],[104.0559,11.4791],[104.0558,11.4707],[104.0577,11.4626],[104.0724,11.4332],[104.0761,11.4272],[104.0891,11.4136],[104.0981,11.4009],[104.1115,11.3757],[104.1165,11.362],[104.1179,11.3516],[104.116,11.3466],[104.1127,11.3425],[104.105,11.3354],[104.1006,11.3276],[104.0972,11.3166],[104.093,11.2933],[104.0924,11.2829],[104.0927,11.2759],[104.096,11.2698],[104.098,11.2673],[104.107,11.2581],[104.1135,11.2503],[104.1447,11.1609],[104.1106,11.1535],[104.1065,11.1513],[104.1012,11.1475],[104.0949,11.1235],[104.0939,11.1215],[104.0651,11.0718],[104.0506,11.0545],[104.0457,11.052],[104.0353,11.048],[104.0271,11.0484],[104.0195,11.0507],[104.0129,11.054],[104.0055,11.0565],[104.0004,11.0555],[103.9954,11.0527],[103.9859,11.0431],[103.942,10.9889],[103.856,10.9171],[103.8396,10.9065],[103.8327,10.9038],[103.8253,10.9025],[103.8205,10.9023],[103.7994,10.9039],[103.7929,10.9001],[103.787,10.8936],[103.7796,10.8773],[103.7766,10.8689],[103.7749,10.8618],[103.7745,10.8492],[103.7733,10.841],[103.7721,10.8373],[103.769,10.8313],[103.7541,10.8076],[103.747,10.7931],[103.7456,10.7893],[103.7437,10.7855],[103.7391,10.7792],[103.7157,10.7585],[103.6887,10.743],[103.6887,10.7477],[103.6756,10.7518],[103.6722,10.7579],[103.6781,10.8012],[103.6814,10.8092],[103.6897,10.8161],[103.7014,10.8222],[103.7134,10.8306],[103.7224,10.8445],[103.7244,10.856],[103.7224,10.8948],[103.7074,10.9301],[103.6786,10.9802],[103.6595,11.0298],[103.6746,11.0637],[103.6554,11.0784],[103.6458,11.0823],[103.6162,11.0854],[103.604,11.0906],[103.5952,11.0983],[103.5835,11.1341],[103.5619,11.1522],[103.533,11.1627],[103.5027,11.1661],[103.5049,11.1626],[103.5052,11.1618],[103.5061,11.1614],[103.51,11.1592],[103.4964,11.1388],[103.489,11.1388],[103.4844,11.1457],[103.4812,11.1484],[103.4685,11.1518],[103.4685,11.1457],[103.4745,11.1337],[103.4683,11.119],[103.448,11.0904],[103.4683,11.0993],[103.4702,11.0891],[103.4627,11.0709],[103.4373,11.0251],[103.4308,11.0065],[103.4281,10.9843],[103.417,10.9581],[103.4146,10.9464],[103.4153,10.9368],[103.4202,10.921],[103.4212,10.9091],[103.4157,10.8941],[103.4021,10.8843],[103.386,10.8809],[103.3729,10.885],[103.3687,10.8802],[103.364,10.8769],[103.3523,10.8719],[103.3441,10.8955],[103.3231,10.9096],[103.2981,10.92],[103.2774,10.9327],[103.2363,10.9081],[103.219,10.8925],[103.2227,10.8781],[103.2088,10.8786],[103.1968,10.8765],[103.1875,10.8718],[103.1812,10.8644],[103.1618,10.874],[103.1387,10.8764],[103.1267,10.8813],[103.1401,10.8986],[103.1094,10.9223],[103.1019,10.9259],[103.0956,10.934],[103.1003,10.9512],[103.1084,10.967],[103.1128,10.9709],[103.1106,11.0019],[103.1008,11.0531],[103.0985,11.0805],[103.1018,11.0899],[103.1087,11.1004],[103.116,11.1138],[103.119,11.132],[103.1177,11.1491],[103.1136,11.1611],[103.0985,11.1866],[103.0962,11.1942],[103.0951,11.2026],[103.0933,11.2108],[103.0886,11.2177],[103.082,11.2194],[103.0623,11.2197],[103.0576,11.2208],[103.0596,11.2318],[103.0711,11.2386],[103.0793,11.2452],[103.0713,11.2555],[103.0713,11.2617],[103.0789,11.2735],[103.1056,11.2991],[103.134,11.3161],[103.147,11.3027],[103.1532,11.3027],[103.1521,11.3181],[103.1424,11.3436],[103.1401,11.3579],[103.1257,11.3523],[103.1192,11.3489],[103.1128,11.3437],[103.1003,11.356],[103.0965,11.3672],[103.096,11.3804],[103.0923,11.3989],[103.0858,11.4138],[103.071,11.4345],[103.0645,11.4473],[103.0728,11.4448],[103.0757,11.4443],[103.0767,11.4418],[103.0788,11.433],[103.085,11.433],[103.0913,11.444],[103.1016,11.4526],[103.1145,11.4582],[103.1299,11.4604],[103.1433,11.4548],[103.1592,11.4311],[103.1743,11.4262],[103.1428,11.4851],[103.1333,11.4945],[103.1379,11.5053],[103.1401,11.5087],[103.1333,11.5087],[103.131,11.5051],[103.1265,11.4945],[103.1306,11.4865],[103.1287,11.4775],[103.1221,11.4702],[103.1128,11.4678],[103.1029,11.4726],[103.0911,11.4905],[103.0645,11.5036],[103.0573,11.5252],[103.0563,11.5503],[103.0576,11.5702],[103.0508,11.5634],[103.054,11.5838],[103.0576,11.5913],[103.0483,11.5916],[103.0433,11.5943],[103.0371,11.6049],[103.0374,11.5703],[103.0357,11.5546],[103.0303,11.5429],[103.0234,11.5429],[103.0127,11.5464],[102.9985,11.5432],[102.9846,11.5363],[102.9751,11.5292],[102.9546,11.5571],[102.9751,11.5702],[102.9802,11.5638],[102.9955,11.5497],[103.0029,11.5497],[102.9994,11.5596],[102.9885,11.5727],[102.9824,11.5838],[102.9824,11.6248],[102.9938,11.6357],[103.0078,11.6312],[103.0244,11.6235],[103.0433,11.6248],[103.0433,11.6323],[103.031,11.6312],[103.021,11.634],[103.0135,11.6394],[103.0091,11.6459],[103.0091,11.6527],[103.0168,11.6527],[103.0168,11.6596],[103.0062,11.655],[103.0029,11.6527],[102.9955,11.6527],[102.9943,11.6601],[102.9893,11.6732],[102.9824,11.6732],[102.9824,11.6527],[102.9751,11.6596],[102.9751,11.6385],[102.9688,11.6385],[102.9704,11.6662],[102.9758,11.6873],[102.9863,11.7029],[103.0029,11.7142],[103.0129,11.7186],[103.0217,11.7205],[103.0303,11.7185],[103.0403,11.7111],[103.0526,11.7055],[103.0667,11.7082],[103.0788,11.7165],[103.085,11.7279],[103.0788,11.7279],[103.0698,11.7152],[103.056,11.7161],[103.0414,11.7247],[103.0303,11.7347],[103.0234,11.7347],[102.9824,11.7142],[102.9768,11.7204],[102.9697,11.7329],[102.9639,11.7471],[102.9614,11.7585],[102.9561,11.7669],[102.9326,11.7791],[102.8993,11.8303],[102.8931,11.8303],[102.9079,11.7976],[102.9568,11.7468],[102.9688,11.7142],[102.9666,11.6975],[102.9548,11.6679],[102.9546,11.6527],[102.965,11.6099],[102.9637,11.5924],[102.9546,11.5702],[102.9526,11.583],[102.9431,11.601],[102.9409,11.6152],[102.9373,11.6217],[102.9197,11.6384],[102.9136,11.6459]]],[[[103.2971,10.731],[103.3014,10.7272],[103.3101,10.7259],[103.3176,10.7211],[103.3182,10.7068],[103.305,10.7022],[103.2932,10.6966],[103.2837,10.6876],[103.2774,10.6727],[103.2687,10.6796],[103.2642,10.6912],[103.2617,10.7021],[103.26,10.7068],[103.2608,10.7092],[103.2289,10.7211],[103.2136,10.7333],[103.2019,10.7476],[103.1985,10.7624],[103.2083,10.7757],[103.2285,10.7827],[103.2451,10.778],[103.2588,10.7668],[103.2705,10.7546],[103.2727,10.7513],[103.2747,10.7443],[103.2774,10.741],[103.283,10.7394],[103.2894,10.7399],[103.2949,10.7384],[103.2971,10.731]]],[[[103.0371,11.3579],[103.0418,11.3467],[103.0469,11.3381],[103.0487,11.3309],[103.0433,11.3237],[103.0486,11.3101],[103.0479,11.2914],[103.0433,11.2734],[103.0371,11.2617],[103.0234,11.2552],[103.0076,11.2551],[102.9981,11.2602],[103.0029,11.2691],[102.992,11.28],[102.9885,11.3009],[102.9893,11.3374],[102.9817,11.3801],[102.9815,11.4047],[102.9893,11.4262],[102.9909,11.4218],[102.9937,11.4171],[102.9955,11.4125],[103.0067,11.4221],[103.0164,11.4231],[103.0242,11.4172],[103.0366,11.392],[103.0373,11.3812],[103.0361,11.3708],[103.0371,11.3579]]],[[[103.0303,11.5019],[103.0353,11.4925],[103.0466,11.4761],[103.0508,11.4678],[103.0508,11.4604],[103.0462,11.4533],[103.0349,11.4317],[103.0303,11.4262],[103.0204,11.4269],[103.0195,11.437],[103.0234,11.4604],[103.0144,11.4765],[103.0013,11.4953],[102.9959,11.5137],[103.0091,11.5292],[103.0264,11.5191],[103.0303,11.5156],[103.0325,11.5104],[103.0324,11.5056],[103.0313,11.5023],[103.0303,11.5019]]],[[[103.3342,10.5839],[103.3359,10.5834],[103.3389,10.5798],[103.3389,10.5724],[103.3346,10.5646],[103.3301,10.5535],[103.3235,10.5452],[103.3128,10.5517],[103.2922,10.5832],[103.2852,10.5991],[103.2891,10.6127],[103.3025,10.6181],[103.3138,10.6195],[103.3195,10.6173],[103.3215,10.6103],[103.3119,10.5966],[103.3112,10.592],[103.3108,10.587],[103.3125,10.5791],[103.3176,10.5744],[103.3247,10.5739],[103.3316,10.5795],[103.3342,10.5839]]]]}},{"type":"Feature","properties":{"id":"KHM-1798","name":"Kep","nameBn":"কেপ প্রদেশ","type":"Province","bounds":[104.2686,10.4461,104.4242,10.576],"center":[104.346,10.5308]},"geometry":{"type":"Polygon","coordinates":[[[104.4242,10.4511],[104.422,10.4523],[104.4076,10.4461],[104.3723,10.4821],[104.3631,10.4877],[104.3325,10.4877],[104.3156,10.4811],[104.3062,10.4786],[104.2977,10.4809],[104.2898,10.4975],[104.2863,10.5405],[104.2742,10.5491],[104.2686,10.5521],[104.2688,10.5523],[104.2831,10.576],[104.2904,10.5738],[104.3027,10.5736],[104.3124,10.5718],[104.3536,10.5742],[104.3756,10.5657],[104.3876,10.5544],[104.4035,10.5255],[104.4108,10.5072],[104.4099,10.4769],[104.4117,10.4691],[104.4184,10.4638],[104.4223,10.4597],[104.4241,10.4512],[104.4242,10.4511]]]}},{"type":"Feature","properties":{"id":"KHM-1783","name":"Krong Pailin","nameBn":"পাইলিন প্রদেশ","type":"Municipality","bounds":[102.4648,12.6542,102.7582,13.1155],"center":[102.611,12.8901]},"geometry":{"type":"Polygon","coordinates":[[[102.4959,12.6542],[102.4864,12.6612],[102.4793,12.6771],[102.4767,12.6985],[102.478,12.7196],[102.4827,12.7352],[102.4952,12.746],[102.4953,12.7461],[102.5056,12.7778],[102.5066,12.7875],[102.5043,12.7997],[102.5005,12.8065],[102.4955,12.8127],[102.4897,12.8231],[102.4833,12.8438],[102.4792,12.8821],[102.4741,12.9053],[102.4679,12.9163],[102.4648,12.9275],[102.4663,12.9379],[102.4776,12.9499],[102.4789,12.9536],[102.4776,12.9573],[102.4691,12.9652],[102.4672,12.9695],[102.4688,12.9734],[102.4741,12.977],[102.4814,12.9806],[102.4866,12.9848],[102.4897,12.99],[102.4901,12.9952],[102.5165,12.9984],[102.5467,12.9984],[102.5604,13.0006],[102.577,13.0064],[102.5861,13.0195],[102.5898,13.0408],[102.5902,13.06],[102.5951,13.0765],[102.6088,13.0956],[102.629,13.1084],[102.6499,13.1155],[102.6741,13.1134],[102.6977,13.1008],[102.7215,13.0759],[102.7405,13.043],[102.7525,12.9999],[102.7581,12.9394],[102.7582,12.8093],[102.7536,12.7676],[102.7391,12.7417],[102.6603,12.6945],[102.5171,12.6606],[102.496,12.6542],[102.4959,12.6542]]]}},{"type":"Feature","properties":{"id":"KHM-1800","name":"Krong Preah Sihanouk","nameBn":"প্রিয় সিহানুক প্রদেশ","type":"Municipality","bounds":[103.502,10.4536,103.9549,10.9889],"center":[103.775,10.4854]},"geometry":{"type":"MultiPolygon","coordinates":[[[[103.7844,10.515],[103.7986,10.5054],[103.8059,10.4843],[103.8049,10.4632],[103.7947,10.4536],[103.7783,10.4538],[103.7638,10.4565],[103.752,10.4646],[103.7434,10.4809],[103.7517,10.4831],[103.7559,10.486],[103.7639,10.4945],[103.7573,10.5065],[103.7604,10.5138],[103.7703,10.5166],[103.7844,10.515]]],[[[103.9169,10.616],[103.9163,10.6186],[103.8943,10.6584],[103.8913,10.6591],[103.877,10.6584],[103.8734,10.6601],[103.8737,10.664],[103.8747,10.6688],[103.8738,10.6727],[103.8709,10.6787],[103.8692,10.6935],[103.8664,10.6994],[103.8589,10.6796],[103.8597,10.6581],[103.8664,10.6212],[103.8628,10.6038],[103.8543,10.5865],[103.8323,10.556],[103.8206,10.544],[103.8079,10.5379],[103.791,10.5358],[103.7671,10.5355],[103.7542,10.5377],[103.7482,10.5431],[103.7439,10.5499],[103.7361,10.556],[103.7261,10.5587],[103.7093,10.5592],[103.7019,10.5628],[103.7019,10.556],[103.7232,10.5447],[103.742,10.5263],[103.7471,10.509],[103.7261,10.5014],[103.6932,10.5034],[103.6558,10.4952],[103.6374,10.4945],[103.6239,10.5009],[103.6172,10.515],[103.6154,10.5291],[103.6162,10.5355],[103.6131,10.5383],[103.6106,10.5515],[103.6063,10.556],[103.5984,10.5566],[103.594,10.5537],[103.5907,10.5501],[103.5858,10.5491],[103.5794,10.5508],[103.5701,10.5551],[103.5615,10.5623],[103.5536,10.5855],[103.5438,10.5962],[103.5237,10.6112],[103.5071,10.6042],[103.502,10.6171],[103.5068,10.6354],[103.52,10.6447],[103.5281,10.6522],[103.5383,10.6695],[103.5471,10.689],[103.551,10.7031],[103.5674,10.7265],[103.606,10.7375],[103.6842,10.7408],[103.6849,10.7408],[103.6887,10.741],[103.6887,10.743],[103.7157,10.7585],[103.7391,10.7792],[103.7437,10.7855],[103.7456,10.7893],[103.747,10.7931],[103.7541,10.8076],[103.769,10.8313],[103.7721,10.8373],[103.7733,10.841],[103.7745,10.8492],[103.7749,10.8618],[103.7766,10.8689],[103.7796,10.8773],[103.787,10.8936],[103.7929,10.9001],[103.7994,10.9039],[103.8205,10.9023],[103.8253,10.9025],[103.8327,10.9038],[103.8396,10.9065],[103.856,10.9171],[103.942,10.9889],[103.9509,10.9555],[103.9505,10.8519],[103.9436,10.8048],[103.9438,10.7966],[103.9543,10.7135],[103.9549,10.693],[103.9538,10.6784],[103.9507,10.6695],[103.9423,10.6524],[103.9239,10.6238],[103.9194,10.6182],[103.917,10.6161],[103.9169,10.616]]]]}},{"type":"Feature","properties":{"id":"KHM-1793","name":"Krâchéh","nameBn":"ক্রাচে প্রদেশ","type":"Province","bounds":[105.5777,11.9421,106.7906,13.4222],"center":[106.184,12.66]},"geometry":{"type":"Polygon","coordinates":[[[106.7906,12.0674],[106.772,12.0658],[106.7492,12.0523],[106.7328,12.0289],[106.7211,11.9964],[106.7016,11.9708],[106.6805,11.9651],[106.6306,11.9762],[106.6386,11.9611],[106.5524,11.9728],[106.5045,11.9734],[106.4737,11.9521],[106.4605,11.9529],[106.4551,11.9597],[106.4511,11.9685],[106.4421,11.9749],[106.4291,11.9768],[106.4175,11.9759],[106.394,11.9698],[106.3954,11.9658],[106.3888,11.9658],[106.3191,11.9496],[106.3104,11.949],[106.2874,11.954],[106.2809,11.9543],[106.2759,11.9538],[106.2481,11.9435],[106.2408,11.9421],[106.2355,11.9422],[106.2322,11.9435],[106.2296,11.9454],[106.2271,11.9479],[106.2215,11.9553],[106.1743,11.955],[106.1625,11.9597],[106.1618,11.9633],[106.1618,11.9671],[106.1623,11.9707],[106.1636,11.9739],[106.1652,11.9769],[106.1672,11.9795],[106.1695,11.9818],[106.1723,11.9838],[106.1773,11.9892],[106.1799,11.9936],[106.1814,11.9967],[106.1817,11.9999],[106.1817,12.0007],[106.1656,12.0315],[106.1593,12.0403],[106.1542,12.0459],[106.1509,12.0477],[106.1447,12.0503],[106.1331,12.057],[106.1154,12.0697],[106.1102,12.0723],[106.1062,12.0729],[106.0938,12.0732],[106.0895,12.0747],[106.0718,12.0838],[106.0614,12.088],[106.057,12.0912],[106.0549,12.0942],[106.0559,12.0968],[106.058,12.0992],[106.0604,12.1016],[106.064,12.1075],[106.0654,12.1108],[106.0663,12.1143],[106.0668,12.1185],[106.0654,12.1244],[106.0624,12.1314],[106.055,12.1433],[106.0502,12.1479],[106.0457,12.1497],[106.0412,12.1496],[106.0376,12.149],[106.0243,12.1526],[106.0193,12.1718],[106.0173,12.1749],[106.0142,12.1785],[105.9877,12.1968],[105.9737,12.2035],[105.94,12.2097],[105.9093,12.2215],[105.9017,12.2235],[105.8956,12.2244],[105.8914,12.2242],[105.8874,12.2236],[105.8842,12.2225],[105.8763,12.2164],[105.8728,12.2154],[105.845,12.2101],[105.8362,12.2508],[105.8312,12.2546],[105.8274,12.2542],[105.8091,12.255],[105.7594,12.266],[105.7537,12.2633],[105.75,12.2642],[105.7521,12.294],[105.7538,12.2983],[105.7566,12.3032],[105.7613,12.307],[105.7667,12.3128],[105.7762,12.326],[105.7794,12.3354],[105.781,12.3425],[105.7777,12.3929],[105.7636,12.4703],[105.752,12.5076],[105.7251,12.6262],[105.6943,12.7149],[105.6925,12.7371],[105.6806,12.7784],[105.6828,12.7979],[105.6807,12.8306],[105.6831,12.8416],[105.685,12.8445],[105.6878,12.8509],[105.6891,12.8545],[105.6899,12.8586],[105.6891,12.8647],[105.6871,12.8721],[105.6807,12.8853],[105.6738,12.8958],[105.662,12.907],[105.6604,12.9102],[105.6598,12.9144],[105.6618,12.9204],[105.6637,12.9242],[105.6703,12.9328],[105.6735,12.9391],[105.6742,12.9427],[105.6738,12.9473],[105.6716,12.9526],[105.6661,12.9602],[105.6624,12.9644],[105.659,12.9674],[105.6534,12.971],[105.6511,12.9732],[105.6489,12.9792],[105.6379,13.0476],[105.6376,13.0554],[105.6385,13.061],[105.6454,13.0779],[105.6472,13.0854],[105.6461,13.0915],[105.6432,13.0988],[105.6349,13.1121],[105.6266,13.123],[105.6124,13.1361],[105.6102,13.1387],[105.5777,13.2698],[105.6649,13.2289],[105.7034,13.2196],[105.7166,13.2128],[105.8066,13.1443],[105.8385,13.1271],[105.8608,13.1177],[105.8693,13.1159],[105.8803,13.1161],[105.8945,13.1174],[105.9346,13.1303],[105.9375,13.1318],[105.9428,13.1375],[105.9495,13.1466],[105.968,13.1796],[105.9708,13.1877],[105.9711,13.2013],[105.9723,13.2052],[105.975,13.2091],[105.9818,13.2116],[105.986,13.2115],[105.9889,13.2109],[105.9905,13.2101],[106.0067,13.2041],[106.0093,13.2036],[106.0122,13.2034],[106.0159,13.2037],[106.0195,13.2045],[106.0228,13.2058],[106.0252,13.2075],[106.0271,13.2103],[106.029,13.2149],[106.0355,13.2476],[106.038,13.2535],[106.1003,13.3433],[106.1121,13.3525],[106.1178,13.3561],[106.1264,13.3599],[106.1349,13.3621],[106.1807,13.3655],[106.2072,13.3607],[106.215,13.3614],[106.2214,13.364],[106.2279,13.3703],[106.2384,13.3832],[106.2436,13.3869],[106.2505,13.3907],[106.3084,13.4153],[106.3249,13.4192],[106.3616,13.4222],[106.3644,13.3123],[106.3597,13.2935],[106.3595,13.2894],[106.3648,13.2684],[106.3787,13.2304],[106.3886,13.2176],[106.4194,13.2009],[106.4288,13.1934],[106.4341,13.1867],[106.436,13.1835],[106.4377,13.18],[106.4388,13.1764],[106.4397,13.1721],[106.4398,13.1667],[106.4386,13.163],[106.4364,13.1602],[106.4333,13.1588],[106.4293,13.1581],[106.372,13.1592],[106.3671,13.1571],[106.3618,13.1529],[106.3537,13.1432],[106.3501,13.1372],[106.3483,13.1321],[106.348,13.1282],[106.3489,13.1014],[106.3506,13.095],[106.3529,13.0907],[106.3579,13.0864],[106.3882,13.0447],[106.3911,13.0414],[106.3936,13.0394],[106.3964,13.0377],[106.4089,13.0316],[106.4119,13.0294],[106.4145,13.0263],[106.4216,13.0157],[106.4282,13.009],[106.437,13.0037],[106.4476,12.999],[106.4507,12.9981],[106.4543,12.9975],[106.4714,12.9975],[106.4755,12.997],[106.4835,12.9952],[106.4867,12.9938],[106.49,12.9916],[106.5024,12.9775],[106.5616,12.9421],[106.5984,12.9274],[106.6057,12.923],[106.6093,12.9197],[106.6118,12.9162],[106.6138,12.9089],[106.6149,12.897],[106.6197,12.8596],[106.6178,12.8476],[106.6156,12.8452],[106.6129,12.8431],[106.6099,12.8414],[106.6035,12.839],[106.5981,12.8346],[106.5913,12.8274],[106.5787,12.8091],[106.572,12.8014],[106.5669,12.7966],[106.5381,12.7843],[106.5169,12.7783],[106.4983,12.7677],[106.4743,12.762],[106.4343,12.7377],[106.4194,12.7233],[106.3968,12.6869],[106.3711,12.5917],[106.3669,12.5663],[106.3696,12.551],[106.3692,12.529],[106.37,12.5254],[106.3711,12.522],[106.3747,12.517],[106.3796,12.5136],[106.4085,12.5001],[106.4558,12.4705],[106.469,12.4647],[106.4894,12.4528],[106.4973,12.4471],[106.5016,12.4446],[106.5076,12.4419],[106.5221,12.4373],[106.5252,12.4358],[106.5282,12.434],[106.5526,12.4122],[106.5562,12.4076],[106.5609,12.4004],[106.5719,12.376],[106.5849,12.332],[106.589,12.3227],[106.5922,12.3189],[106.5967,12.3149],[106.6121,12.3059],[106.628,12.3003],[106.6532,12.2966],[106.6948,12.2853],[106.7082,12.2795],[106.7197,12.2723],[106.7292,12.2677],[106.7329,12.2655],[106.7365,12.2622],[106.7468,12.251],[106.7536,12.2454],[106.7614,12.2374],[106.769,12.2257],[106.7736,12.2152],[106.7879,12.1934],[106.7887,12.1843],[106.7843,12.1176],[106.7893,12.0737],[106.7905,12.0676],[106.7906,12.0674]]]}},{"type":"Feature","properties":{"id":"KHM-1784","name":"Kâmpóng Cham","nameBn":"কামপং চাম প্রদেশ","type":"Province","bounds":[104.8187,11.6415,106.4388,12.5076],"center":[105.629,12.1206]},"geometry":{"type":"Polygon","coordinates":[[[106.4346,11.6784],[106.435,11.6773],[106.4258,11.6621],[106.4128,11.6618],[106.4001,11.6685],[106.3781,11.6838],[106.3642,11.6885],[106.3543,11.6901],[106.3437,11.6891],[106.2873,11.6746],[106.2741,11.6768],[106.2651,11.684],[106.2508,11.7061],[106.2432,11.7146],[106.2236,11.725],[106.1546,11.7463],[106.1132,11.7471],[106.0612,11.7629],[106.0154,11.7705],[105.9921,11.7463],[105.9913,11.7325],[105.9888,11.719],[105.9831,11.7067],[105.9553,11.678],[105.9462,11.6571],[105.9341,11.6429],[105.9055,11.6443],[105.8579,11.6616],[105.8409,11.6582],[105.821,11.6415],[105.8211,11.6419],[105.8219,11.6463],[105.8319,11.6705],[105.8331,11.6863],[105.8314,11.6925],[105.826,11.6951],[105.7902,11.6893],[105.7874,11.6893],[105.7755,11.6914],[105.7673,11.694],[105.76,11.6971],[105.7517,11.7017],[105.7275,11.7197],[105.6995,11.746],[105.6272,11.7465],[105.5032,11.7679],[105.4669,11.7715],[105.4601,11.7733],[105.4486,11.7778],[105.4452,11.7799],[105.4424,11.782],[105.4374,11.7881],[105.4343,11.7931],[105.4225,11.8205],[105.4073,11.8416],[105.3483,11.8648],[105.3294,11.8688],[105.3186,11.8669],[105.3103,11.8634],[105.3001,11.8575],[105.282,11.8434],[105.2729,11.8345],[105.2343,11.7995],[105.1545,11.7471],[105.0729,11.7631],[105.0531,11.7721],[105.052,11.7772],[105.0512,11.7944],[105.0517,11.7985],[105.0527,11.8022],[105.0546,11.8059],[105.0576,11.8079],[105.0608,11.8086],[105.0695,11.8096],[105.0737,11.812],[105.0754,11.8158],[105.0742,11.8216],[105.0706,11.8255],[105.0675,11.8278],[105.0301,11.846],[104.9991,11.889],[104.9804,11.8932],[104.9761,11.8719],[104.9719,11.868],[104.9671,11.871],[104.9637,11.872],[104.957,11.8712],[104.9527,11.8674],[104.9493,11.8624],[104.934,11.824],[104.9299,11.8186],[104.9256,11.8164],[104.9219,11.8174],[104.9173,11.8173],[104.9119,11.8159],[104.9036,11.8113],[104.899,11.8096],[104.8948,11.8101],[104.8884,11.8161],[104.8692,11.8204],[104.8658,11.8233],[104.8606,11.8291],[104.8577,11.8301],[104.8557,11.8291],[104.8538,11.8266],[104.8515,11.8249],[104.8464,11.8239],[104.8431,11.8271],[104.8419,11.8328],[104.8423,11.84],[104.8395,11.858],[104.8187,11.8918],[104.8509,11.9631],[104.8585,11.9752],[104.8627,11.9797],[104.8675,11.9832],[104.872,11.9855],[104.8766,11.9868],[104.8808,11.9872],[104.9052,11.9827],[104.9099,11.9836],[104.9119,11.9862],[104.9112,11.9898],[104.9063,11.9941],[104.8974,11.9963],[104.8964,11.9985],[104.8946,12.0035],[104.8937,12.0437],[104.8923,12.0495],[104.8909,12.0536],[104.876,12.0698],[104.8686,12.0767],[104.8675,12.0808],[104.8675,12.0864],[104.8763,12.1072],[104.8834,12.1366],[104.9001,12.1753],[104.9015,12.1803],[104.9001,12.194],[104.8874,12.2351],[104.9112,12.2544],[104.9244,12.2608],[104.9319,12.2613],[104.969,12.259],[104.9744,12.2581],[104.9775,12.2567],[104.98,12.255],[105.0001,12.233],[105.0313,12.2239],[105.0979,12.2182],[105.1007,12.217],[105.1124,12.2074],[105.1162,12.2057],[105.1196,12.2049],[105.1248,12.2055],[105.1304,12.2077],[105.1395,12.2106],[105.1654,12.2134],[105.1902,12.1941],[105.1989,12.1925],[105.2027,12.1951],[105.2037,12.1967],[105.2045,12.1992],[105.2042,12.2026],[105.2028,12.2098],[105.2005,12.2165],[105.1666,12.2912],[105.1659,12.3123],[105.1648,12.3178],[105.1632,12.322],[105.1397,12.3575],[105.1372,12.3654],[105.1373,12.3708],[105.1401,12.3727],[105.153,12.3787],[105.1679,12.39],[105.1713,12.3916],[105.1752,12.3927],[105.1913,12.3908],[105.1992,12.3913],[105.2073,12.3929],[105.2146,12.3935],[105.2231,12.3926],[105.2273,12.3916],[105.2359,12.3911],[105.2652,12.3921],[105.2691,12.3913],[105.2726,12.39],[105.2757,12.3885],[105.2835,12.3823],[105.2866,12.3807],[105.2901,12.3794],[105.2942,12.3787],[105.3075,12.3779],[105.3117,12.3772],[105.3152,12.3761],[105.3184,12.3744],[105.3208,12.3723],[105.3231,12.3699],[105.3249,12.3671],[105.328,12.3612],[105.3297,12.3585],[105.3319,12.3562],[105.3344,12.3542],[105.3374,12.3523],[105.3418,12.3514],[105.347,12.3518],[105.355,12.3557],[105.3589,12.3589],[105.3667,12.3723],[105.3999,12.4837],[105.4342,12.4872],[105.4473,12.4856],[105.4591,12.4806],[105.4643,12.4775],[105.4665,12.4758],[105.4782,12.4688],[105.4939,12.4613],[105.5018,12.4589],[105.5079,12.4579],[105.5176,12.4603],[105.5236,12.4627],[105.5285,12.4658],[105.5415,12.4779],[105.5564,12.4862],[105.5615,12.4876],[105.752,12.5076],[105.7636,12.4703],[105.7777,12.3929],[105.781,12.3425],[105.7794,12.3354],[105.7762,12.326],[105.7667,12.3128],[105.7613,12.307],[105.7566,12.3032],[105.7538,12.2983],[105.7521,12.294],[105.75,12.2642],[105.7537,12.2633],[105.7594,12.266],[105.8091,12.255],[105.8274,12.2542],[105.8312,12.2546],[105.8362,12.2508],[105.845,12.2101],[105.8728,12.2154],[105.8763,12.2164],[105.8842,12.2225],[105.8874,12.2236],[105.8914,12.2242],[105.8956,12.2244],[105.9017,12.2235],[105.9093,12.2215],[105.94,12.2097],[105.9737,12.2035],[105.9877,12.1968],[106.0142,12.1785],[106.0173,12.1749],[106.0193,12.1718],[106.0243,12.1526],[106.0376,12.149],[106.0412,12.1496],[106.0457,12.1497],[106.0502,12.1479],[106.055,12.1433],[106.0624,12.1314],[106.0654,12.1244],[106.0668,12.1185],[106.0663,12.1143],[106.0654,12.1108],[106.064,12.1075],[106.0604,12.1016],[106.058,12.0992],[106.0559,12.0968],[106.0549,12.0942],[106.057,12.0912],[106.0614,12.088],[106.0718,12.0838],[106.0895,12.0747],[106.0938,12.0732],[106.1062,12.0729],[106.1102,12.0723],[106.1154,12.0697],[106.1331,12.057],[106.1447,12.0503],[106.1509,12.0477],[106.1542,12.0459],[106.1593,12.0403],[106.1656,12.0315],[106.1817,12.0007],[106.1817,11.9999],[106.1814,11.9967],[106.1799,11.9936],[106.1773,11.9892],[106.1723,11.9838],[106.1695,11.9818],[106.1672,11.9795],[106.1652,11.9769],[106.1636,11.9739],[106.1623,11.9707],[106.1618,11.9671],[106.1618,11.9633],[106.1625,11.9597],[106.1743,11.955],[106.2215,11.9553],[106.2271,11.9479],[106.2296,11.9454],[106.2322,11.9435],[106.2355,11.9422],[106.2408,11.9421],[106.2481,11.9435],[106.2759,11.9538],[106.2809,11.9543],[106.2874,11.954],[106.3104,11.949],[106.3191,11.9496],[106.3888,11.9658],[106.3954,11.9658],[106.4035,11.9429],[106.4331,11.8884],[106.4388,11.8637],[106.4362,11.8612],[106.4214,11.8376],[106.4203,11.831],[106.4196,11.812],[106.4183,11.8034],[106.4114,11.7892],[106.4031,11.7759],[106.3978,11.7621],[106.3989,11.7463],[106.4261,11.7005],[106.4346,11.6784]]]}},{"type":"Feature","properties":{"id":"KHM-1785","name":"Kâmpóng Chhnang","nameBn":"কামপং ছনাং প্রদেশ","type":"Province","bounds":[104.1801,11.7361,104.915,12.601],"center":[104.548,12.1624]},"geometry":{"type":"Polygon","coordinates":[[[104.1985,12.1078],[104.1801,12.1834],[104.1869,12.2246],[104.1916,12.2392],[104.2199,12.2773],[104.2229,12.2805],[104.2254,12.2818],[104.2318,12.284],[104.2618,12.2903],[104.2663,12.2926],[104.2715,12.2959],[104.2875,12.3105],[104.2958,12.316],[104.303,12.3182],[104.3065,12.3189],[104.3118,12.3208],[104.33,12.3319],[104.3372,12.3382],[104.3421,12.3438],[104.3441,12.3472],[104.3498,12.3598],[104.3591,12.3865],[104.3649,12.3954],[104.3925,12.4212],[104.3969,12.4281],[104.3986,12.4335],[104.3938,12.4513],[104.3945,12.4644],[104.4023,12.5001],[104.4021,12.5106],[104.4051,12.5513],[104.4342,12.53],[104.4457,12.5264],[104.4623,12.5231],[104.504,12.5194],[104.5202,12.5408],[104.5247,12.5484],[104.5275,12.5554],[104.5295,12.5583],[104.5346,12.5623],[104.5553,12.5739],[104.5713,12.5806],[104.5854,12.5892],[104.6024,12.5964],[104.624,12.6009],[104.6298,12.601],[104.667,12.5907],[104.7707,12.545],[104.8304,12.5326],[104.8237,12.5001],[104.8232,12.4915],[104.8281,12.4799],[104.8351,12.4678],[104.8411,12.453],[104.8648,12.4125],[104.8675,12.4061],[104.8675,12.3988],[104.864,12.3772],[104.8666,12.3772],[104.8689,12.3778],[104.8945,12.3915],[104.9049,12.392],[104.908,12.391],[104.9108,12.3888],[104.9122,12.386],[104.9147,12.3752],[104.915,12.3714],[104.914,12.3667],[104.9091,12.3536],[104.9045,12.3455],[104.8983,12.3363],[104.87,12.3068],[104.8523,12.2998],[104.8569,12.2807],[104.8591,12.2744],[104.8714,12.2512],[104.8874,12.2351],[104.9001,12.194],[104.9015,12.1803],[104.9001,12.1753],[104.8834,12.1366],[104.8763,12.1072],[104.8675,12.0864],[104.8675,12.0808],[104.8686,12.0767],[104.876,12.0698],[104.8909,12.0536],[104.8923,12.0495],[104.8937,12.0437],[104.8946,12.0035],[104.8964,11.9985],[104.8974,11.9963],[104.9063,11.9941],[104.9112,11.9898],[104.9119,11.9862],[104.9099,11.9836],[104.9052,11.9827],[104.8808,11.9872],[104.8766,11.9868],[104.872,11.9855],[104.8675,11.9832],[104.8627,11.9797],[104.8585,11.9752],[104.8509,11.9631],[104.8187,11.8918],[104.8022,11.8852],[104.7872,11.8815],[104.7822,11.8771],[104.7677,11.8493],[104.761,11.8226],[104.739,11.8181],[104.7218,11.811],[104.7176,11.8103],[104.7101,11.8101],[104.7028,11.8109],[104.6845,11.8107],[104.6751,11.8095],[104.6284,11.7952],[104.5572,11.7628],[104.5278,11.7401],[104.5216,11.7372],[104.5179,11.7361],[104.5134,11.7396],[104.5106,11.7414],[104.4996,11.7462],[104.4647,11.7571],[104.4614,11.7588],[104.4331,11.7785],[104.4209,11.7845],[104.3848,11.7874],[104.3736,11.7914],[104.3657,11.8016],[104.3242,11.8406],[104.321,11.845],[104.32,11.8485],[104.3175,11.8679],[104.3158,11.875],[104.2797,11.9258],[104.2727,11.9416],[104.2669,11.9628],[104.2643,11.982],[104.2555,11.9967],[104.2541,11.9984],[104.2491,12.0026],[104.2239,12.0197],[104.2164,12.0262],[104.2117,12.0314],[104.2108,12.0348],[104.21,12.0426],[104.2097,12.0675],[104.2077,12.0799],[104.1985,12.1078]]]}},{"type":"Feature","properties":{"id":"KHM-1787","name":"Kâmpóng Spœ","nameBn":"কামপং স্পেউ প্রদেশ","type":"Province","bounds":[103.7767,11.0873,104.7874,12.1078],"center":[104.282,11.5221]},"geometry":{"type":"Polygon","coordinates":[[[103.956,11.5557],[103.9423,11.5585],[103.9388,11.5601],[103.9351,11.5633],[103.9274,11.5762],[103.9175,11.5847],[103.8471,11.6293],[103.8268,11.6484],[103.819,11.6503],[103.809,11.6537],[103.8055,11.6561],[103.8025,11.6593],[103.7997,11.6649],[103.7982,11.6715],[103.7978,11.6796],[103.7985,11.6965],[103.7974,11.7067],[103.7785,11.7777],[103.7767,11.7964],[103.7779,11.8073],[103.7805,11.8194],[103.787,11.8386],[103.7876,11.8509],[103.7867,11.8603],[103.7845,11.8675],[103.7833,11.8749],[103.783,11.8823],[103.7838,11.889],[103.785,11.8925],[103.7867,11.8948],[103.7887,11.8962],[103.7931,11.8983],[103.8635,11.9084],[103.8841,11.9315],[103.8874,11.9342],[103.8927,11.9375],[103.8965,11.9383],[103.9057,11.9435],[103.9153,11.9533],[103.9307,11.9724],[103.9382,11.9795],[103.9448,11.9824],[103.9507,11.9807],[103.9579,11.9778],[103.9647,11.9732],[103.9704,11.968],[103.9833,11.9516],[103.9886,11.9475],[103.9951,11.9456],[104.0069,11.9451],[104.0176,11.9484],[104.0705,11.9753],[104.0738,11.9778],[104.0721,11.9807],[104.0605,11.9935],[104.0592,11.9988],[104.0622,12.0044],[104.0815,12.0238],[104.0874,12.0322],[104.0981,12.0631],[104.1029,12.0716],[104.1116,12.0811],[104.1203,12.0845],[104.142,12.0869],[104.1503,12.0869],[104.1676,12.0826],[104.1762,12.0859],[104.1821,12.0904],[104.1985,12.1078],[104.2077,12.0799],[104.2097,12.0675],[104.21,12.0426],[104.2108,12.0348],[104.2117,12.0314],[104.2164,12.0262],[104.2239,12.0197],[104.2491,12.0026],[104.2541,11.9984],[104.2555,11.9967],[104.2643,11.982],[104.2669,11.9628],[104.2727,11.9416],[104.2797,11.9258],[104.3158,11.875],[104.3175,11.8679],[104.32,11.8485],[104.321,11.845],[104.3242,11.8406],[104.3657,11.8016],[104.3736,11.7914],[104.3848,11.7874],[104.4209,11.7845],[104.4331,11.7785],[104.4614,11.7588],[104.4647,11.7571],[104.4996,11.7462],[104.5106,11.7414],[104.5134,11.7396],[104.5179,11.7361],[104.5216,11.7372],[104.5278,11.7401],[104.5572,11.7628],[104.6284,11.7952],[104.6751,11.8095],[104.6845,11.8107],[104.7028,11.8109],[104.7101,11.8101],[104.7176,11.8103],[104.7218,11.811],[104.739,11.8181],[104.761,11.8226],[104.7613,11.7824],[104.7587,11.7699],[104.7542,11.7649],[104.7492,11.761],[104.7433,11.7578],[104.7336,11.7538],[104.724,11.7457],[104.7146,11.735],[104.7106,11.7288],[104.708,11.7236],[104.7002,11.6829],[104.6699,11.612],[104.6662,11.5708],[104.6509,11.4456],[104.6664,11.4237],[104.6934,11.4144],[104.7731,11.4162],[104.7841,11.4152],[104.7874,11.411],[104.7441,11.3555],[104.7134,11.3276],[104.7053,11.3188],[104.7025,11.3081],[104.6887,11.2231],[104.683,11.1936],[104.6732,11.1484],[104.6736,11.1001],[104.6397,11.0973],[104.6287,11.0943],[104.6229,11.0909],[104.6166,11.0885],[104.6129,11.0876],[104.5612,11.0873],[104.5556,11.089],[104.5329,11.1019],[104.523,11.1044],[104.5121,11.1061],[104.483,11.1064],[104.4707,11.1088],[104.4376,11.1213],[104.411,11.132],[104.3385,11.1293],[104.262,11.1192],[104.1829,11.1359],[104.1698,11.1417],[104.161,11.1469],[104.1447,11.1609],[104.1135,11.2503],[104.107,11.2581],[104.098,11.2673],[104.096,11.2698],[104.0927,11.2759],[104.0924,11.2829],[104.093,11.2933],[104.0972,11.3166],[104.1006,11.3276],[104.105,11.3354],[104.1127,11.3425],[104.116,11.3466],[104.1179,11.3516],[104.1165,11.362],[104.1115,11.3757],[104.0981,11.4009],[104.0891,11.4136],[104.0761,11.4272],[104.0724,11.4332],[104.0577,11.4626],[104.0558,11.4707],[104.0559,11.4791],[104.062,11.4911],[104.0732,11.5071],[104.0733,11.5137],[104.0727,11.5194],[104.054,11.5373],[104.026,11.5469],[104.0085,11.5565],[103.9908,11.5609],[103.979,11.5615],[103.971,11.5598],[103.9608,11.5564],[103.956,11.5557]]]}},{"type":"Feature","properties":{"id":"KHM-1788","name":"Kâmpóng Thum","nameBn":"কামপং থোম প্রদেশ","type":"Province","bounds":[104.1917,12.1925,105.752,13.4687],"center":[104.972,12.6883]},"geometry":{"type":"Polygon","coordinates":[[[104.4051,12.5513],[104.2407,12.6911],[104.1917,12.7491],[104.2173,12.7651],[104.2264,12.7957],[104.2314,12.8055],[104.2737,12.852],[104.2862,12.8613],[104.312,12.8746],[104.3247,12.884],[104.3275,12.8857],[104.3551,12.8978],[104.3723,12.9084],[104.3794,12.9139],[104.3835,12.9175],[104.3919,12.9393],[104.4057,12.9912],[104.4402,13.0493],[104.4417,13.0556],[104.4434,13.0718],[104.4451,13.0779],[104.4474,13.0801],[104.4529,13.08],[104.4583,13.0784],[104.4668,13.0781],[104.4697,13.0815],[104.4709,13.0872],[104.4692,13.1127],[104.4772,13.2003],[104.4816,13.2157],[104.4844,13.2223],[104.4875,13.2266],[104.4933,13.2295],[104.5287,13.2423],[104.5376,13.247],[104.5503,13.2577],[104.5556,13.2646],[104.5634,13.2837],[104.6595,13.3355],[104.6942,13.349],[104.7272,13.3586],[104.7888,13.3571],[104.885,13.3387],[104.8945,13.3355],[104.901,13.3309],[104.9019,13.3228],[104.8992,13.3154],[104.889,13.2951],[104.8836,13.2761],[104.8785,13.2305],[104.8817,13.1916],[104.8858,13.1714],[104.8943,13.1513],[104.8998,13.1439],[104.9041,13.139],[104.9161,13.1288],[104.9384,13.1213],[104.9973,13.1155],[105.0954,13.1627],[105.1645,13.2217],[105.1719,13.2303],[105.1854,13.2505],[105.1895,13.2548],[105.387,13.3908],[105.4104,13.399],[105.5458,13.4687],[105.5479,13.3925],[105.5456,13.3688],[105.5512,13.3353],[105.5777,13.2698],[105.6102,13.1387],[105.6124,13.1361],[105.6266,13.123],[105.6349,13.1121],[105.6432,13.0988],[105.6461,13.0915],[105.6472,13.0854],[105.6454,13.0779],[105.6385,13.061],[105.6376,13.0554],[105.6379,13.0476],[105.6489,12.9792],[105.6511,12.9732],[105.6534,12.971],[105.659,12.9674],[105.6624,12.9644],[105.6661,12.9602],[105.6716,12.9526],[105.6738,12.9473],[105.6742,12.9427],[105.6735,12.9391],[105.6703,12.9328],[105.6637,12.9242],[105.6618,12.9204],[105.6598,12.9144],[105.6604,12.9102],[105.662,12.907],[105.6738,12.8958],[105.6807,12.8853],[105.6871,12.8721],[105.6891,12.8647],[105.6899,12.8586],[105.6891,12.8545],[105.6878,12.8509],[105.685,12.8445],[105.6831,12.8416],[105.6807,12.8306],[105.6828,12.7979],[105.6806,12.7784],[105.6925,12.7371],[105.6943,12.7149],[105.7251,12.6262],[105.752,12.5076],[105.5615,12.4876],[105.5564,12.4862],[105.5415,12.4779],[105.5285,12.4658],[105.5236,12.4627],[105.5176,12.4603],[105.5079,12.4579],[105.5018,12.4589],[105.4939,12.4613],[105.4782,12.4688],[105.4665,12.4758],[105.4643,12.4775],[105.4591,12.4806],[105.4473,12.4856],[105.4342,12.4872],[105.3999,12.4837],[105.3667,12.3723],[105.3589,12.3589],[105.355,12.3557],[105.347,12.3518],[105.3418,12.3514],[105.3374,12.3523],[105.3344,12.3542],[105.3319,12.3562],[105.3297,12.3585],[105.328,12.3612],[105.3249,12.3671],[105.3231,12.3699],[105.3208,12.3723],[105.3184,12.3744],[105.3152,12.3761],[105.3117,12.3772],[105.3075,12.3779],[105.2942,12.3787],[105.2901,12.3794],[105.2866,12.3807],[105.2835,12.3823],[105.2757,12.3885],[105.2726,12.39],[105.2691,12.3913],[105.2652,12.3921],[105.2359,12.3911],[105.2273,12.3916],[105.2231,12.3926],[105.2146,12.3935],[105.2073,12.3929],[105.1992,12.3913],[105.1913,12.3908],[105.1752,12.3927],[105.1713,12.3916],[105.1679,12.39],[105.153,12.3787],[105.1401,12.3727],[105.1373,12.3708],[105.1372,12.3654],[105.1397,12.3575],[105.1632,12.322],[105.1648,12.3178],[105.1659,12.3123],[105.1666,12.2912],[105.2005,12.2165],[105.2028,12.2098],[105.2042,12.2026],[105.2045,12.1992],[105.2037,12.1967],[105.2027,12.1951],[105.1989,12.1925],[105.1902,12.1941],[105.1654,12.2134],[105.1395,12.2106],[105.1304,12.2077],[105.1248,12.2055],[105.1196,12.2049],[105.1162,12.2057],[105.1124,12.2074],[105.1007,12.217],[105.0979,12.2182],[105.0313,12.2239],[105.0001,12.233],[104.98,12.255],[104.9775,12.2567],[104.9744,12.2581],[104.969,12.259],[104.9319,12.2613],[104.9244,12.2608],[104.9112,12.2544],[104.8874,12.2351],[104.8714,12.2512],[104.8591,12.2744],[104.8569,12.2807],[104.8523,12.2998],[104.87,12.3068],[104.8983,12.3363],[104.9045,12.3455],[104.9091,12.3536],[104.914,12.3667],[104.915,12.3714],[104.9147,12.3752],[104.9122,12.386],[104.9108,12.3888],[104.908,12.391],[104.9049,12.392],[104.8945,12.3915],[104.8689,12.3778],[104.8666,12.3772],[104.864,12.3772],[104.8675,12.3988],[104.8675,12.4061],[104.8648,12.4125],[104.8411,12.453],[104.8351,12.4678],[104.8281,12.4799],[104.8232,12.4915],[104.8237,12.5001],[104.8304,12.5326],[104.7707,12.545],[104.667,12.5907],[104.6298,12.601],[104.624,12.6009],[104.6024,12.5964],[104.5854,12.5892],[104.5713,12.5806],[104.5553,12.5739],[104.5346,12.5623],[104.5295,12.5583],[104.5275,12.5554],[104.5247,12.5484],[104.5202,12.5408],[104.504,12.5194],[104.4623,12.5231],[104.4457,12.5264],[104.4342,12.53],[104.4051,12.5513]]]}},{"type":"Feature","properties":{"id":"KHM-1797","name":"Kâmpôt","nameBn":"কামপট প্রদেশ","type":"Province","bounds":[103.9169,10.4158,104.7392,11.1609],"center":[104.328,10.8503]},"geometry":{"type":"Polygon","coordinates":[[[104.7006,10.5242],[104.6255,10.5334],[104.5825,10.5315],[104.5668,10.5281],[104.554,10.5183],[104.5443,10.5038],[104.536,10.488],[104.4943,10.4277],[104.4837,10.418],[104.4696,10.4158],[104.4513,10.4197],[104.4513,10.4198],[104.4492,10.4256],[104.4324,10.4463],[104.4242,10.4511],[104.4241,10.4512],[104.4223,10.4597],[104.4184,10.4638],[104.4117,10.4691],[104.4099,10.4769],[104.4108,10.5072],[104.4035,10.5255],[104.3876,10.5544],[104.3756,10.5657],[104.3536,10.5742],[104.3124,10.5718],[104.3027,10.5736],[104.2904,10.5738],[104.2831,10.576],[104.2688,10.5523],[104.2686,10.5521],[104.2566,10.5658],[104.2498,10.5703],[104.2427,10.569],[104.2366,10.5646],[104.2303,10.5631],[104.2227,10.5703],[104.207,10.55],[104.1812,10.5495],[104.1301,10.5628],[104.1131,10.5609],[104.089,10.5546],[104.0718,10.556],[103.9761,10.5825],[103.9592,10.5839],[103.9456,10.5881],[103.918,10.6112],[103.9169,10.616],[103.917,10.6161],[103.9194,10.6182],[103.9239,10.6238],[103.9423,10.6524],[103.9507,10.6695],[103.9538,10.6784],[103.9549,10.693],[103.9543,10.7135],[103.9438,10.7966],[103.9436,10.8048],[103.9505,10.8519],[103.9509,10.9555],[103.942,10.9889],[103.9859,11.0431],[103.9954,11.0527],[104.0004,11.0555],[104.0055,11.0565],[104.0129,11.054],[104.0195,11.0507],[104.0271,11.0484],[104.0353,11.048],[104.0457,11.052],[104.0506,11.0545],[104.0651,11.0718],[104.0939,11.1215],[104.0949,11.1235],[104.1012,11.1475],[104.1065,11.1513],[104.1106,11.1535],[104.1447,11.1609],[104.161,11.1469],[104.1698,11.1417],[104.1829,11.1359],[104.262,11.1192],[104.3385,11.1293],[104.411,11.132],[104.4376,11.1213],[104.4355,11.0889],[104.4362,11.0793],[104.439,11.0715],[104.444,11.0642],[104.454,11.0576],[104.4623,11.0547],[104.4946,11.0486],[104.514,11.0424],[104.525,11.0362],[104.5366,11.0256],[104.5394,11.0183],[104.5511,10.9633],[104.5531,10.9603],[104.5556,10.954],[104.5545,10.9417],[104.5436,10.9094],[104.545,10.9031],[104.547,10.9011],[104.5776,10.8889],[104.6099,10.8975],[104.6299,10.9048],[104.646,10.903],[104.7025,10.8891],[104.7392,10.7928],[104.7138,10.7717],[104.7053,10.7609],[104.6971,10.7483],[104.6788,10.7126],[104.6763,10.6956],[104.6883,10.6576],[104.6965,10.6481],[104.7,10.647],[104.7031,10.6457],[104.7061,10.6437],[104.7084,10.6412],[104.7095,10.619],[104.7018,10.5312],[104.7007,10.5244],[104.7006,10.5242]]]}},{"type":"Feature","properties":{"id":"KHM-1786","name":"Kândal","nameBn":"কান্দাল প্রদেশ","type":"Province","bounds":[104.6509,10.8916,105.295,11.8932],"center":[104.973,11.5453]},"geometry":{"type":"Polygon","coordinates":[[[105.2091,10.8916],[105.1118,10.9096],[105.0975,10.9143],[105.0861,10.9295],[105.0837,10.9426],[105.0779,10.9469],[105.0558,10.9355],[105.0428,10.9264],[105.0385,10.9226],[105.0385,10.9227],[105.034,10.9298],[105.0326,10.9327],[105.0312,10.9362],[105.0222,10.9685],[105.0194,10.9753],[105.0165,10.9794],[105.0141,10.9817],[105.0118,10.9842],[105.0103,10.9889],[105.0091,11.0095],[105.0168,11.0412],[105.0127,11.089],[105.0141,11.1129],[105.0269,11.1609],[105.0265,11.1701],[105.0197,11.1853],[105.0001,11.1988],[104.9806,11.2137],[104.9694,11.2252],[104.9487,11.2554],[104.9427,11.2588],[104.9378,11.2628],[104.9359,11.2653],[104.9345,11.2684],[104.933,11.2834],[104.9351,11.3289],[104.9314,11.3345],[104.9292,11.3362],[104.923,11.3386],[104.8878,11.3465],[104.8821,11.3489],[104.8793,11.3508],[104.8759,11.3526],[104.8709,11.3533],[104.8645,11.3532],[104.8343,11.3452],[104.8034,11.3429],[104.7902,11.3407],[104.7816,11.3365],[104.78,11.3359],[104.7702,11.3382],[104.7441,11.3555],[104.7874,11.411],[104.7841,11.4152],[104.7731,11.4162],[104.6934,11.4144],[104.6664,11.4237],[104.6509,11.4456],[104.6662,11.5708],[104.6699,11.612],[104.7002,11.6829],[104.708,11.7236],[104.7106,11.7288],[104.7146,11.735],[104.724,11.7457],[104.7336,11.7538],[104.7433,11.7578],[104.7492,11.761],[104.7542,11.7649],[104.7587,11.7699],[104.7613,11.7824],[104.761,11.8226],[104.7677,11.8493],[104.7822,11.8771],[104.7872,11.8815],[104.8022,11.8852],[104.8187,11.8918],[104.8395,11.858],[104.8423,11.84],[104.8419,11.8328],[104.8431,11.8271],[104.8464,11.8239],[104.8515,11.8249],[104.8538,11.8266],[104.8557,11.8291],[104.8577,11.8301],[104.8606,11.8291],[104.8658,11.8233],[104.8692,11.8204],[104.8884,11.8161],[104.8948,11.8101],[104.899,11.8096],[104.9036,11.8113],[104.9119,11.8159],[104.9173,11.8173],[104.9219,11.8174],[104.9256,11.8164],[104.9299,11.8186],[104.934,11.824],[104.9493,11.8624],[104.9527,11.8674],[104.957,11.8712],[104.9637,11.872],[104.9671,11.871],[104.9719,11.868],[104.9761,11.8719],[104.9804,11.8932],[104.9991,11.889],[105.0301,11.846],[105.0675,11.8278],[105.0706,11.8255],[105.0742,11.8216],[105.0754,11.8158],[105.0737,11.812],[105.0695,11.8096],[105.0608,11.8086],[105.0576,11.8079],[105.0546,11.8059],[105.0527,11.8022],[105.0517,11.7985],[105.0512,11.7944],[105.052,11.7772],[105.0531,11.7721],[105.0729,11.7631],[105.1545,11.7471],[105.157,11.7375],[105.1575,11.7342],[105.1575,11.7256],[105.1556,11.7197],[105.1519,11.7122],[105.1353,11.6876],[105.1341,11.6866],[105.133,11.6854],[105.1313,11.6817],[105.1305,11.6767],[105.1314,11.6681],[105.1335,11.6593],[105.1364,11.6521],[105.1375,11.6481],[105.1336,11.633],[105.1124,11.5954],[105.1146,11.5856],[105.1174,11.5793],[105.1369,11.5444],[105.1421,11.5381],[105.1491,11.5318],[105.1992,11.5052],[105.272,11.4456],[105.2861,11.4371],[105.295,11.4265],[105.2945,11.4039],[105.2718,11.3915],[105.2634,11.3842],[105.2686,11.3414],[105.2892,11.2606],[105.2905,11.2331],[105.2821,11.2103],[105.2495,11.1755],[105.2366,11.155],[105.2222,11.1041],[105.1994,11.0504],[105.1939,11.0224],[105.1943,10.9944],[105.2091,10.8916]],[[104.9235,11.4463],[104.9263,11.4476],[104.9289,11.4502],[104.9378,11.4734],[104.9505,11.4833],[104.9632,11.4955],[104.9654,11.5075],[104.9676,11.5509],[104.948,11.5588],[104.9463,11.5608],[104.944,11.5646],[104.9413,11.5942],[104.9342,11.624],[104.9247,11.6526],[104.9241,11.6732],[104.921,11.6767],[104.9162,11.6783],[104.8715,11.681],[104.86,11.6783],[104.8599,11.6751],[104.8606,11.6703],[104.8647,11.661],[104.8697,11.6467],[104.8155,11.646],[104.789,11.5983],[104.7841,11.5777],[104.7841,11.5521],[104.7853,11.5438],[104.7874,11.5373],[104.7936,11.5278],[104.7974,11.5205],[104.7961,11.5115],[104.7809,11.4588],[104.8081,11.4347],[104.8155,11.4342],[104.8263,11.4347],[104.8466,11.4408],[104.8525,11.4436],[104.8571,11.4469],[104.8679,11.4612],[104.8766,11.4673],[104.8833,11.4682],[104.8892,11.4665],[104.9095,11.4495],[104.9235,11.4463]]]}},{"type":"Feature","properties":{"id":"KHM-1794","name":"Môndól Kiri","nameBn":"মন্দলগিরি প্রদেশ","type":"Province","bounds":[106.348,12.0627,107.5749,13.4246],"center":[106.961,12.6284]},"geometry":{"type":"Polygon","coordinates":[[[107.5401,12.7167],[107.5651,12.6064],[107.567,12.5739],[107.5634,12.5436],[107.558,12.5309],[107.5518,12.5201],[107.5496,12.5092],[107.5567,12.4962],[107.5568,12.4961],[107.5567,12.4727],[107.5273,12.3911],[107.5223,12.3666],[107.5143,12.3438],[107.4996,12.3258],[107.4738,12.3154],[107.4496,12.299],[107.4159,12.2541],[107.393,12.2528],[107.3738,12.2694],[107.3438,12.3151],[107.3202,12.3292],[107.2762,12.3254],[107.2278,12.3106],[107.2119,12.3057],[107.1525,12.277],[107.1229,12.2462],[107.1162,12.2321],[107.1042,12.2212],[107.0776,12.2028],[107.046,12.1644],[106.9777,12.0972],[106.9534,12.0811],[106.9163,12.0669],[106.8793,12.0627],[106.803,12.0685],[106.7906,12.0674],[106.7905,12.0676],[106.7893,12.0737],[106.7843,12.1176],[106.7887,12.1843],[106.7879,12.1934],[106.7736,12.2152],[106.769,12.2257],[106.7614,12.2374],[106.7536,12.2454],[106.7468,12.251],[106.7365,12.2622],[106.7329,12.2655],[106.7292,12.2677],[106.7197,12.2723],[106.7082,12.2795],[106.6948,12.2853],[106.6532,12.2966],[106.628,12.3003],[106.6121,12.3059],[106.5967,12.3149],[106.5922,12.3189],[106.589,12.3227],[106.5849,12.332],[106.5719,12.376],[106.5609,12.4004],[106.5562,12.4076],[106.5526,12.4122],[106.5282,12.434],[106.5252,12.4358],[106.5221,12.4373],[106.5076,12.4419],[106.5016,12.4446],[106.4973,12.4471],[106.4894,12.4528],[106.469,12.4647],[106.4558,12.4705],[106.4085,12.5001],[106.3796,12.5136],[106.3747,12.517],[106.3711,12.522],[106.37,12.5254],[106.3692,12.529],[106.3696,12.551],[106.3669,12.5663],[106.3711,12.5917],[106.3968,12.6869],[106.4194,12.7233],[106.4343,12.7377],[106.4743,12.762],[106.4983,12.7677],[106.5169,12.7783],[106.5381,12.7843],[106.5669,12.7966],[106.572,12.8014],[106.5787,12.8091],[106.5913,12.8274],[106.5981,12.8346],[106.6035,12.839],[106.6099,12.8414],[106.6129,12.8431],[106.6156,12.8452],[106.6178,12.8476],[106.6197,12.8596],[106.6149,12.897],[106.6138,12.9089],[106.6118,12.9162],[106.6093,12.9197],[106.6057,12.923],[106.5984,12.9274],[106.5616,12.9421],[106.5024,12.9775],[106.49,12.9916],[106.4867,12.9938],[106.4835,12.9952],[106.4755,12.997],[106.4714,12.9975],[106.4543,12.9975],[106.4507,12.9981],[106.4476,12.999],[106.437,13.0037],[106.4282,13.009],[106.4216,13.0157],[106.4145,13.0263],[106.4119,13.0294],[106.4089,13.0316],[106.3964,13.0377],[106.3936,13.0394],[106.3911,13.0414],[106.3882,13.0447],[106.3579,13.0864],[106.3529,13.0907],[106.3506,13.095],[106.3489,13.1014],[106.348,13.1282],[106.3483,13.1321],[106.3501,13.1372],[106.3537,13.1432],[106.3618,13.1529],[106.3671,13.1571],[106.372,13.1592],[106.4293,13.1581],[106.4333,13.1588],[106.4364,13.1602],[106.4386,13.163],[106.4398,13.1667],[106.4397,13.1721],[106.4388,13.1764],[106.4377,13.18],[106.436,13.1835],[106.4341,13.1867],[106.4288,13.1934],[106.4194,13.2009],[106.3886,13.2176],[106.3787,13.2304],[106.3648,13.2684],[106.3595,13.2894],[106.3597,13.2935],[106.3644,13.3123],[106.3616,13.4222],[106.4184,13.4246],[106.4389,13.4207],[106.5013,13.3778],[106.519,13.3694],[106.5314,13.3655],[106.5447,13.363],[106.609,13.3356],[106.6586,13.2879],[106.6651,13.2829],[106.7035,13.2585],[106.7385,13.2229],[106.787,13.191],[106.8511,13.1673],[106.8677,13.1653],[106.9093,13.1645],[106.9252,13.1643],[106.9555,13.1702],[106.9669,13.1697],[106.971,13.169],[106.9778,13.1695],[107.003,13.1744],[107.0182,13.1753],[107.0216,13.174],[107.0242,13.172],[107.0266,13.1698],[107.0294,13.1678],[107.0328,13.1667],[107.0382,13.1682],[107.045,13.1716],[107.0663,13.1888],[107.0709,13.1935],[107.0729,13.1962],[107.0745,13.1994],[107.077,13.2185],[107.0786,13.223],[107.0818,13.2287],[107.0832,13.2321],[107.0842,13.2355],[107.0849,13.2396],[107.0848,13.2434],[107.0836,13.2491],[107.0833,13.2499],[107.0795,13.2645],[107.078,13.2678],[107.0746,13.2739],[107.0708,13.279],[107.0675,13.2845],[107.0653,13.2912],[107.0653,13.2951],[107.0661,13.2987],[107.0673,13.3018],[107.0692,13.3046],[107.0824,13.3185],[107.0842,13.3193],[107.0873,13.3194],[107.0995,13.3186],[107.1078,13.3107],[107.1424,13.3233],[107.2025,13.3154],[107.2314,13.3311],[107.2397,13.3462],[107.2452,13.3613],[107.254,13.3701],[107.2723,13.3659],[107.2826,13.3552],[107.2961,13.3234],[107.3071,13.3107],[107.3171,13.3157],[107.3277,13.3176],[107.3511,13.3175],[107.3564,13.3132],[107.3659,13.2944],[107.3714,13.2902],[107.3705,13.2844],[107.3799,13.2782],[107.3993,13.2871],[107.404,13.2905],[107.4104,13.2963],[107.416,13.3029],[107.4202,13.3068],[107.4227,13.3083],[107.4258,13.3098],[107.4379,13.3133],[107.4445,13.3163],[107.4567,13.32],[107.4607,13.3222],[107.4635,13.3247],[107.4664,13.3298],[107.4691,13.3311],[107.4723,13.3312],[107.4778,13.3279],[107.4877,13.3188],[107.4955,13.3142],[107.4993,13.3109],[107.5037,13.3062],[107.5062,13.3046],[107.5096,13.3032],[107.5201,13.3001],[107.5239,13.2983],[107.5295,13.2968],[107.5572,13.2933],[107.5655,13.2912],[107.5747,13.2936],[107.5749,13.2936],[107.5616,13.262],[107.4604,13.0216],[107.463,13.0073],[107.4786,12.9961],[107.4811,12.9888],[107.4814,12.9823],[107.4789,12.9769],[107.4738,12.9729],[107.4678,12.963],[107.4661,12.9522],[107.4684,12.9411],[107.4796,12.9159],[107.4833,12.8856],[107.4874,12.8706],[107.4943,12.8588],[107.5224,12.8275],[107.5359,12.7996],[107.5386,12.7734],[107.5378,12.7466],[107.5401,12.7167]]]}},{"type":"Feature","properties":{"id":"KHM-1782","name":"Otdar Mean Chey","nameBn":"উত্তর মিয়েঞ্চিয়েই প্রদেশ","type":"Province","bounds":[103.0169,13.8872,104.0829,14.444],"center":[103.55,14.1712]},"geometry":{"type":"Polygon","coordinates":[[[103.6472,14.444],[103.6572,14.4412],[103.6654,14.4359],[103.6715,14.4296],[103.6739,14.4193],[103.6717,14.3956],[103.6749,14.3865],[103.6822,14.3838],[103.7165,14.3815],[103.7752,14.367],[103.7942,14.3648],[103.8073,14.366],[103.8155,14.368],[103.824,14.368],[103.8384,14.3634],[103.8492,14.3571],[103.8592,14.3496],[103.8703,14.3433],[103.8852,14.3404],[103.9028,14.3424],[103.908,14.3483],[103.9105,14.3563],[103.9198,14.3646],[103.974,14.3673],[104.0014,14.3451],[104.036,14.3526],[104.0451,14.357],[104.0452,14.3545],[104.0494,14.3098],[104.0533,14.3018],[104.0593,14.2925],[104.0729,14.2836],[104.0811,14.2758],[104.0829,14.2699],[104.0818,14.2636],[104.0782,14.2571],[104.0738,14.2446],[103.919,14.1775],[103.8505,14.1484],[103.813,14.1246],[103.6867,13.9953],[103.6727,13.986],[103.6163,13.9667],[103.598,13.9578],[103.5548,13.923],[103.5388,13.9143],[103.519,13.9092],[103.4798,13.9048],[103.4608,13.9002],[103.4332,13.8872],[103.4306,13.9187],[103.4171,13.9412],[103.4096,13.9484],[103.3497,13.9951],[103.3435,14.0011],[103.3425,14.0039],[103.3301,14.0636],[103.3063,14.0487],[103.292,14.0351],[103.2638,14.0009],[103.2244,14.0443],[103.2116,14.0542],[103.2085,14.0545],[103.1997,14.0542],[103.1949,14.0534],[103.1896,14.0532],[103.1842,14.0539],[103.1837,14.0598],[103.1932,14.1097],[103.1935,14.1142],[103.193,14.1193],[103.1905,14.1213],[103.1421,14.1273],[103.1314,14.1302],[103.1257,14.1338],[103.1222,14.1371],[103.1159,14.1491],[103.1072,14.1709],[103.0992,14.1852],[103.0939,14.1903],[103.0887,14.1942],[103.0774,14.1995],[103.0305,14.233],[103.0169,14.2389],[103.085,14.2958],[103.118,14.3132],[103.1382,14.3197],[103.1986,14.3285],[103.2433,14.3419],[103.2737,14.3511],[103.3414,14.3509],[103.3629,14.3535],[103.3802,14.3611],[103.4081,14.3808],[103.4225,14.3848],[103.4262,14.3825],[103.4315,14.3775],[103.4392,14.3729],[103.4497,14.3716],[103.457,14.3744],[103.4948,14.3999],[103.5334,14.4191],[103.5502,14.4219],[103.5681,14.4159],[103.5816,14.4074],[103.5961,14.4043],[103.6168,14.4145],[103.6229,14.4225],[103.6245,14.4306],[103.6275,14.4378],[103.6371,14.4433],[103.6472,14.444]]]}},{"type":"Feature","properties":{"id":"KHM-1789","name":"Phnom Penh","nameBn":"নমপেন","type":"Municipality","bounds":[104.7809,11.4342,104.9676,11.681],"center":[104.874,11.5733]},"geometry":{"type":"Polygon","coordinates":[[[104.8715,11.681],[104.9162,11.6783],[104.921,11.6767],[104.9241,11.6732],[104.9247,11.6526],[104.9342,11.624],[104.9413,11.5942],[104.944,11.5646],[104.9463,11.5608],[104.948,11.5588],[104.9676,11.5509],[104.9654,11.5075],[104.9632,11.4955],[104.9505,11.4833],[104.9378,11.4734],[104.9289,11.4502],[104.9263,11.4476],[104.9235,11.4463],[104.9095,11.4495],[104.8892,11.4665],[104.8833,11.4682],[104.8766,11.4673],[104.8679,11.4612],[104.8571,11.4469],[104.8525,11.4436],[104.8466,11.4408],[104.8263,11.4347],[104.8155,11.4342],[104.8081,11.4347],[104.7809,11.4588],[104.7961,11.5115],[104.7974,11.5205],[104.7936,11.5278],[104.7874,11.5373],[104.7853,11.5438],[104.7841,11.5521],[104.7841,11.5777],[104.789,11.5983],[104.8155,11.646],[104.8697,11.6467],[104.8647,11.661],[104.8606,11.6703],[104.8599,11.6751],[104.86,11.6783],[104.8715,11.681]]]}},{"type":"Feature","properties":{"id":"KHM-1780","name":"Pouthisat","nameBn":"পোসাত প্রদেশ","type":"Province","bounds":[102.6922,11.9084,104.4051,13.1452],"center":[103.549,12.3391]},"geometry":{"type":"Polygon","coordinates":[[[102.765,12.0446],[102.7512,12.061],[102.7,12.1387],[102.6922,12.1785],[102.7151,12.3422],[102.7201,12.3612],[102.7307,12.3801],[102.7565,12.4022],[102.7651,12.4163],[102.7638,12.4253],[102.7879,12.4159],[102.7921,12.4125],[102.7936,12.4115],[102.7959,12.4104],[102.8,12.4093],[102.8045,12.4086],[102.8107,12.4096],[102.8176,12.4129],[102.8358,12.4276],[102.8433,12.432],[102.8526,12.4334],[102.863,12.4359],[102.8776,12.4412],[102.8963,12.4518],[102.9501,12.4734],[102.9579,12.4779],[102.9691,12.4925],[102.9884,12.5145],[102.9924,12.516],[102.9981,12.5166],[103.0003,12.5152],[103.0062,12.5091],[103.0197,12.4977],[103.0315,12.4932],[103.0374,12.4922],[103.0442,12.4916],[103.052,12.4918],[103.0621,12.4932],[103.069,12.4956],[103.0737,12.4981],[103.0759,12.5005],[103.0796,12.5064],[103.0839,12.5092],[103.0918,12.5128],[103.1113,12.5169],[103.1399,12.5171],[103.1508,12.5193],[103.1687,12.5288],[103.1913,12.5444],[103.2354,12.5622],[103.3192,12.5851],[103.3397,12.5877],[103.4363,12.5759],[103.5055,12.5587],[103.5404,12.5623],[103.5699,12.5719],[103.5862,12.5808],[103.5957,12.5886],[103.6024,12.5964],[103.6117,12.6158],[103.6123,12.6178],[103.6143,12.6227],[103.6351,12.6536],[103.6418,12.6694],[103.6424,12.6736],[103.6422,12.6775],[103.6356,12.7029],[103.6292,12.7168],[103.6232,12.7429],[103.6225,12.7506],[103.6422,12.8051],[103.6427,12.8089],[103.6429,12.8105],[103.6422,12.8139],[103.641,12.8163],[103.6394,12.8185],[103.6373,12.82],[103.6295,12.8228],[103.6249,12.8288],[103.6225,12.8382],[103.6242,12.852],[103.6278,12.8609],[103.6326,12.8666],[103.636,12.8692],[103.6562,12.8775],[103.6627,12.8811],[103.6694,12.8861],[103.6778,12.8957],[103.6806,12.9038],[103.681,12.9119],[103.6798,12.92],[103.6796,12.9262],[103.6809,12.9381],[103.686,12.9473],[103.7032,12.9714],[103.7058,12.9819],[103.7032,12.99],[103.6975,12.9949],[103.691,12.9991],[103.6869,13.0029],[103.6818,13.0098],[103.6795,13.0194],[103.6812,13.0272],[103.6852,13.0328],[103.6897,13.0372],[103.7307,13.0682],[103.8087,13.1452],[104.156,12.7979],[104.1917,12.7491],[104.2407,12.6911],[104.4051,12.5513],[104.4021,12.5106],[104.4023,12.5001],[104.3945,12.4644],[104.3938,12.4513],[104.3986,12.4335],[104.3969,12.4281],[104.3925,12.4212],[104.3649,12.3954],[104.3591,12.3865],[104.3498,12.3598],[104.3441,12.3472],[104.3421,12.3438],[104.3372,12.3382],[104.33,12.3319],[104.3118,12.3208],[104.3065,12.3189],[104.303,12.3182],[104.2958,12.316],[104.2875,12.3105],[104.2715,12.2959],[104.2663,12.2926],[104.2618,12.2903],[104.2318,12.284],[104.2254,12.2818],[104.2229,12.2805],[104.2199,12.2773],[104.1916,12.2392],[104.1869,12.2246],[104.1801,12.1834],[104.1985,12.1078],[104.1821,12.0904],[104.1762,12.0859],[104.1676,12.0826],[104.1503,12.0869],[104.142,12.0869],[104.1203,12.0845],[104.1116,12.0811],[104.1029,12.0716],[104.0981,12.0631],[104.0874,12.0322],[104.0815,12.0238],[104.0622,12.0044],[104.0592,11.9988],[104.0605,11.9935],[104.0721,11.9807],[104.0738,11.9778],[104.0705,11.9753],[104.0176,11.9484],[104.0069,11.9451],[103.9951,11.9456],[103.9886,11.9475],[103.9833,11.9516],[103.9704,11.968],[103.9647,11.9732],[103.9579,11.9778],[103.9507,11.9807],[103.9448,11.9824],[103.9382,11.9795],[103.9307,11.9724],[103.9153,11.9533],[103.9057,11.9435],[103.8965,11.9383],[103.8927,11.9375],[103.8874,11.9342],[103.8841,11.9315],[103.8635,11.9084],[103.8525,11.9167],[103.8145,11.94],[103.7928,11.9575],[103.7833,11.9629],[103.7527,11.9762],[103.7496,11.9787],[103.7329,11.9857],[103.716,11.9901],[103.6876,12.0005],[103.6714,12.0084],[103.65,12.0213],[103.6415,12.0282],[103.6338,12.0363],[103.6173,12.0599],[103.5771,12.0995],[103.5744,12.1013],[103.5501,12.1122],[103.5443,12.1161],[103.5331,12.1263],[103.5261,12.1309],[103.5189,12.1341],[103.4913,12.1423],[103.4666,12.1418],[103.4387,12.1366],[103.4121,12.1365],[103.4037,12.1336],[103.3946,12.1238],[103.3818,12.1031],[103.3528,12.0684],[103.3333,12.0508],[103.2937,12.029],[103.2,12.0036],[103.1838,11.9984],[103.1577,11.9828],[103.1461,11.9795],[103.1291,11.9798],[103.1107,11.9827],[103.0853,11.9908],[103.0604,12.0016],[103.0398,12.013],[103.0008,12.0291],[102.7808,12.0444],[102.7651,12.0446],[102.765,12.0446]]]}},{"type":"Feature","properties":{"id":"KHM-1791","name":"Preah Vihéar","nameBn":"প্রিয় বিহার প্রদেশ","type":"Province","bounds":[104.3532,13.1155,105.8956,14.4399],"center":[105.125,13.728]},"geometry":{"type":"Polygon","coordinates":[[[104.7717,14.4399],[104.7883,14.4382],[104.8019,14.4301],[104.8151,14.4198],[104.8314,14.4118],[104.8385,14.4114],[104.8574,14.4141],[104.8666,14.4138],[104.8742,14.4106],[104.8902,14.4002],[104.8982,14.3963],[104.9156,14.3932],[104.9551,14.3863],[104.9738,14.3806],[104.9787,14.3685],[104.979,14.355],[104.9743,14.3096],[104.9759,14.3011],[105.0077,14.2438],[105.0254,14.2244],[105.0473,14.2141],[105.1014,14.2305],[105.1322,14.2807],[105.155,14.3305],[105.1843,14.3457],[105.1843,14.3142],[105.188,14.291],[105.1974,14.2703],[105.2569,14.1824],[105.2753,14.1648],[105.2822,14.1613],[105.2966,14.1568],[105.3039,14.1524],[105.3295,14.1176],[105.3378,14.11],[105.3479,14.1061],[105.3641,14.1041],[105.3925,14.1037],[105.4222,14.1079],[105.4501,14.1172],[105.4739,14.1325],[105.4905,14.1369],[105.5053,14.1451],[105.5332,14.1643],[105.5412,14.1592],[105.5489,14.1531],[105.5556,14.1461],[105.5614,14.1382],[105.5765,14.144],[105.5946,14.1363],[105.6099,14.1207],[105.6173,14.103],[105.6329,14.114],[105.6431,14.1135],[105.6533,14.107],[105.6693,14.1004],[105.6837,14.0989],[105.7052,14.102],[105.716,14.1015],[105.744,14.0869],[105.7589,14.0625],[105.7702,14.0347],[105.7871,14.0102],[105.8731,13.9369],[105.8956,13.9248],[105.8894,13.9215],[105.8792,13.9179],[105.8597,13.9146],[105.7419,13.9139],[105.7254,13.912],[105.7178,13.9103],[105.7144,13.909],[105.7115,13.9059],[105.7087,13.9012],[105.7068,13.8908],[105.7076,13.8857],[105.709,13.8814],[105.7107,13.8787],[105.7132,13.8722],[105.7123,13.8682],[105.7098,13.8644],[105.7029,13.8602],[105.6935,13.8568],[105.6898,13.8564],[105.6862,13.8565],[105.6834,13.858],[105.6809,13.8599],[105.6761,13.8644],[105.6732,13.866],[105.6696,13.8666],[105.666,13.8662],[105.6592,13.8643],[105.6466,13.8633],[105.6424,13.8623],[105.6383,13.8601],[105.6306,13.8527],[105.6274,13.8504],[105.6244,13.8492],[105.6207,13.8495],[105.6176,13.851],[105.6152,13.8532],[105.6131,13.8557],[105.6045,13.8694],[105.6022,13.8718],[105.5996,13.8739],[105.5966,13.8757],[105.5929,13.8772],[105.589,13.878],[105.5849,13.8784],[105.5771,13.8773],[105.5739,13.8764],[105.5708,13.8751],[105.5677,13.8735],[105.5615,13.8693],[105.5482,13.856],[105.5456,13.8538],[105.5398,13.8502],[105.5333,13.8447],[105.5295,13.8398],[105.5271,13.836],[105.5254,13.8323],[105.525,13.8257],[105.5291,13.7828],[105.5271,13.7714],[105.5273,13.7674],[105.5287,13.7622],[105.5318,13.756],[105.5392,13.7457],[105.5437,13.7409],[105.5477,13.7378],[105.5507,13.7362],[105.5535,13.7342],[105.5571,13.7296],[105.5609,13.7225],[105.5715,13.6914],[105.5799,13.6368],[105.567,13.4956],[105.5458,13.4687],[105.4104,13.399],[105.387,13.3908],[105.1895,13.2548],[105.1854,13.2505],[105.1719,13.2303],[105.1645,13.2217],[105.0954,13.1627],[104.9973,13.1155],[104.9384,13.1213],[104.9161,13.1288],[104.9041,13.139],[104.8998,13.1439],[104.8943,13.1513],[104.8858,13.1714],[104.8817,13.1916],[104.8785,13.2305],[104.8836,13.2761],[104.889,13.2951],[104.8992,13.3154],[104.9019,13.3228],[104.901,13.3309],[104.8945,13.3355],[104.885,13.3387],[104.7888,13.3571],[104.7272,13.3586],[104.6942,13.349],[104.6595,13.3355],[104.5634,13.2837],[104.5779,13.4144],[104.5844,13.4336],[104.596,13.4551],[104.6802,13.5663],[104.6821,13.5721],[104.6814,13.5761],[104.68,13.5782],[104.6727,13.5773],[104.6628,13.5697],[104.6591,13.5676],[104.6343,13.5588],[104.6223,13.5596],[104.5362,13.582],[104.4482,13.5946],[104.4299,13.599],[104.4263,13.6006],[104.422,13.6038],[104.4179,13.6092],[104.4142,13.6164],[104.4116,13.6226],[104.4096,13.6295],[104.4088,13.6375],[104.4097,13.6472],[104.4142,13.6613],[104.4249,13.6827],[104.428,13.693],[104.4292,13.7045],[104.4231,13.7542],[104.4204,13.7627],[104.4164,13.7704],[104.4125,13.7758],[104.4091,13.7823],[104.4066,13.7911],[104.4026,13.8111],[104.3989,13.815],[104.3948,13.8175],[104.3914,13.82],[104.3891,13.8234],[104.3821,13.8414],[104.3785,13.8476],[104.3742,13.8512],[104.3689,13.8528],[104.357,13.8544],[104.3532,13.8579],[104.3537,13.8628],[104.3908,13.9135],[104.395,13.9215],[104.3983,13.9296],[104.3987,13.9425],[104.3983,13.9497],[104.4006,13.9614],[104.4457,14.0863],[104.4508,14.1334],[104.4588,14.1505],[104.4692,14.1659],[104.4747,14.1718],[104.4926,14.1848],[104.4969,14.1886],[104.4985,14.1926],[104.4974,14.1954],[104.4924,14.1999],[104.4718,14.2153],[104.4414,14.2517],[104.439,14.2556],[104.4384,14.2609],[104.442,14.2665],[104.4461,14.2701],[104.4507,14.273],[104.4532,14.2783],[104.4541,14.2862],[104.4544,14.3187],[104.4582,14.339],[104.4585,14.357],[104.462,14.3571],[104.4675,14.3601],[104.4739,14.3657],[104.482,14.3712],[104.4926,14.374],[104.5108,14.3705],[104.5265,14.3635],[104.5428,14.3604],[104.5628,14.3685],[104.5739,14.3805],[104.5835,14.3958],[104.5946,14.41],[104.6104,14.419],[104.6266,14.4193],[104.6514,14.4089],[104.6684,14.4096],[104.6747,14.4147],[104.6846,14.4306],[104.6929,14.434],[104.701,14.4301],[104.7062,14.4122],[104.7129,14.4068],[104.728,14.4099],[104.7579,14.433],[104.7717,14.4399]]]}},{"type":"Feature","properties":{"id":"KHM-1790","name":"Prey Vêng","nameBn":"প্রিয়েই বেং প্রদেশ","type":"Province","bounds":[105.1124,10.8388,105.8331,11.8688],"center":[105.473,11.3561]},"geometry":{"type":"Polygon","coordinates":[[[105.821,11.6415],[105.818,11.639],[105.8049,11.6249],[105.7934,11.6073],[105.7904,11.5874],[105.7932,11.5829],[105.7865,11.5787],[105.7834,11.5771],[105.7799,11.5758],[105.7763,11.575],[105.7683,11.5743],[105.751,11.5744],[105.747,11.5737],[105.7431,11.5721],[105.7324,11.566],[105.706,11.5607],[105.7,11.5581],[105.696,11.5539],[105.6913,11.5475],[105.6782,11.5153],[105.6647,11.4526],[105.6582,11.4312],[105.6531,11.4185],[105.652,11.4137],[105.6511,11.4076],[105.6509,11.3279],[105.6579,11.277],[105.6602,11.27],[105.6609,11.2669],[105.6635,11.2602],[105.6621,11.2557],[105.6463,11.2577],[105.6399,11.2538],[105.6376,11.251],[105.6331,11.2429],[105.6256,11.2363],[105.6237,11.2338],[105.6221,11.2308],[105.6168,11.2049],[105.6142,11.1967],[105.6097,11.187],[105.6095,11.1785],[105.6102,11.1655],[105.6184,11.1237],[105.6213,11.116],[105.6237,11.1136],[105.6256,11.111],[105.6268,11.1075],[105.6261,11.1029],[105.6228,11.0954],[105.6203,11.0911],[105.6179,11.0876],[105.607,11.0757],[105.6052,11.073],[105.6019,11.0664],[105.5997,11.0592],[105.5959,11.0264],[105.5932,11.0196],[105.5887,11.0118],[105.5892,11.0088],[105.5917,11.0054],[105.5999,10.9987],[105.6097,10.9877],[105.6172,10.971],[105.6172,10.9708],[105.5236,10.9513],[105.4739,10.9409],[105.4658,10.9418],[105.4434,10.953],[105.415,10.9607],[105.4105,10.963],[105.3979,10.9546],[105.3573,10.908],[105.3275,10.8483],[105.3179,10.8388],[105.303,10.844],[105.2687,10.8737],[105.2533,10.8835],[105.2091,10.8916],[105.1943,10.9944],[105.1939,11.0224],[105.1994,11.0504],[105.2222,11.1041],[105.2366,11.155],[105.2495,11.1755],[105.2821,11.2103],[105.2905,11.2331],[105.2892,11.2606],[105.2686,11.3414],[105.2634,11.3842],[105.2718,11.3915],[105.2945,11.4039],[105.295,11.4265],[105.2861,11.4371],[105.272,11.4456],[105.1992,11.5052],[105.1491,11.5318],[105.1421,11.5381],[105.1369,11.5444],[105.1174,11.5793],[105.1146,11.5856],[105.1124,11.5954],[105.1336,11.633],[105.1375,11.6481],[105.1364,11.6521],[105.1335,11.6593],[105.1314,11.6681],[105.1305,11.6767],[105.1313,11.6817],[105.133,11.6854],[105.1341,11.6866],[105.1353,11.6876],[105.1519,11.7122],[105.1556,11.7197],[105.1575,11.7256],[105.1575,11.7342],[105.157,11.7375],[105.1545,11.7471],[105.2343,11.7995],[105.2729,11.8345],[105.282,11.8434],[105.3001,11.8575],[105.3103,11.8634],[105.3186,11.8669],[105.3294,11.8688],[105.3483,11.8648],[105.4073,11.8416],[105.4225,11.8205],[105.4343,11.7931],[105.4374,11.7881],[105.4424,11.782],[105.4452,11.7799],[105.4486,11.7778],[105.4601,11.7733],[105.4669,11.7715],[105.5032,11.7679],[105.6272,11.7465],[105.6995,11.746],[105.7275,11.7197],[105.7517,11.7017],[105.76,11.6971],[105.7673,11.694],[105.7755,11.6914],[105.7874,11.6893],[105.7902,11.6893],[105.826,11.6951],[105.8314,11.6925],[105.8331,11.6863],[105.8319,11.6705],[105.8219,11.6463],[105.8211,11.6419],[105.821,11.6415]]]}},{"type":"Feature","properties":{"id":"KHM-1795","name":"Rôtânôkiri","nameBn":"রতনগিরি প্রদেশ","type":"Province","bounds":[106.5542,13.1643,107.6105,14.7046],"center":[107.082,13.2418]},"geometry":{"type":"Polygon","coordinates":[[[107.5204,14.7046],[107.5324,14.6779],[107.5273,14.6528],[107.504,14.6021],[107.5026,14.5866],[107.5064,14.5569],[107.5053,14.541],[107.5001,14.5298],[107.4857,14.5095],[107.4814,14.496],[107.4804,14.4889],[107.4767,14.4752],[107.4647,14.449],[107.4557,14.4339],[107.4431,14.4237],[107.4238,14.419],[107.4173,14.4221],[107.4136,14.4287],[107.4078,14.433],[107.3949,14.4291],[107.3869,14.4219],[107.3838,14.4136],[107.3823,14.4046],[107.3794,14.3955],[107.359,14.3603],[107.3518,14.342],[107.3499,14.3216],[107.3521,14.3126],[107.3609,14.2933],[107.3638,14.2832],[107.3636,14.2738],[107.3586,14.2386],[107.3247,14.1439],[107.3199,14.1198],[107.3242,14.1081],[107.3336,14.0985],[107.3447,14.0813],[107.3469,14.0617],[107.3435,14.0409],[107.3431,14.0206],[107.3546,14.0024],[107.3716,13.9963],[107.409,13.9999],[107.4245,13.9941],[107.4307,13.9845],[107.4314,13.9747],[107.4301,13.9652],[107.431,13.956],[107.4452,13.9266],[107.446,13.9216],[107.448,13.9093],[107.4453,13.8978],[107.4398,13.8865],[107.4354,13.8697],[107.4462,13.8394],[107.445,13.8304],[107.4385,13.809],[107.4382,13.7985],[107.4432,13.7835],[107.4623,13.7612],[107.4718,13.7461],[107.4738,13.7416],[107.4967,13.717],[107.5143,13.6926],[107.5969,13.5351],[107.6043,13.4985],[107.6105,13.4004],[107.607,13.3698],[107.5749,13.2936],[107.5747,13.2936],[107.5655,13.2912],[107.5572,13.2933],[107.5295,13.2968],[107.5239,13.2983],[107.5201,13.3001],[107.5096,13.3032],[107.5062,13.3046],[107.5037,13.3062],[107.4993,13.3109],[107.4955,13.3142],[107.4877,13.3188],[107.4778,13.3279],[107.4723,13.3312],[107.4691,13.3311],[107.4664,13.3298],[107.4635,13.3247],[107.4607,13.3222],[107.4567,13.32],[107.4445,13.3163],[107.4379,13.3133],[107.4258,13.3098],[107.4227,13.3083],[107.4202,13.3068],[107.416,13.3029],[107.4104,13.2963],[107.404,13.2905],[107.3993,13.2871],[107.3799,13.2782],[107.3705,13.2844],[107.3714,13.2902],[107.3659,13.2944],[107.3564,13.3132],[107.3511,13.3175],[107.3277,13.3176],[107.3171,13.3157],[107.3071,13.3107],[107.2961,13.3234],[107.2826,13.3552],[107.2723,13.3659],[107.254,13.3701],[107.2452,13.3613],[107.2397,13.3462],[107.2314,13.3311],[107.2025,13.3154],[107.1424,13.3233],[107.1078,13.3107],[107.0995,13.3186],[107.0873,13.3194],[107.0842,13.3193],[107.0824,13.3185],[107.0692,13.3046],[107.0673,13.3018],[107.0661,13.2987],[107.0653,13.2951],[107.0653,13.2912],[107.0675,13.2845],[107.0708,13.279],[107.0746,13.2739],[107.078,13.2678],[107.0795,13.2645],[107.0833,13.2499],[107.0836,13.2491],[107.0848,13.2434],[107.0849,13.2396],[107.0842,13.2355],[107.0832,13.2321],[107.0818,13.2287],[107.0786,13.223],[107.077,13.2185],[107.0745,13.1994],[107.0729,13.1962],[107.0709,13.1935],[107.0663,13.1888],[107.045,13.1716],[107.0382,13.1682],[107.0328,13.1667],[107.0294,13.1678],[107.0266,13.1698],[107.0242,13.172],[107.0216,13.174],[107.0182,13.1753],[107.003,13.1744],[106.9778,13.1695],[106.971,13.169],[106.9669,13.1697],[106.9555,13.1702],[106.9252,13.1643],[106.9093,13.1645],[106.8677,13.1653],[106.8511,13.1673],[106.787,13.191],[106.7385,13.2229],[106.7035,13.2585],[106.6651,13.2829],[106.6586,13.2879],[106.609,13.3356],[106.6161,13.3522],[106.6167,13.364],[106.6161,13.3684],[106.615,13.3726],[106.6139,13.3759],[106.6122,13.3787],[106.6058,13.3864],[106.6014,13.3944],[106.6006,13.4041],[106.6028,13.4415],[106.6023,13.4521],[106.6,13.4625],[106.5896,13.4777],[106.5812,13.5156],[106.5651,13.5413],[106.5619,13.5491],[106.5576,13.5552],[106.5542,13.562],[106.5557,13.5857],[106.562,13.6127],[106.6572,13.7864],[106.6591,13.7927],[106.6579,13.8165],[106.6645,13.8264],[106.6619,13.8389],[106.6448,13.8894],[106.6293,14.0273],[106.6173,14.0718],[106.6104,14.0809],[106.6022,14.0897],[106.5953,14.099],[106.589,14.1123],[106.5874,14.1244],[106.5877,14.1369],[106.5995,14.2129],[106.6014,14.2197],[106.6071,14.2348],[106.6094,14.2473],[106.6198,14.2752],[106.6248,14.2977],[106.6245,14.3158],[106.6218,14.3328],[106.6167,14.3469],[106.6125,14.3636],[106.6045,14.3857],[106.6045,14.3955],[106.6058,14.4074],[106.6181,14.4491],[106.6201,14.4542],[106.622,14.4576],[106.6344,14.4509],[106.7072,14.4293],[106.7115,14.4258],[106.7193,14.4179],[106.7239,14.4116],[106.7317,14.3967],[106.7667,14.3483],[106.793,14.3226],[106.8069,14.3129],[106.8208,14.3076],[106.8358,14.3071],[106.8746,14.3284],[106.8793,14.3327],[106.8851,14.3355],[106.8957,14.3363],[106.9048,14.3333],[106.9235,14.3219],[106.9336,14.3202],[106.9461,14.3235],[106.9497,14.3287],[106.9501,14.3349],[106.9611,14.3604],[106.9737,14.363],[106.9779,14.3654],[106.9974,14.3951],[107.0266,14.4302],[107.0272,14.4353],[107.0303,14.4361],[107.043,14.4307],[107.0593,14.418],[107.0679,14.4061],[107.0786,14.4008],[107.1008,14.4076],[107.1314,14.4275],[107.1587,14.4515],[107.1668,14.4672],[107.1725,14.4843],[107.1806,14.4962],[107.1955,14.4961],[107.1956,14.4961],[107.1958,14.496],[107.196,14.496],[107.2112,14.4935],[107.2197,14.498],[107.2303,14.5183],[107.2324,14.5383],[107.2339,14.5449],[107.2379,14.5498],[107.2495,14.5566],[107.2545,14.561],[107.2722,14.5854],[107.2873,14.5985],[107.3057,14.5972],[107.3327,14.5782],[107.3516,14.5616],[107.3614,14.5579],[107.3801,14.554],[107.4034,14.5439],[107.4149,14.5434],[107.4278,14.5537],[107.4309,14.5614],[107.4309,14.5699],[107.4298,14.5783],[107.4303,14.5862],[107.4333,14.5943],[107.4404,14.6039],[107.4438,14.6095],[107.4518,14.6322],[107.4582,14.6388],[107.4738,14.6463],[107.5069,14.6934],[107.5204,14.7046]]]}},{"type":"Feature","properties":{"id":"KHM-1781","name":"Siemréab","nameBn":"শ্যাম রিয়েপ প্রদেশ","type":"Province","bounds":[103.4035,12.7491,104.6821,14.4042],"center":[104.043,13.5711]},"geometry":{"type":"Polygon","coordinates":[[[104.177,14.4042],[104.1857,14.404],[104.1826,14.4004],[104.1835,14.3914],[104.1892,14.3823],[104.2013,14.378],[104.2191,14.3829],[104.2324,14.3931],[104.2475,14.4011],[104.2712,14.3991],[104.3254,14.3776],[104.4392,14.3614],[104.446,14.3587],[104.4526,14.3569],[104.4585,14.357],[104.4582,14.339],[104.4544,14.3187],[104.4541,14.2862],[104.4532,14.2783],[104.4507,14.273],[104.4461,14.2701],[104.442,14.2665],[104.4384,14.2609],[104.439,14.2556],[104.4414,14.2517],[104.4718,14.2153],[104.4924,14.1999],[104.4974,14.1954],[104.4985,14.1926],[104.4969,14.1886],[104.4926,14.1848],[104.4747,14.1718],[104.4692,14.1659],[104.4588,14.1505],[104.4508,14.1334],[104.4457,14.0863],[104.4006,13.9614],[104.3983,13.9497],[104.3987,13.9425],[104.3983,13.9296],[104.395,13.9215],[104.3908,13.9135],[104.3537,13.8628],[104.3532,13.8579],[104.357,13.8544],[104.3689,13.8528],[104.3742,13.8512],[104.3785,13.8476],[104.3821,13.8414],[104.3891,13.8234],[104.3914,13.82],[104.3948,13.8175],[104.3989,13.815],[104.4026,13.8111],[104.4066,13.7911],[104.4091,13.7823],[104.4125,13.7758],[104.4164,13.7704],[104.4204,13.7627],[104.4231,13.7542],[104.4292,13.7045],[104.428,13.693],[104.4249,13.6827],[104.4142,13.6613],[104.4097,13.6472],[104.4088,13.6375],[104.4096,13.6295],[104.4116,13.6226],[104.4142,13.6164],[104.4179,13.6092],[104.422,13.6038],[104.4263,13.6006],[104.4299,13.599],[104.4482,13.5946],[104.5362,13.582],[104.6223,13.5596],[104.6343,13.5588],[104.6591,13.5676],[104.6628,13.5697],[104.6727,13.5773],[104.68,13.5782],[104.6814,13.5761],[104.6821,13.5721],[104.6802,13.5663],[104.596,13.4551],[104.5844,13.4336],[104.5779,13.4144],[104.5634,13.2837],[104.5556,13.2646],[104.5503,13.2577],[104.5376,13.247],[104.5287,13.2423],[104.4933,13.2295],[104.4875,13.2266],[104.4844,13.2223],[104.4816,13.2157],[104.4772,13.2003],[104.4692,13.1127],[104.4709,13.0872],[104.4697,13.0815],[104.4668,13.0781],[104.4583,13.0784],[104.4529,13.08],[104.4474,13.0801],[104.4451,13.0779],[104.4434,13.0718],[104.4417,13.0556],[104.4402,13.0493],[104.4057,12.9912],[104.3919,12.9393],[104.3835,12.9175],[104.3794,12.9139],[104.3723,12.9084],[104.3551,12.8978],[104.3275,12.8857],[104.3247,12.884],[104.312,12.8746],[104.2862,12.8613],[104.2737,12.852],[104.2314,12.8055],[104.2264,12.7957],[104.2173,12.7651],[104.1917,12.7491],[104.156,12.7979],[103.8087,13.1452],[103.749,13.208],[103.711,13.2657],[103.6839,13.3164],[103.6696,13.3287],[103.5896,13.3437],[103.5747,13.349],[103.5662,13.3537],[103.5596,13.3593],[103.5479,13.3751],[103.5431,13.3792],[103.5381,13.3813],[103.5228,13.384],[103.4888,13.3973],[103.4559,13.3916],[103.4408,13.3945],[103.4323,13.3994],[103.4247,13.4053],[103.4055,13.4282],[103.4035,13.6483],[103.409,13.6632],[103.4188,13.6758],[103.43,13.6972],[103.4318,13.7156],[103.4172,13.7738],[103.42,13.8067],[103.4178,13.8504],[103.4205,13.872],[103.4332,13.8872],[103.4608,13.9002],[103.4798,13.9048],[103.519,13.9092],[103.5388,13.9143],[103.5548,13.923],[103.598,13.9578],[103.6163,13.9667],[103.6727,13.986],[103.6867,13.9953],[103.813,14.1246],[103.8505,14.1484],[103.919,14.1775],[104.0738,14.2446],[104.0782,14.2571],[104.0818,14.2636],[104.0829,14.2699],[104.0811,14.2758],[104.0729,14.2836],[104.0593,14.2925],[104.0533,14.3018],[104.0494,14.3098],[104.0452,14.3545],[104.0451,14.357],[104.0457,14.3573],[104.0737,14.3708],[104.1102,14.3804],[104.1162,14.3775],[104.1213,14.3715],[104.1284,14.3664],[104.1409,14.366],[104.1485,14.3696],[104.1733,14.396],[104.1748,14.4013],[104.177,14.4042]]]}},{"type":"Feature","properties":{"id":"KHM-1792","name":"Stœng Trêng","nameBn":"স্তং ত্র্যাং প্রদেশ","type":"Province","bounds":[105.525,13.1159,106.6645,14.5904],"center":[106.095,13.6662]},"geometry":{"type":"Polygon","coordinates":[[[106.5125,14.5904],[106.5184,14.585],[106.531,14.566],[106.535,14.5532],[106.5402,14.5217],[106.5438,14.5121],[106.5524,14.5069],[106.5754,14.502],[106.5857,14.496],[106.6054,14.4666],[106.622,14.4576],[106.6201,14.4542],[106.6181,14.4491],[106.6058,14.4074],[106.6045,14.3955],[106.6045,14.3857],[106.6125,14.3636],[106.6167,14.3469],[106.6218,14.3328],[106.6245,14.3158],[106.6248,14.2977],[106.6198,14.2752],[106.6094,14.2473],[106.6071,14.2348],[106.6014,14.2197],[106.5995,14.2129],[106.5877,14.1369],[106.5874,14.1244],[106.589,14.1123],[106.5953,14.099],[106.6022,14.0897],[106.6104,14.0809],[106.6173,14.0718],[106.6293,14.0273],[106.6448,13.8894],[106.6619,13.8389],[106.6645,13.8264],[106.6579,13.8165],[106.6591,13.7927],[106.6572,13.7864],[106.562,13.6127],[106.5557,13.5857],[106.5542,13.562],[106.5576,13.5552],[106.5619,13.5491],[106.5651,13.5413],[106.5812,13.5156],[106.5896,13.4777],[106.6,13.4625],[106.6023,13.4521],[106.6028,13.4415],[106.6006,13.4041],[106.6014,13.3944],[106.6058,13.3864],[106.6122,13.3787],[106.6139,13.3759],[106.615,13.3726],[106.6161,13.3684],[106.6167,13.364],[106.6161,13.3522],[106.609,13.3356],[106.5447,13.363],[106.5314,13.3655],[106.519,13.3694],[106.5013,13.3778],[106.4389,13.4207],[106.4184,13.4246],[106.3616,13.4222],[106.3249,13.4192],[106.3084,13.4153],[106.2505,13.3907],[106.2436,13.3869],[106.2384,13.3832],[106.2279,13.3703],[106.2214,13.364],[106.215,13.3614],[106.2072,13.3607],[106.1807,13.3655],[106.1349,13.3621],[106.1264,13.3599],[106.1178,13.3561],[106.1121,13.3525],[106.1003,13.3433],[106.038,13.2535],[106.0355,13.2476],[106.029,13.2149],[106.0271,13.2103],[106.0252,13.2075],[106.0228,13.2058],[106.0195,13.2045],[106.0159,13.2037],[106.0122,13.2034],[106.0093,13.2036],[106.0067,13.2041],[105.9905,13.2101],[105.9889,13.2109],[105.986,13.2115],[105.9818,13.2116],[105.975,13.2091],[105.9723,13.2052],[105.9711,13.2013],[105.9708,13.1877],[105.968,13.1796],[105.9495,13.1466],[105.9428,13.1375],[105.9375,13.1318],[105.9346,13.1303],[105.8945,13.1174],[105.8803,13.1161],[105.8693,13.1159],[105.8608,13.1177],[105.8385,13.1271],[105.8066,13.1443],[105.7166,13.2128],[105.7034,13.2196],[105.6649,13.2289],[105.5777,13.2698],[105.5512,13.3353],[105.5456,13.3688],[105.5479,13.3925],[105.5458,13.4687],[105.567,13.4956],[105.5799,13.6368],[105.5715,13.6914],[105.5609,13.7225],[105.5571,13.7296],[105.5535,13.7342],[105.5507,13.7362],[105.5477,13.7378],[105.5437,13.7409],[105.5392,13.7457],[105.5318,13.756],[105.5287,13.7622],[105.5273,13.7674],[105.5271,13.7714],[105.5291,13.7828],[105.525,13.8257],[105.5254,13.8323],[105.5271,13.836],[105.5295,13.8398],[105.5333,13.8447],[105.5398,13.8502],[105.5456,13.8538],[105.5482,13.856],[105.5615,13.8693],[105.5677,13.8735],[105.5708,13.8751],[105.5739,13.8764],[105.5771,13.8773],[105.5849,13.8784],[105.589,13.878],[105.5929,13.8772],[105.5966,13.8757],[105.5996,13.8739],[105.6022,13.8718],[105.6045,13.8694],[105.6131,13.8557],[105.6152,13.8532],[105.6176,13.851],[105.6207,13.8495],[105.6244,13.8492],[105.6274,13.8504],[105.6306,13.8527],[105.6383,13.8601],[105.6424,13.8623],[105.6466,13.8633],[105.6592,13.8643],[105.666,13.8662],[105.6696,13.8666],[105.6732,13.866],[105.6761,13.8644],[105.6809,13.8599],[105.6834,13.858],[105.6862,13.8565],[105.6898,13.8564],[105.6935,13.8568],[105.7029,13.8602],[105.7098,13.8644],[105.7123,13.8682],[105.7132,13.8722],[105.7107,13.8787],[105.709,13.8814],[105.7076,13.8857],[105.7068,13.8908],[105.7087,13.9012],[105.7115,13.9059],[105.7144,13.909],[105.7178,13.9103],[105.7254,13.912],[105.7419,13.9139],[105.8597,13.9146],[105.8792,13.9179],[105.8894,13.9215],[105.8956,13.9248],[105.8997,13.9226],[105.9246,13.9171],[105.9492,13.9196],[105.974,13.9293],[105.9974,13.9283],[106.0492,13.9155],[106.0692,13.9165],[106.0838,13.934],[106.082,13.981],[106.0941,13.9962],[106.1085,14.0104],[106.1264,14.022],[106.1421,14.035],[106.1495,14.0536],[106.1446,14.0724],[106.1313,14.087],[106.1153,14.1003],[106.1017,14.1152],[106.0762,14.1745],[106.0606,14.1918],[106.0263,14.213],[106.0125,14.2258],[106.0041,14.2459],[106.008,14.2708],[106.0045,14.29],[105.9934,14.3059],[105.974,14.3213],[105.9692,14.332],[105.9678,14.3434],[105.9694,14.3549],[105.974,14.3658],[105.9941,14.3624],[106.0382,14.3477],[106.0554,14.3484],[106.0581,14.3531],[106.0606,14.3688],[106.0635,14.3729],[106.0686,14.3734],[106.0794,14.3727],[106.095,14.3736],[106.119,14.3695],[106.1541,14.3675],[106.1732,14.3697],[106.1892,14.3789],[106.2039,14.3999],[106.2107,14.4214],[106.2208,14.4735],[106.2301,14.4905],[106.236,14.4844],[106.2967,14.4479],[106.3065,14.4455],[106.3202,14.4445],[106.3334,14.4481],[106.34,14.449],[106.3938,14.4562],[106.4192,14.4665],[106.4295,14.486],[106.4335,14.4866],[106.4408,14.4926],[106.4452,14.4995],[106.4336,14.5057],[106.4327,14.5124],[106.4343,14.5196],[106.4365,14.5238],[106.4458,14.5291],[106.4567,14.5279],[106.4694,14.5247],[106.4848,14.5238],[106.4848,14.53],[106.4775,14.5326],[106.4732,14.5375],[106.4709,14.5446],[106.4706,14.5543],[106.4722,14.5641],[106.4771,14.5669],[106.4838,14.5675],[106.4911,14.571],[106.5125,14.5904]]]}},{"type":"Feature","properties":{"id":"KHM-1801","name":"Svay Rieng","nameBn":"সোয়াই রিয়েং প্রদেশ","type":"Province","bounds":[105.5887,10.7669,106.1879,11.5829],"center":[105.888,11.0416]},"geometry":{"type":"Polygon","coordinates":[[[105.7932,11.5829],[105.8033,11.5662],[105.8155,11.5598],[105.8421,11.555],[105.8532,11.5469],[105.8578,11.5356],[105.8588,11.5223],[105.8567,11.4963],[105.8722,11.4435],[105.8738,11.4282],[105.871,11.4133],[105.86,11.3793],[105.8434,11.3041],[105.8444,11.2899],[105.8572,11.28],[105.8735,11.2759],[105.8867,11.2679],[105.8894,11.2464],[105.8894,11.2462],[105.8999,11.2186],[105.9204,11.2033],[105.974,11.1904],[105.9888,11.177],[106.0131,11.1393],[106.0281,11.1227],[106.0631,11.0933],[106.0765,11.077],[106.0866,11.0563],[106.0981,11.0779],[106.1135,11.0869],[106.1309,11.0842],[106.1487,11.0707],[106.1603,11.0535],[106.1766,10.9962],[106.1879,10.9763],[106.1808,10.9703],[106.1704,10.9706],[106.1491,10.9713],[106.1314,10.9693],[106.1282,10.9657],[106.1225,10.9555],[106.1247,10.9532],[106.1234,10.9274],[106.1218,10.9252],[106.1269,10.909],[106.1516,10.863],[106.1773,10.7669],[106.1551,10.7848],[106.1288,10.7914],[106.0722,10.7969],[106.0457,10.8059],[106.0179,10.8198],[105.9926,10.8378],[105.974,10.8588],[105.9647,10.8696],[105.9313,10.8964],[105.9298,10.8801],[105.9205,10.8582],[105.9087,10.8384],[105.8994,10.8284],[105.8787,10.8281],[105.861,10.8393],[105.8475,10.8554],[105.84,10.8697],[105.8286,10.9045],[105.8214,10.9197],[105.7874,10.966],[105.7697,10.9965],[105.7529,11.0156],[105.7261,11.0184],[105.6973,11.0102],[105.674,10.9964],[105.6738,10.9963],[105.6549,10.9843],[105.6322,10.974],[105.6172,10.9708],[105.6172,10.971],[105.6097,10.9877],[105.5999,10.9987],[105.5917,11.0054],[105.5892,11.0088],[105.5887,11.0118],[105.5932,11.0196],[105.5959,11.0264],[105.5997,11.0592],[105.6019,11.0664],[105.6052,11.073],[105.607,11.0757],[105.6179,11.0876],[105.6203,11.0911],[105.6228,11.0954],[105.6261,11.1029],[105.6268,11.1075],[105.6256,11.111],[105.6237,11.1136],[105.6213,11.116],[105.6184,11.1237],[105.6102,11.1655],[105.6095,11.1785],[105.6097,11.187],[105.6142,11.1967],[105.6168,11.2049],[105.6221,11.2308],[105.6237,11.2338],[105.6256,11.2363],[105.6331,11.2429],[105.6376,11.251],[105.6399,11.2538],[105.6463,11.2577],[105.6621,11.2557],[105.6635,11.2602],[105.6609,11.2669],[105.6602,11.27],[105.6579,11.277],[105.6509,11.3279],[105.6511,11.4076],[105.652,11.4137],[105.6531,11.4185],[105.6582,11.4312],[105.6647,11.4526],[105.6782,11.5153],[105.6913,11.5475],[105.696,11.5539],[105.7,11.5581],[105.706,11.5607],[105.7324,11.566],[105.7431,11.5721],[105.747,11.5737],[105.751,11.5744],[105.7683,11.5743],[105.7763,11.575],[105.7799,11.5758],[105.7834,11.5771],[105.7865,11.5787],[105.7932,11.5829]]]}},{"type":"Feature","properties":{"id":"KHM-1802","name":"Takêv","nameBn":"তাকেও প্রদেশ","type":"Province","bounds":[104.4355,10.5153,105.0667,11.3555],"center":[104.751,10.9346]},"geometry":{"type":"Polygon","coordinates":[[[105.0385,10.9226],[105.0291,10.9141],[105.0179,10.8996],[105.0114,10.8838],[105.0148,10.8492],[105.0305,10.8116],[105.0662,10.7464],[105.0667,10.7139],[105.0425,10.6908],[104.9443,10.6416],[104.9314,10.6307],[104.9197,10.618],[104.8785,10.556],[104.8544,10.5313],[104.8188,10.5172],[104.7738,10.5153],[104.7244,10.5213],[104.7006,10.5242],[104.7007,10.5244],[104.7018,10.5312],[104.7095,10.619],[104.7084,10.6412],[104.7061,10.6437],[104.7031,10.6457],[104.7,10.647],[104.6965,10.6481],[104.6883,10.6576],[104.6763,10.6956],[104.6788,10.7126],[104.6971,10.7483],[104.7053,10.7609],[104.7138,10.7717],[104.7392,10.7928],[104.7025,10.8891],[104.646,10.903],[104.6299,10.9048],[104.6099,10.8975],[104.5776,10.8889],[104.547,10.9011],[104.545,10.9031],[104.5436,10.9094],[104.5545,10.9417],[104.5556,10.954],[104.5531,10.9603],[104.5511,10.9633],[104.5394,11.0183],[104.5366,11.0256],[104.525,11.0362],[104.514,11.0424],[104.4946,11.0486],[104.4623,11.0547],[104.454,11.0576],[104.444,11.0642],[104.439,11.0715],[104.4362,11.0793],[104.4355,11.0889],[104.4376,11.1213],[104.4707,11.1088],[104.483,11.1064],[104.5121,11.1061],[104.523,11.1044],[104.5329,11.1019],[104.5556,11.089],[104.5612,11.0873],[104.6129,11.0876],[104.6166,11.0885],[104.6229,11.0909],[104.6287,11.0943],[104.6397,11.0973],[104.6736,11.1001],[104.6732,11.1484],[104.683,11.1936],[104.6887,11.2231],[104.7025,11.3081],[104.7053,11.3188],[104.7134,11.3276],[104.7441,11.3555],[104.7702,11.3382],[104.78,11.3359],[104.7816,11.3365],[104.7902,11.3407],[104.8034,11.3429],[104.8343,11.3452],[104.8645,11.3532],[104.8709,11.3533],[104.8759,11.3526],[104.8793,11.3508],[104.8821,11.3489],[104.8878,11.3465],[104.923,11.3386],[104.9292,11.3362],[104.9314,11.3345],[104.9351,11.3289],[104.933,11.2834],[104.9345,11.2684],[104.9359,11.2653],[104.9378,11.2628],[104.9427,11.2588],[104.9487,11.2554],[104.9694,11.2252],[104.9806,11.2137],[105.0001,11.1988],[105.0197,11.1853],[105.0265,11.1701],[105.0269,11.1609],[105.0141,11.1129],[105.0127,11.089],[105.0168,11.0412],[105.0091,11.0095],[105.0103,10.9889],[105.0118,10.9842],[105.0141,10.9817],[105.0165,10.9794],[105.0194,10.9753],[105.0222,10.9685],[105.0312,10.9362],[105.0326,10.9327],[105.034,10.9298],[105.0385,10.9227],[105.0385,10.9226]]]}}]}