{"type":"FeatureCollection","features":[{"type":"Feature","properties":{"id":"KNA-5099","name":"Christ Church Nichola Town","nameBn":"খ্রিস্ট চার্চ নিখোলা টাউন প্যারিশ","type":"Parish","bounds":[-62.7875,17.331,-62.7305,17.387],"center":[-62.7582,17.364]},"geometry":{"type":"Polygon","coordinates":[[[-62.7694,17.387],[-62.7305,17.3646],[-62.7376,17.3609],[-62.7414,17.3544],[-62.746,17.344],[-62.7453,17.331],[-62.7544,17.331],[-62.7791,17.3356],[-62.7804,17.3421],[-62.7875,17.3498],[-62.7752,17.3674],[-62.7765,17.3745],[-62.7694,17.387]]]}},{"type":"Feature","properties":{"id":"KNA-5100","name":"Saint Anne Sandy Point","nameBn":"সেন্ট অ্যান স্যান্ডী পয়েন্ট প্যারিশ","type":"Parish","bounds":[-62.8611,17.3301,-62.8076,17.3823],"center":[-62.8369,17.3574]},"geometry":{"type":"Polygon","coordinates":[[[-62.8316,17.3301],[-62.8611,17.3623],[-62.8566,17.3804],[-62.8446,17.3771],[-62.8407,17.3823],[-62.8349,17.3797],[-62.8362,17.3726],[-62.8076,17.3667],[-62.8148,17.3531],[-62.8193,17.3531],[-62.8245,17.3414],[-62.8316,17.3301]]]}},{"type":"Feature","properties":{"id":"KNA-5101","name":"Saint George Basseterre","nameBn":"সেন্ট জর্জ বাইসেটারে প্যারিশ","type":"Parish","bounds":[-62.7343,17.2172,-62.6247,17.3207],"center":[-62.6868,17.2836]},"geometry":{"type":"Polygon","coordinates":[[[-62.6812,17.2994],[-62.6781,17.2922],[-62.6669,17.2735],[-62.6505,17.2656],[-62.6368,17.2582],[-62.6248,17.2418],[-62.6247,17.2253],[-62.647,17.2172],[-62.6597,17.2255],[-62.6705,17.2632],[-62.6903,17.275],[-62.7034,17.2891],[-62.7126,17.2923],[-62.7238,17.2917],[-62.7317,17.3057],[-62.7291,17.309],[-62.7343,17.3187],[-62.7278,17.3207],[-62.7233,17.3135],[-62.7097,17.3109],[-62.6993,17.3057],[-62.6902,17.2986],[-62.6812,17.2994]]]}},{"type":"Feature","properties":{"id":"KNA-5102","name":"Saint George Gingerland","nameBn":"সেন্ট জর্জ গ্রিন্ডারল্যান্ড প্যারিশ","type":"Parish","bounds":[-62.5786,17.1005,-62.5368,17.15],"center":[-62.5571,17.1301]},"geometry":{"type":"Polygon","coordinates":[[[-62.537,17.1384],[-62.5368,17.1297],[-62.5384,17.121],[-62.5436,17.1089],[-62.5476,17.1046],[-62.5657,17.1005],[-62.5786,17.1455],[-62.5624,17.15],[-62.5488,17.1455],[-62.537,17.1384]]]}},{"type":"Feature","properties":{"id":"KNA-5103","name":"Saint James Windward","nameBn":"সেন্ট জেমস উইন্ডওয়ার্ড প্যারিশ","type":"Parish","bounds":[-62.6125,17.1384,-62.537,17.2029],"center":[-62.5718,17.1782]},"geometry":{"type":"Polygon","coordinates":[[[-62.6125,17.1891],[-62.5992,17.2029],[-62.5784,17.2025],[-62.5604,17.1967],[-62.5465,17.1838],[-62.5384,17.1619],[-62.5373,17.1529],[-62.537,17.1384],[-62.5488,17.1455],[-62.5624,17.15],[-62.5786,17.1455],[-62.5955,17.1773],[-62.6125,17.1891]]]}},{"type":"Feature","properties":{"id":"KNA-5104","name":"Saint John Capesterre","nameBn":"সেন্ট জন ক্যাপ্রিস্টার প্যারিশ","type":"Parish","bounds":[-62.8223,17.3498,-62.7694,17.4158],"center":[-62.7967,17.382]},"geometry":{"type":"Polygon","coordinates":[[[-62.8223,17.4101],[-62.8196,17.4158],[-62.7694,17.387],[-62.7765,17.3745],[-62.7752,17.3674],[-62.7875,17.3498],[-62.8076,17.3667],[-62.8083,17.3726],[-62.8148,17.3745],[-62.818,17.3803],[-62.8186,17.392],[-62.8186,17.4017],[-62.8223,17.4101]]]}},{"type":"Feature","properties":{"id":"KNA-5105","name":"Saint John Figtree","nameBn":"সেন্ট জন ফিগট্রি প্যারিশ","type":"Parish","bounds":[-62.6216,17.1005,-62.5657,17.1455],"center":[-62.5949,17.1162]},"geometry":{"type":"Polygon","coordinates":[[[-62.5657,17.1005],[-62.6122,17.1042],[-62.6216,17.1283],[-62.6085,17.1293],[-62.5922,17.1325],[-62.5786,17.1455],[-62.5657,17.1005]]]}},{"type":"Feature","properties":{"id":"KNA-5106","name":"Saint Mary Cayon","nameBn":"সেন্ট মেরি কোয়ানপ্যারিশ","type":"Parish","bounds":[-62.746,17.3304,-62.7036,17.3646],"center":[-62.7286,17.3459]},"geometry":{"type":"Polygon","coordinates":[[[-62.7305,17.3646],[-62.72,17.3585],[-62.7036,17.3416],[-62.7116,17.3375],[-62.722,17.3375],[-62.7317,17.3388],[-62.7382,17.3304],[-62.7453,17.331],[-62.746,17.344],[-62.7414,17.3544],[-62.7376,17.3609],[-62.7305,17.3646]]]}},{"type":"Feature","properties":{"id":"KNA-5107","name":"Saint Paul Capesterre","nameBn":"সেন্ট পল ক্যাপ্রিস্ট্রে প্যারিশ","type":"Parish","bounds":[-62.8566,17.3667,-62.8076,17.4101],"center":[-62.8337,17.3911]},"geometry":{"type":"Polygon","coordinates":[[[-62.8566,17.3804],[-62.8531,17.3947],[-62.8492,17.3981],[-62.8465,17.4],[-62.8436,17.4011],[-62.8389,17.4022],[-62.8267,17.4072],[-62.8223,17.4101],[-62.8186,17.4017],[-62.8186,17.392],[-62.818,17.3803],[-62.8148,17.3745],[-62.8083,17.3726],[-62.8076,17.3667],[-62.8362,17.3726],[-62.8349,17.3797],[-62.8407,17.3823],[-62.8446,17.3771],[-62.8566,17.3804]]]}},{"type":"Feature","properties":{"id":"KNA-5108","name":"Saint Paul Charlestown","nameBn":"সেন্ট পল চার্লসটাউন প্যারিশ","type":"Parish","bounds":[-62.6264,17.1283,-62.5786,17.1455],"center":[-62.6162,17.135]},"geometry":{"type":"Polygon","coordinates":[[[-62.6216,17.1283],[-62.6264,17.1407],[-62.5968,17.1384],[-62.5786,17.1455],[-62.5922,17.1325],[-62.6085,17.1293],[-62.6216,17.1283]]]}},{"type":"Feature","properties":{"id":"KNA-5109","name":"Saint Peter Basseterre","nameBn":"সেন্ট পিটার বিসেটরে প্যারিশ","type":"Parish","bounds":[-62.7382,17.2986,-62.6812,17.3416],"center":[-62.7065,17.3221]},"geometry":{"type":"Polygon","coordinates":[[[-62.7036,17.3416],[-62.6955,17.3332],[-62.6812,17.2994],[-62.6902,17.2986],[-62.6993,17.3057],[-62.7097,17.3109],[-62.7233,17.3135],[-62.7278,17.3207],[-62.7343,17.3187],[-62.7382,17.3304],[-62.7317,17.3388],[-62.722,17.3375],[-62.7116,17.3375],[-62.7036,17.3416]]]}},{"type":"Feature","properties":{"id":"KNA-5110","name":"Saint Thomas Lowland","nameBn":"সেন্ট থমাস লোল্যান্ড প্যারিশ","type":"Parish","bounds":[-62.6264,17.1384,-62.5786,17.1891],"center":[-62.6064,17.1597]},"geometry":{"type":"Polygon","coordinates":[[[-62.6264,17.1407],[-62.6186,17.1828],[-62.6125,17.1891],[-62.5955,17.1773],[-62.5786,17.1455],[-62.5968,17.1384],[-62.6264,17.1407]]]}},{"type":"Feature","properties":{"id":"KNA-5111","name":"Saint Thomas Middle Island","nameBn":"সেন্ট থমাস মিডল দ্বীপ প্যারিশ","type":"Parish","bounds":[-62.8316,17.298,-62.7544,17.3667],"center":[-62.7943,17.3279]},"geometry":{"type":"Polygon","coordinates":[[[-62.7716,17.298],[-62.7887,17.3047],[-62.8316,17.3301],[-62.8245,17.3414],[-62.8193,17.3531],[-62.8148,17.3531],[-62.8076,17.3667],[-62.7875,17.3498],[-62.7804,17.3421],[-62.7791,17.3356],[-62.7544,17.331],[-62.7583,17.3174],[-62.7661,17.3135],[-62.7693,17.3051],[-62.7716,17.298]]]}},{"type":"Feature","properties":{"id":"KNA-5112","name":"Trinity Palmetto Point","nameBn":"ট্রিনিটি পলম্যাটো পয়েন্ট প্যারিশ","type":"Parish","bounds":[-62.7716,17.2906,-62.7238,17.331],"center":[-62.7483,17.3074]},"geometry":{"type":"Polygon","coordinates":[[[-62.7238,17.2917],[-62.744,17.2906],[-62.7569,17.2923],[-62.7716,17.298],[-62.7693,17.3051],[-62.7661,17.3135],[-62.7583,17.3174],[-62.7544,17.331],[-62.7453,17.331],[-62.7382,17.3304],[-62.7343,17.3187],[-62.7291,17.309],[-62.7317,17.3057],[-62.7238,17.2917]]]}}]}