{"type":"FeatureCollection","features":[{"type":"Feature","properties":{"id":"LCA-5076","name":"Anse-la-Raye","nameBn":"আন্স লা রায়ে কোয়ার্টার","type":"Quarter","bounds":[-61.0669,13.8665,-60.9806,13.9874],"center":[-61.0189,13.935]},"geometry":{"type":"Polygon","coordinates":[[[-61.0669,13.909],[-61.0649,13.9173],[-61.0595,13.9312],[-61.0356,13.9649],[-61.0266,13.9874],[-61.0095,13.9818],[-60.9919,13.978],[-60.9844,13.9655],[-60.9819,13.9454],[-60.9806,13.9241],[-60.9806,13.9116],[-60.9806,13.8928],[-60.9831,13.874],[-60.9907,13.8665],[-61.0107,13.8715],[-61.0245,13.894],[-61.0408,13.9053],[-61.0558,13.9091],[-61.0669,13.909]]]}},{"type":"Feature","properties":{"id":"LCA-5077","name":"Castries","nameBn":"ক্যাস্ত্রিয়েস","type":"Quarter","bounds":[-61.0266,13.879,-60.9356,14.0435],"center":[-60.9749,14.0004]},"geometry":{"type":"Polygon","coordinates":[[[-61.0266,13.9874],[-61.0023,14.0231],[-60.9971,14.0272],[-60.9873,14.0325],[-60.9823,14.0373],[-60.98,14.0435],[-60.9656,14.0344],[-60.9581,14.0219],[-60.9356,14.018],[-60.9368,14.0094],[-60.9405,13.9793],[-60.9468,13.9542],[-60.9568,13.9279],[-60.9606,13.9003],[-60.9606,13.879],[-60.9719,13.8828],[-60.9806,13.8928],[-60.9806,13.9116],[-60.9806,13.9241],[-60.9819,13.9454],[-60.9844,13.9655],[-60.9919,13.978],[-61.0095,13.9818],[-61.0266,13.9874]]]}},{"type":"Feature","properties":{"id":"LCA-5078","name":"Choiseul","nameBn":"চোইসেউল","type":"Quarter","bounds":[-61.0681,13.7562,-60.9809,13.8358],"center":[-61.0296,13.7912]},"geometry":{"type":"Polygon","coordinates":[[[-61.0189,13.7562],[-61.0482,13.7673],[-61.0649,13.7869],[-61.0681,13.7922],[-61.0496,13.8063],[-61.0257,13.8176],[-60.9919,13.8301],[-60.9816,13.8358],[-60.9809,13.8308],[-60.9857,13.8278],[-60.9888,13.8194],[-61.0011,13.792],[-61.012,13.7709],[-61.0189,13.7562]]]}},{"type":"Feature","properties":{"id":"LCA-5079","name":"Dauphin","nameBn":"দাউফিন","type":"Quarter","bounds":[-60.9405,13.9793,-60.883,14.0734],"center":[-60.9062,14.0176]},"geometry":{"type":"Polygon","coordinates":[[[-60.901,14.0734],[-60.893,14.0647],[-60.8902,14.0522],[-60.8868,14.0101],[-60.883,13.9806],[-60.9017,13.983],[-60.9205,13.9818],[-60.9405,13.9793],[-60.9368,14.0094],[-60.9356,14.018],[-60.933,14.0369],[-60.928,14.0532],[-60.9155,14.0645],[-60.901,14.0734]]]}},{"type":"Feature","properties":{"id":"LCA-5080","name":"Dennery","nameBn":"ডেনিরি কোয়ার্টার","type":"Quarter","bounds":[-60.9606,13.8978,-60.883,13.983],"center":[-60.9052,13.9425]},"geometry":{"type":"Polygon","coordinates":[[[-60.883,13.9806],[-60.883,13.9544],[-60.8902,13.9085],[-60.9067,13.9053],[-60.9217,13.8978],[-60.9393,13.9041],[-60.9606,13.9003],[-60.9568,13.9279],[-60.9468,13.9542],[-60.9405,13.9793],[-60.9205,13.9818],[-60.9017,13.983],[-60.883,13.9806]]]}},{"type":"Feature","properties":{"id":"LCA-5081","name":"Gros Islet","nameBn":"গ্রোস ইজলেট কোয়ার্টার","type":"Quarter","bounds":[-60.98,14.018,-60.901,14.1119],"center":[-60.9446,14.0664]},"geometry":{"type":"Polygon","coordinates":[[[-60.98,14.0435],[-60.9761,14.0612],[-60.9721,14.0681],[-60.9476,14.1023],[-60.9335,14.1119],[-60.9141,14.1057],[-60.9186,14.0884],[-60.9119,14.0795],[-60.901,14.0734],[-60.9155,14.0645],[-60.928,14.0532],[-60.933,14.0369],[-60.9356,14.018],[-60.9581,14.0219],[-60.9656,14.0344],[-60.98,14.0435]]]}},{"type":"Feature","properties":{"id":"LCA-5082","name":"Laborie","nameBn":"লেবুরি কোয়ার্টার","type":"Quarter","bounds":[-61.0189,13.7306,-60.9624,13.8308],"center":[-60.9867,13.7676]},"geometry":{"type":"Polygon","coordinates":[[[-60.9671,13.7306],[-60.9734,13.739],[-61.0189,13.7562],[-61.012,13.7709],[-61.0011,13.792],[-60.9888,13.8194],[-60.9857,13.8278],[-60.9809,13.8308],[-60.9804,13.8264],[-60.9769,13.8134],[-60.9702,13.7909],[-60.9639,13.7758],[-60.9628,13.7554],[-60.9624,13.7417],[-60.9671,13.7306]]]}},{"type":"Feature","properties":{"id":"LCA-5083","name":"Micoud","nameBn":"মাইকড কোয়ার্টার","type":"Quarter","bounds":[-60.9752,13.774,-60.8922,13.8452],"center":[-60.918,13.8159]},"geometry":{"type":"Polygon","coordinates":[[[-60.8922,13.8332],[-60.9046,13.7842],[-60.9073,13.7773],[-60.9103,13.7761],[-60.918,13.774],[-60.9292,13.7888],[-60.9418,13.8026],[-60.9618,13.8239],[-60.9752,13.8392],[-60.9643,13.8452],[-60.943,13.8402],[-60.9155,13.8326],[-60.8922,13.8332]]]}},{"type":"Feature","properties":{"id":"LCA-5084","name":"Praslin","nameBn":"প্রজলিন কোয়ার্টার","type":"Quarter","bounds":[-60.9643,13.8326,-60.8902,13.9085],"center":[-60.918,13.8674]},"geometry":{"type":"Polygon","coordinates":[[[-60.8902,13.9085],[-60.8951,13.8773],[-60.8922,13.8332],[-60.9155,13.8326],[-60.943,13.8402],[-60.9643,13.8452],[-60.9606,13.869],[-60.9606,13.879],[-60.9606,13.9003],[-60.9393,13.9041],[-60.9217,13.8978],[-60.9067,13.9053],[-60.8902,13.9085]]]}},{"type":"Feature","properties":{"id":"LCA-5085","name":"Soufrière","nameBn":"সৌফ্রিয়ার","type":"Quarter","bounds":[-61.0785,13.7922,-60.9606,13.9091],"center":[-61.0447,13.8545]},"geometry":{"type":"Polygon","coordinates":[[[-61.0681,13.7922],[-61.0742,13.7987],[-61.0781,13.8063],[-61.0712,13.822],[-61.0701,13.8321],[-61.0712,13.8518],[-61.0727,13.8582],[-61.0756,13.8633],[-61.0781,13.8696],[-61.0785,13.8798],[-61.0759,13.8904],[-61.0669,13.909],[-61.0558,13.9091],[-61.0408,13.9053],[-61.0245,13.894],[-61.0107,13.8715],[-60.9907,13.8665],[-60.9831,13.874],[-60.9806,13.8928],[-60.9719,13.8828],[-60.9606,13.879],[-60.9606,13.869],[-60.9643,13.8452],[-60.9752,13.8392],[-60.9816,13.8358],[-60.9919,13.8301],[-61.0257,13.8176],[-61.0496,13.8063],[-61.0681,13.7922]]]}},{"type":"Feature","properties":{"id":"LCA-5086","name":"Vieux Fort","nameBn":"ভিয়ক্স ফোর্ট কোয়ার্টার","type":"Quarter","bounds":[-60.9816,13.7147,-60.918,13.8392],"center":[-60.9438,13.7762]},"geometry":{"type":"Polygon","coordinates":[[[-60.918,13.774],[-60.9228,13.7727],[-60.9271,13.7699],[-60.9318,13.7603],[-60.9408,13.7221],[-60.947,13.7163],[-60.9501,13.7147],[-60.9551,13.7147],[-60.9671,13.7306],[-60.9624,13.7417],[-60.9628,13.7554],[-60.9639,13.7758],[-60.9702,13.7909],[-60.9769,13.8134],[-60.9804,13.8264],[-60.9809,13.8308],[-60.9816,13.8358],[-60.9752,13.8392],[-60.9618,13.8239],[-60.9418,13.8026],[-60.9292,13.7888],[-60.918,13.774]]]}}]}