{"type":"FeatureCollection","features":[{"type":"Feature","properties":{"id":"LIE-4894","name":"Balzers","nameBn":"বালজারস","type":null,"bounds":[9.4759,47.0555,9.6095,47.1608],"center":[9.506,47.0701]},"geometry":{"type":"MultiPolygon","coordinates":[[[[9.5671,47.1608],[9.5818,47.1549],[9.6056,47.1323],[9.6095,47.1224],[9.5989,47.1213],[9.59,47.1313],[9.5805,47.1385],[9.5728,47.1441],[9.5633,47.148],[9.5671,47.1608]]],[[[9.5331,47.0555],[9.4996,47.0594],[9.477,47.0639],[9.4759,47.0732],[9.4876,47.0839],[9.5029,47.0947],[9.5121,47.0885],[9.5222,47.0868],[9.5227,47.0785],[9.5294,47.0707],[9.5322,47.0623],[9.5331,47.0555]]],[[[9.5605,47.089],[9.5678,47.0885],[9.5716,47.0829],[9.5705,47.0757],[9.5605,47.0757],[9.5544,47.0829],[9.5605,47.089]]]]}},{"type":"Feature","properties":{"id":"LIE-4902","name":"Eschen","nameBn":"এসচেন","type":null,"bounds":[9.5083,47.1906,9.5629,47.2253],"center":[9.5338,47.2058]},"geometry":{"type":"Polygon","coordinates":[[[9.5543,47.2116],[9.5629,47.1977],[9.5619,47.1906],[9.5516,47.1975],[9.5399,47.1997],[9.5311,47.1947],[9.5188,47.1997],[9.5094,47.2047],[9.5083,47.2147],[9.5127,47.2247],[9.5199,47.2253],[9.5249,47.2169],[9.5422,47.2108],[9.5543,47.2116]]]}},{"type":"Feature","properties":{"id":"LIE-4897","name":"Gamprin","nameBn":"গাম্প্রিন","type":null,"bounds":[9.4864,47.1913,9.5311,47.2289],"center":[9.5021,47.2052]},"geometry":{"type":"Polygon","coordinates":[[[9.4864,47.1969],[9.4874,47.21],[9.497,47.2289],[9.5038,47.2275],[9.5127,47.2247],[9.5083,47.2147],[9.5094,47.2047],[9.5188,47.1997],[9.5311,47.1947],[9.5171,47.1913],[9.4999,47.1919],[9.4864,47.1969]]]}},{"type":"Feature","properties":{"id":"LIE-4900","name":"Mauren","nameBn":"মাউরেন","type":null,"bounds":[9.5199,47.2108,9.5543,47.2348],"center":[9.5383,47.2214]},"geometry":{"type":"Polygon","coordinates":[[[9.5431,47.2348],[9.5404,47.2291],[9.5448,47.2203],[9.5543,47.2116],[9.5422,47.2108],[9.5249,47.2169],[9.5199,47.2253],[9.5299,47.2319],[9.5431,47.2348]]]}},{"type":"Feature","properties":{"id":"LIE-4901","name":"Planken","nameBn":"প্ল্যাঙ্কেন","type":null,"bounds":[9.5299,47.148,9.5671,47.1997],"center":[9.5494,47.1875]},"geometry":{"type":"MultiPolygon","coordinates":[[[[9.5521,47.1669],[9.5671,47.1608],[9.5633,47.148],[9.5555,47.1535],[9.5483,47.1608],[9.5521,47.1669]]],[[[9.5619,47.1906],[9.552,47.1756],[9.5411,47.1774],[9.5299,47.1858],[9.5311,47.1947],[9.5399,47.1997],[9.5516,47.1975],[9.5619,47.1906]]]]}},{"type":"Feature","properties":{"id":"LIE-4898","name":"Ruggell","nameBn":"রাগেল","type":null,"bounds":[9.497,47.2247,9.5342,47.2628],"center":[9.5188,47.2458]},"geometry":{"type":"Polygon","coordinates":[[[9.5212,47.2628],[9.5303,47.2537],[9.5342,47.2512],[9.5294,47.2447],[9.526,47.2381],[9.5194,47.2314],[9.5199,47.2253],[9.5127,47.2247],[9.5038,47.2275],[9.497,47.2289],[9.5046,47.2437],[9.5212,47.2628]]]}},{"type":"Feature","properties":{"id":"LIE-4896","name":"Schaan","nameBn":"শান","type":null,"bounds":[9.485,47.063,9.6142,47.1969],"center":[9.5138,47.1819]},"geometry":{"type":"MultiPolygon","coordinates":[[[[9.6051,47.0776],[9.5883,47.063],[9.5844,47.0751],[9.5828,47.0868],[9.5978,47.0907],[9.6006,47.0824],[9.6051,47.0776]]],[[[9.6095,47.1224],[9.6142,47.1107],[9.6,47.1107],[9.5917,47.1113],[9.5855,47.1096],[9.5761,47.1085],[9.5739,47.1235],[9.57,47.133],[9.5611,47.1374],[9.5633,47.148],[9.5728,47.1441],[9.5805,47.1385],[9.59,47.1313],[9.5989,47.1213],[9.6095,47.1224]]],[[[9.552,47.1756],[9.5521,47.1669],[9.5483,47.1608],[9.5383,47.1624],[9.5255,47.1652],[9.5177,47.1613],[9.5127,47.1674],[9.5055,47.1691],[9.5083,47.153],[9.4955,47.156],[9.4926,47.1598],[9.485,47.1763],[9.4864,47.1969],[9.4999,47.1919],[9.5171,47.1913],[9.5311,47.1947],[9.5299,47.1858],[9.5411,47.1774],[9.552,47.1756]]]]}},{"type":"Feature","properties":{"id":"LIE-4899","name":"Schellenberg","nameBn":"শেলেনবার্গ","type":null,"bounds":[9.5194,47.2253,9.5471,47.2512],"center":[9.5383,47.242]},"geometry":{"type":"Polygon","coordinates":[[[9.5342,47.2512],[9.5471,47.243],[9.5431,47.2348],[9.5299,47.2319],[9.5199,47.2253],[9.5194,47.2314],[9.526,47.2381],[9.5294,47.2447],[9.5342,47.2512]]]}},{"type":"Feature","properties":{"id":"LIE-4893","name":"Triesen","nameBn":"ট্রাইসেন","type":null,"bounds":[9.5029,47.0524,9.5883,47.1307],"center":[9.5266,47.1001]},"geometry":{"type":"Polygon","coordinates":[[[9.5883,47.063],[9.5812,47.0569],[9.5606,47.0524],[9.5331,47.0555],[9.5322,47.0623],[9.5294,47.0707],[9.5227,47.0785],[9.5222,47.0868],[9.5121,47.0885],[9.5029,47.0947],[9.5124,47.108],[9.5119,47.1294],[9.5272,47.1307],[9.5333,47.1252],[9.5344,47.1152],[9.5372,47.1029],[9.5477,47.0974],[9.5566,47.0963],[9.5605,47.089],[9.5544,47.0829],[9.5605,47.0757],[9.5705,47.0757],[9.5716,47.0829],[9.5678,47.0885],[9.5828,47.0868],[9.5844,47.0751],[9.5883,47.063]]]}},{"type":"Feature","properties":{"id":"LIE-4892","name":"Triesenberg","nameBn":"ট্রাইসেনবার্গ","type":null,"bounds":[9.5272,47.0776,9.6157,47.1608],"center":[9.5486,47.1284]},"geometry":{"type":"MultiPolygon","coordinates":[[[[9.6142,47.1107],[9.6157,47.1068],[9.6088,47.0808],[9.6051,47.0776],[9.6006,47.0824],[9.5978,47.0907],[9.5983,47.099],[9.5917,47.1113],[9.6,47.1107],[9.6142,47.1107]]],[[[9.5605,47.089],[9.5566,47.0963],[9.5477,47.0974],[9.5372,47.1029],[9.5344,47.1152],[9.5333,47.1252],[9.5272,47.1307],[9.5277,47.143],[9.5316,47.1457],[9.5422,47.1457],[9.5455,47.1519],[9.5483,47.1608],[9.5555,47.1535],[9.5633,47.148],[9.5611,47.1374],[9.57,47.133],[9.5739,47.1235],[9.5761,47.1085],[9.5683,47.1074],[9.5689,47.0979],[9.5678,47.0885],[9.5605,47.089]]]]}},{"type":"Feature","properties":{"id":"LIE-4895","name":"Vaduz","nameBn":"ফাডুৎস","type":null,"bounds":[9.4955,47.0868,9.5983,47.1691],"center":[9.5183,47.1469]},"geometry":{"type":"MultiPolygon","coordinates":[[[[9.5119,47.1294],[9.5035,47.1454],[9.4955,47.156],[9.5083,47.153],[9.5055,47.1691],[9.5127,47.1674],[9.5177,47.1613],[9.5255,47.1652],[9.5383,47.1624],[9.5483,47.1608],[9.5455,47.1519],[9.5422,47.1457],[9.5316,47.1457],[9.5277,47.143],[9.5272,47.1307],[9.5119,47.1294]]],[[[9.5678,47.0885],[9.5689,47.0979],[9.5683,47.1074],[9.5761,47.1085],[9.5855,47.1096],[9.5917,47.1113],[9.5983,47.099],[9.5978,47.0907],[9.5828,47.0868],[9.5678,47.0885]]]]}}]}