{"type":"FeatureCollection","features":[{"type":"Feature","properties":{"id":"LKA-2451","name":"Ampāra","nameBn":"আমপারা জেলা","type":"District","bounds":[80.9881,6.5103,81.8903,7.7391],"center":[81.7242,7.1632]},"geometry":{"type":"Polygon","coordinates":[[[81.77,7.4608],[81.771,7.457],[81.7791,7.4553],[81.7871,7.4656],[81.7933,7.4656],[81.7934,7.4655],[81.801,7.4252],[81.8008,7.4103],[81.801,7.4103],[81.8078,7.4103],[81.8078,7.4107],[81.8086,7.4247],[81.811,7.4385],[81.8153,7.4503],[81.8215,7.4587],[81.8215,7.4656],[81.8209,7.4671],[81.8187,7.4734],[81.8205,7.4765],[81.826,7.4742],[81.835,7.4656],[81.8381,7.4577],[81.8403,7.4365],[81.8557,7.4122],[81.8807,7.3271],[81.876,7.0919],[81.8784,7.0761],[81.8887,7.0408],[81.8903,7.0199],[81.8846,6.9802],[81.8386,6.8214],[81.8359,6.8051],[81.835,6.7834],[81.8316,6.7654],[81.8171,6.7375],[81.814,6.725],[81.8083,6.708],[81.7889,6.6778],[81.7798,6.6636],[81.7866,6.6393],[81.7756,6.6104],[81.7121,6.5103],[81.7032,6.5132],[81.6789,6.5208],[81.6622,6.5397],[81.6494,6.5414],[81.6379,6.5422],[81.6081,6.5788],[81.6341,6.9457],[81.6292,6.9655],[81.6172,6.9826],[81.6171,7.0019],[81.6101,7.0211],[81.6148,7.0409],[81.6168,7.0596],[81.5872,7.0773],[81.5515,7.0865],[81.5464,7.091],[81.5402,7.0947],[81.5327,7.0947],[81.5247,7.0982],[81.5169,7.1119],[81.5129,7.1274],[81.5,7.1508],[81.5116,7.1818],[81.5325,7.2064],[81.5487,7.2191],[81.527,7.249],[81.5242,7.2705],[81.5102,7.2947],[81.4881,7.3138],[81.484,7.3331],[81.4855,7.357],[81.4736,7.4096],[81.4756,7.4231],[81.469,7.4242],[81.4627,7.428],[81.4774,7.4508],[81.4578,7.4561],[81.4328,7.4428],[81.4207,7.4386],[81.4096,7.4337],[81.4059,7.4244],[81.3991,7.4137],[81.3852,7.4101],[81.375,7.4093],[81.3752,7.3962],[81.3807,7.3845],[81.3818,7.3727],[81.3773,7.3629],[81.3704,7.3545],[81.3657,7.3475],[81.3455,7.3363],[81.3206,7.3375],[81.3208,7.2991],[81.326,7.2618],[81.3074,7.2482],[81.2872,7.2412],[81.2784,7.2575],[81.2705,7.2768],[81.267,7.2948],[81.258,7.3128],[81.2511,7.3244],[81.247,7.3333],[81.2347,7.3356],[81.226,7.3335],[81.211,7.3482],[81.1999,7.3716],[81.1934,7.4156],[81.1894,7.4281],[81.1864,7.4404],[81.1892,7.4494],[81.1948,7.4597],[81.2053,7.5083],[81.2015,7.5583],[81.157,7.5679],[81.1079,7.5406],[81.0867,7.521],[81.0746,7.5164],[81.0645,7.5141],[81.0464,7.5078],[81.0218,7.5486],[81.0138,7.5725],[81.0125,7.5888],[81.0059,7.6031],[80.9908,7.6123],[80.9881,7.6149],[80.9977,7.6623],[80.9955,7.6815],[80.9883,7.7041],[80.989,7.7208],[81.0078,7.7208],[81.0451,7.7244],[81.0634,7.7276],[81.0998,7.7137],[81.1293,7.6842],[81.1777,7.6693],[81.2013,7.6559],[81.2208,7.6536],[81.2232,7.6639],[81.2278,7.6756],[81.2342,7.6823],[81.2397,7.693],[81.2366,7.7166],[81.2412,7.7391],[81.2682,7.7338],[81.3004,7.7354],[81.3271,7.7268],[81.3613,7.6776],[81.3834,7.6567],[81.4139,7.6481],[81.4456,7.642],[81.4442,7.612],[81.4343,7.583],[81.4363,7.5663],[81.4455,7.5513],[81.4769,7.5326],[81.494,7.5162],[81.5596,7.505],[81.6262,7.5122],[81.6496,7.5251],[81.65,7.5001],[81.6579,7.4756],[81.6609,7.4189],[81.6682,7.4028],[81.7032,7.4371],[81.7235,7.4534],[81.7509,7.4579],[81.77,7.4608]]]}},{"type":"Feature","properties":{"id":"LKA-2455","name":"Anurādhapura","nameBn":"অনুরাধাপুরা","type":"District","bounds":[79.955,7.815,80.9871,8.9165],"center":[80.4711,8.292]},"geometry":{"type":"Polygon","coordinates":[[[80.9242,8.3369],[80.9113,8.3235],[80.9038,8.3058],[80.8996,8.2884],[80.8868,8.2808],[80.8424,8.2809],[80.8029,8.2736],[80.7882,8.2351],[80.78,8.1932],[80.7655,8.1555],[80.7587,8.1164],[80.7571,8.0817],[80.777,8.0658],[80.7575,8.0387],[80.7561,8.0123],[80.7353,8.0039],[80.7162,7.9943],[80.7032,7.983],[80.6838,7.9627],[80.678,7.9587],[80.6705,7.9605],[80.6604,7.9605],[80.6548,7.9446],[80.6551,7.926],[80.6454,7.9115],[80.6326,7.8984],[80.6349,7.8937],[80.6355,7.8866],[80.629,7.8828],[80.6221,7.878],[80.6146,7.866],[80.5998,7.8557],[80.5878,7.8636],[80.5717,7.8642],[80.554,7.843],[80.5204,7.8306],[80.4991,7.815],[80.4737,7.8392],[80.4775,7.874],[80.4725,7.8976],[80.4631,7.9208],[80.4605,7.9375],[80.4523,7.9513],[80.4362,7.9525],[80.4222,7.9583],[80.4203,7.9757],[80.4217,7.9939],[80.4188,8.0152],[80.4205,8.0278],[80.4202,8.0403],[80.4051,8.0526],[80.3863,8.052],[80.3683,8.0631],[80.3519,8.0794],[80.3218,8.1037],[80.2887,8.1164],[80.2702,8.1191],[80.2552,8.1298],[80.2361,8.1374],[80.2163,8.1423],[80.1241,8.1843],[80.1025,8.1962],[80.0914,8.2105],[80.0766,8.2222],[80.0563,8.2215],[80.0385,8.2348],[80.0216,8.2272],[80.0008,8.2271],[79.9946,8.2449],[79.9697,8.3457],[79.955,8.3737],[79.966,8.3985],[79.9828,8.4062],[79.9874,8.4152],[79.9887,8.4222],[80.02,8.4475],[80.0381,8.4858],[80.0325,8.5271],[80.0407,8.523],[80.0503,8.5219],[80.0524,8.6146],[80.0444,8.6732],[80.089,8.6552],[80.1381,8.6551],[80.2353,8.6803],[80.2358,8.6479],[80.246,8.6197],[80.2612,8.6145],[80.276,8.6078],[80.2824,8.5955],[80.2861,8.582],[80.2967,8.5608],[80.3178,8.5496],[80.3283,8.5467],[80.338,8.5461],[80.3533,8.5735],[80.371,8.5812],[80.3896,8.6243],[80.429,8.675],[80.4595,8.6889],[80.478,8.6791],[80.495,8.6671],[80.5268,8.6674],[80.5535,8.6876],[80.5788,8.7101],[80.6006,8.7354],[80.6127,8.7538],[80.6267,8.7708],[80.6505,8.7895],[80.6421,8.8154],[80.6237,8.8389],[80.5977,8.8479],[80.5958,8.8698],[80.6702,8.8724],[80.6993,8.8925],[80.7255,8.8999],[80.753,8.9051],[80.7812,8.9165],[80.8106,8.9159],[80.8361,8.9016],[80.8796,8.8714],[80.895,8.8547],[80.9031,8.844],[80.9126,8.8368],[80.9009,8.8109],[80.884,8.7861],[80.8846,8.7431],[80.9031,8.7029],[80.9108,8.6821],[80.8952,8.6461],[80.8961,8.6257],[80.9046,8.6162],[80.9152,8.6059],[80.9193,8.582],[80.9458,8.543],[80.9598,8.5098],[80.9688,8.4985],[80.9804,8.4896],[80.9871,8.4743],[80.9789,8.4595],[80.9646,8.4504],[80.9523,8.4383],[80.9482,8.4263],[80.9459,8.4137],[80.9242,8.3369]]]}},{"type":"Feature","properties":{"id":"LKA-2467","name":"Badulla","nameBn":"বাদুলা জেলা","type":"District","bounds":[80.7805,6.5421,81.2705,7.6149],"center":[81.0255,7.0518]},"geometry":{"type":"Polygon","coordinates":[[[81.2705,7.2768],[81.2316,7.2676],[81.2317,7.2469],[81.2239,7.228],[81.1964,7.1936],[81.1874,7.1782],[81.1708,7.1713],[81.1568,7.1863],[81.1404,7.1883],[81.1286,7.1706],[81.1256,7.1503],[81.1381,7.1344],[81.1534,7.1194],[81.1634,7.0989],[81.1752,7.0866],[81.212,7.0963],[81.2228,7.0826],[81.2283,7.0778],[81.2356,7.0688],[81.2409,7.0555],[81.2435,7.0416],[81.2435,7.023],[81.2389,7.005],[81.2352,6.9772],[81.2298,6.9664],[81.2231,6.956],[81.2205,6.9405],[81.2153,6.926],[81.2023,6.9232],[81.1924,6.9275],[81.1863,6.9214],[81.1818,6.9135],[81.1717,6.9008],[81.1591,6.8906],[81.1336,6.8835],[81.1121,6.8718],[81.1366,6.8379],[81.1075,6.8291],[81.0989,6.8124],[81.065,6.8095],[81.0625,6.7884],[81.0645,6.767],[81.0561,6.7488],[81.06,6.7358],[81.0775,6.7311],[81.0787,6.7134],[81.0639,6.6906],[81.0619,6.6759],[81.062,6.6606],[81.0714,6.6328],[81.0862,6.6096],[81.0655,6.6022],[81.0624,6.5784],[81.0514,6.5837],[81.0408,6.5906],[81.0266,6.5687],[81.0227,6.5421],[81.014,6.556],[81.0024,6.5702],[80.998,6.6021],[80.9913,6.6061],[80.9842,6.6094],[80.9774,6.6314],[80.9681,6.6519],[80.9602,6.6536],[80.9524,6.6577],[80.9476,6.6749],[80.9399,6.6869],[80.928,6.6875],[80.9097,6.6866],[80.8894,6.6716],[80.8653,6.6619],[80.8424,6.6662],[80.8271,6.6785],[80.8166,6.695],[80.8214,6.7081],[80.8484,6.7204],[80.8523,6.7243],[80.8555,6.7321],[80.8578,6.7414],[80.8406,6.7467],[80.8269,6.7617],[80.8196,6.7588],[80.8122,6.7551],[80.8095,6.7919],[80.8284,6.7966],[80.8386,6.811],[80.8294,6.8156],[80.8202,6.8215],[80.8349,6.8453],[80.831,6.852],[80.8259,6.8581],[80.8202,6.8735],[80.8136,6.8874],[80.7817,6.9034],[80.7805,6.9193],[80.7986,6.9202],[80.8173,6.9192],[80.8308,6.9345],[80.8356,6.9544],[80.8514,6.9688],[80.8695,6.9774],[80.9073,6.9855],[80.9296,7.0183],[80.9341,7.0378],[80.9433,7.0555],[80.9514,7.0629],[80.9579,7.0711],[80.9612,7.0785],[80.9597,7.0855],[80.9543,7.1032],[80.9591,7.1124],[80.9659,7.1208],[80.9623,7.1259],[80.9578,7.1313],[80.9557,7.1397],[80.9579,7.1488],[80.9503,7.1738],[80.9512,7.1918],[80.9639,7.1995],[80.9853,7.2055],[81.0122,7.2304],[81.014,7.2628],[80.9921,7.3352],[80.9833,7.4861],[80.9784,7.5679],[80.9881,7.6149],[80.9908,7.6123],[81.0059,7.6031],[81.0125,7.5888],[81.0138,7.5725],[81.0218,7.5486],[81.0464,7.5078],[81.0645,7.5141],[81.0746,7.5164],[81.0867,7.521],[81.1079,7.5406],[81.157,7.5679],[81.2015,7.5583],[81.2053,7.5083],[81.1948,7.4597],[81.1892,7.4494],[81.1864,7.4404],[81.1894,7.4281],[81.1934,7.4156],[81.1999,7.3716],[81.211,7.3482],[81.226,7.3335],[81.2347,7.3356],[81.247,7.3333],[81.2511,7.3244],[81.258,7.3128],[81.267,7.2948],[81.2705,7.2768]]]}},{"type":"Feature","properties":{"id":"LKA-2471","name":"Gampaha","nameBn":"গাম্পাহা জেলা","type":"District","bounds":[79.8137,6.9099,80.2073,7.3248],"center":[80.0106,7.126]},"geometry":{"type":"Polygon","coordinates":[[[79.8493,6.965],[79.8592,6.9887],[79.8618,7.0001],[79.8616,7.0117],[79.8616,7.0119],[79.8137,7.1807],[79.8203,7.2055],[79.82,7.1903],[79.8237,7.1806],[79.8291,7.1732],[79.8338,7.1645],[79.8434,7.131],[79.8482,7.123],[79.8543,7.123],[79.8558,7.1325],[79.8587,7.1365],[79.8612,7.1372],[79.8613,7.1372],[79.8618,7.1366],[79.8616,7.1672],[79.8616,7.1674],[79.8594,7.1808],[79.8543,7.1918],[79.8496,7.1951],[79.8364,7.1979],[79.8306,7.2018],[79.8299,7.2032],[79.8263,7.2104],[79.828,7.2183],[79.8318,7.2257],[79.8338,7.2328],[79.8279,7.276],[79.8517,7.2748],[79.8703,7.2797],[79.8896,7.2821],[79.8974,7.2735],[79.9092,7.2721],[79.9238,7.2812],[79.9413,7.2744],[79.9626,7.2827],[80.0007,7.3124],[80.0247,7.3134],[80.0523,7.2941],[80.0812,7.3026],[80.1057,7.3198],[80.1335,7.3248],[80.1426,7.3149],[80.1454,7.3063],[80.1512,7.2981],[80.1761,7.2699],[80.1936,7.2572],[80.1952,7.2439],[80.1854,7.2361],[80.1827,7.2018],[80.1697,7.1896],[80.1539,7.1815],[80.1497,7.1532],[80.1619,7.1281],[80.1862,7.1339],[80.2073,7.1277],[80.1998,7.1108],[80.1853,7.1008],[80.1726,7.0717],[80.1674,7.0426],[80.1823,6.9951],[80.1825,6.986],[80.1795,6.9778],[80.1613,6.9714],[80.1343,6.9742],[80.1145,6.9651],[80.0986,6.9494],[80.0946,6.9306],[80.0934,6.911],[80.0719,6.9099],[80.0543,6.912],[80.0427,6.9165],[80.0313,6.9227],[80.0195,6.9336],[80.006,6.9419],[79.9889,6.9407],[79.9717,6.9373],[79.922,6.9518],[79.9129,6.9481],[79.905,6.9438],[79.8874,6.948],[79.8708,6.9566],[79.8493,6.965]]]}},{"type":"Feature","properties":{"id":"LKA-2464","name":"Gālla","nameBn":"গালে জেলা","type":"District","bounds":[79.9821,5.9638,80.4953,6.441],"center":[80.2387,6.1951]},"geometry":{"type":"Polygon","coordinates":[[[80.385,5.9638],[80.3786,5.9647],[80.3738,5.9669],[80.3705,5.9716],[80.3662,5.9763],[80.3584,5.9784],[80.3538,5.9768],[80.3501,5.9735],[80.3462,5.9708],[80.341,5.9709],[80.3392,5.9724],[80.3376,5.9738],[80.3312,5.9828],[80.3281,5.9847],[80.3273,5.9852],[80.3273,5.9853],[80.3202,5.9877],[80.2775,6.003],[80.26,6.0066],[80.2476,6.0092],[80.2258,6.0266],[80.221,6.0289],[80.2114,6.0336],[80.2112,6.0336],[80.2039,6.0262],[80.1852,6.0412],[80.1038,6.1271],[80.0971,6.1324],[80.097,6.1324],[80.0963,6.1333],[80.094,6.1361],[80.0928,6.1402],[80.0931,6.1487],[80.0906,6.1531],[80.0872,6.1576],[80.0781,6.1693],[80.032,6.2663],[80.03,6.2756],[80.03,6.2757],[80.0303,6.284],[80.0305,6.2923],[80.0305,6.2924],[80.0288,6.2974],[80.0205,6.3146],[80.0121,6.3613],[79.9937,6.3941],[79.9821,6.441],[79.9891,6.4395],[79.9944,6.432],[80.0002,6.4266],[80.0067,6.4311],[80.0169,6.4351],[80.0242,6.4281],[80.0293,6.4196],[80.0659,6.4026],[80.0842,6.3989],[80.1041,6.3903],[80.1202,6.3762],[80.1368,6.3651],[80.1801,6.3569],[80.2074,6.3721],[80.2378,6.3747],[80.2674,6.3521],[80.2828,6.3373],[80.2984,6.3249],[80.3003,6.3449],[80.2928,6.3667],[80.2928,6.3881],[80.3113,6.3962],[80.3462,6.4177],[80.3819,6.4258],[80.3941,6.4133],[80.4077,6.4018],[80.4246,6.395],[80.4395,6.3946],[80.4706,6.3794],[80.4867,6.3799],[80.4953,6.3675],[80.4747,6.3614],[80.4612,6.3478],[80.4729,6.33],[80.4883,6.3145],[80.4825,6.2863],[80.4516,6.2934],[80.4324,6.3112],[80.4114,6.327],[80.3948,6.3319],[80.3788,6.3276],[80.3886,6.309],[80.4085,6.2965],[80.4296,6.2664],[80.4371,6.2378],[80.4196,6.2165],[80.3845,6.2226],[80.3949,6.2103],[80.3997,6.194],[80.3924,6.1733],[80.3834,6.1539],[80.3899,6.1344],[80.4053,6.1199],[80.4231,6.1078],[80.4388,6.0936],[80.4253,6.0774],[80.4094,6.0614],[80.3955,6.0559],[80.3896,6.0465],[80.3927,6.0361],[80.4006,6.032],[80.4182,6.0245],[80.4121,6.0123],[80.3941,6.0058],[80.3829,5.9863],[80.3831,5.9754],[80.3849,5.9648],[80.385,5.9638]]]}},{"type":"Feature","properties":{"id":"LKA-2465","name":"Hambantŏṭa","nameBn":"হাম্বানটুটা জেলা","type":"District","bounds":[80.6118,5.9756,81.7121,6.5788],"center":[81.1619,6.2704]},"geometry":{"type":"Polygon","coordinates":[[[81.7121,6.5103],[81.6815,6.4621],[81.6501,6.4309],[81.5921,6.3899],[81.5731,6.3842],[81.5477,6.3707],[81.3621,6.2254],[81.325,6.2054],[81.2044,6.1627],[81.2044,6.1627],[81.2027,6.1772],[81.2026,6.178],[81.1955,6.1837],[81.1953,6.1836],[81.1937,6.1832],[81.1877,6.1816],[81.1838,6.1736],[81.1819,6.1567],[81.1764,6.1504],[81.1677,6.148],[81.156,6.1429],[81.1343,6.1298],[81.1126,6.1203],[81.0085,6.098],[80.958,6.0808],[80.9027,6.0708],[80.8775,6.0611],[80.8623,6.0399],[80.8352,6.0452],[80.8185,6.0388],[80.8091,6.0351],[80.7706,6.0067],[80.7321,5.9784],[80.7297,5.9756],[80.7241,5.9788],[80.6987,5.9902],[80.6869,6.0085],[80.694,6.0125],[80.6945,6.0208],[80.686,6.0254],[80.6762,6.0263],[80.6624,6.0354],[80.66,6.0513],[80.6925,6.0651],[80.6814,6.1036],[80.6906,6.1119],[80.6941,6.1206],[80.6832,6.123],[80.6714,6.1211],[80.655,6.1299],[80.6515,6.1469],[80.6574,6.156],[80.6623,6.1663],[80.6569,6.1718],[80.648,6.1702],[80.6291,6.1773],[80.6118,6.1895],[80.6239,6.2325],[80.6623,6.2614],[80.6556,6.2772],[80.6623,6.2948],[80.6606,6.3023],[80.67,6.306],[80.7272,6.2951],[80.8006,6.2685],[80.8198,6.2656],[80.8388,6.2701],[80.8579,6.2719],[80.8731,6.2601],[80.8848,6.2466],[80.9215,6.2392],[80.9425,6.2323],[80.9475,6.2499],[80.9382,6.2753],[80.9198,6.2957],[80.9444,6.3118],[80.9697,6.3254],[80.9979,6.3345],[81.0196,6.3509],[81.01,6.3733],[81.0148,6.3959],[81.0274,6.3958],[81.041,6.3969],[81.0492,6.4085],[81.049,6.4217],[81.0613,6.413],[81.0708,6.4237],[81.096,6.424],[81.1208,6.4208],[81.1378,6.4147],[81.1455,6.3965],[81.1554,6.3951],[81.1661,6.3956],[81.1752,6.402],[81.1878,6.4034],[81.2065,6.379],[81.2218,6.3532],[81.2469,6.3428],[81.2742,6.3578],[81.2841,6.3676],[81.2994,6.374],[81.3285,6.3816],[81.3879,6.4045],[81.3989,6.4124],[81.4014,6.4095],[81.4102,6.4082],[81.4368,6.418],[81.4647,6.4116],[81.4777,6.4328],[81.4777,6.4415],[81.4771,6.4497],[81.4817,6.4559],[81.486,6.463],[81.4808,6.4764],[81.4804,6.4933],[81.5002,6.509],[81.5239,6.5196],[81.5421,6.5371],[81.5633,6.5531],[81.5902,6.5581],[81.6081,6.5788],[81.6379,6.5422],[81.6494,6.5414],[81.6622,6.5397],[81.6789,6.5208],[81.7032,6.5132],[81.7121,6.5103]]]}},{"type":"Feature","properties":{"id":"LKA-2472","name":"Kaḷutara","nameBn":"কুলোটারা জেলা","type":"District","bounds":[79.8928,6.3249,80.3819,6.8203],"center":[80.1374,6.5899]},"geometry":{"type":"Polygon","coordinates":[[[79.9821,6.441],[79.9779,6.4582],[79.9758,6.4599],[79.9714,6.4625],[79.967,6.4664],[79.9642,6.4719],[79.9653,6.4777],[79.9702,6.4792],[79.9754,6.4786],[79.9754,6.4786],[79.9779,6.4787],[79.9702,6.5312],[79.9696,6.5353],[79.9487,6.5886],[79.9004,6.712],[79.9019,6.7147],[79.9023,6.7154],[79.9021,6.7278],[79.8989,6.7405],[79.8928,6.7591],[79.894,6.7757],[79.9403,6.7472],[79.9691,6.7579],[79.9808,6.7606],[79.9918,6.7656],[80.0303,6.7985],[80.0415,6.7998],[80.0524,6.7946],[80.068,6.8026],[80.0803,6.8168],[80.0867,6.8156],[80.0919,6.8126],[80.1048,6.7826],[80.1243,6.7776],[80.1179,6.8066],[80.1504,6.8203],[80.1796,6.8135],[80.1829,6.7929],[80.2004,6.7471],[80.199,6.7311],[80.2054,6.7123],[80.2151,6.6923],[80.2456,6.6628],[80.2515,6.6337],[80.2625,6.6234],[80.2765,6.618],[80.2988,6.5977],[80.3133,6.5702],[80.2982,6.5645],[80.3034,6.5475],[80.3457,6.4883],[80.3819,6.4258],[80.3462,6.4177],[80.3113,6.3962],[80.2928,6.3881],[80.2928,6.3667],[80.3003,6.3449],[80.2984,6.3249],[80.2828,6.3373],[80.2674,6.3521],[80.2378,6.3747],[80.2074,6.3721],[80.1801,6.3569],[80.1368,6.3651],[80.1202,6.3762],[80.1041,6.3903],[80.0842,6.3989],[80.0659,6.4026],[80.0293,6.4196],[80.0242,6.4281],[80.0169,6.4351],[80.0067,6.4311],[80.0002,6.4266],[79.9944,6.432],[79.9891,6.4395],[79.9821,6.441]]]}},{"type":"Feature","properties":{"id":"LKA-2460","name":"Kilinŏchchi","nameBn":"ক্লিনোকাচি জেলা","type":"District","bounds":[80.053,9.2094,80.6148,9.6808],"center":[80.3341,9.3843]},"geometry":{"type":"MultiPolygon","coordinates":[[[[80.2907,9.6808],[80.3386,9.6292],[80.3696,9.6098],[80.4417,9.5769],[80.4544,9.5387],[80.4564,9.5287],[80.444,9.5281],[80.4362,9.5251],[80.4351,9.5234],[80.4329,9.5198],[80.429,9.5178],[80.4157,9.5275],[80.4104,9.5284],[80.3779,9.5275],[80.3687,9.5302],[80.2975,9.5913],[80.267,9.6108],[80.2669,9.6108],[80.256,9.6156],[80.2771,9.6522],[80.2906,9.6807],[80.2907,9.6808]]],[[[80.1098,9.2095],[80.116,9.2338],[80.116,9.2919],[80.1182,9.3004],[80.1162,9.3062],[80.1045,9.3084],[80.0769,9.3227],[80.0662,9.3326],[80.0594,9.3514],[80.0583,9.3548],[80.0535,9.3782],[80.053,9.3915],[80.065,9.404],[80.0871,9.415],[80.1117,9.4228],[80.1318,9.4257],[80.1409,9.4303],[80.1629,9.4592],[80.1654,9.4611],[80.1692,9.464],[80.1765,9.4683],[80.1856,9.4717],[80.197,9.4735],[80.1875,9.4909],[80.1818,9.4985],[80.176,9.5062],[80.1613,9.5206],[80.1419,9.535],[80.0679,9.578],[80.053,9.5964],[80.0852,9.5954],[80.1157,9.5832],[80.176,9.5486],[80.2334,9.5342],[80.2485,9.5246],[80.2722,9.5041],[80.2781,9.4933],[80.2659,9.4871],[80.2686,9.4803],[80.2721,9.4735],[80.2659,9.4667],[80.266,9.4667],[80.2869,9.4527],[80.3363,9.4647],[80.4266,9.5002],[80.4509,9.4979],[80.5042,9.4833],[80.5671,9.4552],[80.6146,9.4462],[80.6148,9.4462],[80.61,9.4414],[80.6078,9.4248],[80.5864,9.4082],[80.5835,9.3854],[80.5862,9.3627],[80.5634,9.3751],[80.5437,9.3915],[80.5362,9.401],[80.5313,9.3995],[80.5175,9.3542],[80.5006,9.3452],[80.4753,9.3436],[80.4297,9.3459],[80.4163,9.3454],[80.3992,9.3022],[80.3727,9.2998],[80.3457,9.3046],[80.3183,9.3042],[80.2415,9.2953],[80.2155,9.2617],[80.2181,9.234],[80.1917,9.2372],[80.1726,9.223],[80.1515,9.2124],[80.1171,9.2094],[80.1098,9.2095]]]]}},{"type":"Feature","properties":{"id":"LKA-2461","name":"Kuruṇægala","nameBn":"কুরোনগেলা জেলা","type":"District","bounds":[79.9002,7.2572,80.5737,8.1962],"center":[80.2369,7.713]},"geometry":{"type":"Polygon","coordinates":[[[80.4221,7.3572],[80.4129,7.3765],[80.3983,7.3915],[80.3745,7.3947],[80.3524,7.386],[80.3489,7.367],[80.3501,7.3465],[80.3468,7.3347],[80.3395,7.325],[80.3289,7.3246],[80.28,7.3138],[80.2565,7.3029],[80.2346,7.2873],[80.2139,7.2689],[80.1936,7.2572],[80.1761,7.2699],[80.1512,7.2981],[80.1454,7.3063],[80.1426,7.3149],[80.1335,7.3248],[80.1057,7.3198],[80.0812,7.3026],[80.0523,7.2941],[80.0247,7.3134],[80.0007,7.3124],[79.9626,7.2827],[79.9413,7.2744],[79.9389,7.3339],[79.9019,7.531],[79.9002,7.5655],[79.9021,7.5999],[79.9129,7.6273],[79.9279,7.6528],[79.9317,7.6641],[79.9387,7.674],[79.9533,7.6777],[79.9651,7.6841],[79.9596,7.6933],[79.9473,7.6963],[79.9524,7.7094],[79.9592,7.7209],[79.9721,7.725],[79.9865,7.7261],[79.9973,7.7306],[80.0043,7.7397],[80.0005,7.7503],[79.9951,7.7614],[79.9984,7.7878],[80.0079,7.8121],[80.0097,7.8239],[80.0133,7.8347],[80.0263,7.8416],[80.0385,7.8498],[80.0413,7.8606],[80.0461,7.8708],[80.0673,7.8817],[80.0713,7.8908],[80.0728,7.9009],[80.079,7.9149],[80.0937,7.9216],[80.0926,7.92],[80.0919,7.9182],[80.0982,7.9201],[80.1058,7.928],[80.106,7.9402],[80.1118,7.9499],[80.1326,7.9382],[80.1452,7.9479],[80.1332,7.9701],[80.139,7.9818],[80.1466,7.9931],[80.1476,8.0158],[80.1468,8.0428],[80.1507,8.0559],[80.1532,8.0678],[80.1412,8.0753],[80.1275,8.08],[80.1181,8.098],[80.1144,8.1175],[80.1039,8.157],[80.1044,8.1771],[80.1025,8.1962],[80.1241,8.1843],[80.2163,8.1423],[80.2361,8.1374],[80.2552,8.1298],[80.2702,8.1191],[80.2887,8.1164],[80.3218,8.1037],[80.3519,8.0794],[80.3683,8.0631],[80.3863,8.052],[80.4051,8.0526],[80.4202,8.0403],[80.4205,8.0278],[80.4188,8.0152],[80.4217,7.9939],[80.4203,7.9757],[80.4222,7.9583],[80.4362,7.9525],[80.4523,7.9513],[80.4605,7.9375],[80.4631,7.9208],[80.4725,7.8976],[80.4775,7.874],[80.4737,7.8392],[80.4991,7.815],[80.4944,7.7987],[80.497,7.7812],[80.5059,7.7762],[80.5135,7.7741],[80.5206,7.7585],[80.5305,7.742],[80.5373,7.7249],[80.5376,7.7076],[80.5413,7.7051],[80.5463,7.6979],[80.5492,7.6645],[80.5548,7.6336],[80.5731,7.6158],[80.5727,7.6041],[80.5698,7.5922],[80.57,7.5832],[80.5664,7.5746],[80.5522,7.5617],[80.5497,7.5406],[80.5598,7.5206],[80.5659,7.5106],[80.5709,7.5],[80.5737,7.4875],[80.5717,7.4754],[80.5661,7.4679],[80.5656,7.4576],[80.5536,7.4521],[80.5418,7.449],[80.5498,7.4363],[80.5558,7.4228],[80.5451,7.4176],[80.5307,7.4201],[80.516,7.412],[80.5176,7.4008],[80.5161,7.3905],[80.499,7.3917],[80.4835,7.4028],[80.4691,7.4027],[80.4659,7.3827],[80.4617,7.3773],[80.4583,7.3714],[80.4591,7.3649],[80.4608,7.3602],[80.4428,7.355],[80.4221,7.3572]]]}},{"type":"Feature","properties":{"id":"LKA-2469","name":"Kægalla","nameBn":"কেগালে জেলা","type":"District","bounds":[80.1497,6.831,80.5459,7.3947],"center":[80.3478,7.088]},"geometry":{"type":"Polygon","coordinates":[[[80.2948,6.8551],[80.2795,6.867],[80.2671,6.8826],[80.2256,6.9246],[80.2101,6.9176],[80.2096,6.9273],[80.2083,6.937],[80.2216,6.9494],[80.2185,6.9676],[80.2012,6.9763],[80.1795,6.9778],[80.1825,6.986],[80.1823,6.9951],[80.1674,7.0426],[80.1726,7.0717],[80.1853,7.1008],[80.1998,7.1108],[80.2073,7.1277],[80.1862,7.1339],[80.1619,7.1281],[80.1497,7.1532],[80.1539,7.1815],[80.1697,7.1896],[80.1827,7.2018],[80.1854,7.2361],[80.1952,7.2439],[80.1936,7.2572],[80.2139,7.2689],[80.2346,7.2873],[80.2565,7.3029],[80.28,7.3138],[80.3289,7.3246],[80.3395,7.325],[80.3468,7.3347],[80.3501,7.3465],[80.3489,7.367],[80.3524,7.386],[80.3745,7.3947],[80.3983,7.3915],[80.4129,7.3765],[80.4221,7.3572],[80.4344,7.3266],[80.4776,7.2889],[80.4759,7.2696],[80.4844,7.2637],[80.5098,7.2497],[80.5219,7.2351],[80.5196,7.2173],[80.5198,7.2026],[80.5342,7.1883],[80.5459,7.1737],[80.5402,7.1606],[80.5324,7.1483],[80.5215,7.1457],[80.5106,7.1451],[80.4949,7.1282],[80.4602,7.1226],[80.4488,7.1121],[80.464,7.076],[80.4712,7.0635],[80.464,7.0482],[80.4634,7.0284],[80.4648,7.0251],[80.4681,7.0242],[80.4593,7.0101],[80.4455,6.998],[80.4378,6.9954],[80.4323,6.988],[80.4379,6.9804],[80.4443,6.9739],[80.4373,6.9367],[80.446,6.9078],[80.475,6.8984],[80.4982,6.8813],[80.5058,6.8551],[80.5075,6.8417],[80.496,6.8317],[80.476,6.831],[80.4562,6.8338],[80.4286,6.8429],[80.4071,6.8552],[80.392,6.8557],[80.3795,6.8543],[80.3491,6.8373],[80.3241,6.8428],[80.3194,6.8526],[80.3121,6.8612],[80.302,6.859],[80.2948,6.8551]]]}},{"type":"Feature","properties":{"id":"LKA-2470","name":"Kŏḷamba","nameBn":"কোলামবা","type":"District","bounds":[79.8482,6.712,80.2216,6.9778],"center":[80.0349,6.8599]},"geometry":{"type":"Polygon","coordinates":[[[79.9004,6.712],[79.863,6.8072],[79.8495,6.8827],[79.8482,6.8902],[79.8482,6.9621],[79.8493,6.965],[79.8708,6.9566],[79.8874,6.948],[79.905,6.9438],[79.9129,6.9481],[79.922,6.9518],[79.9717,6.9373],[79.9889,6.9407],[80.006,6.9419],[80.0195,6.9336],[80.0313,6.9227],[80.0427,6.9165],[80.0543,6.912],[80.0719,6.9099],[80.0934,6.911],[80.0946,6.9306],[80.0986,6.9494],[80.1145,6.9651],[80.1343,6.9742],[80.1613,6.9714],[80.1795,6.9778],[80.2012,6.9763],[80.2185,6.9676],[80.2216,6.9494],[80.2083,6.937],[80.2096,6.9273],[80.2101,6.9176],[80.1973,6.902],[80.1865,6.8849],[80.1822,6.871],[80.177,6.8591],[80.2016,6.8331],[80.1796,6.8135],[80.1504,6.8203],[80.1179,6.8066],[80.1243,6.7776],[80.1048,6.7826],[80.0919,6.8126],[80.0867,6.8156],[80.0803,6.8168],[80.068,6.8026],[80.0524,6.7946],[80.0415,6.7998],[80.0303,6.7985],[79.9918,6.7656],[79.9808,6.7606],[79.9691,6.7579],[79.9403,6.7472],[79.894,6.7757],[79.8928,6.7591],[79.8989,6.7405],[79.9021,6.7278],[79.9023,6.7154],[79.9019,6.7147],[79.9004,6.712]]]}},{"type":"Feature","properties":{"id":"LKA-2448","name":"Mahanuvara","nameBn":"মাহানুভারা","type":"District","bounds":[80.4221,6.9423,81.014,7.4896],"center":[80.718,7.3019]},"geometry":{"type":"Polygon","coordinates":[[[80.4634,7.0284],[80.464,7.0482],[80.4712,7.0635],[80.464,7.076],[80.4488,7.1121],[80.4602,7.1226],[80.4949,7.1282],[80.5106,7.1451],[80.5215,7.1457],[80.5324,7.1483],[80.5402,7.1606],[80.5459,7.1737],[80.5342,7.1883],[80.5198,7.2026],[80.5196,7.2173],[80.5219,7.2351],[80.5098,7.2497],[80.4844,7.2637],[80.4759,7.2696],[80.4776,7.2889],[80.4344,7.3266],[80.4221,7.3572],[80.4428,7.355],[80.4608,7.3602],[80.4591,7.3649],[80.4583,7.3714],[80.4617,7.3773],[80.4659,7.3827],[80.4691,7.4027],[80.4835,7.4028],[80.499,7.3917],[80.5161,7.3905],[80.5176,7.4008],[80.516,7.412],[80.5307,7.4201],[80.5451,7.4176],[80.5558,7.4228],[80.5498,7.4363],[80.5418,7.449],[80.5536,7.4521],[80.5656,7.4576],[80.5861,7.4294],[80.6497,7.3898],[80.6865,7.3876],[80.7078,7.4112],[80.7045,7.4478],[80.7105,7.4634],[80.7244,7.4718],[80.7392,7.4661],[80.7764,7.4356],[80.8051,7.4399],[80.8368,7.4658],[80.878,7.4654],[80.8944,7.4735],[80.9065,7.4585],[80.9139,7.4626],[80.9203,7.4681],[80.9313,7.4866],[80.9516,7.4896],[80.9833,7.4861],[80.9921,7.3352],[81.014,7.2628],[81.0122,7.2304],[80.9853,7.2055],[80.9639,7.1995],[80.9512,7.1918],[80.9097,7.2002],[80.8668,7.1939],[80.8301,7.1967],[80.8072,7.2328],[80.7985,7.2338],[80.7881,7.2374],[80.7738,7.2566],[80.7564,7.272],[80.7596,7.2431],[80.7687,7.2056],[80.7485,7.1715],[80.6841,7.0958],[80.6669,7.1003],[80.6474,7.0999],[80.6184,7.0799],[80.598,7.0755],[80.5619,7.0799],[80.5393,7.0619],[80.5475,7.0643],[80.5553,7.061],[80.5729,7.0287],[80.5878,7.0147],[80.5997,6.9985],[80.5877,6.9652],[80.5661,6.9423],[80.5369,6.9594],[80.4921,7.0259],[80.4634,7.0284]]]}},{"type":"Feature","properties":{"id":"LKA-2457","name":"Mannārama","nameBn":"মানার জেলা","type":"District","bounds":[79.698,8.5219,80.3978,9.2372],"center":[80.0854,8.8437]},"geometry":{"type":"MultiPolygon","coordinates":[[[[79.9128,8.572],[79.9165,8.576],[79.9181,8.5809],[79.9281,8.6115],[79.9295,8.6128],[79.9302,8.6135],[79.9324,8.6225],[79.9417,8.6425],[79.9505,8.7398],[79.9264,8.8019],[79.9284,8.8127],[79.9302,8.8835],[79.9302,8.8844],[79.9277,8.9081],[79.9248,8.9197],[79.9196,8.9285],[79.9155,8.9385],[79.9248,8.9435],[79.9382,8.946],[79.9471,8.9487],[80.0051,9.0006],[80.0354,9.0153],[80.048,9.0263],[80.0547,9.0506],[80.0667,9.0756],[80.0735,9.1104],[80.1056,9.1929],[80.1068,9.1974],[80.1098,9.2095],[80.1171,9.2094],[80.1515,9.2124],[80.1726,9.223],[80.1917,9.2372],[80.1929,9.2032],[80.199,9.1705],[80.2175,9.1414],[80.2194,9.1343],[80.2206,9.127],[80.2197,9.1117],[80.216,9.0972],[80.2183,9.0737],[80.2168,9.0533],[80.1948,9.0458],[80.1904,9.0358],[80.1871,9.0249],[80.1818,9.0135],[80.1784,9.0019],[80.1831,8.993],[80.1877,8.9862],[80.175,8.9503],[80.34,8.959],[80.3671,8.9464],[80.3826,8.9218],[80.3978,8.8835],[80.3927,8.8486],[80.339,8.8289],[80.2827,8.8219],[80.2465,8.8259],[80.2185,8.8106],[80.2036,8.7771],[80.1778,8.7745],[80.1741,8.7597],[80.1738,8.7467],[80.1975,8.7288],[80.2353,8.6803],[80.1381,8.6551],[80.089,8.6552],[80.0444,8.6732],[80.0524,8.6146],[80.0503,8.5219],[80.0407,8.523],[80.0325,8.5271],[80.0058,8.542],[79.9802,8.5527],[79.9506,8.5554],[79.9242,8.5654],[79.9128,8.572]]],[[[79.7141,9.0756],[79.703,9.08],[79.698,9.0896],[79.7012,9.0992],[79.7141,9.1036],[79.7588,9.1036],[79.7786,9.0985],[79.799,9.0933],[79.8416,9.0772],[79.8823,9.0538],[79.9165,9.021],[79.9164,9.021],[79.9001,9.0244],[79.8713,9.0386],[79.8543,9.0415],[79.8803,9.0122],[79.9007,8.9891],[79.9097,8.9732],[79.8858,8.9762],[79.8701,8.9882],[79.8594,9.0012],[79.8513,9.0074],[79.841,9.0126],[79.7998,9.049],[79.7794,9.058],[79.759,9.067],[79.744,9.0711],[79.736,9.0732],[79.7141,9.0756]]]]}},{"type":"Feature","properties":{"id":"LKA-2452","name":"Maḍakalapuva","nameBn":"মাদাকালাপুভা","type":"District","bounds":[81.227,7.4028,81.8233,8.2633],"center":[81.4613,7.8508]},"geometry":{"type":"MultiPolygon","coordinates":[[[[81.4167,8.2539],[81.4167,8.2538],[81.4198,8.2434],[81.4406,8.1735],[81.4485,8.128],[81.4303,8.1031],[81.4303,8.103],[81.4203,8.1442],[81.4188,8.1501],[81.4036,8.1918],[81.3963,8.1918],[81.395,8.1601],[81.3963,8.1501],[81.3955,8.1505],[81.3948,8.1476],[81.3948,8.1475],[81.3948,8.1426],[81.3963,8.1365],[81.3996,8.1326],[81.4081,8.1301],[81.4081,8.13],[81.4098,8.1269],[81.418,8.1059],[81.4356,8.0932],[81.4356,8.0932],[81.4524,8.0945],[81.4583,8.116],[81.4644,8.116],[81.4707,8.1046],[81.4724,8.1015],[81.4806,8.0654],[81.489,8.0515],[81.5002,8.0394],[81.5073,8.0276],[81.5197,7.9993],[81.5246,8.0042],[81.531,8.009],[81.5339,8.0136],[81.5383,8.0043],[81.5339,7.9993],[81.5361,7.9958],[81.5381,7.9934],[81.5384,7.9928],[81.5396,7.9908],[81.5402,7.9863],[81.5403,7.9864],[81.5453,7.9905],[81.5555,7.9953],[81.5607,7.9993],[81.5607,7.9993],[81.5631,7.9936],[81.5659,7.9868],[81.5638,7.9787],[81.5603,7.9706],[81.5605,7.9644],[81.5607,7.9584],[81.5677,7.945],[81.5801,7.9356],[81.5881,7.9294],[81.5955,7.9174],[81.5908,7.9171],[81.5885,7.9156],[81.5855,7.9135],[81.5836,7.9123],[81.5817,7.9112],[81.5788,7.9003],[81.5759,7.8894],[81.5876,7.8553],[81.5939,7.848],[81.6082,7.8317],[81.6084,7.8317],[81.6296,7.8355],[81.6364,7.8355],[81.6433,7.8146],[81.6512,7.8017],[81.6537,7.7978],[81.6968,7.753],[81.7107,7.7311],[81.7131,7.7118],[81.691,7.7052],[81.6909,7.7051],[81.6807,7.7121],[81.6561,7.7431],[81.6432,7.7541],[81.6266,7.7602],[81.6265,7.7602],[81.6248,7.76],[81.613,7.759],[81.6025,7.7484],[81.5955,7.7263],[81.6074,7.7209],[81.619,7.7192],[81.6289,7.7229],[81.6364,7.7331],[81.6482,7.7287],[81.659,7.7233],[81.6628,7.7189],[81.6653,7.7158],[81.6637,7.7051],[81.677,7.6928],[81.6903,7.6805],[81.7007,7.6686],[81.7116,7.6505],[81.7115,7.6505],[81.7064,7.6446],[81.7051,7.6389],[81.7068,7.632],[81.7116,7.6225],[81.7178,7.6301],[81.714,7.6437],[81.714,7.6437],[81.7258,7.6396],[81.749,7.6225],[81.7546,7.6146],[81.773,7.568],[81.7718,7.566],[81.7661,7.5407],[81.7669,7.5379],[81.7671,7.5375],[81.7718,7.5278],[81.773,7.5239],[81.7691,7.517],[81.7619,7.5115],[81.7576,7.5054],[81.7627,7.4966],[81.7676,7.4902],[81.7693,7.4852],[81.7695,7.4845],[81.7725,7.4788],[81.7798,7.4724],[81.7691,7.4647],[81.77,7.4608],[81.7509,7.4579],[81.7235,7.4534],[81.7032,7.4371],[81.6682,7.4028],[81.6609,7.4189],[81.6579,7.4756],[81.65,7.5001],[81.6496,7.5251],[81.6262,7.5122],[81.5596,7.505],[81.494,7.5162],[81.4769,7.5326],[81.4455,7.5513],[81.4363,7.5663],[81.4343,7.583],[81.4442,7.612],[81.4456,7.642],[81.4139,7.6481],[81.3834,7.6567],[81.3613,7.6776],[81.3271,7.7268],[81.3004,7.7354],[81.2682,7.7338],[81.2412,7.7391],[81.227,7.8165],[81.2358,7.8934],[81.2433,7.9225],[81.2658,7.9375],[81.2944,7.9415],[81.3307,7.9367],[81.3399,7.9374],[81.3316,7.9747],[81.3149,8.0108],[81.3075,8.0476],[81.3156,8.2053],[81.3103,8.2574],[81.327,8.2633],[81.4167,8.2539]]],[[[81.7388,7.6605],[81.7371,7.671],[81.7332,7.6791],[81.7284,7.6891],[81.7251,7.6989],[81.7256,7.7093],[81.7287,7.7185],[81.73,7.7282],[81.7251,7.7398],[81.7251,7.7399],[81.738,7.7275],[81.7503,7.6986],[81.7593,7.6853],[81.7615,7.6795],[81.7708,7.6547],[81.7951,7.6163],[81.8063,7.5986],[81.8233,7.5114],[81.8233,7.5113],[81.8226,7.4914],[81.8078,7.4792],[81.7937,7.4902],[81.7894,7.4947],[81.7874,7.4968],[81.7867,7.5018],[81.786,7.5067],[81.7861,7.5088],[81.7903,7.5717],[81.7874,7.5935],[81.7764,7.6027],[81.7722,7.6116],[81.7388,7.6605]]]]}},{"type":"Feature","properties":{"id":"LKA-2458","name":"Mulativ","nameBn":"মোলাইতিবো জেলা","type":"District","bounds":[80.175,8.9368,80.9583,9.4548],"center":[80.5667,9.2404]},"geometry":{"type":"Polygon","coordinates":[[[80.626,9.4548],[80.7444,9.3597],[80.7455,9.3579],[80.7525,9.3463],[80.7637,9.3324],[80.7852,9.3124],[80.7988,9.2949],[80.7867,9.2886],[80.7866,9.2885],[80.7798,9.2916],[80.779,9.2919],[80.7788,9.292],[80.7683,9.3054],[80.7625,9.3083],[80.7625,9.3084],[80.7444,9.3113],[80.7365,9.309],[80.7404,9.301],[80.7417,9.2985],[80.7936,9.2506],[80.8139,9.2395],[80.814,9.2395],[80.8059,9.2519],[80.801,9.2633],[80.8036,9.2716],[80.8174,9.2748],[80.8239,9.2705],[80.8345,9.2395],[80.8442,9.2204],[80.8822,9.1452],[80.8745,9.148],[80.8534,9.1557],[80.8401,9.156],[80.8345,9.1418],[80.8423,9.1381],[80.8586,9.1355],[80.8731,9.1265],[80.8732,9.1252],[80.8753,9.1036],[80.8755,9.1036],[80.8822,9.1036],[80.8855,9.1093],[80.8885,9.1118],[80.8919,9.1134],[80.8965,9.1166],[80.8965,9.1165],[80.9016,9.0967],[80.9022,9.0942],[80.9164,9.0622],[80.9353,9.0334],[80.9546,9.021],[80.9561,9.0198],[80.9583,9.0179],[80.9583,9.0109],[80.9536,9.0039],[80.9443,9.0006],[80.9417,9.0035],[80.9307,9.021],[80.9187,9.0272],[80.8913,9.0342],[80.8753,9.0415],[80.8827,9.0314],[80.8867,9.0258],[80.9229,8.9923],[80.9229,8.9889],[80.9228,8.9889],[80.907,8.982],[80.8878,8.9766],[80.8704,8.9664],[80.8513,8.9609],[80.805,8.955],[80.7657,8.9368],[80.7841,9.0045],[80.7721,9.0206],[80.7402,9.0399],[80.7087,9.0447],[80.694,9.0347],[80.6784,9.031],[80.6801,9.0446],[80.6897,9.0587],[80.6781,9.0789],[80.6512,9.0818],[80.6476,9.1139],[80.6166,9.1257],[80.5841,9.1248],[80.5818,9.1199],[80.5799,9.1148],[80.5704,9.1094],[80.5605,9.1046],[80.5433,9.0894],[80.5187,9.0786],[80.5033,9.1013],[80.4783,9.1171],[80.4439,9.1161],[80.4246,9.1173],[80.4066,9.1156],[80.404,9.101],[80.4118,9.0906],[80.4264,9.0882],[80.4275,9.0801],[80.4274,9.0711],[80.431,9.054],[80.4322,9.0371],[80.4143,9.0104],[80.3864,8.9879],[80.34,8.959],[80.175,8.9503],[80.1877,8.9862],[80.1831,8.993],[80.1784,9.0019],[80.1818,9.0135],[80.1871,9.0249],[80.1904,9.0358],[80.1948,9.0458],[80.2168,9.0533],[80.2183,9.0737],[80.216,9.0972],[80.2197,9.1117],[80.2206,9.127],[80.2194,9.1343],[80.2175,9.1414],[80.199,9.1705],[80.1929,9.2032],[80.1917,9.2372],[80.2181,9.234],[80.2155,9.2617],[80.2415,9.2953],[80.3183,9.3042],[80.3457,9.3046],[80.3727,9.2998],[80.3992,9.3022],[80.4163,9.3454],[80.4297,9.3459],[80.4753,9.3436],[80.5006,9.3452],[80.5175,9.3542],[80.5313,9.3995],[80.5362,9.401],[80.5437,9.3915],[80.5634,9.3751],[80.5862,9.3627],[80.5835,9.3854],[80.5864,9.4082],[80.6078,9.4248],[80.61,9.4414],[80.6148,9.4462],[80.6199,9.4497],[80.6259,9.4547],[80.626,9.4548]]]}},{"type":"Feature","properties":{"id":"LKA-2449","name":"Mātale","nameBn":"মাতালে জেলা","type":"District","bounds":[80.4944,7.3876,80.9977,8.0123],"center":[80.7391,7.6092]},"geometry":{"type":"Polygon","coordinates":[[[80.7561,8.0123],[80.7649,8.0039],[80.7788,7.9883],[80.7785,7.9707],[80.7839,7.9648],[80.7923,7.9618],[80.7987,7.9658],[80.7991,7.9722],[80.8112,7.9779],[80.8228,7.9746],[80.8386,7.9714],[80.8533,7.9627],[80.8233,7.9315],[80.8135,7.8841],[80.8107,7.8613],[80.8011,7.8209],[80.7977,7.8137],[80.7958,7.8065],[80.7668,7.8],[80.7601,7.7726],[80.7736,7.7118],[80.7717,7.6923],[80.7817,7.6783],[80.808,7.6726],[80.8331,7.683],[80.8531,7.701],[80.8617,7.6891],[80.877,7.6796],[80.8813,7.6972],[80.8836,7.7151],[80.9372,7.7114],[80.989,7.7208],[80.9883,7.7041],[80.9955,7.6815],[80.9977,7.6623],[80.9881,7.6149],[80.9784,7.5679],[80.9833,7.4861],[80.9516,7.4896],[80.9313,7.4866],[80.9203,7.4681],[80.9139,7.4626],[80.9065,7.4585],[80.8944,7.4735],[80.878,7.4654],[80.8368,7.4658],[80.8051,7.4399],[80.7764,7.4356],[80.7392,7.4661],[80.7244,7.4718],[80.7105,7.4634],[80.7045,7.4478],[80.7078,7.4112],[80.6865,7.3876],[80.6497,7.3898],[80.5861,7.4294],[80.5656,7.4576],[80.5661,7.4679],[80.5717,7.4754],[80.5737,7.4875],[80.5709,7.5],[80.5659,7.5106],[80.5598,7.5206],[80.5497,7.5406],[80.5522,7.5617],[80.5664,7.5746],[80.57,7.5832],[80.5698,7.5922],[80.5727,7.6041],[80.5731,7.6158],[80.5548,7.6336],[80.5492,7.6645],[80.5463,7.6979],[80.5413,7.7051],[80.5376,7.7076],[80.5373,7.7249],[80.5305,7.742],[80.5206,7.7585],[80.5135,7.7741],[80.5059,7.7762],[80.497,7.7812],[80.4944,7.7987],[80.4991,7.815],[80.5204,7.8306],[80.554,7.843],[80.5717,7.8642],[80.5878,7.8636],[80.5998,7.8557],[80.6146,7.866],[80.6221,7.878],[80.629,7.8828],[80.6355,7.8866],[80.6349,7.8937],[80.6326,7.8984],[80.6454,7.9115],[80.6551,7.926],[80.6548,7.9446],[80.6604,7.9605],[80.6705,7.9605],[80.678,7.9587],[80.6838,7.9627],[80.7032,7.983],[80.7162,7.9943],[80.7353,8.0039],[80.7561,8.0123]]]}},{"type":"Feature","properties":{"id":"LKA-2466","name":"Mātara","nameBn":"মাতারা জেলা","type":"District","bounds":[80.3788,5.9237,80.7297,6.3969],"center":[80.5542,6.1655]},"geometry":{"type":"Polygon","coordinates":[[[80.7297,5.9756],[80.7144,5.9579],[80.6734,5.9603],[80.6733,5.9604],[80.6563,5.9579],[80.6429,5.9529],[80.6292,5.9451],[80.6048,5.9269],[80.5978,5.9253],[80.5908,5.9237],[80.5742,5.9301],[80.5567,5.9392],[80.5466,5.9422],[80.5396,5.9443],[80.4817,5.9374],[80.4652,5.9407],[80.4568,5.9489],[80.4514,5.9598],[80.4472,5.9661],[80.444,5.9709],[80.4271,5.9611],[80.412,5.9599],[80.385,5.9638],[80.3849,5.9648],[80.3831,5.9754],[80.3829,5.9863],[80.3941,6.0058],[80.4121,6.0123],[80.4182,6.0245],[80.4006,6.032],[80.3927,6.0361],[80.3896,6.0465],[80.3955,6.0559],[80.4094,6.0614],[80.4253,6.0774],[80.4388,6.0936],[80.4231,6.1078],[80.4053,6.1199],[80.3899,6.1344],[80.3834,6.1539],[80.3924,6.1733],[80.3997,6.194],[80.3949,6.2103],[80.3845,6.2226],[80.4196,6.2165],[80.4371,6.2378],[80.4296,6.2664],[80.4085,6.2965],[80.3886,6.309],[80.3788,6.3276],[80.3948,6.3319],[80.4114,6.327],[80.4324,6.3112],[80.4516,6.2934],[80.4825,6.2863],[80.4883,6.3145],[80.4729,6.33],[80.4612,6.3478],[80.4747,6.3614],[80.4953,6.3675],[80.5148,6.3703],[80.5344,6.3748],[80.5414,6.391],[80.5584,6.3912],[80.6023,6.3969],[80.6168,6.3704],[80.6102,6.3526],[80.6282,6.3495],[80.6522,6.3535],[80.6633,6.3397],[80.6625,6.3303],[80.6753,6.3209],[80.67,6.3155],[80.67,6.306],[80.6606,6.3023],[80.6623,6.2948],[80.6556,6.2772],[80.6623,6.2614],[80.6239,6.2325],[80.6118,6.1895],[80.6291,6.1773],[80.648,6.1702],[80.6569,6.1718],[80.6623,6.1663],[80.6574,6.156],[80.6515,6.1469],[80.655,6.1299],[80.6714,6.1211],[80.6832,6.123],[80.6941,6.1206],[80.6906,6.1119],[80.6814,6.1036],[80.6925,6.0651],[80.66,6.0513],[80.6624,6.0354],[80.6762,6.0263],[80.686,6.0254],[80.6945,6.0208],[80.694,6.0125],[80.6869,6.0085],[80.6987,5.9902],[80.7241,5.9788],[80.7297,5.9756]]]}},{"type":"Feature","properties":{"id":"LKA-2468","name":"Mŏṇarāgala","nameBn":"মোনারাগালা","type":"District","bounds":[80.8296,6.2957,81.6341,7.4561],"center":[81.3431,6.7224]},"geometry":{"type":"Polygon","coordinates":[[[80.9198,6.2957],[80.912,6.319],[80.9024,6.3373],[80.8842,6.35],[80.8651,6.3603],[80.8509,6.3791],[80.8397,6.4005],[80.8389,6.4623],[80.8326,6.478],[80.8296,6.4945],[80.8447,6.5229],[80.8636,6.5496],[80.8734,6.593],[80.8829,6.6152],[80.9012,6.637],[80.9116,6.6628],[80.928,6.6875],[80.9399,6.6869],[80.9476,6.6749],[80.9524,6.6577],[80.9602,6.6536],[80.9681,6.6519],[80.9774,6.6314],[80.9842,6.6094],[80.9913,6.6061],[80.998,6.6021],[81.0024,6.5702],[81.014,6.556],[81.0227,6.5421],[81.0266,6.5687],[81.0408,6.5906],[81.0514,6.5837],[81.0624,6.5784],[81.0655,6.6022],[81.0862,6.6096],[81.0714,6.6328],[81.062,6.6606],[81.0619,6.6759],[81.0639,6.6906],[81.0787,6.7134],[81.0775,6.7311],[81.06,6.7358],[81.0561,6.7488],[81.0645,6.767],[81.0625,6.7884],[81.065,6.8095],[81.0989,6.8124],[81.1075,6.8291],[81.1366,6.8379],[81.1121,6.8718],[81.1336,6.8835],[81.1591,6.8906],[81.1717,6.9008],[81.1818,6.9135],[81.1863,6.9214],[81.1924,6.9275],[81.2023,6.9232],[81.2153,6.926],[81.2205,6.9405],[81.2231,6.956],[81.2298,6.9664],[81.2352,6.9772],[81.2389,7.005],[81.2435,7.023],[81.2435,7.0416],[81.2409,7.0555],[81.2356,7.0688],[81.2283,7.0778],[81.2228,7.0826],[81.212,7.0963],[81.1752,7.0866],[81.1634,7.0989],[81.1534,7.1194],[81.1381,7.1344],[81.1256,7.1503],[81.1286,7.1706],[81.1404,7.1883],[81.1568,7.1863],[81.1708,7.1713],[81.1874,7.1782],[81.1964,7.1936],[81.2239,7.228],[81.2317,7.2469],[81.2316,7.2676],[81.2705,7.2768],[81.2784,7.2575],[81.2872,7.2412],[81.3074,7.2482],[81.326,7.2618],[81.3208,7.2991],[81.3206,7.3375],[81.3455,7.3363],[81.3657,7.3475],[81.3704,7.3545],[81.3773,7.3629],[81.3818,7.3727],[81.3807,7.3845],[81.3752,7.3962],[81.375,7.4093],[81.3852,7.4101],[81.3991,7.4137],[81.4059,7.4244],[81.4096,7.4337],[81.4207,7.4386],[81.4328,7.4428],[81.4578,7.4561],[81.4774,7.4508],[81.4627,7.428],[81.469,7.4242],[81.4756,7.4231],[81.4736,7.4096],[81.4855,7.357],[81.484,7.3331],[81.4881,7.3138],[81.5102,7.2947],[81.5242,7.2705],[81.527,7.249],[81.5487,7.2191],[81.5325,7.2064],[81.5116,7.1818],[81.5,7.1508],[81.5129,7.1274],[81.5169,7.1119],[81.5247,7.0982],[81.5327,7.0947],[81.5402,7.0947],[81.5464,7.091],[81.5515,7.0865],[81.5872,7.0773],[81.6168,7.0596],[81.6148,7.0409],[81.6101,7.0211],[81.6171,7.0019],[81.6172,6.9826],[81.6292,6.9655],[81.6341,6.9457],[81.6081,6.5788],[81.5902,6.5581],[81.5633,6.5531],[81.5421,6.5371],[81.5239,6.5196],[81.5002,6.509],[81.4804,6.4933],[81.4808,6.4764],[81.486,6.463],[81.4817,6.4559],[81.4771,6.4497],[81.4777,6.4415],[81.4777,6.4328],[81.4647,6.4116],[81.4368,6.418],[81.4102,6.4082],[81.4014,6.4095],[81.3989,6.4124],[81.3879,6.4045],[81.3285,6.3816],[81.2994,6.374],[81.2841,6.3676],[81.2742,6.3578],[81.2469,6.3428],[81.2218,6.3532],[81.2065,6.379],[81.1878,6.4034],[81.1752,6.402],[81.1661,6.3956],[81.1554,6.3951],[81.1455,6.3965],[81.1378,6.4147],[81.1208,6.4208],[81.096,6.424],[81.0708,6.4237],[81.0613,6.413],[81.049,6.4217],[81.0492,6.4085],[81.041,6.3969],[81.0274,6.3958],[81.0148,6.3959],[81.01,6.3733],[81.0196,6.3509],[80.9979,6.3345],[80.9697,6.3254],[80.9444,6.3118],[80.9198,6.2957]]]}},{"type":"Feature","properties":{"id":"LKA-2450","name":"Nuvara Ĕliya","nameBn":"নৌয়ারা এলিয়া জেলা","type":"District","bounds":[80.4323,6.7539,80.9659,7.272],"center":[80.6991,6.9363]},"geometry":{"type":"Polygon","coordinates":[[[80.6426,6.7539],[80.5877,6.7613],[80.5358,6.7729],[80.5114,6.7749],[80.4908,6.7905],[80.4944,6.8008],[80.5021,6.8079],[80.4953,6.8153],[80.496,6.8317],[80.5075,6.8417],[80.5058,6.8551],[80.4982,6.8813],[80.475,6.8984],[80.446,6.9078],[80.4373,6.9367],[80.4443,6.9739],[80.4379,6.9804],[80.4323,6.988],[80.4378,6.9954],[80.4455,6.998],[80.4593,7.0101],[80.4681,7.0242],[80.4648,7.0251],[80.4634,7.0284],[80.4921,7.0259],[80.5369,6.9594],[80.5661,6.9423],[80.5877,6.9652],[80.5997,6.9985],[80.5878,7.0147],[80.5729,7.0287],[80.5553,7.061],[80.5475,7.0643],[80.5393,7.0619],[80.5619,7.0799],[80.598,7.0755],[80.6184,7.0799],[80.6474,7.0999],[80.6669,7.1003],[80.6841,7.0958],[80.7485,7.1715],[80.7687,7.2056],[80.7596,7.2431],[80.7564,7.272],[80.7738,7.2566],[80.7881,7.2374],[80.7985,7.2338],[80.8072,7.2328],[80.8301,7.1967],[80.8668,7.1939],[80.9097,7.2002],[80.9512,7.1918],[80.9503,7.1738],[80.9579,7.1488],[80.9557,7.1397],[80.9578,7.1313],[80.9623,7.1259],[80.9659,7.1208],[80.9591,7.1124],[80.9543,7.1032],[80.9597,7.0855],[80.9612,7.0785],[80.9579,7.0711],[80.9514,7.0629],[80.9433,7.0555],[80.9341,7.0378],[80.9296,7.0183],[80.9073,6.9855],[80.8695,6.9774],[80.8514,6.9688],[80.8356,6.9544],[80.8308,6.9345],[80.8173,6.9192],[80.7986,6.9202],[80.7805,6.9193],[80.7817,6.9034],[80.8136,6.8874],[80.8202,6.8735],[80.8259,6.8581],[80.831,6.852],[80.8349,6.8453],[80.8202,6.8215],[80.8294,6.8156],[80.8386,6.811],[80.8284,6.7966],[80.8095,6.7919],[80.7528,6.7625],[80.7216,6.7583],[80.6884,6.7594],[80.6636,6.7574],[80.6426,6.7539]]]}},{"type":"Feature","properties":{"id":"LKA-2462","name":"Puttalama","nameBn":"পোতালাম জেলা","type":"District","bounds":[79.6968,7.2721,80.1532,8.572],"center":[79.9111,7.9494]},"geometry":{"type":"Polygon","coordinates":[[[79.8279,7.276],[79.7847,7.5898],[79.7786,7.6027],[79.7827,7.6071],[79.7858,7.6076],[79.793,7.6027],[79.7946,7.62],[79.7996,7.6401],[79.8008,7.6497],[79.802,7.6593],[79.7964,7.6744],[79.7888,7.6882],[79.7874,7.6973],[79.7859,7.7065],[79.786,7.7434],[79.763,7.8555],[79.7603,7.8684],[79.7484,7.893],[79.7383,7.9447],[79.7219,7.9855],[79.6968,8.0983],[79.6968,8.1303],[79.7009,8.1285],[79.7011,8.1282],[79.7014,8.1279],[79.7014,8.1269],[79.7036,8.1235],[79.7072,8.1421],[79.7019,8.2012],[79.6968,8.2191],[79.7132,8.2298],[79.7288,8.2497],[79.74,8.2724],[79.7445,8.2914],[79.749,8.3039],[79.7786,8.35],[79.7782,8.3493],[79.7634,8.3144],[79.7445,8.2812],[79.7486,8.2731],[79.7497,8.2711],[79.7571,8.2637],[79.7668,8.2599],[79.7786,8.26],[79.7689,8.2328],[79.7588,8.2129],[79.7544,8.2094],[79.7498,8.2089],[79.7461,8.2061],[79.7445,8.1955],[79.7454,8.1719],[79.7445,8.1645],[79.7275,8.1109],[79.7282,8.101],[79.7295,8.0811],[79.747,8.0605],[79.752,8.0546],[79.7319,8.0131],[79.7638,7.9901],[79.8102,7.9865],[79.8338,8.0031],[79.8294,8.0209],[79.8218,8.0349],[79.8189,8.0402],[79.8153,8.0446],[79.8064,8.0556],[79.7964,8.062],[79.7935,8.0728],[79.8272,8.1365],[79.8259,8.1481],[79.8215,8.1566],[79.8166,8.1638],[79.8135,8.1713],[79.8127,8.1833],[79.8138,8.2041],[79.8135,8.2126],[79.8135,8.2129],[79.8129,8.2145],[79.8102,8.2216],[79.8086,8.2231],[79.8067,8.2249],[79.8047,8.229],[79.8067,8.2402],[79.8114,8.2497],[79.8245,8.2667],[79.8272,8.2777],[79.8293,8.2987],[79.8386,8.3405],[79.8482,8.4382],[79.8543,8.4493],[79.8608,8.4548],[79.8659,8.4614],[79.868,8.476],[79.868,8.5176],[79.8738,8.5381],[79.8874,8.5512],[79.9035,8.5621],[79.9128,8.572],[79.9242,8.5654],[79.9506,8.5554],[79.9802,8.5527],[80.0058,8.542],[80.0325,8.5271],[80.0381,8.4858],[80.02,8.4475],[79.9887,8.4222],[79.9874,8.4152],[79.9828,8.4062],[79.966,8.3985],[79.955,8.3737],[79.9697,8.3457],[79.9946,8.2449],[80.0008,8.2271],[80.0216,8.2272],[80.0385,8.2348],[80.0563,8.2215],[80.0766,8.2222],[80.0914,8.2105],[80.1025,8.1962],[80.1044,8.1771],[80.1039,8.157],[80.1144,8.1175],[80.1181,8.098],[80.1275,8.08],[80.1412,8.0753],[80.1532,8.0678],[80.1507,8.0559],[80.1468,8.0428],[80.1476,8.0158],[80.1466,7.9931],[80.139,7.9818],[80.1332,7.9701],[80.1452,7.9479],[80.1326,7.9382],[80.1118,7.9499],[80.106,7.9402],[80.1058,7.928],[80.0982,7.9201],[80.0919,7.9182],[80.0926,7.92],[80.0937,7.9216],[80.079,7.9149],[80.0728,7.9009],[80.0713,7.8908],[80.0673,7.8817],[80.0461,7.8708],[80.0413,7.8606],[80.0385,7.8498],[80.0263,7.8416],[80.0133,7.8347],[80.0097,7.8239],[80.0079,7.8121],[79.9984,7.7878],[79.9951,7.7614],[80.0005,7.7503],[80.0043,7.7397],[79.9973,7.7306],[79.9865,7.7261],[79.9721,7.725],[79.9592,7.7209],[79.9524,7.7094],[79.9473,7.6963],[79.9596,7.6933],[79.9651,7.6841],[79.9533,7.6777],[79.9387,7.674],[79.9317,7.6641],[79.9279,7.6528],[79.9129,7.6273],[79.9021,7.5999],[79.9002,7.5655],[79.9019,7.531],[79.9389,7.3339],[79.9413,7.2744],[79.9238,7.2812],[79.9092,7.2721],[79.8974,7.2735],[79.8896,7.2821],[79.8703,7.2797],[79.8517,7.2748],[79.8279,7.276]]]}},{"type":"Feature","properties":{"id":"LKA-2453","name":"Pŏḷŏnnaruva","nameBn":"পোলোনারোয়া জেলা","type":"District","bounds":[80.7561,7.6536,81.3399,8.3412],"center":[81.048,8.0]},"geometry":{"type":"Polygon","coordinates":[[[80.7923,7.9618],[80.7839,7.9648],[80.7785,7.9707],[80.7788,7.9883],[80.7649,8.0039],[80.7561,8.0123],[80.7575,8.0387],[80.777,8.0658],[80.7571,8.0817],[80.7587,8.1164],[80.7655,8.1555],[80.78,8.1932],[80.7882,8.2351],[80.8029,8.2736],[80.8424,8.2809],[80.8868,8.2808],[80.8996,8.2884],[80.9038,8.3058],[80.9113,8.3235],[80.9242,8.3369],[80.9392,8.3412],[80.9509,8.324],[80.9671,8.3178],[80.9824,8.3059],[80.9865,8.2851],[80.999,8.2726],[81.0412,8.2767],[81.1169,8.2584],[81.1348,8.2583],[81.1515,8.249],[81.1676,8.2367],[81.1853,8.2277],[81.1979,8.2286],[81.205,8.2186],[81.2065,8.2059],[81.2061,8.193],[81.2096,8.174],[81.2043,8.1616],[81.1927,8.1543],[81.1966,8.1515],[81.2015,8.1499],[81.2266,8.1556],[81.2408,8.1884],[81.2458,8.198],[81.2521,8.2241],[81.2591,8.2301],[81.2666,8.2357],[81.2732,8.2476],[81.2823,8.2574],[81.2948,8.2573],[81.3103,8.2574],[81.3156,8.2053],[81.3075,8.0476],[81.3149,8.0108],[81.3316,7.9747],[81.3399,7.9374],[81.3307,7.9367],[81.2944,7.9415],[81.2658,7.9375],[81.2433,7.9225],[81.2358,7.8934],[81.227,7.8165],[81.2412,7.7391],[81.2366,7.7166],[81.2397,7.693],[81.2342,7.6823],[81.2278,7.6756],[81.2232,7.6639],[81.2208,7.6536],[81.2013,7.6559],[81.1777,7.6693],[81.1293,7.6842],[81.0998,7.7137],[81.0634,7.7276],[81.0451,7.7244],[81.0078,7.7208],[80.989,7.7208],[80.9372,7.7114],[80.8836,7.7151],[80.8813,7.6972],[80.877,7.6796],[80.8617,7.6891],[80.8531,7.701],[80.8331,7.683],[80.808,7.6726],[80.7817,7.6783],[80.7717,7.6923],[80.7736,7.7118],[80.7601,7.7726],[80.7668,7.8],[80.7958,7.8065],[80.7977,7.8137],[80.8011,7.8209],[80.8107,7.8613],[80.8135,7.8841],[80.8233,7.9315],[80.8533,7.9627],[80.8386,7.9714],[80.8228,7.9746],[80.8112,7.9779],[80.7991,7.9722],[80.7987,7.9658],[80.7923,7.9618]]]}},{"type":"Feature","properties":{"id":"LKA-2463","name":"Ratnapura","nameBn":"রাতনাপুরা জেলা","type":"District","bounds":[80.177,6.2323,80.9475,6.9246],"center":[80.5623,6.5793]},"geometry":{"type":"Polygon","coordinates":[[[80.928,6.6875],[80.9116,6.6628],[80.9012,6.637],[80.8829,6.6152],[80.8734,6.593],[80.8636,6.5496],[80.8447,6.5229],[80.8296,6.4945],[80.8326,6.478],[80.8389,6.4623],[80.8397,6.4005],[80.8509,6.3791],[80.8651,6.3603],[80.8842,6.35],[80.9024,6.3373],[80.912,6.319],[80.9198,6.2957],[80.9382,6.2753],[80.9475,6.2499],[80.9425,6.2323],[80.9215,6.2392],[80.8848,6.2466],[80.8731,6.2601],[80.8579,6.2719],[80.8388,6.2701],[80.8198,6.2656],[80.8006,6.2685],[80.7272,6.2951],[80.67,6.306],[80.67,6.3155],[80.6753,6.3209],[80.6625,6.3303],[80.6633,6.3397],[80.6522,6.3535],[80.6282,6.3495],[80.6102,6.3526],[80.6168,6.3704],[80.6023,6.3969],[80.5584,6.3912],[80.5414,6.391],[80.5344,6.3748],[80.5148,6.3703],[80.4953,6.3675],[80.4867,6.3799],[80.4706,6.3794],[80.4395,6.3946],[80.4246,6.395],[80.4077,6.4018],[80.3941,6.4133],[80.3819,6.4258],[80.3457,6.4883],[80.3034,6.5475],[80.2982,6.5645],[80.3133,6.5702],[80.2988,6.5977],[80.2765,6.618],[80.2625,6.6234],[80.2515,6.6337],[80.2456,6.6628],[80.2151,6.6923],[80.2054,6.7123],[80.199,6.7311],[80.2004,6.7471],[80.1829,6.7929],[80.1796,6.8135],[80.2016,6.8331],[80.177,6.8591],[80.1822,6.871],[80.1865,6.8849],[80.1973,6.902],[80.2101,6.9176],[80.2256,6.9246],[80.2671,6.8826],[80.2795,6.867],[80.2948,6.8551],[80.302,6.859],[80.3121,6.8612],[80.3194,6.8526],[80.3241,6.8428],[80.3491,6.8373],[80.3795,6.8543],[80.392,6.8557],[80.4071,6.8552],[80.4286,6.8429],[80.4562,6.8338],[80.476,6.831],[80.496,6.8317],[80.4953,6.8153],[80.5021,6.8079],[80.4944,6.8008],[80.4908,6.7905],[80.5114,6.7749],[80.5358,6.7729],[80.5877,6.7613],[80.6426,6.7539],[80.6636,6.7574],[80.6884,6.7594],[80.7216,6.7583],[80.7528,6.7625],[80.8095,6.7919],[80.8122,6.7551],[80.8196,6.7588],[80.8269,6.7617],[80.8406,6.7467],[80.8578,6.7414],[80.8555,6.7321],[80.8523,6.7243],[80.8484,6.7204],[80.8214,6.7081],[80.8166,6.695],[80.8271,6.6785],[80.8424,6.6662],[80.8653,6.6619],[80.8894,6.6716],[80.9097,6.6866],[80.928,6.6875]]]}},{"type":"Feature","properties":{"id":"LKA-2454","name":"Trikuṇāmalaya","nameBn":"ত্রিকুমালয়","type":"District","bounds":[80.753,8.1499,81.4167,8.9889],"center":[81.0848,8.562]},"geometry":{"type":"Polygon","coordinates":[[[80.9229,8.9889],[80.9232,8.9732],[80.9351,8.9649],[80.935,8.9648],[80.9243,8.955],[80.9149,8.9439],[80.915,8.9439],[80.9307,8.9316],[80.9476,8.9329],[80.9614,8.9457],[80.9717,8.9636],[80.9784,8.98],[80.9785,8.98],[81.0147,8.9367],[81.0467,8.8821],[81.0598,8.8686],[81.0781,8.8633],[81.0928,8.8516],[81.1143,8.8],[81.1197,8.7943],[81.1255,8.7883],[81.1256,8.7882],[81.1502,8.7772],[81.1624,8.7512],[81.1765,8.6989],[81.179,8.7085],[81.1823,8.7122],[81.1878,8.711],[81.1878,8.711],[81.1975,8.7057],[81.1946,8.6961],[81.2224,8.666],[81.2317,8.6511],[81.2316,8.633],[81.2243,8.6258],[81.2139,8.621],[81.2044,8.6101],[81.2045,8.6102],[81.2118,8.612],[81.2192,8.6139],[81.2211,8.6149],[81.2249,8.6169],[81.2249,8.6168],[81.2466,8.5701],[81.2498,8.5458],[81.2249,8.5418],[81.2249,8.5418],[81.23,8.5579],[81.2233,8.5709],[81.2122,8.5727],[81.2044,8.5555],[81.207,8.5421],[81.2141,8.5327],[81.218,8.5225],[81.2106,8.5071],[81.2048,8.5115],[81.1939,8.52],[81.1765,8.5306],[81.159,8.5346],[81.1423,8.5276],[81.1294,8.5103],[81.134,8.5013],[81.1494,8.5036],[81.1703,8.5207],[81.1846,8.5056],[81.1975,8.4875],[81.2131,8.4724],[81.2351,8.4661],[81.2811,8.467],[81.2966,8.4768],[81.2864,8.5002],[81.3127,8.5122],[81.3231,8.5153],[81.3342,8.5146],[81.3342,8.5145],[81.3464,8.5076],[81.3574,8.4958],[81.3657,8.4822],[81.3728,8.4421],[81.3884,8.3906],[81.3889,8.3772],[81.3894,8.3637],[81.3767,8.3725],[81.3635,8.3991],[81.3518,8.4047],[81.3514,8.3974],[81.3562,8.365],[81.3566,8.3625],[81.3621,8.35],[81.3687,8.3469],[81.3748,8.3441],[81.375,8.3441],[81.3885,8.3441],[81.3993,8.3393],[81.4056,8.301],[81.4133,8.2745],[81.4146,8.2701],[81.4167,8.2539],[81.327,8.2633],[81.3103,8.2574],[81.2948,8.2573],[81.2823,8.2574],[81.2732,8.2476],[81.2666,8.2357],[81.2591,8.2301],[81.2521,8.2241],[81.2458,8.198],[81.2408,8.1884],[81.2266,8.1556],[81.2015,8.1499],[81.1966,8.1515],[81.1927,8.1543],[81.2043,8.1616],[81.2096,8.174],[81.2061,8.193],[81.2065,8.2059],[81.205,8.2186],[81.1979,8.2286],[81.1853,8.2277],[81.1676,8.2367],[81.1515,8.249],[81.1348,8.2583],[81.1169,8.2584],[81.0412,8.2767],[80.999,8.2726],[80.9865,8.2851],[80.9824,8.3059],[80.9671,8.3178],[80.9509,8.324],[80.9392,8.3412],[80.9242,8.3369],[80.9459,8.4137],[80.9482,8.4263],[80.9523,8.4383],[80.9646,8.4504],[80.9789,8.4595],[80.9871,8.4743],[80.9804,8.4896],[80.9688,8.4985],[80.9598,8.5098],[80.9458,8.543],[80.9193,8.582],[80.9152,8.6059],[80.9046,8.6162],[80.8961,8.6257],[80.8952,8.6461],[80.9108,8.6821],[80.9031,8.7029],[80.8846,8.7431],[80.884,8.7861],[80.9009,8.8109],[80.9126,8.8368],[80.9031,8.844],[80.895,8.8547],[80.8796,8.8714],[80.8361,8.9016],[80.8106,8.9159],[80.7812,8.9165],[80.753,8.9051],[80.7575,8.9226],[80.7657,8.9368],[80.805,8.955],[80.8513,8.9609],[80.8704,8.9664],[80.8878,8.9766],[80.907,8.982],[80.9228,8.9889],[80.9229,8.9889]]]}},{"type":"Feature","properties":{"id":"LKA-2456","name":"Vavuniyāva","nameBn":"ভাভুনিয়াভা","type":"District","bounds":[80.1738,8.5461,80.7841,9.1257],"center":[80.479,8.8976]},"geometry":{"type":"Polygon","coordinates":[[[80.753,8.9051],[80.7255,8.8999],[80.6993,8.8925],[80.6702,8.8724],[80.5958,8.8698],[80.5977,8.8479],[80.6237,8.8389],[80.6421,8.8154],[80.6505,8.7895],[80.6267,8.7708],[80.6127,8.7538],[80.6006,8.7354],[80.5788,8.7101],[80.5535,8.6876],[80.5268,8.6674],[80.495,8.6671],[80.478,8.6791],[80.4595,8.6889],[80.429,8.675],[80.3896,8.6243],[80.371,8.5812],[80.3533,8.5735],[80.338,8.5461],[80.3283,8.5467],[80.3178,8.5496],[80.2967,8.5608],[80.2861,8.582],[80.2824,8.5955],[80.276,8.6078],[80.2612,8.6145],[80.246,8.6197],[80.2358,8.6479],[80.2353,8.6803],[80.1975,8.7288],[80.1738,8.7467],[80.1741,8.7597],[80.1778,8.7745],[80.2036,8.7771],[80.2185,8.8106],[80.2465,8.8259],[80.2827,8.8219],[80.339,8.8289],[80.3927,8.8486],[80.3978,8.8835],[80.3826,8.9218],[80.3671,8.9464],[80.34,8.959],[80.3864,8.9879],[80.4143,9.0104],[80.4322,9.0371],[80.431,9.054],[80.4274,9.0711],[80.4275,9.0801],[80.4264,9.0882],[80.4118,9.0906],[80.404,9.101],[80.4066,9.1156],[80.4246,9.1173],[80.4439,9.1161],[80.4783,9.1171],[80.5033,9.1013],[80.5187,9.0786],[80.5433,9.0894],[80.5605,9.1046],[80.5704,9.1094],[80.5799,9.1148],[80.5818,9.1199],[80.5841,9.1248],[80.6166,9.1257],[80.6476,9.1139],[80.6512,9.0818],[80.6781,9.0789],[80.6897,9.0587],[80.6801,9.0446],[80.6784,9.031],[80.694,9.0347],[80.7087,9.0447],[80.7402,9.0399],[80.7721,9.0206],[80.7841,9.0045],[80.7657,8.9368],[80.7575,8.9226],[80.753,8.9051]]]}},{"type":"Feature","properties":{"id":"LKA-2459","name":"Yāpanaya","nameBn":"ইয়াপানায়","type":"District","bounds":[79.6558,9.4462,80.626,9.8296],"center":[79.6933,9.5067]},"geometry":{"type":"MultiPolygon","coordinates":[[[[80.4417,9.5769],[80.444,9.5759],[80.444,9.5833],[80.4077,9.6015],[80.3198,9.6728],[80.2478,9.7551],[80.2112,9.7746],[80.1538,9.788],[80.1387,9.7987],[80.1367,9.8139],[80.1577,9.8229],[80.1646,9.8241],[80.1854,9.8275],[80.2268,9.8296],[80.2468,9.8259],[80.2606,9.8162],[80.2698,9.7835],[80.279,9.7698],[80.4099,9.6175],[80.4292,9.6035],[80.4683,9.5814],[80.626,9.4548],[80.6259,9.4547],[80.6199,9.4497],[80.6148,9.4462],[80.5467,9.4924],[80.5233,9.5032],[80.5025,9.5076],[80.4994,9.5091],[80.4963,9.5105],[80.4783,9.5241],[80.4714,9.5281],[80.4646,9.5291],[80.4564,9.5287],[80.4544,9.5387],[80.4417,9.5769]]],[[[80.256,9.6156],[80.2046,9.6379],[80.186,9.6485],[80.1736,9.6487],[80.176,9.6243],[80.1829,9.6172],[80.1936,9.6091],[80.2,9.5992],[80.1936,9.5864],[80.186,9.5841],[80.1787,9.588],[80.172,9.5936],[80.1528,9.6035],[80.1155,9.6357],[80.094,9.6448],[80.0941,9.6448],[80.105,9.6329],[80.1247,9.616],[80.1356,9.6038],[80.1113,9.6085],[80.0874,9.6184],[80.0393,9.6448],[80.001,9.6747],[79.9782,9.6827],[79.9759,9.6841],[79.9673,9.6896],[79.9592,9.6928],[79.958,9.6857],[79.947,9.6932],[79.9429,9.7028],[79.9409,9.7143],[79.937,9.7274],[79.9304,9.7385],[79.9265,9.7435],[79.9163,9.7568],[79.9097,9.7683],[79.9313,9.779],[79.9707,9.8151],[79.9885,9.8229],[79.9885,9.8229],[80.0667,9.8161],[80.1074,9.8206],[80.1223,9.8189],[80.1282,9.8056],[80.1272,9.7846],[80.1301,9.7773],[80.1387,9.7746],[80.147,9.7734],[80.1709,9.7673],[80.176,9.7646],[80.1804,9.7558],[80.1912,9.7562],[80.1996,9.7587],[80.2029,9.7597],[80.2078,9.7604],[80.2112,9.7609],[80.2113,9.7608],[80.219,9.7564],[80.2223,9.7545],[80.2503,9.7243],[80.2907,9.6808],[80.2906,9.6807],[80.2771,9.6522],[80.256,9.6156]]],[[[79.7308,9.5002],[79.7228,9.4926],[79.7147,9.4851],[79.6895,9.4836],[79.666,9.4913],[79.6558,9.5039],[79.6558,9.5449],[79.6587,9.5554],[79.6653,9.554],[79.6721,9.5456],[79.6763,9.535],[79.6935,9.5296],[79.7141,9.5281],[79.7192,9.5244],[79.7308,9.5002]]],[[[79.8958,9.6175],[79.8804,9.6286],[79.8649,9.6515],[79.8407,9.6994],[79.8517,9.7165],[79.8543,9.7385],[79.8605,9.7563],[79.8823,9.7609],[79.8939,9.7574],[79.8941,9.7574],[79.895,9.749],[79.8911,9.7372],[79.8884,9.7236],[79.8888,9.7099],[79.8903,9.699],[79.8904,9.6983],[79.8913,9.6961],[79.8947,9.6882],[79.8993,9.683],[79.9028,9.6789],[79.9071,9.6779],[79.9264,9.6789],[79.9297,9.676],[79.9312,9.661],[79.9336,9.6547],[79.945,9.6476],[79.9605,9.6411],[79.9734,9.6338],[79.9745,9.6315],[79.9779,9.6243],[79.971,9.6173],[79.9578,9.6172],[79.9436,9.6215],[79.9336,9.6278],[79.9265,9.6295],[79.9085,9.619],[79.8959,9.6175],[79.8958,9.6175]]]]}}]}