{"type":"FeatureCollection","features":[{"type":"Feature","properties":{"id":"LTU-1067","name":"Alytaus","nameBn":"আলয়াতাউস","type":"County","bounds":[23.336,53.8868,24.998,54.5608],"center":[24.167,54.2544]},"geometry":{"type":"Polygon","coordinates":[[[24.851,54.145],[24.8216,54.1345],[24.8175,54.1282],[24.8174,54.1206],[24.8187,54.114],[24.8182,54.1101],[24.7994,54.1032],[24.7906,54.0966],[24.7843,54.0962],[24.7825,54.0929],[24.7871,54.0776],[24.799,54.056],[24.8125,54.0389],[24.8214,54.0199],[24.8194,53.9926],[24.8193,53.9925],[24.8192,53.9924],[24.8191,53.9923],[24.8064,53.9753],[24.7887,53.9697],[24.7239,53.9634],[24.7056,53.9642],[24.6908,53.9728],[24.6779,53.9923],[24.6743,53.9937],[24.6706,53.9943],[24.6668,53.9939],[24.643,53.983],[24.5791,53.9756],[24.5287,53.9584],[24.414,53.8977],[24.3779,53.8868],[24.3419,53.887],[24.3102,53.8927],[24.2764,53.8918],[24.2571,53.894],[24.2464,53.9036],[24.2291,53.9324],[24.2011,53.9525],[24.1696,53.9589],[24.1367,53.9554],[24.0749,53.9357],[24.0454,53.9309],[23.9813,53.9304],[23.9649,53.9327],[23.9354,53.9439],[23.9198,53.9478],[23.9047,53.9461],[23.8283,53.9201],[23.8206,53.9193],[23.8121,53.9208],[23.7941,53.9271],[23.7872,53.9279],[23.7718,53.9243],[23.7544,53.9168],[23.6919,53.9115],[23.6426,53.899],[23.6271,53.8982],[23.61,53.9018],[23.5201,53.934],[23.4856,53.9393],[23.4898,53.9451],[23.4904,53.9506],[23.4875,53.9556],[23.4816,53.9601],[23.4709,53.9653],[23.4629,53.9725],[23.4586,53.9816],[23.4593,53.9923],[23.4641,53.9968],[23.4695,54.0007],[23.4816,54.0066],[23.4965,54.022],[23.4962,54.0446],[23.4816,54.0912],[23.4739,54.1126],[23.463,54.1349],[23.449,54.1549],[23.4325,54.1693],[23.4233,54.1725],[23.4018,54.176],[23.3915,54.1801],[23.3823,54.1879],[23.3641,54.2083],[23.3545,54.2171],[23.336,54.2263],[23.336,54.2265],[23.3392,54.2447],[23.3487,54.277],[23.3477,54.2833],[23.3448,54.29],[23.3448,54.2969],[23.3474,54.3038],[23.3552,54.3144],[23.3581,54.3231],[23.3695,54.3404],[23.387,54.3535],[23.4014,54.3604],[23.4258,54.3661],[23.4574,54.3693],[23.4661,54.3722],[23.4674,54.3775],[23.4651,54.3802],[23.4528,54.3852],[23.4481,54.3892],[23.4557,54.396],[23.4651,54.4011],[23.5408,54.418],[23.542,54.425],[23.5422,54.4284],[23.54,54.4389],[23.5394,54.4468],[23.542,54.4556],[23.5487,54.4631],[23.557,54.4686],[23.641,54.5078],[23.6505,54.5091],[23.6613,54.5073],[23.6776,54.4974],[23.6861,54.4889],[23.7045,54.478],[23.7563,54.4698],[23.7668,54.4637],[23.8601,54.4659],[23.8626,54.4629],[23.86,54.4597],[23.8648,54.459],[23.8786,54.4616],[23.9054,54.4709],[23.9392,54.4871],[23.9977,54.5001],[24.0018,54.5018],[24.0035,54.5041],[24.0035,54.5073],[24.0024,54.5101],[24.0001,54.5121],[23.9923,54.5168],[23.9903,54.5185],[23.9881,54.5211],[23.9864,54.5242],[23.9853,54.5278],[23.9855,54.5315],[23.9872,54.5349],[23.9901,54.5378],[23.9936,54.5403],[23.9999,54.5438],[24.007,54.5465],[24.0299,54.551],[24.0494,54.5506],[24.0693,54.5473],[24.0783,54.5443],[24.0876,54.5423],[24.0963,54.5414],[24.2063,54.5544],[24.2265,54.5588],[24.2457,54.5608],[24.2614,54.559],[24.2825,54.5507],[24.2916,54.5436],[24.3097,54.5389],[24.3239,54.5371],[24.4128,54.5439],[24.4228,54.521],[24.4205,54.5148],[24.4198,54.5055],[24.4147,54.5023],[24.4119,54.4993],[24.413,54.4968],[24.4302,54.4858],[24.4347,54.4785],[24.4304,54.4636],[24.4263,54.455],[24.426,54.447],[24.4299,54.4403],[24.4499,54.4329],[24.5384,54.4259],[24.555,54.4267],[24.5883,54.4322],[24.6009,54.4375],[24.6248,54.4436],[24.642,54.4496],[24.656,54.4501],[24.6836,54.4468],[24.7128,54.4389],[24.7193,54.4355],[24.7219,54.4298],[24.7205,54.4239],[24.7174,54.4173],[24.7191,54.4113],[24.7261,54.4061],[24.737,54.4057],[24.7453,54.4075],[24.7612,54.4136],[24.7736,54.415],[24.7931,54.4129],[24.8065,54.4101],[24.8171,54.411],[24.864,54.4312],[24.9458,54.4489],[24.996,54.4513],[24.998,54.4058],[24.9966,54.4011],[24.9938,54.3946],[24.9754,54.3892],[24.9485,54.3858],[24.9386,54.3824],[24.9341,54.3794],[24.9308,54.3749],[24.9263,54.3609],[24.9207,54.3303],[24.9137,54.3154],[24.8777,54.2881],[24.7699,54.2254],[24.7666,54.2158],[24.7714,54.2079],[24.7814,54.2027],[24.8055,54.1959],[24.8151,54.1922],[24.8214,54.187],[24.8258,54.1805],[24.8329,54.1658],[24.8507,54.1453],[24.851,54.145]]]}},{"type":"Feature","properties":{"id":"LTU-1069","name":"Kauno","nameBn":"কুনাস কাউন্টি","type":"County","bounds":[22.6457,54.459,24.8,55.5786],"center":[23.9879,55.0673]},"geometry":{"type":"Polygon","coordinates":[[[24.4156,55.3932],[24.4001,55.3635],[24.3961,55.3575],[24.392,55.3482],[24.3933,55.3382],[24.3906,55.329],[24.3886,55.3165],[24.3954,55.3049],[24.4147,55.2869],[24.4226,55.2516],[24.431,55.2428],[24.4431,55.2368],[24.4825,55.2287],[24.4955,55.2235],[24.4966,55.2199],[24.4904,55.2177],[24.4805,55.2164],[24.4734,55.212],[24.4701,55.2045],[24.4735,55.1902],[24.4805,55.181],[24.4903,55.1737],[24.4989,55.1691],[24.5154,55.1624],[24.5241,55.1578],[24.5263,55.152],[24.525,55.1442],[24.526,55.132],[24.5368,55.1204],[24.5485,55.1161],[24.5605,55.1166],[24.5804,55.1224],[24.5896,55.1213],[24.5947,55.117],[24.6079,55.0906],[24.6381,55.0821],[24.6486,55.0716],[24.6521,55.061],[24.6521,55.0562],[24.6493,55.0511],[24.6436,55.0473],[24.635,55.0436],[24.6173,55.0377],[24.6116,55.0351],[24.6063,55.0311],[24.6012,55.0284],[24.5888,55.0239],[24.5836,55.0212],[24.5801,55.0185],[24.5743,55.0123],[24.568,55.004],[24.5488,54.9878],[24.5574,54.9857],[24.5707,54.9763],[24.622,54.9614],[24.6755,54.9321],[24.694,54.9279],[24.7368,54.9261],[24.7551,54.9219],[24.7728,54.9136],[24.7947,54.8968],[24.8,54.8903],[24.771,54.8772],[24.7536,54.8563],[24.7402,54.8485],[24.6744,54.8274],[24.663,54.8218],[24.6565,54.8167],[24.6535,54.8106],[24.6467,54.7917],[24.6439,54.7871],[24.6373,54.7786],[24.6327,54.7712],[24.6291,54.7619],[24.6276,54.7525],[24.627,54.7425],[24.6246,54.7309],[24.6177,54.7262],[24.6066,54.7247],[24.5698,54.7299],[24.5587,54.7301],[24.5526,54.7267],[24.5402,54.7147],[24.4991,54.7075],[24.4822,54.7013],[24.4737,54.6938],[24.4719,54.6841],[24.4746,54.6762],[24.4783,54.668],[24.4808,54.6606],[24.4816,54.6555],[24.4793,54.6438],[24.4937,54.634],[24.4949,54.63],[24.4954,54.6243],[24.4926,54.6185],[24.49,54.6091],[24.4848,54.6032],[24.4772,54.5991],[24.468,54.5982],[24.4589,54.5994],[24.4511,54.6019],[24.4415,54.6008],[24.4366,54.5946],[24.4336,54.5853],[24.4307,54.5641],[24.4267,54.5563],[24.4236,54.5516],[24.4128,54.5439],[24.3239,54.5371],[24.3097,54.5389],[24.2916,54.5436],[24.2825,54.5507],[24.2614,54.559],[24.2457,54.5608],[24.2265,54.5588],[24.2063,54.5544],[24.0963,54.5414],[24.0876,54.5423],[24.0783,54.5443],[24.0693,54.5473],[24.0494,54.5506],[24.0299,54.551],[24.007,54.5465],[23.9999,54.5438],[23.9936,54.5403],[23.9901,54.5378],[23.9872,54.5349],[23.9855,54.5315],[23.9853,54.5278],[23.9864,54.5242],[23.9881,54.5211],[23.9903,54.5185],[23.9923,54.5168],[24.0001,54.5121],[24.0024,54.5101],[24.0035,54.5073],[24.0035,54.5041],[24.0018,54.5018],[23.9977,54.5001],[23.9392,54.4871],[23.9054,54.4709],[23.8786,54.4616],[23.8648,54.459],[23.86,54.4597],[23.8626,54.4629],[23.8601,54.4659],[23.7668,54.4637],[23.7563,54.4698],[23.7624,54.4776],[23.7678,54.4834],[23.7763,54.4902],[23.7788,54.4975],[23.7769,54.5078],[23.7596,54.5374],[23.7529,54.544],[23.7461,54.5457],[23.7277,54.5444],[23.7161,54.5459],[23.7057,54.5514],[23.6939,54.5607],[23.6714,54.5712],[23.6646,54.5757],[23.663,54.5818],[23.6685,54.5892],[23.6773,54.5947],[23.6845,54.6004],[23.6848,54.6059],[23.6767,54.6125],[23.6481,54.6187],[23.6433,54.6215],[23.6395,54.6248],[23.6345,54.6271],[23.6281,54.6292],[23.6236,54.6321],[23.6238,54.6359],[23.6307,54.6411],[23.641,54.6442],[23.666,54.6495],[23.6756,54.6528],[23.6809,54.6616],[23.6821,54.6716],[23.6633,54.718],[23.6661,54.7307],[23.6657,54.7382],[23.6606,54.7449],[23.6564,54.7477],[23.6514,54.7528],[23.6478,54.7591],[23.6495,54.7698],[23.6418,54.7757],[23.634,54.7773],[23.6244,54.7771],[23.6169,54.7777],[23.6138,54.7812],[23.6155,54.7862],[23.6261,54.7936],[23.6301,54.7999],[23.6344,54.8044],[23.6364,54.8072],[23.6478,54.8106],[23.6443,54.8211],[23.6413,54.8262],[23.6353,54.8343],[23.632,54.8457],[23.6326,54.8512],[23.6345,54.8575],[23.635,54.863],[23.6317,54.8686],[23.6242,54.8749],[23.6025,54.8878],[23.5755,54.9003],[23.5572,54.9055],[23.5426,54.9066],[23.5187,54.8991],[23.4945,54.8962],[23.4723,54.9372],[23.4632,54.944],[23.4521,54.9507],[23.4033,54.958],[23.3989,54.9636],[23.4003,54.9689],[23.4063,54.975],[23.4137,54.9795],[23.4208,54.9827],[23.4315,54.9857],[23.4425,54.987],[23.4857,54.9843],[23.4947,54.9849],[23.5024,54.9864],[23.5085,54.9894],[23.514,54.9938],[23.5253,55.0065],[23.5318,55.0119],[23.5361,55.0143],[23.5412,55.0158],[23.5474,55.0167],[23.5605,55.017],[23.5677,55.0179],[23.5753,55.0221],[23.5759,55.0312],[23.5699,55.0402],[23.5512,55.05],[23.529,55.0509],[23.506,55.049],[23.4843,55.0507],[23.4329,55.0751],[23.4123,55.0787],[23.4233,55.1097],[23.4399,55.1276],[23.4524,55.1379],[23.456,55.1455],[23.4562,55.155],[23.4542,55.1656],[23.4531,55.1841],[23.4548,55.1939],[23.4596,55.2019],[23.4775,55.215],[23.4577,55.2292],[23.4323,55.2315],[23.3755,55.2242],[23.3668,55.2251],[23.3592,55.2291],[23.3543,55.2356],[23.3378,55.2435],[23.3262,55.2455],[23.2864,55.2413],[23.2231,55.2414],[23.2048,55.2451],[23.1988,55.2494],[23.1947,55.2614],[23.1896,55.2683],[23.1725,55.2758],[23.1629,55.278],[23.1555,55.2779],[23.15,55.2751],[23.1429,55.2725],[23.1324,55.2707],[23.1139,55.2695],[23.1004,55.2724],[23.0897,55.2731],[23.081,55.2719],[23.0765,55.2702],[23.0689,55.2659],[23.0633,55.2641],[23.0344,55.2609],[23.0088,55.261],[22.998,55.2651],[22.9961,55.271],[23.0017,55.2773],[23.0152,55.2856],[23.0166,55.29],[23.0132,55.2938],[22.9449,55.3242],[22.9325,55.3324],[22.9264,55.3348],[22.9218,55.335],[22.9201,55.3334],[22.9199,55.3306],[22.9207,55.3273],[22.921,55.3238],[22.919,55.3208],[22.9153,55.3191],[22.9105,55.3176],[22.9077,55.3156],[22.9053,55.3123],[22.9024,55.3094],[22.8971,55.3072],[22.8915,55.3055],[22.8881,55.3036],[22.8839,55.3],[22.8786,55.2965],[22.8682,55.2934],[22.862,55.2948],[22.8579,55.2992],[22.8565,55.3052],[22.8538,55.3109],[22.8352,55.3229],[22.8158,55.3316],[22.8062,55.3389],[22.8011,55.3466],[22.8004,55.3537],[22.8043,55.3684],[22.8049,55.3768],[22.8034,55.3844],[22.797,55.3918],[22.7904,55.3944],[22.7823,55.3942],[22.766,55.3905],[22.7534,55.3904],[22.7478,55.3912],[22.7266,55.4022],[22.7247,55.4123],[22.7284,55.4212],[22.7258,55.4274],[22.7205,55.4305],[22.6994,55.433],[22.6793,55.4411],[22.6682,55.4494],[22.6457,55.4743],[22.6768,55.4894],[22.7345,55.5021],[22.8087,55.5084],[22.8214,55.5063],[22.8285,55.5021],[22.8307,55.4945],[22.8336,55.4886],[22.8406,55.4845],[22.8665,55.4807],[23.0208,55.5155],[23.0569,55.5295],[23.0659,55.5349],[23.0718,55.5408],[23.0751,55.5483],[23.0934,55.5654],[23.1142,55.5743],[23.1764,55.5786],[23.1981,55.5781],[23.216,55.5757],[23.223,55.5727],[23.2279,55.5672],[23.2363,55.5513],[23.2429,55.5449],[23.252,55.5421],[23.2652,55.5449],[23.274,55.5496],[23.3248,55.5673],[23.4006,55.5307],[23.4224,55.523],[23.4562,55.5177],[23.473,55.5175],[23.4832,55.5202],[23.4849,55.5243],[23.4857,55.5301],[23.4871,55.5329],[23.4911,55.535],[23.5027,55.5363],[23.5088,55.5376],[23.5147,55.5405],[23.5189,55.5432],[23.5234,55.5452],[23.5298,55.5465],[23.5383,55.5455],[23.5487,55.5427],[23.5614,55.5349],[23.5805,55.5311],[23.5859,55.529],[23.5872,55.5246],[23.5824,55.5172],[23.5763,55.5114],[23.5718,55.5042],[23.5691,55.4991],[23.581,55.4832],[23.61,55.4825],[23.6261,55.4765],[23.6341,55.4746],[23.6407,55.4764],[23.6557,55.4934],[23.6658,55.5008],[23.6851,55.512],[23.731,55.5306],[23.8671,55.5693],[23.8865,55.5688],[23.8936,55.5677],[23.9017,55.5649],[23.9069,55.5586],[23.9101,55.5515],[23.9145,55.534],[23.9191,55.5257],[23.9292,55.5194],[23.9434,55.5158],[23.962,55.5169],[23.9702,55.5207],[23.9791,55.5212],[23.9908,55.5188],[24.0108,55.5083],[24.0216,55.5002],[24.0508,55.4832],[24.0561,55.4758],[24.0565,55.4671],[24.0544,55.459],[24.0483,55.4436],[24.049,55.4383],[24.0538,55.4357],[24.0643,55.4381],[24.0823,55.4478],[24.0913,55.4503],[24.104,55.4509],[24.1206,55.4485],[24.1398,55.4515],[24.1889,55.4652],[24.1989,55.4702],[24.2097,55.472],[24.2179,55.47],[24.2302,55.4614],[24.2399,55.4532],[24.2515,55.447],[24.273,55.4433],[24.2864,55.4433],[24.2933,55.4468],[24.2941,55.4517],[24.2957,55.4565],[24.3025,55.4567],[24.3495,55.4422],[24.3635,55.4355],[24.3759,55.427],[24.3888,55.4089],[24.4156,55.3932]]]}},{"type":"Feature","properties":{"id":"LTU-935","name":"Klaipedos","nameBn":"ক্লাইপেডোস","type":"County","bounds":[20.9246,55.0286,22.2989,56.3837],"center":[21.3879,55.6254]},"geometry":{"type":"MultiPolygon","coordinates":[[[[21.0534,56.0726],[21.0914,56.0779],[21.1502,56.0782],[21.1904,56.0845],[21.2054,56.1034],[21.2126,56.131],[21.2296,56.1632],[21.2549,56.1852],[21.2904,56.2069],[21.3276,56.2244],[21.3583,56.2332],[21.4037,56.2345],[21.4193,56.2374],[21.4855,56.2658],[21.5589,56.2973],[21.596,56.3079],[21.6845,56.3101],[21.7365,56.3237],[21.9653,56.3837],[21.9619,56.3737],[21.9489,56.3675],[21.9127,56.357],[21.906,56.3523],[21.9029,56.3449],[21.9049,56.339],[21.9102,56.3332],[21.9181,56.3292],[21.927,56.3231],[21.9335,56.3146],[21.9338,56.2938],[21.9361,56.2836],[21.9394,56.2757],[21.951,56.2672],[21.9566,56.2617],[21.9853,56.2244],[21.9896,56.2147],[21.987,56.2104],[21.9785,56.2077],[21.9684,56.2071],[21.9591,56.2048],[21.9526,56.2005],[21.9462,56.1897],[21.9398,56.1829],[21.9349,56.1788],[21.9234,56.1621],[21.8992,56.1328],[21.8913,56.1288],[21.8807,56.1249],[21.8317,56.1251],[21.8179,56.1236],[21.8097,56.1194],[21.7994,56.1117],[21.7912,56.1079],[21.7809,56.1061],[21.7422,56.1051],[21.7313,56.1015],[21.6837,56.0761],[21.6772,56.0554],[21.6424,56.0171],[21.6321,56.0093],[21.6228,56.005],[21.5997,56.0019],[21.5873,55.9965],[21.5834,55.9902],[21.5837,55.9847],[21.5862,55.9786],[21.5884,55.972],[21.5842,55.9315],[21.585,55.9221],[21.5885,55.9133],[21.5933,55.9073],[21.6115,55.8915],[21.6154,55.886],[21.618,55.8786],[21.614,55.8735],[21.5995,55.8665],[21.5963,55.8614],[21.5915,55.8579],[21.5387,55.8335],[21.5249,55.8245],[21.5189,55.8186],[21.5156,55.8141],[21.5152,55.8088],[21.5167,55.8025],[21.5589,55.8002],[21.5682,55.8018],[21.5808,55.805],[21.5998,55.8145],[21.6053,55.8133],[21.607,55.8085],[21.6062,55.8018],[21.6071,55.7959],[21.6187,55.7855],[21.6263,55.7801],[21.6311,55.7759],[21.6323,55.7716],[21.6292,55.7676],[21.6236,55.7629],[21.6213,55.7581],[21.6253,55.752],[21.6334,55.7506],[21.6449,55.7515],[21.6573,55.7537],[21.7049,55.7544],[21.7283,55.7591],[21.7446,55.7598],[21.7521,55.7569],[21.7547,55.7531],[21.7521,55.7478],[21.751,55.7422],[21.7504,55.7364],[21.7484,55.7315],[21.7445,55.7258],[21.7457,55.72],[21.7653,55.7008],[21.7687,55.6955],[21.771,55.6909],[21.7755,55.6765],[21.7802,55.6706],[21.7881,55.6638],[21.7918,55.6593],[21.7946,55.6526],[21.8247,55.6281],[21.8776,55.6018],[21.8823,55.593],[21.8793,55.5878],[21.8734,55.5814],[21.8663,55.5775],[21.8142,55.5647],[21.8162,55.555],[21.8309,55.5479],[21.834,55.5426],[21.8406,55.5096],[21.8461,55.5025],[21.8607,55.4929],[21.8652,55.4853],[21.8861,55.4364],[21.8966,55.4295],[21.9068,55.43],[21.9245,55.4386],[21.9333,55.4397],[21.9431,55.4368],[21.9639,55.4273],[22.0041,55.4165],[22.0367,55.4115],[22.0426,55.4083],[22.0457,55.4056],[22.0463,55.3972],[22.0306,55.3921],[22.023,55.3646],[22.0156,55.356],[22.0022,55.3474],[21.9853,55.339],[21.9104,55.2903],[21.9005,55.277],[21.9031,55.269],[21.9147,55.2656],[21.9464,55.2629],[22.0416,55.2387],[22.0508,55.2334],[22.0568,55.2272],[22.0693,55.2048],[22.0845,55.1853],[22.0863,55.1792],[22.0857,55.1742],[22.08,55.1581],[22.0842,55.1532],[22.0933,55.1523],[22.1051,55.1566],[22.1233,55.1666],[22.1304,55.1688],[22.1561,55.1712],[22.1662,55.1706],[22.176,55.1674],[22.1945,55.1569],[22.2053,55.1539],[22.2162,55.1534],[22.2372,55.1557],[22.2462,55.1547],[22.2542,55.1525],[22.2624,55.1514],[22.2717,55.1512],[22.2801,55.152],[22.2975,55.1464],[22.2989,55.1346],[22.2951,55.1297],[22.2868,55.1221],[22.2828,55.1126],[22.2716,55.0979],[22.27,55.0914],[22.2699,55.0699],[22.2699,55.0695],[22.2513,55.0709],[22.1427,55.0546],[22.1298,55.047],[22.1185,55.0378],[22.0999,55.0299],[22.0768,55.0286],[22.05,55.0335],[22.0277,55.0444],[22.0186,55.0609],[22.0186,55.0773],[22.0154,55.0884],[22.0034,55.0935],[21.9775,55.092],[21.9514,55.0805],[21.9428,55.0783],[21.933,55.0805],[21.9086,55.0899],[21.8732,55.0949],[21.8539,55.1022],[21.8199,55.1193],[21.7506,55.128],[21.7334,55.1363],[21.7162,55.1495],[21.6458,55.181],[21.6051,55.1925],[21.5039,55.1944],[21.4677,55.2112],[21.4055,55.2724],[21.3748,55.29],[21.3498,55.2878],[21.2676,55.2487],[21.2691,55.2536],[21.2645,55.2766],[21.2644,55.284],[21.2708,55.288],[21.2781,55.2866],[21.2853,55.2871],[21.2912,55.2971],[21.2892,55.3052],[21.2825,55.3168],[21.2742,55.3273],[21.2676,55.3319],[21.2595,55.3362],[21.2564,55.3467],[21.2571,55.3694],[21.2466,55.3702],[21.1888,55.3386],[21.1834,55.3462],[21.1833,55.3484],[21.186,55.3492],[21.2243,55.3993],[21.2328,55.4069],[21.2483,55.4179],[21.2484,55.4423],[21.2366,55.4827],[21.2243,55.5124],[21.2229,55.5202],[21.2185,55.5236],[21.209,55.5296],[21.1994,55.5377],[21.1951,55.5472],[21.1961,55.5594],[21.1978,55.5673],[21.1981,55.5748],[21.1951,55.5851],[21.1576,55.6418],[21.1502,55.6593],[21.1472,55.6782],[21.1408,55.6881],[21.0994,55.7291],[21.0895,55.7353],[21.0807,55.7386],[21.0744,55.7449],[21.0698,55.7697],[21.0606,55.7893],[21.0447,55.8737],[21.0447,55.9177],[21.0469,55.9287],[21.0562,55.9425],[21.0584,55.9519],[21.0584,56.0375],[21.0534,56.0726]]],[[[20.9894,55.2731],[20.9246,55.2827],[20.9248,55.2829],[20.9995,55.357],[21.0415,55.4161],[21.0824,55.4976],[21.0931,55.5817],[21.0994,55.5987],[21.0939,55.6035],[21.0994,55.613],[21.0907,55.6331],[21.0935,55.6955],[21.0852,55.7228],[21.1174,55.6998],[21.1315,55.6556],[21.1336,55.5683],[21.1314,55.5557],[21.1221,55.539],[21.1199,55.527],[21.1199,55.4894],[21.1084,55.4731],[21.0926,55.4566],[21.0872,55.4411],[21.1062,55.4274],[21.1062,55.4212],[21.0918,55.4107],[21.0735,55.3918],[21.0576,55.3695],[21.051,55.3489],[21.0379,55.3286],[20.9889,55.2913],[20.9894,55.2731]]]]}},{"type":"Feature","properties":{"id":"LTU-1070","name":"Marijampoles","nameBn":"মারিজাম্পোল কাউন্টি","type":"County","bounds":[22.5712,54.2263,23.7788,55.1054],"center":[23.1751,54.6829]},"geometry":{"type":"Polygon","coordinates":[[[22.9297,54.3803],[22.9188,54.3811],[22.8589,54.3992],[22.8376,54.4009],[22.8127,54.3941],[22.8113,54.3926],[22.786,54.3652],[22.7672,54.3563],[22.707,54.4187],[22.6804,54.4532],[22.6746,54.4923],[22.6817,54.5699],[22.7037,54.6175],[22.7081,54.6356],[22.707,54.6465],[22.7008,54.6693],[22.7009,54.6796],[22.7051,54.6865],[22.727,54.7053],[22.7275,54.7093],[22.7248,54.7138],[22.7228,54.7186],[22.7248,54.7234],[22.7283,54.7251],[22.7367,54.7263],[22.7473,54.7316],[22.7648,54.7371],[22.773,54.7425],[22.7867,54.756],[22.8178,54.7692],[22.8328,54.7787],[22.8458,54.7961],[22.8484,54.8138],[22.8443,54.8323],[22.8293,54.8727],[22.8213,54.8855],[22.8089,54.8938],[22.7492,54.9099],[22.741,54.9176],[22.7521,54.9311],[22.7388,54.9341],[22.7292,54.9404],[22.7221,54.9472],[22.7155,54.9514],[22.7061,54.9531],[22.6499,54.9529],[22.6335,54.9579],[22.6217,54.97],[22.6084,54.9924],[22.5916,55.0376],[22.5807,55.0576],[22.5712,55.064],[22.5713,55.064],[22.5993,55.0715],[22.6071,55.0664],[22.6254,55.0587],[22.6312,55.0573],[22.6442,55.0571],[22.7287,55.0659],[22.759,55.0734],[22.7702,55.0788],[22.8201,55.0884],[22.871,55.0923],[22.9254,55.0835],[22.9396,55.0889],[22.952,55.0954],[22.9709,55.1006],[23.0017,55.1054],[23.3198,55.0712],[23.4123,55.0787],[23.4329,55.0751],[23.4843,55.0507],[23.506,55.049],[23.529,55.0509],[23.5512,55.05],[23.5699,55.0402],[23.5759,55.0312],[23.5753,55.0221],[23.5677,55.0179],[23.5605,55.017],[23.5474,55.0167],[23.5412,55.0158],[23.5361,55.0143],[23.5318,55.0119],[23.5253,55.0065],[23.514,54.9938],[23.5085,54.9894],[23.5024,54.9864],[23.4947,54.9849],[23.4857,54.9843],[23.4425,54.987],[23.4315,54.9857],[23.4208,54.9827],[23.4137,54.9795],[23.4063,54.975],[23.4003,54.9689],[23.3989,54.9636],[23.4033,54.958],[23.4521,54.9507],[23.4632,54.944],[23.4723,54.9372],[23.4945,54.8962],[23.5187,54.8991],[23.5426,54.9066],[23.5572,54.9055],[23.5755,54.9003],[23.6025,54.8878],[23.6242,54.8749],[23.6317,54.8686],[23.635,54.863],[23.6345,54.8575],[23.6326,54.8512],[23.632,54.8457],[23.6353,54.8343],[23.6413,54.8262],[23.6443,54.8211],[23.6478,54.8106],[23.6364,54.8072],[23.6344,54.8044],[23.6301,54.7999],[23.6261,54.7936],[23.6155,54.7862],[23.6138,54.7812],[23.6169,54.7777],[23.6244,54.7771],[23.634,54.7773],[23.6418,54.7757],[23.6495,54.7698],[23.6478,54.7591],[23.6514,54.7528],[23.6564,54.7477],[23.6606,54.7449],[23.6657,54.7382],[23.6661,54.7307],[23.6633,54.718],[23.6821,54.6716],[23.6809,54.6616],[23.6756,54.6528],[23.666,54.6495],[23.641,54.6442],[23.6307,54.6411],[23.6238,54.6359],[23.6236,54.6321],[23.6281,54.6292],[23.6345,54.6271],[23.6395,54.6248],[23.6433,54.6215],[23.6481,54.6187],[23.6767,54.6125],[23.6848,54.6059],[23.6845,54.6004],[23.6773,54.5947],[23.6685,54.5892],[23.663,54.5818],[23.6646,54.5757],[23.6714,54.5712],[23.6939,54.5607],[23.7057,54.5514],[23.7161,54.5459],[23.7277,54.5444],[23.7461,54.5457],[23.7529,54.544],[23.7596,54.5374],[23.7769,54.5078],[23.7788,54.4975],[23.7763,54.4902],[23.7678,54.4834],[23.7624,54.4776],[23.7563,54.4698],[23.7045,54.478],[23.6861,54.4889],[23.6776,54.4974],[23.6613,54.5073],[23.6505,54.5091],[23.641,54.5078],[23.557,54.4686],[23.5487,54.4631],[23.542,54.4556],[23.5394,54.4468],[23.54,54.4389],[23.5422,54.4284],[23.542,54.425],[23.5408,54.418],[23.4651,54.4011],[23.4557,54.396],[23.4481,54.3892],[23.4528,54.3852],[23.4651,54.3802],[23.4674,54.3775],[23.4661,54.3722],[23.4574,54.3693],[23.4258,54.3661],[23.4014,54.3604],[23.387,54.3535],[23.3695,54.3404],[23.3581,54.3231],[23.3552,54.3144],[23.3474,54.3038],[23.3448,54.2969],[23.3448,54.29],[23.3477,54.2833],[23.3487,54.277],[23.3392,54.2447],[23.336,54.2265],[23.336,54.2263],[23.316,54.2363],[23.2354,54.2542],[23.1973,54.2679],[23.1353,54.2983],[23.1171,54.3035],[23.0969,54.3008],[23.073,54.2949],[23.0501,54.2948],[23.0321,54.3096],[23.0322,54.3201],[23.038,54.3315],[23.0416,54.341],[23.0353,54.3465],[23.001,54.3489],[22.9897,54.3534],[22.9834,54.3598],[22.979,54.3676],[22.9733,54.3754],[22.9627,54.3817],[22.9524,54.3831],[22.9297,54.3803]]]}},{"type":"Feature","properties":{"id":"LTU-1071","name":"Panevezio","nameBn":"প্যানেভেজিস কাউন্টি","type":"County","bounds":[23.8671,55.3932,25.9613,56.4426],"center":[24.9143,56.0725]},"geometry":{"type":"Polygon","coordinates":[[[24.871,56.4426],[24.8923,56.4387],[24.9101,56.422],[24.9363,56.3799],[24.9621,56.3193],[24.9732,56.3008],[24.9832,56.2905],[25.0165,56.2699],[25.0262,56.2602],[25.044,56.228],[25.0731,56.1978],[25.1092,56.1831],[25.3491,56.1599],[25.4548,56.1496],[25.5228,56.1566],[25.5729,56.143],[25.59,56.1411],[25.6497,56.1438],[25.6619,56.1408],[25.6692,56.132],[25.6878,56.0983],[25.6966,56.0879],[25.7088,56.081],[25.7663,56.0586],[25.7955,56.0401],[25.8713,55.9921],[25.9613,55.9585],[25.9413,55.9385],[25.9411,55.9205],[25.9397,55.9105],[25.9336,55.9039],[25.9211,55.8942],[25.911,55.8883],[25.8902,55.8794],[25.8772,55.8703],[25.8706,55.8613],[25.8658,55.8501],[25.8387,55.8271],[25.8296,55.8132],[25.8137,55.7819],[25.8083,55.776],[25.8018,55.7739],[25.7832,55.7755],[25.7636,55.7803],[25.756,55.781],[25.747,55.7777],[25.7324,55.7611],[25.7248,55.7546],[25.6874,55.7301],[25.6854,55.7359],[25.684,55.7386],[25.6817,55.7423],[25.6781,55.7447],[25.666,55.7463],[25.558,55.7443],[25.5441,55.7423],[25.5291,55.736],[25.4879,55.7242],[25.4692,55.7404],[25.4654,55.745],[25.4567,55.7493],[25.4467,55.7489],[25.4395,55.746],[25.4281,55.7398],[25.4224,55.7389],[25.4162,55.7411],[25.4095,55.7461],[25.4022,55.7564],[25.3983,55.7637],[25.3786,55.7746],[25.3027,55.7502],[25.2957,55.7454],[25.2888,55.7383],[25.2945,55.7233],[25.293,55.7162],[25.2874,55.7139],[25.2781,55.7145],[25.2564,55.7187],[25.2452,55.7184],[25.2373,55.7175],[25.1221,55.6918],[25.0934,55.6886],[25.0785,55.6884],[25.0694,55.6902],[25.0678,55.6934],[25.0706,55.7022],[25.0681,55.7064],[25.0534,55.7137],[25.047,55.7178],[25.0394,55.7253],[25.0366,55.7275],[25.0219,55.7336],[25.0178,55.7345],[24.9548,55.7373],[24.9247,55.733],[24.9061,55.7272],[24.892,55.7261],[24.8603,55.7277],[24.8516,55.7265],[24.8464,55.724],[24.8433,55.7204],[24.8395,55.717],[24.8315,55.7137],[24.8222,55.7144],[24.7935,55.7213],[24.7811,55.7207],[24.766,55.717],[24.7548,55.7156],[24.6893,55.7212],[24.6904,55.7085],[24.6885,55.704],[24.6861,55.6963],[24.6915,55.6916],[24.7125,55.6825],[24.7171,55.6764],[24.7176,55.6719],[24.7128,55.6648],[24.7043,55.6596],[24.693,55.658],[24.6819,55.661],[24.6752,55.6653],[24.6681,55.6676],[24.6387,55.663],[24.6313,55.659],[24.6347,55.6551],[24.6442,55.6508],[24.6572,55.6463],[24.6687,55.6402],[24.6788,55.6315],[24.6853,55.6191],[24.6859,55.6123],[24.6825,55.6074],[24.6644,55.5992],[24.654,55.5933],[24.6459,55.5847],[24.6431,55.5755],[24.6437,55.5586],[24.6448,55.5546],[24.6467,55.5512],[24.6499,55.5475],[24.6501,55.5412],[24.6305,55.5226],[24.611,55.5194],[24.606,55.5174],[24.6008,55.5136],[24.6014,55.5085],[24.6068,55.5034],[24.6249,55.4957],[24.6322,55.4913],[24.6333,55.4864],[24.6274,55.482],[24.6113,55.4803],[24.599,55.4819],[24.5759,55.4889],[24.5647,55.4899],[24.5543,55.4872],[24.5429,55.4761],[24.5368,55.4663],[24.5303,55.4489],[24.5236,55.4393],[24.512,55.4285],[24.476,55.4064],[24.467,55.4038],[24.4591,55.4065],[24.4511,55.4066],[24.4439,55.4058],[24.4156,55.3932],[24.3888,55.4089],[24.3759,55.427],[24.3635,55.4355],[24.3495,55.4422],[24.3025,55.4567],[24.2957,55.4565],[24.2941,55.4517],[24.2933,55.4468],[24.2864,55.4433],[24.273,55.4433],[24.2515,55.447],[24.2399,55.4532],[24.2302,55.4614],[24.2179,55.47],[24.2097,55.472],[24.1989,55.4702],[24.1889,55.4652],[24.1398,55.4515],[24.1206,55.4485],[24.104,55.4509],[24.0913,55.4503],[24.0823,55.4478],[24.0643,55.4381],[24.0538,55.4357],[24.049,55.4383],[24.0483,55.4436],[24.0544,55.459],[24.0565,55.4671],[24.0561,55.4758],[24.0508,55.4832],[24.0216,55.5002],[24.0108,55.5083],[23.9908,55.5188],[23.9791,55.5212],[23.9702,55.5207],[23.962,55.5169],[23.9434,55.5158],[23.9292,55.5194],[23.9191,55.5257],[23.9145,55.534],[23.9101,55.5515],[23.9069,55.5586],[23.9017,55.5649],[23.8936,55.5677],[23.8865,55.5688],[23.8671,55.5693],[23.8762,55.5815],[23.8803,55.5851],[23.8919,55.594],[23.9069,55.6106],[23.9155,55.6236],[23.9256,55.6268],[23.9476,55.6261],[23.9572,55.6285],[23.9711,55.6361],[23.9794,55.6369],[23.9892,55.6364],[23.9987,55.6368],[24.005,55.642],[24.0049,55.6505],[23.9917,55.6806],[23.9932,55.6917],[24.0016,55.6971],[24.0126,55.7011],[24.0221,55.7072],[24.0274,55.7145],[24.0256,55.7294],[24.0263,55.7377],[24.0213,55.7626],[24.0163,55.7686],[24.0002,55.7795],[23.9976,55.7866],[23.9977,55.7916],[23.9954,55.7958],[23.99,55.7995],[23.9773,55.8034],[23.9665,55.805],[23.9501,55.8144],[23.9374,55.8435],[23.9759,55.846],[23.9793,55.848],[23.9832,55.8523],[23.9821,55.8586],[23.9821,55.8648],[23.9892,55.8725],[24.0019,55.8773],[24.0296,55.8846],[24.0511,55.8938],[24.0603,55.9041],[24.0576,55.9191],[24.0624,55.9238],[24.0702,55.9338],[24.0716,55.9441],[24.0682,55.9597],[24.0623,55.9658],[24.0534,55.9694],[24.044,55.9707],[24.0325,55.9737],[24.0219,55.978],[24.0115,55.9852],[24.0067,55.9923],[24.0046,55.9997],[24.0032,56.0262],[24.0036,56.0321],[24.0047,56.0374],[24.007,56.0417],[24.0098,56.0451],[24.0145,56.0477],[24.0193,56.0478],[24.0247,56.0463],[24.031,56.0437],[24.0355,56.0429],[24.0412,56.0428],[24.048,56.0485],[24.0527,56.0565],[24.0593,56.0764],[24.0682,56.0872],[24.0912,56.1063],[24.094,56.1159],[24.0947,56.126],[24.0972,56.133],[24.1034,56.142],[24.1101,56.1474],[24.1203,56.1513],[24.1511,56.1561],[24.1577,56.1617],[24.1597,56.1697],[24.1608,56.1849],[24.159,56.1922],[24.154,56.1963],[24.1492,56.1961],[24.1419,56.1934],[24.1367,56.1937],[24.1295,56.1963],[24.1245,56.2071],[24.1279,56.2167],[24.1343,56.2242],[24.1425,56.231],[24.1446,56.2371],[24.1424,56.2419],[24.1404,56.2576],[24.1668,56.2603],[24.2876,56.2955],[24.3185,56.2986],[24.3508,56.2916],[24.4144,56.2655],[24.4472,56.2605],[24.4813,56.2688],[24.539,56.2876],[24.5579,56.2986],[24.5728,56.3098],[24.6391,56.36],[24.6786,56.3773],[24.715,56.3863],[24.8055,56.4085],[24.8156,56.4088],[24.8377,56.4039],[24.8459,56.4049],[24.8522,56.4137],[24.8534,56.4247],[24.8571,56.4354],[24.871,56.4426]]]}},{"type":"Feature","properties":{"id":"LTU-1073","name":"Taurages","nameBn":"তাউরাগি কাউন্টি","type":"County","bounds":[21.8142,55.0571,23.4775,55.6869],"center":[22.6458,55.2657]},"geometry":{"type":"Polygon","coordinates":[[[22.5712,55.064],[22.5655,55.0678],[22.5411,55.0758],[22.4363,55.0578],[22.2699,55.0695],[22.2699,55.0699],[22.27,55.0914],[22.2716,55.0979],[22.2828,55.1126],[22.2868,55.1221],[22.2951,55.1297],[22.2989,55.1346],[22.2975,55.1464],[22.2801,55.152],[22.2717,55.1512],[22.2624,55.1514],[22.2542,55.1525],[22.2462,55.1547],[22.2372,55.1557],[22.2162,55.1534],[22.2053,55.1539],[22.1945,55.1569],[22.176,55.1674],[22.1662,55.1706],[22.1561,55.1712],[22.1304,55.1688],[22.1233,55.1666],[22.1051,55.1566],[22.0933,55.1523],[22.0842,55.1532],[22.08,55.1581],[22.0857,55.1742],[22.0863,55.1792],[22.0845,55.1853],[22.0693,55.2048],[22.0568,55.2272],[22.0508,55.2334],[22.0416,55.2387],[21.9464,55.2629],[21.9147,55.2656],[21.9031,55.269],[21.9005,55.277],[21.9104,55.2903],[21.9853,55.339],[22.0022,55.3474],[22.0156,55.356],[22.023,55.3646],[22.0306,55.3921],[22.0463,55.3972],[22.0457,55.4056],[22.0426,55.4083],[22.0367,55.4115],[22.0041,55.4165],[21.9639,55.4273],[21.9431,55.4368],[21.9333,55.4397],[21.9245,55.4386],[21.9068,55.43],[21.8966,55.4295],[21.8861,55.4364],[21.8652,55.4853],[21.8607,55.4929],[21.8461,55.5025],[21.8406,55.5096],[21.834,55.5426],[21.8309,55.5479],[21.8162,55.555],[21.8142,55.5647],[21.8663,55.5775],[21.8734,55.5814],[21.8793,55.5878],[21.8823,55.593],[21.8776,55.6018],[21.9912,55.611],[22.0044,55.6083],[22.0176,55.6076],[22.0283,55.6099],[22.0529,55.6237],[22.0582,55.6283],[22.0591,55.6327],[22.0581,55.6388],[22.0585,55.6446],[22.0618,55.6518],[22.0656,55.6574],[22.0696,55.6617],[22.0739,55.6635],[22.0818,55.6645],[22.0945,55.6624],[22.1074,55.6622],[22.1201,55.6638],[22.1374,55.671],[22.172,55.6798],[22.2545,55.6854],[22.2793,55.6869],[22.3093,55.6784],[22.3213,55.6768],[22.346,55.6777],[22.357,55.6757],[22.3689,55.6721],[22.3808,55.6709],[22.4571,55.6779],[22.4569,55.6693],[22.4586,55.6641],[22.4634,55.6572],[22.4749,55.6504],[22.496,55.6447],[22.5003,55.6407],[22.4974,55.6343],[22.4932,55.6291],[22.4922,55.6233],[22.4941,55.617],[22.5025,55.6057],[22.5091,55.5984],[22.523,55.5909],[22.5692,55.5745],[22.5801,55.5676],[22.6179,55.5353],[22.6281,55.5314],[22.6349,55.5277],[22.6367,55.5232],[22.6156,55.5048],[22.6214,55.4812],[22.6457,55.4743],[22.6682,55.4494],[22.6793,55.4411],[22.6994,55.433],[22.7205,55.4305],[22.7258,55.4274],[22.7284,55.4212],[22.7247,55.4123],[22.7266,55.4022],[22.7478,55.3912],[22.7534,55.3904],[22.766,55.3905],[22.7823,55.3942],[22.7904,55.3944],[22.797,55.3918],[22.8034,55.3844],[22.8049,55.3768],[22.8043,55.3684],[22.8004,55.3537],[22.8011,55.3466],[22.8062,55.3389],[22.8158,55.3316],[22.8352,55.3229],[22.8538,55.3109],[22.8565,55.3052],[22.8579,55.2992],[22.862,55.2948],[22.8682,55.2934],[22.8786,55.2965],[22.8839,55.3],[22.8881,55.3036],[22.8915,55.3055],[22.8971,55.3072],[22.9024,55.3094],[22.9053,55.3123],[22.9077,55.3156],[22.9105,55.3176],[22.9153,55.3191],[22.919,55.3208],[22.921,55.3238],[22.9207,55.3273],[22.9199,55.3306],[22.9201,55.3334],[22.9218,55.335],[22.9264,55.3348],[22.9325,55.3324],[22.9449,55.3242],[23.0132,55.2938],[23.0166,55.29],[23.0152,55.2856],[23.0017,55.2773],[22.9961,55.271],[22.998,55.2651],[23.0088,55.261],[23.0344,55.2609],[23.0633,55.2641],[23.0689,55.2659],[23.0765,55.2702],[23.081,55.2719],[23.0897,55.2731],[23.1004,55.2724],[23.1139,55.2695],[23.1324,55.2707],[23.1429,55.2725],[23.15,55.2751],[23.1555,55.2779],[23.1629,55.278],[23.1725,55.2758],[23.1896,55.2683],[23.1947,55.2614],[23.1988,55.2494],[23.2048,55.2451],[23.2231,55.2414],[23.2864,55.2413],[23.3262,55.2455],[23.3378,55.2435],[23.3543,55.2356],[23.3592,55.2291],[23.3668,55.2251],[23.3755,55.2242],[23.4323,55.2315],[23.4577,55.2292],[23.4775,55.215],[23.4596,55.2019],[23.4548,55.1939],[23.4531,55.1841],[23.4542,55.1656],[23.4562,55.155],[23.456,55.1455],[23.4524,55.1379],[23.4399,55.1276],[23.4233,55.1097],[23.4123,55.0787],[23.3198,55.0712],[23.0017,55.1054],[22.9709,55.1006],[22.952,55.0954],[22.9396,55.0889],[22.9254,55.0835],[22.871,55.0923],[22.8201,55.0884],[22.7702,55.0788],[22.759,55.0734],[22.7287,55.0659],[22.6442,55.0571],[22.6312,55.0573],[22.6254,55.0587],[22.6071,55.0664],[22.5993,55.0715],[22.5713,55.064],[22.5712,55.064]]]}},{"type":"Feature","properties":{"id":"LTU-936","name":"Telšiai","nameBn":"তেলসিয়াই কাউন্টি","type":"County","bounds":[21.5152,55.6018,22.7021,56.4174],"center":[22.1086,56.0398]},"geometry":{"type":"Polygon","coordinates":[[[22.0941,56.4174],[22.1391,56.4157],[22.1582,56.4103],[22.1953,56.3949],[22.2149,56.3904],[22.5117,56.396],[22.5758,56.3877],[22.5782,56.387],[22.5655,56.3802],[22.558,56.3775],[22.5531,56.3727],[22.5557,56.3664],[22.5622,56.3604],[22.5679,56.3527],[22.5675,56.3441],[22.5624,56.3353],[22.5543,56.3271],[22.5401,56.3211],[22.5263,56.3192],[22.5119,56.3196],[22.4854,56.3241],[22.4732,56.3241],[22.4612,56.3201],[22.454,56.3099],[22.4458,56.3036],[22.4421,56.2978],[22.4444,56.2943],[22.455,56.2858],[22.4552,56.2773],[22.4493,56.2665],[22.4333,56.2537],[22.4165,56.2454],[22.3886,56.2224],[22.3746,56.1641],[22.4114,56.1575],[22.4169,56.1541],[22.4201,56.1498],[22.4105,56.1399],[22.4096,56.1328],[22.4145,56.131],[22.4231,56.1314],[22.4303,56.1309],[22.4347,56.1265],[22.4364,56.1195],[22.441,56.1114],[22.4533,56.1064],[22.4673,56.1036],[22.4809,56.1035],[22.5244,56.1154],[22.5624,56.1123],[22.5803,56.1141],[22.5936,56.1175],[22.6013,56.1226],[22.6117,56.1262],[22.6419,56.1314],[22.6639,56.1329],[22.6771,56.1309],[22.6842,56.1262],[22.6845,56.1211],[22.6808,56.1136],[22.6786,56.1056],[22.6814,56.0972],[22.6859,56.0908],[22.7021,56.0796],[22.6856,56.075],[22.6733,56.0736],[22.6713,56.0722],[22.667,56.0671],[22.6631,56.065],[22.6586,56.0637],[22.6116,56.0579],[22.6018,56.0523],[22.6004,56.0441],[22.6088,56.0279],[22.6096,56.015],[22.6094,56.0071],[22.6058,56.0022],[22.6004,55.9981],[22.5858,55.9919],[22.5809,55.9883],[22.5807,55.9834],[22.5846,55.976],[22.5985,55.9653],[22.6078,55.9595],[22.6208,55.9583],[22.6313,55.9602],[22.6392,55.9642],[22.6436,55.9694],[22.6479,55.9736],[22.655,55.9747],[22.6631,55.9711],[22.6744,55.9606],[22.683,55.9557],[22.6931,55.9521],[22.6983,55.9493],[22.6973,55.9461],[22.6842,55.9421],[22.6721,55.9371],[22.6757,55.926],[22.6462,55.906],[22.6316,55.8816],[22.6218,55.8741],[22.6069,55.8699],[22.593,55.869],[22.5772,55.8664],[22.5697,55.8606],[22.5679,55.8525],[22.5708,55.8341],[22.5664,55.8244],[22.5562,55.8187],[22.5418,55.8128],[22.5298,55.8098],[22.5162,55.8077],[22.505,55.8048],[22.4919,55.798],[22.491,55.7916],[22.5031,55.775],[22.5064,55.7658],[22.5036,55.7526],[22.5006,55.7431],[22.4991,55.7343],[22.5005,55.7262],[22.5062,55.7098],[22.5051,55.7022],[22.4969,55.6965],[22.4882,55.6939],[22.4571,55.6779],[22.3808,55.6709],[22.3689,55.6721],[22.357,55.6757],[22.346,55.6777],[22.3213,55.6768],[22.3093,55.6784],[22.2793,55.6869],[22.2545,55.6854],[22.172,55.6798],[22.1374,55.671],[22.1201,55.6638],[22.1074,55.6622],[22.0945,55.6624],[22.0818,55.6645],[22.0739,55.6635],[22.0696,55.6617],[22.0656,55.6574],[22.0618,55.6518],[22.0585,55.6446],[22.0581,55.6388],[22.0591,55.6327],[22.0582,55.6283],[22.0529,55.6237],[22.0283,55.6099],[22.0176,55.6076],[22.0044,55.6083],[21.9912,55.611],[21.8776,55.6018],[21.8247,55.6281],[21.7946,55.6526],[21.7918,55.6593],[21.7881,55.6638],[21.7802,55.6706],[21.7755,55.6765],[21.771,55.6909],[21.7687,55.6955],[21.7653,55.7008],[21.7457,55.72],[21.7445,55.7258],[21.7484,55.7315],[21.7504,55.7364],[21.751,55.7422],[21.7521,55.7478],[21.7547,55.7531],[21.7521,55.7569],[21.7446,55.7598],[21.7283,55.7591],[21.7049,55.7544],[21.6573,55.7537],[21.6449,55.7515],[21.6334,55.7506],[21.6253,55.752],[21.6213,55.7581],[21.6236,55.7629],[21.6292,55.7676],[21.6323,55.7716],[21.6311,55.7759],[21.6263,55.7801],[21.6187,55.7855],[21.6071,55.7959],[21.6062,55.8018],[21.607,55.8085],[21.6053,55.8133],[21.5998,55.8145],[21.5808,55.805],[21.5682,55.8018],[21.5589,55.8002],[21.5167,55.8025],[21.5152,55.8088],[21.5156,55.8141],[21.5189,55.8186],[21.5249,55.8245],[21.5387,55.8335],[21.5915,55.8579],[21.5963,55.8614],[21.5995,55.8665],[21.614,55.8735],[21.618,55.8786],[21.6154,55.886],[21.6115,55.8915],[21.5933,55.9073],[21.5885,55.9133],[21.585,55.9221],[21.5842,55.9315],[21.5884,55.972],[21.5862,55.9786],[21.5837,55.9847],[21.5834,55.9902],[21.5873,55.9965],[21.5997,56.0019],[21.6228,56.005],[21.6321,56.0093],[21.6424,56.0171],[21.6772,56.0554],[21.6837,56.0761],[21.7313,56.1015],[21.7422,56.1051],[21.7809,56.1061],[21.7912,56.1079],[21.7994,56.1117],[21.8097,56.1194],[21.8179,56.1236],[21.8317,56.1251],[21.8807,56.1249],[21.8913,56.1288],[21.8992,56.1328],[21.9234,56.1621],[21.9349,56.1788],[21.9398,56.1829],[21.9462,56.1897],[21.9526,56.2005],[21.9591,56.2048],[21.9684,56.2071],[21.9785,56.2077],[21.987,56.2104],[21.9896,56.2147],[21.9853,56.2244],[21.9566,56.2617],[21.951,56.2672],[21.9394,56.2757],[21.9361,56.2836],[21.9338,56.2938],[21.9335,56.3146],[21.927,56.3231],[21.9181,56.3292],[21.9102,56.3332],[21.9049,56.339],[21.9029,56.3449],[21.906,56.3523],[21.9127,56.357],[21.9489,56.3675],[21.9619,56.3737],[21.9653,56.3837],[21.9832,56.3884],[22.0941,56.4174]]]}},{"type":"Feature","properties":{"id":"LTU-1074","name":"Utenos","nameBn":"উটেনা কাউন্টি","type":"County","bounds":[24.6305,55.0267,26.8007,55.9585],"center":[25.622,55.5267]},"geometry":{"type":"Polygon","coordinates":[[[26.5945,55.667],[26.6038,55.6433],[26.6077,55.6165],[26.6052,55.5901],[26.5956,55.568],[26.5761,55.5506],[26.5516,55.5345],[26.5321,55.5163],[26.5277,55.4922],[26.5465,55.4712],[26.5433,55.4596],[26.5078,55.4391],[26.4992,55.4281],[26.486,55.3908],[26.4791,55.3814],[26.4552,55.3561],[26.4455,55.3375],[26.45,55.3271],[26.4658,55.3209],[26.5254,55.3081],[26.5423,55.3076],[26.6027,55.3169],[26.7686,55.3002],[26.7916,55.2902],[26.8007,55.2733],[26.7897,55.2572],[26.7656,55.2467],[26.7399,55.2428],[26.7396,55.2431],[26.7368,55.247],[26.7159,55.269],[26.707,55.273],[26.6932,55.277],[26.679,55.2772],[26.6332,55.2691],[26.624,55.2657],[26.6172,55.2615],[26.5676,55.2436],[26.4558,55.2251],[26.3207,55.2289],[26.2706,55.2356],[26.2352,55.2485],[26.216,55.2533],[26.2041,55.2531],[26.1947,55.2505],[26.1849,55.2464],[26.1671,55.2446],[26.1545,55.2487],[26.1476,55.2584],[26.1489,55.2681],[26.1557,55.2777],[26.1626,55.2849],[26.1633,55.2919],[26.1565,55.299],[26.1439,55.3059],[26.1171,55.3132],[26.1035,55.3151],[26.0407,55.314],[26.0372,55.3135],[26.0311,55.3121],[26.0252,55.3098],[26.0184,55.3059],[26.0142,55.3023],[26.0077,55.2939],[26.0044,55.2904],[25.9987,55.2862],[25.9889,55.2815],[25.9759,55.2775],[25.9583,55.2751],[25.9473,55.2768],[25.9424,55.2803],[25.9404,55.2844],[25.938,55.2885],[25.9311,55.2934],[25.9242,55.2941],[25.8949,55.2898],[25.8834,55.2916],[25.8748,55.2962],[25.8644,55.3076],[25.8527,55.3163],[25.8148,55.3042],[25.7777,55.3111],[25.7343,55.327],[25.7143,55.2869],[25.7083,55.2786],[25.6781,55.2584],[25.6498,55.2479],[25.6444,55.2424],[25.6412,55.2355],[25.6379,55.2204],[25.6416,55.2118],[25.6456,55.205],[25.6607,55.1939],[25.691,55.178],[25.6976,55.1723],[25.7031,55.1665],[25.7194,55.1549],[25.7298,55.1498],[25.7482,55.1441],[25.7561,55.1401],[25.7653,55.1369],[25.7756,55.1347],[25.7811,55.1305],[25.7777,55.1242],[25.7541,55.1129],[25.7504,55.1071],[25.7521,55.1027],[25.7585,55.0995],[25.7618,55.0968],[25.7588,55.0927],[25.7507,55.0876],[25.7309,55.0774],[25.729,55.0695],[25.7312,55.0623],[25.736,55.057],[25.7309,55.0543],[25.7174,55.0538],[25.6634,55.0597],[25.6544,55.0627],[25.652,55.0668],[25.6483,55.0705],[25.6171,55.0709],[25.5135,55.0567],[25.3772,55.0323],[25.3643,55.0283],[25.3491,55.0267],[25.333,55.028],[25.2699,55.0408],[25.2224,55.0417],[25.2162,55.0644],[25.2135,55.0692],[25.2078,55.0766],[25.1907,55.0843],[25.1761,55.0888],[25.1354,55.0946],[25.1285,55.0981],[25.126,55.1035],[25.1316,55.1148],[25.1375,55.1304],[25.1354,55.1505],[25.1695,55.1582],[25.1786,55.1614],[25.1932,55.1686],[25.2104,55.1749],[25.2214,55.183],[25.2307,55.1859],[25.2428,55.1879],[25.2506,55.1904],[25.2523,55.195],[25.2388,55.201],[25.1904,55.2174],[25.1786,55.2176],[25.1688,55.2164],[25.1588,55.2167],[25.1521,55.2208],[25.1484,55.2329],[25.1529,55.239],[25.1684,55.2502],[25.1732,55.2561],[25.1769,55.2626],[25.1761,55.2682],[25.1701,55.2727],[25.1541,55.2746],[25.1406,55.2733],[25.1286,55.2705],[25.1193,55.2696],[25.1092,55.2724],[25.0968,55.2831],[25.0694,55.2954],[25.0602,55.3007],[25.0557,55.3053],[25.0582,55.3252],[24.982,55.3216],[24.9727,55.3228],[24.9631,55.3257],[24.9629,55.3306],[24.9638,55.3376],[24.9641,55.3454],[24.9631,55.3538],[24.9587,55.3604],[24.9538,55.3626],[24.9468,55.3621],[24.9067,55.3508],[24.8873,55.3478],[24.8784,55.3491],[24.8749,55.3525],[24.8763,55.3589],[24.8767,55.3653],[24.8718,55.3712],[24.8616,55.3731],[24.813,55.3739],[24.7969,55.3772],[24.7848,55.3826],[24.7787,55.3889],[24.7736,55.3953],[24.7702,55.4017],[24.7693,55.4077],[24.7704,55.4142],[24.7741,55.4199],[24.7798,55.4241],[24.7944,55.4292],[24.7995,55.4325],[24.7998,55.4384],[24.7931,55.447],[24.7688,55.463],[24.6305,55.5226],[24.6501,55.5412],[24.6499,55.5475],[24.6467,55.5512],[24.6448,55.5546],[24.6437,55.5586],[24.6431,55.5755],[24.6459,55.5847],[24.654,55.5933],[24.6644,55.5992],[24.6825,55.6074],[24.6859,55.6123],[24.6853,55.6191],[24.6788,55.6315],[24.6687,55.6402],[24.6572,55.6463],[24.6442,55.6508],[24.6347,55.6551],[24.6313,55.659],[24.6387,55.663],[24.6681,55.6676],[24.6752,55.6653],[24.6819,55.661],[24.693,55.658],[24.7043,55.6596],[24.7128,55.6648],[24.7176,55.6719],[24.7171,55.6764],[24.7125,55.6825],[24.6915,55.6916],[24.6861,55.6963],[24.6885,55.704],[24.6904,55.7085],[24.6893,55.7212],[24.7548,55.7156],[24.766,55.717],[24.7811,55.7207],[24.7935,55.7213],[24.8222,55.7144],[24.8315,55.7137],[24.8395,55.717],[24.8433,55.7204],[24.8464,55.724],[24.8516,55.7265],[24.8603,55.7277],[24.892,55.7261],[24.9061,55.7272],[24.9247,55.733],[24.9548,55.7373],[25.0178,55.7345],[25.0219,55.7336],[25.0366,55.7275],[25.0394,55.7253],[25.047,55.7178],[25.0534,55.7137],[25.0681,55.7064],[25.0706,55.7022],[25.0678,55.6934],[25.0694,55.6902],[25.0785,55.6884],[25.0934,55.6886],[25.1221,55.6918],[25.2373,55.7175],[25.2452,55.7184],[25.2564,55.7187],[25.2781,55.7145],[25.2874,55.7139],[25.293,55.7162],[25.2945,55.7233],[25.2888,55.7383],[25.2957,55.7454],[25.3027,55.7502],[25.3786,55.7746],[25.3983,55.7637],[25.4022,55.7564],[25.4095,55.7461],[25.4162,55.7411],[25.4224,55.7389],[25.4281,55.7398],[25.4395,55.746],[25.4467,55.7489],[25.4567,55.7493],[25.4654,55.745],[25.4692,55.7404],[25.4879,55.7242],[25.5291,55.736],[25.5441,55.7423],[25.558,55.7443],[25.666,55.7463],[25.6781,55.7447],[25.6817,55.7423],[25.684,55.7386],[25.6854,55.7359],[25.6874,55.7301],[25.7248,55.7546],[25.7324,55.7611],[25.747,55.7777],[25.756,55.781],[25.7636,55.7803],[25.7832,55.7755],[25.8018,55.7739],[25.8083,55.776],[25.8137,55.7819],[25.8296,55.8132],[25.8387,55.8271],[25.8658,55.8501],[25.8706,55.8613],[25.8772,55.8703],[25.8902,55.8794],[25.911,55.8883],[25.9211,55.8942],[25.9336,55.9039],[25.9397,55.9105],[25.9411,55.9205],[25.9413,55.9385],[25.9613,55.9585],[26.0176,55.9374],[26.0794,55.8981],[26.1786,55.8496],[26.2038,55.8274],[26.2269,55.7969],[26.2797,55.7432],[26.3423,55.7163],[26.481,55.6783],[26.5375,55.6695],[26.5945,55.667]]]}},{"type":"Feature","properties":{"id":"LTU-1075","name":"Vilniaus","nameBn":"ভিনিয়াস কাউন্টি","type":"County","bounds":[24.3886,54.1279,26.7399,55.5226],"center":[25.1588,54.7338]},"geometry":{"type":"Polygon","coordinates":[[[26.7399,55.2428],[26.7011,55.2368],[26.6857,55.2316],[26.657,55.2153],[26.6411,55.2028],[26.6339,55.1922],[26.6275,55.1644],[26.6163,55.1354],[26.6009,55.1208],[26.5789,55.1185],[26.4734,55.1457],[26.4591,55.1447],[26.4507,55.1398],[26.4448,55.1339],[26.4386,55.13],[26.4288,55.1282],[26.4203,55.1281],[26.3095,55.1446],[26.2644,55.1401],[26.233,55.1116],[26.2303,55.1003],[26.2312,55.0755],[26.2294,55.0634],[26.2246,55.0549],[26.1878,55.0087],[26.1703,54.9933],[26.1536,54.9785],[26.1386,54.9689],[26.1026,54.957],[25.9811,54.9427],[25.9625,54.9429],[25.9261,54.9478],[25.9079,54.9481],[25.8702,54.9388],[25.8585,54.933],[25.8548,54.9255],[25.8531,54.9164],[25.8467,54.9062],[25.8258,54.892],[25.8025,54.8816],[25.7827,54.8697],[25.7723,54.8509],[25.7737,54.8419],[25.7823,54.822],[25.7829,54.8137],[25.7785,54.8053],[25.7734,54.8034],[25.7666,54.8033],[25.7568,54.8004],[25.7349,54.7891],[25.7243,54.7801],[25.7212,54.7667],[25.7246,54.7157],[25.7231,54.7053],[25.7191,54.6947],[25.7139,54.6856],[25.7095,54.6756],[25.7084,54.663],[25.7151,54.6432],[25.7399,54.6077],[25.7456,54.5884],[25.7404,54.5685],[25.7265,54.553],[25.7074,54.5415],[25.6462,54.5204],[25.6309,54.5084],[25.6199,54.4881],[25.6156,54.4619],[25.6163,54.4411],[25.6126,54.4218],[25.5947,54.4001],[25.5488,54.3677],[25.53,54.3461],[25.5287,54.321],[25.5423,54.3081],[25.564,54.3031],[25.6074,54.3049],[25.6674,54.3233],[25.6823,54.3256],[25.696,54.321],[25.7018,54.3128],[25.7048,54.303],[25.7154,54.2852],[25.7192,54.2815],[25.7233,54.281],[25.7347,54.2832],[25.7393,54.2826],[25.7489,54.2763],[25.7578,54.269],[25.7656,54.26],[25.7723,54.2489],[25.7763,54.2456],[25.7818,54.2444],[25.7866,54.2423],[25.7892,54.2362],[25.7868,54.2318],[25.775,54.2225],[25.7719,54.2179],[25.771,54.1721],[25.7631,54.1564],[25.74,54.1463],[25.7281,54.1452],[25.6906,54.1482],[25.6798,54.1453],[25.6639,54.1324],[25.6535,54.1287],[25.6316,54.1283],[25.543,54.137],[25.516,54.1448],[25.4933,54.1575],[25.4858,54.1754],[25.4932,54.1824],[25.5217,54.1882],[25.529,54.1957],[25.5234,54.2042],[25.4993,54.2118],[25.5017,54.2218],[25.5221,54.2286],[25.5455,54.2275],[25.554,54.2313],[25.4835,54.2877],[25.4787,54.2933],[25.4721,54.2972],[25.4594,54.2989],[25.4341,54.2918],[25.394,54.2572],[25.3697,54.2479],[25.2876,54.2452],[25.2241,54.2585],[25.2062,54.2568],[25.1935,54.2437],[25.1731,54.1966],[25.1565,54.1757],[25.1156,54.1488],[25.072,54.1322],[25.0271,54.1279],[24.9483,54.1459],[24.9023,54.1498],[24.856,54.1467],[24.851,54.145],[24.8507,54.1453],[24.8329,54.1658],[24.8258,54.1805],[24.8214,54.187],[24.8151,54.1922],[24.8055,54.1959],[24.7814,54.2027],[24.7714,54.2079],[24.7666,54.2158],[24.7699,54.2254],[24.8777,54.2881],[24.9137,54.3154],[24.9207,54.3303],[24.9263,54.3609],[24.9308,54.3749],[24.9341,54.3794],[24.9386,54.3824],[24.9485,54.3858],[24.9754,54.3892],[24.9938,54.3946],[24.9966,54.4011],[24.998,54.4058],[24.996,54.4513],[24.9458,54.4489],[24.864,54.4312],[24.8171,54.411],[24.8065,54.4101],[24.7931,54.4129],[24.7736,54.415],[24.7612,54.4136],[24.7453,54.4075],[24.737,54.4057],[24.7261,54.4061],[24.7191,54.4113],[24.7174,54.4173],[24.7205,54.4239],[24.7219,54.4298],[24.7193,54.4355],[24.7128,54.4389],[24.6836,54.4468],[24.656,54.4501],[24.642,54.4496],[24.6248,54.4436],[24.6009,54.4375],[24.5883,54.4322],[24.555,54.4267],[24.5384,54.4259],[24.4499,54.4329],[24.4299,54.4403],[24.426,54.447],[24.4263,54.455],[24.4304,54.4636],[24.4347,54.4785],[24.4302,54.4858],[24.413,54.4968],[24.4119,54.4993],[24.4147,54.5023],[24.4198,54.5055],[24.4205,54.5148],[24.4228,54.521],[24.4128,54.5439],[24.4236,54.5516],[24.4267,54.5563],[24.4307,54.5641],[24.4336,54.5853],[24.4366,54.5946],[24.4415,54.6008],[24.4511,54.6019],[24.4589,54.5994],[24.468,54.5982],[24.4772,54.5991],[24.4848,54.6032],[24.49,54.6091],[24.4926,54.6185],[24.4954,54.6243],[24.4949,54.63],[24.4937,54.634],[24.4793,54.6438],[24.4816,54.6555],[24.4808,54.6606],[24.4783,54.668],[24.4746,54.6762],[24.4719,54.6841],[24.4737,54.6938],[24.4822,54.7013],[24.4991,54.7075],[24.5402,54.7147],[24.5526,54.7267],[24.5587,54.7301],[24.5698,54.7299],[24.6066,54.7247],[24.6177,54.7262],[24.6246,54.7309],[24.627,54.7425],[24.6276,54.7525],[24.6291,54.7619],[24.6327,54.7712],[24.6373,54.7786],[24.6439,54.7871],[24.6467,54.7917],[24.6535,54.8106],[24.6565,54.8167],[24.663,54.8218],[24.6744,54.8274],[24.7402,54.8485],[24.7536,54.8563],[24.771,54.8772],[24.8,54.8903],[24.7947,54.8968],[24.7728,54.9136],[24.7551,54.9219],[24.7368,54.9261],[24.694,54.9279],[24.6755,54.9321],[24.622,54.9614],[24.5707,54.9763],[24.5574,54.9857],[24.5488,54.9878],[24.568,55.004],[24.5743,55.0123],[24.5801,55.0185],[24.5836,55.0212],[24.5888,55.0239],[24.6012,55.0284],[24.6063,55.0311],[24.6116,55.0351],[24.6173,55.0377],[24.635,55.0436],[24.6436,55.0473],[24.6493,55.0511],[24.6521,55.0562],[24.6521,55.061],[24.6486,55.0716],[24.6381,55.0821],[24.6079,55.0906],[24.5947,55.117],[24.5896,55.1213],[24.5804,55.1224],[24.5605,55.1166],[24.5485,55.1161],[24.5368,55.1204],[24.526,55.132],[24.525,55.1442],[24.5263,55.152],[24.5241,55.1578],[24.5154,55.1624],[24.4989,55.1691],[24.4903,55.1737],[24.4805,55.181],[24.4735,55.1902],[24.4701,55.2045],[24.4734,55.212],[24.4805,55.2164],[24.4904,55.2177],[24.4966,55.2199],[24.4955,55.2235],[24.4825,55.2287],[24.4431,55.2368],[24.431,55.2428],[24.4226,55.2516],[24.4147,55.2869],[24.3954,55.3049],[24.3886,55.3165],[24.3906,55.329],[24.3933,55.3382],[24.392,55.3482],[24.3961,55.3575],[24.4001,55.3635],[24.4156,55.3932],[24.4439,55.4058],[24.4511,55.4066],[24.4591,55.4065],[24.467,55.4038],[24.476,55.4064],[24.512,55.4285],[24.5236,55.4393],[24.5303,55.4489],[24.5368,55.4663],[24.5429,55.4761],[24.5543,55.4872],[24.5647,55.4899],[24.5759,55.4889],[24.599,55.4819],[24.6113,55.4803],[24.6274,55.482],[24.6333,55.4864],[24.6322,55.4913],[24.6249,55.4957],[24.6068,55.5034],[24.6014,55.5085],[24.6008,55.5136],[24.606,55.5174],[24.611,55.5194],[24.6305,55.5226],[24.7688,55.463],[24.7931,55.447],[24.7998,55.4384],[24.7995,55.4325],[24.7944,55.4292],[24.7798,55.4241],[24.7741,55.4199],[24.7704,55.4142],[24.7693,55.4077],[24.7702,55.4017],[24.7736,55.3953],[24.7787,55.3889],[24.7848,55.3826],[24.7969,55.3772],[24.813,55.3739],[24.8616,55.3731],[24.8718,55.3712],[24.8767,55.3653],[24.8763,55.3589],[24.8749,55.3525],[24.8784,55.3491],[24.8873,55.3478],[24.9067,55.3508],[24.9468,55.3621],[24.9538,55.3626],[24.9587,55.3604],[24.9631,55.3538],[24.9641,55.3454],[24.9638,55.3376],[24.9629,55.3306],[24.9631,55.3257],[24.9727,55.3228],[24.982,55.3216],[25.0582,55.3252],[25.0557,55.3053],[25.0602,55.3007],[25.0694,55.2954],[25.0968,55.2831],[25.1092,55.2724],[25.1193,55.2696],[25.1286,55.2705],[25.1406,55.2733],[25.1541,55.2746],[25.1701,55.2727],[25.1761,55.2682],[25.1769,55.2626],[25.1732,55.2561],[25.1684,55.2502],[25.1529,55.239],[25.1484,55.2329],[25.1521,55.2208],[25.1588,55.2167],[25.1688,55.2164],[25.1786,55.2176],[25.1904,55.2174],[25.2388,55.201],[25.2523,55.195],[25.2506,55.1904],[25.2428,55.1879],[25.2307,55.1859],[25.2214,55.183],[25.2104,55.1749],[25.1932,55.1686],[25.1786,55.1614],[25.1695,55.1582],[25.1354,55.1505],[25.1375,55.1304],[25.1316,55.1148],[25.126,55.1035],[25.1285,55.0981],[25.1354,55.0946],[25.1761,55.0888],[25.1907,55.0843],[25.2078,55.0766],[25.2135,55.0692],[25.2162,55.0644],[25.2224,55.0417],[25.2699,55.0408],[25.333,55.028],[25.3491,55.0267],[25.3643,55.0283],[25.3772,55.0323],[25.5135,55.0567],[25.6171,55.0709],[25.6483,55.0705],[25.652,55.0668],[25.6544,55.0627],[25.6634,55.0597],[25.7174,55.0538],[25.7309,55.0543],[25.736,55.057],[25.7312,55.0623],[25.729,55.0695],[25.7309,55.0774],[25.7507,55.0876],[25.7588,55.0927],[25.7618,55.0968],[25.7585,55.0995],[25.7521,55.1027],[25.7504,55.1071],[25.7541,55.1129],[25.7777,55.1242],[25.7811,55.1305],[25.7756,55.1347],[25.7653,55.1369],[25.7561,55.1401],[25.7482,55.1441],[25.7298,55.1498],[25.7194,55.1549],[25.7031,55.1665],[25.6976,55.1723],[25.691,55.178],[25.6607,55.1939],[25.6456,55.205],[25.6416,55.2118],[25.6379,55.2204],[25.6412,55.2355],[25.6444,55.2424],[25.6498,55.2479],[25.6781,55.2584],[25.7083,55.2786],[25.7143,55.2869],[25.7343,55.327],[25.7777,55.3111],[25.8148,55.3042],[25.8527,55.3163],[25.8644,55.3076],[25.8748,55.2962],[25.8834,55.2916],[25.8949,55.2898],[25.9242,55.2941],[25.9311,55.2934],[25.938,55.2885],[25.9404,55.2844],[25.9424,55.2803],[25.9473,55.2768],[25.9583,55.2751],[25.9759,55.2775],[25.9889,55.2815],[25.9987,55.2862],[26.0044,55.2904],[26.0077,55.2939],[26.0142,55.3023],[26.0184,55.3059],[26.0252,55.3098],[26.0311,55.3121],[26.0372,55.3135],[26.0407,55.314],[26.1035,55.3151],[26.1171,55.3132],[26.1439,55.3059],[26.1565,55.299],[26.1633,55.2919],[26.1626,55.2849],[26.1557,55.2777],[26.1489,55.2681],[26.1476,55.2584],[26.1545,55.2487],[26.1671,55.2446],[26.1849,55.2464],[26.1947,55.2505],[26.2041,55.2531],[26.216,55.2533],[26.2352,55.2485],[26.2706,55.2356],[26.3207,55.2289],[26.4558,55.2251],[26.5676,55.2436],[26.6172,55.2615],[26.624,55.2657],[26.6332,55.2691],[26.679,55.2772],[26.6932,55.277],[26.707,55.273],[26.7159,55.269],[26.7368,55.247],[26.7396,55.2431],[26.7399,55.2428]]]}},{"type":"Feature","properties":{"id":"LTU-1072","name":"Šiauliai","nameBn":"সিয়াউলিয়াই কাউন্টি","type":"County","bounds":[22.3746,55.4743,24.1608,56.4121],"center":[23.2677,55.9585]},"geometry":{"type":"Polygon","coordinates":[[[22.9245,56.4121],[22.957,56.402],[22.9814,56.3732],[23.0167,56.3239],[23.0623,56.3042],[23.1127,56.3109],[23.1629,56.341],[23.1542,56.3514],[23.1726,56.358],[23.2884,56.373],[23.3106,56.3706],[23.378,56.3546],[23.4816,56.3301],[23.5176,56.3287],[23.5777,56.3486],[23.6099,56.3538],[23.6794,56.3519],[23.7067,56.3544],[23.7151,56.3527],[23.7235,56.3458],[23.7248,56.3384],[23.7236,56.3321],[23.725,56.3288],[23.7561,56.326],[23.825,56.3349],[23.8581,56.3344],[23.8711,56.3321],[23.9813,56.3124],[24.0752,56.2712],[24.1086,56.2607],[24.1389,56.2574],[24.1404,56.2576],[24.1424,56.2419],[24.1446,56.2371],[24.1425,56.231],[24.1343,56.2242],[24.1279,56.2167],[24.1245,56.2071],[24.1295,56.1963],[24.1367,56.1937],[24.1419,56.1934],[24.1492,56.1961],[24.154,56.1963],[24.159,56.1922],[24.1608,56.1849],[24.1597,56.1697],[24.1577,56.1617],[24.1511,56.1561],[24.1203,56.1513],[24.1101,56.1474],[24.1034,56.142],[24.0972,56.133],[24.0947,56.126],[24.094,56.1159],[24.0912,56.1063],[24.0682,56.0872],[24.0593,56.0764],[24.0527,56.0565],[24.048,56.0485],[24.0412,56.0428],[24.0355,56.0429],[24.031,56.0437],[24.0247,56.0463],[24.0193,56.0478],[24.0145,56.0477],[24.0098,56.0451],[24.007,56.0417],[24.0047,56.0374],[24.0036,56.0321],[24.0032,56.0262],[24.0046,55.9997],[24.0067,55.9923],[24.0115,55.9852],[24.0219,55.978],[24.0325,55.9737],[24.044,55.9707],[24.0534,55.9694],[24.0623,55.9658],[24.0682,55.9597],[24.0716,55.9441],[24.0702,55.9338],[24.0624,55.9238],[24.0576,55.9191],[24.0603,55.9041],[24.0511,55.8938],[24.0296,55.8846],[24.0019,55.8773],[23.9892,55.8725],[23.9821,55.8648],[23.9821,55.8586],[23.9832,55.8523],[23.9793,55.848],[23.9759,55.846],[23.9374,55.8435],[23.9501,55.8144],[23.9665,55.805],[23.9773,55.8034],[23.99,55.7995],[23.9954,55.7958],[23.9977,55.7916],[23.9976,55.7866],[24.0002,55.7795],[24.0163,55.7686],[24.0213,55.7626],[24.0263,55.7377],[24.0256,55.7294],[24.0274,55.7145],[24.0221,55.7072],[24.0126,55.7011],[24.0016,55.6971],[23.9932,55.6917],[23.9917,55.6806],[24.0049,55.6505],[24.005,55.642],[23.9987,55.6368],[23.9892,55.6364],[23.9794,55.6369],[23.9711,55.6361],[23.9572,55.6285],[23.9476,55.6261],[23.9256,55.6268],[23.9155,55.6236],[23.9069,55.6106],[23.8919,55.594],[23.8803,55.5851],[23.8762,55.5815],[23.8671,55.5693],[23.731,55.5306],[23.6851,55.512],[23.6658,55.5008],[23.6557,55.4934],[23.6407,55.4764],[23.6341,55.4746],[23.6261,55.4765],[23.61,55.4825],[23.581,55.4832],[23.5691,55.4991],[23.5718,55.5042],[23.5763,55.5114],[23.5824,55.5172],[23.5872,55.5246],[23.5859,55.529],[23.5805,55.5311],[23.5614,55.5349],[23.5487,55.5427],[23.5383,55.5455],[23.5298,55.5465],[23.5234,55.5452],[23.5189,55.5432],[23.5147,55.5405],[23.5088,55.5376],[23.5027,55.5363],[23.4911,55.535],[23.4871,55.5329],[23.4857,55.5301],[23.4849,55.5243],[23.4832,55.5202],[23.473,55.5175],[23.4562,55.5177],[23.4224,55.523],[23.4006,55.5307],[23.3248,55.5673],[23.274,55.5496],[23.2652,55.5449],[23.252,55.5421],[23.2429,55.5449],[23.2363,55.5513],[23.2279,55.5672],[23.223,55.5727],[23.216,55.5757],[23.1981,55.5781],[23.1764,55.5786],[23.1142,55.5743],[23.0934,55.5654],[23.0751,55.5483],[23.0718,55.5408],[23.0659,55.5349],[23.0569,55.5295],[23.0208,55.5155],[22.8665,55.4807],[22.8406,55.4845],[22.8336,55.4886],[22.8307,55.4945],[22.8285,55.5021],[22.8214,55.5063],[22.8087,55.5084],[22.7345,55.5021],[22.6768,55.4894],[22.6457,55.4743],[22.6214,55.4812],[22.6156,55.5048],[22.6367,55.5232],[22.6349,55.5277],[22.6281,55.5314],[22.6179,55.5353],[22.5801,55.5676],[22.5692,55.5745],[22.523,55.5909],[22.5091,55.5984],[22.5025,55.6057],[22.4941,55.617],[22.4922,55.6233],[22.4932,55.6291],[22.4974,55.6343],[22.5003,55.6407],[22.496,55.6447],[22.4749,55.6504],[22.4634,55.6572],[22.4586,55.6641],[22.4569,55.6693],[22.4571,55.6779],[22.4882,55.6939],[22.4969,55.6965],[22.5051,55.7022],[22.5062,55.7098],[22.5005,55.7262],[22.4991,55.7343],[22.5006,55.7431],[22.5036,55.7526],[22.5064,55.7658],[22.5031,55.775],[22.491,55.7916],[22.4919,55.798],[22.505,55.8048],[22.5162,55.8077],[22.5298,55.8098],[22.5418,55.8128],[22.5562,55.8187],[22.5664,55.8244],[22.5708,55.8341],[22.5679,55.8525],[22.5697,55.8606],[22.5772,55.8664],[22.593,55.869],[22.6069,55.8699],[22.6218,55.8741],[22.6316,55.8816],[22.6462,55.906],[22.6757,55.926],[22.6721,55.9371],[22.6842,55.9421],[22.6973,55.9461],[22.6983,55.9493],[22.6931,55.9521],[22.683,55.9557],[22.6744,55.9606],[22.6631,55.9711],[22.655,55.9747],[22.6479,55.9736],[22.6436,55.9694],[22.6392,55.9642],[22.6313,55.9602],[22.6208,55.9583],[22.6078,55.9595],[22.5985,55.9653],[22.5846,55.976],[22.5807,55.9834],[22.5809,55.9883],[22.5858,55.9919],[22.6004,55.9981],[22.6058,56.0022],[22.6094,56.0071],[22.6096,56.015],[22.6088,56.0279],[22.6004,56.0441],[22.6018,56.0523],[22.6116,56.0579],[22.6586,56.0637],[22.6631,56.065],[22.667,56.0671],[22.6713,56.0722],[22.6733,56.0736],[22.6856,56.075],[22.7021,56.0796],[22.6859,56.0908],[22.6814,56.0972],[22.6786,56.1056],[22.6808,56.1136],[22.6845,56.1211],[22.6842,56.1262],[22.6771,56.1309],[22.6639,56.1329],[22.6419,56.1314],[22.6117,56.1262],[22.6013,56.1226],[22.5936,56.1175],[22.5803,56.1141],[22.5624,56.1123],[22.5244,56.1154],[22.4809,56.1035],[22.4673,56.1036],[22.4533,56.1064],[22.441,56.1114],[22.4364,56.1195],[22.4347,56.1265],[22.4303,56.1309],[22.4231,56.1314],[22.4145,56.131],[22.4096,56.1328],[22.4105,56.1399],[22.4201,56.1498],[22.4169,56.1541],[22.4114,56.1575],[22.3746,56.1641],[22.3886,56.2224],[22.4165,56.2454],[22.4333,56.2537],[22.4493,56.2665],[22.4552,56.2773],[22.455,56.2858],[22.4444,56.2943],[22.4421,56.2978],[22.4458,56.3036],[22.454,56.3099],[22.4612,56.3201],[22.4732,56.3241],[22.4854,56.3241],[22.5119,56.3196],[22.5263,56.3192],[22.5401,56.3211],[22.5543,56.3271],[22.5624,56.3353],[22.5675,56.3441],[22.5679,56.3527],[22.5622,56.3604],[22.5557,56.3664],[22.5531,56.3727],[22.558,56.3775],[22.5655,56.3802],[22.5782,56.387],[22.6047,56.3791],[22.6491,56.3531],[22.6663,56.3491],[22.6814,56.3503],[22.8229,56.3829],[22.8596,56.3971],[22.889,56.4084],[22.9245,56.4121]]]}}]}