{"type":"FeatureCollection","features":[{"type":"Feature","properties":{"id":"LUX-906","name":"Diekirch","nameBn":"ডিকির্খ জেলা","type":"District","bounds":[5.7149,49.7058,6.2956,50.175],"center":[6.0048,49.9763]},"geometry":{"type":"Polygon","coordinates":[[[6.1175,50.1205],[6.1106,50.106],[6.1057,50.0922],[6.0994,50.0641],[6.1012,50.0634],[6.1072,50.0638],[6.1094,50.0636],[6.1057,50.0603],[6.0964,50.0486],[6.1073,50.0446],[6.1138,50.0364],[6.12,50.0155],[6.1172,50.0044],[6.1215,49.9963],[6.1388,49.9793],[6.154,49.9512],[6.1619,49.9425],[6.1727,49.9562],[6.1898,49.9383],[6.2227,49.8871],[6.2383,49.8769],[6.2722,49.8671],[6.2868,49.861],[6.2915,49.8556],[6.2956,49.8486],[6.2952,49.8486],[6.2771,49.8471],[6.2696,49.845],[6.2639,49.8411],[6.258,49.8328],[6.2561,49.8281],[6.2583,49.8239],[6.2616,49.8222],[6.2668,49.82],[6.2667,49.8157],[6.2659,49.8122],[6.2463,49.7906],[6.2145,49.7999],[6.1939,49.8124],[6.1847,49.8194],[6.1573,49.8238],[6.1474,49.8236],[6.1138,49.8176],[6.1045,49.8191],[6.0955,49.8219],[6.0811,49.8281],[6.0694,49.8297],[6.0598,49.8296],[6.0431,49.8245],[6.0338,49.8172],[6.0316,49.813],[6.0291,49.8063],[6.0187,49.7974],[6.0137,49.7903],[6.0013,49.7813],[5.9993,49.7754],[5.9987,49.7613],[5.9951,49.7504],[5.9937,49.7394],[5.994,49.7289],[5.9594,49.7216],[5.9343,49.7137],[5.9191,49.7109],[5.876,49.71],[5.8564,49.7058],[5.856,49.7081],[5.8502,49.714],[5.8437,49.7143],[5.8373,49.7129],[5.8317,49.7136],[5.8257,49.7158],[5.8118,49.7185],[5.8054,49.7219],[5.8058,49.7242],[5.8036,49.7382],[5.8021,49.7429],[5.7785,49.773],[5.7719,49.7794],[5.7592,49.7845],[5.7484,49.7856],[5.7383,49.7888],[5.7277,49.8002],[5.7216,49.8128],[5.7202,49.8247],[5.7246,49.8343],[5.7365,49.8394],[5.7269,49.8452],[5.7287,49.8488],[5.7305,49.8512],[5.732,49.8542],[5.7319,49.86],[5.7581,49.8582],[5.7488,49.8673],[5.7267,49.8782],[5.7149,49.8819],[5.719,49.8914],[5.7536,49.9302],[5.7576,49.9365],[5.76,49.9416],[5.7637,49.9468],[5.7716,49.9535],[5.7786,49.9566],[5.7934,49.9588],[5.8016,49.9638],[5.8126,49.9776],[5.8086,49.9831],[5.8015,49.9887],[5.8027,50.0025],[5.8089,50.0078],[5.8291,50.0136],[5.8364,50.0185],[5.8388,50.0265],[5.8388,50.0359],[5.8377,50.0474],[5.8437,50.0536],[5.8583,50.0618],[5.8644,50.0675],[5.8669,50.0743],[5.8688,50.0905],[5.8724,50.0969],[5.889,50.1066],[5.9262,50.1183],[5.9411,50.1283],[5.949,50.1427],[5.9532,50.1564],[5.9616,50.1656],[5.9829,50.1671],[5.9983,50.175],[6.0047,50.1705],[6.008,50.1609],[6.0141,50.1536],[6.023,50.1508],[6.0274,50.1494],[6.0386,50.1484],[6.0614,50.1507],[6.07,50.1542],[6.0765,50.1586],[6.0842,50.1593],[6.0971,50.1513],[6.1015,50.1421],[6.1003,50.1327],[6.1026,50.1247],[6.1175,50.1205]]]}},{"type":"Feature","properties":{"id":"LUX-907","name":"Grevenmacher","nameBn":"গ্রেভেনমাকের জেলা","type":"District","bounds":[6.1746,49.4553,6.5026,49.8486],"center":[6.3384,49.6474]},"geometry":{"type":"Polygon","coordinates":[[[6.2956,49.8486],[6.3016,49.8383],[6.3026,49.8349],[6.3107,49.8345],[6.3256,49.8404],[6.3344,49.8402],[6.3514,49.8333],[6.3801,49.8156],[6.3971,49.8086],[6.4145,49.8055],[6.4625,49.8055],[6.4933,49.7996],[6.4972,49.7994],[6.5026,49.7957],[6.5023,49.7959],[6.5001,49.7945],[6.5,49.7861],[6.4985,49.7854],[6.4938,49.7636],[6.4937,49.7566],[6.4964,49.7521],[6.496,49.7482],[6.4863,49.7427],[6.4855,49.7338],[6.4878,49.7256],[6.4926,49.7184],[6.4997,49.7122],[6.491,49.7144],[6.4864,49.7129],[6.4829,49.7081],[6.4898,49.703],[6.4917,49.7008],[6.4182,49.6699],[6.4027,49.6558],[6.4045,49.6525],[6.4109,49.6496],[6.417,49.6458],[6.4179,49.6391],[6.4152,49.6346],[6.4077,49.6274],[6.3976,49.6139],[6.3715,49.593],[6.3564,49.5776],[6.3508,49.5666],[6.3508,49.5349],[6.3488,49.5253],[6.3423,49.493],[6.3454,49.4627],[6.3453,49.4553],[6.3253,49.4567],[6.2988,49.4662],[6.2511,49.4895],[6.2471,49.5061],[6.2348,49.54],[6.2339,49.5536],[6.2409,49.562],[6.273,49.5823],[6.2806,49.5849],[6.2988,49.5875],[6.3012,49.5936],[6.2995,49.5984],[6.2944,49.6022],[6.289,49.6055],[6.2851,49.6091],[6.2871,49.6126],[6.2912,49.6159],[6.3122,49.6272],[6.295,49.648],[6.2856,49.6743],[6.2783,49.6802],[6.2648,49.6863],[6.2511,49.6887],[6.1746,49.69],[6.2201,49.7369],[6.2283,49.7419],[6.241,49.7471],[6.248,49.7463],[6.263,49.7467],[6.2746,49.7701],[6.2726,49.7731],[6.267,49.7771],[6.2622,49.7791],[6.2463,49.7906],[6.2659,49.8122],[6.2667,49.8157],[6.2668,49.82],[6.2616,49.8222],[6.2583,49.8239],[6.2561,49.8281],[6.258,49.8328],[6.2639,49.8411],[6.2696,49.845],[6.2771,49.8471],[6.2952,49.8486],[6.2956,49.8486]]]}},{"type":"Feature","properties":{"id":"LUX-908","name":"Luxembourg","nameBn":"লুক্সেমবার্গ","type":"District","bounds":[5.7907,49.4413,6.3122,49.8297],"center":[6.0511,49.6376]},"geometry":{"type":"Polygon","coordinates":[[[5.7907,49.5378],[5.8145,49.5451],[5.8374,49.5611],[5.8469,49.5767],[5.83,49.5828],[5.8412,49.5897],[5.8492,49.5997],[5.862,49.6228],[5.87,49.6289],[5.8799,49.6349],[5.8855,49.6435],[5.8799,49.6577],[5.8726,49.6617],[5.8526,49.6632],[5.8458,49.6666],[5.8423,49.6739],[5.8437,49.6775],[5.8467,49.6807],[5.8472,49.6872],[5.8488,49.6927],[5.8536,49.6963],[5.8573,49.7004],[5.8564,49.7058],[5.876,49.71],[5.9191,49.7109],[5.9343,49.7137],[5.9594,49.7216],[5.994,49.7289],[5.9937,49.7394],[5.9951,49.7504],[5.9987,49.7613],[5.9993,49.7754],[6.0013,49.7813],[6.0137,49.7903],[6.0187,49.7974],[6.0291,49.8063],[6.0316,49.813],[6.0338,49.8172],[6.0431,49.8245],[6.0598,49.8296],[6.0694,49.8297],[6.0811,49.8281],[6.0955,49.8219],[6.1045,49.8191],[6.1138,49.8176],[6.1474,49.8236],[6.1573,49.8238],[6.1847,49.8194],[6.1939,49.8124],[6.2145,49.7999],[6.2463,49.7906],[6.2622,49.7791],[6.267,49.7771],[6.2726,49.7731],[6.2746,49.7701],[6.263,49.7467],[6.248,49.7463],[6.241,49.7471],[6.2283,49.7419],[6.2201,49.7369],[6.1746,49.69],[6.2511,49.6887],[6.2648,49.6863],[6.2783,49.6802],[6.2856,49.6743],[6.295,49.648],[6.3122,49.6272],[6.2912,49.6159],[6.2871,49.6126],[6.2851,49.6091],[6.289,49.6055],[6.2944,49.6022],[6.2995,49.5984],[6.3012,49.5936],[6.2988,49.5875],[6.2806,49.5849],[6.273,49.5823],[6.2409,49.562],[6.2339,49.5536],[6.2348,49.54],[6.2471,49.5061],[6.2511,49.4895],[6.2494,49.4903],[6.222,49.4974],[6.1936,49.4994],[6.1361,49.4953],[6.1426,49.4861],[6.1144,49.4844],[6.1073,49.4825],[6.102,49.4764],[6.1021,49.47],[6.0998,49.4646],[6.0877,49.4616],[6.078,49.452],[6.0633,49.4485],[5.9781,49.4451],[5.9607,49.4413],[5.947,49.47],[5.9281,49.4823],[5.8647,49.4922],[5.8396,49.4999],[5.8221,49.5105],[5.7907,49.5378]]]}}]}