{"type":"FeatureCollection","features":[{"type":"Feature","properties":{"id":"MAR-1449","name":"Chaouia - Ouardigha","nameBn":"চাঁওউইয়া ওয়ারডিগা","type":"Region","bounds":[-8.1179,32.3466,-6.0371,33.8349],"center":[-7.0775,33.0977]},"geometry":{"type":"Polygon","coordinates":[[[-7.3411,33.7311],[-7.2675,33.7724],[-7.2293,33.8009],[-7.1929,33.8177],[-7.1526,33.8301],[-7.117,33.8349],[-7.1146,33.8331],[-7.0768,33.7958],[-7.0584,33.7843],[-7.0381,33.7517],[-7.0209,33.7136],[-7.0115,33.6786],[-6.9787,33.6141],[-6.9498,33.6017],[-6.8544,33.5719],[-6.8286,33.5612],[-6.7881,33.5525],[-6.7828,33.5347],[-6.7942,33.5115],[-6.8096,33.4939],[-6.8158,33.4661],[-6.8019,33.4416],[-6.8014,33.4227],[-6.8081,33.4121],[-6.8204,33.3301],[-6.8071,33.2828],[-6.7759,33.2617],[-6.7315,33.2428],[-6.6133,33.2118],[-6.5556,33.1879],[-6.5049,33.1978],[-6.4198,33.2383],[-6.4035,33.1954],[-6.36,33.1673],[-6.3226,33.1509],[-6.2028,33.0778],[-6.1327,33.0118],[-6.1413,32.9831],[-6.1491,32.964],[-6.1535,32.9259],[-6.1368,32.9108],[-6.0866,32.9102],[-6.0575,32.8972],[-6.0371,32.8571],[-6.0428,32.8353],[-6.0417,32.7931],[-6.0632,32.7608],[-6.0917,32.7473],[-6.215,32.7143],[-6.2921,32.7018],[-6.5786,32.721],[-6.6106,32.7062],[-6.6413,32.6994],[-6.6614,32.6848],[-6.68,32.6893],[-6.7043,32.6904],[-6.7252,32.6946],[-6.7869,32.696],[-6.8391,32.6876],[-6.8576,32.6906],[-6.9463,32.6466],[-6.9791,32.6389],[-6.9954,32.6101],[-7.0248,32.5016],[-7.0697,32.4073],[-7.1267,32.3466],[-7.1959,32.3561],[-7.3004,32.4162],[-7.3352,32.4323],[-7.3718,32.4589],[-7.4455,32.4746],[-7.5764,32.4796],[-7.6014,32.4865],[-7.6211,32.4892],[-7.6458,32.5045],[-7.75,32.6264],[-7.8293,32.6816],[-7.8727,32.7031],[-7.9088,32.7364],[-7.9681,32.8019],[-7.9902,32.834],[-8.0016,32.8678],[-8.0147,32.8756],[-8.0344,32.8802],[-8.0456,32.8971],[-8.0537,32.9138],[-8.054,32.9358],[-8.0642,32.9575],[-8.0642,32.9946],[-8.0757,33.0834],[-8.1179,33.1678],[-8.1051,33.1921],[-8.0904,33.213],[-8.0635,33.2245],[-8.0378,33.2322],[-8.0199,33.246],[-8.0144,33.2601],[-8.0035,33.2769],[-7.9838,33.292],[-7.9685,33.3351],[-7.9691,33.3815],[-7.9783,33.4151],[-8.0099,33.4645],[-8.0116,33.4664],[-7.9626,33.4848],[-7.9162,33.4946],[-7.8914,33.5034],[-7.886,33.5091],[-7.8859,33.5091],[-7.8844,33.5085],[-7.8612,33.4957],[-7.811,33.4884],[-7.7848,33.4784],[-7.7478,33.4717],[-7.6813,33.442],[-7.6519,33.4464],[-7.5903,33.4458],[-7.5769,33.4325],[-7.6113,33.4048],[-7.6137,33.383],[-7.6038,33.3688],[-7.5814,33.3625],[-7.566,33.3693],[-7.5501,33.3786],[-7.5172,33.4194],[-7.4263,33.4723],[-7.3935,33.5259],[-7.3948,33.5516],[-7.3982,33.5715],[-7.398,33.5881],[-7.3997,33.6045],[-7.3942,33.6345],[-7.387,33.6526],[-7.3674,33.6754],[-7.3603,33.6968],[-7.3464,33.7116],[-7.341,33.7288],[-7.3411,33.7311]]]}},{"type":"Feature","properties":{"id":"MAR-1457","name":"Doukkala - Abda","nameBn":"দৌক্কালা-আব্দা","type":"Region","bounds":[-9.4588,31.7449,-7.9685,33.4664],"center":[-8.7136,32.4059]},"geometry":{"type":"Polygon","coordinates":[[[-9.4588,31.9446],[-9.3661,32.0263],[-9.3541,32.0467],[-9.3464,32.0615],[-9.3348,32.1016],[-9.3331,32.1181],[-9.3281,32.1304],[-9.292,32.1689],[-9.2777,32.1966],[-9.27,32.2275],[-9.2648,32.3306],[-9.269,32.3355],[-9.2878,32.3435],[-9.292,32.3508],[-9.2897,32.3725],[-9.2834,32.3878],[-9.2563,32.4326],[-9.2488,32.4525],[-9.2469,32.4723],[-9.2548,32.4883],[-9.2637,32.4985],[-9.2724,32.5129],[-9.2783,32.5295],[-9.279,32.5463],[-9.2599,32.5769],[-9.1122,32.6828],[-8.9985,32.7971],[-8.9017,32.8548],[-8.8678,32.8819],[-8.7547,33.0106],[-8.6291,33.1276],[-8.6215,33.1394],[-8.6204,33.152],[-8.621,33.1735],[-8.6119,33.1863],[-8.5292,33.2687],[-8.5211,33.2725],[-8.5125,33.2705],[-8.5028,33.2615],[-8.4941,33.2595],[-8.4698,33.2606],[-8.4517,33.2642],[-8.415,33.28],[-8.3788,33.3047],[-8.3202,33.3654],[-8.2847,33.3898],[-8.2432,33.4045],[-8.1066,33.4309],[-8.0116,33.4664],[-8.0099,33.4645],[-7.9783,33.4151],[-7.9691,33.3815],[-7.9685,33.3351],[-7.9838,33.292],[-8.0035,33.2769],[-8.0144,33.2601],[-8.0199,33.246],[-8.0378,33.2322],[-8.0635,33.2245],[-8.0904,33.213],[-8.1051,33.1921],[-8.1179,33.1678],[-8.0757,33.0834],[-8.0642,32.9946],[-8.0642,32.9575],[-8.054,32.9358],[-8.0537,32.9138],[-8.0456,32.8971],[-8.0344,32.8802],[-8.0147,32.8756],[-8.0016,32.8678],[-7.9902,32.834],[-8.0316,32.8126],[-8.0511,32.7874],[-8.0752,32.6917],[-8.0728,32.6399],[-8.0915,32.5826],[-8.1435,32.5306],[-8.1992,32.4909],[-8.2457,32.4677],[-8.2923,32.4353],[-8.3325,32.4196],[-8.3741,32.3886],[-8.4103,32.3692],[-8.4505,32.335],[-8.4495,32.2888],[-8.4243,32.2435],[-8.3915,32.2009],[-8.278,32.1429],[-8.2637,32.1118],[-8.275,32.0561],[-8.3336,31.9896],[-8.4495,31.7736],[-8.5027,31.7504],[-8.5669,31.7449],[-8.6812,31.7615],[-8.8004,31.7673],[-8.8572,31.765],[-8.969,31.7983],[-9.008,31.8387],[-9.0221,31.8742],[-9.0556,31.9089],[-9.1844,31.9302],[-9.3338,31.9029],[-9.3834,31.9113],[-9.4172,31.9218],[-9.4556,31.9425],[-9.4588,31.9446]]]}},{"type":"Feature","properties":{"id":"MAR-1446","name":"Fès - Boulemane","nameBn":"ফ্রোস-বুলেমান","type":"Region","bounds":[-5.4205,32.6132,-2.9261,34.3107],"center":[-4.1733,33.2343]},"geometry":{"type":"Polygon","coordinates":[[[-5.1754,34.3107],[-5.1559,34.3099],[-5.1363,34.3025],[-5.1168,34.2816],[-5.1068,34.276],[-5.0895,34.2905],[-5.0817,34.2912],[-5.0733,34.2899],[-4.991,34.2933],[-4.9739,34.2913],[-4.9642,34.2836],[-4.9562,34.2738],[-4.9447,34.2651],[-4.9359,34.2635],[-4.9156,34.2646],[-4.9121,34.2654],[-4.9004,34.2528],[-4.9012,34.2492],[-4.8942,34.2368],[-4.8903,34.2312],[-4.8761,34.22],[-4.8428,34.2208],[-4.8059,34.1926],[-4.7812,34.1643],[-4.7517,34.1186],[-4.7207,34.0882],[-4.6537,34.055],[-4.5965,34.0359],[-4.5652,34.0078],[-4.5575,33.977],[-4.5596,33.9527],[-4.5359,33.9344],[-4.4766,33.9038],[-4.448,33.9055],[-4.3742,33.8972],[-4.3591,33.9057],[-4.3318,33.9052],[-4.2789,33.8985],[-4.2437,33.9108],[-4.2057,33.9146],[-4.1852,33.9048],[-4.1908,33.8906],[-4.1866,33.8703],[-4.1346,33.8077],[-4.1079,33.7651],[-4.0645,33.7088],[-4.0811,33.6686],[-4.0769,33.6267],[-4.0834,33.5985],[-4.0724,33.5718],[-4.0517,33.558],[-4.0277,33.5484],[-4.0028,33.5449],[-3.9741,33.5364],[-3.9083,33.5537],[-3.8858,33.5522],[-3.8705,33.5291],[-3.8648,33.5134],[-3.8508,33.516],[-3.8119,33.5746],[-3.8172,33.6],[-3.8118,33.6235],[-3.7981,33.644],[-3.7203,33.7248],[-3.7087,33.7401],[-3.6921,33.7509],[-3.5763,33.8593],[-3.5386,33.8884],[-3.4989,33.9075],[-3.4604,33.9062],[-3.4259,33.8956],[-3.4005,33.8781],[-3.3818,33.8575],[-3.3427,33.8378],[-3.1024,33.7851],[-3.0699,33.7697],[-3.0507,33.7543],[-3.0606,33.7175],[-3.1118,33.656],[-3.2201,33.57],[-3.2374,33.5439],[-3.2144,33.5126],[-3.0898,33.4395],[-2.983,33.342],[-2.9396,33.2671],[-2.9261,33.211],[-2.9777,33.1744],[-3.0338,33.1486],[-3.3194,33.1017],[-3.4324,33.0969],[-3.4921,33.1026],[-3.546,33.0981],[-3.5983,33.0872],[-3.678,33.0296],[-3.8611,32.823],[-3.9076,32.7523],[-3.9562,32.6941],[-3.9802,32.6589],[-3.9992,32.6173],[-4.0689,32.6145],[-4.1066,32.6195],[-4.1874,32.6132],[-4.2371,32.6291],[-4.2793,32.6527],[-4.2998,32.6855],[-4.3974,32.8022],[-4.4935,32.8845],[-4.5561,32.9021],[-4.6388,32.9071],[-4.7194,32.9255],[-4.7549,32.9504],[-4.7631,32.9842],[-4.7804,33.0236],[-4.8641,33.1271],[-4.9941,33.4169],[-4.98,33.4591],[-4.8979,33.5407],[-4.9041,33.5941],[-4.9327,33.6385],[-4.9768,33.666],[-5.1191,33.6931],[-5.1484,33.7179],[-5.1518,33.749],[-5.1029,33.8121],[-5.0879,33.8363],[-5.1071,33.8759],[-5.192,34.0016],[-5.2347,34.0876],[-5.2477,34.1089],[-5.2701,34.1034],[-5.287,34.0926],[-5.3133,34.0897],[-5.3294,34.1022],[-5.3322,34.1268],[-5.3404,34.1627],[-5.3522,34.1978],[-5.3788,34.229],[-5.4205,34.2806],[-5.4027,34.2726],[-5.3823,34.2697],[-5.3203,34.2688],[-5.2842,34.2745],[-5.1945,34.3066],[-5.1754,34.3107]]]}},{"type":"Feature","properties":{"id":"MAR-1448","name":"Gharb - Chrarda - Béni Hssen","nameBn":"ঘাারব-ছারদা-বেনি হসেন","type":"Region","bounds":[-6.7226,34.1037,-5.1779,35.0102],"center":[-5.9502,34.5356]},"geometry":{"type":"Polygon","coordinates":[[[-6.7226,34.1824],[-6.6678,34.2805],[-6.5579,34.4177],[-6.5478,34.4347],[-6.5309,34.474],[-6.5079,34.5048],[-6.2921,34.8808],[-6.2492,35.0014],[-6.2491,35.0014],[-6.2442,35.0017],[-6.1849,34.9981],[-6.1339,35.0083],[-6.1131,35.0102],[-6.0856,34.9974],[-6.0618,34.9894],[-6.0319,34.9838],[-5.9951,34.9827],[-5.9575,34.9666],[-5.9155,34.9555],[-5.8178,34.9399],[-5.7817,34.9307],[-5.755,34.9126],[-5.6978,34.8811],[-5.633,34.823],[-5.6049,34.8213],[-5.5851,34.8175],[-5.539,34.8273],[-5.513,34.8199],[-5.4909,34.7963],[-5.4498,34.7658],[-5.4201,34.7377],[-5.3797,34.7268],[-5.3495,34.7147],[-5.3073,34.7223],[-5.2392,34.7259],[-5.1902,34.7164],[-5.1791,34.6835],[-5.1779,34.6314],[-5.1848,34.6006],[-5.1971,34.5761],[-5.218,34.5597],[-5.2496,34.5489],[-5.2695,34.5316],[-5.3229,34.4961],[-5.3497,34.4583],[-5.4694,34.387],[-5.4907,34.37],[-5.4851,34.3549],[-5.479,34.3447],[-5.4689,34.3364],[-5.4205,34.2806],[-5.4545,34.2128],[-5.4475,34.195],[-5.4505,34.1783],[-5.4687,34.1654],[-5.5712,34.1294],[-5.6071,34.1315],[-5.6482,34.1298],[-5.6786,34.1336],[-5.7028,34.1425],[-5.71,34.1646],[-5.7286,34.1768],[-5.7421,34.192],[-5.7888,34.2119],[-5.8006,34.2011],[-5.8182,34.1898],[-5.8302,34.1671],[-5.8622,34.1483],[-5.8851,34.1167],[-5.9171,34.1052],[-5.9408,34.1076],[-5.9719,34.1037],[-6.0171,34.1072],[-6.0699,34.1165],[-6.1339,34.1426],[-6.2022,34.1576],[-6.2773,34.163],[-6.3254,34.1619],[-6.3628,34.1686],[-6.3979,34.1585],[-6.4368,34.1598],[-6.4829,34.1372],[-6.5248,34.1305],[-6.5551,34.1203],[-6.5877,34.1307],[-6.6277,34.1363],[-6.6638,34.1558],[-6.6879,34.1572],[-6.7225,34.1824],[-6.7226,34.1824]]]}},{"type":"Feature","properties":{"id":"MAR-1450","name":"Grand Casablanca","nameBn":"গ্রান্ড কাসাব্লাঙ্কা","type":"Region","bounds":[-7.886,33.3625,-7.341,33.7325],"center":[-7.556,33.545]},"geometry":{"type":"Polygon","coordinates":[[[-7.886,33.5091],[-7.8697,33.5266],[-7.8448,33.536],[-7.778,33.5533],[-7.7382,33.5706],[-7.7195,33.5742],[-7.701,33.5827],[-7.6844,33.5999],[-7.6676,33.6127],[-7.6479,33.6083],[-7.6362,33.6146],[-7.6266,33.6132],[-7.6173,33.6094],[-7.6062,33.6083],[-7.5967,33.6116],[-7.5793,33.6208],[-7.55,33.6256],[-7.5291,33.6326],[-7.5102,33.6415],[-7.4971,33.65],[-7.4633,33.6865],[-7.4343,33.6982],[-7.4064,33.727],[-7.3871,33.7325],[-7.394,33.725],[-7.3739,33.7193],[-7.3526,33.7247],[-7.3411,33.7311],[-7.341,33.7288],[-7.3464,33.7116],[-7.3603,33.6968],[-7.3674,33.6754],[-7.387,33.6526],[-7.3942,33.6345],[-7.3997,33.6045],[-7.398,33.5881],[-7.3982,33.5715],[-7.3948,33.5516],[-7.3935,33.5259],[-7.4263,33.4723],[-7.5172,33.4194],[-7.5501,33.3786],[-7.566,33.3693],[-7.5814,33.3625],[-7.6038,33.3688],[-7.6137,33.383],[-7.6113,33.4048],[-7.5769,33.4325],[-7.5903,33.4458],[-7.6519,33.4464],[-7.6813,33.442],[-7.7478,33.4717],[-7.7848,33.4784],[-7.811,33.4884],[-7.8612,33.4957],[-7.8844,33.5085],[-7.8859,33.5091],[-7.886,33.5091]]]}},{"type":"Feature","properties":{"id":"MAR-3457","name":"Guelmim - Es-Semara","nameBn":"গোয়েল্মিম এস সেমারা","type":"Region","bounds":[-12.5774,25.9926,-6.3439,30.487],"center":[-10.0502,28.1581]},"geometry":{"type":"Polygon","coordinates":[[[-8.817,27.6615],[-8.8184,27.6594],[-8.8129,27.6134],[-8.7836,27.5304],[-8.7734,27.46],[-8.788,27.4161],[-8.8017,27.3604],[-8.7958,27.3077],[-8.7734,27.2501],[-8.7529,27.1905],[-8.7529,27.1505],[-8.7939,27.1202],[-8.8881,27.1036],[-9.0009,27.0899],[-9.0834,27.0899],[-9.2075,27.0997],[-9.2846,27.0977],[-9.352,27.0977],[-9.4121,27.088],[-9.4863,27.0499],[-9.5688,26.9903],[-9.6724,26.9102],[-9.7344,26.8604],[-9.8169,26.8497],[-9.8994,26.8497],[-9.9799,26.8897],[-10.0317,26.9102],[-10.0659,26.9083],[-10.122,26.88],[-10.1884,26.8604],[-10.2505,26.8604],[-10.354,26.9005],[-10.478,26.96],[-10.5503,26.9903],[-10.6533,27.0001],[-10.7568,27.0196],[-10.8291,27.0098],[-10.9218,27.0098],[-11.0459,26.9698],[-11.1494,26.9405],[-11.2626,26.9102],[-11.3916,26.8829],[-11.3603,26.793],[-11.3159,26.7442],[-11.3159,26.6836],[-11.3369,26.6329],[-11.3989,26.5831],[-11.4697,26.5196],[-11.5107,26.4698],[-11.5522,26.4005],[-11.583,26.3604],[-11.6362,26.295],[-11.6835,26.213],[-11.6982,26.1622],[-11.7172,26.1036],[-11.7539,26.086],[-11.8799,26.0704],[-11.9599,26.0499],[-12.0298,26.0303],[-12.0558,25.9958],[-12.0562,25.9953],[-12.445,25.9926],[-12.4974,26.2318],[-12.5607,26.3896],[-12.5734,26.4246],[-12.5774,26.46],[-12.5716,26.5026],[-12.561,26.5409],[-12.5288,26.6171],[-12.4865,26.6821],[-12.3125,26.844],[-12.2618,26.9115],[-12.153,27.1192],[-12.034,27.4405],[-11.927,27.5751],[-11.8132,27.6622],[-11.7989,27.6667],[-11.6707,27.7388],[-11.5437,27.7901],[-11.5537,27.8346],[-11.6617,28.0138],[-11.7053,28.0711],[-11.78,28.207],[-11.7823,28.2101],[-11.4856,28.3256],[-11.4528,28.3485],[-11.4288,28.3759],[-11.3893,28.4349],[-11.374,28.4498],[-11.3559,28.4639],[-11.341,28.4797],[-11.3347,28.4997],[-11.3259,28.5152],[-11.2665,28.5516],[-11.2196,28.6025],[-11.2118,28.6168],[-11.1703,28.6397],[-11.1625,28.6474],[-11.1542,28.6611],[-11.1492,28.6677],[-11.115,28.6918],[-11.1116,28.6957],[-11.0911,28.7263],[-11.0631,28.7524],[-11.0476,28.7617],[-10.7626,28.8902],[-10.6942,28.9306],[-10.6124,28.9677],[-10.5738,28.9904],[-10.4509,29.0922],[-10.3991,29.1612],[-10.3989,29.1612],[-10.3331,29.1311],[-10.2624,29.1342],[-10.237,29.1285],[-10.2088,29.1192],[-10.1851,29.0987],[-10.1454,29.0759],[-10.0979,29.0789],[-10.0237,29.1388],[-9.9741,29.1607],[-9.9242,29.1737],[-9.8719,29.1661],[-9.8272,29.2108],[-9.8122,29.2522],[-9.7869,29.2803],[-9.7253,29.3012],[-9.6795,29.2828],[-9.6312,29.2693],[-9.5824,29.2767],[-9.5099,29.3209],[-9.464,29.3228],[-9.4148,29.3163],[-9.3577,29.323],[-9.3058,29.3377],[-9.2193,29.354],[-9.1885,29.3559],[-9.17,29.3364],[-9.149,29.333],[-9.1227,29.3777],[-9.0774,29.4249],[-8.9818,29.4507],[-8.8751,29.4569],[-8.7394,29.4048],[-8.7034,29.4202],[-8.6699,29.4269],[-8.6457,29.4423],[-8.6513,29.4732],[-8.6783,29.5267],[-8.695,29.5848],[-8.697,29.7635],[-8.7009,29.7923],[-8.6936,29.8184],[-8.6708,29.8443],[-8.6835,29.8663],[-8.6872,29.8973],[-8.6709,29.9273],[-8.6441,29.9633],[-8.5731,29.9671],[-8.5119,29.9497],[-8.3667,29.9555],[-8.2988,29.997],[-8.2178,30.0079],[-8.1551,30.0069],[-8.1003,29.9813],[-8.0554,29.9965],[-8.0192,30.0267],[-7.9983,30.0766],[-7.9673,30.1158],[-7.921,30.1288],[-7.76,30.1295],[-7.7214,30.1652],[-7.6782,30.193],[-7.6273,30.219],[-7.5392,30.2303],[-7.5039,30.2245],[-7.4671,30.2238],[-7.4307,30.2084],[-7.3247,30.1907],[-7.2894,30.2371],[-7.2607,30.2915],[-7.2189,30.3553],[-7.1772,30.3923],[-7.1003,30.3885],[-7.035,30.3687],[-6.9598,30.3703],[-6.9109,30.3764],[-6.8762,30.4019],[-6.8435,30.4525],[-6.7984,30.47],[-6.7156,30.487],[-6.6607,30.4686],[-6.5823,30.4163],[-6.5267,30.3524],[-6.545,30.3196],[-6.5733,30.2462],[-6.5688,30.2033],[-6.5394,30.1055],[-6.5112,30.0709],[-6.4529,30.0612],[-6.4149,30.0481],[-6.4191,30.0195],[-6.4851,29.9254],[-6.4948,29.8894],[-6.4752,29.8326],[-6.3439,29.5721],[-6.4131,29.5651],[-6.5599,29.5302],[-6.6996,29.5162],[-6.7835,29.4463],[-6.9582,29.5092],[-7.0701,29.5162],[-7.1469,29.5092],[-7.2588,29.4673],[-7.3496,29.3834],[-7.4633,29.3891],[-7.4841,29.3824],[-7.5061,29.3802],[-7.5285,29.3809],[-7.5727,29.3876],[-7.6195,29.3894],[-7.6536,29.3762],[-7.7147,29.3218],[-7.73,29.3112],[-7.778,29.2893],[-7.8391,29.239],[-7.945,29.1762],[-8.0363,29.0999],[-8.0697,29.0793],[-8.1823,29.0355],[-8.2505,28.9948],[-8.3168,28.9391],[-8.3333,28.9304],[-8.3685,28.9165],[-8.3835,28.9058],[-8.4178,28.8523],[-8.4304,28.841],[-8.4758,28.8188],[-8.5208,28.7871],[-8.6488,28.7259],[-8.6676,28.7117],[-8.6788,28.6928],[-8.6824,28.6659],[-8.6824,28.6202],[-8.6824,28.5603],[-8.6824,28.5004],[-8.6824,28.4405],[-8.6824,28.3805],[-8.6824,28.3206],[-8.6824,28.2607],[-8.6824,28.2008],[-8.6824,28.1409],[-8.6824,28.0809],[-8.6824,28.021],[-8.6824,27.9611],[-8.6824,27.9011],[-8.6824,27.8412],[-8.6824,27.7814],[-8.6824,27.7214],[-8.6824,27.6614],[-8.7526,27.6614],[-8.8165,27.6615],[-8.817,27.6615]]]}},{"type":"Feature","properties":{"id":"MAR-3456","name":"Laâyoune - Boujdour - Sakia El Hamra","nameBn":"লয়োনি বুজদোর সাকিয়া এল হামরা","type":"Region","bounds":[-15.0122,24.394,-11.5437,28.2101],"center":[-13.278,25.9492]},"geometry":{"type":"Polygon","coordinates":[[[-12.0562,25.9953],[-12.06,25.9903],[-12.0801,25.92],[-12.0801,25.8702],[-12.1001,25.8302],[-12.1298,25.7305],[-12.1699,25.6397],[-12.2002,25.5196],[-12.2299,25.42],[-12.27,25.2598],[-12.31,25.1104],[-12.3598,24.9698],[-12.3999,24.88],[-12.4301,24.8302],[-12.5,24.7696],[-12.56,24.7305],[-12.6298,24.6798],[-12.7099,24.63],[-12.8198,24.5704],[-12.9101,24.5196],[-12.9469,24.4967],[-13.0642,24.5186],[-13.1506,24.5243],[-13.2335,24.5198],[-13.3143,24.5058],[-13.6435,24.4024],[-13.6848,24.394],[-13.7264,24.398],[-13.8104,24.4279],[-13.9492,24.461],[-14.0591,24.4802],[-14.1422,24.4844],[-14.3065,24.4708],[-14.3862,24.4533],[-14.5912,24.4077],[-14.6328,24.4058],[-14.6785,24.4208],[-14.7136,24.4531],[-14.7435,24.4961],[-14.7856,24.526],[-14.8917,24.5614],[-15.0004,24.5872],[-15.0122,24.5915],[-15.0,24.6145],[-14.9762,24.6414],[-14.9521,24.6592],[-14.927,24.6718],[-14.9078,24.6855],[-14.8956,24.7057],[-14.8859,24.7707],[-14.8619,24.8301],[-14.8534,24.8766],[-14.8397,24.9053],[-14.836,24.9187],[-14.838,24.9351],[-14.842,24.9503],[-14.8432,24.9653],[-14.836,24.9814],[-14.8435,24.9876],[-14.8372,25.0017],[-14.8326,25.0176],[-14.8297,25.0342],[-14.8292,25.0502],[-14.8319,25.0657],[-14.8414,25.0876],[-14.8435,25.1005],[-14.8424,25.189],[-14.8497,25.2142],[-14.8192,25.3302],[-14.8121,25.3461],[-14.7821,25.4469],[-14.7362,25.5055],[-14.7231,25.5158],[-14.7149,25.5256],[-14.6852,25.5909],[-14.6783,25.6356],[-14.6763,25.6419],[-14.6669,25.6597],[-14.6614,25.6913],[-14.621,25.7836],[-14.5465,25.8792],[-14.5195,25.9238],[-14.5139,25.937],[-14.5111,25.9569],[-14.495,26.0016],[-14.4866,26.0154],[-14.4903,26.0315],[-14.4804,26.0878],[-14.4833,26.1025],[-14.4928,26.1327],[-14.4901,26.1427],[-14.4823,26.1539],[-14.4718,26.1831],[-14.4661,26.1942],[-14.4101,26.2601],[-14.4007,26.2663],[-14.3532,26.2759],[-14.2989,26.3022],[-14.2159,26.3755],[-14.2021,26.3922],[-14.1928,26.4095],[-14.1802,26.4244],[-14.1571,26.4338],[-14.0469,26.4444],[-14.0277,26.4524],[-13.9237,26.5009],[-13.742,26.6181],[-13.62,26.6889],[-13.5611,26.7491],[-13.5009,26.8583],[-13.4803,26.9117],[-13.461,26.9927],[-13.432,27.0508],[-13.4025,27.1772],[-13.3837,27.2153],[-13.3011,27.3244],[-13.3008,27.33],[-13.3078,27.3393],[-13.3079,27.345],[-13.2943,27.3518],[-13.2408,27.4654],[-13.2076,27.5675],[-13.2054,27.5886],[-13.2008,27.6065],[-13.181,27.6448],[-13.1783,27.6625],[-13.1782,27.6628],[-13.1776,27.6671],[-13.1713,27.685],[-13.1605,27.6946],[-13.1304,27.7081],[-13.098,27.7322],[-13.0614,27.7429],[-13.0452,27.7598],[-13.003,27.821],[-12.9796,27.8937],[-12.9681,27.9146],[-12.9524,27.9286],[-12.9331,27.9387],[-12.8389,27.9704],[-12.6578,27.998],[-12.5135,27.9954],[-12.335,28.0473],[-12.0614,28.089],[-12.0504,28.096],[-12.0279,28.1169],[-12.0231,28.1196],[-12.0056,28.1232],[-11.7824,28.2101],[-11.7823,28.2101],[-11.78,28.207],[-11.7053,28.0711],[-11.6617,28.0138],[-11.5537,27.8346],[-11.5437,27.7901],[-11.6707,27.7388],[-11.7989,27.6667],[-11.8132,27.6622],[-11.927,27.5751],[-12.034,27.4405],[-12.153,27.1192],[-12.2618,26.9115],[-12.3125,26.844],[-12.4865,26.6821],[-12.5288,26.6171],[-12.561,26.5409],[-12.5716,26.5026],[-12.5774,26.46],[-12.5734,26.4246],[-12.5607,26.3896],[-12.4974,26.2318],[-12.445,25.9926],[-12.0562,25.9953]]]}},{"type":"Feature","properties":{"id":"MAR-1456","name":"Marrakech - Tensift - Al Haouz","nameBn":"মারাকেশ টেন্সিফট এল হাঊজ","type":"Region","bounds":[-9.8475,30.8294,-7.0276,32.834],"center":[-8.4375,31.3472]},"geometry":{"type":"Polygon","coordinates":[[[-9.8236,30.96],[-9.8277,31.0675],[-9.8315,31.0854],[-9.8475,31.1213],[-9.835,31.1448],[-9.8089,31.2862],[-9.8066,31.3435],[-9.8109,31.3668],[-9.8215,31.3795],[-9.8348,31.3888],[-9.8475,31.4024],[-9.8162,31.4368],[-9.793,31.4713],[-9.7696,31.5315],[-9.7582,31.5458],[-9.7396,31.56],[-9.7333,31.5674],[-9.7277,31.5851],[-9.7136,31.5978],[-9.7076,31.6093],[-9.6942,31.6257],[-9.6893,31.6352],[-9.6752,31.7154],[-9.6673,31.7311],[-9.5758,31.8161],[-9.5354,31.8645],[-9.5279,31.8712],[-9.5133,31.8808],[-9.505,31.8884],[-9.4974,31.8981],[-9.4887,31.9154],[-9.4838,31.9226],[-9.4588,31.9446],[-9.4556,31.9425],[-9.4172,31.9218],[-9.3834,31.9113],[-9.3338,31.9029],[-9.1844,31.9302],[-9.0556,31.9089],[-9.0221,31.8742],[-9.008,31.8387],[-8.969,31.7983],[-8.8572,31.765],[-8.8004,31.7673],[-8.6812,31.7615],[-8.5669,31.7449],[-8.5027,31.7504],[-8.4495,31.7736],[-8.3336,31.9896],[-8.275,32.0561],[-8.2637,32.1118],[-8.278,32.1429],[-8.3915,32.2009],[-8.4243,32.2435],[-8.4495,32.2888],[-8.4505,32.335],[-8.4103,32.3692],[-8.3741,32.3886],[-8.3325,32.4196],[-8.2923,32.4353],[-8.2457,32.4677],[-8.1992,32.4909],[-8.1435,32.5306],[-8.0915,32.5826],[-8.0728,32.6399],[-8.0752,32.6917],[-8.0511,32.7874],[-8.0316,32.8126],[-7.9902,32.834],[-7.9681,32.8019],[-7.9088,32.7364],[-7.8727,32.7031],[-7.8293,32.6816],[-7.75,32.6264],[-7.6458,32.5045],[-7.6211,32.4892],[-7.6014,32.4865],[-7.5764,32.4796],[-7.4455,32.4746],[-7.3718,32.4589],[-7.3352,32.4323],[-7.3004,32.4162],[-7.1959,32.3561],[-7.1267,32.3466],[-7.109,32.3052],[-7.1144,32.2667],[-7.109,32.2181],[-7.1132,32.1534],[-7.0977,32.0655],[-7.058,31.979],[-7.0276,31.8819],[-7.0408,31.8291],[-7.0805,31.7859],[-7.2239,31.7594],[-7.2688,31.7347],[-7.2844,31.6969],[-7.2568,31.6565],[-7.1787,31.5821],[-7.1499,31.5621],[-7.1865,31.4472],[-7.205,31.4336],[-7.2347,31.4165],[-7.2688,31.3812],[-7.3263,31.3406],[-7.6682,31.2023],[-7.7071,31.1787],[-7.7555,31.1697],[-7.8251,31.1401],[-7.8901,31.0955],[-7.9452,31.0403],[-7.9894,30.9751],[-8.0338,30.9464],[-8.0814,30.9442],[-8.1644,30.9555],[-8.2214,30.935],[-8.3603,30.8987],[-8.5963,30.8977],[-8.6694,30.8908],[-8.7257,30.8789],[-8.7507,30.8778],[-8.7693,30.8943],[-8.7753,30.9291],[-8.7926,30.953],[-8.8201,30.9688],[-8.8603,30.9574],[-8.964,30.9024],[-9.0049,30.872],[-9.0485,30.8554],[-9.1237,30.8456],[-9.2367,30.8472],[-9.3307,30.8826],[-9.4476,30.8766],[-9.5477,30.8819],[-9.587,30.8555],[-9.6434,30.8301],[-9.6904,30.8294],[-9.7269,30.8617],[-9.7682,30.926],[-9.8234,30.9598],[-9.8236,30.96]]]}},{"type":"Feature","properties":{"id":"MAR-1452","name":"Meknès - Tafilalet","nameBn":"মেকনেস-টাফিলালেট","type":"Region","bounds":[-6.4198,30.2291,-3.1523,34.2806],"center":[-4.786,31.7916]},"geometry":{"type":"Polygon","coordinates":[[[-3.1617,31.7325],[-3.2192,31.7177],[-3.5116,31.6727],[-3.5487,31.67],[-3.5914,31.6783],[-3.6595,31.6478],[-3.6735,31.3892],[-3.7475,31.3852],[-3.8025,31.3506],[-3.8152,31.3372],[-3.8192,31.3189],[-3.8129,31.2434],[-3.815,31.2205],[-3.8362,31.1898],[-3.8428,31.1702],[-3.8393,31.1528],[-3.8275,31.1438],[-3.8108,31.1429],[-3.793,31.1497],[-3.7637,31.1734],[-3.7489,31.1802],[-3.7314,31.1763],[-3.7171,31.1633],[-3.6897,31.1256],[-3.6719,31.1109],[-3.6359,31.0957],[-3.6241,31.0865],[-3.6145,31.068],[-3.6101,31.0503],[-3.6087,31.0309],[-3.5547,30.9559],[-3.6106,30.879],[-3.6595,30.8371],[-3.6525,30.7742],[-3.6455,30.7113],[-3.8342,30.6275],[-4.002,30.5925],[-4.1557,30.5855],[-4.2745,30.5576],[-4.3724,30.5086],[-4.4842,30.3828],[-4.624,30.285],[-4.7707,30.2291],[-4.9251,30.319],[-5.0314,30.3809],[-5.1107,30.4378],[-5.1627,30.4546],[-5.2191,30.4979],[-5.2271,30.5598],[-5.2077,30.6029],[-5.2059,30.6531],[-5.2429,30.6895],[-5.2795,30.734],[-5.2963,30.7712],[-5.3301,30.8034],[-5.361,30.8242],[-5.3632,30.8715],[-5.3595,30.9064],[-5.3326,30.9291],[-5.3028,30.9987],[-5.3102,31.0488],[-5.3043,31.1109],[-5.2333,31.3016],[-5.2138,31.4124],[-5.2526,31.4745],[-5.406,31.5656],[-5.4541,31.6089],[-5.5137,31.6284],[-5.5651,31.6384],[-5.6399,31.6232],[-5.694,31.6251],[-5.7356,31.6384],[-5.7127,31.7047],[-5.6211,31.7999],[-5.5719,31.8748],[-5.5885,31.938],[-5.6585,31.9697],[-5.8059,31.9302],[-5.8287,31.9852],[-5.8596,32.0134],[-5.8516,32.0577],[-5.8211,32.1021],[-5.7473,32.1415],[-5.6379,32.2147],[-5.596,32.2318],[-5.5559,32.2436],[-5.4761,32.2452],[-5.4684,32.2621],[-5.4976,32.3189],[-5.504,32.3525],[-5.5273,32.3899],[-5.5078,32.4402],[-5.4773,32.4699],[-5.4402,32.4945],[-5.4373,32.5079],[-5.5223,32.5288],[-5.6523,32.6033],[-5.7747,32.6432],[-5.8995,32.7441],[-6.0417,32.7931],[-6.0428,32.8353],[-6.0371,32.8571],[-6.0575,32.8972],[-6.0866,32.9102],[-6.1368,32.9108],[-6.1535,32.9259],[-6.1491,32.964],[-6.1413,32.9831],[-6.1327,33.0118],[-6.2028,33.0778],[-6.3226,33.1509],[-6.36,33.1673],[-6.4035,33.1954],[-6.4198,33.2383],[-6.3933,33.268],[-6.4024,33.3139],[-6.4085,33.335],[-6.402,33.3626],[-6.3993,33.3825],[-6.3685,33.433],[-6.3536,33.4683],[-6.3286,33.4754],[-6.3013,33.4726],[-6.2348,33.4536],[-6.213,33.4381],[-6.2116,33.4172],[-6.2083,33.3987],[-6.2098,33.3801],[-6.1975,33.3659],[-6.1493,33.3519],[-6.1246,33.3483],[-6.0985,33.3413],[-6.0801,33.3296],[-6.0242,33.3156],[-5.9981,33.3158],[-5.9779,33.3269],[-5.9495,33.3324],[-5.8354,33.3277],[-5.8075,33.3369],[-5.7881,33.3503],[-5.7994,33.3648],[-5.8058,33.383],[-5.807,33.401],[-5.8051,33.4259],[-5.8065,33.4481],[-5.7995,33.4758],[-5.8036,33.5014],[-5.7899,33.532],[-5.7862,33.5661],[-5.7891,33.5981],[-5.789,33.6196],[-5.7675,33.6768],[-5.7395,33.7188],[-5.7245,33.788],[-5.7356,33.8124],[-5.7537,33.8291],[-5.7618,33.8501],[-5.778,33.8682],[-5.7865,33.886],[-5.7598,33.9555],[-5.7719,33.9807],[-5.7943,34.0051],[-5.8121,34.0291],[-5.8136,34.0502],[-5.8372,34.0881],[-5.8486,34.1006],[-5.8851,34.1167],[-5.8622,34.1483],[-5.8302,34.1671],[-5.8182,34.1898],[-5.8006,34.2011],[-5.7888,34.2119],[-5.7421,34.192],[-5.7286,34.1768],[-5.71,34.1646],[-5.7028,34.1425],[-5.6786,34.1336],[-5.6482,34.1298],[-5.6071,34.1315],[-5.5712,34.1294],[-5.4687,34.1654],[-5.4505,34.1783],[-5.4475,34.195],[-5.4545,34.2128],[-5.4205,34.2806],[-5.3788,34.229],[-5.3522,34.1978],[-5.3404,34.1627],[-5.3322,34.1268],[-5.3294,34.1022],[-5.3133,34.0897],[-5.287,34.0926],[-5.2701,34.1034],[-5.2477,34.1089],[-5.2347,34.0876],[-5.192,34.0016],[-5.1071,33.8759],[-5.0879,33.8363],[-5.1029,33.8121],[-5.1518,33.749],[-5.1484,33.7179],[-5.1191,33.6931],[-4.9768,33.666],[-4.9327,33.6385],[-4.9041,33.5941],[-4.8979,33.5407],[-4.98,33.4591],[-4.9941,33.4169],[-4.8641,33.1271],[-4.7804,33.0236],[-4.7631,32.9842],[-4.7549,32.9504],[-4.7194,32.9255],[-4.6388,32.9071],[-4.5561,32.9021],[-4.4935,32.8845],[-4.3974,32.8022],[-4.2998,32.6855],[-4.2793,32.6527],[-4.2371,32.6291],[-4.1874,32.6132],[-4.1066,32.6195],[-4.0689,32.6145],[-3.9992,32.6173],[-3.9377,32.5387],[-3.911,32.4926],[-3.8449,32.4096],[-3.8022,32.335],[-3.788,32.2843],[-3.7471,32.2626],[-3.7342,32.2205],[-3.696,32.189],[-3.6846,32.1531],[-3.6575,32.1412],[-3.6006,32.1518],[-3.5566,32.1688],[-3.5292,32.1848],[-3.4883,32.1856],[-3.4404,32.1739],[-3.4068,32.1621],[-3.3625,32.1528],[-3.3162,32.1612],[-3.2693,32.1641],[-3.2292,32.1543],[-3.2483,32.105],[-3.2501,32.0215],[-3.2399,31.9576],[-3.1919,31.8644],[-3.1523,31.8388],[-3.1602,31.7876],[-3.1617,31.7325]]]}},{"type":"Feature","properties":{"id":"MAR-1454","name":"Oriental","nameBn":"ওরিয়েন্টাল","type":"Region","bounds":[-3.9992,31.7325,-1.032,35.4464],"center":[-2.5158,33.6161]},"geometry":{"type":"Polygon","coordinates":[[[-2.9478,35.3298],[-2.9669,35.3139],[-2.9638,35.2862],[-2.943,35.2679],[-2.9129,35.2769],[-2.899,35.26],[-2.9079,35.251],[-2.9123,35.2358],[-2.9133,35.2191],[-2.9098,35.1867],[-2.9051,35.1736],[-2.8964,35.1618],[-2.882,35.1467],[-2.8561,35.1313],[-2.821,35.1219],[-2.7481,35.116],[-2.7918,35.1452],[-2.8683,35.2174],[-2.8832,35.2385],[-2.8784,35.2463],[-2.8649,35.2376],[-2.8164,35.1945],[-2.8087,35.1838],[-2.7611,35.1433],[-2.7183,35.123],[-2.6667,35.1082],[-2.5632,35.0961],[-2.5175,35.0994],[-2.4933,35.1044],[-2.4772,35.1126],[-2.4561,35.1325],[-2.4371,35.1451],[-2.4167,35.1492],[-2.3214,35.1188],[-2.2991,35.116],[-2.2753,35.1096],[-2.2487,35.0972],[-2.2226,35.0893],[-2.2211,35.05],[-2.2117,35.0234],[-2.1938,35.0036],[-2.1633,34.994],[-2.126,34.9719],[-2.0949,34.9477],[-2.0612,34.9297],[-2.0163,34.9262],[-2.0036,34.9182],[-1.9997,34.9063],[-1.9984,34.8927],[-1.9935,34.8789],[-1.9797,34.8653],[-1.9267,34.8381],[-1.8928,34.8117],[-1.7877,34.7567],[-1.7695,34.7413],[-1.7731,34.7341],[-1.7861,34.7258],[-1.8105,34.6807],[-1.863,34.6136],[-1.8711,34.5966],[-1.7507,34.4942],[-1.7142,34.4851],[-1.703,34.4797],[-1.8096,34.3725],[-1.7713,34.3347],[-1.7461,34.2903],[-1.6748,34.106],[-1.6721,34.092],[-1.6696,34.0792],[-1.6721,34.0592],[-1.7187,33.8981],[-1.7221,33.8512],[-1.713,33.802],[-1.7025,33.7728],[-1.7032,33.7618],[-1.7108,33.7471],[-1.7209,33.7364],[-1.7326,33.7279],[-1.7422,33.7178],[-1.7468,33.7024],[-1.7407,33.6866],[-1.7254,33.6777],[-1.6907,33.6673],[-1.6733,33.6565],[-1.6624,33.6447],[-1.6173,33.5544],[-1.6127,33.5215],[-1.6254,33.4942],[-1.6404,33.4755],[-1.6591,33.4198],[-1.6728,33.3946],[-1.6832,33.3692],[-1.6834,33.2708],[-1.6742,33.238],[-1.6236,33.1966],[-1.6056,33.168],[-1.5921,33.1366],[-1.5714,33.112],[-1.5455,33.0918],[-1.5164,33.074],[-1.4995,33.0602],[-1.4931,33.0395],[-1.4934,33.0162],[-1.4965,32.9943],[-1.4988,32.984],[-1.503,32.9746],[-1.5089,32.9663],[-1.5164,32.9595],[-1.5588,32.9337],[-1.4233,32.7424],[-1.3905,32.7188],[-1.327,32.6989],[-1.0475,32.517],[-1.032,32.4944],[-1.09,32.4394],[-1.1232,32.4179],[-1.1603,32.4049],[-1.2017,32.3999],[-1.218,32.3926],[-1.2342,32.3746],[-1.2441,32.3569],[-1.2575,32.3208],[-1.2734,32.2294],[-1.2755,32.2175],[-1.2752,32.2091],[-1.2766,32.2009],[-1.283,32.1902],[-1.2892,32.1849],[-1.3057,32.1737],[-1.3096,32.1674],[-1.3052,32.1512],[-1.289,32.1509],[-1.2518,32.1635],[-1.2327,32.1637],[-1.2118,32.1583],[-1.1956,32.146],[-1.1906,32.1252],[-1.2103,32.0897],[-1.2496,32.0817],[-1.325,32.0847],[-1.3334,32.0851],[-1.3574,32.0861],[-1.3954,32.0876],[-1.4456,32.0895],[-1.5063,32.0919],[-1.5758,32.0947],[-1.6524,32.0978],[-1.7343,32.1011],[-1.82,32.1045],[-1.9076,32.108],[-1.9955,32.1115],[-2.0819,32.1149],[-2.1651,32.1183],[-2.2434,32.1214],[-2.3152,32.1243],[-2.3786,32.1268],[-2.5161,32.1322],[-2.6956,32.0897],[-2.8812,32.0763],[-2.9387,32.0486],[-2.8698,31.8924],[-2.8278,31.7946],[-3.0026,31.7736],[-3.1617,31.7325],[-3.1602,31.7876],[-3.1523,31.8388],[-3.1919,31.8644],[-3.2399,31.9576],[-3.2501,32.0215],[-3.2483,32.105],[-3.2292,32.1543],[-3.2693,32.1641],[-3.3162,32.1612],[-3.3625,32.1528],[-3.4068,32.1621],[-3.4404,32.1739],[-3.4883,32.1856],[-3.5292,32.1848],[-3.5566,32.1688],[-3.6006,32.1518],[-3.6575,32.1412],[-3.6846,32.1531],[-3.696,32.189],[-3.7342,32.2205],[-3.7471,32.2626],[-3.788,32.2843],[-3.8022,32.335],[-3.8449,32.4096],[-3.911,32.4926],[-3.9377,32.5387],[-3.9992,32.6173],[-3.9802,32.6589],[-3.9562,32.6941],[-3.9076,32.7523],[-3.8611,32.823],[-3.678,33.0296],[-3.5983,33.0872],[-3.546,33.0981],[-3.4921,33.1026],[-3.4324,33.0969],[-3.3194,33.1017],[-3.0338,33.1486],[-2.9777,33.1744],[-2.9261,33.211],[-2.9396,33.2671],[-2.983,33.342],[-3.0898,33.4395],[-3.2144,33.5126],[-3.2374,33.5439],[-3.2201,33.57],[-3.1118,33.656],[-3.0606,33.7175],[-3.0507,33.7543],[-3.0699,33.7697],[-3.1024,33.7851],[-3.1946,33.946],[-3.2103,33.996],[-3.2028,34.0253],[-3.11,34.0608],[-3.0833,34.0956],[-3.0695,34.1457],[-3.0946,34.2024],[-3.1101,34.2581],[-3.1726,34.3287],[-3.1961,34.3637],[-3.1941,34.391],[-3.194,34.4016],[-3.1856,34.4138],[-3.1708,34.4263],[-3.0977,34.4675],[-3.091,34.4759],[-3.0886,34.4838],[-3.0847,34.4903],[-3.0741,34.4947],[-3.0693,34.4983],[-3.067,34.5071],[-3.0639,34.5096],[-3.0396,34.5765],[-3.0403,34.5959],[-3.025,34.6099],[-3.0004,34.6163],[-2.9773,34.6151],[-2.9611,34.6105],[-2.9491,34.6209],[-2.9618,34.6414],[-2.9667,34.6615],[-2.9704,34.6862],[-2.9856,34.7067],[-3.1984,34.7773],[-3.2721,34.7733],[-3.308,34.7481],[-3.3302,34.7212],[-3.3642,34.6881],[-3.5114,34.5935],[-3.5448,34.5926],[-3.5944,34.6304],[-3.6227,34.6429],[-3.6325,34.6631],[-3.6335,34.684],[-3.6255,34.7018],[-3.6089,34.7176],[-3.6078,34.7395],[-3.5996,34.7686],[-3.5959,34.796],[-3.6114,34.8408],[-3.6909,34.8643],[-3.7303,34.8714],[-3.7814,34.9006],[-3.8106,34.9309],[-3.8245,35.1283],[-3.8143,35.1637],[-3.8218,35.1997],[-3.8219,35.2068],[-3.7875,35.2092],[-3.7648,35.2185],[-3.7555,35.2364],[-3.7471,35.2637],[-3.7262,35.2823],[-3.6996,35.2908],[-3.6736,35.2879],[-3.6542,35.277],[-3.6122,35.2453],[-3.591,35.2333],[-3.516,35.2235],[-3.4893,35.211],[-3.4774,35.2107],[-3.4648,35.2118],[-3.4538,35.2116],[-3.4429,35.2086],[-3.4232,35.2008],[-3.4129,35.1979],[-3.362,35.1945],[-3.3192,35.2018],[-3.1951,35.2382],[-3.1739,35.2491],[-3.1287,35.2886],[-3.118,35.2941],[-3.1097,35.2936],[-3.1004,35.2895],[-3.0897,35.2863],[-3.0771,35.2879],[-3.0454,35.3144],[-3.0063,35.3935],[-2.9808,35.4245],[-2.9828,35.435],[-2.9779,35.4433],[-2.9686,35.4464],[-2.9567,35.4412],[-2.9522,35.4331],[-2.9576,35.4158],[-2.953,35.404],[-2.963,35.3735],[-2.9498,35.3349],[-2.9481,35.3303],[-2.9478,35.3298]]]}},{"type":"Feature","properties":{"id":"MAR-3469","name":"Oued el Dahab","nameBn":"ওউড এড-ডাহাব প্রদেশ","type":"Region","bounds":[-17.0137,21.42,-12.9469,24.5915],"center":[-14.9815,23.0116]},"geometry":{"type":"Polygon","coordinates":[[[-12.9469,24.4967],[-12.9902,24.4698],[-13.06,24.4005],[-13.1201,24.2999],[-13.1601,24.2198],[-13.23,24.0899],[-13.2798,24.0196],[-13.31,23.9806],[-13.3901,23.9405],[-13.4799,23.9102],[-13.58,23.8702],[-13.6601,23.8301],[-13.77,23.7901],[-13.8398,23.7501],[-13.8901,23.6905],[-13.9301,23.6202],[-13.9799,23.5196],[-14.02,23.4103],[-14.04,23.3399],[-14.1001,23.0997],[-14.1201,22.96],[-14.1401,22.8702],[-14.1699,22.7599],[-14.1899,22.5899],[-14.1899,22.4503],[-14.21,22.3702],[-14.2202,22.3096],[-14.27,22.2403],[-14.3101,22.1905],[-14.3798,22.1202],[-14.4399,22.0802],[-14.4599,22.0401],[-14.52,21.9903],[-14.58,21.9102],[-14.6299,21.8604],[-14.6201,21.8204],[-14.6098,21.7501],[-14.6401,21.6798],[-14.6699,21.5997],[-14.75,21.5001],[-14.8398,21.4503],[-14.9702,21.4405],[-15.1499,21.4405],[-15.29,21.4503],[-15.4599,21.4503],[-15.6098,21.4698],[-15.75,21.4903],[-15.9199,21.5001],[-16.04,21.5001],[-16.1899,21.4806],[-16.58,21.4806],[-16.73,21.4698],[-16.9501,21.4298],[-17.0137,21.42],[-17.0128,21.4452],[-16.9711,21.5926],[-16.9669,21.6365],[-16.9703,21.6745],[-16.968,21.6973],[-16.9511,21.7248],[-16.9477,21.736],[-16.9464,21.7483],[-16.947,21.76],[-16.9503,21.7654],[-16.9632,21.7756],[-16.9669,21.7812],[-16.9615,21.7958],[-16.9569,21.8257],[-16.9378,21.8666],[-16.9298,21.9079],[-16.921,21.9313],[-16.8166,22.1306],[-16.7807,22.1657],[-16.7751,22.175],[-16.7734,22.181],[-16.7621,22.205],[-16.7563,22.2102],[-16.7399,22.2211],[-16.7341,22.2268],[-16.7179,22.261],[-16.7068,22.2755],[-16.6826,22.2841],[-16.6772,22.2895],[-16.6703,22.2944],[-16.659,22.2951],[-16.6503,22.2917],[-16.6426,22.286],[-16.6317,22.2739],[-16.5218,22.3149],[-16.5022,22.3299],[-16.4822,22.3523],[-16.4666,22.3774],[-16.4315,22.4931],[-16.4294,22.5104],[-16.4195,22.5218],[-16.3698,22.5683],[-16.3573,22.5831],[-16.3444,22.647],[-16.3414,22.732],[-16.3368,22.7537],[-16.3249,22.7895],[-16.3165,22.8061],[-16.2965,22.8321],[-16.2963,22.8422],[-16.3,22.8502],[-16.3021,22.8568],[-16.3022,22.8683],[-16.3006,22.8751],[-16.2917,22.8935],[-16.2896,22.8998],[-16.2848,22.9034],[-16.2626,22.9056],[-16.2386,22.9116],[-16.2065,22.938],[-16.173,22.9735],[-16.1632,22.9932],[-16.1565,23.0135],[-16.1526,23.0352],[-16.1513,23.0591],[-16.1595,23.0825],[-16.1791,23.0861],[-16.2202,23.0759],[-16.2131,23.0944],[-16.196,23.1262],[-16.1867,23.1379],[-16.1393,23.1785],[-16.1351,23.1851],[-16.0604,23.3446],[-16.0491,23.3581],[-16.0383,23.3639],[-16.0255,23.3749],[-15.9812,23.4458],[-15.9672,23.5129],[-15.9565,23.5317],[-15.9413,23.5513],[-15.9055,23.6103],[-15.8571,23.6618],[-15.8539,23.6679],[-15.8374,23.6793],[-15.8304,23.686],[-15.8251,23.6967],[-15.8201,23.7172],[-15.8161,23.7276],[-15.8006,23.7506],[-15.7848,23.769],[-15.7726,23.7878],[-15.7677,23.8126],[-15.7655,23.8568],[-15.7692,23.8757],[-15.782,23.8983],[-15.7787,23.9037],[-15.7751,23.9119],[-15.7868,23.9039],[-15.788,23.8922],[-15.786,23.8784],[-15.7882,23.8642],[-15.7953,23.8566],[-15.8209,23.8403],[-15.8304,23.8362],[-15.8436,23.8359],[-15.8522,23.8381],[-15.8617,23.8362],[-15.8776,23.8232],[-15.8882,23.8107],[-15.8953,23.7988],[-15.9104,23.7653],[-15.9233,23.7436],[-15.9259,23.7372],[-15.9281,23.7252],[-15.9375,23.7052],[-15.9396,23.6962],[-15.9482,23.6843],[-15.9949,23.645],[-16.0098,23.6554],[-16.0032,23.6721],[-15.9812,23.6962],[-15.9758,23.7108],[-15.9396,23.7748],[-15.8776,23.8536],[-15.8712,23.8692],[-15.8568,23.8869],[-15.8409,23.9027],[-15.7681,23.9599],[-15.7357,23.9712],[-15.6926,23.9958],[-15.6796,24.0075],[-15.6466,24.0104],[-15.6201,24.0263],[-15.5992,24.0483],[-15.5833,24.0703],[-15.5423,24.1142],[-15.5144,24.1522],[-15.4761,24.1778],[-15.4597,24.1919],[-15.453,24.2102],[-15.4447,24.2219],[-15.3534,24.2911],[-15.2982,24.3452],[-15.2296,24.4407],[-15.204,24.4675],[-15.1719,24.4941],[-15.1536,24.5056],[-15.1334,24.5146],[-15.1127,24.5206],[-15.0694,24.5273],[-15.0483,24.5383],[-15.0148,24.5624],[-15.0154,24.5857],[-15.0122,24.5915],[-15.0004,24.5872],[-14.8917,24.5614],[-14.7856,24.526],[-14.7435,24.4961],[-14.7136,24.4531],[-14.6785,24.4208],[-14.6328,24.4058],[-14.5912,24.4077],[-14.3862,24.4533],[-14.3065,24.4708],[-14.1422,24.4844],[-14.0591,24.4802],[-13.9492,24.461],[-13.8104,24.4279],[-13.7264,24.398],[-13.6848,24.394],[-13.6435,24.4024],[-13.3143,24.5058],[-13.2335,24.5198],[-13.1506,24.5243],[-13.0642,24.5186],[-12.9469,24.4967]]]}},{"type":"Feature","properties":{"id":"MAR-1451","name":"Rabat - Salé - Zemmour - Zaer","nameBn":"রাবাত সালি জেমুর জায়ে","type":"Region","bounds":[-7.117,33.1879,-5.7245,34.1824],"center":[-6.4208,33.6986]},"geometry":{"type":"Polygon","coordinates":[[[-7.117,33.8349],[-7.1166,33.8349],[-7.0995,33.8403],[-7.0679,33.8637],[-7.0318,33.8743],[-6.9274,33.9442],[-6.8221,34.0396],[-6.7338,34.1626],[-6.7226,34.1824],[-6.7225,34.1824],[-6.6879,34.1572],[-6.6638,34.1558],[-6.6277,34.1363],[-6.5877,34.1307],[-6.5551,34.1203],[-6.5248,34.1305],[-6.4829,34.1372],[-6.4368,34.1598],[-6.3979,34.1585],[-6.3628,34.1686],[-6.3254,34.1619],[-6.2773,34.163],[-6.2022,34.1576],[-6.1339,34.1426],[-6.0699,34.1165],[-6.0171,34.1072],[-5.9719,34.1037],[-5.9408,34.1076],[-5.9171,34.1052],[-5.8851,34.1167],[-5.8486,34.1006],[-5.8372,34.0881],[-5.8136,34.0502],[-5.8121,34.0291],[-5.7943,34.0051],[-5.7719,33.9807],[-5.7598,33.9555],[-5.7865,33.886],[-5.778,33.8682],[-5.7618,33.8501],[-5.7537,33.8291],[-5.7356,33.8124],[-5.7245,33.788],[-5.7395,33.7188],[-5.7675,33.6768],[-5.789,33.6196],[-5.7891,33.5981],[-5.7862,33.5661],[-5.7899,33.532],[-5.8036,33.5014],[-5.7995,33.4758],[-5.8065,33.4481],[-5.8051,33.4259],[-5.807,33.401],[-5.8058,33.383],[-5.7994,33.3648],[-5.7881,33.3503],[-5.8075,33.3369],[-5.8354,33.3277],[-5.9495,33.3324],[-5.9779,33.3269],[-5.9981,33.3158],[-6.0242,33.3156],[-6.0801,33.3296],[-6.0985,33.3413],[-6.1246,33.3483],[-6.1493,33.3519],[-6.1975,33.3659],[-6.2098,33.3801],[-6.2083,33.3987],[-6.2116,33.4172],[-6.213,33.4381],[-6.2348,33.4536],[-6.3013,33.4726],[-6.3286,33.4754],[-6.3536,33.4683],[-6.3685,33.433],[-6.3993,33.3825],[-6.402,33.3626],[-6.4085,33.335],[-6.4024,33.3139],[-6.3933,33.268],[-6.4198,33.2383],[-6.5049,33.1978],[-6.5556,33.1879],[-6.6133,33.2118],[-6.7315,33.2428],[-6.7759,33.2617],[-6.8071,33.2828],[-6.8204,33.3301],[-6.8081,33.4121],[-6.8014,33.4227],[-6.8019,33.4416],[-6.8158,33.4661],[-6.8096,33.4939],[-6.7942,33.5115],[-6.7828,33.5347],[-6.7881,33.5525],[-6.8286,33.5612],[-6.8544,33.5719],[-6.9498,33.6017],[-6.9787,33.6141],[-7.0115,33.6786],[-7.0209,33.7136],[-7.0381,33.7517],[-7.0584,33.7843],[-7.0768,33.7958],[-7.1146,33.8331],[-7.117,33.8349]]]}},{"type":"Feature","properties":{"id":"MAR-1455","name":"Souss - Massa - Draâ","nameBn":"সৌচ-মাচা-দ্রায","type":"Region","bounds":[-10.3991,29.0759,-4.7707,31.9697],"center":[-7.7152,30.6732]},"geometry":{"type":"Polygon","coordinates":[[[-4.7707,30.2291],[-4.8756,30.1802],[-4.9594,30.1243],[-5.0713,30.0404],[-5.1761,29.9775],[-5.2739,29.8866],[-5.3438,29.7678],[-5.4347,29.642],[-5.5395,29.5232],[-5.6373,29.4953],[-5.7212,29.5232],[-5.7562,29.6141],[-5.882,29.6001],[-6.0008,29.5791],[-6.1266,29.5791],[-6.2733,29.5791],[-6.3439,29.5721],[-6.4752,29.8326],[-6.4948,29.8894],[-6.4851,29.9254],[-6.4191,30.0195],[-6.4149,30.0481],[-6.4529,30.0612],[-6.5112,30.0709],[-6.5394,30.1055],[-6.5688,30.2033],[-6.5733,30.2462],[-6.545,30.3196],[-6.5267,30.3524],[-6.5823,30.4163],[-6.6607,30.4686],[-6.7156,30.487],[-6.7984,30.47],[-6.8435,30.4525],[-6.8762,30.4019],[-6.9109,30.3764],[-6.9598,30.3703],[-7.035,30.3687],[-7.1003,30.3885],[-7.1772,30.3923],[-7.2189,30.3553],[-7.2607,30.2915],[-7.2894,30.2371],[-7.3247,30.1907],[-7.4307,30.2084],[-7.4671,30.2238],[-7.5039,30.2245],[-7.5392,30.2303],[-7.6273,30.219],[-7.6782,30.193],[-7.7214,30.1652],[-7.76,30.1295],[-7.921,30.1288],[-7.9673,30.1158],[-7.9983,30.0766],[-8.0192,30.0267],[-8.0554,29.9965],[-8.1003,29.9813],[-8.1551,30.0069],[-8.2178,30.0079],[-8.2988,29.997],[-8.3667,29.9555],[-8.5119,29.9497],[-8.5731,29.9671],[-8.6441,29.9633],[-8.6709,29.9273],[-8.6872,29.8973],[-8.6835,29.8663],[-8.6708,29.8443],[-8.6936,29.8184],[-8.7009,29.7923],[-8.697,29.7635],[-8.695,29.5848],[-8.6783,29.5267],[-8.6513,29.4732],[-8.6457,29.4423],[-8.6699,29.4269],[-8.7034,29.4202],[-8.7394,29.4048],[-8.8751,29.4569],[-8.9818,29.4507],[-9.0774,29.4249],[-9.1227,29.3777],[-9.149,29.333],[-9.17,29.3364],[-9.1885,29.3559],[-9.2193,29.354],[-9.3058,29.3377],[-9.3577,29.323],[-9.4148,29.3163],[-9.464,29.3228],[-9.5099,29.3209],[-9.5824,29.2767],[-9.6312,29.2693],[-9.6795,29.2828],[-9.7253,29.3012],[-9.7869,29.2803],[-9.8122,29.2522],[-9.8272,29.2108],[-9.8719,29.1661],[-9.9242,29.1737],[-9.9741,29.1607],[-10.0237,29.1388],[-10.0979,29.0789],[-10.1454,29.0759],[-10.1851,29.0987],[-10.2088,29.1192],[-10.237,29.1285],[-10.2624,29.1342],[-10.3331,29.1311],[-10.3989,29.1612],[-10.3991,29.1612],[-10.3479,29.2294],[-10.3209,29.258],[-10.302,29.2719],[-10.264,29.2841],[-10.2484,29.2994],[-10.2244,29.3331],[-10.1991,29.3613],[-10.1876,29.379],[-10.1827,29.3973],[-10.1776,29.4058],[-10.1418,29.4286],[-10.137,29.435],[-10.1282,29.456],[-10.087,29.51],[-10.0809,29.5211],[-10.0787,29.5423],[-10.0726,29.5647],[-10.0636,29.5849],[-10.053,29.5999],[-10.0053,29.6384],[-9.9978,29.6508],[-9.9917,29.6668],[-9.9499,29.716],[-9.8202,29.8389],[-9.7179,29.9966],[-9.6551,30.1269],[-9.6453,30.164],[-9.6284,30.2914],[-9.61,30.3578],[-9.6073,30.3776],[-9.6116,30.4044],[-9.6227,30.4174],[-9.6382,30.4267],[-9.6551,30.4422],[-9.6662,30.4593],[-9.6918,30.5096],[-9.7001,30.5427],[-9.7084,30.5475],[-9.7196,30.5485],[-9.7308,30.5521],[-9.7398,30.5599],[-9.7582,30.5868],[-9.8297,30.6286],[-9.8509,30.6296],[-9.874,30.634],[-9.8885,30.6483],[-9.8867,30.6867],[-9.8656,30.7243],[-9.839,30.7598],[-9.8202,30.7923],[-9.8137,30.8147],[-9.8129,30.8271],[-9.8168,30.8367],[-9.8238,30.8456],[-9.8244,30.852],[-9.8219,30.8591],[-9.8202,30.8711],[-9.8236,30.96],[-9.8234,30.9598],[-9.7682,30.926],[-9.7269,30.8617],[-9.6904,30.8294],[-9.6434,30.8301],[-9.587,30.8555],[-9.5477,30.8819],[-9.4476,30.8766],[-9.3307,30.8826],[-9.2367,30.8472],[-9.1237,30.8456],[-9.0485,30.8554],[-9.0049,30.872],[-8.964,30.9024],[-8.8603,30.9574],[-8.8201,30.9688],[-8.7926,30.953],[-8.7753,30.9291],[-8.7693,30.8943],[-8.7507,30.8778],[-8.7257,30.8789],[-8.6694,30.8908],[-8.5963,30.8977],[-8.3603,30.8987],[-8.2214,30.935],[-8.1644,30.9555],[-8.0814,30.9442],[-8.0338,30.9464],[-7.9894,30.9751],[-7.9452,31.0403],[-7.8901,31.0955],[-7.8251,31.1401],[-7.7555,31.1697],[-7.7071,31.1787],[-7.6682,31.2023],[-7.3263,31.3406],[-7.2688,31.3812],[-7.2347,31.4165],[-7.205,31.4336],[-7.1865,31.4472],[-7.145,31.4257],[-7.1095,31.4023],[-7.0473,31.3918],[-6.9837,31.3731],[-6.89,31.372],[-6.8039,31.3923],[-6.7487,31.4318],[-6.7026,31.4947],[-6.4811,31.5741],[-6.4313,31.5837],[-6.3669,31.6206],[-6.0563,31.7528],[-5.861,31.8683],[-5.8059,31.9302],[-5.6585,31.9697],[-5.5885,31.938],[-5.5719,31.8748],[-5.6211,31.7999],[-5.7127,31.7047],[-5.7356,31.6384],[-5.694,31.6251],[-5.6399,31.6232],[-5.5651,31.6384],[-5.5137,31.6284],[-5.4541,31.6089],[-5.406,31.5656],[-5.2526,31.4745],[-5.2138,31.4124],[-5.2333,31.3016],[-5.3043,31.1109],[-5.3102,31.0488],[-5.3028,30.9987],[-5.3326,30.9291],[-5.3595,30.9064],[-5.3632,30.8715],[-5.361,30.8242],[-5.3301,30.8034],[-5.2963,30.7712],[-5.2795,30.734],[-5.2429,30.6895],[-5.2059,30.6531],[-5.2077,30.6029],[-5.2271,30.5598],[-5.2191,30.4979],[-5.1627,30.4546],[-5.1107,30.4378],[-5.0314,30.3809],[-4.9251,30.319],[-4.7707,30.2291]]]}},{"type":"Feature","properties":{"id":"MAR-1453","name":"Tadla - Azilal","nameBn":"তাডলা-আজিলাল","type":"Region","bounds":[-7.2844,31.372,-5.4373,32.7931],"center":[-6.3609,32.1648]},"geometry":{"type":"Polygon","coordinates":[[[-6.0417,32.7931],[-5.8995,32.7441],[-5.7747,32.6432],[-5.6523,32.6033],[-5.5223,32.5288],[-5.4373,32.5079],[-5.4402,32.4945],[-5.4773,32.4699],[-5.5078,32.4402],[-5.5273,32.3899],[-5.504,32.3525],[-5.4976,32.3189],[-5.4684,32.2621],[-5.4761,32.2452],[-5.5559,32.2436],[-5.596,32.2318],[-5.6379,32.2147],[-5.7473,32.1415],[-5.8211,32.1021],[-5.8516,32.0577],[-5.8596,32.0134],[-5.8287,31.9852],[-5.8059,31.9302],[-5.861,31.8683],[-6.0563,31.7528],[-6.3669,31.6206],[-6.4313,31.5837],[-6.4811,31.5741],[-6.7026,31.4947],[-6.7487,31.4318],[-6.8039,31.3923],[-6.89,31.372],[-6.9837,31.3731],[-7.0473,31.3918],[-7.1095,31.4023],[-7.145,31.4257],[-7.1865,31.4472],[-7.1499,31.5621],[-7.1787,31.5821],[-7.2568,31.6565],[-7.2844,31.6969],[-7.2688,31.7347],[-7.2239,31.7594],[-7.0805,31.7859],[-7.0408,31.8291],[-7.0276,31.8819],[-7.058,31.979],[-7.0977,32.0655],[-7.1132,32.1534],[-7.109,32.2181],[-7.1144,32.2667],[-7.109,32.3052],[-7.1267,32.3466],[-7.0697,32.4073],[-7.0248,32.5016],[-6.9954,32.6101],[-6.9791,32.6389],[-6.9463,32.6466],[-6.8576,32.6906],[-6.8391,32.6876],[-6.7869,32.696],[-6.7252,32.6946],[-6.7043,32.6904],[-6.68,32.6893],[-6.6614,32.6848],[-6.6413,32.6994],[-6.6106,32.7062],[-6.5786,32.721],[-6.2921,32.7018],[-6.215,32.7143],[-6.0917,32.7473],[-6.0632,32.7608],[-6.0417,32.7931]]]}},{"type":"Feature","properties":{"id":"MAR-1445","name":"Tanger - Tétouan","nameBn":"টাঙ্গিয়ের-টেটুয়াং","type":"Region","bounds":[-6.2492,34.7147,-4.4642,35.9265],"center":[-5.3566,35.2884]},"geometry":{"type":"Polygon","coordinates":[[[-5.3989,35.9245],[-5.3897,35.902],[-5.3784,35.8817],[-5.3629,35.8638],[-5.3407,35.8474],[-5.3408,35.8471],[-5.3457,35.8326],[-5.3424,35.8077],[-5.3274,35.7558],[-5.3226,35.7138],[-5.3188,35.7017],[-5.3127,35.6925],[-5.3048,35.6852],[-5.2989,35.6843],[-5.2819,35.6865],[-5.2768,35.6852],[-5.2754,35.6794],[-5.2775,35.6642],[-5.2768,35.6579],[-5.26,35.6047],[-5.2494,35.5846],[-5.2284,35.5685],[-5.1862,35.5438],[-5.1508,35.5161],[-5.0663,35.4175],[-5.0509,35.4075],[-5.0264,35.404],[-5.0082,35.3992],[-4.9885,35.3879],[-4.9547,35.3625],[-4.9265,35.3303],[-4.9093,35.3145],[-4.865,35.302],[-4.8106,35.26],[-4.7705,35.241],[-4.6283,35.2054],[-4.4954,35.1808],[-4.4956,35.1748],[-4.4958,35.139],[-4.4777,35.1273],[-4.4756,35.1028],[-4.4642,35.0791],[-4.4756,35.0512],[-4.505,35.02],[-4.5401,34.9889],[-4.5795,34.9634],[-4.6155,34.9535],[-4.6457,34.9486],[-4.6657,34.9476],[-4.6852,34.9359],[-4.7,34.9212],[-4.7456,34.9006],[-4.7865,34.867],[-4.8079,34.8627],[-4.8325,34.8457],[-4.8832,34.8345],[-4.9221,34.8172],[-4.9734,34.8001],[-5.0473,34.7923],[-5.1306,34.7677],[-5.1902,34.7164],[-5.2392,34.7259],[-5.3073,34.7223],[-5.3495,34.7147],[-5.3797,34.7268],[-5.4201,34.7377],[-5.4498,34.7658],[-5.4909,34.7963],[-5.513,34.8199],[-5.539,34.8273],[-5.5851,34.8175],[-5.6049,34.8213],[-5.633,34.823],[-5.6978,34.8811],[-5.755,34.9126],[-5.7817,34.9307],[-5.8178,34.9399],[-5.9155,34.9555],[-5.9575,34.9666],[-5.9951,34.9827],[-6.0319,34.9838],[-6.0618,34.9894],[-6.0856,34.9974],[-6.1131,35.0102],[-6.1339,35.0083],[-6.1849,34.9981],[-6.2442,35.0017],[-6.2491,35.0014],[-6.2492,35.0014],[-6.2054,35.1246],[-6.0239,35.5012],[-6.0185,35.5202],[-6.0167,35.5446],[-6.0123,35.5588],[-5.9908,35.5985],[-5.97,35.6525],[-5.9683,35.661],[-5.9652,35.6702],[-5.9521,35.6855],[-5.949,35.6954],[-5.9431,35.7424],[-5.9362,35.7656],[-5.9272,35.7807],[-5.908,35.7973],[-5.8734,35.802],[-5.7814,35.7909],[-5.7693,35.7928],[-5.7423,35.8149],[-5.7299,35.8227],[-5.7117,35.8306],[-5.6935,35.8343],[-5.6809,35.8292],[-5.6634,35.8359],[-5.6397,35.8364],[-5.616,35.8315],[-5.599,35.8223],[-5.54,35.851],[-5.5233,35.8633],[-5.4875,35.897],[-5.4689,35.9103],[-5.4481,35.9185],[-5.44,35.9181],[-5.4355,35.9144],[-5.4235,35.909],[-5.4142,35.9094],[-5.4104,35.9171],[-5.408,35.9247],[-5.4055,35.9265],[-5.3993,35.9245],[-5.3989,35.9245]]]}},{"type":"Feature","properties":{"id":"MAR-1447","name":"Taza - Al Hoceima - Taounate","nameBn":"তাজা-আল হোসেইমা তাউনাত","type":"Region","bounds":[-5.4907,33.5134,-2.9491,35.2668],"center":[-4.2199,34.5526]},"geometry":{"type":"Polygon","coordinates":[[[-4.4954,35.1808],[-4.4943,35.1806],[-4.376,35.1518],[-4.3476,35.1501],[-4.3271,35.1548],[-4.2694,35.1849],[-4.1306,35.2048],[-4.0467,35.2359],[-3.9613,35.2504],[-3.9193,35.2668],[-3.9094,35.2553],[-3.9125,35.2509],[-3.9247,35.2476],[-3.9295,35.2438],[-3.925,35.2378],[-3.9185,35.2309],[-3.9039,35.2142],[-3.8893,35.2084],[-3.8686,35.2073],[-3.8409,35.2054],[-3.8219,35.2068],[-3.8218,35.1997],[-3.8143,35.1637],[-3.8245,35.1283],[-3.8106,34.9309],[-3.7814,34.9006],[-3.7303,34.8714],[-3.6909,34.8643],[-3.6114,34.8408],[-3.5959,34.796],[-3.5996,34.7686],[-3.6078,34.7395],[-3.6089,34.7176],[-3.6255,34.7018],[-3.6335,34.684],[-3.6325,34.6631],[-3.6227,34.6429],[-3.5944,34.6304],[-3.5448,34.5926],[-3.5114,34.5935],[-3.3642,34.6881],[-3.3302,34.7212],[-3.308,34.7481],[-3.2721,34.7733],[-3.1984,34.7773],[-2.9856,34.7067],[-2.9704,34.6862],[-2.9667,34.6615],[-2.9618,34.6414],[-2.9491,34.6209],[-2.9611,34.6105],[-2.9773,34.6151],[-3.0004,34.6163],[-3.025,34.6099],[-3.0403,34.5959],[-3.0396,34.5765],[-3.0639,34.5096],[-3.067,34.5071],[-3.0693,34.4983],[-3.0741,34.4947],[-3.0847,34.4903],[-3.0886,34.4838],[-3.091,34.4759],[-3.0977,34.4675],[-3.1708,34.4263],[-3.1856,34.4138],[-3.194,34.4016],[-3.1941,34.391],[-3.1961,34.3637],[-3.1726,34.3287],[-3.1101,34.2581],[-3.0946,34.2024],[-3.0695,34.1457],[-3.0833,34.0956],[-3.11,34.0608],[-3.2028,34.0253],[-3.2103,33.996],[-3.1946,33.946],[-3.1024,33.7851],[-3.3427,33.8378],[-3.3818,33.8575],[-3.4005,33.8781],[-3.4259,33.8956],[-3.4604,33.9062],[-3.4989,33.9075],[-3.5386,33.8884],[-3.5763,33.8593],[-3.6921,33.7509],[-3.7087,33.7401],[-3.7203,33.7248],[-3.7981,33.644],[-3.8118,33.6235],[-3.8172,33.6],[-3.8119,33.5746],[-3.8508,33.516],[-3.8648,33.5134],[-3.8705,33.5291],[-3.8858,33.5522],[-3.9083,33.5537],[-3.9741,33.5364],[-4.0028,33.5449],[-4.0277,33.5484],[-4.0517,33.558],[-4.0724,33.5718],[-4.0834,33.5985],[-4.0769,33.6267],[-4.0811,33.6686],[-4.0645,33.7088],[-4.1079,33.7651],[-4.1346,33.8077],[-4.1866,33.8703],[-4.1908,33.8906],[-4.1852,33.9048],[-4.2057,33.9146],[-4.2437,33.9108],[-4.2789,33.8985],[-4.3318,33.9052],[-4.3591,33.9057],[-4.3742,33.8972],[-4.448,33.9055],[-4.4766,33.9038],[-4.5359,33.9344],[-4.5596,33.9527],[-4.5575,33.977],[-4.5652,34.0078],[-4.5965,34.0359],[-4.6537,34.055],[-4.7207,34.0882],[-4.7517,34.1186],[-4.7812,34.1643],[-4.8059,34.1926],[-4.8428,34.2208],[-4.8761,34.22],[-4.8903,34.2312],[-4.8942,34.2368],[-4.9012,34.2492],[-4.9004,34.2528],[-4.9121,34.2654],[-4.9156,34.2646],[-4.9359,34.2635],[-4.9447,34.2651],[-4.9562,34.2738],[-4.9642,34.2836],[-4.9739,34.2913],[-4.991,34.2933],[-5.0733,34.2899],[-5.0817,34.2912],[-5.0895,34.2905],[-5.1068,34.276],[-5.1168,34.2816],[-5.1363,34.3025],[-5.1559,34.3099],[-5.1754,34.3107],[-5.1945,34.3066],[-5.2842,34.2745],[-5.3203,34.2688],[-5.3823,34.2697],[-5.4027,34.2726],[-5.4205,34.2806],[-5.4689,34.3364],[-5.479,34.3447],[-5.4851,34.3549],[-5.4907,34.37],[-5.4694,34.387],[-5.3497,34.4583],[-5.3229,34.4961],[-5.2695,34.5316],[-5.2496,34.5489],[-5.218,34.5597],[-5.1971,34.5761],[-5.1848,34.6006],[-5.1779,34.6314],[-5.1791,34.6835],[-5.1902,34.7164],[-5.1306,34.7677],[-5.0473,34.7923],[-4.9734,34.8001],[-4.9221,34.8172],[-4.8832,34.8345],[-4.8325,34.8457],[-4.8079,34.8627],[-4.7865,34.867],[-4.7456,34.9006],[-4.7,34.9212],[-4.6852,34.9359],[-4.6657,34.9476],[-4.6457,34.9486],[-4.6155,34.9535],[-4.5795,34.9634],[-4.5401,34.9889],[-4.505,35.02],[-4.4756,35.0512],[-4.4642,35.0791],[-4.4756,35.1028],[-4.4777,35.1273],[-4.4958,35.139],[-4.4956,35.1748],[-4.4954,35.1808]]]}}]}