{"type":"FeatureCollection","features":[{"type":"Feature","properties":{"id":"MNE-1508","name":"Andrijevica","nameBn":"আন্দ্রেজেভিকা পৌরসভা","type":"Municipality","bounds":[19.6281,42.5889,19.9094,42.8264],"center":[19.7688,42.6933]},"geometry":{"type":"Polygon","coordinates":[[[19.7469,42.5889],[19.746,42.5989],[19.7375,42.6244],[19.7221,42.6461],[19.6993,42.6548],[19.676,42.6467],[19.658,42.6346],[19.6578,42.635],[19.6546,42.6404],[19.6281,42.6651],[19.642,42.6758],[19.6644,42.7021],[19.6649,42.7281],[19.6621,42.761],[19.659,42.7828],[19.6439,42.7927],[19.6295,42.8032],[19.6439,42.8222],[19.6757,42.8253],[19.6873,42.8264],[19.7323,42.8086],[19.7759,42.7851],[19.8434,42.7701],[19.8776,42.7633],[19.8592,42.7497],[19.8592,42.7327],[19.8796,42.7157],[19.9091,42.6896],[19.9094,42.6893],[19.9046,42.6885],[19.8595,42.663],[19.823,42.6273],[19.7635,42.5948],[19.7469,42.5889]]]}},{"type":"Feature","properties":{"id":"MNE-1496","name":"Bar","nameBn":"বার পৌরসভা","type":"Municipality","bounds":[18.9225,42.0115,19.37,42.3219],"center":[19.1463,42.1416]},"geometry":{"type":"Polygon","coordinates":[[[19.2834,42.198],[19.2749,42.1913],[19.272,42.1807],[19.282,42.1647],[19.2821,42.1646],[19.2978,42.1517],[19.355,42.12],[19.37,42.1065],[19.3578,42.103],[19.2969,42.0886],[19.2776,42.092],[19.2418,42.1019],[19.2145,42.1016],[19.222,42.0798],[19.2501,42.0366],[19.2418,42.0115],[19.1473,42.0206],[19.1414,42.0198],[19.1412,42.0198],[19.1392,42.0424],[19.0825,42.0812],[19.0747,42.0956],[19.0838,42.1101],[19.0764,42.116],[19.064,42.1202],[19.0487,42.1402],[19.0106,42.1396],[19.0021,42.1502],[18.9998,42.1611],[18.9948,42.1636],[18.988,42.1637],[18.9816,42.1671],[18.9714,42.1833],[18.9716,42.1834],[19.0009,42.2085],[18.9959,42.2216],[18.9732,42.2417],[18.9457,42.2653],[18.9286,42.2892],[18.9225,42.3021],[18.923,42.3022],[18.9606,42.2959],[19.0014,42.2836],[19.0247,42.2839],[19.0288,42.3053],[19.047,42.3219],[19.0958,42.306],[19.1095,42.3003],[19.1194,42.2854],[19.136,42.2672],[19.1583,42.2576],[19.1889,42.2496],[19.2184,42.246],[19.2396,42.2342],[19.2719,42.2041],[19.2834,42.198]]]}},{"type":"Feature","properties":{"id":"MNE-1509","name":"Berane","nameBn":"বেরানে পৌরসভা","type":"Municipality","bounds":[19.6711,42.6893,20.1295,43.0208],"center":[19.9003,42.8198]},"geometry":{"type":"Polygon","coordinates":[[[20.0556,42.7639],[20.0347,42.7514],[20.0265,42.7432],[20.0248,42.7234],[20.0361,42.708],[20.037,42.7074],[19.9991,42.7035],[19.9094,42.6893],[19.9091,42.6896],[19.8796,42.7157],[19.8592,42.7327],[19.8592,42.7497],[19.8776,42.7633],[19.8434,42.7701],[19.7759,42.7851],[19.7323,42.8086],[19.6873,42.8264],[19.6757,42.8253],[19.6754,42.8276],[19.6711,42.8698],[19.679,42.8816],[19.6955,42.9066],[19.6988,42.9075],[19.7437,42.9196],[19.7754,42.9267],[19.8003,42.9423],[19.8321,42.9488],[19.8706,42.94],[19.8943,42.94],[19.9317,42.9536],[19.9612,42.9621],[19.9703,42.9672],[20.0012,42.9763],[20.0269,42.9853],[20.0563,43.0208],[20.1169,42.9767],[20.1295,42.9736],[20.1085,42.9242],[20.0927,42.9029],[20.0836,42.8834],[20.0742,42.8565],[20.0564,42.8381],[20.0476,42.7899],[20.0555,42.7643],[20.0556,42.7639]]]}},{"type":"Feature","properties":{"id":"MNE-1510","name":"Bijelo Polje","nameBn":"বিজেলো পোলজে পৌরসভা","type":"Municipality","bounds":[19.4595,42.9075,20.0563,43.2188],"center":[19.7579,43.0174]},"geometry":{"type":"Polygon","coordinates":[[[19.5478,43.2188],[19.5499,43.2175],[19.5809,43.1878],[19.5981,43.1762],[19.6187,43.1682],[19.663,43.1585],[19.6846,43.1567],[19.6973,43.1602],[19.7055,43.1662],[19.7136,43.1656],[19.7428,43.1265],[19.7612,43.1087],[19.7818,43.0965],[19.8051,43.09],[19.8383,43.0884],[19.8722,43.0904],[19.8838,43.0957],[19.9071,43.1133],[19.9166,43.1171],[19.9291,43.1139],[19.9366,43.1059],[19.9423,43.0956],[19.9498,43.0859],[19.9597,43.0786],[20.0199,43.0473],[20.0544,43.0222],[20.0563,43.0208],[20.0269,42.9853],[20.0012,42.9763],[19.9703,42.9672],[19.9612,42.9621],[19.9317,42.9536],[19.8943,42.94],[19.8706,42.94],[19.8321,42.9488],[19.8003,42.9423],[19.7754,42.9267],[19.7437,42.9196],[19.6988,42.9075],[19.6757,42.9287],[19.6581,42.9403],[19.6644,42.9536],[19.6632,42.9788],[19.6485,42.999],[19.6216,43.0137],[19.576,43.0216],[19.5448,43.0281],[19.5374,43.0329],[19.5145,43.0417],[19.4763,43.0488],[19.4595,43.0496],[19.4601,43.0698],[19.4725,43.0971],[19.4998,43.1095],[19.5174,43.1252],[19.5284,43.1426],[19.5344,43.1652],[19.5372,43.1911],[19.5478,43.2188]]]}},{"type":"Feature","properties":{"id":"MNE-1499","name":"Budva","nameBn":"বুদ্ভা পৌরসভা","type":"Municipality","bounds":[18.7849,42.1833,19.0009,42.36],"center":[18.8929,42.3039]},"geometry":{"type":"Polygon","coordinates":[[[18.9714,42.1833],[18.968,42.1887],[18.9535,42.1999],[18.9133,42.2222],[18.9017,42.2375],[18.8947,42.2705],[18.886,42.2844],[18.8716,42.2905],[18.854,42.2905],[18.8389,42.2857],[18.8314,42.2775],[18.8265,42.2822],[18.8205,42.2867],[18.8176,42.2912],[18.8015,42.2844],[18.794,42.2803],[18.7887,42.276],[18.788,42.281],[18.786,42.3089],[18.7849,42.3401],[18.7936,42.3542],[18.7971,42.36],[18.8296,42.3518],[18.8529,42.3442],[18.8846,42.3395],[18.9142,42.3201],[18.9225,42.3021],[18.9286,42.2892],[18.9457,42.2653],[18.9732,42.2417],[18.9959,42.2216],[19.0009,42.2085],[18.9716,42.1834],[18.9714,42.1833]]]}},{"type":"Feature","properties":{"id":"MNE-1500","name":"Cetinje","nameBn":"সেতিঞ্জে পৌরসভা","type":"Municipality","bounds":[18.6483,42.2836,19.1426,42.7181],"center":[18.8954,42.4993]},"geometry":{"type":"Polygon","coordinates":[[[18.7274,42.7181],[18.7677,42.7093],[18.7971,42.6953],[18.8239,42.6961],[18.8599,42.6908],[18.8702,42.6807],[18.8894,42.6691],[18.9143,42.6575],[18.9325,42.6407],[18.9372,42.6202],[18.9375,42.6189],[18.9378,42.6024],[18.9595,42.5925],[18.9815,42.5803],[18.9926,42.5682],[19.0057,42.5588],[19.0015,42.5495],[18.9862,42.5276],[18.9853,42.5063],[18.9706,42.5098],[18.956,42.5045],[18.9596,42.4943],[18.9971,42.4717],[19.0346,42.4524],[19.0558,42.4357],[19.0787,42.4172],[19.1131,42.394],[19.1426,42.3709],[19.1351,42.3356],[19.1095,42.3003],[19.0958,42.306],[19.047,42.3219],[19.0288,42.3053],[19.0247,42.2839],[19.0014,42.2836],[18.9606,42.2959],[18.923,42.3022],[18.9225,42.3021],[18.9142,42.3201],[18.8846,42.3395],[18.8529,42.3442],[18.8296,42.3518],[18.7971,42.36],[18.7936,42.3542],[18.7791,42.3793],[18.7655,42.4106],[18.7619,42.4253],[18.7699,42.4392],[18.7719,42.4522],[18.7721,42.4767],[18.7605,42.5074],[18.7225,42.5274],[18.698,42.5405],[18.695,42.5561],[18.684,42.5765],[18.6663,42.5936],[18.65,42.624],[18.6483,42.6293],[18.6696,42.631],[18.6838,42.6419],[18.6906,42.6586],[18.69,42.6747],[18.696,42.6851],[18.7097,42.6895],[18.7192,42.7005],[18.7274,42.7181]]]}},{"type":"Feature","properties":{"id":"MNE-1511","name":"Danilovgrad","nameBn":"ডানিলোভগ্রাড পৌরসভা","type":"Municipality","bounds":[18.9372,42.4872,19.301,42.7595],"center":[19.1191,42.5936]},"geometry":{"type":"Polygon","coordinates":[[[19.1779,42.695],[19.2131,42.7082],[19.2087,42.7281],[19.209,42.7438],[19.2107,42.7595],[19.2449,42.7515],[19.2595,42.7236],[19.2606,42.7121],[19.2616,42.6972],[19.301,42.6769],[19.2859,42.6641],[19.2597,42.6424],[19.2616,42.6222],[19.2515,42.5974],[19.233,42.5825],[19.2206,42.5709],[19.2132,42.5495],[19.2085,42.5175],[19.2021,42.4921],[19.1988,42.4874],[19.1492,42.4877],[19.0737,42.4872],[19.0412,42.4899],[19.0059,42.5015],[18.9853,42.5063],[18.9862,42.5276],[19.0015,42.5495],[19.0057,42.5588],[18.9926,42.5682],[18.9815,42.5803],[18.9595,42.5925],[18.9378,42.6024],[18.9375,42.6189],[18.9372,42.6202],[18.9817,42.6222],[18.9952,42.6349],[18.9971,42.6641],[19.0144,42.6873],[19.05,42.7038],[19.0723,42.7088],[19.0897,42.7038],[19.1255,42.6988],[19.1779,42.695]]]}},{"type":"Feature","properties":{"id":"MNE-1506","name":"Herceg Novi","nameBn":"হারচেগ নোভি পৌরসভা","type":"Municipality","bounds":[18.4364,42.3663,18.66,42.5985],"center":[18.6027,42.4041]},"geometry":{"type":"MultiPolygon","coordinates":[[[[18.4964,42.4163],[18.4978,42.4312],[18.4929,42.4424],[18.4755,42.4498],[18.4677,42.4534],[18.4549,42.4647],[18.4443,42.4779],[18.4371,42.4934],[18.4364,42.5108],[18.442,42.543],[18.4374,42.5592],[18.4477,42.5662],[18.459,42.5697],[18.4705,42.5691],[18.4818,42.5637],[18.4921,42.5648],[18.4959,42.5709],[18.4937,42.5798],[18.4867,42.5898],[18.5068,42.5985],[18.5234,42.5828],[18.5571,42.5484],[18.5831,42.5367],[18.6112,42.5219],[18.6327,42.4959],[18.6541,42.4518],[18.6087,42.4454],[18.5025,42.4556],[18.5025,42.4482],[18.5213,42.438],[18.513,42.409],[18.5298,42.4004],[18.5103,42.4053],[18.4964,42.4163]]],[[[18.6585,42.3866],[18.6532,42.3663],[18.6465,42.3663],[18.6384,42.3703],[18.6167,42.3681],[18.6123,42.3699],[18.6071,42.3764],[18.5949,42.3837],[18.5809,42.3898],[18.5706,42.393],[18.573,42.3964],[18.5731,42.3975],[18.5741,42.3983],[18.5781,42.4004],[18.553,42.4136],[18.5452,42.4236],[18.5501,42.4351],[18.5628,42.4385],[18.6449,42.4184],[18.6531,42.4012],[18.66,42.3867],[18.6585,42.3866]]]]}},{"type":"Feature","properties":{"id":"MNE-1512","name":"Kolašin","nameBn":"কোলাসিন পৌরসভা","type":"Municipality","bounds":[19.1999,42.6619,19.679,42.9345],"center":[19.4394,42.7889]},"geometry":{"type":"Polygon","coordinates":[[[19.2107,42.7595],[19.211,42.7611],[19.2057,42.792],[19.2153,42.8162],[19.2187,42.8397],[19.2086,42.8589],[19.2021,42.8714],[19.1999,42.8876],[19.211,42.9022],[19.2278,42.9105],[19.2925,42.9022],[19.343,42.9009],[19.3587,42.9177],[19.3723,42.9345],[19.3743,42.9332],[19.4159,42.9162],[19.4491,42.8992],[19.5111,42.9004],[19.5783,42.9015],[19.6151,42.895],[19.6417,42.8902],[19.679,42.8816],[19.6711,42.8698],[19.6754,42.8276],[19.6757,42.8253],[19.6439,42.8222],[19.6295,42.8032],[19.6439,42.7927],[19.659,42.7828],[19.6621,42.761],[19.6649,42.7281],[19.6644,42.7021],[19.642,42.6758],[19.6281,42.6651],[19.6078,42.684],[19.5842,42.6936],[19.577,42.7148],[19.5726,42.736],[19.5351,42.7391],[19.4987,42.7278],[19.4954,42.7082],[19.4719,42.6876],[19.4469,42.6751],[19.4077,42.6669],[19.3653,42.6619],[19.3102,42.6721],[19.301,42.6769],[19.2616,42.6972],[19.2606,42.7121],[19.2595,42.7236],[19.2449,42.7515],[19.2107,42.7595]]]}},{"type":"Feature","properties":{"id":"MNE-1507","name":"Kotor","nameBn":"কোতোর","type":"Municipality","bounds":[18.5068,42.2715,18.7936,42.6293],"center":[18.65,42.5415]},"geometry":{"type":"Polygon","coordinates":[[[18.5068,42.5985],[18.5172,42.603],[18.5384,42.6183],[18.5428,42.6264],[18.5446,42.6261],[18.6013,42.6244],[18.6387,42.6286],[18.6483,42.6293],[18.65,42.624],[18.6663,42.5936],[18.684,42.5765],[18.695,42.5561],[18.698,42.5405],[18.7225,42.5274],[18.7605,42.5074],[18.7721,42.4767],[18.7719,42.4522],[18.7699,42.4392],[18.7619,42.4253],[18.7655,42.4106],[18.7791,42.3793],[18.7936,42.3542],[18.7849,42.3401],[18.786,42.3089],[18.788,42.281],[18.7887,42.276],[18.7864,42.2741],[18.7786,42.2715],[18.772,42.2769],[18.7625,42.2912],[18.7295,42.3116],[18.7145,42.3253],[18.7141,42.3389],[18.7083,42.3425],[18.6997,42.3498],[18.6936,42.3532],[18.6936,42.3576],[18.6938,42.3577],[18.7147,42.3771],[18.7346,42.4282],[18.7093,42.463],[18.6858,42.4767],[18.6857,42.4767],[18.6873,42.4829],[18.6541,42.4518],[18.6327,42.4959],[18.6112,42.5219],[18.5831,42.5367],[18.5571,42.5484],[18.5234,42.5828],[18.5068,42.5985]]]}},{"type":"Feature","properties":{"id":"MNE-1513","name":"Mojkovac","nameBn":"মজকোভিক পৌরসভা","type":"Municipality","bounds":[19.3313,42.8816,19.6988,43.0514],"center":[19.515,42.971]},"geometry":{"type":"Polygon","coordinates":[[[19.3317,42.9901],[19.3352,43.0114],[19.3494,43.0216],[19.3809,43.0276],[19.4038,43.042],[19.4111,43.0452],[19.4256,43.0514],[19.4595,43.0496],[19.4763,43.0488],[19.5145,43.0417],[19.5374,43.0329],[19.5448,43.0281],[19.576,43.0216],[19.6216,43.0137],[19.6485,42.999],[19.6632,42.9788],[19.6644,42.9536],[19.6581,42.9403],[19.6757,42.9287],[19.6988,42.9075],[19.6955,42.9066],[19.679,42.8816],[19.6417,42.8902],[19.6151,42.895],[19.5783,42.9015],[19.5111,42.9004],[19.4491,42.8992],[19.4159,42.9162],[19.3743,42.9332],[19.3723,42.9345],[19.3417,42.9536],[19.3313,42.9876],[19.3317,42.9901]]]}},{"type":"Feature","properties":{"id":"MNE-1514","name":"Nikšic","nameBn":"নিকসিক পৌরসভা","type":"Municipality","bounds":[18.4335,42.6202,19.2187,43.1246],"center":[18.8259,42.8341]},"geometry":{"type":"Polygon","coordinates":[[[18.639,43.0202],[18.6211,43.0964],[18.6206,43.1226],[18.6211,43.1246],[18.639,43.1213],[18.7038,43.1095],[18.7374,43.0951],[18.7611,43.0676],[18.7845,43.0202],[18.8162,42.9794],[18.8501,42.9552],[18.9022,42.9441],[18.959,42.9397],[18.9781,42.9334],[19.0125,42.9221],[19.0577,42.8998],[19.0897,42.8824],[19.1456,42.865],[19.2086,42.8589],[19.2187,42.8397],[19.2153,42.8162],[19.2057,42.792],[19.211,42.7611],[19.2107,42.7595],[19.209,42.7438],[19.2087,42.7281],[19.2131,42.7082],[19.1779,42.695],[19.1255,42.6988],[19.0897,42.7038],[19.0723,42.7088],[19.05,42.7038],[19.0144,42.6873],[18.9971,42.6641],[18.9952,42.6349],[18.9817,42.6222],[18.9372,42.6202],[18.9325,42.6407],[18.9143,42.6575],[18.8894,42.6691],[18.8702,42.6807],[18.8599,42.6908],[18.8239,42.6961],[18.7971,42.6953],[18.7677,42.7093],[18.7274,42.7181],[18.7192,42.7005],[18.7097,42.6895],[18.696,42.6851],[18.69,42.6747],[18.6906,42.6586],[18.6838,42.6419],[18.6696,42.631],[18.6483,42.6293],[18.6387,42.6286],[18.6013,42.6244],[18.5446,42.6261],[18.5428,42.6264],[18.5496,42.6389],[18.55,42.6681],[18.5397,42.6955],[18.5225,42.7119],[18.5022,42.7274],[18.4674,42.7692],[18.4539,42.7932],[18.4446,42.8171],[18.4437,42.8345],[18.4535,42.8457],[18.466,42.8528],[18.4733,42.8626],[18.4676,42.8817],[18.444,42.9169],[18.434,42.9369],[18.4335,42.9542],[18.4528,42.9934],[18.483,43.0146],[18.539,43.0239],[18.5984,43.0245],[18.639,43.0202]]]}},{"type":"Feature","properties":{"id":"MNE-1503","name":"Plav","nameBn":"প্লেভ পৌরসভা","type":"Municipality","bounds":[19.7303,42.4665,20.1039,42.7074],"center":[19.9168,42.5985]},"geometry":{"type":"Polygon","coordinates":[[[20.037,42.7074],[20.0942,42.667],[20.102,42.6567],[20.1039,42.6531],[20.0906,42.6273],[20.0792,42.6112],[20.0757,42.6031],[20.0754,42.587],[20.0782,42.5729],[20.077,42.5599],[20.065,42.5468],[20.0392,42.5578],[20.0177,42.5462],[19.9818,42.5108],[19.9563,42.5053],[19.9075,42.5064],[19.8827,42.4936],[19.8825,42.4934],[19.8733,42.4868],[19.8355,42.4703],[19.8291,42.4687],[19.8196,42.4665],[19.8014,42.4681],[19.7845,42.4746],[19.7516,42.4934],[19.7343,42.5244],[19.7309,42.5337],[19.7303,42.5404],[19.7322,42.5555],[19.7339,42.5626],[19.7414,42.5744],[19.746,42.5799],[19.7478,42.5789],[19.7469,42.5889],[19.7635,42.5948],[19.823,42.6273],[19.8595,42.663],[19.9046,42.6885],[19.9094,42.6893],[19.9991,42.7035],[20.037,42.7074]]]}},{"type":"Feature","properties":{"id":"MNE-1516","name":"Pljevlja","nameBn":"প্লিভিজা পৌরসভা","type":"Municipality","bounds":[18.9051,43.0452,19.5478,43.5479],"center":[19.2264,43.3019]},"geometry":{"type":"Polygon","coordinates":[[[19.1953,43.5328],[19.1752,43.5096],[19.1759,43.4809],[19.1922,43.4545],[19.2184,43.4382],[19.3556,43.3931],[19.3723,43.3842],[19.414,43.3384],[19.4731,43.2933],[19.4851,43.2801],[19.5023,43.2519],[19.5124,43.2406],[19.5478,43.2188],[19.5372,43.1911],[19.5344,43.1652],[19.5284,43.1426],[19.5174,43.1252],[19.4998,43.1095],[19.4725,43.0971],[19.4601,43.0698],[19.4595,43.0496],[19.4256,43.0514],[19.4111,43.0452],[19.3873,43.072],[19.3576,43.0971],[19.3212,43.1205],[19.2718,43.1464],[19.2241,43.169],[19.1875,43.1888],[19.1426,43.2021],[19.1065,43.1982],[19.072,43.1977],[19.048,43.2156],[19.0389,43.2418],[19.0263,43.2878],[19.0225,43.2965],[19.0247,43.2987],[19.0363,43.3033],[19.0625,43.3044],[19.0697,43.3088],[19.0396,43.3507],[19.0099,43.411],[18.9753,43.4443],[18.9683,43.4481],[18.9463,43.4439],[18.9464,43.4491],[18.9507,43.4573],[18.9512,43.4638],[18.9379,43.4789],[18.9307,43.4823],[18.9153,43.4854],[18.9056,43.4906],[18.9051,43.4991],[18.911,43.5073],[18.9205,43.5122],[18.9389,43.5189],[18.9627,43.5383],[18.9775,43.5462],[19.0002,43.5479],[19.0143,43.5378],[19.025,43.523],[19.0381,43.511],[19.055,43.5067],[19.0764,43.5072],[19.096,43.5129],[19.1228,43.5359],[19.1477,43.5381],[19.1953,43.5328]]]}},{"type":"Feature","properties":{"id":"MNE-1515","name":"Plužine","nameBn":"প্লুজাইন পৌরসভা","type":"Municipality","bounds":[18.6211,42.9334,19.0252,43.3519],"center":[18.8229,43.1483]},"geometry":{"type":"Polygon","coordinates":[[[18.8991,43.3519],[18.9234,43.3468],[18.9503,43.3331],[18.9573,43.3259],[18.9579,43.319],[18.9571,43.3118],[18.9595,43.3035],[18.9686,43.2922],[18.9889,43.2729],[18.9895,43.272],[18.9895,43.2717],[18.9904,43.2514],[18.9926,43.1933],[18.994,43.1632],[19.0037,43.1381],[19.0252,43.1111],[19.0247,43.0942],[19.0144,43.0979],[18.9772,43.0941],[18.9508,43.0712],[18.9309,43.0301],[18.9367,43.0023],[18.9838,42.9794],[18.9882,42.9389],[18.9781,42.9334],[18.959,42.9397],[18.9022,42.9441],[18.8501,42.9552],[18.8162,42.9794],[18.7845,43.0202],[18.7611,43.0676],[18.7374,43.0951],[18.7038,43.1095],[18.639,43.1213],[18.6211,43.1246],[18.6291,43.1549],[18.6453,43.1802],[18.6884,43.2245],[18.6643,43.2332],[18.6795,43.2495],[18.8072,43.318],[18.8335,43.3242],[18.8303,43.3282],[18.8246,43.3374],[18.8212,43.3414],[18.8396,43.3478],[18.8991,43.3519]]]}},{"type":"Feature","properties":{"id":"MNE-1517","name":"Podgorica","nameBn":"পডগোরিকা","type":"Municipality","bounds":[18.956,42.198,19.658,42.7391],"center":[19.3069,42.4462]},"geometry":{"type":"Polygon","coordinates":[[[19.658,42.6346],[19.6479,42.6278],[19.6218,42.605],[19.605,42.5848],[19.5992,42.571],[19.5937,42.5448],[19.5881,42.5329],[19.5757,42.5223],[19.5613,42.5162],[19.5493,42.5086],[19.5437,42.4936],[19.5437,42.4934],[19.5317,42.4748],[19.5178,42.458],[19.5015,42.4441],[19.4817,42.4345],[19.4684,42.4181],[19.4172,42.3741],[19.4121,42.3684],[19.4027,42.352],[19.4007,42.3448],[19.4013,42.3311],[19.4004,42.3259],[19.3046,42.2151],[19.2834,42.198],[19.2719,42.2041],[19.2396,42.2342],[19.2184,42.246],[19.1889,42.2496],[19.1583,42.2576],[19.136,42.2672],[19.1194,42.2854],[19.1095,42.3003],[19.1351,42.3356],[19.1426,42.3709],[19.1131,42.394],[19.0787,42.4172],[19.0558,42.4357],[19.0346,42.4524],[18.9971,42.4717],[18.9596,42.4943],[18.956,42.5045],[18.9706,42.5098],[18.9853,42.5063],[19.0059,42.5015],[19.0412,42.4899],[19.0737,42.4872],[19.1492,42.4877],[19.1988,42.4874],[19.2021,42.4921],[19.2085,42.5175],[19.2132,42.5495],[19.2206,42.5709],[19.233,42.5825],[19.2515,42.5974],[19.2616,42.6222],[19.2597,42.6424],[19.2859,42.6641],[19.301,42.6769],[19.3102,42.6721],[19.3653,42.6619],[19.4077,42.6669],[19.4469,42.6751],[19.4719,42.6876],[19.4954,42.7082],[19.4987,42.7278],[19.5351,42.7391],[19.5726,42.736],[19.577,42.7148],[19.5842,42.6936],[19.6078,42.684],[19.6281,42.6651],[19.6546,42.6404],[19.6578,42.635],[19.658,42.6346]]]}},{"type":"Feature","properties":{"id":"MNE-1501","name":"Rožaje","nameBn":"রোজাজে","type":"Municipality","bounds":[20.0476,42.7425,20.3552,42.9736],"center":[20.2013,42.8615]},"geometry":{"type":"Polygon","coordinates":[[[20.3454,42.8274],[20.3192,42.8241],[20.2644,42.8173],[20.2261,42.8068],[20.2176,42.8027],[20.2092,42.7917],[20.2084,42.7821],[20.21,42.773],[20.2084,42.7633],[20.1834,42.7425],[20.1495,42.7499],[20.1121,42.7665],[20.0763,42.7734],[20.0651,42.7695],[20.0556,42.7639],[20.0555,42.7643],[20.0476,42.7899],[20.0564,42.8381],[20.0742,42.8565],[20.0836,42.8834],[20.0927,42.9029],[20.1085,42.9242],[20.1295,42.9736],[20.1409,42.9708],[20.1946,42.9668],[20.2232,42.9577],[20.2756,42.9299],[20.3371,42.907],[20.3536,42.891],[20.3552,42.8662],[20.3454,42.8274]]]}},{"type":"Feature","properties":{"id":"MNE-1518","name":"Tivat","nameBn":"টিভাত","type":"Municipality","bounds":[18.6449,42.3576,18.7346,42.4767],"center":[18.6898,42.3897]},"geometry":{"type":"Polygon","coordinates":[[[18.6936,42.3576],[18.6936,42.3594],[18.6958,42.3738],[18.6785,42.386],[18.6585,42.3866],[18.66,42.3867],[18.6531,42.4012],[18.6449,42.4184],[18.6565,42.4155],[18.6856,42.404],[18.7005,42.393],[18.7082,42.4085],[18.7066,42.421],[18.6838,42.4588],[18.6833,42.4681],[18.6857,42.4767],[18.6858,42.4767],[18.7093,42.463],[18.7346,42.4282],[18.7147,42.3771],[18.6938,42.3577],[18.6936,42.3576]]]}},{"type":"Feature","properties":{"id":"MNE-1497","name":"Ulcinj","nameBn":"উলচিঞ্জ পৌরসভা","type":"Municipality","bounds":[19.138,41.8524,19.3749,42.1065],"center":[19.2564,42.0039]},"geometry":{"type":"Polygon","coordinates":[[[19.37,42.1065],[19.3725,42.1043],[19.3749,42.0947],[19.3566,42.0648],[19.3517,42.0476],[19.3506,42.0278],[19.3542,42.0087],[19.3634,41.9936],[19.3637,41.9935],[19.371,41.9866],[19.3658,41.9697],[19.3598,41.966],[19.3516,41.9652],[19.3464,41.9615],[19.3529,41.9385],[19.3505,41.9314],[19.3467,41.9262],[19.3454,41.9212],[19.3459,41.9145],[19.3453,41.9103],[19.3477,41.9064],[19.357,41.8996],[19.3649,41.889],[19.3642,41.8628],[19.3651,41.8524],[19.3469,41.864],[19.3102,41.8945],[19.2932,41.9008],[19.2202,41.9188],[19.203,41.9271],[19.1785,41.9339],[19.1703,41.938],[19.1623,41.9479],[19.162,41.9534],[19.1633,41.959],[19.1603,41.969],[19.1556,41.9706],[19.1453,41.9776],[19.138,41.9853],[19.1429,41.9888],[19.1436,41.9931],[19.1412,42.0198],[19.1414,42.0198],[19.1473,42.0206],[19.2418,42.0115],[19.2501,42.0366],[19.222,42.0798],[19.2145,42.1016],[19.2418,42.1019],[19.2776,42.092],[19.2969,42.0886],[19.3578,42.103],[19.37,42.1065]]]}},{"type":"Feature","properties":{"id":"MNE-1519","name":"Šavnik","nameBn":"সাভনিক পৌরসভা","type":"Municipality","bounds":[18.9309,42.8589,19.3723,43.0979],"center":[19.1516,42.9571]},"geometry":{"type":"Polygon","coordinates":[[[19.0247,43.0942],[19.05,43.0852],[19.0662,43.072],[19.0874,43.072],[19.121,43.0753],[19.1448,43.0588],[19.1582,43.0409],[19.18,43.0478],[19.2115,43.0478],[19.2396,43.0279],[19.2525,43.0147],[19.2704,43.0081],[19.3317,42.9901],[19.3313,42.9876],[19.3417,42.9536],[19.3723,42.9345],[19.3587,42.9177],[19.343,42.9009],[19.2925,42.9022],[19.2278,42.9105],[19.211,42.9022],[19.1999,42.8876],[19.2021,42.8714],[19.2086,42.8589],[19.1456,42.865],[19.0897,42.8824],[19.0577,42.8998],[19.0125,42.9221],[18.9781,42.9334],[18.9882,42.9389],[18.9838,42.9794],[18.9367,43.0023],[18.9309,43.0301],[18.9508,43.0712],[18.9772,43.0941],[19.0144,43.0979],[19.0247,43.0942]]]}},{"type":"Feature","properties":{"id":"MNE-1520","name":"Žabljak","nameBn":"জাব্লজাক পৌরসভা","type":"Municipality","bounds":[18.9895,42.9901,19.4111,43.2965],"center":[19.2003,43.1148]},"geometry":{"type":"Polygon","coordinates":[[[18.9925,43.2671],[19.0029,43.2739],[19.0109,43.2823],[19.0172,43.2912],[19.0225,43.2965],[19.0263,43.2878],[19.0389,43.2418],[19.048,43.2156],[19.072,43.1977],[19.1065,43.1982],[19.1426,43.2021],[19.1875,43.1888],[19.2241,43.169],[19.2718,43.1464],[19.3212,43.1205],[19.3576,43.0971],[19.3873,43.072],[19.4111,43.0452],[19.4038,43.042],[19.3809,43.0276],[19.3494,43.0216],[19.3352,43.0114],[19.3317,42.9901],[19.2704,43.0081],[19.2525,43.0147],[19.2396,43.0279],[19.2115,43.0478],[19.18,43.0478],[19.1582,43.0409],[19.1448,43.0588],[19.121,43.0753],[19.0874,43.072],[19.0662,43.072],[19.05,43.0852],[19.0247,43.0942],[19.0252,43.1111],[19.0037,43.1381],[18.994,43.1632],[18.9926,43.1933],[18.9904,43.2514],[18.9895,43.2717],[18.9895,43.272],[18.9925,43.2671]]]}}]}