{"type":"FeatureCollection","features":[{"type":"Feature","properties":{"id":"MNP-4940","name":"Northern Islands","nameBn":"উত্তর মারিয়ানা দ্বীপপুঞ্জ","type":null,"bounds":[144.9021,16.3392,145.8689,20.5554],"center":[145.674,16.3573]},"geometry":{"type":"MultiPolygon","coordinates":[[[[145.7095,16.3675],[145.7176,16.3526],[145.7112,16.345],[145.697,16.3418],[145.6691,16.3392],[145.656,16.3403],[145.6438,16.3446],[145.6338,16.3532],[145.6282,16.3641],[145.6294,16.3737],[145.6377,16.38],[145.6541,16.3812],[145.6672,16.3774],[145.6979,16.3737],[145.7095,16.3675]]],[[[145.7711,18.1752],[145.8117,18.1739],[145.825,18.1677],[145.8352,18.1579],[145.8391,18.1451],[145.8356,18.1283],[145.8264,18.1193],[145.8143,18.113],[145.802,18.1042],[145.7581,18.0612],[145.7437,18.0533],[145.7195,18.0542],[145.7131,18.0775],[145.7395,18.091],[145.7508,18.1137],[145.7567,18.1618],[145.7711,18.1752]]],[[[145.6616,18.7243],[145.6355,18.7472],[145.6326,18.7869],[145.6504,18.8089],[145.6883,18.8074],[145.7019,18.7917],[145.708,18.7797],[145.7096,18.7668],[145.7095,18.7484],[145.7051,18.7371],[145.6936,18.7277],[145.6782,18.7226],[145.6616,18.7243]]],[[[145.7892,16.6755],[145.7691,16.6948],[145.7859,16.7001],[145.8045,16.6931],[145.7892,16.6755]]],[[[145.855,17.2858],[145.8359,17.3052],[145.8512,17.3094],[145.8682,17.3017],[145.855,17.2858]]],[[[145.8543,17.5669],[145.8322,17.5775],[145.8269,17.5932],[145.8342,17.6058],[145.8506,17.6069],[145.863,17.5985],[145.8689,17.5867],[145.867,17.575],[145.8543,17.5669]]],[[[145.4056,19.6528],[145.3918,19.6605],[145.3821,19.6728],[145.3821,19.6841],[145.3972,19.6889],[145.4099,19.6845],[145.4154,19.6744],[145.4137,19.6624],[145.4056,19.6528]]],[[[145.2507,20.0097],[145.24,20.0133],[145.2311,20.0202],[145.2267,20.0298],[145.2293,20.041],[145.2388,20.0504],[145.2434,20.0456],[145.2454,20.0358],[145.2459,20.0304],[145.2525,20.0314],[145.2615,20.0346],[145.2694,20.0362],[145.2728,20.0324],[145.2708,20.0242],[145.2658,20.0176],[145.2586,20.0126],[145.2507,20.0097]]],[[[144.9157,20.5172],[144.9051,20.5266],[144.9021,20.54],[144.9067,20.5515],[144.9197,20.5554],[144.9318,20.5492],[144.9325,20.5375],[144.9258,20.5253],[144.9157,20.5172]]]]}},{"type":"Feature","properties":{"id":"MNP-4937","name":"Rota","nameBn":"রোটা","type":null,"bounds":[145.1193,14.1107,145.2905,14.2028],"center":[145.205,14.1465]},"geometry":{"type":"Polygon","coordinates":[[[145.2057,14.1814],[145.2525,14.2004],[145.28,14.2028],[145.2905,14.1814],[145.2874,14.1696],[145.2821,14.161],[145.2736,14.1558],[145.2604,14.1541],[145.2498,14.1501],[145.2428,14.1404],[145.2368,14.1291],[145.229,14.1199],[145.21,14.1107],[145.1995,14.1139],[145.1896,14.1218],[145.1716,14.1262],[145.1423,14.1227],[145.1262,14.1232],[145.1193,14.1296],[145.1307,14.1469],[145.1572,14.1638],[145.1864,14.1764],[145.2057,14.1814]]]}},{"type":"Feature","properties":{"id":"MNP-4939","name":"Saipan","nameBn":"সাইপন","type":null,"bounds":[145.6821,15.096,145.8237,15.2722],"center":[145.744,15.1921]},"geometry":{"type":"Polygon","coordinates":[[[145.7879,15.2673],[145.8011,15.2722],[145.8166,15.2702],[145.8237,15.2624],[145.8119,15.2502],[145.8005,15.2432],[145.7927,15.2322],[145.7759,15.1895],[145.7765,15.1809],[145.7845,15.1683],[145.7798,15.1592],[145.7736,15.1546],[145.7661,15.155],[145.7572,15.1608],[145.745,15.1498],[145.7388,15.1367],[145.7394,15.1227],[145.7469,15.1093],[145.7526,15.096],[145.7385,15.0964],[145.721,15.1024],[145.7163,15.1056],[145.6941,15.1005],[145.6856,15.1025],[145.6821,15.1165],[145.6838,15.1313],[145.6958,15.1683],[145.697,15.1826],[145.6965,15.1937],[145.6983,15.2032],[145.7058,15.2123],[145.7111,15.2155],[145.73,15.2229],[145.7334,15.2277],[145.7341,15.2392],[145.7361,15.2434],[145.7484,15.2493],[145.7744,15.2574],[145.7879,15.2673]]]}},{"type":"Feature","properties":{"id":"MNP-4938","name":"Tinian","nameBn":"টিনিয়ান","type":null,"bounds":[145.5772,14.9153,145.6678,15.0821],"center":[145.622,14.9995]},"geometry":{"type":"Polygon","coordinates":[[[145.6473,15.0721],[145.6526,15.0593],[145.6512,15.0466],[145.648,15.0329],[145.6473,15.0175],[145.6514,15.0087],[145.6651,14.993],[145.6678,14.9827],[145.6614,14.957],[145.6458,14.9298],[145.6258,14.9153],[145.6065,14.9281],[145.6018,14.9411],[145.5979,14.9687],[145.5921,14.9827],[145.5798,14.9986],[145.5772,15.0058],[145.5785,15.0175],[145.5901,15.0404],[145.6111,15.0668],[145.6331,15.0821],[145.6473,15.0721]]]}}]}