{"type":"FeatureCollection","features":[{"type":"Feature","properties":{"id":"MUS-5180","name":"Agaléga","nameBn":"আগালেগা","type":"Dependency","bounds":[56.5242,-10.4065,56.5693,-10.3239],"center":[56.5372,-10.3512]},"geometry":{"type":"Polygon","coordinates":[[[56.5242,-10.33],[56.5256,-10.3273],[56.5277,-10.3254],[56.531,-10.3242],[56.5357,-10.3239],[56.5428,-10.3464],[56.5686,-10.3864],[56.5693,-10.4065],[56.5485,-10.382],[56.5298,-10.353],[56.5246,-10.34],[56.5242,-10.33]]]}},{"type":"Feature","properties":{"id":"MUS-5181","name":"Beau Bassin-Rose Hill","nameBn":"বেউ বাসসিন-রোজ হিল","type":"City","bounds":[57.4561,-20.2561,57.4948,-20.2191],"center":[57.4713,-20.2387]},"geometry":{"type":"Polygon","coordinates":[[[57.457,-20.2561],[57.4561,-20.2432],[57.4597,-20.2191],[57.4831,-20.2192],[57.4948,-20.2485],[57.457,-20.2561]]]}},{"type":"Feature","properties":{"id":"MUS-5183","name":"Curepipe","nameBn":"কিউরপাই","type":"City","bounds":[57.4831,-20.3469,57.5545,-20.2965],"center":[57.5168,-20.3183]},"geometry":{"type":"Polygon","coordinates":[[[57.4831,-20.3221],[57.5288,-20.2965],[57.5504,-20.3147],[57.5545,-20.3264],[57.5036,-20.3469],[57.4831,-20.3221]]]}},{"type":"Feature","properties":{"id":"MUS-5184","name":"Flacq","nameBn":"ফ্লাকা জেলা","type":"District","bounds":[57.6072,-20.3284,57.7957,-20.0961],"center":[57.7206,-20.2173]},"geometry":{"type":"Polygon","coordinates":[[[57.7337,-20.0961],[57.7448,-20.1051],[57.7477,-20.1115],[57.7445,-20.1438],[57.7522,-20.1542],[57.7625,-20.162],[57.7721,-20.1905],[57.7914,-20.2122],[57.7957,-20.2228],[57.794,-20.2468],[57.7889,-20.2742],[57.7782,-20.3048],[57.7565,-20.3026],[57.7275,-20.3241],[57.6888,-20.3273],[57.6684,-20.3284],[57.6792,-20.2908],[57.6298,-20.2522],[57.662,-20.2221],[57.6276,-20.1974],[57.6072,-20.1888],[57.6079,-20.1849],[57.6094,-20.1759],[57.6266,-20.1652],[57.6308,-20.1555],[57.7337,-20.0961]]]}},{"type":"Feature","properties":{"id":"MUS-5185","name":"Grand Port","nameBn":"গ্র্যান্ড পোর্ট জেলা","type":"District","bounds":[57.546,-20.492,57.7815,-20.3026],"center":[57.6498,-20.392]},"geometry":{"type":"Polygon","coordinates":[[[57.7782,-20.3048],[57.7759,-20.3204],[57.7815,-20.3357],[57.7571,-20.3434],[57.7293,-20.3639],[57.7122,-20.3875],[57.72,-20.404],[57.7207,-20.4111],[57.7261,-20.4196],[57.7268,-20.4251],[57.7233,-20.4343],[57.7176,-20.4361],[57.7113,-20.4358],[57.7058,-20.4387],[57.6924,-20.4615],[57.6847,-20.4716],[57.6722,-20.4797],[57.631,-20.492],[57.6287,-20.4809],[57.6255,-20.4583],[57.6126,-20.425],[57.5943,-20.4057],[57.5739,-20.4014],[57.546,-20.4025],[57.5997,-20.3434],[57.6341,-20.3445],[57.6566,-20.3381],[57.6684,-20.3284],[57.6888,-20.3273],[57.7275,-20.3241],[57.7565,-20.3026],[57.7782,-20.3048]]]}},{"type":"Feature","properties":{"id":"MUS-5186","name":"Moka","nameBn":"মকা জেলা","type":"District","bounds":[57.4859,-20.3445,57.6792,-20.1845],"center":[57.5955,-20.2492]},"geometry":{"type":"Polygon","coordinates":[[[57.6079,-20.1849],[57.6072,-20.1888],[57.6276,-20.1974],[57.662,-20.2221],[57.6298,-20.2522],[57.6792,-20.2908],[57.6684,-20.3284],[57.6566,-20.3381],[57.6341,-20.3445],[57.5997,-20.3434],[57.5782,-20.3295],[57.5686,-20.3123],[57.5729,-20.2994],[57.5557,-20.2779],[57.546,-20.265],[57.5267,-20.2629],[57.5031,-20.2425],[57.4891,-20.2092],[57.4859,-20.1909],[57.5052,-20.1845],[57.5181,-20.1899],[57.5385,-20.1995],[57.5463,-20.202],[57.5557,-20.2049],[57.5729,-20.1985],[57.5933,-20.1856],[57.6079,-20.1849]]]}},{"type":"Feature","properties":{"id":"MUS-5187","name":"Pamplemousses","nameBn":"পামপ্লেমোসেস জেলা","type":"District","bounds":[57.4938,-20.2049,57.6351,-19.9999],"center":[57.573,-20.0899]},"geometry":{"type":"Polygon","coordinates":[[[57.4938,-20.1223],[57.4945,-20.1037],[57.5096,-20.0774],[57.522,-20.0416],[57.5281,-20.0309],[57.5325,-20.0248],[57.5601,-20.0038],[57.5669,-20.0009],[57.5803,-19.9999],[57.6104,-20.0342],[57.6126,-20.047],[57.6061,-20.061],[57.6351,-20.0889],[57.619,-20.1072],[57.6308,-20.1555],[57.6266,-20.1652],[57.6094,-20.1759],[57.6079,-20.1849],[57.5933,-20.1856],[57.5729,-20.1985],[57.5557,-20.2049],[57.5463,-20.202],[57.5503,-20.1759],[57.5471,-20.1351],[57.5396,-20.1222],[57.5213,-20.1265],[57.4993,-20.1232],[57.4938,-20.1223]]]}},{"type":"Feature","properties":{"id":"MUS-5188","name":"Plaines Wilhems","nameBn":"প্লেইন্স উইলহেম জেলা","type":"District","bounds":[57.4483,-20.425,57.5997,-20.1888],"center":[57.5197,-20.3599]},"geometry":{"type":"Polygon","coordinates":[[[57.5997,-20.3434],[57.546,-20.4025],[57.5353,-20.4046],[57.5267,-20.3982],[57.5117,-20.396],[57.5095,-20.4046],[57.5031,-20.425],[57.487,-20.4229],[57.488,-20.4079],[57.4784,-20.4025],[57.459,-20.3982],[57.4504,-20.3875],[57.4601,-20.3799],[57.4537,-20.3638],[57.4483,-20.3434],[57.4547,-20.337],[57.4687,-20.337],[57.473,-20.3305],[57.471,-20.3288],[57.4831,-20.3221],[57.5036,-20.3469],[57.5545,-20.3264],[57.5504,-20.3147],[57.5288,-20.2965],[57.5112,-20.2766],[57.4948,-20.2485],[57.4831,-20.2192],[57.4597,-20.2191],[57.462,-20.2034],[57.4708,-20.1888],[57.4859,-20.1909],[57.4891,-20.2092],[57.5031,-20.2425],[57.5267,-20.2629],[57.546,-20.265],[57.5557,-20.2779],[57.5729,-20.2994],[57.5686,-20.3123],[57.5782,-20.3295],[57.5997,-20.3434]]]}},{"type":"Feature","properties":{"id":"MUS-5189","name":"Port Louis","nameBn":"পোর্ট লুই","type":"City","bounds":[57.4654,-20.202,57.5503,-20.1222],"center":[57.5296,-20.1667]},"geometry":{"type":"Polygon","coordinates":[[[57.4708,-20.1888],[57.4654,-20.1675],[57.4777,-20.1659],[57.4913,-20.1682],[57.5015,-20.1715],[57.5098,-20.1662],[57.5125,-20.1573],[57.5221,-20.1486],[57.5194,-20.1351],[57.5128,-20.1337],[57.5058,-20.139],[57.4995,-20.1324],[57.4993,-20.1232],[57.5213,-20.1265],[57.5396,-20.1222],[57.5471,-20.1351],[57.5503,-20.1759],[57.5463,-20.202],[57.5385,-20.1995],[57.5181,-20.1899],[57.5052,-20.1845],[57.4859,-20.1909],[57.4708,-20.1888]]]}},{"type":"Feature","properties":{"id":"MUS-5190","name":"Port Louis city","nameBn":"পোর্ট লুইস","type":"City","bounds":[57.4639,-20.1715,57.5221,-20.1223],"center":[57.5038,-20.1496]},"geometry":{"type":"Polygon","coordinates":[[[57.4639,-20.1616],[57.4736,-20.1575],[57.4907,-20.1408],[57.4938,-20.1223],[57.4993,-20.1232],[57.4995,-20.1324],[57.5058,-20.139],[57.5128,-20.1337],[57.5194,-20.1351],[57.5221,-20.1486],[57.5125,-20.1573],[57.5098,-20.1662],[57.5015,-20.1715],[57.4913,-20.1682],[57.4777,-20.1659],[57.4654,-20.1675],[57.4639,-20.1616]]]}},{"type":"Feature","properties":{"id":"MUS-5191","name":"Quatre Bornes","nameBn":"কোউয়াত্রে বোর্নেস","type":"City","bounds":[57.457,-20.2909,57.5112,-20.2485],"center":[57.4801,-20.2688]},"geometry":{"type":"Polygon","coordinates":[[[57.4592,-20.2909],[57.457,-20.2561],[57.4948,-20.2485],[57.5112,-20.2766],[57.4592,-20.2909]]]}},{"type":"Feature","properties":{"id":"MUS-5193","name":"Rivière Noire","nameBn":"রিভেরি নয়রে জেলা","type":"District","bounds":[57.3035,-20.507,57.488,-20.1616],"center":[57.4149,-20.3424]},"geometry":{"type":"Polygon","coordinates":[[[57.3993,-20.498],[57.3781,-20.507],[57.3206,-20.4582],[57.3079,-20.4443],[57.3035,-20.4309],[57.3193,-20.4251],[57.3441,-20.4299],[57.3578,-20.4274],[57.3638,-20.4145],[57.369,-20.3864],[57.3678,-20.3762],[57.3569,-20.3704],[57.365,-20.346],[57.366,-20.2908],[57.3706,-20.2605],[57.3775,-20.2431],[57.4002,-20.2006],[57.4085,-20.1923],[57.4105,-20.1892],[57.4326,-20.1718],[57.4422,-20.1674],[57.4639,-20.1616],[57.4654,-20.1675],[57.4708,-20.1888],[57.462,-20.2034],[57.4597,-20.2191],[57.4561,-20.2432],[57.457,-20.2561],[57.4592,-20.2909],[57.4601,-20.3048],[57.4633,-20.322],[57.471,-20.3288],[57.473,-20.3305],[57.4687,-20.337],[57.4547,-20.337],[57.4483,-20.3434],[57.4537,-20.3638],[57.4601,-20.3799],[57.4504,-20.3875],[57.459,-20.3982],[57.4784,-20.4025],[57.488,-20.4079],[57.487,-20.4229],[57.4751,-20.4165],[57.4537,-20.4229],[57.4333,-20.4304],[57.4096,-20.4476],[57.3914,-20.453],[57.3914,-20.4734],[57.4021,-20.483],[57.3993,-20.498]]]}},{"type":"Feature","properties":{"id":"MUS-5192","name":"Rivière du Rempart","nameBn":"রিভেরি ডো রেম্প জেলা","type":"District","bounds":[57.5803,-20.1555,57.7337,-19.9794],"center":[57.6557,-20.0651]},"geometry":{"type":"Polygon","coordinates":[[[57.5803,-19.9999],[57.5861,-19.9968],[57.5905,-19.9897],[57.5965,-19.9826],[57.6071,-19.9794],[57.6229,-19.9817],[57.6677,-19.9941],[57.6797,-19.9999],[57.6848,-20.011],[57.6792,-20.0283],[57.6831,-20.0378],[57.6902,-20.0473],[57.6978,-20.0641],[57.7062,-20.0784],[57.7088,-20.0899],[57.7139,-20.0961],[57.7179,-20.0969],[57.7297,-20.0951],[57.7337,-20.0961],[57.6308,-20.1555],[57.619,-20.1072],[57.6351,-20.0889],[57.6061,-20.061],[57.6126,-20.047],[57.6104,-20.0342],[57.5803,-19.9999]]]}},{"type":"Feature","properties":{"id":"MUS-5194","name":"Rodrigues","nameBn":"রডরিগুয়েজ","type":"Dependency","bounds":[63.3323,-19.7672,63.4939,-19.6699],"center":[63.4542,-19.697]},"geometry":{"type":"Polygon","coordinates":[[[63.4762,-19.6778],[63.4939,-19.6819],[63.4896,-19.7014],[63.4694,-19.7229],[63.4387,-19.733],[63.4165,-19.7364],[63.4006,-19.7449],[63.3856,-19.756],[63.3664,-19.7672],[63.3377,-19.7385],[63.3323,-19.7364],[63.3352,-19.7179],[63.3433,-19.7097],[63.3552,-19.7047],[63.3892,-19.6847],[63.4212,-19.6744],[63.4543,-19.6699],[63.4762,-19.6778]]]}},{"type":"Feature","properties":{"id":"MUS-5195","name":"Savanne","nameBn":"সাবানে জেলা","type":"District","bounds":[57.3914,-20.5173,57.631,-20.396],"center":[57.5211,-20.464]},"geometry":{"type":"Polygon","coordinates":[[[57.631,-20.492],[57.5884,-20.5048],[57.5036,-20.5173],[57.4736,-20.5151],[57.4269,-20.5009],[57.3993,-20.498],[57.4021,-20.483],[57.3914,-20.4734],[57.3914,-20.453],[57.4096,-20.4476],[57.4333,-20.4304],[57.4537,-20.4229],[57.4751,-20.4165],[57.487,-20.4229],[57.5031,-20.425],[57.5095,-20.4046],[57.5117,-20.396],[57.5267,-20.3982],[57.5353,-20.4046],[57.546,-20.4025],[57.5739,-20.4014],[57.5943,-20.4057],[57.6126,-20.425],[57.6255,-20.4583],[57.6287,-20.4809],[57.631,-20.492]]]}},{"type":"Feature","properties":{"id":"MUS-5196","name":"Vacoas-Phoenix","nameBn":"ভাকোয়াস-ফিনিক্স","type":"City","bounds":[57.4592,-20.3288,57.5288,-20.2766],"center":[57.4908,-20.3024]},"geometry":{"type":"Polygon","coordinates":[[[57.471,-20.3288],[57.4633,-20.322],[57.4601,-20.3048],[57.4592,-20.2909],[57.5112,-20.2766],[57.5288,-20.2965],[57.4831,-20.3221],[57.471,-20.3288]]]}}]}