{"type":"FeatureCollection","features":[{"type":"Feature","properties":{"id":"MWI-1915","name":"Balaka","nameBn":"বালাকা জেলা","type":"District","bounds":[34.8431,-15.3246,35.3152,-14.7554],"center":[35.0792,-15.037]},"geometry":{"type":"Polygon","coordinates":[[[35.1726,-15.2302],[35.1272,-15.2715],[35.1076,-15.3026],[35.0949,-15.3145],[35.0546,-15.3246],[34.8431,-15.3137],[34.9174,-14.9925],[34.9174,-14.9839],[34.9168,-14.9768],[34.9138,-14.9677],[34.9147,-14.9631],[34.9175,-14.9563],[34.9688,-14.888],[34.9731,-14.8791],[34.99,-14.8218],[34.9918,-14.8089],[34.9914,-14.7993],[34.9872,-14.7825],[34.985,-14.7679],[34.9903,-14.7554],[35.0001,-14.7555],[35.275,-14.7557],[35.278,-14.7575],[35.3018,-14.7821],[35.313,-14.8254],[35.3152,-14.8725],[35.3054,-14.9532],[35.2988,-14.9748],[35.2882,-14.9841],[35.2733,-14.9942],[35.2428,-15.0401],[35.2364,-15.0524],[35.2337,-15.0611],[35.2323,-15.0765],[35.2302,-15.0865],[35.2125,-15.1217],[35.2065,-15.148],[35.1919,-15.1854],[35.1886,-15.2063],[35.1808,-15.2227],[35.1726,-15.2302]]]}},{"type":"Feature","properties":{"id":"MWI-1921","name":"Blantyre","nameBn":"ব্লান্তি জেলা","type":"District","bounds":[34.7364,-16.0315,35.1463,-15.351],"center":[34.9413,-15.6875]},"geometry":{"type":"Polygon","coordinates":[[[35.1424,-15.5373],[35.105,-15.6047],[35.104,-15.6158],[35.1053,-15.6298],[35.1119,-15.6371],[35.116,-15.6562],[35.1185,-15.6851],[35.1163,-15.7822],[35.1177,-15.8018],[35.1241,-15.8196],[35.1463,-15.8609],[35.039,-15.9239],[35.0251,-15.9267],[35.0056,-15.9278],[34.9998,-15.9293],[34.9942,-15.9319],[34.9872,-15.9384],[34.9804,-15.9474],[34.9614,-15.9805],[34.9518,-15.9923],[34.9267,-16.0143],[34.9191,-16.0193],[34.8916,-16.0267],[34.8854,-16.0315],[34.8824,-16.0294],[34.8797,-16.0242],[34.8755,-16.0088],[34.8753,-16.0004],[34.8766,-15.9942],[34.884,-15.9847],[34.8846,-15.9793],[34.8807,-15.974],[34.87,-15.9716],[34.86,-15.9725],[34.8505,-15.9724],[34.8456,-15.9679],[34.8463,-15.9568],[34.8614,-15.9284],[34.8626,-15.9199],[34.8611,-15.9011],[34.864,-15.8903],[34.8753,-15.8708],[34.879,-15.8617],[34.8792,-15.8555],[34.8775,-15.85],[34.875,-15.8452],[34.8696,-15.8315],[34.8676,-15.8277],[34.8635,-15.8237],[34.8508,-15.8214],[34.7498,-15.8122],[34.7436,-15.7376],[34.7364,-15.7152],[34.7365,-15.7027],[34.7517,-15.6944],[34.7579,-15.6876],[34.7631,-15.6796],[34.7653,-15.6727],[34.763,-15.6107],[34.7653,-15.5936],[34.777,-15.5824],[34.8258,-15.552],[34.8429,-15.5458],[34.8582,-15.5222],[34.8947,-15.4185],[34.9112,-15.395],[34.9205,-15.3911],[34.9484,-15.3676],[34.9585,-15.3647],[34.99,-15.3608],[35.008,-15.3524],[35.0111,-15.351],[35.0319,-15.3884],[35.0547,-15.4072],[35.0882,-15.4549],[35.0974,-15.4656],[35.1068,-15.4726],[35.1154,-15.4742],[35.1328,-15.4744],[35.1393,-15.4758],[35.1407,-15.4799],[35.1384,-15.4856],[35.1175,-15.5094],[35.114,-15.5154],[35.1121,-15.5217],[35.1132,-15.5293],[35.1177,-15.5343],[35.1238,-15.537],[35.1295,-15.5378],[35.1424,-15.5373]]]}},{"type":"Feature","properties":{"id":"MWI-1916","name":"Chikwawa","nameBn":"চিকাওয়ালা জেলা","type":"District","bounds":[34.2313,-16.7008,35.0961,-15.7303],"center":[34.6636,-16.1524]},"geometry":{"type":"Polygon","coordinates":[[[34.8866,-16.7008],[34.8775,-16.6944],[34.8599,-16.6872],[34.8446,-16.6784],[34.8348,-16.6631],[34.8276,-16.6415],[34.8195,-16.6278],[34.773,-16.5897],[34.7629,-16.5764],[34.745,-16.5429],[34.7321,-16.5292],[34.6687,-16.4966],[34.6612,-16.4939],[34.655,-16.4894],[34.6427,-16.4597],[34.6374,-16.4505],[34.6307,-16.4434],[34.5983,-16.4197],[34.5858,-16.4078],[34.5751,-16.3923],[34.5471,-16.3231],[34.5247,-16.3008],[34.4804,-16.2945],[34.446,-16.2932],[34.4265,-16.2739],[34.3852,-16.1865],[34.3892,-16.1525],[34.409,-16.0879],[34.4045,-16.0597],[34.3877,-16.037],[34.3043,-15.9522],[34.2897,-15.9435],[34.2564,-15.9282],[34.244,-15.9176],[34.2332,-15.8898],[34.2313,-15.8542],[34.2364,-15.8192],[34.2471,-15.7941],[34.2756,-15.7644],[34.2933,-15.7511],[34.3103,-15.7433],[34.331,-15.7371],[34.3418,-15.7309],[34.3422,-15.7303],[34.3566,-15.736],[34.4975,-15.7948],[34.537,-15.8068],[34.7498,-15.8122],[34.8508,-15.8214],[34.8635,-15.8237],[34.8676,-15.8277],[34.8696,-15.8315],[34.875,-15.8452],[34.8775,-15.85],[34.8792,-15.8555],[34.879,-15.8617],[34.8753,-15.8708],[34.864,-15.8903],[34.8611,-15.9011],[34.8626,-15.9199],[34.8614,-15.9284],[34.8463,-15.9568],[34.8456,-15.9679],[34.8505,-15.9724],[34.86,-15.9725],[34.87,-15.9716],[34.8807,-15.974],[34.8846,-15.9793],[34.884,-15.9847],[34.8766,-15.9942],[34.8753,-16.0004],[34.8755,-16.0088],[34.8797,-16.0242],[34.8824,-16.0294],[34.8854,-16.0315],[34.8916,-16.0267],[34.9489,-16.1161],[35.0823,-16.2642],[35.0839,-16.2714],[35.0844,-16.2816],[35.0831,-16.289],[35.0961,-16.3314],[35.0634,-16.4783],[35.0606,-16.4851],[35.0573,-16.4891],[35.05,-16.4935],[35.0308,-16.5109],[34.9767,-16.5696],[34.9706,-16.5798],[34.9652,-16.5973],[34.9661,-16.6077],[34.9683,-16.6159],[34.9677,-16.6216],[34.9624,-16.6269],[34.9501,-16.6323],[34.9321,-16.6429],[34.9152,-16.6585],[34.8938,-16.6903],[34.8936,-16.6903],[34.8866,-16.7008]]]}},{"type":"Feature","properties":{"id":"MWI-1917","name":"Chiradzulu","nameBn":"কিরাদজুলু জেলা","type":"District","bounds":[35.104,-16.0053,35.3407,-15.5231],"center":[35.2224,-15.7358]},"geometry":{"type":"Polygon","coordinates":[[[35.1875,-15.5231],[35.1931,-15.525],[35.195,-15.5312],[35.1933,-15.5454],[35.1942,-15.5552],[35.2012,-15.5658],[35.2113,-15.5725],[35.2271,-15.5792],[35.2364,-15.5859],[35.2433,-15.5951],[35.2512,-15.6172],[35.2581,-15.6308],[35.2724,-15.6507],[35.2843,-15.6614],[35.2953,-15.668],[35.3407,-15.6834],[35.3214,-15.74],[35.3207,-15.7768],[35.3348,-15.9427],[35.3338,-15.957],[35.3286,-15.9684],[35.3238,-15.973],[35.3104,-16.0053],[35.2901,-15.994],[35.2783,-15.9822],[35.2705,-15.9725],[35.266,-15.9634],[35.2608,-15.9418],[35.255,-15.9278],[35.249,-15.9188],[35.2136,-15.8865],[35.2062,-15.8781],[35.1996,-15.8685],[35.193,-15.864],[35.1835,-15.8614],[35.1463,-15.8609],[35.1241,-15.8196],[35.1177,-15.8018],[35.1163,-15.7822],[35.1185,-15.6851],[35.116,-15.6562],[35.1119,-15.6371],[35.1053,-15.6298],[35.104,-15.6158],[35.105,-15.6047],[35.1424,-15.5373],[35.1563,-15.5348],[35.1632,-15.537],[35.1698,-15.5338],[35.1763,-15.5293],[35.1875,-15.5231]]]}},{"type":"Feature","properties":{"id":"MWI-1194","name":"Chitipa","nameBn":"কিটিপা জেলা","type":"District","bounds":[33.4791,-10.5849,34.6209,-9.4775],"center":[33.8876,-10.0267]},"geometry":{"type":"Polygon","coordinates":[[[34.0127,-9.4775],[34.0475,-9.49],[34.0785,-9.5102],[34.0798,-9.511],[34.0893,-9.5222],[34.1032,-9.5299],[34.1371,-9.5706],[34.1446,-9.5749],[34.1619,-9.5936],[34.1908,-9.6068],[34.2881,-9.7084],[34.3179,-9.7192],[34.3242,-9.7324],[34.3267,-9.7503],[34.3317,-9.7692],[34.3375,-9.7772],[34.3597,-9.7999],[34.3642,-9.8024],[34.3823,-9.8197],[34.3835,-9.8238],[34.4833,-9.9462],[34.4947,-9.9667],[34.5247,-10.0088],[34.5364,-10.043],[34.5378,-10.0539],[34.5357,-10.0653],[34.5268,-10.0849],[34.5247,-10.0948],[34.5324,-10.1289],[34.5656,-10.2027],[34.5751,-10.2558],[34.5834,-10.2776],[34.5856,-10.29],[34.5853,-10.3007],[34.5651,-10.4098],[34.5695,-10.4314],[34.5887,-10.4631],[34.593,-10.4817],[34.5908,-10.4912],[34.5815,-10.5137],[34.5794,-10.5265],[34.5801,-10.5318],[34.5811,-10.5397],[34.5857,-10.5536],[34.5923,-10.5667],[34.6004,-10.5781],[34.6089,-10.582],[34.6176,-10.5815],[34.6209,-10.5824],[34.6165,-10.5832],[34.1844,-10.5849],[34.1713,-10.5829],[34.1494,-10.5759],[34.1403,-10.5755],[34.1307,-10.5778],[34.1183,-10.5821],[34.1115,-10.5826],[34.0901,-10.5694],[33.9485,-10.452],[33.7202,-10.1002],[33.7089,-10.0772],[33.7013,-10.0674],[33.6942,-10.0649],[33.6581,-10.0684],[33.6353,-10.0685],[33.6259,-10.0651],[33.6133,-10.0579],[33.5792,-10.0296],[33.5713,-10.0247],[33.5672,-10.0238],[33.5537,-10.0224],[33.543,-10.0204],[33.5321,-10.0145],[33.5247,-10.0073],[33.5166,-9.9954],[33.5117,-9.9895],[33.505,-9.9845],[33.4977,-9.9807],[33.4857,-9.9723],[33.4811,-9.9651],[33.4791,-9.957],[33.4797,-9.9445],[33.4816,-9.9408],[33.4857,-9.9379],[33.5112,-9.93],[33.5594,-9.9],[33.5646,-9.8954],[33.5706,-9.8868],[33.5741,-9.8833],[33.5869,-9.8809],[33.595,-9.8782],[33.6083,-9.8665],[33.615,-9.8584],[33.6217,-9.8483],[33.6307,-9.8284],[33.6343,-9.8234],[33.6448,-9.8154],[33.6575,-9.8024],[33.664,-9.7968],[33.6699,-9.7932],[33.6774,-9.791],[33.6945,-9.7878],[33.6983,-9.7818],[33.699,-9.7711],[33.6923,-9.754],[33.6901,-9.7438],[33.6887,-9.725],[33.6845,-9.7156],[33.6779,-9.7042],[33.6748,-9.6952],[33.6742,-9.6879],[33.6771,-9.6706],[33.6777,-9.6594],[33.6735,-9.6508],[33.6695,-9.6462],[33.6501,-9.6109],[33.6506,-9.611],[33.6761,-9.6077],[33.7025,-9.5929],[33.7346,-9.5841],[33.762,-9.601],[33.7875,-9.6265],[33.8135,-9.6433],[33.8369,-9.6528],[33.8653,-9.6696],[33.8893,-9.6897],[33.9002,-9.7096],[33.9119,-9.718],[33.9283,-9.7003],[33.9283,-9.6935],[33.9431,-9.6839],[33.9513,-9.6736],[33.9549,-9.6606],[33.9556,-9.6423],[33.9626,-9.6121],[33.9645,-9.5947],[33.9459,-9.55],[33.9607,-9.5249],[33.9843,-9.5056],[33.9965,-9.4918],[34.0127,-9.4775]]]}},{"type":"Feature","properties":{"id":"MWI-1873","name":"Chitipa","nameBn":"কিটিপা জেলা","type":"District","bounds":[32.9209,-10.573,33.9485,-9.3812],"center":[33.4345,-9.8857]},"geometry":{"type":"Polygon","coordinates":[[[32.9375,-9.4878],[32.9278,-9.4798],[32.923,-9.4663],[32.9209,-9.4079],[32.9363,-9.3917],[32.9553,-9.3821],[32.9747,-9.3812],[32.9923,-9.3914],[33.0423,-9.4407],[33.1039,-9.4879],[33.113,-9.4915],[33.1399,-9.4974],[33.1692,-9.5089],[33.1729,-9.511],[33.182,-9.5079],[33.1958,-9.4967],[33.2024,-9.4935],[33.2163,-9.4934],[33.2371,-9.4996],[33.2491,-9.5007],[33.2577,-9.498],[33.2735,-9.4877],[33.2824,-9.486],[33.3003,-9.4922],[33.3565,-9.5318],[33.375,-9.5491],[33.3922,-9.5862],[33.4042,-9.6049],[33.4196,-9.6156],[33.439,-9.6215],[33.4805,-9.6244],[33.5116,-9.617],[33.5352,-9.6033],[33.5595,-9.5933],[33.5934,-9.5968],[33.6239,-9.6063],[33.6501,-9.6109],[33.6695,-9.6462],[33.6735,-9.6508],[33.6777,-9.6594],[33.6771,-9.6706],[33.6742,-9.6879],[33.6748,-9.6952],[33.6779,-9.7042],[33.6845,-9.7156],[33.6887,-9.725],[33.6901,-9.7438],[33.6923,-9.754],[33.699,-9.7711],[33.6983,-9.7818],[33.6945,-9.7878],[33.6774,-9.791],[33.6699,-9.7932],[33.664,-9.7968],[33.6575,-9.8024],[33.6448,-9.8154],[33.6343,-9.8234],[33.6307,-9.8284],[33.6217,-9.8483],[33.615,-9.8584],[33.6083,-9.8665],[33.595,-9.8782],[33.5869,-9.8809],[33.5741,-9.8833],[33.5706,-9.8868],[33.5646,-9.8954],[33.5594,-9.9],[33.5112,-9.93],[33.4857,-9.9379],[33.4816,-9.9408],[33.4797,-9.9445],[33.4791,-9.957],[33.4811,-9.9651],[33.4857,-9.9723],[33.4977,-9.9807],[33.505,-9.9845],[33.5117,-9.9895],[33.5166,-9.9954],[33.5247,-10.0073],[33.5321,-10.0145],[33.543,-10.0204],[33.5537,-10.0224],[33.5672,-10.0238],[33.5713,-10.0247],[33.5792,-10.0296],[33.6133,-10.0579],[33.6259,-10.0651],[33.6353,-10.0685],[33.6581,-10.0684],[33.6942,-10.0649],[33.7013,-10.0674],[33.7089,-10.0772],[33.7202,-10.1002],[33.9485,-10.452],[33.7022,-10.5619],[33.6738,-10.573],[33.6735,-10.5694],[33.6727,-10.5596],[33.6656,-10.5414],[33.6654,-10.5151],[33.6382,-10.5116],[33.6227,-10.494],[33.6032,-10.4492],[33.5956,-10.4406],[33.5676,-10.416],[33.5592,-10.4043],[33.5329,-10.3426],[33.5293,-10.3186],[33.5356,-10.2627],[33.5333,-10.2312],[33.519,-10.215],[33.4991,-10.2012],[33.4805,-10.1771],[33.4546,-10.1681],[33.4365,-10.1533],[33.4202,-10.1356],[33.3992,-10.1179],[33.3175,-10.0821],[33.3041,-10.0638],[33.3047,-10.0379],[33.31,-10.0127],[33.3288,-9.9655],[33.3585,-9.9199],[33.3656,-9.8988],[33.3592,-9.8709],[33.3435,-9.8314],[33.337,-9.8237],[33.3,-9.8103],[33.2878,-9.8038],[33.2758,-9.7933],[33.2672,-9.7812],[33.2527,-9.754],[33.2418,-9.7424],[33.2167,-9.7271],[33.2073,-9.7129],[33.2046,-9.6981],[33.2078,-9.6887],[33.213,-9.6806],[33.2158,-9.6699],[33.2143,-9.6547],[33.2098,-9.6414],[33.1954,-9.6163],[33.1754,-9.6023],[33.1215,-9.5995],[33.0983,-9.5885],[33.0925,-9.6144],[33.0892,-9.644],[33.0804,-9.6623],[33.0583,-9.6543],[33.0531,-9.6448],[33.0508,-9.6327],[33.0467,-9.622],[33.0357,-9.617],[33.0223,-9.6203],[33.0112,-9.6278],[33.0001,-9.6328],[32.9869,-9.6285],[32.9747,-9.6013],[32.9924,-9.5291],[32.992,-9.5018],[32.9831,-9.4977],[32.9686,-9.4844],[32.9619,-9.4803],[32.9503,-9.4809],[32.9436,-9.4857],[32.9375,-9.4878]]]}},{"type":"Feature","properties":{"id":"MWI-1907","name":"Dedza","nameBn":"ডেডজা জেলা","type":"District","bounds":[33.6184,-14.607,34.7484,-13.8508],"center":[34.1833,-14.2064]},"geometry":{"type":"Polygon","coordinates":[[[33.6624,-14.607],[33.6448,-14.6017],[33.633,-14.5914],[33.6245,-14.5781],[33.6184,-14.5618],[33.6358,-14.5529],[33.6448,-14.5397],[33.6549,-14.5333],[33.6636,-14.5254],[33.6861,-14.4916],[33.6892,-14.481],[33.6921,-14.4376],[33.6951,-14.422],[33.7002,-14.4075],[33.7073,-14.3958],[33.7163,-14.3861],[33.7292,-14.3783],[33.7984,-14.3456],[33.8099,-14.3372],[33.8218,-14.3255],[33.8431,-14.3105],[33.8552,-14.3071],[33.8731,-14.3085],[33.8827,-14.3058],[33.9067,-14.2963],[33.916,-14.2949],[33.9255,-14.2947],[33.9336,-14.2909],[33.9418,-14.2823],[33.9468,-14.2657],[33.9514,-14.2195],[33.9561,-14.2057],[33.9639,-14.1957],[33.9781,-14.188],[34.0163,-14.1831],[34.0268,-14.1779],[34.0388,-14.1679],[34.0512,-14.1552],[34.0627,-14.1393],[34.0779,-14.1279],[34.0934,-14.113],[34.1035,-14.0847],[34.1097,-14.0726],[34.1181,-14.06],[34.133,-14.0439],[34.1455,-14.0264],[34.16,-14.0121],[34.1691,-13.9998],[34.1964,-13.9496],[34.2003,-13.9375],[34.205,-13.9277],[34.2101,-13.9209],[34.2222,-13.9147],[34.2477,-13.8971],[34.2659,-13.88],[34.2836,-13.8508],[34.3275,-13.9116],[34.3893,-13.9701],[34.4032,-13.9863],[34.4366,-14.0451],[34.4683,-14.0909],[34.4844,-14.1072],[34.4964,-14.1143],[34.5007,-14.1126],[34.506,-14.1084],[34.5271,-14.0864],[34.5333,-14.0814],[34.5388,-14.0776],[34.5429,-14.0752],[34.5499,-14.0728],[34.736,-14.0781],[34.7484,-14.2613],[34.7482,-14.3032],[34.6674,-14.3514],[34.5921,-14.4065],[34.5352,-14.4294],[34.5195,-14.4327],[34.5091,-14.4317],[34.4975,-14.4216],[34.481,-14.4142],[34.4737,-14.4099],[34.468,-14.4054],[34.461,-14.4024],[34.4525,-14.4001],[34.4373,-14.3986],[34.4137,-14.3942],[34.4081,-14.3944],[34.4035,-14.3957],[34.3929,-14.4035],[34.3927,-14.4037],[34.3804,-14.4136],[34.3721,-14.402],[34.3441,-14.3874],[34.3353,-14.3888],[34.3278,-14.3936],[34.3205,-14.3994],[34.3129,-14.4042],[34.3049,-14.4058],[34.2889,-14.404],[34.2813,-14.405],[34.1824,-14.4395],[34.1096,-14.4414],[34.0775,-14.4547],[34.0702,-14.4649],[34.0586,-14.4901],[34.0508,-14.4952],[33.9456,-14.4814],[33.9163,-14.4813],[33.8889,-14.4882],[33.8308,-14.5227],[33.8024,-14.5328],[33.7742,-14.53],[33.7204,-14.4897],[33.6992,-14.4962],[33.6841,-14.5188],[33.6755,-14.5478],[33.6754,-14.5823],[33.6722,-14.6002],[33.6624,-14.607]]]}},{"type":"Feature","properties":{"id":"MWI-1908","name":"Dowa","nameBn":"ডুওয়া জেলা","type":"District","bounds":[33.4223,-13.8234,34.3079,-13.234],"center":[33.8651,-13.625]},"geometry":{"type":"Polygon","coordinates":[[[34.1167,-13.5046],[34.1321,-13.5784],[34.1317,-13.5901],[34.1293,-13.6058],[34.1242,-13.6135],[34.1204,-13.6205],[34.1215,-13.6239],[34.1338,-13.6314],[34.1403,-13.6363],[34.1853,-13.6796],[34.1937,-13.6862],[34.202,-13.6912],[34.2096,-13.6933],[34.2181,-13.6933],[34.2278,-13.6914],[34.2633,-13.6727],[34.2701,-13.6703],[34.2759,-13.6708],[34.2827,-13.6758],[34.2857,-13.6857],[34.2857,-13.6965],[34.2846,-13.7061],[34.2844,-13.7123],[34.2876,-13.7207],[34.2931,-13.7261],[34.3026,-13.731],[34.3065,-13.7359],[34.3079,-13.7396],[34.3068,-13.746],[34.3048,-13.751],[34.3021,-13.7551],[34.297,-13.7587],[34.2922,-13.7614],[34.2777,-13.7661],[34.268,-13.7683],[34.2616,-13.7706],[34.2576,-13.7729],[34.2557,-13.7748],[34.2546,-13.7761],[34.2504,-13.7803],[34.2228,-13.7954],[34.2126,-13.7955],[34.1764,-13.7914],[34.1635,-13.7934],[34.1521,-13.7985],[34.14,-13.8054],[34.122,-13.8131],[34.1012,-13.818],[34.0495,-13.8234],[34.0346,-13.8155],[34.0259,-13.8077],[34.0206,-13.7998],[34.0175,-13.796],[34.0095,-13.7894],[33.9972,-13.7817],[33.9907,-13.7792],[33.9705,-13.7737],[33.9412,-13.7621],[33.9168,-13.7566],[33.9012,-13.7554],[33.8878,-13.7561],[33.8397,-13.763],[33.8045,-13.7638],[33.7863,-13.7581],[33.7747,-13.7482],[33.7702,-13.7355],[33.7666,-13.7118],[33.7601,-13.6901],[33.7581,-13.6805],[33.7571,-13.6707],[33.7548,-13.6621],[33.7495,-13.6596],[33.7404,-13.6604],[33.5824,-13.7036],[33.5235,-13.703],[33.4767,-13.6796],[33.467,-13.6652],[33.4631,-13.6508],[33.4614,-13.6369],[33.4448,-13.5632],[33.4448,-13.5478],[33.451,-13.5122],[33.451,-13.5045],[33.4465,-13.4975],[33.4415,-13.493],[33.4223,-13.4805],[33.4409,-13.4457],[33.4481,-13.4232],[33.4605,-13.4036],[33.4639,-13.3971],[33.4716,-13.3747],[33.4726,-13.3689],[33.4724,-13.3633],[33.4707,-13.3585],[33.4684,-13.354],[33.4629,-13.3456],[33.4606,-13.3411],[33.4589,-13.3364],[33.4589,-13.331],[33.4617,-13.3265],[33.4665,-13.3234],[33.4755,-13.3231],[33.4812,-13.3252],[33.4859,-13.3285],[33.4893,-13.332],[33.4966,-13.3378],[33.4999,-13.3399],[33.5031,-13.3413],[33.508,-13.3428],[33.5137,-13.3437],[33.5201,-13.344],[33.5261,-13.3418],[33.5326,-13.3379],[33.5399,-13.3273],[33.548,-13.3213],[33.559,-13.3013],[33.5634,-13.2972],[33.5778,-13.2897],[33.5866,-13.2835],[33.5906,-13.2784],[33.5945,-13.2713],[33.6034,-13.2495],[33.6189,-13.234],[33.6268,-13.2694],[33.6318,-13.2738],[33.6394,-13.2793],[33.651,-13.2855],[33.6651,-13.2962],[33.6915,-13.322],[33.7056,-13.342],[33.7172,-13.3624],[33.7392,-13.4177],[33.7421,-13.4312],[33.7447,-13.4761],[33.7478,-13.4933],[33.7534,-13.501],[33.7587,-13.5049],[33.7658,-13.5057],[33.8177,-13.5066],[33.8721,-13.4883],[33.8834,-13.4861],[33.899,-13.4864],[33.9147,-13.4896],[33.9398,-13.4987],[33.9541,-13.5017],[33.9823,-13.4993],[33.9978,-13.4998],[34.0547,-13.5205],[34.0647,-13.5222],[34.0731,-13.5223],[34.0799,-13.5207],[34.1077,-13.5094],[34.1167,-13.5046]]]}},{"type":"Feature","properties":{"id":"MWI-1899","name":"Kasungu","nameBn":"কাসোগু জেলা","type":"District","bounds":[32.9055,-13.6283,34.002,-12.3743],"center":[33.4535,-12.9319]},"geometry":{"type":"Polygon","coordinates":[[[33.3283,-12.5376],[33.3504,-12.5327],[33.3732,-12.5185],[33.3938,-12.4983],[33.4094,-12.4752],[33.4208,-12.465],[33.4511,-12.453],[33.46,-12.4411],[33.4608,-12.4165],[33.4653,-12.4091],[33.4805,-12.4064],[33.4878,-12.3898],[33.5139,-12.3743],[33.5287,-12.3776],[33.5736,-12.3868],[33.5801,-12.3924],[33.5855,-12.3993],[33.5849,-12.4055],[33.5834,-12.4112],[33.5809,-12.4161],[33.5779,-12.4202],[33.568,-12.4312],[33.5651,-12.4353],[33.5624,-12.44],[33.5604,-12.4453],[33.5579,-12.4573],[33.5585,-12.5114],[33.5603,-12.5219],[33.5626,-12.5293],[33.5753,-12.5445],[33.5824,-12.557],[33.5848,-12.5653],[33.5852,-12.5725],[33.583,-12.5771],[33.5798,-12.5806],[33.5759,-12.5837],[33.5719,-12.5918],[33.5689,-12.604],[33.5682,-12.6328],[33.5717,-12.6435],[33.5765,-12.6484],[33.5885,-12.6471],[33.595,-12.6475],[33.6013,-12.6484],[33.6068,-12.6504],[33.611,-12.6532],[33.6177,-12.6605],[33.6352,-12.6859],[33.646,-12.698],[33.6512,-12.7025],[33.6564,-12.7058],[33.6614,-12.7082],[33.6728,-12.7113],[33.6859,-12.7134],[33.6994,-12.7143],[33.7058,-12.714],[33.7112,-12.7128],[33.7215,-12.7094],[33.7259,-12.7071],[33.734,-12.7015],[33.7376,-12.6983],[33.7415,-12.6959],[33.7461,-12.6942],[33.7578,-12.6937],[33.7629,-12.6927],[33.7702,-12.6947],[33.7785,-12.6993],[33.8004,-12.718],[33.8065,-12.7221],[33.8111,-12.7221],[33.8149,-12.7196],[33.8186,-12.7166],[33.8266,-12.7119],[33.8351,-12.7096],[33.8215,-12.7885],[33.8206,-12.8197],[33.8232,-12.8298],[33.8277,-12.8405],[33.8327,-12.846],[33.8397,-12.8488],[33.8483,-12.8491],[33.9049,-12.8424],[33.9129,-12.8426],[33.9218,-12.8439],[33.9312,-12.8467],[33.9435,-12.854],[33.9524,-12.8651],[33.9626,-12.8821],[33.9959,-12.9201],[34.0009,-12.933],[34.002,-12.9384],[34.0004,-12.9415],[33.9904,-12.9463],[33.9509,-12.9778],[33.9478,-12.9815],[33.9435,-12.9887],[33.9362,-13.0068],[33.9336,-13.0108],[33.9209,-13.0228],[33.8483,-13.0578],[33.8404,-13.0644],[33.8308,-13.0741],[33.829,-13.0816],[33.8237,-13.0924],[33.8173,-13.0979],[33.8079,-13.1033],[33.793,-13.1094],[33.7797,-13.1197],[33.7736,-13.127],[33.7609,-13.1495],[33.7409,-13.1722],[33.7297,-13.1815],[33.72,-13.1868],[33.7128,-13.1896],[33.7093,-13.1947],[33.7069,-13.2021],[33.7033,-13.2062],[33.6985,-13.2085],[33.6817,-13.2117],[33.6648,-13.2172],[33.6501,-13.2258],[33.6341,-13.2326],[33.6189,-13.234],[33.6034,-13.2495],[33.5945,-13.2713],[33.5906,-13.2784],[33.5866,-13.2835],[33.5778,-13.2897],[33.5634,-13.2972],[33.559,-13.3013],[33.548,-13.3213],[33.5399,-13.3273],[33.5326,-13.3379],[33.5261,-13.3418],[33.5201,-13.344],[33.5137,-13.3437],[33.508,-13.3428],[33.5031,-13.3413],[33.4999,-13.3399],[33.4966,-13.3378],[33.4893,-13.332],[33.4859,-13.3285],[33.4812,-13.3252],[33.4755,-13.3231],[33.4665,-13.3234],[33.4617,-13.3265],[33.4589,-13.331],[33.4589,-13.3364],[33.4606,-13.3411],[33.4629,-13.3456],[33.4684,-13.354],[33.4707,-13.3585],[33.4724,-13.3633],[33.4726,-13.3689],[33.4716,-13.3747],[33.4639,-13.3971],[33.4605,-13.4036],[33.4481,-13.4232],[33.4409,-13.4457],[33.4223,-13.4805],[33.4141,-13.491],[33.4085,-13.4933],[33.3992,-13.4961],[33.3927,-13.5002],[33.3838,-13.5213],[33.3827,-13.5287],[33.3844,-13.5341],[33.387,-13.5382],[33.3891,-13.545],[33.3894,-13.5542],[33.3876,-13.5707],[33.3844,-13.579],[33.3807,-13.5846],[33.3512,-13.6086],[33.3334,-13.6283],[33.293,-13.5839],[33.2654,-13.568],[33.2553,-13.5587],[33.2414,-13.5422],[33.2057,-13.5096],[33.1937,-13.495],[33.1847,-13.4785],[33.174,-13.4502],[33.1575,-13.4165],[33.1529,-13.4039],[33.1518,-13.3917],[33.1563,-13.3711],[33.156,-13.3607],[33.1512,-13.346],[33.1451,-13.3397],[33.1396,-13.3366],[32.9192,-13.3499],[32.9055,-13.3514],[32.9196,-13.2948],[32.9379,-13.2559],[32.9627,-13.225],[32.9928,-13.2164],[32.9982,-13.2024],[32.9951,-13.1909],[32.9791,-13.1679],[32.9713,-13.1509],[32.9671,-13.1342],[32.9659,-13.1168],[32.9815,-13.0061],[33.0089,-12.945],[33.0136,-12.9172],[33.005,-12.893],[32.9805,-12.8707],[32.9535,-12.8541],[32.947,-12.8432],[32.9411,-12.7699],[32.9446,-12.7524],[32.9581,-12.7252],[32.9941,-12.6725],[33.0248,-12.6127],[33.0354,-12.5991],[33.0495,-12.5868],[33.0577,-12.5834],[33.0646,-12.585],[33.07,-12.5904],[33.0742,-12.5983],[33.0813,-12.6048],[33.0899,-12.6008],[33.099,-12.5932],[33.107,-12.5887],[33.1228,-12.5846],[33.1304,-12.5837],[33.1399,-12.5863],[33.1469,-12.5932],[33.1588,-12.6154],[33.163,-12.6204],[33.1733,-12.62],[33.178,-12.615],[33.1813,-12.6082],[33.1873,-12.6023],[33.1924,-12.599],[33.1968,-12.5954],[33.2029,-12.5918],[33.213,-12.5886],[33.227,-12.5791],[33.2436,-12.5448],[33.2551,-12.5319],[33.2632,-12.5285],[33.2897,-12.5242],[33.3022,-12.5251],[33.312,-12.5299],[33.3203,-12.535],[33.3283,-12.5376]]]}},{"type":"Feature","properties":{"id":"MWI-5509","name":"Likoma","nameBn":"লিকুমা জেলা","type":"District","bounds":[34.5418,-12.1245,34.7624,-11.9705],"center":[34.706,-12.0727]},"geometry":{"type":"MultiPolygon","coordinates":[[[[34.6941,-12.0004],[34.7156,-12.0016],[34.7383,-12.0095],[34.7542,-12.0201],[34.7624,-12.0403],[34.7593,-12.0656],[34.7482,-12.0904],[34.7325,-12.109],[34.7116,-12.1208],[34.689,-12.1245],[34.669,-12.1178],[34.6562,-12.0972],[34.6559,-12.0763],[34.6624,-12.0528],[34.6809,-12.0094],[34.6941,-12.0004]]],[[[34.5616,-11.9786],[34.5626,-11.978],[34.5984,-11.9705],[34.6275,-11.9873],[34.6412,-12.0179],[34.6317,-12.0525],[34.6111,-12.0725],[34.5961,-12.0719],[34.5836,-12.0589],[34.5707,-12.041],[34.5441,-12.0114],[34.5418,-11.9946],[34.5616,-11.9786]]]]}},{"type":"Feature","properties":{"id":"MWI-1909","name":"Lilongwe","nameBn":"লিলংওয়ে জেলা","type":"District","bounds":[33.253,-14.5618,34.2836,-13.4805],"center":[33.7683,-14.0415]},"geometry":{"type":"Polygon","coordinates":[[[33.6184,-14.5618],[33.6042,-14.524],[33.5958,-14.5114],[33.5843,-14.5026],[33.5574,-14.4904],[33.5459,-14.4816],[33.5375,-14.4687],[33.5324,-14.4562],[33.5258,-14.4443],[33.5125,-14.433],[33.4703,-14.4145],[33.4574,-14.4043],[33.4392,-14.3807],[33.3886,-14.2806],[33.371,-14.2568],[33.3571,-14.2306],[33.3596,-14.2123],[33.3594,-14.2122],[33.3478,-14.1624],[33.3328,-14.1214],[33.3306,-14.1075],[33.3322,-14.0955],[33.3401,-14.0733],[33.3419,-14.0572],[33.3354,-14.0267],[33.3349,-14.0176],[33.336,-14.011],[33.3393,-14.0029],[33.3415,-13.9897],[33.3393,-13.9776],[33.3349,-13.9673],[33.3151,-13.9376],[33.2997,-13.9],[33.2958,-13.8931],[33.2892,-13.8856],[33.2819,-13.8799],[33.2731,-13.8712],[33.2642,-13.8599],[33.2542,-13.8408],[33.253,-13.8319],[33.2544,-13.8253],[33.2609,-13.8177],[33.2637,-13.8115],[33.266,-13.8032],[33.2673,-13.7779],[33.2688,-13.7705],[33.2713,-13.7657],[33.2774,-13.7576],[33.2808,-13.7522],[33.2837,-13.7454],[33.2854,-13.734],[33.2847,-13.7262],[33.2823,-13.7188],[33.2825,-13.7131],[33.2844,-13.7084],[33.287,-13.704],[33.3005,-13.6892],[33.303,-13.6844],[33.3062,-13.673],[33.3107,-13.6631],[33.3168,-13.6549],[33.3202,-13.6512],[33.3267,-13.6426],[33.3334,-13.6283],[33.3512,-13.6086],[33.3807,-13.5846],[33.3844,-13.579],[33.3876,-13.5707],[33.3894,-13.5542],[33.3891,-13.545],[33.387,-13.5382],[33.3844,-13.5341],[33.3827,-13.5287],[33.3838,-13.5213],[33.3927,-13.5002],[33.3992,-13.4961],[33.4085,-13.4933],[33.4141,-13.491],[33.4223,-13.4805],[33.4415,-13.493],[33.4465,-13.4975],[33.451,-13.5045],[33.451,-13.5122],[33.4448,-13.5478],[33.4448,-13.5632],[33.4614,-13.6369],[33.4631,-13.6508],[33.467,-13.6652],[33.4767,-13.6796],[33.5235,-13.703],[33.5824,-13.7036],[33.7404,-13.6604],[33.7495,-13.6596],[33.7548,-13.6621],[33.7571,-13.6707],[33.7581,-13.6805],[33.7601,-13.6901],[33.7666,-13.7118],[33.7702,-13.7355],[33.7747,-13.7482],[33.7863,-13.7581],[33.8045,-13.7638],[33.8397,-13.763],[33.8878,-13.7561],[33.9012,-13.7554],[33.9168,-13.7566],[33.9412,-13.7621],[33.9705,-13.7737],[33.9907,-13.7792],[33.9972,-13.7817],[34.0095,-13.7894],[34.0175,-13.796],[34.0206,-13.7998],[34.0259,-13.8077],[34.0346,-13.8155],[34.0495,-13.8234],[34.1012,-13.818],[34.122,-13.8131],[34.14,-13.8054],[34.1521,-13.7985],[34.1635,-13.7934],[34.1764,-13.7914],[34.2126,-13.7955],[34.2228,-13.7954],[34.2504,-13.7803],[34.2484,-13.8079],[34.2373,-13.8189],[34.2096,-13.8302],[34.1961,-13.8392],[34.1896,-13.8461],[34.1854,-13.8538],[34.1847,-13.8602],[34.1864,-13.8669],[34.1915,-13.8715],[34.2002,-13.8723],[34.2106,-13.8686],[34.2452,-13.8513],[34.2531,-13.849],[34.2608,-13.8474],[34.2734,-13.847],[34.2836,-13.8508],[34.2659,-13.88],[34.2477,-13.8971],[34.2222,-13.9147],[34.2101,-13.9209],[34.205,-13.9277],[34.2003,-13.9375],[34.1964,-13.9496],[34.1691,-13.9998],[34.16,-14.0121],[34.1455,-14.0264],[34.133,-14.0439],[34.1181,-14.06],[34.1097,-14.0726],[34.1035,-14.0847],[34.0934,-14.113],[34.0779,-14.1279],[34.0627,-14.1393],[34.0512,-14.1552],[34.0388,-14.1679],[34.0268,-14.1779],[34.0163,-14.1831],[33.9781,-14.188],[33.9639,-14.1957],[33.9561,-14.2057],[33.9514,-14.2195],[33.9468,-14.2657],[33.9418,-14.2823],[33.9336,-14.2909],[33.9255,-14.2947],[33.916,-14.2949],[33.9067,-14.2963],[33.8827,-14.3058],[33.8731,-14.3085],[33.8552,-14.3071],[33.8431,-14.3105],[33.8218,-14.3255],[33.8099,-14.3372],[33.7984,-14.3456],[33.7292,-14.3783],[33.7163,-14.3861],[33.7073,-14.3958],[33.7002,-14.4075],[33.6951,-14.422],[33.6921,-14.4376],[33.6892,-14.481],[33.6861,-14.4916],[33.6636,-14.5254],[33.6549,-14.5333],[33.6448,-14.5397],[33.6358,-14.5529],[33.6184,-14.5618]]]}},{"type":"Feature","properties":{"id":"MWI-1904","name":"Machinga","nameBn":"মেশিগান জেলা","type":"District","bounds":[35.1726,-15.2583,35.9043,-14.5431],"center":[35.5384,-14.9533]},"geometry":{"type":"Polygon","coordinates":[[[35.7505,-14.5431],[35.7869,-14.5879],[35.8356,-14.6358],[35.8472,-14.6504],[35.853,-14.6675],[35.8633,-14.8767],[35.8699,-14.8856],[35.8828,-14.8875],[35.9043,-14.8869],[35.8668,-14.9731],[35.8393,-15.0363],[35.7908,-15.1468],[35.7842,-15.1718],[35.7845,-15.1952],[35.7886,-15.2114],[35.7883,-15.2114],[35.5306,-15.2071],[35.5278,-15.2087],[35.524,-15.2117],[35.5219,-15.2137],[35.512,-15.222],[35.5016,-15.2282],[35.489,-15.2337],[35.4676,-15.2402],[35.4544,-15.242],[35.4432,-15.2417],[35.4248,-15.2363],[35.3737,-15.2158],[35.354,-15.2116],[35.3422,-15.2122],[35.3312,-15.2158],[35.3247,-15.2203],[35.3056,-15.2393],[35.2957,-15.2452],[35.2865,-15.2457],[35.2738,-15.2434],[35.2575,-15.2379],[35.2408,-15.2346],[35.2306,-15.2362],[35.2226,-15.2415],[35.2144,-15.25],[35.2023,-15.2583],[35.1924,-15.2581],[35.1851,-15.2533],[35.1811,-15.2466],[35.1726,-15.2302],[35.1808,-15.2227],[35.1886,-15.2063],[35.1919,-15.1854],[35.2065,-15.148],[35.2125,-15.1217],[35.2302,-15.0865],[35.2323,-15.0765],[35.2337,-15.0611],[35.2364,-15.0524],[35.2428,-15.0401],[35.2733,-14.9942],[35.2882,-14.9841],[35.2988,-14.9748],[35.3054,-14.9532],[35.3152,-14.8725],[35.313,-14.8254],[35.3018,-14.7821],[35.278,-14.7575],[35.275,-14.7557],[35.2764,-14.7477],[35.276,-14.7457],[35.2713,-14.7331],[35.2704,-14.7277],[35.2699,-14.7225],[35.2705,-14.7169],[35.2743,-14.7077],[35.2794,-14.6999],[35.2812,-14.6953],[35.2829,-14.685],[35.285,-14.6811],[35.2879,-14.6795],[35.2947,-14.6803],[35.2994,-14.6818],[35.3045,-14.6843],[35.3107,-14.6883],[35.3276,-14.7031],[35.3385,-14.7149],[35.3492,-14.7322],[35.3551,-14.737],[35.3626,-14.7401],[35.3734,-14.7421],[35.4251,-14.7595],[35.4395,-14.7622],[35.455,-14.7595],[35.4695,-14.752],[35.4958,-14.7251],[35.5109,-14.7172],[35.5215,-14.7136],[35.5312,-14.7081],[35.5421,-14.6947],[35.5466,-14.6813],[35.5478,-14.6674],[35.5429,-14.6338],[35.5433,-14.6272],[35.5457,-14.622],[35.561,-14.6058],[35.575,-14.597],[35.5964,-14.5888],[35.6459,-14.5772],[35.6704,-14.5741],[35.7001,-14.573],[35.7226,-14.5651],[35.7504,-14.5432],[35.7505,-14.5431]]]}},{"type":"Feature","properties":{"id":"MWI-1910","name":"Mangochi","nameBn":"মাঙ্গোচি জেলা","type":"District","bounds":[34.736,-14.7622,35.7505,-13.5163],"center":[35.3501,-14.374]},"geometry":{"type":"Polygon","coordinates":[[[34.8639,-13.5163],[34.8944,-13.5347],[34.9966,-13.626],[35.0841,-13.7042],[35.1711,-13.8057],[35.2787,-13.9309],[35.3701,-14.0372],[35.4557,-14.137],[35.5228,-14.2627],[35.6094,-14.3694],[35.7144,-14.4987],[35.7505,-14.5431],[35.7504,-14.5432],[35.7226,-14.5651],[35.7001,-14.573],[35.6704,-14.5741],[35.6459,-14.5772],[35.5964,-14.5888],[35.575,-14.597],[35.561,-14.6058],[35.5457,-14.622],[35.5433,-14.6272],[35.5429,-14.6338],[35.5478,-14.6674],[35.5466,-14.6813],[35.5421,-14.6947],[35.5312,-14.7081],[35.5215,-14.7136],[35.5109,-14.7172],[35.4958,-14.7251],[35.4695,-14.752],[35.455,-14.7595],[35.4395,-14.7622],[35.4251,-14.7595],[35.3734,-14.7421],[35.3626,-14.7401],[35.3551,-14.737],[35.3492,-14.7322],[35.3385,-14.7149],[35.3276,-14.7031],[35.3107,-14.6883],[35.3045,-14.6843],[35.2994,-14.6818],[35.2947,-14.6803],[35.2879,-14.6795],[35.285,-14.6811],[35.2829,-14.685],[35.2812,-14.6953],[35.2794,-14.6999],[35.2743,-14.7077],[35.2705,-14.7169],[35.2699,-14.7225],[35.2704,-14.7277],[35.2713,-14.7331],[35.276,-14.7457],[35.2764,-14.7477],[35.275,-14.7557],[35.0001,-14.7555],[34.9903,-14.7554],[34.9567,-14.731],[34.9262,-14.718],[34.9132,-14.7061],[34.797,-14.555],[34.7692,-14.4747],[34.7549,-14.4046],[34.7482,-14.3032],[34.7484,-14.2613],[34.736,-14.0781],[34.8639,-13.5163]]]}},{"type":"Feature","properties":{"id":"MWI-1911","name":"Mchinji","nameBn":"এম সিঞ্জি জেলা","type":"District","bounds":[32.6633,-14.2306,33.3596,-13.3366],"center":[33.0113,-13.696]},"geometry":{"type":"Polygon","coordinates":[[[32.7102,-13.5753],[32.7228,-13.5734],[32.7498,-13.5509],[32.7632,-13.5425],[32.8,-13.5371],[32.8131,-13.5282],[32.8175,-13.5056],[32.8169,-13.4874],[32.8191,-13.4717],[32.8274,-13.4608],[32.8458,-13.458],[32.8743,-13.4432],[32.8921,-13.4048],[32.9055,-13.3514],[32.9192,-13.3499],[33.1396,-13.3366],[33.1451,-13.3397],[33.1512,-13.346],[33.156,-13.3607],[33.1563,-13.3711],[33.1518,-13.3917],[33.1529,-13.4039],[33.1575,-13.4165],[33.174,-13.4502],[33.1847,-13.4785],[33.1937,-13.495],[33.2057,-13.5096],[33.2414,-13.5422],[33.2553,-13.5587],[33.2654,-13.568],[33.293,-13.5839],[33.3334,-13.6283],[33.3267,-13.6426],[33.3202,-13.6512],[33.3168,-13.6549],[33.3107,-13.6631],[33.3062,-13.673],[33.303,-13.6844],[33.3005,-13.6892],[33.287,-13.704],[33.2844,-13.7084],[33.2825,-13.7131],[33.2823,-13.7188],[33.2847,-13.7262],[33.2854,-13.734],[33.2837,-13.7454],[33.2808,-13.7522],[33.2774,-13.7576],[33.2713,-13.7657],[33.2688,-13.7705],[33.2673,-13.7779],[33.266,-13.8032],[33.2637,-13.8115],[33.2609,-13.8177],[33.2544,-13.8253],[33.253,-13.8319],[33.2542,-13.8408],[33.2642,-13.8599],[33.2731,-13.8712],[33.2819,-13.8799],[33.2892,-13.8856],[33.2958,-13.8931],[33.2997,-13.9],[33.3151,-13.9376],[33.3349,-13.9673],[33.3393,-13.9776],[33.3415,-13.9897],[33.3393,-14.0029],[33.336,-14.011],[33.3349,-14.0176],[33.3354,-14.0267],[33.3419,-14.0572],[33.3401,-14.0733],[33.3322,-14.0955],[33.3306,-14.1075],[33.3328,-14.1214],[33.3478,-14.1624],[33.3594,-14.2122],[33.3596,-14.2123],[33.3571,-14.2306],[33.3543,-14.2253],[33.3471,-14.2188],[33.3383,-14.2154],[33.3239,-14.2063],[33.3156,-14.1971],[33.2906,-14.1569],[33.2862,-14.1389],[33.2913,-14.0892],[33.2802,-14.0608],[33.2578,-14.0436],[33.2027,-14.0139],[33.1857,-13.9938],[33.1545,-13.9366],[33.1403,-13.925],[33.1303,-13.9306],[33.1206,-13.9559],[33.1116,-13.9646],[33.0769,-13.9745],[33.063,-13.9817],[33.0494,-13.9966],[33.0182,-14.0462],[32.9998,-14.0505],[32.9765,-14.0211],[32.9713,-14.0059],[32.9748,-13.9555],[32.9767,-13.9498],[32.9763,-13.9445],[32.9706,-13.936],[32.9625,-13.932],[32.9444,-13.9329],[32.9362,-13.9262],[32.9301,-13.9105],[32.9279,-13.8956],[32.9239,-13.8804],[32.8741,-13.8206],[32.8594,-13.8081],[32.8288,-13.797],[32.7919,-13.7898],[32.763,-13.7772],[32.7574,-13.7502],[32.7681,-13.7391],[32.8049,-13.722],[32.8134,-13.7112],[32.8078,-13.6992],[32.7699,-13.6469],[32.7434,-13.6354],[32.7067,-13.6351],[32.6751,-13.6281],[32.6633,-13.5963],[32.6676,-13.5756],[32.6773,-13.5678],[32.6916,-13.5691],[32.7102,-13.5753]]]}},{"type":"Feature","properties":{"id":"MWI-1923","name":"Mulanje","nameBn":"মোলানজে জেলা","type":"District","bounds":[35.2831,-16.2087,35.7966,-15.6067],"center":[35.5397,-15.9868]},"geometry":{"type":"Polygon","coordinates":[[[35.7966,-15.9332],[35.7897,-15.9587],[35.7901,-15.9745],[35.7957,-16.005],[35.7946,-16.0207],[35.7851,-16.0423],[35.77,-16.0588],[35.6976,-16.1075],[35.6871,-16.1127],[35.6779,-16.1135],[35.6589,-16.1101],[35.6486,-16.1106],[35.5532,-16.1384],[35.529,-16.1408],[35.5241,-16.1467],[35.5211,-16.1622],[35.5146,-16.1714],[35.502,-16.1708],[35.4887,-16.1646],[35.4801,-16.1569],[35.4729,-16.1402],[35.4564,-16.1294],[35.4358,-16.1239],[35.4161,-16.1229],[35.3934,-16.1286],[35.3746,-16.141],[35.305,-16.2021],[35.2992,-16.2087],[35.299,-16.2085],[35.2882,-16.1974],[35.2846,-16.1922],[35.2831,-16.1835],[35.285,-16.1726],[35.2921,-16.1552],[35.2987,-16.1455],[35.3045,-16.1385],[35.3101,-16.134],[35.3187,-16.1254],[35.3225,-16.0967],[35.3104,-16.0053],[35.3238,-15.973],[35.3286,-15.9684],[35.3338,-15.957],[35.3348,-15.9427],[35.3207,-15.7768],[35.3214,-15.74],[35.3407,-15.6834],[35.3683,-15.6815],[35.3768,-15.6783],[35.3903,-15.6717],[35.403,-15.6695],[35.4449,-15.668],[35.4575,-15.666],[35.4653,-15.6634],[35.4949,-15.6301],[35.5024,-15.6237],[35.5266,-15.6067],[35.534,-15.6152],[35.5348,-15.6169],[35.5353,-15.6188],[35.5331,-15.6237],[35.5302,-15.6339],[35.5294,-15.6356],[35.5288,-15.6364],[35.5272,-15.6389],[35.5264,-15.64],[35.5257,-15.6409],[35.525,-15.6414],[35.5232,-15.6419],[35.5224,-15.6425],[35.5171,-15.6521],[35.5157,-15.6541],[35.5145,-15.6563],[35.5137,-15.6572],[35.5129,-15.658],[35.5107,-15.661],[35.4996,-15.68],[35.4974,-15.6859],[35.4968,-15.6909],[35.4976,-15.6921],[35.4985,-15.6925],[35.4994,-15.6924],[35.5,-15.6924],[35.5034,-15.6925],[35.5042,-15.6927],[35.5052,-15.693],[35.5084,-15.6937],[35.5092,-15.6941],[35.5103,-15.6949],[35.5123,-15.6961],[35.5131,-15.6968],[35.5137,-15.6975],[35.5145,-15.6983],[35.521,-15.7905],[35.5246,-15.8094],[35.5303,-15.8253],[35.532,-15.8284],[35.5336,-15.8299],[35.5351,-15.8309],[35.5373,-15.8326],[35.5382,-15.8331],[35.539,-15.8337],[35.5399,-15.8343],[35.5409,-15.8351],[35.5416,-15.8357],[35.5423,-15.8358],[35.5429,-15.8354],[35.5436,-15.8353],[35.5444,-15.8356],[35.5468,-15.8385],[35.548,-15.8395],[35.5486,-15.8408],[35.5492,-15.8415],[35.5506,-15.8434],[35.5516,-15.8455],[35.5525,-15.8463],[35.5534,-15.8468],[35.5543,-15.8468],[35.5557,-15.8473],[35.5562,-15.8475],[35.5567,-15.8475],[35.5588,-15.8465],[35.5604,-15.8463],[35.5612,-15.8462],[35.5619,-15.8462],[35.5632,-15.8466],[35.5646,-15.848],[35.5666,-15.8519],[35.5956,-15.9293],[35.6006,-15.9355],[35.6402,-15.9016],[35.6653,-15.8933],[35.6696,-15.8944],[35.6813,-15.9024],[35.6964,-15.917],[35.714,-15.9306],[35.7207,-15.9339],[35.7294,-15.9408],[35.7311,-15.942],[35.7345,-15.9434],[35.7388,-15.9443],[35.7402,-15.9443],[35.7415,-15.9441],[35.7429,-15.9435],[35.7441,-15.9426],[35.7452,-15.9417],[35.7463,-15.9403],[35.7474,-15.9394],[35.7488,-15.9388],[35.7518,-15.9381],[35.7525,-15.9375],[35.7535,-15.9372],[35.7552,-15.9368],[35.7562,-15.9364],[35.7609,-15.9338],[35.7621,-15.9327],[35.7629,-15.9318],[35.7643,-15.931],[35.7665,-15.9305],[35.7699,-15.929],[35.7717,-15.9284],[35.773,-15.9283],[35.7755,-15.9286],[35.7766,-15.9284],[35.7778,-15.9278],[35.7795,-15.9276],[35.7814,-15.9281],[35.7863,-15.931],[35.7877,-15.9316],[35.789,-15.9316],[35.7913,-15.9316],[35.7925,-15.9322],[35.7941,-15.9332],[35.7948,-15.9335],[35.7956,-15.9336],[35.7962,-15.9333],[35.7966,-15.9332]]]}},{"type":"Feature","properties":{"id":"MWI-1922","name":"Mwanza","nameBn":"এমওয়াঞ্জা জেলা","type":"District","bounds":[34.3422,-15.8122,34.7653,-15.5753],"center":[34.5126,-15.6394]},"geometry":{"type":"Polygon","coordinates":[[[34.3422,-15.7303],[34.404,-15.6468],[34.4159,-15.6151],[34.4191,-15.5753],[34.5376,-15.5875],[34.6555,-15.5996],[34.763,-15.6107],[34.7653,-15.6727],[34.7631,-15.6796],[34.7579,-15.6876],[34.7517,-15.6944],[34.7365,-15.7027],[34.7364,-15.7152],[34.7436,-15.7376],[34.7498,-15.8122],[34.537,-15.8068],[34.4975,-15.7948],[34.3566,-15.736],[34.3422,-15.7303]]]}},{"type":"Feature","properties":{"id":"MWI-1900","name":"Mzimba","nameBn":"এমজিম্বা জেলা","type":"District","bounds":[33.2126,-12.7221,34.105,-10.9637],"center":[33.6587,-11.8792]},"geometry":{"type":"Polygon","coordinates":[[[33.2652,-11.4231],[33.2736,-11.4094],[33.2738,-11.3966],[33.2719,-11.3837],[33.2735,-11.3696],[33.2781,-11.3643],[33.2933,-11.3578],[33.2989,-11.3531],[33.3003,-11.347],[33.2968,-11.3357],[33.2983,-11.3292],[33.3685,-11.2227],[33.3822,-11.1947],[33.3909,-11.1648],[33.3589,-11.1094],[33.3366,-11.0874],[33.3181,-11.0623],[33.3037,-11.0346],[33.294,-11.0045],[33.291,-10.9751],[33.3101,-10.9826],[33.3562,-11.0011],[33.393,-11.0072],[33.4266,-11.0084],[33.435,-11.0121],[33.4404,-11.0182],[33.4446,-11.0356],[33.4473,-11.053],[33.4471,-11.0628],[33.4451,-11.0725],[33.4417,-11.0799],[33.4387,-11.0882],[33.4376,-11.0963],[33.4411,-11.1065],[33.4492,-11.1087],[33.458,-11.1059],[33.4783,-11.0917],[33.4958,-11.0769],[33.5108,-11.0617],[33.5165,-11.0543],[33.529,-11.0327],[33.5345,-11.0261],[33.5416,-11.0209],[33.555,-11.018],[33.5652,-11.0211],[33.5751,-11.0284],[33.5855,-11.0382],[33.5959,-11.0461],[33.6096,-11.0533],[33.6215,-11.0557],[33.6324,-11.0555],[33.6705,-11.0498],[33.6793,-11.0513],[33.6853,-11.0558],[33.6934,-11.0722],[33.6986,-11.0793],[33.7079,-11.0851],[33.7169,-11.0858],[33.7249,-11.0847],[33.733,-11.0819],[33.7398,-11.0772],[33.746,-11.0702],[33.7492,-11.0628],[33.7502,-11.057],[33.7485,-11.0524],[33.7458,-11.0482],[33.7427,-11.0422],[33.7409,-11.0362],[33.7427,-11.0301],[33.7478,-11.0267],[33.7843,-11.0172],[33.815,-11.0136],[33.9094,-11.0268],[33.9235,-11.025],[33.932,-11.0193],[33.9388,-10.9758],[33.941,-10.969],[33.9447,-10.9637],[33.9519,-10.966],[34.016,-11.0167],[34.0303,-11.0332],[34.0428,-11.0508],[34.0565,-11.077],[34.0459,-11.1486],[34.0219,-11.2286],[34.02,-11.2464],[34.0228,-11.2579],[34.0375,-11.2661],[34.0445,-11.2711],[34.0498,-11.2786],[34.0729,-11.3693],[34.0771,-11.3754],[34.0908,-11.3906],[34.1029,-11.4279],[34.1021,-11.4448],[34.0979,-11.4532],[34.0892,-11.4575],[34.0709,-11.4621],[34.0569,-11.4691],[34.053,-11.4704],[34.0484,-11.469],[34.038,-11.4642],[34.0321,-11.4627],[34.0272,-11.4618],[34.0117,-11.4628],[34.0012,-11.4699],[33.9918,-11.4818],[33.9801,-11.5091],[33.9725,-11.5233],[33.9643,-11.5338],[33.9558,-11.5385],[33.9465,-11.5415],[33.9384,-11.5419],[33.9314,-11.5411],[33.8917,-11.5303],[33.8862,-11.5295],[33.8785,-11.5295],[33.8707,-11.5316],[33.8628,-11.5361],[33.8416,-11.5563],[33.8354,-11.5602],[33.8296,-11.5629],[33.8198,-11.5689],[33.8088,-11.5774],[33.7942,-11.594],[33.787,-11.6048],[33.7822,-11.6159],[33.7708,-11.6708],[33.7683,-11.6916],[33.768,-11.7034],[33.7689,-11.7137],[33.7708,-11.7242],[33.7753,-11.7341],[33.7812,-11.7423],[33.7932,-11.7522],[33.7963,-11.7553],[33.7986,-11.7599],[33.8001,-11.7663],[33.8023,-11.7731],[33.8065,-11.7792],[33.8204,-11.7909],[33.8243,-11.7994],[33.8243,-11.8162],[33.818,-11.8342],[33.8136,-11.8544],[33.8046,-11.8684],[33.8022,-11.8771],[33.8017,-11.8865],[33.8076,-11.9099],[33.8096,-11.9245],[33.809,-11.9448],[33.8104,-11.9586],[33.8142,-11.971],[33.8186,-11.9808],[33.8212,-11.9926],[33.8175,-12.0019],[33.7969,-12.0291],[33.7893,-12.0369],[33.7792,-12.0418],[33.7683,-12.0441],[33.7575,-12.0454],[33.7472,-12.0487],[33.7379,-12.0555],[33.728,-12.0667],[33.7182,-12.0827],[33.7154,-12.0924],[33.7168,-12.1006],[33.7228,-12.1063],[33.7306,-12.1104],[33.7475,-12.1159],[33.7533,-12.1195],[33.7581,-12.1249],[33.7626,-12.1323],[33.7678,-12.138],[33.7747,-12.142],[33.7829,-12.144],[33.8427,-12.1433],[33.7781,-12.1966],[33.7607,-12.2238],[33.7604,-12.2324],[33.7643,-12.2607],[33.7686,-12.2726],[33.7767,-12.2806],[33.788,-12.2851],[33.8198,-12.2878],[33.8341,-12.296],[33.8473,-12.3092],[33.8624,-12.3396],[33.8724,-12.3545],[33.8911,-12.3752],[33.8942,-12.3903],[33.8965,-12.4125],[33.9013,-12.4271],[33.908,-12.4389],[33.9157,-12.4494],[33.9246,-12.459],[33.9343,-12.4638],[33.9604,-12.463],[33.9733,-12.4652],[34.0098,-12.4833],[34.0213,-12.4874],[34.034,-12.4901],[34.0464,-12.4915],[34.0586,-12.4903],[34.0818,-12.4844],[34.0911,-12.4846],[34.1013,-12.4895],[34.1044,-12.4938],[34.105,-12.4976],[34.1036,-12.5002],[34.1019,-12.5023],[34.0867,-12.5165],[34.0782,-12.5262],[34.0711,-12.5486],[34.0677,-12.5562],[34.0626,-12.5617],[34.0572,-12.5642],[34.0386,-12.5666],[34.0172,-12.5715],[34.0084,-12.5749],[34.0001,-12.5797],[33.9843,-12.5924],[33.9736,-12.5989],[33.9405,-12.6105],[33.9111,-12.615],[33.903,-12.6182],[33.8961,-12.6229],[33.8903,-12.6284],[33.8847,-12.6348],[33.8579,-12.6795],[33.8351,-12.7096],[33.8266,-12.7119],[33.8186,-12.7166],[33.8149,-12.7196],[33.8111,-12.7221],[33.8065,-12.7221],[33.8004,-12.718],[33.7785,-12.6993],[33.7702,-12.6947],[33.7629,-12.6927],[33.7578,-12.6937],[33.7461,-12.6942],[33.7415,-12.6959],[33.7376,-12.6983],[33.734,-12.7015],[33.7259,-12.7071],[33.7215,-12.7094],[33.7112,-12.7128],[33.7058,-12.714],[33.6994,-12.7143],[33.6859,-12.7134],[33.6728,-12.7113],[33.6614,-12.7082],[33.6564,-12.7058],[33.6512,-12.7025],[33.646,-12.698],[33.6352,-12.6859],[33.6177,-12.6605],[33.611,-12.6532],[33.6068,-12.6504],[33.6013,-12.6484],[33.595,-12.6475],[33.5885,-12.6471],[33.5765,-12.6484],[33.5717,-12.6435],[33.5682,-12.6328],[33.5689,-12.604],[33.5719,-12.5918],[33.5759,-12.5837],[33.5798,-12.5806],[33.583,-12.5771],[33.5852,-12.5725],[33.5848,-12.5653],[33.5824,-12.557],[33.5753,-12.5445],[33.5626,-12.5293],[33.5603,-12.5219],[33.5585,-12.5114],[33.5579,-12.4573],[33.5604,-12.4453],[33.5624,-12.44],[33.5651,-12.4353],[33.568,-12.4312],[33.5779,-12.4202],[33.5809,-12.4161],[33.5834,-12.4112],[33.5849,-12.4055],[33.5855,-12.3993],[33.5801,-12.3924],[33.5736,-12.3868],[33.5287,-12.3776],[33.5139,-12.3743],[33.5181,-12.3718],[33.5271,-12.3556],[33.5256,-12.3353],[33.5141,-12.331],[33.4974,-12.3315],[33.4583,-12.3181],[33.3846,-12.34],[33.3495,-12.3279],[33.3301,-12.2983],[33.3125,-12.2286],[33.3,-12.1959],[33.2884,-12.1822],[33.2603,-12.1557],[33.2527,-12.1395],[33.2513,-12.1058],[33.2549,-12.0726],[33.2942,-11.9813],[33.3036,-11.9302],[33.3093,-11.9143],[33.3127,-11.8987],[33.3087,-11.8844],[33.2975,-11.8625],[33.2974,-11.8465],[33.3106,-11.8088],[33.314,-11.7722],[33.305,-11.644],[33.3026,-11.6097],[33.2968,-11.5936],[33.2832,-11.5784],[33.2669,-11.5756],[33.2493,-11.5778],[33.2327,-11.5777],[33.2159,-11.5716],[33.2126,-11.5638],[33.2273,-11.5327],[33.2338,-11.514],[33.235,-11.5017],[33.2303,-11.4166],[33.2397,-11.4024],[33.2652,-11.4231]]]}},{"type":"Feature","properties":{"id":"MWI-5510","name":"Neno","nameBn":"নেনো জেলা","type":"District","bounds":[34.41,-15.6107,35.0546,-15.2002],"center":[34.6946,-15.4366]},"geometry":{"type":"Polygon","coordinates":[[[34.4191,-15.5753],[34.41,-15.515],[34.4101,-15.4813],[34.4226,-15.4645],[34.4406,-15.4555],[34.4603,-15.4248],[34.4804,-15.4129],[34.487,-15.4005],[34.492,-15.3751],[34.4966,-15.3627],[34.508,-15.3481],[34.5203,-15.3398],[34.5333,-15.3331],[34.5468,-15.3232],[34.5652,-15.2973],[34.5691,-15.2712],[34.5591,-15.2002],[34.5729,-15.2014],[34.62,-15.2103],[34.6794,-15.2283],[34.684,-15.2286],[34.7006,-15.226],[34.708,-15.2265],[34.7161,-15.2283],[34.7302,-15.2332],[34.7698,-15.2406],[34.7847,-15.245],[34.7967,-15.2501],[34.805,-15.2572],[34.8131,-15.2654],[34.8179,-15.2794],[34.8201,-15.2905],[34.821,-15.3006],[34.8207,-15.3062],[34.8182,-15.3166],[34.8185,-15.3213],[34.8207,-15.3249],[34.8271,-15.3264],[34.8319,-15.3263],[34.8431,-15.3137],[35.0546,-15.3246],[35.0111,-15.351],[35.008,-15.3524],[34.99,-15.3608],[34.9585,-15.3647],[34.9484,-15.3676],[34.9205,-15.3911],[34.9112,-15.395],[34.8947,-15.4185],[34.8582,-15.5222],[34.8429,-15.5458],[34.8258,-15.552],[34.777,-15.5824],[34.7653,-15.5936],[34.763,-15.6107],[34.6555,-15.5996],[34.5376,-15.5875],[34.4191,-15.5753]]]}},{"type":"Feature","properties":{"id":"MWI-1901","name":"Nkhata Bay","nameBn":"এন কে হাতা বে জেলা","type":"District","bounds":[33.7154,-12.2049,34.9646,-10.9657],"center":[34.1604,-11.6281]},"geometry":{"type":"Polygon","coordinates":[[[34.6178,-10.9657],[34.5979,-10.991],[34.593,-11.0162],[34.5973,-11.0366],[34.6106,-11.0777],[34.6135,-11.1022],[34.6211,-11.1197],[34.6687,-11.1601],[34.674,-11.17],[34.6771,-11.1787],[34.6818,-11.1851],[34.6999,-11.1895],[34.7079,-11.195],[34.7141,-11.2027],[34.7166,-11.2117],[34.7198,-11.2346],[34.7287,-11.254],[34.7417,-11.2687],[34.7575,-11.2776],[34.7575,-11.2838],[34.7516,-11.2871],[34.743,-11.2937],[34.737,-11.2968],[34.7591,-11.3375],[34.7656,-11.3451],[34.7722,-11.3444],[34.7849,-11.3335],[34.7923,-11.3309],[34.8005,-11.3319],[34.8437,-11.3463],[34.8679,-11.3588],[34.8866,-11.3754],[34.8941,-11.396],[34.8984,-11.4035],[34.9171,-11.4188],[34.9257,-11.4459],[34.9351,-11.4565],[34.9445,-11.4644],[34.9487,-11.4718],[34.951,-11.4777],[34.9557,-11.4867],[34.9607,-11.4985],[34.963,-11.5131],[34.963,-11.5649],[34.9646,-11.5736],[34.6512,-11.57],[34.6167,-11.5783],[34.6071,-11.5911],[34.6072,-11.6093],[34.6139,-11.6527],[34.612,-11.6931],[34.6044,-11.7326],[34.5638,-11.8309],[34.4876,-11.9441],[34.3801,-12.1039],[34.3588,-12.1544],[34.354,-12.1995],[34.3556,-12.2049],[34.3554,-12.2049],[34.0287,-12.2047],[33.9553,-12.1876],[33.9147,-12.1702],[33.9012,-12.1613],[33.8799,-12.1426],[33.8701,-12.1396],[33.8614,-12.1392],[33.8427,-12.1433],[33.7829,-12.144],[33.7747,-12.142],[33.7678,-12.138],[33.7626,-12.1323],[33.7581,-12.1249],[33.7533,-12.1195],[33.7475,-12.1159],[33.7306,-12.1104],[33.7228,-12.1063],[33.7168,-12.1006],[33.7154,-12.0924],[33.7182,-12.0827],[33.728,-12.0667],[33.7379,-12.0555],[33.7472,-12.0487],[33.7575,-12.0454],[33.7683,-12.0441],[33.7792,-12.0418],[33.7893,-12.0369],[33.7969,-12.0291],[33.8175,-12.0019],[33.8212,-11.9926],[33.8186,-11.9808],[33.8142,-11.971],[33.8104,-11.9586],[33.809,-11.9448],[33.8096,-11.9245],[33.8076,-11.9099],[33.8017,-11.8865],[33.8022,-11.8771],[33.8046,-11.8684],[33.8136,-11.8544],[33.818,-11.8342],[33.8243,-11.8162],[33.8243,-11.7994],[33.8204,-11.7909],[33.8065,-11.7792],[33.8023,-11.7731],[33.8001,-11.7663],[33.7986,-11.7599],[33.7963,-11.7553],[33.7932,-11.7522],[33.7812,-11.7423],[33.7753,-11.7341],[33.7708,-11.7242],[33.7689,-11.7137],[33.768,-11.7034],[33.7683,-11.6916],[33.7708,-11.6708],[33.7822,-11.6159],[33.787,-11.6048],[33.7942,-11.594],[33.8088,-11.5774],[33.8198,-11.5689],[33.8296,-11.5629],[33.8354,-11.5602],[33.8416,-11.5563],[33.8628,-11.5361],[33.8707,-11.5316],[33.8785,-11.5295],[33.8862,-11.5295],[33.8917,-11.5303],[33.9314,-11.5411],[33.9384,-11.5419],[33.9465,-11.5415],[33.9558,-11.5385],[33.9643,-11.5338],[33.9725,-11.5233],[33.9801,-11.5091],[33.9918,-11.4818],[34.0012,-11.4699],[34.0117,-11.4628],[34.0272,-11.4618],[34.0321,-11.4627],[34.038,-11.4642],[34.0484,-11.469],[34.053,-11.4704],[34.0569,-11.4691],[34.0709,-11.4621],[34.0892,-11.4575],[34.0979,-11.4532],[34.1021,-11.4448],[34.1029,-11.4279],[34.0908,-11.3906],[34.0771,-11.3754],[34.0729,-11.3693],[34.0498,-11.2786],[34.0445,-11.2711],[34.0375,-11.2661],[34.0228,-11.2579],[34.02,-11.2464],[34.0219,-11.2286],[34.0459,-11.1486],[34.0565,-11.077],[34.1947,-10.9971],[34.2349,-10.9657],[34.6129,-10.9657],[34.6175,-10.9657],[34.6178,-10.9657]]]}},{"type":"Feature","properties":{"id":"MWI-1902","name":"Nkhotakota","nameBn":"কোটাকোটা জেলা","type":"District","bounds":[33.7604,-13.4896,34.5828,-12.1392],"center":[34.1715,-12.8398]},"geometry":{"type":"Polygon","coordinates":[[[34.3556,-12.2049],[34.3804,-12.2911],[34.4392,-12.4951],[34.4945,-12.6874],[34.5075,-12.7994],[34.5239,-12.9397],[34.5378,-13.0594],[34.5493,-13.1591],[34.5428,-13.2438],[34.5453,-13.3257],[34.5782,-13.3984],[34.5794,-13.4004],[34.5828,-13.4036],[34.5827,-13.4036],[34.3277,-13.4038],[34.2413,-13.4524],[34.2002,-13.4695],[34.1756,-13.4744],[34.1638,-13.4757],[34.1336,-13.4896],[34.1249,-13.3573],[34.1044,-13.2802],[34.1055,-13.2652],[34.1095,-13.2521],[34.1136,-13.243],[34.1145,-13.2349],[34.1061,-13.1826],[34.1032,-13.1722],[34.0977,-13.1645],[34.0864,-13.1628],[34.0771,-13.1625],[34.0686,-13.1614],[34.0629,-13.1566],[34.0589,-13.1469],[34.0588,-13.1371],[34.0605,-13.1283],[34.063,-13.1201],[34.0644,-13.1119],[34.0622,-13.1068],[34.0574,-13.1064],[34.0152,-13.119],[34.0113,-13.1216],[34.009,-13.1256],[34.0022,-13.151],[33.9987,-13.159],[33.9941,-13.1648],[33.9871,-13.1704],[33.9792,-13.172],[33.9719,-13.1696],[33.9625,-13.1632],[33.9558,-13.157],[33.9503,-13.1505],[33.9514,-13.1336],[33.9505,-13.124],[33.9395,-13.1049],[33.9339,-13.097],[33.9289,-13.0915],[33.9218,-13.0719],[33.9209,-13.0228],[33.9336,-13.0108],[33.9362,-13.0068],[33.9435,-12.9887],[33.9478,-12.9815],[33.9509,-12.9778],[33.9904,-12.9463],[34.0004,-12.9415],[34.002,-12.9384],[34.0009,-12.933],[33.9959,-12.9201],[33.9626,-12.8821],[33.9524,-12.8651],[33.9435,-12.854],[33.9312,-12.8467],[33.9218,-12.8439],[33.9129,-12.8426],[33.9049,-12.8424],[33.8483,-12.8491],[33.8397,-12.8488],[33.8327,-12.846],[33.8277,-12.8405],[33.8232,-12.8298],[33.8206,-12.8197],[33.8215,-12.7885],[33.8351,-12.7096],[33.8579,-12.6795],[33.8847,-12.6348],[33.8903,-12.6284],[33.8961,-12.6229],[33.903,-12.6182],[33.9111,-12.615],[33.9405,-12.6105],[33.9736,-12.5989],[33.9843,-12.5924],[34.0001,-12.5797],[34.0084,-12.5749],[34.0172,-12.5715],[34.0386,-12.5666],[34.0572,-12.5642],[34.0626,-12.5617],[34.0677,-12.5562],[34.0711,-12.5486],[34.0782,-12.5262],[34.0867,-12.5165],[34.1019,-12.5023],[34.1036,-12.5002],[34.105,-12.4976],[34.1044,-12.4938],[34.1013,-12.4895],[34.0911,-12.4846],[34.0818,-12.4844],[34.0586,-12.4903],[34.0464,-12.4915],[34.034,-12.4901],[34.0213,-12.4874],[34.0098,-12.4833],[33.9733,-12.4652],[33.9604,-12.463],[33.9343,-12.4638],[33.9246,-12.459],[33.9157,-12.4494],[33.908,-12.4389],[33.9013,-12.4271],[33.8965,-12.4125],[33.8942,-12.3903],[33.8911,-12.3752],[33.8724,-12.3545],[33.8624,-12.3396],[33.8473,-12.3092],[33.8341,-12.296],[33.8198,-12.2878],[33.788,-12.2851],[33.7767,-12.2806],[33.7686,-12.2726],[33.7643,-12.2607],[33.7604,-12.2324],[33.7607,-12.2238],[33.7781,-12.1966],[33.8427,-12.1433],[33.8614,-12.1392],[33.8701,-12.1396],[33.8799,-12.1426],[33.9012,-12.1613],[33.9147,-12.1702],[33.9553,-12.1876],[34.0287,-12.2047],[34.3554,-12.2049],[34.3556,-12.2049]]]}},{"type":"Feature","properties":{"id":"MWI-1919","name":"Nsanje","nameBn":"সাঞ্জে ডিস্টিক্ট","type":"District","bounds":[34.8866,-17.1353,35.3144,-16.3314],"center":[35.1003,-17.0479]},"geometry":{"type":"Polygon","coordinates":[[[35.033,-16.8192],[35.0045,-16.8146],[34.9751,-16.7921],[34.9567,-16.7683],[34.9481,-16.7593],[34.9344,-16.7497],[34.9276,-16.7472],[34.9123,-16.7446],[34.9055,-16.7408],[34.9009,-16.7333],[34.8977,-16.714],[34.8935,-16.7057],[34.8866,-16.7008],[34.8936,-16.6903],[34.8938,-16.6903],[34.9152,-16.6585],[34.9321,-16.6429],[34.9501,-16.6323],[34.9624,-16.6269],[34.9677,-16.6216],[34.9683,-16.6159],[34.9661,-16.6077],[34.9652,-16.5973],[34.9706,-16.5798],[34.9767,-16.5696],[35.0308,-16.5109],[35.05,-16.4935],[35.0573,-16.4891],[35.0606,-16.4851],[35.0634,-16.4783],[35.0961,-16.3314],[35.1515,-16.3904],[35.1594,-16.3936],[35.1695,-16.3951],[35.1734,-16.3888],[35.1903,-16.3849],[35.237,-16.399],[35.2373,-16.3991],[35.2333,-16.4126],[35.2336,-16.4524],[35.2282,-16.4703],[35.2144,-16.4842],[35.1447,-16.5291],[35.1319,-16.5376],[35.1484,-16.5821],[35.1644,-16.6068],[35.1685,-16.6171],[35.1743,-16.6255],[35.1855,-16.629],[35.1947,-16.6306],[35.2166,-16.6387],[35.223,-16.6421],[35.2275,-16.6469],[35.2327,-16.6572],[35.2366,-16.6626],[35.2397,-16.6646],[35.2482,-16.6682],[35.251,-16.67],[35.2751,-16.6955],[35.2782,-16.7007],[35.2811,-16.7669],[35.2851,-16.7867],[35.3052,-16.8257],[35.3102,-16.8506],[35.2852,-16.8711],[35.2828,-16.8921],[35.2851,-16.9301],[35.2819,-16.9347],[35.2758,-16.9392],[35.271,-16.9442],[35.2714,-16.9505],[35.276,-16.9552],[35.3084,-16.9737],[35.3144,-16.9823],[35.3093,-16.9953],[35.2987,-17.0136],[35.2974,-17.0297],[35.3062,-17.0673],[35.3075,-17.0876],[35.305,-17.1042],[35.2995,-17.118],[35.2919,-17.1293],[35.2917,-17.1294],[35.2348,-17.1353],[35.1339,-17.132],[35.0813,-17.1241],[35.066,-17.1098],[35.0691,-17.0841],[35.0365,-17.0359],[35.0444,-17.0047],[35.0661,-16.9873],[35.0914,-16.9753],[35.1134,-16.9603],[35.1251,-16.9329],[35.1281,-16.9007],[35.1275,-16.8644],[35.1183,-16.8334],[35.0958,-16.8173],[35.0628,-16.8164],[35.033,-16.8192]]]}},{"type":"Feature","properties":{"id":"MWI-1912","name":"Ntcheu","nameBn":"এনটি চেঊ ডিস্ট্রি","type":"District","bounds":[34.3804,-15.3264,34.9918,-14.3032],"center":[34.6861,-14.7843]},"geometry":{"type":"Polygon","coordinates":[[[34.5591,-15.2002],[34.5483,-15.1237],[34.5507,-15.1066],[34.5599,-15.0957],[34.5573,-15.0843],[34.551,-15.0718],[34.5487,-15.0576],[34.5546,-15.0436],[34.575,-15.0161],[34.5823,-15.0013],[34.5842,-14.9845],[34.5769,-14.9693],[34.566,-14.9543],[34.557,-14.9383],[34.5511,-14.9183],[34.5487,-14.9016],[34.5484,-14.8278],[34.5428,-14.7963],[34.5321,-14.7668],[34.5153,-14.7346],[34.5058,-14.7003],[34.5194,-14.6408],[34.5181,-14.6074],[34.5018,-14.5757],[34.4497,-14.5255],[34.4265,-14.4976],[34.3938,-14.4323],[34.3804,-14.4136],[34.3927,-14.4037],[34.3929,-14.4035],[34.4035,-14.3957],[34.4081,-14.3944],[34.4137,-14.3942],[34.4373,-14.3986],[34.4525,-14.4001],[34.461,-14.4024],[34.468,-14.4054],[34.4737,-14.4099],[34.481,-14.4142],[34.4975,-14.4216],[34.5091,-14.4317],[34.5195,-14.4327],[34.5352,-14.4294],[34.5921,-14.4065],[34.6674,-14.3514],[34.7482,-14.3032],[34.7549,-14.4046],[34.7692,-14.4747],[34.797,-14.555],[34.9132,-14.7061],[34.9262,-14.718],[34.9567,-14.731],[34.9903,-14.7554],[34.985,-14.7679],[34.9872,-14.7825],[34.9914,-14.7993],[34.9918,-14.8089],[34.99,-14.8218],[34.9731,-14.8791],[34.9688,-14.888],[34.9175,-14.9563],[34.9147,-14.9631],[34.9138,-14.9677],[34.9168,-14.9768],[34.9174,-14.9839],[34.9174,-14.9925],[34.8431,-15.3137],[34.8319,-15.3263],[34.8271,-15.3264],[34.8207,-15.3249],[34.8185,-15.3213],[34.8182,-15.3166],[34.8207,-15.3062],[34.821,-15.3006],[34.8201,-15.2905],[34.8179,-15.2794],[34.8131,-15.2654],[34.805,-15.2572],[34.7967,-15.2501],[34.7847,-15.245],[34.7698,-15.2406],[34.7302,-15.2332],[34.7161,-15.2283],[34.708,-15.2265],[34.7006,-15.226],[34.684,-15.2286],[34.6794,-15.2283],[34.62,-15.2103],[34.5729,-15.2014],[34.5591,-15.2002]]]}},{"type":"Feature","properties":{"id":"MWI-1913","name":"Ntchisi","nameBn":"ছিসি জেলা","type":"District","bounds":[33.6189,-13.5223,34.1336,-13.0228],"center":[33.8763,-13.2659]},"geometry":{"type":"Polygon","coordinates":[[[33.9209,-13.0228],[33.9218,-13.0719],[33.9289,-13.0915],[33.9339,-13.097],[33.9395,-13.1049],[33.9505,-13.124],[33.9514,-13.1336],[33.9503,-13.1505],[33.9558,-13.157],[33.9625,-13.1632],[33.9719,-13.1696],[33.9792,-13.172],[33.9871,-13.1704],[33.9941,-13.1648],[33.9987,-13.159],[34.0022,-13.151],[34.009,-13.1256],[34.0113,-13.1216],[34.0152,-13.119],[34.0574,-13.1064],[34.0622,-13.1068],[34.0644,-13.1119],[34.063,-13.1201],[34.0605,-13.1283],[34.0588,-13.1371],[34.0589,-13.1469],[34.0629,-13.1566],[34.0686,-13.1614],[34.0771,-13.1625],[34.0864,-13.1628],[34.0977,-13.1645],[34.1032,-13.1722],[34.1061,-13.1826],[34.1145,-13.2349],[34.1136,-13.243],[34.1095,-13.2521],[34.1055,-13.2652],[34.1044,-13.2802],[34.1249,-13.3573],[34.1336,-13.4896],[34.1167,-13.5046],[34.1077,-13.5094],[34.0799,-13.5207],[34.0731,-13.5223],[34.0647,-13.5222],[34.0547,-13.5205],[33.9978,-13.4998],[33.9823,-13.4993],[33.9541,-13.5017],[33.9398,-13.4987],[33.9147,-13.4896],[33.899,-13.4864],[33.8834,-13.4861],[33.8721,-13.4883],[33.8177,-13.5066],[33.7658,-13.5057],[33.7587,-13.5049],[33.7534,-13.501],[33.7478,-13.4933],[33.7447,-13.4761],[33.7421,-13.4312],[33.7392,-13.4177],[33.7172,-13.3624],[33.7056,-13.342],[33.6915,-13.322],[33.6651,-13.2962],[33.651,-13.2855],[33.6394,-13.2793],[33.6318,-13.2738],[33.6268,-13.2694],[33.6189,-13.234],[33.6341,-13.2326],[33.6501,-13.2258],[33.6648,-13.2172],[33.6817,-13.2117],[33.6985,-13.2085],[33.7033,-13.2062],[33.7069,-13.2021],[33.7093,-13.1947],[33.7128,-13.1896],[33.72,-13.1868],[33.7297,-13.1815],[33.7409,-13.1722],[33.7609,-13.1495],[33.7736,-13.127],[33.7797,-13.1197],[33.793,-13.1094],[33.8079,-13.1033],[33.8173,-13.0979],[33.8237,-13.0924],[33.829,-13.0816],[33.8308,-13.0741],[33.8404,-13.0644],[33.8483,-13.0578],[33.9209,-13.0228]]]}},{"type":"Feature","properties":{"id":"MWI-1924","name":"Phalombe","nameBn":"পালোম্বে জেলা","type":"District","bounds":[35.4968,-15.9443,35.8376,-15.4592],"center":[35.667,-15.6883]},"geometry":{"type":"Polygon","coordinates":[[[35.8376,-15.4592],[35.832,-15.5384],[35.8231,-15.6634],[35.8168,-15.752],[35.8067,-15.8958],[35.7966,-15.9332],[35.7962,-15.9333],[35.7956,-15.9336],[35.7948,-15.9335],[35.7941,-15.9332],[35.7925,-15.9322],[35.7913,-15.9316],[35.789,-15.9316],[35.7877,-15.9316],[35.7863,-15.931],[35.7814,-15.9281],[35.7795,-15.9276],[35.7778,-15.9278],[35.7766,-15.9284],[35.7755,-15.9286],[35.773,-15.9283],[35.7717,-15.9284],[35.7699,-15.929],[35.7665,-15.9305],[35.7643,-15.931],[35.7629,-15.9318],[35.7621,-15.9327],[35.7609,-15.9338],[35.7562,-15.9364],[35.7552,-15.9368],[35.7535,-15.9372],[35.7525,-15.9375],[35.7518,-15.9381],[35.7488,-15.9388],[35.7474,-15.9394],[35.7463,-15.9403],[35.7452,-15.9417],[35.7441,-15.9426],[35.7429,-15.9435],[35.7415,-15.9441],[35.7402,-15.9443],[35.7388,-15.9443],[35.7345,-15.9434],[35.7311,-15.942],[35.7294,-15.9408],[35.7207,-15.9339],[35.714,-15.9306],[35.6964,-15.917],[35.6813,-15.9024],[35.6696,-15.8944],[35.6653,-15.8933],[35.6402,-15.9016],[35.6006,-15.9355],[35.5956,-15.9293],[35.5666,-15.8519],[35.5646,-15.848],[35.5632,-15.8466],[35.5619,-15.8462],[35.5612,-15.8462],[35.5604,-15.8463],[35.5588,-15.8465],[35.5567,-15.8475],[35.5562,-15.8475],[35.5557,-15.8473],[35.5543,-15.8468],[35.5534,-15.8468],[35.5525,-15.8463],[35.5516,-15.8455],[35.5506,-15.8434],[35.5492,-15.8415],[35.5486,-15.8408],[35.548,-15.8395],[35.5468,-15.8385],[35.5444,-15.8356],[35.5436,-15.8353],[35.5429,-15.8354],[35.5423,-15.8358],[35.5416,-15.8357],[35.5409,-15.8351],[35.5399,-15.8343],[35.539,-15.8337],[35.5382,-15.8331],[35.5373,-15.8326],[35.5351,-15.8309],[35.5336,-15.8299],[35.532,-15.8284],[35.5303,-15.8253],[35.5246,-15.8094],[35.521,-15.7905],[35.5145,-15.6983],[35.5137,-15.6975],[35.5131,-15.6968],[35.5123,-15.6961],[35.5103,-15.6949],[35.5092,-15.6941],[35.5084,-15.6937],[35.5052,-15.693],[35.5042,-15.6927],[35.5034,-15.6925],[35.5,-15.6924],[35.4994,-15.6924],[35.4985,-15.6925],[35.4976,-15.6921],[35.4968,-15.6909],[35.4974,-15.6859],[35.4996,-15.68],[35.5107,-15.661],[35.5129,-15.658],[35.5137,-15.6572],[35.5145,-15.6563],[35.5157,-15.6541],[35.5171,-15.6521],[35.5224,-15.6425],[35.5232,-15.6419],[35.525,-15.6414],[35.5257,-15.6409],[35.5264,-15.64],[35.5272,-15.6389],[35.5288,-15.6364],[35.5294,-15.6356],[35.5302,-15.6339],[35.5331,-15.6237],[35.5353,-15.6188],[35.5348,-15.6169],[35.534,-15.6152],[35.5266,-15.6067],[35.5395,-15.5757],[35.5477,-15.5683],[35.5585,-15.5609],[35.5705,-15.5556],[35.6231,-15.522],[35.6465,-15.501],[35.661,-15.4855],[35.6855,-15.4749],[35.7232,-15.4635],[35.8372,-15.4592],[35.8376,-15.4592]]]}},{"type":"Feature","properties":{"id":"MWI-1903","name":"Rumphi","nameBn":"রুম্পি জেলা","type":"District","bounds":[33.2317,-11.1087,34.675,-10.452],"center":[33.953,-10.7114]},"geometry":{"type":"Polygon","coordinates":[[[34.6209,-10.5824],[34.6244,-10.5834],[34.6272,-10.5951],[34.6263,-10.6143],[34.629,-10.6202],[34.6505,-10.6453],[34.66,-10.6655],[34.6609,-10.6873],[34.6476,-10.7084],[34.6539,-10.7176],[34.6557,-10.722],[34.6599,-10.7277],[34.6664,-10.7324],[34.6724,-10.7395],[34.675,-10.7524],[34.6628,-10.7614],[34.6567,-10.7699],[34.6606,-10.796],[34.6476,-10.8586],[34.6476,-10.9029],[34.6455,-10.9132],[34.6271,-10.9541],[34.6178,-10.9657],[34.6175,-10.9657],[34.6129,-10.9657],[34.2349,-10.9657],[34.1947,-10.9971],[34.0565,-11.077],[34.0428,-11.0508],[34.0303,-11.0332],[34.016,-11.0167],[33.9519,-10.966],[33.9447,-10.9637],[33.941,-10.969],[33.9388,-10.9758],[33.932,-11.0193],[33.9235,-11.025],[33.9094,-11.0268],[33.815,-11.0136],[33.7843,-11.0172],[33.7478,-11.0267],[33.7427,-11.0301],[33.7409,-11.0362],[33.7427,-11.0422],[33.7458,-11.0482],[33.7485,-11.0524],[33.7502,-11.057],[33.7492,-11.0628],[33.746,-11.0702],[33.7398,-11.0772],[33.733,-11.0819],[33.7249,-11.0847],[33.7169,-11.0858],[33.7079,-11.0851],[33.6986,-11.0793],[33.6934,-11.0722],[33.6853,-11.0558],[33.6793,-11.0513],[33.6705,-11.0498],[33.6324,-11.0555],[33.6215,-11.0557],[33.6096,-11.0533],[33.5959,-11.0461],[33.5855,-11.0382],[33.5751,-11.0284],[33.5652,-11.0211],[33.555,-11.018],[33.5416,-11.0209],[33.5345,-11.0261],[33.529,-11.0327],[33.5165,-11.0543],[33.5108,-11.0617],[33.4958,-11.0769],[33.4783,-11.0917],[33.458,-11.1059],[33.4492,-11.1087],[33.4411,-11.1065],[33.4376,-11.0963],[33.4387,-11.0882],[33.4417,-11.0799],[33.4451,-11.0725],[33.4471,-11.0628],[33.4473,-11.053],[33.4446,-11.0356],[33.4404,-11.0182],[33.435,-11.0121],[33.4266,-11.0084],[33.393,-11.0072],[33.3562,-11.0011],[33.3101,-10.9826],[33.291,-10.9751],[33.2879,-10.9449],[33.2803,-10.9133],[33.2659,-10.9011],[33.2521,-10.9031],[33.2396,-10.9031],[33.2317,-10.8976],[33.2326,-10.8833],[33.2414,-10.8657],[33.2508,-10.8625],[33.2612,-10.8653],[33.2734,-10.8656],[33.2881,-10.8567],[33.3069,-10.8286],[33.3191,-10.8181],[33.3326,-10.8136],[33.3578,-10.8087],[33.3717,-10.8033],[33.3855,-10.8009],[33.4187,-10.8073],[33.434,-10.8081],[33.4471,-10.8022],[33.4653,-10.7844],[33.4805,-10.7816],[33.501,-10.7692],[33.512,-10.7518],[33.5283,-10.7116],[33.5769,-10.6576],[33.5903,-10.649],[33.6031,-10.6433],[33.6423,-10.6153],[33.6578,-10.6013],[33.6742,-10.577],[33.6738,-10.573],[33.7022,-10.5619],[33.9485,-10.452],[34.0901,-10.5694],[34.1115,-10.5826],[34.1183,-10.5821],[34.1307,-10.5778],[34.1403,-10.5755],[34.1494,-10.5759],[34.1713,-10.5829],[34.1844,-10.5849],[34.6165,-10.5832],[34.6209,-10.5824]]]}},{"type":"Feature","properties":{"id":"MWI-1914","name":"Salima","nameBn":"সালিমা জেলা","type":"District","bounds":[34.1167,-14.1143,34.8639,-13.4036],"center":[34.4903,-13.7572]},"geometry":{"type":"Polygon","coordinates":[[[34.5828,-13.4036],[34.5998,-13.4202],[34.6115,-13.4358],[34.6317,-13.4712],[34.6365,-13.4822],[34.6376,-13.4882],[34.6406,-13.4924],[34.6514,-13.4978],[34.6675,-13.5009],[34.7954,-13.4988],[34.8296,-13.5039],[34.8631,-13.5158],[34.8639,-13.5163],[34.736,-14.0781],[34.5499,-14.0728],[34.5429,-14.0752],[34.5388,-14.0776],[34.5333,-14.0814],[34.5271,-14.0864],[34.506,-14.1084],[34.5007,-14.1126],[34.4964,-14.1143],[34.4844,-14.1072],[34.4683,-14.0909],[34.4366,-14.0451],[34.4032,-13.9863],[34.3893,-13.9701],[34.3275,-13.9116],[34.2836,-13.8508],[34.2734,-13.847],[34.2608,-13.8474],[34.2531,-13.849],[34.2452,-13.8513],[34.2106,-13.8686],[34.2002,-13.8723],[34.1915,-13.8715],[34.1864,-13.8669],[34.1847,-13.8602],[34.1854,-13.8538],[34.1896,-13.8461],[34.1961,-13.8392],[34.2096,-13.8302],[34.2373,-13.8189],[34.2484,-13.8079],[34.2504,-13.7803],[34.2546,-13.7761],[34.2557,-13.7748],[34.2576,-13.7729],[34.2616,-13.7706],[34.268,-13.7683],[34.2777,-13.7661],[34.2922,-13.7614],[34.297,-13.7587],[34.3021,-13.7551],[34.3048,-13.751],[34.3068,-13.746],[34.3079,-13.7396],[34.3065,-13.7359],[34.3026,-13.731],[34.2931,-13.7261],[34.2876,-13.7207],[34.2844,-13.7123],[34.2846,-13.7061],[34.2857,-13.6965],[34.2857,-13.6857],[34.2827,-13.6758],[34.2759,-13.6708],[34.2701,-13.6703],[34.2633,-13.6727],[34.2278,-13.6914],[34.2181,-13.6933],[34.2096,-13.6933],[34.202,-13.6912],[34.1937,-13.6862],[34.1853,-13.6796],[34.1403,-13.6363],[34.1338,-13.6314],[34.1215,-13.6239],[34.1204,-13.6205],[34.1242,-13.6135],[34.1293,-13.6058],[34.1317,-13.5901],[34.1321,-13.5784],[34.1167,-13.5046],[34.1336,-13.4896],[34.1638,-13.4757],[34.1756,-13.4744],[34.2002,-13.4695],[34.2413,-13.4524],[34.3277,-13.4038],[34.5827,-13.4036],[34.5828,-13.4036]]]}},{"type":"Feature","properties":{"id":"MWI-1918","name":"Thyolo","nameBn":"থিওলো","type":"District","bounds":[34.8916,-16.3991,35.3225,-15.8609],"center":[35.1071,-16.1135]},"geometry":{"type":"Polygon","coordinates":[[[35.2992,-16.2087],[35.2772,-16.234],[35.2588,-16.2715],[35.2519,-16.3178],[35.2542,-16.3284],[35.2662,-16.3565],[35.2623,-16.3666],[35.2387,-16.3941],[35.2373,-16.3991],[35.237,-16.399],[35.1903,-16.3849],[35.1734,-16.3888],[35.1695,-16.3951],[35.1594,-16.3936],[35.1515,-16.3904],[35.0961,-16.3314],[35.0831,-16.289],[35.0844,-16.2816],[35.0839,-16.2714],[35.0823,-16.2642],[34.9489,-16.1161],[34.8916,-16.0267],[34.9191,-16.0193],[34.9267,-16.0143],[34.9518,-15.9923],[34.9614,-15.9805],[34.9804,-15.9474],[34.9872,-15.9384],[34.9942,-15.9319],[34.9998,-15.9293],[35.0056,-15.9278],[35.0251,-15.9267],[35.039,-15.9239],[35.1463,-15.8609],[35.1835,-15.8614],[35.193,-15.864],[35.1996,-15.8685],[35.2062,-15.8781],[35.2136,-15.8865],[35.249,-15.9188],[35.255,-15.9278],[35.2608,-15.9418],[35.266,-15.9634],[35.2705,-15.9725],[35.2783,-15.9822],[35.2901,-15.994],[35.3104,-16.0053],[35.3225,-16.0967],[35.3187,-16.1254],[35.3101,-16.134],[35.3045,-16.1385],[35.2987,-16.1455],[35.2921,-16.1552],[35.285,-16.1726],[35.2831,-16.1835],[35.2846,-16.1922],[35.2882,-16.1974],[35.299,-16.2085],[35.2992,-16.2087]]]}},{"type":"Feature","properties":{"id":"MWI-1920","name":"Zomba","nameBn":"জম্বা","type":"District","bounds":[35.0111,-15.6834,35.8405,-15.2071],"center":[35.4256,-15.4526]},"geometry":{"type":"Polygon","coordinates":[[[35.7886,-15.2114],[35.812,-15.3049],[35.8405,-15.4172],[35.8376,-15.4583],[35.8376,-15.4592],[35.8372,-15.4592],[35.7232,-15.4635],[35.6855,-15.4749],[35.661,-15.4855],[35.6465,-15.501],[35.6231,-15.522],[35.5705,-15.5556],[35.5585,-15.5609],[35.5477,-15.5683],[35.5395,-15.5757],[35.5266,-15.6067],[35.5024,-15.6237],[35.4949,-15.6301],[35.4653,-15.6634],[35.4575,-15.666],[35.4449,-15.668],[35.403,-15.6695],[35.3903,-15.6717],[35.3768,-15.6783],[35.3683,-15.6815],[35.3407,-15.6834],[35.2953,-15.668],[35.2843,-15.6614],[35.2724,-15.6507],[35.2581,-15.6308],[35.2512,-15.6172],[35.2433,-15.5951],[35.2364,-15.5859],[35.2271,-15.5792],[35.2113,-15.5725],[35.2012,-15.5658],[35.1942,-15.5552],[35.1933,-15.5454],[35.195,-15.5312],[35.1931,-15.525],[35.1875,-15.5231],[35.1763,-15.5293],[35.1698,-15.5338],[35.1632,-15.537],[35.1563,-15.5348],[35.1424,-15.5373],[35.1295,-15.5378],[35.1238,-15.537],[35.1177,-15.5343],[35.1132,-15.5293],[35.1121,-15.5217],[35.114,-15.5154],[35.1175,-15.5094],[35.1384,-15.4856],[35.1407,-15.4799],[35.1393,-15.4758],[35.1328,-15.4744],[35.1154,-15.4742],[35.1068,-15.4726],[35.0974,-15.4656],[35.0882,-15.4549],[35.0547,-15.4072],[35.0319,-15.3884],[35.0111,-15.351],[35.0546,-15.3246],[35.0949,-15.3145],[35.1076,-15.3026],[35.1272,-15.2715],[35.1726,-15.2302],[35.1811,-15.2466],[35.1851,-15.2533],[35.1924,-15.2581],[35.2023,-15.2583],[35.2144,-15.25],[35.2226,-15.2415],[35.2306,-15.2362],[35.2408,-15.2346],[35.2575,-15.2379],[35.2738,-15.2434],[35.2865,-15.2457],[35.2957,-15.2452],[35.3056,-15.2393],[35.3247,-15.2203],[35.3312,-15.2158],[35.3422,-15.2122],[35.354,-15.2116],[35.3737,-15.2158],[35.4248,-15.2363],[35.4432,-15.2417],[35.4544,-15.242],[35.4676,-15.2402],[35.489,-15.2337],[35.5016,-15.2282],[35.512,-15.222],[35.5219,-15.2137],[35.524,-15.2117],[35.5278,-15.2087],[35.5306,-15.2071],[35.7883,-15.2114],[35.7886,-15.2114]]]}}]}