{"type":"FeatureCollection","features":[{"type":"Feature","properties":{"id":"NIC-657","name":"Atlántico Norte","nameBn":"উত্তর আটলান্টিক স্বায়ত্বশাসিত অঞ্চল","type":"Autonomous Region","bounds":[-85.5064,13.0303,-82.7257,15.031],"center":[-84.1501,13.997]},"geometry":{"type":"MultiPolygon","coordinates":[[[[-85.0482,14.6058],[-85.0422,14.6135],[-85.0202,14.6337],[-85.0485,14.6533],[-85.0539,14.6631],[-85.0382,14.6672],[-85.033,14.6696],[-85.0298,14.6755],[-85.0245,14.7125],[-85.0157,14.7282],[-85.002,14.7407],[-84.9999,14.742],[-84.9844,14.7522],[-84.9665,14.7646],[-84.9206,14.8077],[-84.9042,14.817],[-84.8444,14.8275],[-84.8181,14.8287],[-84.7921,14.8211],[-84.7702,14.8051],[-84.7555,14.7815],[-84.7586,14.7787],[-84.7664,14.7689],[-84.7669,14.7669],[-84.747,14.7645],[-84.7443,14.7524],[-84.7453,14.7391],[-84.7249,14.7256],[-84.7144,14.7089],[-84.6993,14.6747],[-84.6808,14.6855],[-84.6617,14.6834],[-84.623,14.6672],[-84.6004,14.6625],[-84.5274,14.6604],[-84.5312,14.6533],[-84.5342,14.6337],[-84.519,14.6383],[-84.5085,14.6326],[-84.498,14.6239],[-84.4827,14.6195],[-84.4716,14.6226],[-84.4457,14.6367],[-84.4084,14.6494],[-84.39,14.6715],[-84.3761,14.6967],[-84.3629,14.7156],[-84.3532,14.706],[-84.346,14.68],[-84.3384,14.6747],[-84.3232,14.6733],[-84.2989,14.668],[-84.2878,14.6672],[-84.2673,14.6777],[-84.2622,14.6997],[-84.2673,14.7467],[-84.2618,14.7585],[-84.2492,14.7594],[-84.2354,14.7547],[-84.2264,14.7498],[-84.2187,14.7434],[-84.195,14.7187],[-84.1829,14.7139],[-84.1682,14.715],[-84.1438,14.7219],[-84.1379,14.7252],[-84.1339,14.73],[-84.1287,14.7342],[-84.1196,14.7361],[-84.1112,14.7347],[-84.1065,14.7323],[-84.1023,14.7319],[-84.0954,14.7361],[-84.0954,14.7436],[-84.1042,14.7519],[-84.1111,14.761],[-84.1227,14.7845],[-84.1118,14.7934],[-84.1044,14.7939],[-84.0816,14.7798],[-84.079,14.7752],[-84.0752,14.7716],[-84.0647,14.7703],[-84.0478,14.7708],[-84.0427,14.7681],[-84.0408,14.7603],[-84.0236,14.7583],[-83.9247,14.7634],[-83.9299,14.7717],[-83.9297,14.7809],[-83.9247,14.8038],[-83.9127,14.7972],[-83.8966,14.7804],[-83.8838,14.7771],[-83.885,14.7813],[-83.8899,14.7907],[-83.8827,14.7878],[-83.8788,14.7867],[-83.8753,14.7843],[-83.8695,14.7771],[-83.8573,14.7878],[-83.8395,14.7974],[-83.8197,14.8036],[-83.8012,14.8038],[-83.809,14.8089],[-83.8139,14.8138],[-83.8211,14.8255],[-83.7653,14.8288],[-83.7445,14.8367],[-83.7466,14.8522],[-83.7339,14.853],[-83.7236,14.8516],[-83.7162,14.8471],[-83.7124,14.8385],[-83.705,14.8385],[-83.7145,14.8672],[-83.7106,14.8783],[-83.692,14.887],[-83.6721,14.8896],[-83.65,14.8885],[-83.6316,14.8832],[-83.6231,14.8727],[-83.6156,14.8727],[-83.6113,14.8849],[-83.6092,14.8984],[-83.6043,14.9092],[-83.5798,14.9181],[-83.5549,14.9374],[-83.5405,14.9416],[-83.5424,14.9451],[-83.5451,14.9522],[-83.5473,14.9552],[-83.5325,14.951],[-83.5269,14.9484],[-83.5299,14.9618],[-83.5286,14.9734],[-83.523,14.9777],[-83.5132,14.9689],[-83.5126,14.984],[-83.511,14.9902],[-83.5057,14.9968],[-83.5125,15.0065],[-83.5091,15.0115],[-83.499,15.0127],[-83.4859,15.0105],[-83.4806,15.0055],[-83.4684,14.9874],[-83.4592,14.9825],[-83.4357,14.9852],[-83.4155,14.9969],[-83.3999,15.0136],[-83.3903,15.031],[-83.3778,15.0213],[-83.365,15.0163],[-83.3545,15.0101],[-83.3494,14.9968],[-83.3342,15.0064],[-83.3171,15.0076],[-83.273,15.003],[-83.2849,14.9974],[-83.2857,14.9921],[-83.2783,14.9871],[-83.2662,14.9825],[-83.262,14.9832],[-83.2177,14.9825],[-83.1913,14.9943],[-83.1774,14.9968],[-83.1437,14.9949],[-83.1304,14.997],[-83.1378,14.9867],[-83.1561,14.9785],[-83.1652,14.9691],[-83.1798,14.986],[-83.1919,14.9743],[-83.2015,14.9531],[-83.2089,14.9417],[-83.2217,14.9357],[-83.2339,14.9213],[-83.2429,14.9044],[-83.2464,14.8906],[-83.2491,14.8859],[-83.2618,14.8738],[-83.267,14.8666],[-83.2695,14.8569],[-83.2714,14.8355],[-83.2738,14.8257],[-83.282,14.8132],[-83.294,14.8043],[-83.3284,14.791],[-83.326,14.7969],[-83.3232,14.8017],[-83.3148,14.8114],[-83.3148,14.8039],[-83.3114,14.8095],[-83.3094,14.8141],[-83.3086,14.819],[-83.3085,14.8257],[-83.3163,14.821],[-83.3195,14.8203],[-83.3284,14.8257],[-83.3284,14.8319],[-83.3165,14.8373],[-83.3051,14.8388],[-83.2951,14.8352],[-83.2874,14.8257],[-83.2882,14.8445],[-83.2989,14.8704],[-83.3017,14.8906],[-83.3079,14.9106],[-83.3222,14.9139],[-83.3384,14.908],[-83.3502,14.9008],[-83.3699,14.883],[-83.4141,14.8277],[-83.4246,14.8039],[-83.4149,14.8139],[-83.4115,14.8183],[-83.3978,14.8076],[-83.387,14.7665],[-83.3802,14.7574],[-83.3671,14.7497],[-83.3527,14.7362],[-83.3375,14.7314],[-83.3222,14.7499],[-83.3295,14.7561],[-83.3479,14.7671],[-83.3563,14.7705],[-83.345,14.7766],[-83.3335,14.7733],[-83.323,14.7634],[-83.3148,14.7499],[-83.3154,14.7728],[-83.3082,14.7799],[-83.2992,14.7712],[-83.2601,14.596],[-83.258,14.5904],[-83.2486,14.5717],[-83.2403,14.524],[-83.1918,14.3869],[-83.1866,14.3476],[-83.1914,14.3134],[-83.2186,14.2503],[-83.3017,14.1199],[-83.3375,14.0775],[-83.3426,14.061],[-83.3497,14.0488],[-83.3973,14.0163],[-83.4174,13.9886],[-83.4313,13.9567],[-83.4553,13.8639],[-83.4938,13.7377],[-83.5175,13.6237],[-83.516,13.5747],[-83.5202,13.5508],[-83.5204,13.5316],[-83.5413,13.4819],[-83.5592,13.4158],[-83.5701,13.2871],[-83.5682,13.263],[-83.5611,13.2492],[-83.5686,13.2429],[-83.563,13.2307],[-83.5296,13.0326],[-83.5297,13.0326],[-83.548,13.0303],[-83.5982,13.0334],[-83.6389,13.0315],[-83.6573,13.0374],[-83.7557,13.0936],[-83.8309,13.1473],[-83.8352,13.1513],[-83.8382,13.1558],[-83.839,13.161],[-83.8383,13.1667],[-83.8361,13.1724],[-83.8326,13.1781],[-83.8137,13.2008],[-83.81,13.2068],[-83.8078,13.2125],[-83.8072,13.2182],[-83.8109,13.2228],[-83.8186,13.2266],[-83.8359,13.2312],[-83.8463,13.2354],[-83.8541,13.24],[-83.8643,13.2442],[-83.8835,13.2471],[-83.9646,13.2503],[-83.9798,13.2516],[-83.9838,13.2543],[-83.9943,13.256],[-83.9887,13.2444],[-83.9876,13.2345],[-83.9915,13.2301],[-84.0005,13.2355],[-84.0073,13.2355],[-84.0164,13.2305],[-84.021,13.231],[-84.0278,13.2355],[-84.0361,13.2145],[-84.0481,13.2121],[-84.0635,13.2178],[-84.0824,13.2213],[-84.0773,13.2159],[-84.0718,13.2059],[-84.0688,13.2014],[-84.0844,13.2044],[-84.1086,13.1973],[-84.1172,13.2014],[-84.1236,13.2027],[-84.1293,13.209],[-84.1333,13.2161],[-84.1526,13.2754],[-84.1552,13.2803],[-84.1631,13.2823],[-84.1766,13.2806],[-84.2369,13.2642],[-84.2466,13.2638],[-84.2583,13.2671],[-84.2652,13.2715],[-84.2715,13.2745],[-84.2769,13.2759],[-84.2845,13.2766],[-84.291,13.2763],[-84.2984,13.2739],[-84.309,13.2671],[-84.3212,13.2541],[-84.3337,13.2497],[-84.3535,13.2471],[-84.4929,13.2465],[-84.7514,13.2157],[-84.7698,13.2427],[-84.8696,13.3666],[-84.8755,13.3768],[-84.8789,13.3804],[-84.8831,13.3815],[-84.9738,13.2988],[-84.9828,13.2952],[-84.9982,13.2937],[-85.0646,13.2951],[-85.098,13.2922],[-85.1234,13.2775],[-85.1363,13.2594],[-85.1445,13.2414],[-85.1563,13.2067],[-85.1687,13.1815],[-85.1773,13.1717],[-85.1871,13.1644],[-85.2157,13.1514],[-85.2418,13.1452],[-85.2524,13.1466],[-85.2833,13.1592],[-85.2904,13.1691],[-85.3023,13.1705],[-85.3042,13.1725],[-85.3054,13.1814],[-85.3074,13.1847],[-85.3108,13.1871],[-85.3249,13.1939],[-85.3325,13.1989],[-85.3365,13.2001],[-85.3398,13.2002],[-85.3453,13.1987],[-85.3514,13.1979],[-85.3545,13.1981],[-85.3574,13.1985],[-85.3599,13.1995],[-85.3622,13.201],[-85.3908,13.2268],[-85.3964,13.2311],[-85.4011,13.2337],[-85.4146,13.239],[-85.4344,13.258],[-85.4854,13.3251],[-85.5064,13.3706],[-85.5061,13.4061],[-85.5004,13.4192],[-85.4694,13.4462],[-85.415,13.4804],[-85.4041,13.4893],[-85.4006,13.4972],[-85.3994,13.5065],[-85.3998,13.5114],[-85.3993,13.5295],[-85.3888,13.5605],[-85.3904,13.5701],[-85.3952,13.5834],[-85.4019,13.5946],[-85.41,13.6116],[-85.4109,13.6206],[-85.4091,13.6267],[-85.3987,13.6333],[-85.3916,13.6414],[-85.3838,13.6534],[-85.3749,13.6774],[-85.3701,13.6865],[-85.3651,13.6919],[-85.2847,13.7028],[-85.2826,13.7033],[-85.1606,13.7775],[-85.1569,13.7785],[-85.0613,13.7355],[-85.0568,13.7375],[-85.0518,13.7426],[-84.9248,13.9407],[-84.864,14.0403],[-84.8548,14.0595],[-84.8528,14.0713],[-84.8621,14.1078],[-84.8589,14.1543],[-84.8371,14.2687],[-84.8355,14.2929],[-84.838,14.3068],[-84.9274,14.3124],[-84.9345,14.3143],[-84.9397,14.3175],[-84.954,14.3344],[-84.9708,14.3496],[-84.9896,14.3734],[-84.9924,14.3807],[-84.9928,14.3874],[-84.9909,14.3939],[-84.9831,14.4075],[-84.982,14.4125],[-84.983,14.4343],[-84.9816,14.4407],[-84.9704,14.4594],[-84.9686,14.4691],[-84.9702,14.477],[-84.9738,14.4831],[-84.9783,14.4872],[-84.9931,14.4951],[-85.0065,14.5054],[-85.0081,14.5078],[-85.009,14.5107],[-85.0083,14.52],[-85.0086,14.5287],[-85.0081,14.5346],[-85.0062,14.5448],[-85.0058,14.5494],[-85.006,14.5554],[-85.0044,14.5613],[-84.9992,14.5756],[-84.9995,14.5823],[-85.0011,14.5885],[-85.0032,14.5927],[-85.0055,14.5964],[-85.0087,14.5988],[-85.0115,14.6003],[-85.0189,14.602],[-85.0237,14.6025],[-85.0222,14.6058],[-85.0482,14.6058]]],[[[-82.7673,14.4141],[-82.751,14.422],[-82.7378,14.4219],[-82.729,14.4138],[-82.7257,14.3974],[-82.7325,14.3696],[-82.7508,14.3615],[-82.8039,14.366],[-82.8083,14.3664],[-82.8044,14.3664],[-82.8037,14.3663],[-82.8016,14.3668],[-82.8004,14.3693],[-82.8009,14.3732],[-82.7848,14.382],[-82.7782,14.3932],[-82.7746,14.4047],[-82.7673,14.4141]]]]}},{"type":"Feature","properties":{"id":"NIC-644","name":"Atlántico Sur","nameBn":"ডেল আল্টান্টিকো সোর স্বায়ত্তশাসিত অঞ্চল","type":"Autonomous Region","bounds":[-85.2279,10.944,-83.0211,13.2823],"center":[-84.2147,12.2265]},"geometry":{"type":"MultiPolygon","coordinates":[[[[-83.5296,13.0326],[-83.5077,12.9028],[-83.5413,12.639],[-83.5413,12.5806],[-83.538,12.571],[-83.5235,12.5423],[-83.5138,12.5105],[-83.4859,12.4722],[-83.4792,12.4472],[-83.4818,12.4167],[-83.4923,12.4003],[-83.5126,12.3938],[-83.5447,12.3926],[-83.5692,12.3876],[-83.5942,12.3788],[-83.6176,12.3751],[-83.6375,12.3857],[-83.63,12.3929],[-83.6094,12.4072],[-83.6034,12.4137],[-83.6025,12.4254],[-83.6063,12.4411],[-83.6127,12.4549],[-83.6346,12.4741],[-83.6329,12.5395],[-83.6375,12.5645],[-83.6339,12.5665],[-83.6327,12.5666],[-83.6321,12.5671],[-83.63,12.5707],[-83.6239,12.5707],[-83.5884,12.5596],[-83.5638,12.5909],[-83.5554,12.6359],[-83.5686,12.6663],[-83.5686,12.6738],[-83.56,12.6833],[-83.5565,12.6967],[-83.5549,12.7526],[-83.5531,12.7547],[-83.5491,12.758],[-83.5444,12.7631],[-83.5413,12.77],[-83.5447,12.7968],[-83.564,12.8127],[-83.5908,12.8191],[-83.6164,12.8171],[-83.637,12.8053],[-83.6459,12.7869],[-83.6453,12.7665],[-83.6375,12.7488],[-83.6155,12.7373],[-83.6133,12.7353],[-83.6134,12.7319],[-83.6117,12.7149],[-83.6102,12.7079],[-83.6059,12.7011],[-83.6013,12.6982],[-83.5975,12.6943],[-83.5959,12.684],[-83.5964,12.6671],[-83.5986,12.6602],[-83.6034,12.6527],[-83.5994,12.6479],[-83.5891,12.6321],[-83.6205,12.6142],[-83.6737,12.5705],[-83.7058,12.5571],[-83.749,12.5526],[-83.7672,12.5467],[-83.7746,12.5335],[-83.7746,12.4814],[-83.7734,12.4803],[-83.7694,12.4825],[-83.7611,12.482],[-83.749,12.4795],[-83.741,12.4797],[-83.7342,12.4777],[-83.7262,12.4683],[-83.7194,12.4237],[-83.7234,12.4023],[-83.7304,12.3821],[-83.7337,12.363],[-83.7262,12.3448],[-83.7077,12.3359],[-83.6763,12.3425],[-83.671,12.3271],[-83.6722,12.3171],[-83.6773,12.2975],[-83.6785,12.2861],[-83.6764,12.2799],[-83.6717,12.289],[-83.6559,12.3403],[-83.6498,12.3532],[-83.6409,12.3585],[-83.6212,12.3557],[-83.617,12.348],[-83.6637,12.2561],[-83.6859,12.1374],[-83.6786,12.0094],[-83.671,11.9879],[-83.6778,11.9839],[-83.6853,11.9811],[-83.6812,12.0017],[-83.6883,12.0187],[-83.7132,12.0493],[-83.7237,12.0747],[-83.7152,12.0854],[-83.7007,12.0952],[-83.6927,12.1182],[-83.6979,12.1352],[-83.711,12.1547],[-83.7286,12.1716],[-83.7474,12.1803],[-83.7777,12.1772],[-83.7763,12.1623],[-83.7603,12.1531],[-83.7474,12.1667],[-83.7399,12.1667],[-83.7231,12.1494],[-83.7161,12.1389],[-83.7132,12.1257],[-83.7169,12.1088],[-83.732,12.0871],[-83.7337,12.071],[-83.7394,12.0519],[-83.7573,12.0513],[-83.7986,12.0636],[-83.8039,12.0603],[-83.7917,12.053],[-83.7672,12.0432],[-83.7613,12.0353],[-83.7572,12.0246],[-83.755,12.0123],[-83.7542,11.9991],[-83.7563,11.9901],[-83.7652,11.9716],[-83.7672,11.9643],[-83.7655,11.9588],[-83.7621,11.9531],[-83.7598,11.9468],[-83.7611,11.9401],[-83.7663,11.934],[-83.7719,11.9311],[-83.7771,11.9293],[-83.7809,11.9265],[-83.7994,11.9029],[-83.8051,11.8991],[-83.8137,11.8962],[-83.8235,11.889],[-83.8319,11.8799],[-83.8361,11.8712],[-83.823,11.8625],[-83.807,11.8482],[-83.7934,11.8328],[-83.7848,11.8135],[-83.7775,11.8083],[-83.7677,11.8048],[-83.7576,11.8036],[-83.7429,11.8052],[-83.7418,11.8098],[-83.746,11.8163],[-83.7474,11.824],[-83.7406,11.8435],[-83.7351,11.8537],[-83.7262,11.8576],[-83.7095,11.8581],[-83.6999,11.8499],[-83.6536,11.6675],[-83.6512,11.6323],[-83.6517,11.6194],[-83.653,11.6115],[-83.6568,11.6054],[-83.6648,11.5981],[-83.6667,11.601],[-83.6809,11.5981],[-83.6947,11.5937],[-83.6959,11.5913],[-83.7038,11.588],[-83.7137,11.5735],[-83.7228,11.5702],[-83.7349,11.57],[-83.7447,11.5685],[-83.753,11.5646],[-83.7611,11.5571],[-83.7712,11.5261],[-83.7809,11.4793],[-83.7944,11.444],[-83.8157,11.4473],[-83.8219,11.4473],[-83.8536,11.4074],[-83.8628,11.392],[-83.868,11.3749],[-83.8679,11.2737],[-83.8373,11.1425],[-83.8157,11.0904],[-83.7856,11.0448],[-83.7759,11.0198],[-83.7521,10.9822],[-83.7436,10.9743],[-83.7255,10.9632],[-83.7183,10.944],[-83.7355,10.9572],[-83.7614,10.9847],[-83.7759,11.0083],[-83.7941,11.0317],[-83.7976,11.035],[-83.7999,11.0365],[-83.8073,11.0389],[-83.8467,11.0465],[-83.858,11.0474],[-83.8651,11.0472],[-83.8675,11.046],[-83.8696,11.0447],[-83.872,11.0437],[-83.8749,11.0437],[-83.8783,11.0456],[-83.8827,11.0508],[-83.8842,11.0547],[-83.885,11.0586],[-83.8851,11.0652],[-83.8856,11.0681],[-83.8866,11.0706],[-83.8882,11.0725],[-83.8915,11.076],[-83.8944,11.08],[-83.8956,11.0824],[-83.8968,11.0879],[-83.897,11.0911],[-83.8954,11.1096],[-83.8956,11.1127],[-83.8973,11.1146],[-83.9002,11.1151],[-83.9142,11.1086],[-83.9191,11.1074],[-83.9286,11.1061],[-83.9365,11.103],[-83.9387,11.1016],[-83.941,11.1005],[-83.9436,11.0996],[-83.9458,11.0984],[-83.9496,11.0983],[-83.9542,11.0989],[-83.9638,11.1025],[-83.9699,11.1035],[-83.9773,11.1022],[-83.9809,11.1008],[-83.986,11.098],[-83.988,11.0965],[-83.9924,11.0942],[-83.9947,11.0934],[-84.001,11.092],[-84.0096,11.0875],[-84.0136,11.088],[-84.0189,11.0906],[-84.0287,11.0986],[-84.0397,11.1098],[-84.041,11.1119],[-84.0415,11.1146],[-84.0414,11.1175],[-84.0406,11.123],[-84.0438,11.1248],[-84.0502,11.1254],[-84.082,11.1214],[-84.0944,11.1255],[-84.1108,11.132],[-84.1172,11.1335],[-84.12,11.1337],[-84.1263,11.1337],[-84.1366,11.1323],[-84.1389,11.1325],[-84.1417,11.133],[-84.1493,11.1358],[-84.1549,11.1372],[-84.1578,11.1382],[-84.1641,11.142],[-84.1679,11.1437],[-84.1714,11.1445],[-84.1744,11.1444],[-84.1786,11.147],[-84.1836,11.1528],[-84.204,11.186],[-84.2127,11.197],[-84.2411,11.2251],[-84.2805,11.2531],[-84.3276,11.2769],[-84.3368,11.2835],[-84.3458,11.2927],[-84.3533,11.3079],[-84.3554,11.3207],[-84.3561,11.3331],[-84.362,11.3468],[-84.3775,11.362],[-84.4572,11.4109],[-84.4861,11.4282],[-84.5526,11.4524],[-84.5563,11.491],[-84.5636,11.5297],[-84.5633,11.5427],[-84.5605,11.562],[-84.5464,11.6101],[-84.5365,11.633],[-84.5348,11.6441],[-84.5343,11.6521],[-84.5443,11.6835],[-84.5551,11.7088],[-84.5564,11.7349],[-84.5552,11.7469],[-84.5576,11.7533],[-84.5639,11.7598],[-84.5722,11.7666],[-84.5872,11.7936],[-84.6074,11.8625],[-84.6126,11.8792],[-84.6197,11.8924],[-84.6207,11.8953],[-84.6216,11.8996],[-84.6136,11.9065],[-84.5746,11.9225],[-84.7024,11.9827],[-84.7093,11.9929],[-84.7727,12.15],[-84.786,12.2097],[-84.7874,12.2427],[-84.7811,12.2652],[-84.7842,12.2803],[-84.8196,12.342],[-84.8255,12.3482],[-84.8328,12.3542],[-84.8396,12.3615],[-84.8469,12.3736],[-84.8522,12.3899],[-84.8563,12.4221],[-84.8552,12.4392],[-84.8524,12.4515],[-84.8466,12.465],[-84.8453,12.4708],[-84.8473,12.4776],[-84.8537,12.4881],[-84.867,12.5008],[-84.8879,12.5318],[-84.9097,12.5795],[-84.9156,12.5892],[-84.9445,12.6153],[-84.9685,12.6495],[-84.9738,12.6547],[-84.9853,12.6604],[-84.9864,12.6637],[-84.9868,12.6682],[-84.9839,12.6837],[-84.9852,12.7021],[-84.9896,12.7148],[-84.9982,12.7307],[-85.0043,12.7377],[-85.0102,12.7429],[-85.0192,12.7477],[-85.0271,12.76],[-85.032,12.762],[-85.0614,12.7838],[-85.0799,12.7937],[-85.0986,12.7932],[-85.1177,12.7762],[-85.1229,12.7643],[-85.1265,12.7363],[-85.1308,12.7216],[-85.1337,12.722],[-85.142,12.717],[-85.1492,12.7109],[-85.1488,12.708],[-85.1521,12.7061],[-85.1655,12.6937],[-85.1553,12.6775],[-85.1543,12.6627],[-85.1623,12.655],[-85.1792,12.6602],[-85.2051,12.7145],[-85.2128,12.7484],[-85.2171,12.7596],[-85.2268,12.7787],[-85.2279,12.7881],[-85.2262,12.7979],[-85.2223,12.8058],[-85.2156,12.8123],[-85.2068,12.8167],[-85.1921,12.8179],[-85.181,12.8163],[-85.1691,12.816],[-85.1594,12.8192],[-85.148,12.8292],[-85.1446,12.8388],[-85.1448,12.8546],[-85.1413,12.8594],[-85.1313,12.8608],[-85.1227,12.8592],[-85.105,12.8539],[-85.094,12.8527],[-85.082,12.8531],[-85.068,12.8557],[-85.0406,12.8637],[-85.0306,12.8648],[-84.9713,12.8547],[-84.9582,12.8507],[-84.9544,12.8553],[-84.942,12.8632],[-84.9359,12.8687],[-84.9257,12.8839],[-84.9185,12.9004],[-84.8984,12.8966],[-84.8757,12.9118],[-84.8547,12.9315],[-84.84,12.9413],[-84.8281,12.9426],[-84.8094,12.9476],[-84.7956,12.9482],[-84.7828,12.945],[-84.7768,12.9407],[-84.7715,12.9401],[-84.7608,12.9482],[-84.7553,12.9503],[-84.751,12.9494],[-84.7482,12.9503],[-84.7462,12.9653],[-84.742,12.9753],[-84.741,12.9786],[-84.7398,12.993],[-84.7335,13.0264],[-84.7293,13.0348],[-84.7082,13.0576],[-84.7076,13.0581],[-84.7009,13.0633],[-84.6971,13.0657],[-84.6965,13.0664],[-84.6992,13.0667],[-84.7018,13.0665],[-84.7046,13.0659],[-84.7071,13.0649],[-84.7182,13.0584],[-84.721,13.0577],[-84.724,13.0573],[-84.7273,13.0573],[-84.7304,13.0578],[-84.7331,13.0587],[-84.7354,13.0599],[-84.7374,13.0615],[-84.7407,13.0651],[-84.7435,13.069],[-84.7581,13.0984],[-84.7643,13.1178],[-84.7655,13.1201],[-84.7732,13.1299],[-84.7772,13.133],[-84.7794,13.1343],[-84.7819,13.1354],[-84.7847,13.1361],[-84.7871,13.1371],[-84.7894,13.1384],[-84.7967,13.1451],[-84.7988,13.1463],[-84.8009,13.1472],[-84.7977,13.154],[-84.7945,13.1592],[-84.7514,13.2157],[-84.4929,13.2465],[-84.3535,13.2471],[-84.3337,13.2497],[-84.3212,13.2541],[-84.309,13.2671],[-84.2984,13.2739],[-84.291,13.2763],[-84.2845,13.2766],[-84.2769,13.2759],[-84.2715,13.2745],[-84.2652,13.2715],[-84.2583,13.2671],[-84.2466,13.2638],[-84.2369,13.2642],[-84.1766,13.2806],[-84.1631,13.2823],[-84.1552,13.2803],[-84.1526,13.2754],[-84.1333,13.2161],[-84.1293,13.209],[-84.1236,13.2027],[-84.1172,13.2014],[-84.1086,13.1973],[-84.0844,13.2044],[-84.0688,13.2014],[-84.0718,13.2059],[-84.0773,13.2159],[-84.0824,13.2213],[-84.0635,13.2178],[-84.0481,13.2121],[-84.0361,13.2145],[-84.0278,13.2355],[-84.021,13.231],[-84.0164,13.2305],[-84.0073,13.2355],[-84.0005,13.2355],[-83.9915,13.2301],[-83.9876,13.2345],[-83.9887,13.2444],[-83.9943,13.256],[-83.9838,13.2543],[-83.9798,13.2516],[-83.9646,13.2503],[-83.8835,13.2471],[-83.8643,13.2442],[-83.8541,13.24],[-83.8463,13.2354],[-83.8359,13.2312],[-83.8186,13.2266],[-83.8109,13.2228],[-83.8072,13.2182],[-83.8078,13.2125],[-83.81,13.2068],[-83.8137,13.2008],[-83.8326,13.1781],[-83.8361,13.1724],[-83.8383,13.1667],[-83.839,13.161],[-83.8382,13.1558],[-83.8352,13.1513],[-83.8309,13.1473],[-83.7557,13.0936],[-83.6573,13.0374],[-83.6389,13.0315],[-83.5982,13.0334],[-83.548,13.0303],[-83.5297,13.0326],[-83.5296,13.0326]]],[[[-83.7262,11.8786],[-83.7338,11.9058],[-83.7361,11.9418],[-83.729,11.9733],[-83.7084,11.9873],[-83.7069,11.987],[-83.7057,11.9862],[-83.7053,11.9843],[-83.7058,11.9811],[-83.7124,11.9709],[-83.7193,11.9545],[-83.7245,11.9363],[-83.7262,11.9202],[-83.7204,11.8837],[-83.7198,11.8703],[-83.7262,11.8786]]],[[[-83.0539,12.1439],[-83.056,12.1662],[-83.0465,12.1837],[-83.0325,12.1908],[-83.0211,12.1818],[-83.0251,12.1752],[-83.0539,12.1439]]]]}},{"type":"Feature","properties":{"id":"NIC-668","name":"Boaco","nameBn":"বোয়াকু বিভাগ","type":"Department","bounds":[-85.9784,12.0413,-84.9685,12.7937],"center":[-85.4734,12.524]},"geometry":{"type":"Polygon","coordinates":[[[-85.4076,12.7433],[-85.4017,12.7421],[-85.3929,12.739],[-85.3828,12.7312],[-85.3745,12.7213],[-85.371,12.7117],[-85.3641,12.7082],[-85.3311,12.697],[-85.3122,12.687],[-85.2963,12.6861],[-85.2891,12.6806],[-85.2904,12.6779],[-85.2959,12.6527],[-85.2891,12.6527],[-85.2721,12.6635],[-85.2608,12.6618],[-85.2295,12.6275],[-85.223,12.6258],[-85.2201,12.6357],[-85.2161,12.6393],[-85.207,12.6359],[-85.1977,12.6297],[-85.1928,12.6254],[-85.186,12.6254],[-85.1821,12.6317],[-85.1795,12.6398],[-85.1784,12.6494],[-85.1792,12.6602],[-85.1623,12.655],[-85.1543,12.6627],[-85.1553,12.6775],[-85.1655,12.6937],[-85.1521,12.7061],[-85.1488,12.708],[-85.1492,12.7109],[-85.142,12.717],[-85.1337,12.722],[-85.1308,12.7216],[-85.1265,12.7363],[-85.1229,12.7643],[-85.1177,12.7762],[-85.0986,12.7932],[-85.0799,12.7937],[-85.0614,12.7838],[-85.032,12.762],[-85.0271,12.76],[-85.0192,12.7477],[-85.0102,12.7429],[-85.0043,12.7377],[-84.9982,12.7307],[-84.9896,12.7148],[-84.9852,12.7021],[-84.9839,12.6837],[-84.9868,12.6682],[-84.9864,12.6637],[-84.9853,12.6604],[-84.9738,12.6547],[-84.9685,12.6495],[-84.9812,12.6244],[-85.0193,12.5697],[-85.0232,12.5617],[-85.0257,12.5537],[-85.0271,12.5425],[-85.0276,12.5056],[-85.0304,12.4946],[-85.0357,12.4832],[-85.0523,12.4625],[-85.0633,12.4519],[-85.078,12.4409],[-85.1074,12.4266],[-85.1217,12.4244],[-85.1277,12.4241],[-85.138,12.4254],[-85.1486,12.423],[-85.1637,12.417],[-85.2222,12.3775],[-85.2341,12.3711],[-85.275,12.3574],[-85.329,12.3514],[-85.4009,12.3389],[-85.4437,12.3407],[-85.4728,12.3412],[-85.4976,12.3452],[-85.5085,12.3455],[-85.5228,12.3413],[-85.5606,12.3231],[-85.5863,12.3047],[-85.5911,12.3001],[-85.5991,12.2894],[-85.6011,12.2845],[-85.6023,12.2781],[-85.6021,12.2538],[-85.5997,12.2356],[-85.5999,12.2289],[-85.6021,12.222],[-85.6221,12.1768],[-85.6233,12.1752],[-85.6245,12.1732],[-85.6259,12.1714],[-85.6353,12.1566],[-85.64,12.147],[-85.6567,12.0465],[-85.7315,12.0413],[-85.7851,12.115],[-85.8123,12.1381],[-85.8283,12.1443],[-85.8368,12.1503],[-85.8421,12.1567],[-85.8437,12.1643],[-85.8453,12.1795],[-85.8515,12.1988],[-85.8463,12.2263],[-85.8298,12.251],[-85.8281,12.2568],[-85.8302,12.2601],[-85.9176,12.3411],[-85.9208,12.3464],[-85.9225,12.3536],[-85.9223,12.3703],[-85.9203,12.3899],[-85.9214,12.3961],[-85.925,12.4016],[-85.9501,12.4286],[-85.9628,12.4453],[-85.9696,12.4567],[-85.9744,12.4709],[-85.9784,12.5046],[-85.9723,12.5221],[-85.9427,12.5486],[-85.9374,12.5526],[-85.8895,12.5788],[-85.8719,12.6149],[-85.8557,12.623],[-85.6819,12.6585],[-85.6687,12.655],[-85.6529,12.6521],[-85.647,12.649],[-85.6441,12.6489],[-85.6401,12.6508],[-85.6279,12.6607],[-85.616,12.6629],[-85.5957,12.6667],[-85.5867,12.6714],[-85.582,12.6721],[-85.5627,12.6723],[-85.5568,12.6731],[-85.5529,12.6746],[-85.5499,12.6788],[-85.5369,12.7042],[-85.5353,12.7061],[-85.5334,12.7078],[-85.5308,12.7089],[-85.5275,12.7095],[-85.4635,12.7061],[-85.4534,12.7072],[-85.4477,12.709],[-85.4467,12.7114],[-85.445,12.7131],[-85.4424,12.7144],[-85.4346,12.7167],[-85.43,12.7188],[-85.4257,12.7215],[-85.4238,12.7233],[-85.4206,12.7272],[-85.4183,12.7317],[-85.4167,12.7357],[-85.4152,12.7377],[-85.4076,12.7433]]]}},{"type":"Feature","properties":{"id":"NIC-654","name":"Carazo","nameBn":"কারাজো বিভাগ","type":"Department","bounds":[-86.5023,11.5195,-86.0725,11.957],"center":[-86.2874,11.7692]},"geometry":{"type":"Polygon","coordinates":[[[-86.1752,11.5195],[-86.1761,11.5224],[-86.2071,11.536],[-86.2444,11.5716],[-86.3365,11.6114],[-86.3521,11.6226],[-86.3654,11.638],[-86.3766,11.6695],[-86.4964,11.7594],[-86.5023,11.7668],[-86.5023,11.7669],[-86.4772,11.7908],[-86.4672,11.7968],[-86.4593,11.7971],[-86.4532,11.7979],[-86.4418,11.8007],[-86.4363,11.8027],[-86.4324,11.8046],[-86.4199,11.8164],[-86.4096,11.8314],[-86.3825,11.8512],[-86.3752,11.8582],[-86.3559,11.8892],[-86.2933,11.9392],[-86.2814,11.957],[-86.2705,11.9442],[-86.1791,11.908],[-86.1497,11.8944],[-86.1366,11.8765],[-86.1343,11.874],[-86.0811,11.8585],[-86.0725,11.8562],[-86.0773,11.8455],[-86.0978,11.809],[-86.1035,11.7839],[-86.1,11.7593],[-86.0957,11.7424],[-86.0955,11.7307],[-86.0979,11.7218],[-86.1098,11.7056],[-86.1191,11.6872],[-86.1232,11.6563],[-86.122,11.6418],[-86.1194,11.6328],[-86.1017,11.6108],[-86.1366,11.5879],[-86.1397,11.584],[-86.1463,11.5718],[-86.1751,11.5196],[-86.1752,11.5195]]]}},{"type":"Feature","properties":{"id":"NIC-663","name":"Chinandega","nameBn":"কিনান্ডেগা বিভাগ","type":"Department","bounds":[-87.6858,12.4584,-86.6546,13.2934],"center":[-87.1702,12.7475]},"geometry":{"type":"Polygon","coordinates":[[[-86.7493,13.2613],[-86.7398,13.2637],[-86.7327,13.2685],[-86.7316,13.2668],[-86.7126,13.2629],[-86.7068,13.2585],[-86.7039,13.2501],[-86.7027,13.2427],[-86.7032,13.2366],[-86.7048,13.2312],[-86.7059,13.2288],[-86.7149,13.2004],[-86.7255,13.1912],[-86.7264,13.19],[-86.7289,13.1808],[-86.7322,13.1497],[-86.7207,13.0902],[-86.711,13.0563],[-86.6898,13.0086],[-86.6763,12.987],[-86.6639,12.9592],[-86.6546,12.8382],[-86.6576,12.807],[-86.67,12.7788],[-86.6879,12.7679],[-86.6957,12.7649],[-86.7099,12.7613],[-86.782,12.7521],[-86.793,12.7462],[-86.8002,12.7394],[-86.8141,12.713],[-86.8333,12.6904],[-86.8528,12.6816],[-86.8773,12.6556],[-86.9028,12.6287],[-86.9222,12.6106],[-86.9261,12.6041],[-86.9338,12.5844],[-86.9539,12.5524],[-87.0058,12.4997],[-87.0153,12.4939],[-87.0322,12.4842],[-87.0494,12.4767],[-87.0987,12.4713],[-87.1207,12.4584],[-87.1208,12.4584],[-87.1227,12.4604],[-87.1355,12.4705],[-87.1493,12.4745],[-87.1579,12.481],[-87.1804,12.523],[-87.1866,12.523],[-87.1764,12.4859],[-87.1927,12.4999],[-87.2189,12.5323],[-87.2381,12.5502],[-87.2505,12.5553],[-87.313,12.6028],[-87.3213,12.6112],[-87.3258,12.6216],[-87.3312,12.639],[-87.334,12.6336],[-87.3418,12.6241],[-87.3448,12.6192],[-87.4549,12.7438],[-87.4678,12.77],[-87.4635,12.7652],[-87.4593,12.7624],[-87.4473,12.7563],[-87.4473,12.7625],[-87.4521,12.7642],[-87.4609,12.77],[-87.4609,12.7762],[-87.4635,12.7863],[-87.4803,12.8],[-87.5029,12.812],[-87.523,12.8172],[-87.523,12.8109],[-87.4964,12.7939],[-87.4825,12.7812],[-87.482,12.77],[-87.4922,12.7714],[-87.507,12.7824],[-87.5292,12.8035],[-87.6465,12.8724],[-87.6709,12.8935],[-87.6857,12.9183],[-87.6858,12.9476],[-87.667,12.9822],[-87.6388,13.0065],[-87.61,13.0241],[-87.5888,13.0463],[-87.5839,13.0847],[-87.5776,13.0847],[-87.5804,13.0632],[-87.5839,13.0573],[-87.5726,13.0573],[-87.5591,13.0556],[-87.5476,13.0522],[-87.5428,13.0474],[-87.5381,13.0445],[-87.5127,13.0232],[-87.5064,13.0197],[-87.4883,12.9959],[-87.4839,12.9926],[-87.4711,12.9851],[-87.4678,12.9822],[-87.4669,12.9757],[-87.469,12.9606],[-87.4678,12.9543],[-87.435,12.9224],[-87.3925,12.9134],[-87.2896,12.9196],[-87.2896,12.927],[-87.3417,12.9257],[-87.3678,12.9285],[-87.379,12.9376],[-87.3689,12.9536],[-87.3206,12.9772],[-87.314,12.9816],[-87.0847,12.9959],[-87.0698,12.9944],[-87.0469,12.9806],[-87.035,12.9798],[-87.0296,12.9961],[-87.0088,13.0061],[-86.9832,13.0219],[-86.9718,13.0339],[-86.9484,13.0697],[-86.9427,13.0741],[-86.928,13.0812],[-86.9229,13.0864],[-86.9202,13.0962],[-86.9242,13.0998],[-86.9298,13.1022],[-86.9323,13.1085],[-86.9237,13.1611],[-86.9255,13.1636],[-86.9331,13.1797],[-86.9349,13.1855],[-86.9332,13.1882],[-86.926,13.2164],[-86.9189,13.2298],[-86.9108,13.2396],[-86.8627,13.2799],[-86.8495,13.2888],[-86.8334,13.2934],[-86.8162,13.2919],[-86.7587,13.2642],[-86.7493,13.2613]]]}},{"type":"Feature","properties":{"id":"NIC-669","name":"Chontales","nameBn":"কুন্টালেস বিভাগ","type":"Department","bounds":[-85.6567,11.6315,-84.5746,12.6495],"center":[-85.1156,12.0292]},"geometry":{"type":"Polygon","coordinates":[[[-85.1277,12.4241],[-85.1217,12.4244],[-85.1074,12.4266],[-85.078,12.4409],[-85.0633,12.4519],[-85.0523,12.4625],[-85.0357,12.4832],[-85.0304,12.4946],[-85.0276,12.5056],[-85.0271,12.5425],[-85.0257,12.5537],[-85.0232,12.5617],[-85.0193,12.5697],[-84.9812,12.6244],[-84.9685,12.6495],[-84.9445,12.6153],[-84.9156,12.5892],[-84.9097,12.5795],[-84.8879,12.5318],[-84.867,12.5008],[-84.8537,12.4881],[-84.8473,12.4776],[-84.8453,12.4708],[-84.8466,12.465],[-84.8524,12.4515],[-84.8552,12.4392],[-84.8563,12.4221],[-84.8522,12.3899],[-84.8469,12.3736],[-84.8396,12.3615],[-84.8328,12.3542],[-84.8255,12.3482],[-84.8196,12.342],[-84.7842,12.2803],[-84.7811,12.2652],[-84.7874,12.2427],[-84.786,12.2097],[-84.7727,12.15],[-84.7093,11.9929],[-84.7024,11.9827],[-84.5746,11.9225],[-84.6136,11.9065],[-84.6216,11.8996],[-84.6207,11.8953],[-84.6197,11.8924],[-84.6126,11.8792],[-84.6074,11.8625],[-84.6457,11.8637],[-84.6569,11.8661],[-84.6618,11.868],[-84.6655,11.8689],[-84.6689,11.8693],[-84.684,11.8679],[-84.688,11.8682],[-84.6965,11.8705],[-84.7009,11.8705],[-84.7213,11.8669],[-84.795,11.8678],[-84.8002,11.8671],[-84.805,11.8656],[-84.8082,11.8608],[-84.8743,11.8011],[-84.8994,11.7848],[-84.9421,11.7756],[-84.957,11.753],[-84.9598,11.7465],[-84.9598,11.7454],[-84.9608,11.7413],[-84.9627,11.7384],[-84.9669,11.7338],[-84.9685,11.7315],[-84.9694,11.7293],[-84.9708,11.7275],[-84.9778,11.7201],[-84.9824,11.7142],[-84.9857,11.7086],[-84.989,11.7063],[-84.995,11.7028],[-85.0137,11.6959],[-85.0186,11.6954],[-85.0211,11.696],[-85.0257,11.6978],[-85.032,11.6953],[-85.0412,11.6903],[-85.0612,11.6765],[-85.0767,11.6689],[-85.0809,11.6651],[-85.0833,11.6622],[-85.1015,11.6315],[-85.5229,11.6805],[-85.6567,12.0465],[-85.64,12.147],[-85.6353,12.1566],[-85.6259,12.1714],[-85.6245,12.1732],[-85.6233,12.1752],[-85.6221,12.1768],[-85.6021,12.222],[-85.5999,12.2289],[-85.5997,12.2356],[-85.6021,12.2538],[-85.6023,12.2781],[-85.6011,12.2845],[-85.5991,12.2894],[-85.5911,12.3001],[-85.5863,12.3047],[-85.5606,12.3231],[-85.5228,12.3413],[-85.5085,12.3455],[-85.4976,12.3452],[-85.4728,12.3412],[-85.4437,12.3407],[-85.4009,12.3389],[-85.329,12.3514],[-85.275,12.3574],[-85.2341,12.3711],[-85.2222,12.3775],[-85.1637,12.417],[-85.1486,12.423],[-85.138,12.4254],[-85.1277,12.4241]]]}},{"type":"Feature","properties":{"id":"NIC-664","name":"Estelí","nameBn":"এস্তেলি বিভাগ","type":"Department","bounds":[-86.7322,12.8485,-86.0995,13.4381],"center":[-86.4072,13.225]},"geometry":{"type":"Polygon","coordinates":[[[-86.0995,13.047],[-86.1372,12.9967],[-86.1437,12.971],[-86.1461,12.9655],[-86.1506,12.9602],[-86.1589,12.9545],[-86.1716,12.9501],[-86.1972,12.9446],[-86.2089,12.9406],[-86.2312,12.9283],[-86.2389,12.921],[-86.2424,12.9168],[-86.2583,12.8845],[-86.2639,12.8485],[-86.3863,12.8833],[-86.42,12.8998],[-86.4299,12.9173],[-86.4302,12.9257],[-86.4289,12.9373],[-86.4068,12.9755],[-86.4047,13.0069],[-86.4117,13.0318],[-86.4169,13.0404],[-86.4271,13.054],[-86.4534,13.0967],[-86.4715,13.1145],[-86.4791,13.1182],[-86.4912,13.1215],[-86.5471,13.1099],[-86.6131,13.0883],[-86.6334,13.0839],[-86.6452,13.083],[-86.6647,13.0923],[-86.6805,13.0976],[-86.6938,13.0978],[-86.7034,13.097],[-86.7207,13.0902],[-86.7322,13.1497],[-86.7289,13.1808],[-86.7264,13.19],[-86.7255,13.1912],[-86.7149,13.2004],[-86.631,13.283],[-86.6123,13.3088],[-86.6039,13.3264],[-86.5628,13.3968],[-86.5228,13.4304],[-86.4963,13.4345],[-86.4858,13.4312],[-86.4712,13.4242],[-86.4284,13.4044],[-86.3861,13.4113],[-86.3094,13.4355],[-86.2537,13.4381],[-86.2349,13.4322],[-86.2309,13.4257],[-86.221,13.4038],[-86.2129,13.3903],[-86.2215,13.3753],[-86.2273,13.3598],[-86.2301,13.343],[-86.2304,13.3217],[-86.2212,13.2788],[-86.2357,13.2373],[-86.2331,13.2248],[-86.2362,13.2081],[-86.2479,13.1891],[-86.2414,13.1751],[-86.2344,13.1646],[-86.1591,13.091],[-86.1152,13.0657],[-86.0995,13.047]]]}},{"type":"Feature","properties":{"id":"NIC-655","name":"Granada","nameBn":"গ্র্যানাডা","type":"Department","bounds":[-86.1232,11.6047,-85.5229,12.2062],"center":[-85.9698,11.8736]},"geometry":{"type":"Polygon","coordinates":[[[-85.8515,12.1988],[-85.8453,12.1795],[-85.8437,12.1643],[-85.8421,12.1567],[-85.8368,12.1503],[-85.8283,12.1443],[-85.8123,12.1381],[-85.7851,12.115],[-85.7315,12.0413],[-85.6567,12.0465],[-85.5229,11.6805],[-85.8944,11.6821],[-85.927,11.6727],[-85.9713,11.6615],[-85.9761,11.6631],[-85.9859,11.673],[-85.9898,11.6771],[-85.9942,11.6798],[-85.9992,11.681],[-86.0009,11.681],[-86.0034,11.6808],[-86.0062,11.6791],[-86.0091,11.6762],[-86.0247,11.6433],[-86.0356,11.6258],[-86.0393,11.6232],[-86.0671,11.6093],[-86.0706,11.6058],[-86.0781,11.6047],[-86.1017,11.6108],[-86.1194,11.6328],[-86.122,11.6418],[-86.1232,11.6563],[-86.1191,11.6872],[-86.1098,11.7056],[-86.0979,11.7218],[-86.0955,11.7307],[-86.0957,11.7424],[-86.1,11.7593],[-86.1035,11.7839],[-86.0978,11.809],[-86.0773,11.8455],[-86.0725,11.8562],[-86.0533,11.8977],[-86.0438,11.9184],[-86.0404,11.9259],[-86.0045,12.0041],[-85.9641,12.0914],[-85.9673,12.1067],[-86.0005,12.1438],[-85.9165,12.1808],[-85.8851,12.2032],[-85.8768,12.2062],[-85.8693,12.2061],[-85.8515,12.1988]]]}},{"type":"Feature","properties":{"id":"NIC-656","name":"Jinotega","nameBn":"জিনোতেগা","type":"Department","bounds":[-86.2479,12.9939,-84.8355,14.6025],"center":[-85.5417,13.6975]},"geometry":{"type":"Polygon","coordinates":[[[-85.0864,14.5445],[-85.0652,14.5543],[-85.0296,14.589],[-85.0237,14.6025],[-85.0189,14.602],[-85.0115,14.6003],[-85.0087,14.5988],[-85.0055,14.5964],[-85.0032,14.5927],[-85.0011,14.5885],[-84.9995,14.5823],[-84.9992,14.5756],[-85.0044,14.5613],[-85.006,14.5554],[-85.0058,14.5494],[-85.0062,14.5448],[-85.0081,14.5346],[-85.0086,14.5287],[-85.0083,14.52],[-85.009,14.5107],[-85.0081,14.5078],[-85.0065,14.5054],[-84.9931,14.4951],[-84.9783,14.4872],[-84.9738,14.4831],[-84.9702,14.477],[-84.9686,14.4691],[-84.9704,14.4594],[-84.9816,14.4407],[-84.983,14.4343],[-84.982,14.4125],[-84.9831,14.4075],[-84.9909,14.3939],[-84.9928,14.3874],[-84.9924,14.3807],[-84.9896,14.3734],[-84.9708,14.3496],[-84.954,14.3344],[-84.9397,14.3175],[-84.9345,14.3143],[-84.9274,14.3124],[-84.838,14.3068],[-84.8355,14.2929],[-84.8371,14.2687],[-84.8589,14.1543],[-84.8621,14.1078],[-84.8528,14.0713],[-84.8548,14.0595],[-84.864,14.0403],[-84.9248,13.9407],[-85.0518,13.7426],[-85.0568,13.7375],[-85.0613,13.7355],[-85.1569,13.7785],[-85.1606,13.7775],[-85.2826,13.7033],[-85.2847,13.7028],[-85.3651,13.6919],[-85.3701,13.6865],[-85.3749,13.6774],[-85.3838,13.6534],[-85.3916,13.6414],[-85.3987,13.6333],[-85.4091,13.6267],[-85.4109,13.6206],[-85.41,13.6116],[-85.4019,13.5946],[-85.3952,13.5834],[-85.3904,13.5701],[-85.3888,13.5605],[-85.3993,13.5295],[-85.3998,13.5114],[-85.3994,13.5065],[-85.4006,13.4972],[-85.4041,13.4893],[-85.415,13.4804],[-85.4694,13.4462],[-85.5004,13.4192],[-85.5061,13.4061],[-85.5064,13.3706],[-85.5621,13.3351],[-85.5815,13.3278],[-85.605,13.3277],[-85.6259,13.3139],[-85.6399,13.2982],[-85.6546,13.2751],[-85.6721,13.2459],[-85.745,13.1622],[-85.7825,13.1303],[-85.7934,13.124],[-85.8397,13.085],[-85.8965,13.0326],[-85.9183,13.0175],[-85.9284,13.0142],[-85.9411,13.0125],[-85.9774,13.0139],[-85.9894,13.0121],[-85.9944,13.0096],[-86.0075,12.9939],[-86.0417,13.0196],[-86.0572,13.035],[-86.0717,13.0434],[-86.0807,13.0472],[-86.0945,13.0468],[-86.0995,13.047],[-86.1152,13.0657],[-86.1591,13.091],[-86.2344,13.1646],[-86.2414,13.1751],[-86.2479,13.1891],[-86.2362,13.2081],[-86.2331,13.2248],[-86.2357,13.2373],[-86.2212,13.2788],[-86.2304,13.3217],[-86.2301,13.343],[-86.2273,13.3598],[-86.2215,13.3753],[-86.2129,13.3903],[-86.1762,13.4288],[-86.16,13.4427],[-86.144,13.4455],[-86.13,13.4461],[-86.1177,13.441],[-86.1081,13.4517],[-86.0692,13.482],[-86.0597,13.4933],[-86.05,13.5048],[-86.0389,13.5091],[-86.0283,13.4963],[-86.0185,13.5007],[-85.9662,13.5051],[-85.949,13.5039],[-85.9378,13.4976],[-85.9294,13.4901],[-85.9201,13.4852],[-85.9067,13.4869],[-85.8997,13.4919],[-85.8828,13.5152],[-85.8605,13.5313],[-85.8422,13.5402],[-85.8313,13.5534],[-85.833,13.6129],[-85.8299,13.6377],[-85.8208,13.6608],[-85.7918,13.7092],[-85.7875,13.7214],[-85.7846,13.7346],[-85.7831,13.7819],[-85.777,13.7982],[-85.7671,13.8096],[-85.7431,13.824],[-85.7425,13.8237],[-85.7403,13.8256],[-85.7334,13.8318],[-85.7251,13.8479],[-85.723,13.8634],[-85.7287,13.875],[-85.7437,13.8796],[-85.7474,13.8883],[-85.7433,13.9076],[-85.7334,13.9376],[-85.7322,13.9595],[-85.7273,13.965],[-85.717,13.9627],[-85.6992,13.9615],[-85.6865,13.9673],[-85.6662,13.9845],[-85.6577,13.982],[-85.6515,13.982],[-85.652,13.9867],[-85.6504,13.9879],[-85.6477,13.9878],[-85.6446,13.9888],[-85.6479,13.9993],[-85.6128,14.0097],[-85.6031,14.0195],[-85.5936,14.0335],[-85.5717,14.0405],[-85.5631,14.042],[-85.5466,14.0449],[-85.528,14.0509],[-85.5186,14.0646],[-85.5164,14.0805],[-85.5106,14.0938],[-85.4747,14.1034],[-85.4576,14.113],[-85.4317,14.1328],[-85.4202,14.1469],[-85.4091,14.1662],[-85.4009,14.1852],[-85.3936,14.2108],[-85.384,14.2264],[-85.3725,14.2411],[-85.3629,14.2501],[-85.3585,14.2509],[-85.3478,14.2492],[-85.3436,14.2501],[-85.3408,14.2534],[-85.338,14.2607],[-85.3309,14.269],[-85.3268,14.2757],[-85.3214,14.2813],[-85.312,14.2837],[-85.2882,14.2951],[-85.2778,14.2973],[-85.24,14.2973],[-85.2152,14.3016],[-85.1902,14.3096],[-85.1696,14.3218],[-85.158,14.3383],[-85.159,14.3611],[-85.1719,14.381],[-85.1897,14.3968],[-85.2058,14.4072],[-85.1785,14.4276],[-85.1774,14.434],[-85.1797,14.4492],[-85.1785,14.4556],[-85.1554,14.4795],[-85.1518,14.486],[-85.1498,14.5365],[-85.1455,14.5643],[-85.1375,14.5785],[-85.1193,14.574],[-85.1034,14.5569],[-85.0864,14.5445]]]}},{"type":"Feature","properties":{"id":"NIC-658","name":"León","nameBn":"লেওন","type":"Department","bounds":[-87.1736,12.0005,-86.2639,13.1215],"center":[-86.7187,12.4168]},"geometry":{"type":"Polygon","coordinates":[[[-86.6707,12.0005],[-86.6898,12.0241],[-86.7276,12.0883],[-86.7627,12.1823],[-86.7726,12.1974],[-86.7975,12.2185],[-87.0022,12.3414],[-87.015,12.3568],[-87.0714,12.3887],[-87.102,12.421],[-87.171,12.4514],[-87.1736,12.4745],[-87.1621,12.4596],[-87.1425,12.4468],[-87.1196,12.4377],[-87.0978,12.4335],[-87.1208,12.4584],[-87.1207,12.4584],[-87.0987,12.4713],[-87.0494,12.4767],[-87.0322,12.4842],[-87.0153,12.4939],[-87.0058,12.4997],[-86.9539,12.5524],[-86.9338,12.5844],[-86.9261,12.6041],[-86.9222,12.6106],[-86.9028,12.6287],[-86.8773,12.6556],[-86.8528,12.6816],[-86.8333,12.6904],[-86.8141,12.713],[-86.8002,12.7394],[-86.793,12.7462],[-86.782,12.7521],[-86.7099,12.7613],[-86.6957,12.7649],[-86.6879,12.7679],[-86.67,12.7788],[-86.6576,12.807],[-86.6546,12.8382],[-86.6639,12.9592],[-86.6763,12.987],[-86.6898,13.0086],[-86.711,13.0563],[-86.7207,13.0902],[-86.7034,13.097],[-86.6938,13.0978],[-86.6805,13.0976],[-86.6647,13.0923],[-86.6452,13.083],[-86.6334,13.0839],[-86.6131,13.0883],[-86.5471,13.1099],[-86.4912,13.1215],[-86.4791,13.1182],[-86.4715,13.1145],[-86.4534,13.0967],[-86.4271,13.054],[-86.4169,13.0404],[-86.4117,13.0318],[-86.4047,13.0069],[-86.4068,12.9755],[-86.4289,12.9373],[-86.4302,12.9257],[-86.4299,12.9173],[-86.42,12.8998],[-86.3863,12.8833],[-86.2639,12.8485],[-86.2668,12.8237],[-86.2787,12.7246],[-86.2888,12.6365],[-86.3283,12.6126],[-86.3426,12.5993],[-86.351,12.5881],[-86.3537,12.5824],[-86.3549,12.5773],[-86.3546,12.5738],[-86.3563,12.5635],[-86.3563,12.5599],[-86.3558,12.557],[-86.3561,12.5524],[-86.3574,12.5461],[-86.3635,12.5285],[-86.3644,12.5238],[-86.3639,12.521],[-86.3621,12.5159],[-86.3611,12.5135],[-86.3515,12.5001],[-86.3512,12.4998],[-86.3453,12.4947],[-86.3441,12.4928],[-86.3433,12.4903],[-86.3431,12.4839],[-86.3426,12.4807],[-86.3414,12.4769],[-86.3428,12.4738],[-86.3468,12.4691],[-86.4441,12.3749],[-86.5109,12.3089],[-86.5248,12.2897],[-86.5264,12.2742],[-86.5265,12.2033],[-86.5252,12.1965],[-86.5225,12.1906],[-86.5184,12.1872],[-86.5133,12.1843],[-86.5069,12.1769],[-86.5055,12.1589],[-86.5183,12.1311],[-86.5377,12.109],[-86.5755,12.0808],[-86.5811,12.078],[-86.584,12.0779],[-86.5982,12.0808],[-86.6125,12.0861],[-86.6143,12.0864],[-86.6169,12.0865],[-86.6196,12.0862],[-86.6224,12.0855],[-86.6373,12.0802],[-86.6444,12.0787],[-86.648,12.0771],[-86.6508,12.0753],[-86.6522,12.0733],[-86.6532,12.0709],[-86.6533,12.068],[-86.6528,12.0651],[-86.6513,12.0597],[-86.6443,12.0459],[-86.6396,12.0403],[-86.6384,12.0382],[-86.6374,12.0346],[-86.6375,12.0322],[-86.638,12.0296],[-86.6423,12.0221],[-86.6458,12.0182],[-86.6706,12.0006],[-86.6707,12.0005]]]}},{"type":"Feature","properties":{"id":"NIC-665","name":"Madriz","nameBn":"মাদ্রিজ বিভাগ","type":"Department","bounds":[-86.7641,13.2004,-86.0597,13.6601],"center":[-86.412,13.4963]},"geometry":{"type":"Polygon","coordinates":[[[-86.7327,13.2685],[-86.7255,13.2733],[-86.7118,13.2857],[-86.704,13.2988],[-86.7019,13.3142],[-86.7078,13.3428],[-86.7099,13.3489],[-86.7172,13.3616],[-86.7236,13.3673],[-86.7304,13.3689],[-86.7364,13.372],[-86.7402,13.3819],[-86.7387,13.3962],[-86.7259,13.4238],[-86.7243,13.4394],[-86.7566,13.5594],[-86.7571,13.5764],[-86.7509,13.6084],[-86.7516,13.6244],[-86.7554,13.6309],[-86.7641,13.6373],[-86.7558,13.6434],[-86.7481,13.6536],[-86.745,13.6568],[-86.7405,13.6601],[-86.7183,13.6599],[-86.6483,13.6472],[-86.6285,13.6185],[-86.6241,13.61],[-86.6153,13.6006],[-86.6043,13.5929],[-86.5874,13.5867],[-86.576,13.5801],[-86.5635,13.5695],[-86.5478,13.577],[-86.5378,13.5865],[-86.5152,13.5922],[-86.5053,13.5934],[-86.4335,13.5922],[-86.3776,13.5747],[-86.3456,13.5751],[-86.304,13.5802],[-86.2923,13.5787],[-86.2768,13.5742],[-86.2574,13.5625],[-86.2269,13.5493],[-86.2179,13.5604],[-86.2119,13.5887],[-86.2087,13.5952],[-86.2059,13.5997],[-86.1839,13.6082],[-86.1644,13.6145],[-86.1299,13.587],[-86.1217,13.579],[-86.112,13.5672],[-86.0899,13.5288],[-86.0597,13.4933],[-86.0692,13.482],[-86.1081,13.4517],[-86.1177,13.441],[-86.13,13.4461],[-86.144,13.4455],[-86.16,13.4427],[-86.1762,13.4288],[-86.2129,13.3903],[-86.221,13.4038],[-86.2309,13.4257],[-86.2349,13.4322],[-86.2537,13.4381],[-86.3094,13.4355],[-86.3861,13.4113],[-86.4284,13.4044],[-86.4712,13.4242],[-86.4858,13.4312],[-86.4963,13.4345],[-86.5228,13.4304],[-86.5628,13.3968],[-86.6039,13.3264],[-86.6123,13.3088],[-86.631,13.283],[-86.7149,13.2004],[-86.7059,13.2288],[-86.7048,13.2312],[-86.7032,13.2366],[-86.7027,13.2427],[-86.7039,13.2501],[-86.7068,13.2585],[-86.7126,13.2629],[-86.7316,13.2668],[-86.7327,13.2685]]]}},{"type":"Feature","properties":{"id":"NIC-659","name":"Managua","nameBn":"মানাগুয়া ডিপার্টমেন্ট","type":"Department","bounds":[-86.6707,11.7668,-85.8281,12.6365],"center":[-86.2493,12.3035]},"geometry":{"type":"Polygon","coordinates":[[[-86.5023,11.7668],[-86.5156,11.7831],[-86.5424,11.8424],[-86.5532,11.8513],[-86.5633,11.8566],[-86.5896,11.8828],[-86.6052,11.9047],[-86.6222,11.9361],[-86.6255,11.951],[-86.6304,11.9649],[-86.6419,11.9765],[-86.6665,11.9953],[-86.6707,12.0005],[-86.6706,12.0006],[-86.6458,12.0182],[-86.6423,12.0221],[-86.638,12.0296],[-86.6375,12.0322],[-86.6374,12.0346],[-86.6384,12.0382],[-86.6396,12.0403],[-86.6443,12.0459],[-86.6513,12.0597],[-86.6528,12.0651],[-86.6533,12.068],[-86.6532,12.0709],[-86.6522,12.0733],[-86.6508,12.0753],[-86.648,12.0771],[-86.6444,12.0787],[-86.6373,12.0802],[-86.6224,12.0855],[-86.6196,12.0862],[-86.6169,12.0865],[-86.6143,12.0864],[-86.6125,12.0861],[-86.5982,12.0808],[-86.584,12.0779],[-86.5811,12.078],[-86.5755,12.0808],[-86.5377,12.109],[-86.5183,12.1311],[-86.5055,12.1589],[-86.5069,12.1769],[-86.5133,12.1843],[-86.5184,12.1872],[-86.5225,12.1906],[-86.5252,12.1965],[-86.5265,12.2033],[-86.5264,12.2742],[-86.5248,12.2897],[-86.5109,12.3089],[-86.4441,12.3749],[-86.3468,12.4691],[-86.3428,12.4738],[-86.3414,12.4769],[-86.3426,12.4807],[-86.3431,12.4839],[-86.3433,12.4903],[-86.3441,12.4928],[-86.3453,12.4947],[-86.3512,12.4998],[-86.3515,12.5001],[-86.3611,12.5135],[-86.3621,12.5159],[-86.3639,12.521],[-86.3644,12.5238],[-86.3635,12.5285],[-86.3574,12.5461],[-86.3561,12.5524],[-86.3558,12.557],[-86.3563,12.5599],[-86.3563,12.5635],[-86.3546,12.5738],[-86.3549,12.5773],[-86.3537,12.5824],[-86.351,12.5881],[-86.3426,12.5993],[-86.3283,12.6126],[-86.2888,12.6365],[-86.1189,12.5996],[-86.1011,12.5941],[-86.0862,12.5807],[-86.0709,12.5638],[-86.06,12.555],[-86.0503,12.5486],[-85.9885,12.5253],[-85.9723,12.5221],[-85.9784,12.5046],[-85.9744,12.4709],[-85.9696,12.4567],[-85.9628,12.4453],[-85.9501,12.4286],[-85.925,12.4016],[-85.9214,12.3961],[-85.9203,12.3899],[-85.9223,12.3703],[-85.9225,12.3536],[-85.9208,12.3464],[-85.9176,12.3411],[-85.8302,12.2601],[-85.8281,12.2568],[-85.8298,12.251],[-85.8463,12.2263],[-85.8515,12.1988],[-85.8693,12.2061],[-85.8768,12.2062],[-85.8851,12.2032],[-85.9165,12.1808],[-86.0005,12.1438],[-86.0184,12.1483],[-86.0238,12.1512],[-86.0256,12.1519],[-86.0287,12.1523],[-86.0457,12.15],[-86.08,12.1363],[-86.109,12.1313],[-86.1271,12.118],[-86.1879,12.0591],[-86.1847,12.0463],[-86.1702,12.0317],[-86.1648,12.0242],[-86.162,12.0183],[-86.1634,11.996],[-86.1745,11.9782],[-86.1802,11.9717],[-86.1864,11.966],[-86.1943,11.9618],[-86.2037,11.9592],[-86.2116,11.9585],[-86.2234,11.9616],[-86.2304,11.9648],[-86.2578,11.9855],[-86.2814,11.957],[-86.2933,11.9392],[-86.3559,11.8892],[-86.3752,11.8582],[-86.3825,11.8512],[-86.4096,11.8314],[-86.4199,11.8164],[-86.4324,11.8046],[-86.4363,11.8027],[-86.4418,11.8007],[-86.4532,11.7979],[-86.4593,11.7971],[-86.4672,11.7968],[-86.4772,11.7908],[-86.5023,11.7669],[-86.5023,11.7668]]]}},{"type":"Feature","properties":{"id":"NIC-660","name":"Masaya","nameBn":"মাসায়া বিভাগ","type":"Department","bounds":[-86.2814,11.8562,-85.9641,12.1523],"center":[-86.1227,11.9959]},"geometry":{"type":"Polygon","coordinates":[[[-86.0005,12.1438],[-85.9673,12.1067],[-85.9641,12.0914],[-86.0045,12.0041],[-86.0404,11.9259],[-86.0438,11.9184],[-86.0533,11.8977],[-86.0725,11.8562],[-86.0811,11.8585],[-86.1343,11.874],[-86.1366,11.8765],[-86.1497,11.8944],[-86.1791,11.908],[-86.2705,11.9442],[-86.2814,11.957],[-86.2578,11.9855],[-86.2304,11.9648],[-86.2234,11.9616],[-86.2116,11.9585],[-86.2037,11.9592],[-86.1943,11.9618],[-86.1864,11.966],[-86.1802,11.9717],[-86.1745,11.9782],[-86.1634,11.996],[-86.162,12.0183],[-86.1648,12.0242],[-86.1702,12.0317],[-86.1847,12.0463],[-86.1879,12.0591],[-86.1271,12.118],[-86.109,12.1313],[-86.08,12.1363],[-86.0457,12.15],[-86.0287,12.1523],[-86.0256,12.1519],[-86.0238,12.1512],[-86.0184,12.1483],[-86.0005,12.1438]]]}},{"type":"Feature","properties":{"id":"NIC-666","name":"Matagalpa","nameBn":"মাতাগাল্পা বিভাগ","type":"Department","bounds":[-86.2888,12.5221,-84.6965,13.3815],"center":[-85.4926,13.0242]},"geometry":{"type":"Polygon","coordinates":[[[-85.2959,12.6527],[-85.2904,12.6779],[-85.2891,12.6806],[-85.2963,12.6861],[-85.3122,12.687],[-85.3311,12.697],[-85.3641,12.7082],[-85.371,12.7117],[-85.3745,12.7213],[-85.3828,12.7312],[-85.3929,12.739],[-85.4017,12.7421],[-85.4076,12.7433],[-85.4152,12.7377],[-85.4167,12.7357],[-85.4183,12.7317],[-85.4206,12.7272],[-85.4238,12.7233],[-85.4257,12.7215],[-85.43,12.7188],[-85.4346,12.7167],[-85.4424,12.7144],[-85.445,12.7131],[-85.4467,12.7114],[-85.4477,12.709],[-85.4534,12.7072],[-85.4635,12.7061],[-85.5275,12.7095],[-85.5308,12.7089],[-85.5334,12.7078],[-85.5353,12.7061],[-85.5369,12.7042],[-85.5499,12.6788],[-85.5529,12.6746],[-85.5568,12.6731],[-85.5627,12.6723],[-85.582,12.6721],[-85.5867,12.6714],[-85.5957,12.6667],[-85.616,12.6629],[-85.6279,12.6607],[-85.6401,12.6508],[-85.6441,12.6489],[-85.647,12.649],[-85.6529,12.6521],[-85.6687,12.655],[-85.6819,12.6585],[-85.8557,12.623],[-85.8719,12.6149],[-85.8895,12.5788],[-85.9374,12.5526],[-85.9427,12.5486],[-85.9723,12.5221],[-85.9885,12.5253],[-86.0503,12.5486],[-86.06,12.555],[-86.0709,12.5638],[-86.0862,12.5807],[-86.1011,12.5941],[-86.1189,12.5996],[-86.2888,12.6365],[-86.2787,12.7246],[-86.2668,12.8237],[-86.2639,12.8485],[-86.2583,12.8845],[-86.2424,12.9168],[-86.2389,12.921],[-86.2312,12.9283],[-86.2089,12.9406],[-86.1972,12.9446],[-86.1716,12.9501],[-86.1589,12.9545],[-86.1506,12.9602],[-86.1461,12.9655],[-86.1437,12.971],[-86.1372,12.9967],[-86.0995,13.047],[-86.0945,13.0468],[-86.0807,13.0472],[-86.0717,13.0434],[-86.0572,13.035],[-86.0417,13.0196],[-86.0075,12.9939],[-85.9944,13.0096],[-85.9894,13.0121],[-85.9774,13.0139],[-85.9411,13.0125],[-85.9284,13.0142],[-85.9183,13.0175],[-85.8965,13.0326],[-85.8397,13.085],[-85.7934,13.124],[-85.7825,13.1303],[-85.745,13.1622],[-85.6721,13.2459],[-85.6546,13.2751],[-85.6399,13.2982],[-85.6259,13.3139],[-85.605,13.3277],[-85.5815,13.3278],[-85.5621,13.3351],[-85.5064,13.3706],[-85.4854,13.3251],[-85.4344,13.258],[-85.4146,13.239],[-85.4011,13.2337],[-85.3964,13.2311],[-85.3908,13.2268],[-85.3622,13.201],[-85.3599,13.1995],[-85.3574,13.1985],[-85.3545,13.1981],[-85.3514,13.1979],[-85.3453,13.1987],[-85.3398,13.2002],[-85.3365,13.2001],[-85.3325,13.1989],[-85.3249,13.1939],[-85.3108,13.1871],[-85.3074,13.1847],[-85.3054,13.1814],[-85.3042,13.1725],[-85.3023,13.1705],[-85.2904,13.1691],[-85.2833,13.1592],[-85.2524,13.1466],[-85.2418,13.1452],[-85.2157,13.1514],[-85.1871,13.1644],[-85.1773,13.1717],[-85.1687,13.1815],[-85.1563,13.2067],[-85.1445,13.2414],[-85.1363,13.2594],[-85.1234,13.2775],[-85.098,13.2922],[-85.0646,13.2951],[-84.9982,13.2937],[-84.9828,13.2952],[-84.9738,13.2988],[-84.8831,13.3815],[-84.8789,13.3804],[-84.8755,13.3768],[-84.8696,13.3666],[-84.7698,13.2427],[-84.7514,13.2157],[-84.7945,13.1592],[-84.7977,13.154],[-84.8009,13.1472],[-84.7988,13.1463],[-84.7967,13.1451],[-84.7894,13.1384],[-84.7871,13.1371],[-84.7847,13.1361],[-84.7819,13.1354],[-84.7794,13.1343],[-84.7772,13.133],[-84.7732,13.1299],[-84.7655,13.1201],[-84.7643,13.1178],[-84.7581,13.0984],[-84.7435,13.069],[-84.7407,13.0651],[-84.7374,13.0615],[-84.7354,13.0599],[-84.7331,13.0587],[-84.7304,13.0578],[-84.7273,13.0573],[-84.724,13.0573],[-84.721,13.0577],[-84.7182,13.0584],[-84.7071,13.0649],[-84.7046,13.0659],[-84.7018,13.0665],[-84.6992,13.0667],[-84.6965,13.0664],[-84.6971,13.0657],[-84.7009,13.0633],[-84.7076,13.0581],[-84.7082,13.0576],[-84.7293,13.0348],[-84.7335,13.0264],[-84.7398,12.993],[-84.741,12.9786],[-84.742,12.9753],[-84.7462,12.9653],[-84.7482,12.9503],[-84.751,12.9494],[-84.7553,12.9503],[-84.7608,12.9482],[-84.7715,12.9401],[-84.7768,12.9407],[-84.7828,12.945],[-84.7956,12.9482],[-84.8094,12.9476],[-84.8281,12.9426],[-84.84,12.9413],[-84.8547,12.9315],[-84.8757,12.9118],[-84.8984,12.8966],[-84.9185,12.9004],[-84.9257,12.8839],[-84.9359,12.8687],[-84.942,12.8632],[-84.9544,12.8553],[-84.9582,12.8507],[-84.9713,12.8547],[-85.0306,12.8648],[-85.0406,12.8637],[-85.068,12.8557],[-85.082,12.8531],[-85.094,12.8527],[-85.105,12.8539],[-85.1227,12.8592],[-85.1313,12.8608],[-85.1413,12.8594],[-85.1448,12.8546],[-85.1446,12.8388],[-85.148,12.8292],[-85.1594,12.8192],[-85.1691,12.816],[-85.181,12.8163],[-85.1921,12.8179],[-85.2068,12.8167],[-85.2156,12.8123],[-85.2223,12.8058],[-85.2262,12.7979],[-85.2279,12.7881],[-85.2268,12.7787],[-85.2171,12.7596],[-85.2128,12.7484],[-85.2051,12.7145],[-85.1792,12.6602],[-85.1784,12.6494],[-85.1795,12.6398],[-85.1821,12.6317],[-85.186,12.6254],[-85.1928,12.6254],[-85.1977,12.6297],[-85.207,12.6359],[-85.2161,12.6393],[-85.2201,12.6357],[-85.223,12.6258],[-85.2295,12.6275],[-85.2608,12.6618],[-85.2721,12.6635],[-85.2891,12.6527],[-85.2959,12.6527]]]}},{"type":"Feature","properties":{"id":"NIC-667","name":"Nueva Segovia","nameBn":"নুয়েবা সেগোবিয়া বিভাগ","type":"Department","bounds":[-86.7741,13.4852,-85.7431,14.0552],"center":[-86.2589,13.7183]},"geometry":{"type":"Polygon","coordinates":[[[-86.0202,14.0552],[-86.0205,14.0441],[-86.0313,14.0226],[-86.0284,13.9961],[-85.9578,13.9461],[-85.9361,13.9182],[-85.9294,13.9121],[-85.9155,13.9074],[-85.9063,13.9094],[-85.8972,13.913],[-85.8836,13.9139],[-85.8616,13.9044],[-85.8499,13.8871],[-85.8401,13.8666],[-85.8242,13.8477],[-85.802,13.8402],[-85.7787,13.8409],[-85.7583,13.8393],[-85.745,13.8247],[-85.7431,13.824],[-85.7671,13.8096],[-85.777,13.7982],[-85.7831,13.7819],[-85.7846,13.7346],[-85.7875,13.7214],[-85.7918,13.7092],[-85.8208,13.6608],[-85.8299,13.6377],[-85.833,13.6129],[-85.8313,13.5534],[-85.8422,13.5402],[-85.8605,13.5313],[-85.8828,13.5152],[-85.8997,13.4919],[-85.9067,13.4869],[-85.9201,13.4852],[-85.9294,13.4901],[-85.9378,13.4976],[-85.949,13.5039],[-85.9662,13.5051],[-86.0185,13.5007],[-86.0283,13.4963],[-86.0389,13.5091],[-86.05,13.5048],[-86.0597,13.4933],[-86.0899,13.5288],[-86.112,13.5672],[-86.1217,13.579],[-86.1299,13.587],[-86.1644,13.6145],[-86.1839,13.6082],[-86.2059,13.5997],[-86.2087,13.5952],[-86.2119,13.5887],[-86.2179,13.5604],[-86.2269,13.5493],[-86.2574,13.5625],[-86.2768,13.5742],[-86.2923,13.5787],[-86.304,13.5802],[-86.3456,13.5751],[-86.3776,13.5747],[-86.4335,13.5922],[-86.5053,13.5934],[-86.5152,13.5922],[-86.5378,13.5865],[-86.5478,13.577],[-86.5635,13.5695],[-86.576,13.5801],[-86.5874,13.5867],[-86.6043,13.5929],[-86.6153,13.6006],[-86.6241,13.61],[-86.6285,13.6185],[-86.6483,13.6472],[-86.7183,13.6599],[-86.7405,13.6601],[-86.745,13.6568],[-86.7481,13.6536],[-86.7558,13.6434],[-86.7641,13.6373],[-86.7682,13.6404],[-86.7721,13.6455],[-86.7741,13.6546],[-86.7712,13.7079],[-86.7702,13.7252],[-86.7679,13.7392],[-86.7662,13.7453],[-86.7614,13.7493],[-86.7499,13.7571],[-86.7272,13.7683],[-86.7063,13.77],[-86.6627,13.7647],[-86.5811,13.7799],[-86.5417,13.7821],[-86.5085,13.7644],[-86.4908,13.7595],[-86.4763,13.764],[-86.4629,13.7709],[-86.4482,13.773],[-86.4325,13.7571],[-86.4265,13.753],[-86.4171,13.75],[-86.4101,13.749],[-86.3585,13.7523],[-86.3401,13.7567],[-86.3252,13.7638],[-86.3136,13.7766],[-86.3078,13.7917],[-86.2999,13.8213],[-86.2841,13.8457],[-86.2186,13.9144],[-86.1841,13.9669],[-86.1736,13.9737],[-86.1618,13.9781],[-86.1497,13.9843],[-86.138,13.9962],[-86.1308,14.0089],[-86.1269,14.0186],[-86.1217,14.0272],[-86.1105,14.0371],[-86.0967,14.0441],[-86.0202,14.0552]]]}},{"type":"Feature","properties":{"id":"NIC-4800","name":"Rio San Juan","nameBn":"রিও সান হুয়ান বিভাগ","type":"Department","bounds":[-85.341,10.7135,-83.6601,11.8705],"center":[-84.5184,11.1691]},"geometry":{"type":"Polygon","coordinates":[[[-84.1916,10.7817],[-84.1969,10.7885],[-84.2189,10.806],[-84.2212,10.8094],[-84.2252,10.8137],[-84.2271,10.8193],[-84.2227,10.827],[-84.2185,10.8298],[-84.2046,10.837],[-84.2084,10.861],[-84.2257,10.8753],[-84.2447,10.8849],[-84.2537,10.8947],[-84.2643,10.9018],[-84.3107,10.9194],[-84.3213,10.9292],[-84.3241,10.9362],[-84.3374,10.9527],[-84.3418,10.9599],[-84.3439,10.9723],[-84.3437,10.9824],[-84.346,10.9899],[-84.3555,10.9946],[-84.364,10.9896],[-84.4178,10.955],[-84.4272,10.9511],[-84.4382,10.9522],[-84.4489,10.9563],[-84.4578,10.9613],[-84.4664,10.9685],[-84.4891,10.9964],[-84.4933,10.9994],[-84.4982,11.002],[-84.5033,11.004],[-84.5087,11.0055],[-84.5586,11.0272],[-84.5817,11.0345],[-84.6032,11.0333],[-84.6207,11.0358],[-84.6587,11.0627],[-84.6765,11.0704],[-84.7078,11.063],[-84.7818,11.0149],[-84.885,10.9477],[-84.9418,10.9801],[-85.0273,11.0086],[-85.1617,11.0575],[-85.2106,11.0779],[-85.3002,11.1105],[-85.341,11.1471],[-85.1015,11.6315],[-85.0833,11.6622],[-85.0809,11.6651],[-85.0767,11.6689],[-85.0612,11.6765],[-85.0412,11.6903],[-85.032,11.6953],[-85.0257,11.6978],[-85.0211,11.696],[-85.0186,11.6954],[-85.0137,11.6959],[-84.995,11.7028],[-84.989,11.7063],[-84.9857,11.7086],[-84.9824,11.7142],[-84.9778,11.7201],[-84.9708,11.7275],[-84.9694,11.7293],[-84.9685,11.7315],[-84.9669,11.7338],[-84.9627,11.7384],[-84.9608,11.7413],[-84.9598,11.7454],[-84.9598,11.7465],[-84.957,11.753],[-84.9421,11.7756],[-84.8994,11.7848],[-84.8743,11.8011],[-84.8082,11.8608],[-84.805,11.8656],[-84.8002,11.8671],[-84.795,11.8678],[-84.7213,11.8669],[-84.7009,11.8705],[-84.6965,11.8705],[-84.688,11.8682],[-84.684,11.8679],[-84.6689,11.8693],[-84.6655,11.8689],[-84.6618,11.868],[-84.6569,11.8661],[-84.6457,11.8637],[-84.6074,11.8625],[-84.5872,11.7936],[-84.5722,11.7666],[-84.5639,11.7598],[-84.5576,11.7533],[-84.5552,11.7469],[-84.5564,11.7349],[-84.5551,11.7088],[-84.5443,11.6835],[-84.5343,11.6521],[-84.5348,11.6441],[-84.5365,11.633],[-84.5464,11.6101],[-84.5605,11.562],[-84.5633,11.5427],[-84.5636,11.5297],[-84.5563,11.491],[-84.5526,11.4524],[-84.4861,11.4282],[-84.4572,11.4109],[-84.3775,11.362],[-84.362,11.3468],[-84.3561,11.3331],[-84.3554,11.3207],[-84.3533,11.3079],[-84.3458,11.2927],[-84.3368,11.2835],[-84.3276,11.2769],[-84.2805,11.2531],[-84.2411,11.2251],[-84.2127,11.197],[-84.204,11.186],[-84.1836,11.1528],[-84.1786,11.147],[-84.1744,11.1444],[-84.1714,11.1445],[-84.1679,11.1437],[-84.1641,11.142],[-84.1578,11.1382],[-84.1549,11.1372],[-84.1493,11.1358],[-84.1417,11.133],[-84.1389,11.1325],[-84.1366,11.1323],[-84.1263,11.1337],[-84.12,11.1337],[-84.1172,11.1335],[-84.1108,11.132],[-84.0944,11.1255],[-84.082,11.1214],[-84.0502,11.1254],[-84.0438,11.1248],[-84.0406,11.123],[-84.0414,11.1175],[-84.0415,11.1146],[-84.041,11.1119],[-84.0397,11.1098],[-84.0287,11.0986],[-84.0189,11.0906],[-84.0136,11.088],[-84.0096,11.0875],[-84.001,11.092],[-83.9947,11.0934],[-83.9924,11.0942],[-83.988,11.0965],[-83.986,11.098],[-83.9809,11.1008],[-83.9773,11.1022],[-83.9699,11.1035],[-83.9638,11.1025],[-83.9542,11.0989],[-83.9496,11.0983],[-83.9458,11.0984],[-83.9436,11.0996],[-83.941,11.1005],[-83.9387,11.1016],[-83.9365,11.103],[-83.9286,11.1061],[-83.9191,11.1074],[-83.9142,11.1086],[-83.9002,11.1151],[-83.8973,11.1146],[-83.8956,11.1127],[-83.8954,11.1096],[-83.897,11.0911],[-83.8968,11.0879],[-83.8956,11.0824],[-83.8944,11.08],[-83.8915,11.076],[-83.8882,11.0725],[-83.8866,11.0706],[-83.8856,11.0681],[-83.8851,11.0652],[-83.885,11.0586],[-83.8842,11.0547],[-83.8827,11.0508],[-83.8783,11.0456],[-83.8749,11.0437],[-83.872,11.0437],[-83.8696,11.0447],[-83.8675,11.046],[-83.8651,11.0472],[-83.858,11.0474],[-83.8467,11.0465],[-83.8073,11.0389],[-83.7999,11.0365],[-83.7976,11.035],[-83.7941,11.0317],[-83.7759,11.0083],[-83.7614,10.9847],[-83.7355,10.9572],[-83.7183,10.944],[-83.7103,10.9227],[-83.6927,10.9259],[-83.6965,10.9366],[-83.6965,10.9366],[-83.6888,10.9346],[-83.681,10.9171],[-83.6788,10.9162],[-83.6769,10.9103],[-83.6798,10.897],[-83.6699,10.8917],[-83.6693,10.8698],[-83.6601,10.8342],[-83.663,10.807],[-83.6981,10.7892],[-83.7638,10.7737],[-83.769,10.7725],[-83.8353,10.7476],[-83.8558,10.724],[-83.8595,10.7218],[-83.8869,10.7271],[-83.8936,10.7249],[-83.9075,10.7154],[-83.9173,10.7135],[-83.9266,10.7149],[-83.9333,10.7181],[-83.9936,10.765],[-83.9982,10.7821],[-84.0092,10.7894],[-84.0227,10.7872],[-84.0346,10.7755],[-84.0516,10.7796],[-84.0764,10.7638],[-84.0886,10.7755],[-84.0954,10.7755],[-84.1069,10.7669],[-84.1184,10.7712],[-84.137,10.7892],[-84.149,10.7872],[-84.1577,10.7884],[-84.1648,10.7894],[-84.1804,10.7898],[-84.1916,10.7817]]]}},{"type":"Feature","properties":{"id":"NIC-24","name":"Rivas","nameBn":"রিভাস","type":"Department","bounds":[-86.1752,10.9394,-84.885,11.6821],"center":[-85.7633,11.3524]},"geometry":{"type":"Polygon","coordinates":[[[-85.2365,11.0531],[-85.2724,11.0662],[-85.4074,11.1154],[-85.5086,11.1524],[-85.5409,11.1703],[-85.5692,11.1954],[-85.5978,11.2099],[-85.6312,11.1962],[-85.6593,11.1588],[-85.6776,11.1196],[-85.7017,11.0809],[-85.7024,11.0812],[-85.7523,11.1017],[-85.7717,11.1047],[-85.7858,11.1122],[-85.7937,11.13],[-85.8031,11.1661],[-85.8213,11.1928],[-85.928,11.3107],[-85.9368,11.317],[-85.9415,11.3191],[-85.9568,11.3298],[-85.9601,11.334],[-85.9949,11.3437],[-86.0104,11.358],[-86.0439,11.3981],[-86.0706,11.4117],[-86.1047,11.4473],[-86.1483,11.4717],[-86.1628,11.4845],[-86.1667,11.4926],[-86.1752,11.5195],[-86.1751,11.5196],[-86.1463,11.5718],[-86.1397,11.584],[-86.1366,11.5879],[-86.1017,11.6108],[-86.0781,11.6047],[-86.0706,11.6058],[-86.0671,11.6093],[-86.0393,11.6232],[-86.0356,11.6258],[-86.0247,11.6433],[-86.0091,11.6762],[-86.0062,11.6791],[-86.0034,11.6808],[-86.0009,11.681],[-85.9992,11.681],[-85.9942,11.6798],[-85.9898,11.6771],[-85.9859,11.673],[-85.9761,11.6631],[-85.9713,11.6615],[-85.927,11.6727],[-85.8944,11.6821],[-85.5229,11.6805],[-85.1015,11.6315],[-85.341,11.1471],[-85.3002,11.1105],[-85.2106,11.0779],[-85.1617,11.0575],[-85.0273,11.0086],[-84.9418,10.9801],[-84.885,10.9477],[-84.9084,10.9394],[-84.9314,10.9419],[-85.0928,11.0006],[-85.2365,11.0531]]]}}]}