{"type":"FeatureCollection","features":[{"type":"Feature","properties":{"id":"NPL-1130","name":"Bagmati","nameBn":"বাগমতী অঞ্চল","type":"District","bounds":[84.6442,27.3559,86.0546,28.3352],"center":[85.3494,27.8491]},"geometry":{"type":"Polygon","coordinates":[[[85.0819,28.3317],[85.0802,28.3188],[85.0874,28.3041],[85.1094,28.2923],[85.1342,28.292],[85.1546,28.3009],[85.1736,28.3043],[85.2057,28.2783],[85.2239,28.2717],[85.2434,28.2679],[85.2596,28.2669],[85.2731,28.2698],[85.301,28.2811],[85.3126,28.2828],[85.3257,28.2774],[85.3348,28.2687],[85.3454,28.2612],[85.3626,28.2597],[85.3778,28.266],[85.4014,28.2888],[85.4152,28.2964],[85.4316,28.2971],[85.4467,28.2921],[85.4757,28.2791],[85.4976,28.2826],[85.5207,28.2829],[85.5437,28.2804],[85.5653,28.2754],[85.5855,28.2632],[85.5989,28.2508],[85.6118,28.2511],[85.6391,28.2879],[85.6469,28.2937],[85.6681,28.3005],[85.6751,28.3064],[85.6762,28.3151],[85.676,28.3247],[85.6791,28.3329],[85.6929,28.3352],[85.698,28.3134],[85.6998,28.2691],[85.7156,28.2434],[85.7345,28.2215],[85.7566,28.2032],[85.7828,28.1881],[85.8269,28.1705],[85.8483,28.1589],[85.8634,28.1433],[85.867,28.1329],[85.8717,28.1109],[85.8891,28.0903],[85.8911,28.0809],[85.8898,28.0713],[85.8904,28.0592],[85.8983,28.036],[85.9089,28.0224],[85.944,27.9947],[85.9566,27.9762],[85.9563,27.9569],[85.9518,27.9368],[85.9512,27.9162],[85.9627,27.8914],[85.9803,27.8852],[86.0265,27.8899],[86.0514,27.8876],[86.0546,27.888],[86.0362,27.8432],[86.0324,27.8193],[86.0348,27.7837],[86.0344,27.762],[86.0308,27.7523],[86.0244,27.7469],[86.0018,27.7429],[85.9957,27.7408],[85.9861,27.7321],[85.9723,27.7146],[85.9563,27.6831],[85.9443,27.6651],[85.9323,27.6506],[85.893,27.6127],[85.8454,27.56],[85.8406,27.5458],[85.8295,27.5268],[85.823,27.5175],[85.8118,27.507],[85.8067,27.5005],[85.8069,27.5002],[85.807,27.5],[85.8122,27.4858],[85.8137,27.4797],[85.8187,27.439],[85.795,27.4159],[85.7366,27.4069],[85.725,27.4008],[85.7199,27.394],[85.7193,27.3853],[85.7166,27.3751],[85.7073,27.3615],[85.6964,27.3568],[85.6828,27.3559],[85.5389,27.3642],[85.5321,27.3664],[85.5257,27.3695],[85.504,27.3847],[85.4795,27.4058],[85.4544,27.4174],[85.4244,27.4253],[85.3923,27.4305],[85.349,27.4371],[85.2863,27.4687],[85.2724,27.4795],[85.2625,27.4897],[85.2585,27.4993],[85.2582,27.5007],[85.2549,27.5238],[85.2524,27.5299],[85.2486,27.5354],[85.2438,27.541],[85.2393,27.5476],[85.2359,27.5537],[85.2342,27.5652],[85.2258,27.628],[85.2127,27.6651],[85.2076,27.6729],[85.2022,27.6783],[85.1913,27.6821],[85.1431,27.6909],[85.0913,27.7117],[85.0743,27.7162],[85.0608,27.7182],[84.9923,27.7153],[84.9814,27.7133],[84.9538,27.7053],[84.9329,27.7037],[84.9105,27.6987],[84.8889,27.6862],[84.8728,27.6818],[84.8608,27.6808],[84.7978,27.6865],[84.7859,27.7184],[84.7811,27.7241],[84.7736,27.731],[84.7632,27.7355],[84.6896,27.7382],[84.6734,27.7411],[84.6687,27.7454],[84.6682,27.7501],[84.6729,27.7574],[84.6723,27.7632],[84.6692,27.7713],[84.6563,27.7868],[84.6491,27.7973],[84.6451,27.8052],[84.6442,27.8119],[84.6448,27.8172],[84.6465,27.823],[84.6524,27.8352],[84.6547,27.8417],[84.6653,27.8356],[84.6682,27.8333],[84.6732,27.8279],[84.6777,27.8221],[84.6841,27.8158],[84.6917,27.8118],[84.7001,27.8094],[84.7101,27.8081],[84.7191,27.8081],[84.7274,27.8093],[84.735,27.8115],[84.7424,27.8178],[84.7481,27.8279],[84.7511,27.8484],[84.7495,27.8625],[84.7449,27.8772],[84.7258,27.907],[84.7218,27.9162],[84.7196,27.9227],[84.721,27.9337],[84.7266,27.9432],[84.7573,27.9701],[84.7716,27.9854],[84.8234,28.0729],[84.8309,28.0815],[84.8411,28.0902],[84.8588,28.1002],[84.8788,28.1071],[84.9055,28.1118],[84.9159,28.1174],[84.9264,28.1275],[84.9383,28.1489],[84.9547,28.2054],[84.9646,28.221],[84.9784,28.2357],[85.0186,28.2644],[85.0289,28.2738],[85.0487,28.3092],[85.0628,28.3229],[85.0817,28.3316],[85.0819,28.3317]]]}},{"type":"Feature","properties":{"id":"NPL-1124","name":"Bheri","nameBn":"ভেরী অঞ্চল","type":"District","bounds":[80.9923,27.8491,82.5681,29.1257],"center":[81.7802,28.4501]},"geometry":{"type":"Polygon","coordinates":[[[82.0502,27.9056],[82.0272,27.9124],[81.9759,27.917],[81.9464,27.9054],[81.9061,27.8631],[81.8832,27.8491],[81.8557,27.8509],[81.8279,27.8656],[81.8002,27.8841],[81.7501,27.9097],[81.7104,27.9475],[81.6889,27.9632],[81.6654,27.9708],[81.615,27.9812],[81.5954,27.9947],[81.5951,27.9949],[81.5822,28.0133],[81.5619,28.026],[81.4735,28.0664],[81.4582,28.0773],[81.454,28.0866],[81.4529,28.097],[81.4482,28.1114],[81.4353,28.1298],[81.4173,28.147],[81.396,28.1606],[81.3732,28.1678],[81.3579,28.166],[81.3514,28.1568],[81.3473,28.1444],[81.3381,28.1327],[81.3237,28.1262],[81.3071,28.1238],[81.2962,28.1283],[81.2994,28.1425],[81.2831,28.1461],[81.2768,28.1538],[81.2808,28.162],[81.2959,28.1675],[81.2824,28.1916],[81.2243,28.2508],[81.2107,28.2786],[81.1904,28.3381],[81.1697,28.3613],[81.1463,28.3722],[81.0471,28.3891],[81.0471,28.3893],[81.0476,28.4055],[81.0594,28.4444],[81.0704,28.4576],[81.1038,28.4757],[81.1157,28.4839],[81.2555,28.6188],[81.2624,28.6272],[81.2719,28.6361],[81.2781,28.6586],[81.2803,28.6786],[81.2771,28.6972],[81.2446,28.7616],[81.2336,28.7931],[81.228,28.8265],[81.2182,28.8414],[81.2048,28.8526],[81.1904,28.8595],[81.1945,28.8467],[81.2069,28.8245],[81.2108,28.8117],[81.1705,28.8322],[81.1615,28.83],[81.1478,28.8565],[81.1358,28.8664],[81.1223,28.8644],[81.109,28.8574],[81.0949,28.854],[81.0783,28.8629],[81.0415,28.8896],[80.9923,28.9353],[80.9972,28.9471],[81.0136,28.9606],[81.0348,28.9716],[81.0541,28.9762],[81.0742,28.9737],[81.0955,28.9671],[81.1358,28.9489],[81.1873,28.913],[81.2077,28.908],[81.2721,28.9158],[81.294,28.9148],[81.3051,28.9107],[81.3283,28.8972],[81.3381,28.8943],[81.4258,28.9037],[81.4424,28.8985],[81.4585,28.8806],[81.4735,28.8523],[81.5166,28.8083],[81.5131,28.777],[81.5243,28.7711],[81.5258,28.7654],[81.5131,28.7565],[81.5131,28.7497],[81.5232,28.7492],[81.5316,28.7506],[81.5479,28.7565],[81.572,28.7697],[81.5694,28.781],[81.5559,28.793],[81.5479,28.8083],[81.5423,28.8325],[81.5283,28.8527],[81.4926,28.8868],[81.4411,28.9558],[81.4273,28.963],[81.4148,28.9808],[81.4078,29.0032],[81.4101,29.024],[81.4573,29.0708],[81.4684,29.0786],[81.4829,29.0832],[81.5486,29.1257],[81.5741,29.0986],[81.5757,29.0736],[81.5743,29.064],[81.5743,29.0568],[81.5805,29.0525],[81.5988,29.0466],[81.6343,29.0411],[81.7161,29.0165],[81.7702,29.0081],[81.7876,29.0038],[81.8025,28.9959],[81.8249,28.9868],[81.8449,28.9812],[81.9253,28.9748],[82.015,29.011],[82.035,29.0051],[82.039,29.0021],[82.0419,29.0007],[82.0426,29.0],[82.0488,28.9893],[82.0545,28.9828],[82.0637,28.9784],[82.0767,28.9791],[82.0887,28.9831],[82.1039,28.998],[82.1099,29.0088],[82.1161,29.0167],[82.1239,29.0229],[82.1337,29.0288],[82.1405,29.0356],[82.1521,29.053],[82.1596,29.0597],[82.169,29.0658],[82.268,29.1048],[82.2837,29.1079],[82.3594,29.1063],[82.405,29.0878],[82.4091,29.076],[82.4103,29.0672],[82.4099,29.0576],[82.408,29.048],[82.4059,29.0407],[82.4031,29.0338],[82.4004,29.0234],[82.4007,29.0175],[82.4025,29.0115],[82.4068,29.0062],[82.413,29.0023],[82.4336,28.9945],[82.442,28.9927],[82.4507,28.9926],[82.4623,28.9961],[82.4706,28.9998],[82.4712,29.0004],[82.4749,29.0033],[82.4853,29.009],[82.5075,29.0074],[82.5681,28.9852],[82.5219,28.9484],[82.5095,28.9221],[82.5054,28.9082],[82.4966,28.8905],[82.4842,28.8768],[82.3753,28.8011],[82.3174,28.7696],[82.3061,28.76],[82.2694,28.7125],[82.2494,28.6939],[82.2367,28.6843],[82.2185,28.675],[82.2126,28.6691],[82.2064,28.6609],[82.1858,28.6248],[82.1605,28.6126],[82.1169,28.6113],[82.1022,28.6128],[82.0887,28.6158],[82.0438,28.6317],[82.0083,28.5937],[82.0011,28.5787],[81.9971,28.5634],[81.9985,28.555],[82.0141,28.5246],[82.0182,28.5095],[82.0195,28.4878],[82.0151,28.4748],[82.0091,28.4641],[82.0027,28.4581],[81.998,28.4552],[81.9731,28.4465],[81.9639,28.442],[81.9569,28.4338],[81.9556,28.4265],[81.9594,28.4179],[81.9655,28.4116],[81.9707,28.4029],[81.9745,28.3914],[81.9745,28.3545],[81.9807,28.3452],[82.0416,28.3229],[82.0618,28.3024],[82.0729,28.2798],[82.095,28.2485],[82.0421,28.2238],[82.028,28.1879],[82.0148,28.1691],[82.0132,28.1598],[82.0171,28.149],[82.025,28.1404],[82.0562,28.1186],[82.0648,28.1115],[82.0814,28.0917],[82.0882,28.0861],[82.0969,28.0841],[82.1049,28.0838],[82.1141,28.0824],[82.122,28.0776],[82.1678,28.0412],[82.1762,28.0282],[82.1805,28.0154],[82.181,27.9992],[82.1793,27.9776],[82.1781,27.9724],[82.1758,27.9674],[82.1726,27.9632],[82.1662,27.9577],[82.1602,27.9541],[82.1498,27.9503],[82.129,27.9466],[82.1204,27.9464],[82.1017,27.9484],[82.0966,27.9484],[82.091,27.9465],[82.0863,27.9436],[82.0554,27.9167],[82.0503,27.9058],[82.0502,27.9056]]]}},{"type":"Feature","properties":{"id":"NPL-1134","name":"Bhojpur","nameBn":"ভোজপুর জেলা","type":"District","bounds":[86.9061,26.3438,87.7397,27.9525],"center":[87.3229,27.0937]},"geometry":{"type":"Polygon","coordinates":[[[86.9887,27.9525],[87.0057,27.9515],[87.0305,27.9381],[87.062,27.9084],[87.1165,27.8446],[87.1558,27.8258],[87.182,27.8245],[87.2329,27.8297],[87.2905,27.8161],[87.3139,27.8286],[87.3358,27.8464],[87.3638,27.8553],[87.3853,27.8494],[87.3807,27.8358],[87.3691,27.8191],[87.3691,27.8039],[87.3868,27.8044],[87.4756,27.8267],[87.5145,27.8352],[87.5316,27.8368],[87.5513,27.8319],[87.556,27.8271],[87.5598,27.8191],[87.5651,27.8109],[87.5733,27.805],[87.59,27.8046],[87.6211,27.8195],[87.6361,27.8237],[87.66,27.8199],[87.6785,27.8134],[87.6545,27.753],[87.633,27.713],[87.6168,27.6915],[87.606,27.6804],[87.5959,27.6749],[87.5887,27.6749],[87.5808,27.6781],[87.5746,27.6824],[87.5675,27.6859],[87.5604,27.6871],[87.5524,27.6848],[87.5479,27.6772],[87.5397,27.6413],[87.5284,27.6143],[87.5169,27.5963],[87.4979,27.5742],[87.4871,27.5574],[87.4795,27.5413],[87.4677,27.5009],[87.4577,27.4415],[87.4502,27.4163],[87.4468,27.3984],[87.4462,27.3833],[87.45,27.3717],[87.4561,27.3623],[87.5162,27.3042],[87.5234,27.2991],[87.5343,27.2946],[87.5788,27.287],[87.6758,27.2512],[87.7185,27.2368],[87.7338,27.2268],[87.7377,27.2201],[87.7397,27.2137],[87.7397,27.2073],[87.7377,27.202],[87.7315,27.1953],[87.7163,27.183],[87.7119,27.1752],[87.7098,27.1654],[87.707,27.157],[87.7019,27.1492],[87.6944,27.1437],[87.6853,27.1392],[87.6409,27.1252],[87.6288,27.1196],[87.6032,27.1022],[87.5471,27.0502],[87.5001,26.998],[87.4806,26.9812],[87.5025,26.9527],[87.5249,26.8947],[87.533,26.8831],[87.5416,26.8748],[87.5588,26.8661],[87.5982,26.8519],[87.6004,26.8508],[87.6496,26.7905],[87.6644,26.7638],[87.666,26.7563],[87.6665,26.7405],[87.645,26.6568],[87.6422,26.4389],[87.6438,26.4237],[87.6486,26.4103],[87.6487,26.41],[87.624,26.3929],[87.587,26.378],[87.5521,26.3867],[87.4803,26.4234],[87.4496,26.4286],[87.4165,26.427],[87.3842,26.4186],[87.3564,26.4037],[87.3449,26.3893],[87.3262,26.3533],[87.314,26.3438],[87.3005,26.346],[87.2584,26.3629],[87.2453,26.3702],[87.2363,26.3833],[87.2294,26.3988],[87.2191,26.4081],[87.1885,26.3996],[87.135,26.3942],[87.1063,26.4047],[87.0833,26.4321],[87.0667,26.4656],[87.0567,26.4949],[87.0565,26.4949],[87.045,26.5443],[87.0444,26.5612],[87.0413,26.5802],[87.0299,26.5798],[87.0154,26.569],[86.9852,26.5407],[86.9724,26.532],[86.9352,26.5203],[86.9353,26.5207],[86.9382,26.5282],[86.9604,26.5465],[86.9684,26.5568],[86.9698,26.5653],[86.9696,26.5769],[86.9679,26.588],[86.9646,26.5949],[86.9617,26.6049],[86.9668,26.6173],[86.9814,26.6393],[87.0041,26.723],[87.0199,26.7355],[87.0425,26.7445],[87.1123,26.8106],[87.1401,26.8263],[87.1542,26.8367],[87.1601,26.8485],[87.161,26.8548],[87.1664,26.8759],[87.1701,26.883],[87.1754,26.9031],[87.1712,26.9209],[87.1547,26.9268],[87.1194,26.9258],[87.0006,26.9013],[86.9668,26.9064],[86.9583,27.0583],[86.9541,27.0702],[86.9437,27.0823],[86.9244,27.1006],[86.9189,27.1131],[86.9162,27.1281],[86.9246,27.1888],[86.9254,27.2068],[86.9193,27.2515],[86.9227,27.2668],[86.928,27.2727],[86.9356,27.2768],[86.9445,27.2802],[86.9519,27.284],[86.9572,27.29],[86.9601,27.2964],[86.9608,27.31],[86.9575,27.3267],[86.9178,27.3875],[86.9061,27.424],[86.9103,27.4385],[86.9131,27.4444],[86.9314,27.4626],[86.9427,27.4747],[86.9467,27.4852],[86.9561,27.5255],[86.9608,27.539],[86.9801,27.6397],[86.9984,27.6983],[87.0002,27.7082],[87.0003,27.7221],[86.9922,27.7634],[86.9941,27.7866],[86.9994,27.8061],[86.9993,27.8117],[86.9975,27.8214],[86.9905,27.8415],[86.9795,27.8864],[86.982,27.9492],[86.9821,27.9507],[86.9887,27.9525]]]}},{"type":"Feature","properties":{"id":"NPL-1125","name":"Dhawalagiri","nameBn":"ধৌলাগিরি অঞ্চল","type":"Administrative Zone","bounds":[82.8892,28.0038,84.2314,29.2918],"center":[83.5602,28.4801]},"geometry":{"type":"Polygon","coordinates":[[[83.9456,29.2918],[83.958,29.289],[83.9673,29.2847],[83.9733,29.277],[83.9758,29.2637],[83.9882,29.2695],[84.0009,29.2725],[84.0125,29.2702],[84.0215,29.2598],[84.0352,29.2476],[84.053,29.2504],[84.0721,29.257],[84.0897,29.2566],[84.0991,29.247],[84.1053,29.2199],[84.1124,29.2091],[84.126,29.2063],[84.142,29.2083],[84.1555,29.2066],[84.1617,29.1925],[84.1552,29.1759],[84.1417,29.1603],[84.1323,29.1438],[84.138,29.1247],[84.1601,29.1055],[84.1662,29.0985],[84.1697,29.0889],[84.1755,29.0574],[84.1982,29.0453],[84.2206,29.0389],[84.2314,29.026],[84.2067,28.9407],[84.2253,28.9141],[84.2165,28.9105],[84.1856,28.9042],[84.1586,28.8889],[84.1455,28.8851],[84.1034,28.8804],[84.0885,28.8746],[84.077,28.8674],[84.0696,28.8605],[84.0445,28.8421],[84.0182,28.8266],[84.0021,28.8217],[83.986,28.8202],[83.9664,28.8231],[83.9469,28.8225],[83.9336,28.8178],[83.9251,28.8102],[83.9125,28.791],[83.9031,28.7812],[83.839,28.7324],[83.8142,28.7212],[83.8005,28.7135],[83.7932,28.7071],[83.7909,28.7024],[83.7954,28.6925],[83.8378,28.6487],[83.8413,28.641],[83.8446,28.6267],[83.8027,28.5933],[83.7977,28.584],[83.7927,28.569],[83.7962,28.5448],[83.7934,28.5303],[83.7859,28.5177],[83.7712,28.5023],[83.769,28.5005],[83.7493,28.4769],[83.7418,28.4628],[83.7268,28.4209],[83.7183,28.4111],[83.7107,28.4048],[83.6933,28.3955],[83.7163,28.3615],[83.7257,28.3279],[83.733,28.3173],[83.7437,28.3044],[83.7521,28.2862],[83.7593,28.2771],[83.7765,28.2619],[83.7802,28.2531],[83.7808,28.2284],[83.7659,28.1973],[83.7543,28.1886],[83.7412,28.1756],[83.7291,28.1568],[83.7088,28.1341],[83.7042,28.1262],[83.6971,28.1032],[83.6709,28.0457],[83.659,28.0292],[83.6466,28.0191],[83.5899,28.0038],[83.5757,28.0303],[83.5672,28.0334],[83.5595,28.0324],[83.5528,28.0339],[83.5477,28.0446],[83.5467,28.0557],[83.5497,28.0613],[83.5481,28.069],[83.5419,28.0749],[83.4955,28.1104],[83.4846,28.1164],[83.4714,28.1209],[83.4511,28.1243],[83.4232,28.1256],[83.409,28.1294],[83.3933,28.1397],[83.3842,28.1492],[83.3774,28.1592],[83.3687,28.1671],[83.3561,28.1746],[83.3339,28.1846],[83.3207,28.1887],[83.2943,28.1897],[83.2798,28.1935],[83.2602,28.204],[83.2053,28.2469],[83.1845,28.2544],[83.1677,28.2585],[83.0891,28.2456],[83.0843,28.2726],[83.0712,28.2885],[83.0489,28.3074],[82.9561,28.3709],[82.9454,28.3981],[82.9382,28.406],[82.9252,28.4169],[82.9173,28.4259],[82.905,28.4502],[82.8952,28.4578],[82.8892,28.4676],[82.9134,28.5001],[82.9013,28.5093],[82.9007,28.517],[82.9066,28.5271],[82.9241,28.5421],[82.9398,28.5476],[82.9519,28.5489],[82.963,28.5483],[82.9707,28.5518],[82.9756,28.5618],[82.9752,28.5702],[82.9719,28.5769],[82.9612,28.5893],[82.9579,28.5964],[82.9691,28.6044],[82.9928,28.6143],[83.0464,28.6272],[83.0993,28.6481],[83.1319,28.6885],[83.1432,28.7088],[83.1479,28.7371],[83.1762,28.7334],[83.203,28.7253],[83.2188,28.7236],[83.2422,28.7243],[83.2745,28.7201],[83.2928,28.7203],[83.3407,28.729],[83.3619,28.736],[83.3845,28.7472],[83.4739,28.7769],[83.4877,28.7933],[83.5215,28.8758],[83.5392,28.9039],[83.5948,28.9666],[83.6035,28.9736],[83.6097,28.9831],[83.6143,28.9981],[83.6225,29.0753],[83.6272,29.0871],[83.6373,29.0987],[83.648,29.1074],[83.6575,29.118],[83.6612,29.1258],[83.6551,29.1601],[83.655,29.1604],[83.656,29.1608],[83.6634,29.1748],[83.6677,29.1923],[83.6751,29.2088],[83.6955,29.2262],[83.7197,29.2336],[83.7454,29.2345],[83.7706,29.2322],[83.7932,29.2348],[83.8379,29.254],[83.8616,29.2602],[83.8689,29.2634],[83.8774,29.2768],[83.8834,29.282],[83.9144,29.2894],[83.9331,29.2918],[83.9456,29.2918]]]}},{"type":"Feature","properties":{"id":"NPL-1095","name":"Gandaki","nameBn":"গণ্ডকী অঞ্চল","type":"District","bounds":[83.439,27.7566,85.168,28.9141],"center":[84.3034,28.3293]},"geometry":{"type":"Polygon","coordinates":[[[84.2253,28.9141],[84.2351,28.9],[84.286,28.8737],[84.354,28.8613],[84.3663,28.8567],[84.3766,28.8488],[84.3931,28.8243],[84.4143,28.8083],[84.4227,28.7992],[84.4378,28.7533],[84.4508,28.7339],[84.4758,28.7273],[84.4986,28.7279],[84.5156,28.7214],[84.532,28.7127],[84.5518,28.7064],[84.6072,28.6982],[84.6162,28.6937],[84.6258,28.6761],[84.6326,28.6688],[84.6523,28.6624],[84.6711,28.6589],[84.683,28.6508],[84.6778,28.6044],[84.6908,28.5961],[84.7366,28.5942],[84.7556,28.5854],[84.7818,28.5589],[84.7991,28.5466],[84.812,28.542],[84.8239,28.5405],[84.8793,28.5436],[84.8914,28.5418],[84.9079,28.537],[84.9187,28.5357],[84.9285,28.5385],[84.9364,28.5448],[84.949,28.5683],[84.9549,28.5743],[84.9848,28.5886],[84.9941,28.5908],[85.0025,28.5944],[85.0092,28.6025],[85.0188,28.6199],[85.0253,28.6284],[85.0321,28.6341],[85.0549,28.6387],[85.075,28.6317],[85.1119,28.6088],[85.161,28.595],[85.168,28.5832],[85.157,28.5331],[85.1537,28.5249],[85.1476,28.5158],[85.1404,28.5109],[85.1232,28.5046],[85.1172,28.4973],[85.1157,28.4915],[85.1156,28.4727],[85.1095,28.4593],[85.0837,28.4455],[85.0776,28.4357],[85.0857,28.381],[85.0857,28.3615],[85.0819,28.3317],[85.0817,28.3316],[85.0628,28.3229],[85.0487,28.3092],[85.0289,28.2738],[85.0186,28.2644],[84.9784,28.2357],[84.9646,28.221],[84.9547,28.2054],[84.9383,28.1489],[84.9264,28.1275],[84.9159,28.1174],[84.9055,28.1118],[84.8788,28.1071],[84.8588,28.1002],[84.8411,28.0902],[84.8309,28.0815],[84.8234,28.0729],[84.7716,27.9854],[84.7573,27.9701],[84.7266,27.9432],[84.721,27.9337],[84.7196,27.9227],[84.7218,27.9162],[84.7258,27.907],[84.7449,27.8772],[84.7495,27.8625],[84.7511,27.8484],[84.7481,27.8279],[84.7424,27.8178],[84.735,27.8115],[84.7274,27.8093],[84.7191,27.8081],[84.7101,27.8081],[84.7001,27.8094],[84.6917,27.8118],[84.6841,27.8158],[84.6777,27.8221],[84.6732,27.8279],[84.6682,27.8333],[84.6653,27.8356],[84.6547,27.8417],[84.6428,27.8584],[84.6315,27.8703],[84.6215,27.8764],[84.6127,27.8804],[84.603,27.8831],[84.5922,27.8846],[84.5833,27.8827],[84.577,27.8806],[84.5561,27.8653],[84.5024,27.8326],[84.457,27.8157],[84.4494,27.8079],[84.447,27.792],[84.4508,27.7822],[84.4557,27.7755],[84.46,27.772],[84.4643,27.7677],[84.4656,27.7619],[84.4614,27.759],[84.4272,27.7626],[84.4127,27.7582],[84.4012,27.7752],[84.3913,27.7839],[84.3737,27.7825],[84.36,27.7726],[84.3483,27.7615],[84.3366,27.7566],[84.3276,27.7573],[84.3212,27.7594],[84.3174,27.7642],[84.3161,27.7733],[84.3136,27.7819],[84.3005,27.7895],[84.295,27.7975],[84.2923,27.8142],[84.2916,27.827],[84.2859,27.8372],[84.2684,27.8459],[84.2253,27.8533],[84.1353,27.8542],[84.0926,27.8629],[84.0732,27.8736],[84.0372,27.9008],[84.0171,27.9084],[83.9925,27.906],[83.9477,27.8837],[83.924,27.8782],[83.9103,27.8795],[83.8833,27.8853],[83.8696,27.8867],[83.8585,27.8849],[83.8353,27.877],[83.8255,27.8763],[83.8114,27.8835],[83.7835,27.9093],[83.7665,27.9178],[83.7428,27.9204],[83.6617,27.9196],[83.644,27.9105],[83.6364,27.909],[83.601,27.9205],[83.5893,27.9204],[83.5762,27.9266],[83.5598,27.9286],[83.5313,27.9279],[83.5021,27.9326],[83.4908,27.9311],[83.4795,27.9204],[83.4648,27.9314],[83.4484,27.9393],[83.439,27.948],[83.4453,27.9614],[83.4605,27.9689],[83.4776,27.9681],[83.5074,27.9614],[83.5439,27.9667],[83.5753,27.9818],[83.5899,28.0038],[83.6466,28.0191],[83.659,28.0292],[83.6709,28.0457],[83.6971,28.1032],[83.7042,28.1262],[83.7088,28.1341],[83.7291,28.1568],[83.7412,28.1756],[83.7543,28.1886],[83.7659,28.1973],[83.7808,28.2284],[83.7802,28.2531],[83.7765,28.2619],[83.7593,28.2771],[83.7521,28.2862],[83.7437,28.3044],[83.733,28.3173],[83.7257,28.3279],[83.7163,28.3615],[83.6933,28.3955],[83.7107,28.4048],[83.7183,28.4111],[83.7268,28.4209],[83.7418,28.4628],[83.7493,28.4769],[83.769,28.5005],[83.7712,28.5023],[83.7859,28.5177],[83.7934,28.5303],[83.7962,28.5448],[83.7927,28.569],[83.7977,28.584],[83.8027,28.5933],[83.8446,28.6267],[83.8413,28.641],[83.8378,28.6487],[83.7954,28.6925],[83.7909,28.7024],[83.7932,28.7071],[83.8005,28.7135],[83.8142,28.7212],[83.839,28.7324],[83.9031,28.7812],[83.9125,28.791],[83.9251,28.8102],[83.9336,28.8178],[83.9469,28.8225],[83.9664,28.8231],[83.986,28.8202],[84.0021,28.8217],[84.0182,28.8266],[84.0445,28.8421],[84.0696,28.8605],[84.077,28.8674],[84.0885,28.8746],[84.1034,28.8804],[84.1455,28.8851],[84.1586,28.8889],[84.1856,28.9042],[84.2165,28.9105],[84.2253,28.9141]]]}},{"type":"Feature","properties":{"id":"NPL-1131","name":"Janakpur","nameBn":"জনকপুর অঞ্চল","type":"Administrative Zone","bounds":[85.3539,26.5661,86.5897,28.1565],"center":[85.9718,27.179]},"geometry":{"type":"Polygon","coordinates":[[[86.156,28.1565],[86.176,28.153],[86.186,28.1335],[86.1872,28.1087],[86.1808,28.0888],[86.1722,28.0718],[86.1745,28.0624],[86.1818,28.0549],[86.1891,28.0436],[86.196,28.0146],[86.203,28.0026],[86.2178,27.995],[86.2179,27.9949],[86.2184,27.9947],[86.2385,27.9896],[86.259,27.9876],[86.2781,27.9837],[86.2947,27.9724],[86.3182,27.9458],[86.3277,27.9397],[86.3376,27.938],[86.3456,27.9409],[86.3537,27.9448],[86.363,27.9461],[86.372,27.942],[86.4057,27.917],[86.4253,27.9099],[86.4388,27.9109],[86.4755,27.9276],[86.4969,27.9379],[86.5105,27.9524],[86.5168,27.9714],[86.5351,27.9551],[86.5646,27.9137],[86.5716,27.888],[86.5713,27.8609],[86.5769,27.8101],[86.586,27.7819],[86.5866,27.7611],[86.5897,27.7448],[86.586,27.7344],[86.5812,27.7266],[86.5738,27.7166],[86.566,27.702],[86.5559,27.6728],[86.5458,27.6523],[86.5348,27.6389],[86.5221,27.6313],[86.4985,27.6241],[86.4772,27.6203],[86.4679,27.6176],[86.4608,27.6142],[86.428,27.5853],[86.4135,27.5756],[86.3635,27.5256],[86.2742,27.4513],[86.2589,27.4313],[86.2418,27.3974],[86.2333,27.3751],[86.231,27.3662],[86.2308,27.3581],[86.2324,27.3508],[86.2417,27.329],[86.2431,27.3203],[86.2406,27.3078],[86.2356,27.2918],[86.2099,27.2522],[86.2099,27.2458],[86.2262,27.2417],[86.2819,27.2427],[86.3143,27.2363],[86.3292,27.2319],[86.3378,27.2269],[86.3441,27.2181],[86.3516,27.2104],[86.3561,27.2068],[86.3875,27.1899],[86.3916,27.186],[86.3942,27.1828],[86.3885,27.1732],[86.3582,27.1402],[86.3309,27.1192],[86.3306,27.1135],[86.3337,27.1087],[86.3388,27.105],[86.3435,27.1008],[86.3481,27.0951],[86.357,27.0701],[86.3641,27.0411],[86.3647,27.0117],[86.3612,26.9971],[86.3551,26.9884],[86.3131,26.9771],[86.2867,26.961],[86.2577,26.9237],[86.2336,26.9154],[86.224,26.9166],[86.2109,26.9195],[86.1847,26.93],[86.1754,26.9299],[86.1666,26.926],[86.1532,26.9115],[86.1487,26.904],[86.1464,26.8977],[86.1459,26.891],[86.1472,26.8849],[86.1553,26.8642],[86.1579,26.8515],[86.1581,26.8013],[86.159,26.7908],[86.1615,26.7807],[86.1659,26.7693],[86.1725,26.7582],[86.1905,26.7337],[86.1958,26.7243],[86.199,26.7124],[86.1978,26.7029],[86.1944,26.6941],[86.1478,26.6043],[86.1465,26.6017],[86.1464,26.6014],[86.1448,26.6015],[86.1221,26.6003],[86.1159,26.6026],[86.1107,26.6067],[86.0417,26.6455],[86.0114,26.6544],[85.9757,26.6444],[85.9521,26.642],[85.9347,26.6329],[85.8664,26.5799],[85.8448,26.5685],[85.8285,26.5661],[85.8216,26.5717],[85.8198,26.5795],[85.8195,26.5883],[85.8176,26.5967],[85.8097,26.603],[85.8001,26.6007],[85.79,26.597],[85.781,26.5992],[85.727,26.6376],[85.7129,26.6532],[85.7022,26.6884],[85.7096,26.7625],[85.7018,26.7966],[85.6878,26.8119],[85.6094,26.851],[85.5986,26.8544],[85.5195,26.8264],[85.4757,26.8052],[85.4396,26.7877],[85.4215,26.7827],[85.4032,26.7876],[85.3859,26.7884],[85.3692,26.775],[85.3554,26.7599],[85.3553,26.7603],[85.3539,26.8012],[85.3556,26.8216],[85.3646,26.8532],[85.3801,26.8898],[85.4127,26.9332],[85.4186,26.9442],[85.4223,26.9557],[85.4238,26.9732],[85.4222,26.9858],[85.42,26.9951],[85.418,27.001],[85.4163,27.0098],[85.4157,27.0176],[85.4179,27.0291],[85.4223,27.0406],[85.4367,27.0642],[85.5003,27.1432],[85.5066,27.1656],[85.5093,27.1912],[85.5111,27.199],[85.513,27.2041],[85.5156,27.2085],[85.5175,27.2169],[85.5169,27.2284],[85.5113,27.2516],[85.5057,27.2648],[85.5003,27.2739],[85.4953,27.2791],[85.4893,27.284],[85.4813,27.289],[85.4568,27.3007],[85.448,27.3067],[85.443,27.3131],[85.4401,27.3218],[85.4401,27.3308],[85.4417,27.3378],[85.4576,27.3549],[85.504,27.3847],[85.5257,27.3695],[85.5321,27.3664],[85.5389,27.3642],[85.6828,27.3559],[85.6964,27.3568],[85.7073,27.3615],[85.7166,27.3751],[85.7193,27.3853],[85.7199,27.394],[85.725,27.4008],[85.7366,27.4069],[85.795,27.4159],[85.8187,27.439],[85.8137,27.4797],[85.8122,27.4858],[85.807,27.5],[85.8069,27.5002],[85.8067,27.5005],[85.8118,27.507],[85.823,27.5175],[85.8295,27.5268],[85.8406,27.5458],[85.8454,27.56],[85.893,27.6127],[85.9323,27.6506],[85.9443,27.6651],[85.9563,27.6831],[85.9723,27.7146],[85.9861,27.7321],[85.9957,27.7408],[86.0018,27.7429],[86.0244,27.7469],[86.0308,27.7523],[86.0344,27.762],[86.0348,27.7837],[86.0324,27.8193],[86.0362,27.8432],[86.0546,27.888],[86.0617,27.889],[86.0757,27.8948],[86.1072,27.9228],[86.1129,27.9268],[86.1122,27.9373],[86.1072,27.9442],[86.1006,27.9502],[86.0956,27.9579],[86.0951,27.9689],[86.098,27.9775],[86.0981,27.9856],[86.0894,27.9947],[86.0894,27.9949],[86.0893,27.9949],[86.0792,28.0011],[86.0776,28.0069],[86.0795,28.0133],[86.0795,28.0217],[86.0839,28.0385],[86.0847,28.0439],[86.0815,28.0517],[86.0702,28.0667],[86.0687,28.0768],[86.156,28.1565]]]}},{"type":"Feature","properties":{"id":"NPL-1126","name":"Karnali","nameBn":"কর্ণালী অঞ্চল","type":"Administrative Zone","bounds":[81.2663,28.7201,83.6612,30.4169],"center":[82.4637,29.474]},"geometry":{"type":"Polygon","coordinates":[[[81.614,30.4169],[81.6357,30.411],[81.7574,30.3629],[81.779,30.358],[81.8015,30.3613],[81.8228,30.3682],[81.8444,30.3712],[81.8872,30.355],[81.9215,30.3574],[81.9412,30.354],[81.9501,30.3484],[81.9621,30.3337],[81.969,30.3283],[81.9789,30.3268],[81.9885,30.3298],[81.9982,30.3341],[82.0076,30.3368],[82.0499,30.3392],[82.0732,30.3372],[82.0888,30.3301],[82.0932,30.3147],[82.0821,30.2573],[82.085,30.2308],[82.0959,30.2135],[82.1142,30.2022],[82.1404,30.194],[82.1557,30.1814],[82.151,30.1622],[82.1276,30.1244],[82.1287,30.1108],[82.1352,30.0897],[82.1445,30.0694],[82.1538,30.0582],[82.1742,30.0555],[82.1922,30.0615],[82.2107,30.0644],[82.2557,30.0397],[82.276,30.0369],[82.2965,30.0368],[82.3189,30.0318],[82.3272,30.0257],[82.3391,30.0092],[82.3473,30.0034],[82.3637,30.0012],[82.3791,30.0032],[82.3944,30.0031],[82.4098,29.9946],[82.4229,29.9797],[82.4389,29.9658],[82.4571,29.9541],[82.4758,29.9455],[82.5242,29.9324],[82.5418,29.9232],[82.6185,29.8398],[82.6359,29.829],[82.6464,29.8293],[82.667,29.835],[82.6773,29.8344],[82.689,29.8277],[82.6892,29.8196],[82.6846,29.8097],[82.6818,29.7977],[82.691,29.7807],[82.7515,29.7393],[82.7701,29.7142],[82.7811,29.7051],[82.7931,29.6995],[82.8052,29.696],[82.8155,29.6901],[82.8224,29.678],[82.8366,29.6598],[82.8575,29.6662],[82.8801,29.6811],[82.8997,29.6884],[82.9091,29.6846],[82.9237,29.6697],[82.9319,29.6642],[82.9421,29.6629],[82.9643,29.6659],[82.9759,29.664],[83.0329,29.6205],[83.0409,29.6103],[83.0545,29.5861],[83.0649,29.5788],[83.0796,29.5796],[83.0856,29.5904],[83.0884,29.6044],[83.0934,29.6151],[83.1003,29.6177],[83.1267,29.6234],[83.15,29.6256],[83.1621,29.6252],[83.1736,29.6213],[83.1873,29.6121],[83.1909,29.6069],[83.1945,29.5936],[83.1972,29.5891],[83.2049,29.5849],[83.2219,29.5798],[83.2293,29.5759],[83.2526,29.5552],[83.2608,29.542],[83.2633,29.5271],[83.2599,29.5188],[83.254,29.5133],[83.2487,29.5066],[83.2472,29.4947],[83.2639,29.473],[83.328,29.485],[83.3552,29.4607],[83.3578,29.4428],[83.3552,29.428],[83.357,29.4154],[83.3872,29.3935],[83.3894,29.3824],[83.3883,29.3702],[83.3931,29.3562],[83.405,29.3465],[83.4178,29.3409],[83.4282,29.3335],[83.4372,29.3052],[83.4482,29.2968],[83.4758,29.2869],[83.4934,29.2761],[83.503,29.261],[83.5125,29.2235],[83.5146,29.2018],[83.5171,29.1917],[83.5237,29.1836],[83.536,29.1792],[83.5614,29.1762],[83.572,29.1684],[83.5838,29.1621],[83.6244,29.1555],[83.6393,29.1548],[83.655,29.1604],[83.6551,29.1601],[83.6612,29.1258],[83.6575,29.118],[83.648,29.1074],[83.6373,29.0987],[83.6272,29.0871],[83.6225,29.0753],[83.6143,28.9981],[83.6097,28.9831],[83.6035,28.9736],[83.5948,28.9666],[83.5392,28.9039],[83.5215,28.8758],[83.4877,28.7933],[83.4739,28.7769],[83.3845,28.7472],[83.3619,28.736],[83.3407,28.729],[83.2928,28.7203],[83.2745,28.7201],[83.2422,28.7243],[83.2188,28.7236],[83.203,28.7253],[83.1762,28.7334],[83.1479,28.7371],[83.1089,28.7453],[82.9599,28.8113],[82.939,28.8179],[82.9247,28.8204],[82.8641,28.8164],[82.8125,28.8204],[82.7996,28.8193],[82.7892,28.816],[82.772,28.8133],[82.7576,28.8178],[82.7106,28.8464],[82.7041,28.8548],[82.7027,28.8649],[82.7035,28.8784],[82.7033,28.8937],[82.7004,28.9066],[82.6951,28.9147],[82.6563,28.95],[82.6394,28.9628],[82.6259,28.9696],[82.5681,28.9852],[82.5075,29.0074],[82.4853,29.009],[82.4749,29.0033],[82.4712,29.0004],[82.4706,28.9998],[82.4623,28.9961],[82.4507,28.9926],[82.442,28.9927],[82.4336,28.9945],[82.413,29.0023],[82.4068,29.0062],[82.4025,29.0115],[82.4007,29.0175],[82.4004,29.0234],[82.4031,29.0338],[82.4059,29.0407],[82.408,29.048],[82.4099,29.0576],[82.4103,29.0672],[82.4091,29.076],[82.405,29.0878],[82.3594,29.1063],[82.2837,29.1079],[82.268,29.1048],[82.169,29.0658],[82.1596,29.0597],[82.1521,29.053],[82.1405,29.0356],[82.1337,29.0288],[82.1239,29.0229],[82.1161,29.0167],[82.1099,29.0088],[82.1039,28.998],[82.0887,28.9831],[82.0767,28.9791],[82.0637,28.9784],[82.0545,28.9828],[82.0488,28.9893],[82.0426,29.0],[82.0419,29.0007],[82.039,29.0021],[82.035,29.0051],[82.015,29.011],[81.9253,28.9748],[81.8449,28.9812],[81.8249,28.9868],[81.8025,28.9959],[81.7876,29.0038],[81.7702,29.0081],[81.7161,29.0165],[81.6343,29.0411],[81.5988,29.0466],[81.5805,29.0525],[81.5743,29.0568],[81.5743,29.064],[81.5757,29.0736],[81.5741,29.0986],[81.5486,29.1257],[81.5353,29.1379],[81.5224,29.1471],[81.4926,29.1636],[81.4852,29.1689],[81.481,29.1817],[81.4781,29.1977],[81.4866,29.2591],[81.4784,29.275],[81.4743,29.2851],[81.4737,29.2952],[81.4781,29.3047],[81.4875,29.3155],[81.5183,29.3429],[81.5341,29.3532],[81.5754,29.3646],[81.5893,29.3667],[81.6085,29.3673],[81.616,29.3654],[81.6235,29.362],[81.6487,29.3418],[81.6591,29.3378],[81.6715,29.3372],[81.6888,29.3395],[81.7238,29.3489],[81.7297,29.3668],[81.719,29.3828],[81.7092,29.402],[81.7049,29.425],[81.7057,29.4483],[81.7086,29.468],[81.7148,29.4844],[81.7254,29.4976],[81.7651,29.5211],[81.781,29.5345],[81.7875,29.5556],[81.7885,29.5713],[81.7875,29.5926],[81.7832,29.6016],[81.778,29.6078],[81.7585,29.613],[81.7533,29.6138],[81.7369,29.6205],[81.7243,29.6281],[81.713,29.6377],[81.7034,29.6497],[81.697,29.667],[81.6956,29.679],[81.6964,29.6875],[81.7241,29.7648],[81.7287,29.7901],[81.7312,29.8221],[81.7336,29.8343],[81.7371,29.8421],[81.7428,29.8477],[81.7561,29.8568],[81.7636,29.8628],[81.7696,29.8695],[81.7735,29.8768],[81.7755,29.8848],[81.7749,29.8964],[81.7705,29.9058],[81.7605,29.9131],[81.747,29.9169],[81.7085,29.9239],[81.6917,29.9295],[81.6787,29.9381],[81.6664,29.9426],[81.6486,29.9451],[81.5738,29.9438],[81.5623,29.9424],[81.5513,29.9397],[81.5302,29.9289],[81.505,29.8962],[81.4985,29.8927],[81.4937,29.8925],[81.486,29.8943],[81.4767,29.8989],[81.4557,29.9125],[81.4514,29.9208],[81.4506,29.9292],[81.4536,29.9482],[81.4543,29.9593],[81.4523,29.9687],[81.4481,29.9776],[81.4439,29.9844],[81.4392,29.9907],[81.4293,30.0088],[81.423,30.0248],[81.4197,30.0269],[81.4137,30.0286],[81.3918,30.0286],[81.359,30.025],[81.3497,30.0272],[81.3418,30.0311],[81.3294,30.0404],[81.3204,30.0457],[81.299,30.0534],[81.2771,30.067],[81.2679,30.0721],[81.272,30.0799],[81.2759,30.0954],[81.2745,30.1022],[81.2663,30.1177],[81.267,30.1251],[81.2777,30.1319],[81.2933,30.1328],[81.3095,30.1321],[81.3224,30.1338],[81.3383,30.1435],[81.3501,30.1572],[81.3573,30.1736],[81.3618,30.2048],[81.3744,30.2231],[81.3779,30.2326],[81.3769,30.2412],[81.3705,30.2573],[81.369,30.2661],[81.368,30.301],[81.3715,30.3169],[81.3821,30.3313],[81.3873,30.3451],[81.3849,30.3609],[81.3875,30.3739],[81.4074,30.3792],[81.4261,30.3725],[81.4628,30.3414],[81.4831,30.3319],[81.5094,30.3284],[81.5207,30.3319],[81.532,30.3703],[81.5368,30.3786],[81.5443,30.3826],[81.5633,30.3856],[81.5767,30.391],[81.582,30.3994],[81.5851,30.4081],[81.5916,30.4143],[81.614,30.4169]]]}},{"type":"Feature","properties":{"id":"NPL-1127","name":"Lumbini","nameBn":"লুম্বিনী অঞ্চল","type":"Administrative Zone","bounds":[82.6739,27.3309,84.426,28.2585],"center":[83.55,27.695]},"geometry":{"type":"Polygon","coordinates":[[[83.922,27.4497],[83.8999,27.4439],[83.8535,27.441],[83.8341,27.434],[83.8427,27.4181],[83.8712,27.3894],[83.8737,27.3801],[83.8777,27.3699],[83.8774,27.3617],[83.8675,27.3584],[83.8617,27.3545],[83.8546,27.3451],[83.8533,27.3462],[83.848,27.351],[83.802,27.3659],[83.6634,27.4323],[83.5904,27.4566],[83.481,27.4697],[83.387,27.4705],[83.361,27.4622],[83.3559,27.4525],[83.3539,27.4403],[83.3558,27.4287],[83.371,27.4102],[83.3696,27.3982],[83.3627,27.3856],[83.3411,27.3569],[83.3243,27.3417],[83.3049,27.3319],[83.2824,27.3309],[83.2595,27.3381],[83.2494,27.3481],[83.2431,27.3622],[83.2316,27.3812],[83.2192,27.3938],[83.1696,27.4312],[83.1328,27.4442],[83.0105,27.4434],[82.9472,27.4573],[82.9013,27.4804],[82.8763,27.4875],[82.7521,27.495],[82.7297,27.5182],[82.7189,27.5561],[82.7092,27.6309],[82.6971,27.6694],[82.6797,27.6944],[82.6739,27.6965],[82.674,27.6967],[82.6763,27.7053],[82.6835,27.7279],[82.6894,27.7393],[82.6935,27.7454],[82.6987,27.7509],[82.7061,27.7556],[82.7165,27.7605],[82.7352,27.7659],[82.7508,27.7676],[82.8005,27.7633],[82.844,27.7759],[82.8209,27.7974],[82.7748,27.8165],[82.7624,27.8247],[82.7644,27.8304],[82.7671,27.8344],[82.8014,27.8677],[82.846,27.9023],[82.8703,27.9088],[82.8938,27.9047],[82.9063,27.904],[82.9192,27.9058],[82.9311,27.9096],[82.9605,27.9256],[82.9932,27.9356],[82.999,27.9401],[83.0034,27.9464],[83.0006,27.9571],[82.9975,27.9628],[82.9907,27.9691],[82.982,27.9747],[82.9752,27.9843],[82.9722,28.0002],[82.9817,28.0317],[82.9866,28.0585],[82.9994,28.0931],[83.0259,28.1137],[83.0337,28.121],[83.0388,28.1293],[83.0374,28.1417],[83.0329,28.151],[83.0139,28.1732],[83.0101,28.1831],[83.011,28.1929],[83.0183,28.2029],[83.0312,28.2131],[83.0765,28.2323],[83.0891,28.2456],[83.1677,28.2585],[83.1845,28.2544],[83.2053,28.2469],[83.2602,28.204],[83.2798,28.1935],[83.2943,28.1897],[83.3207,28.1887],[83.3339,28.1846],[83.3561,28.1746],[83.3687,28.1671],[83.3774,28.1592],[83.3842,28.1492],[83.3933,28.1397],[83.409,28.1294],[83.4232,28.1256],[83.4511,28.1243],[83.4714,28.1209],[83.4846,28.1164],[83.4955,28.1104],[83.5419,28.0749],[83.5481,28.069],[83.5497,28.0613],[83.5467,28.0557],[83.5477,28.0446],[83.5528,28.0339],[83.5595,28.0324],[83.5672,28.0334],[83.5757,28.0303],[83.5899,28.0038],[83.5753,27.9818],[83.5439,27.9667],[83.5074,27.9614],[83.4776,27.9681],[83.4605,27.9689],[83.4453,27.9614],[83.439,27.948],[83.4484,27.9393],[83.4648,27.9314],[83.4795,27.9204],[83.4908,27.9311],[83.5021,27.9326],[83.5313,27.9279],[83.5598,27.9286],[83.5762,27.9266],[83.5893,27.9204],[83.601,27.9205],[83.6364,27.909],[83.644,27.9105],[83.6617,27.9196],[83.7428,27.9204],[83.7665,27.9178],[83.7835,27.9093],[83.8114,27.8835],[83.8255,27.8763],[83.8353,27.877],[83.8585,27.8849],[83.8696,27.8867],[83.8833,27.8853],[83.9103,27.8795],[83.924,27.8782],[83.9477,27.8837],[83.9925,27.906],[84.0171,27.9084],[84.0372,27.9008],[84.0732,27.8736],[84.0926,27.8629],[84.1353,27.8542],[84.2253,27.8533],[84.2684,27.8459],[84.2859,27.8372],[84.2916,27.827],[84.2923,27.8142],[84.295,27.7975],[84.3005,27.7895],[84.3136,27.7819],[84.3161,27.7733],[84.3174,27.7642],[84.3212,27.7594],[84.3276,27.7573],[84.3366,27.7566],[84.3483,27.7615],[84.36,27.7726],[84.3737,27.7825],[84.3913,27.7839],[84.4012,27.7752],[84.4127,27.7582],[84.4222,27.7403],[84.426,27.7286],[84.4219,27.7139],[84.412,27.7031],[84.3844,27.6877],[84.3565,27.6968],[84.3311,27.6857],[84.3059,27.6686],[84.2783,27.6597],[84.2622,27.6613],[84.2499,27.6639],[84.239,27.6644],[84.2268,27.6597],[84.2083,27.6355],[84.1957,27.6268],[84.179,27.633],[84.1565,27.6095],[84.1156,27.549],[84.1033,27.5368],[84.0691,27.558],[84.049,27.546],[84.0264,27.5441],[83.959,27.5523],[83.9472,27.5523],[83.9388,27.5505],[83.931,27.5439],[83.9255,27.535],[83.9257,27.5272],[83.9354,27.5238],[83.9563,27.5236],[83.9597,27.5187],[83.9487,27.5064],[83.9412,27.4953],[83.9409,27.4838],[83.942,27.4725],[83.9388,27.4617],[83.9229,27.4503],[83.922,27.4497]]]}},{"type":"Feature","properties":{"id":"NPL-1128","name":"Mahakali","nameBn":"মহাকালী অঞ্চল","type":"Administrative Zone","bounds":[80.0303,28.5624,81.0845,30.2104],"center":[80.5573,29.5205]},"geometry":{"type":"Polygon","coordinates":[[[80.996,30.197],[81.0065,30.1889],[81.0194,30.1723],[81.0309,30.1527],[81.0437,30.1202],[81.0666,30.0872],[81.0742,30.0719],[81.0845,30.0279],[81.0844,30.0278],[81.063,30.0142],[81.0473,30.0013],[81.018,29.9642],[81.0046,29.9418],[80.9999,29.9289],[81.0009,29.9223],[81.0054,29.9187],[81.013,29.9143],[81.0208,29.908],[81.0271,29.9],[81.0316,29.8907],[81.0341,29.8807],[81.0381,29.8563],[81.0546,29.8004],[81.0557,29.7667],[81.0496,29.7502],[81.0383,29.7394],[81.025,29.7359],[81.0033,29.7341],[80.9965,29.7324],[80.9651,29.7169],[80.9555,29.7145],[80.9476,29.7138],[80.9385,29.7142],[80.9284,29.7136],[80.8906,29.7062],[80.8614,29.6949],[80.8414,29.6813],[80.8279,29.6762],[80.8156,29.6747],[80.7989,29.6773],[80.7858,29.6745],[80.7605,29.6566],[80.7568,29.6512],[80.7537,29.642],[80.756,29.6358],[80.7611,29.6268],[80.7653,29.6151],[80.7687,29.5996],[80.7686,29.5766],[80.7646,29.5647],[80.7577,29.5549],[80.7475,29.5463],[80.7394,29.5313],[80.7415,29.5216],[80.7523,29.5148],[80.7808,29.5084],[80.8026,29.506],[80.8085,29.5043],[80.8125,29.5017],[80.8145,29.4999],[80.8361,29.4733],[80.8856,29.4306],[80.8543,29.3948],[80.822,29.3788],[80.7793,29.3666],[80.7646,29.3538],[80.7501,29.3222],[80.7367,29.3014],[80.73,29.2866],[80.726,29.2725],[80.7241,29.2598],[80.7177,29.2404],[80.7062,29.2237],[80.6873,29.2008],[80.6741,29.1902],[80.6598,29.1822],[80.6118,29.1692],[80.5942,29.1606],[80.5671,29.1379],[80.5568,29.1251],[80.5514,29.1118],[80.5499,29.1042],[80.5427,29.0969],[80.5396,29.0904],[80.5354,29.0643],[80.5211,29.0498],[80.5152,29.0356],[80.509,29.0151],[80.4927,28.9868],[80.5022,28.931],[80.4964,28.8566],[80.4973,28.8436],[80.4995,28.833],[80.502,28.827],[80.507,28.8183],[80.5213,28.7978],[80.527,28.7865],[80.5338,28.7668],[80.536,28.7548],[80.5344,28.6819],[80.5344,28.6799],[80.5344,28.6796],[80.5176,28.68],[80.4975,28.6701],[80.4876,28.6565],[80.4849,28.6393],[80.4934,28.5756],[80.4885,28.5624],[80.4688,28.5718],[80.4265,28.6168],[80.4084,28.6263],[80.3883,28.6272],[80.3691,28.6226],[80.3498,28.6202],[80.3297,28.6275],[80.3183,28.6401],[80.291,28.6897],[80.2834,28.6954],[80.2652,28.6993],[80.257,28.7027],[80.2494,28.7102],[80.239,28.7263],[80.2333,28.7327],[80.2164,28.7419],[80.1812,28.7473],[80.1621,28.7533],[80.1476,28.7633],[80.1142,28.8026],[80.0819,28.8194],[80.0731,28.8209],[80.0548,28.8242],[80.0364,28.837],[80.0303,28.8777],[80.0311,28.8978],[80.0339,28.9159],[80.0405,28.9328],[80.0529,28.9491],[80.0684,28.9599],[80.0852,28.9675],[80.0994,28.9773],[80.1079,28.9946],[80.1079,28.9948],[80.1047,29.0276],[80.1131,29.0722],[80.1326,29.1102],[80.1635,29.1234],[80.1806,29.1213],[80.2014,29.1212],[80.2207,29.1261],[80.2331,29.1393],[80.2305,29.1547],[80.2137,29.1966],[80.2188,29.2111],[80.2361,29.2131],[80.2487,29.2044],[80.2582,29.2025],[80.2787,29.2681],[80.2828,29.2913],[80.2801,29.3102],[80.2728,29.3157],[80.2636,29.3153],[80.255,29.3166],[80.2495,29.327],[80.2422,29.3674],[80.221,29.4001],[80.2137,29.4169],[80.2177,29.4346],[80.2283,29.4417],[80.2575,29.4501],[80.2635,29.4592],[80.2662,29.4721],[80.2731,29.4787],[80.2821,29.4843],[80.2912,29.4946],[80.2915,29.4947],[80.3115,29.5081],[80.3201,29.5158],[80.3272,29.5248],[80.3276,29.5299],[80.3251,29.5355],[80.3236,29.5417],[80.3272,29.5486],[80.3327,29.5525],[80.3451,29.5584],[80.3508,29.5621],[80.3733,29.5842],[80.3852,29.6048],[80.3868,29.6268],[80.3776,29.6529],[80.3639,29.6797],[80.3544,29.7049],[80.3543,29.7303],[80.369,29.7579],[80.3952,29.7766],[80.4549,29.7906],[80.4762,29.8061],[80.5273,29.8624],[80.5495,29.8937],[80.5629,29.9297],[80.5713,29.9469],[80.5862,29.9541],[80.6223,29.9582],[80.6414,29.9634],[80.6541,29.9706],[80.6802,29.9921],[80.7158,30.0133],[80.7257,30.0228],[80.7557,30.0646],[80.7697,30.0773],[80.8298,30.1171],[80.8497,30.1434],[80.8364,30.17],[80.8504,30.1819],[80.8679,30.2002],[80.8837,30.2103],[80.8839,30.2104],[80.8936,30.1981],[80.9033,30.1804],[80.9208,30.1767],[80.9882,30.1966],[80.996,30.197]]]}},{"type":"Feature","properties":{"id":"NPL-1135","name":"Mechi","nameBn":"মেচী অঞ্চল","type":"Administrative Zone","bounds":[87.4462,26.3666,88.1691,27.9083],"center":[87.8075,27.1587]},"geometry":{"type":"Polygon","coordinates":[[[87.8367,27.9083],[87.8561,27.8986],[87.9346,27.8953],[87.9452,27.8923],[87.9664,27.8827],[87.9784,27.8805],[87.9918,27.8826],[88.0181,27.8921],[88.03,27.8933],[88.0528,27.8865],[88.0957,27.8653],[88.1182,27.8609],[88.143,27.8557],[88.1564,27.8513],[88.1646,27.8454],[88.1666,27.8336],[88.1546,27.8152],[88.1597,27.7741],[88.1493,27.7488],[88.1349,27.7232],[88.1109,27.6395],[88.0488,27.5453],[88.0233,27.4949],[88.0221,27.4842],[88.0233,27.4747],[88.0281,27.4551],[88.0308,27.4507],[88.0398,27.4424],[88.0416,27.4381],[88.0393,27.4295],[88.0348,27.4238],[88.0296,27.4187],[88.0258,27.4121],[88.0172,27.3892],[88.0148,27.3781],[88.0158,27.3642],[88.0201,27.3534],[88.0325,27.3339],[88.0351,27.3226],[88.029,27.2981],[88.0047,27.2492],[87.9893,27.2184],[87.9855,27.1484],[87.9708,27.1192],[87.9692,27.1108],[87.9707,27.1027],[87.9755,27.0951],[87.9913,27.0815],[88.0095,27.0456],[88.0274,27.0354],[88.0428,27.0289],[88.0559,27.018],[88.0769,26.9918],[88.0968,26.9593],[88.1118,26.9243],[88.1204,26.9089],[88.1428,26.8784],[88.1514,26.8628],[88.1553,26.8456],[88.159,26.8026],[88.1678,26.7629],[88.1691,26.744],[88.1675,26.725],[88.1634,26.7051],[88.1466,26.6612],[88.1017,26.5819],[88.0871,26.5391],[88.0798,26.5176],[88.0791,26.5074],[88.0823,26.4949],[88.0742,26.4539],[88.0443,26.4057],[88.0066,26.3699],[87.9755,26.3666],[87.9612,26.379],[87.929,26.3964],[87.9148,26.4083],[87.9085,26.4178],[87.902,26.4353],[87.8973,26.4435],[87.8948,26.4429],[87.8707,26.4607],[87.8698,26.4646],[87.8521,26.4607],[87.8216,26.4375],[87.8044,26.4374],[87.7859,26.446],[87.769,26.4515],[87.7562,26.4469],[87.7495,26.4257],[87.7422,26.4105],[87.7275,26.4038],[87.7109,26.4057],[87.6976,26.4163],[87.6812,26.4242],[87.6596,26.4175],[87.6487,26.41],[87.6486,26.4103],[87.6438,26.4237],[87.6422,26.4389],[87.645,26.6568],[87.6665,26.7405],[87.666,26.7563],[87.6644,26.7638],[87.6496,26.7905],[87.6004,26.8508],[87.5982,26.8519],[87.5588,26.8661],[87.5416,26.8748],[87.533,26.8831],[87.5249,26.8947],[87.5025,26.9527],[87.4806,26.9812],[87.5001,26.998],[87.5471,27.0502],[87.6032,27.1022],[87.6288,27.1196],[87.6409,27.1252],[87.6853,27.1392],[87.6944,27.1437],[87.7019,27.1492],[87.707,27.157],[87.7098,27.1654],[87.7119,27.1752],[87.7163,27.183],[87.7315,27.1953],[87.7377,27.202],[87.7397,27.2073],[87.7397,27.2137],[87.7377,27.2201],[87.7338,27.2268],[87.7185,27.2368],[87.6758,27.2512],[87.5788,27.287],[87.5343,27.2946],[87.5234,27.2991],[87.5162,27.3042],[87.4561,27.3623],[87.45,27.3717],[87.4462,27.3833],[87.4468,27.3984],[87.4502,27.4163],[87.4577,27.4415],[87.4677,27.5009],[87.4795,27.5413],[87.4871,27.5574],[87.4979,27.5742],[87.5169,27.5963],[87.5284,27.6143],[87.5397,27.6413],[87.5479,27.6772],[87.5524,27.6848],[87.5604,27.6871],[87.5675,27.6859],[87.5746,27.6824],[87.5808,27.6781],[87.5887,27.6749],[87.5959,27.6749],[87.606,27.6804],[87.6168,27.6915],[87.633,27.713],[87.6545,27.753],[87.6785,27.8134],[87.7005,27.8056],[87.7268,27.8078],[87.7564,27.8204],[87.7798,27.8394],[87.7987,27.8635],[87.8142,27.891],[87.8259,27.9066],[87.8367,27.9083]]]}},{"type":"Feature","properties":{"id":"NPL-1132","name":"Narayani","nameBn":"নারায়ণী অঞ্চল","type":"Administrative Zone","bounds":[83.922,26.737,85.5175,27.8846],"center":[84.7202,27.3731]},"geometry":{"type":"Polygon","coordinates":[[[85.3554,26.7599],[85.3532,26.7576],[85.337,26.7468],[85.3024,26.7373],[85.2873,26.737],[85.1949,26.7589],[85.1657,26.7863],[85.1655,26.8208],[85.162,26.851],[85.1228,26.8657],[85.1002,26.8635],[85.044,26.8437],[85.0186,26.8458],[85.0169,26.8592],[85.018,26.8744],[85.0008,26.8822],[84.9882,26.8838],[84.9758,26.8869],[84.9527,26.8976],[84.9443,26.9157],[84.9386,26.9366],[84.924,26.9557],[84.9016,26.9672],[84.8518,26.9821],[84.8283,26.9948],[84.8281,26.9949],[84.8175,27.0106],[84.8019,27.0138],[84.7855,27.0085],[84.772,26.9992],[84.7607,26.999],[84.6402,27.0284],[84.6273,27.0365],[84.6215,27.058],[84.6304,27.0808],[84.6445,27.1037],[84.6544,27.1254],[84.6598,27.1651],[84.6577,27.2034],[84.6482,27.2407],[84.6319,27.277],[84.6065,27.3105],[84.577,27.329],[84.2894,27.3761],[84.2677,27.3886],[84.2489,27.4124],[84.239,27.4311],[84.2255,27.4404],[84.1953,27.4361],[84.1858,27.4386],[84.1751,27.463],[84.1657,27.4722],[84.1417,27.4808],[84.131,27.4864],[84.1216,27.495],[84.1172,27.5133],[84.0995,27.5169],[84.0796,27.5095],[84.0289,27.4537],[84.0077,27.4408],[83.9758,27.4397],[83.9359,27.4461],[83.923,27.45],[83.922,27.4497],[83.9229,27.4503],[83.9388,27.4617],[83.942,27.4725],[83.9409,27.4838],[83.9412,27.4953],[83.9487,27.5064],[83.9597,27.5187],[83.9563,27.5236],[83.9354,27.5238],[83.9257,27.5272],[83.9255,27.535],[83.931,27.5439],[83.9388,27.5505],[83.9472,27.5523],[83.959,27.5523],[84.0264,27.5441],[84.049,27.546],[84.0691,27.558],[84.1033,27.5368],[84.1156,27.549],[84.1565,27.6095],[84.179,27.633],[84.1957,27.6268],[84.2083,27.6355],[84.2268,27.6597],[84.239,27.6644],[84.2499,27.6639],[84.2622,27.6613],[84.2783,27.6597],[84.3059,27.6686],[84.3311,27.6857],[84.3565,27.6968],[84.3844,27.6877],[84.412,27.7031],[84.4219,27.7139],[84.426,27.7286],[84.4222,27.7403],[84.4127,27.7582],[84.4272,27.7626],[84.4614,27.759],[84.4656,27.7619],[84.4643,27.7677],[84.46,27.772],[84.4557,27.7755],[84.4508,27.7822],[84.447,27.792],[84.4494,27.8079],[84.457,27.8157],[84.5024,27.8326],[84.5561,27.8653],[84.577,27.8806],[84.5833,27.8827],[84.5922,27.8846],[84.603,27.8831],[84.6127,27.8804],[84.6215,27.8764],[84.6315,27.8703],[84.6428,27.8584],[84.6547,27.8417],[84.6524,27.8352],[84.6465,27.823],[84.6448,27.8172],[84.6442,27.8119],[84.6451,27.8052],[84.6491,27.7973],[84.6563,27.7868],[84.6692,27.7713],[84.6723,27.7632],[84.6729,27.7574],[84.6682,27.7501],[84.6687,27.7454],[84.6734,27.7411],[84.6896,27.7382],[84.7632,27.7355],[84.7736,27.731],[84.7811,27.7241],[84.7859,27.7184],[84.7978,27.6865],[84.8608,27.6808],[84.8728,27.6818],[84.8889,27.6862],[84.9105,27.6987],[84.9329,27.7037],[84.9538,27.7053],[84.9814,27.7133],[84.9923,27.7153],[85.0608,27.7182],[85.0743,27.7162],[85.0913,27.7117],[85.1431,27.6909],[85.1913,27.6821],[85.2022,27.6783],[85.2076,27.6729],[85.2127,27.6651],[85.2258,27.628],[85.2342,27.5652],[85.2359,27.5537],[85.2393,27.5476],[85.2438,27.541],[85.2486,27.5354],[85.2524,27.5299],[85.2549,27.5238],[85.2582,27.5007],[85.2585,27.4993],[85.2625,27.4897],[85.2724,27.4795],[85.2863,27.4687],[85.349,27.4371],[85.3923,27.4305],[85.4244,27.4253],[85.4544,27.4174],[85.4795,27.4058],[85.504,27.3847],[85.4576,27.3549],[85.4417,27.3378],[85.4401,27.3308],[85.4401,27.3218],[85.443,27.3131],[85.448,27.3067],[85.4568,27.3007],[85.4813,27.289],[85.4893,27.284],[85.4953,27.2791],[85.5003,27.2739],[85.5057,27.2648],[85.5113,27.2516],[85.5169,27.2284],[85.5175,27.2169],[85.5156,27.2085],[85.513,27.2041],[85.5111,27.199],[85.5093,27.1912],[85.5066,27.1656],[85.5003,27.1432],[85.4367,27.0642],[85.4223,27.0406],[85.4179,27.0291],[85.4157,27.0176],[85.4163,27.0098],[85.418,27.001],[85.42,26.9951],[85.4222,26.9858],[85.4238,26.9732],[85.4223,26.9557],[85.4186,26.9442],[85.4127,26.9332],[85.3801,26.8898],[85.3646,26.8532],[85.3556,26.8216],[85.3539,26.8012],[85.3553,26.7603],[85.3554,26.7599]]]}},{"type":"Feature","properties":{"id":"NPL-373","name":"Rapti","nameBn":"রাপ্তী অঞ্চল","type":"Administrative Zone","bounds":[81.9556,27.6664,83.1479,28.9852],"center":[82.5518,28.3268]},"geometry":{"type":"Polygon","coordinates":[[[82.6739,27.6965],[82.6521,27.7041],[82.5262,27.6752],[82.4407,27.6664],[82.4019,27.6772],[82.3479,27.726],[82.2704,27.7605],[82.151,27.8483],[82.1074,27.8636],[82.0904,27.8723],[82.0717,27.89],[82.0516,27.9052],[82.0502,27.9056],[82.0503,27.9058],[82.0554,27.9167],[82.0863,27.9436],[82.091,27.9465],[82.0966,27.9484],[82.1017,27.9484],[82.1204,27.9464],[82.129,27.9466],[82.1498,27.9503],[82.1602,27.9541],[82.1662,27.9577],[82.1726,27.9632],[82.1758,27.9674],[82.1781,27.9724],[82.1793,27.9776],[82.181,27.9992],[82.1805,28.0154],[82.1762,28.0282],[82.1678,28.0412],[82.122,28.0776],[82.1141,28.0824],[82.1049,28.0838],[82.0969,28.0841],[82.0882,28.0861],[82.0814,28.0917],[82.0648,28.1115],[82.0562,28.1186],[82.025,28.1404],[82.0171,28.149],[82.0132,28.1598],[82.0148,28.1691],[82.028,28.1879],[82.0421,28.2238],[82.095,28.2485],[82.0729,28.2798],[82.0618,28.3024],[82.0416,28.3229],[81.9807,28.3452],[81.9745,28.3545],[81.9745,28.3914],[81.9707,28.4029],[81.9655,28.4116],[81.9594,28.4179],[81.9556,28.4265],[81.9569,28.4338],[81.9639,28.442],[81.9731,28.4465],[81.998,28.4552],[82.0027,28.4581],[82.0091,28.4641],[82.0151,28.4748],[82.0195,28.4878],[82.0182,28.5095],[82.0141,28.5246],[81.9985,28.555],[81.9971,28.5634],[82.0011,28.5787],[82.0083,28.5937],[82.0438,28.6317],[82.0887,28.6158],[82.1022,28.6128],[82.1169,28.6113],[82.1605,28.6126],[82.1858,28.6248],[82.2064,28.6609],[82.2126,28.6691],[82.2185,28.675],[82.2367,28.6843],[82.2494,28.6939],[82.2694,28.7125],[82.3061,28.76],[82.3174,28.7696],[82.3753,28.8011],[82.4842,28.8768],[82.4966,28.8905],[82.5054,28.9082],[82.5095,28.9221],[82.5219,28.9484],[82.5681,28.9852],[82.6259,28.9696],[82.6394,28.9628],[82.6563,28.95],[82.6951,28.9147],[82.7004,28.9066],[82.7033,28.8937],[82.7035,28.8784],[82.7027,28.8649],[82.7041,28.8548],[82.7106,28.8464],[82.7576,28.8178],[82.772,28.8133],[82.7892,28.816],[82.7996,28.8193],[82.8125,28.8204],[82.8641,28.8164],[82.9247,28.8204],[82.939,28.8179],[82.9599,28.8113],[83.1089,28.7453],[83.1479,28.7371],[83.1432,28.7088],[83.1319,28.6885],[83.0993,28.6481],[83.0464,28.6272],[82.9928,28.6143],[82.9691,28.6044],[82.9579,28.5964],[82.9612,28.5893],[82.9719,28.5769],[82.9752,28.5702],[82.9756,28.5618],[82.9707,28.5518],[82.963,28.5483],[82.9519,28.5489],[82.9398,28.5476],[82.9241,28.5421],[82.9066,28.5271],[82.9007,28.517],[82.9013,28.5093],[82.9134,28.5001],[82.8892,28.4676],[82.8952,28.4578],[82.905,28.4502],[82.9173,28.4259],[82.9252,28.4169],[82.9382,28.406],[82.9454,28.3981],[82.9561,28.3709],[83.0489,28.3074],[83.0712,28.2885],[83.0843,28.2726],[83.0891,28.2456],[83.0765,28.2323],[83.0312,28.2131],[83.0183,28.2029],[83.011,28.1929],[83.0101,28.1831],[83.0139,28.1732],[83.0329,28.151],[83.0374,28.1417],[83.0388,28.1293],[83.0337,28.121],[83.0259,28.1137],[82.9994,28.0931],[82.9866,28.0585],[82.9817,28.0317],[82.9722,28.0002],[82.9752,27.9843],[82.982,27.9747],[82.9907,27.9691],[82.9975,27.9628],[83.0006,27.9571],[83.0034,27.9464],[82.999,27.9401],[82.9932,27.9356],[82.9605,27.9256],[82.9311,27.9096],[82.9192,27.9058],[82.9063,27.904],[82.8938,27.9047],[82.8703,27.9088],[82.846,27.9023],[82.8014,27.8677],[82.7671,27.8344],[82.7644,27.8304],[82.7624,27.8247],[82.7748,27.8165],[82.8209,27.7974],[82.844,27.7759],[82.8005,27.7633],[82.7508,27.7676],[82.7352,27.7659],[82.7165,27.7605],[82.7061,27.7556],[82.6987,27.7509],[82.6935,27.7454],[82.6894,27.7393],[82.6835,27.7279],[82.6763,27.7053],[82.674,27.6967],[82.6739,27.6965]]]}},{"type":"Feature","properties":{"id":"NPL-1133","name":"Sagarmatha","nameBn":"সগরমাথা অঞ্চল","type":"Administrative Zone","bounds":[86.1459,26.4146,87.1754,28.1068],"center":[86.6607,27.2719]},"geometry":{"type":"Polygon","coordinates":[[[86.662,28.1068],[86.6801,28.1057],[86.6996,28.0988],[86.7177,28.0883],[86.7317,28.0769],[86.736,28.0649],[86.7322,28.035],[86.7398,28.0215],[86.77,28.0121],[86.8405,28.0148],[86.8682,27.9949],[86.8682,27.9947],[86.8769,27.9706],[86.8931,27.9542],[86.9147,27.9451],[86.9404,27.9431],[86.9702,27.9474],[86.9821,27.9507],[86.982,27.9492],[86.9795,27.8864],[86.9905,27.8415],[86.9975,27.8214],[86.9993,27.8117],[86.9994,27.8061],[86.9941,27.7866],[86.9922,27.7634],[87.0003,27.7221],[87.0002,27.7082],[86.9984,27.6983],[86.9801,27.6397],[86.9608,27.539],[86.9561,27.5255],[86.9467,27.4852],[86.9427,27.4747],[86.9314,27.4626],[86.9131,27.4444],[86.9103,27.4385],[86.9061,27.424],[86.9178,27.3875],[86.9575,27.3267],[86.9608,27.31],[86.9601,27.2964],[86.9572,27.29],[86.9519,27.284],[86.9445,27.2802],[86.9356,27.2768],[86.928,27.2727],[86.9227,27.2668],[86.9193,27.2515],[86.9254,27.2068],[86.9246,27.1888],[86.9162,27.1281],[86.9189,27.1131],[86.9244,27.1006],[86.9437,27.0823],[86.9541,27.0702],[86.9583,27.0583],[86.9668,26.9064],[87.0006,26.9013],[87.1194,26.9258],[87.1547,26.9268],[87.1712,26.9209],[87.1754,26.9031],[87.1701,26.883],[87.1664,26.8759],[87.161,26.8548],[87.1601,26.8485],[87.1542,26.8367],[87.1401,26.8263],[87.1123,26.8106],[87.0425,26.7445],[87.0199,26.7355],[87.0041,26.723],[86.9814,26.6393],[86.9668,26.6173],[86.9617,26.6049],[86.9646,26.5949],[86.9679,26.588],[86.9696,26.5769],[86.9698,26.5653],[86.9684,26.5568],[86.9604,26.5465],[86.9382,26.5282],[86.9353,26.5207],[86.9352,26.5203],[86.9071,26.5115],[86.876,26.4949],[86.8657,26.4724],[86.8464,26.4526],[86.8219,26.4381],[86.7964,26.4315],[86.7872,26.4331],[86.7519,26.4455],[86.7382,26.4437],[86.7307,26.4338],[86.7241,26.422],[86.7136,26.4146],[86.6952,26.4182],[86.6253,26.4563],[86.5579,26.484],[86.538,26.4949],[86.5377,26.4949],[86.5243,26.5091],[86.5106,26.5201],[86.4949,26.5278],[86.4755,26.532],[86.4448,26.5431],[86.3836,26.5728],[86.3537,26.5826],[86.3448,26.5826],[86.3232,26.5801],[86.316,26.581],[86.309,26.588],[86.3086,26.6022],[86.3014,26.609],[86.2844,26.612],[86.2631,26.6091],[86.2252,26.5974],[86.2029,26.5846],[86.1959,26.5827],[86.1854,26.5844],[86.1793,26.5886],[86.1745,26.5933],[86.1678,26.5966],[86.1527,26.6007],[86.1464,26.6014],[86.1465,26.6017],[86.1478,26.6043],[86.1944,26.6941],[86.1978,26.7029],[86.199,26.7124],[86.1958,26.7243],[86.1905,26.7337],[86.1725,26.7582],[86.1659,26.7693],[86.1615,26.7807],[86.159,26.7908],[86.1581,26.8013],[86.1579,26.8515],[86.1553,26.8642],[86.1472,26.8849],[86.1459,26.891],[86.1464,26.8977],[86.1487,26.904],[86.1532,26.9115],[86.1666,26.926],[86.1754,26.9299],[86.1847,26.93],[86.2109,26.9195],[86.224,26.9166],[86.2336,26.9154],[86.2577,26.9237],[86.2867,26.961],[86.3131,26.9771],[86.3551,26.9884],[86.3612,26.9971],[86.3647,27.0117],[86.3641,27.0411],[86.357,27.0701],[86.3481,27.0951],[86.3435,27.1008],[86.3388,27.105],[86.3337,27.1087],[86.3306,27.1135],[86.3309,27.1192],[86.3582,27.1402],[86.3885,27.1732],[86.3942,27.1828],[86.3916,27.186],[86.3875,27.1899],[86.3561,27.2068],[86.3516,27.2104],[86.3441,27.2181],[86.3378,27.2269],[86.3292,27.2319],[86.3143,27.2363],[86.2819,27.2427],[86.2262,27.2417],[86.2099,27.2458],[86.2099,27.2522],[86.2356,27.2918],[86.2406,27.3078],[86.2431,27.3203],[86.2417,27.329],[86.2324,27.3508],[86.2308,27.3581],[86.231,27.3662],[86.2333,27.3751],[86.2418,27.3974],[86.2589,27.4313],[86.2742,27.4513],[86.3635,27.5256],[86.4135,27.5756],[86.428,27.5853],[86.4608,27.6142],[86.4679,27.6176],[86.4772,27.6203],[86.4985,27.6241],[86.5221,27.6313],[86.5348,27.6389],[86.5458,27.6523],[86.5559,27.6728],[86.566,27.702],[86.5738,27.7166],[86.5812,27.7266],[86.586,27.7344],[86.5897,27.7448],[86.5866,27.7611],[86.586,27.7819],[86.5769,27.8101],[86.5713,27.8609],[86.5716,27.888],[86.5646,27.9137],[86.5351,27.9551],[86.5168,27.9714],[86.5165,27.9947],[86.5162,28.0122],[86.5223,28.0237],[86.5309,28.0337],[86.5384,28.0472],[86.5407,28.0622],[86.5413,28.0782],[86.5442,28.093],[86.5536,28.1042],[86.5695,28.1066],[86.5831,28.098],[86.5969,28.0865],[86.6123,28.0803],[86.6271,28.0835],[86.6495,28.1012],[86.662,28.1068]]]}},{"type":"Feature","properties":{"id":"NPL-1129","name":"Seti","nameBn":"সেতী অঞ্চল","type":"District","bounds":[80.4927,28.3891,81.7885,30.0721],"center":[81.163,29.312]},"geometry":{"type":"Polygon","coordinates":[[[81.0845,30.0279],[81.0848,30.0262],[81.0978,30.0169],[81.1246,30.0228],[81.1481,30.0232],[81.1945,30.0045],[81.2168,30.0082],[81.2273,30.0225],[81.2257,30.0505],[81.2395,30.0588],[81.2571,30.0635],[81.2668,30.0699],[81.2679,30.0721],[81.2771,30.067],[81.299,30.0534],[81.3204,30.0457],[81.3294,30.0404],[81.3418,30.0311],[81.3497,30.0272],[81.359,30.025],[81.3918,30.0286],[81.4137,30.0286],[81.4197,30.0269],[81.423,30.0248],[81.4293,30.0088],[81.4392,29.9907],[81.4439,29.9844],[81.4481,29.9776],[81.4523,29.9687],[81.4543,29.9593],[81.4536,29.9482],[81.4506,29.9292],[81.4514,29.9208],[81.4557,29.9125],[81.4767,29.8989],[81.486,29.8943],[81.4937,29.8925],[81.4985,29.8927],[81.505,29.8962],[81.5302,29.9289],[81.5513,29.9397],[81.5623,29.9424],[81.5738,29.9438],[81.6486,29.9451],[81.6664,29.9426],[81.6787,29.9381],[81.6917,29.9295],[81.7085,29.9239],[81.747,29.9169],[81.7605,29.9131],[81.7705,29.9058],[81.7749,29.8964],[81.7755,29.8848],[81.7735,29.8768],[81.7696,29.8695],[81.7636,29.8628],[81.7561,29.8568],[81.7428,29.8477],[81.7371,29.8421],[81.7336,29.8343],[81.7312,29.8221],[81.7287,29.7901],[81.7241,29.7648],[81.6964,29.6875],[81.6956,29.679],[81.697,29.667],[81.7034,29.6497],[81.713,29.6377],[81.7243,29.6281],[81.7369,29.6205],[81.7533,29.6138],[81.7585,29.613],[81.778,29.6078],[81.7832,29.6016],[81.7875,29.5926],[81.7885,29.5713],[81.7875,29.5556],[81.781,29.5345],[81.7651,29.5211],[81.7254,29.4976],[81.7148,29.4844],[81.7086,29.468],[81.7057,29.4483],[81.7049,29.425],[81.7092,29.402],[81.719,29.3828],[81.7297,29.3668],[81.7238,29.3489],[81.6888,29.3395],[81.6715,29.3372],[81.6591,29.3378],[81.6487,29.3418],[81.6235,29.362],[81.616,29.3654],[81.6085,29.3673],[81.5893,29.3667],[81.5754,29.3646],[81.5341,29.3532],[81.5183,29.3429],[81.4875,29.3155],[81.4781,29.3047],[81.4737,29.2952],[81.4743,29.2851],[81.4784,29.275],[81.4866,29.2591],[81.4781,29.1977],[81.481,29.1817],[81.4852,29.1689],[81.4926,29.1636],[81.5224,29.1471],[81.5353,29.1379],[81.5486,29.1257],[81.4829,29.0832],[81.4684,29.0786],[81.4573,29.0708],[81.4101,29.024],[81.4078,29.0032],[81.4148,28.9808],[81.4273,28.963],[81.4411,28.9558],[81.4926,28.8868],[81.5283,28.8527],[81.5423,28.8325],[81.5479,28.8083],[81.5559,28.793],[81.5694,28.781],[81.572,28.7697],[81.5479,28.7565],[81.5316,28.7506],[81.5232,28.7492],[81.5131,28.7497],[81.5131,28.7565],[81.5258,28.7654],[81.5243,28.7711],[81.5131,28.777],[81.5166,28.8083],[81.4735,28.8523],[81.4585,28.8806],[81.4424,28.8985],[81.4258,28.9037],[81.3381,28.8943],[81.3283,28.8972],[81.3051,28.9107],[81.294,28.9148],[81.2721,28.9158],[81.2077,28.908],[81.1873,28.913],[81.1358,28.9489],[81.0955,28.9671],[81.0742,28.9737],[81.0541,28.9762],[81.0348,28.9716],[81.0136,28.9606],[80.9972,28.9471],[80.9923,28.9353],[81.0415,28.8896],[81.0783,28.8629],[81.0949,28.854],[81.109,28.8574],[81.1223,28.8644],[81.1358,28.8664],[81.1478,28.8565],[81.1615,28.83],[81.1705,28.8322],[81.2108,28.8117],[81.2069,28.8245],[81.1945,28.8467],[81.1904,28.8595],[81.2048,28.8526],[81.2182,28.8414],[81.228,28.8265],[81.2336,28.7931],[81.2446,28.7616],[81.2771,28.6972],[81.2803,28.6786],[81.2781,28.6586],[81.2719,28.6361],[81.2624,28.6272],[81.2555,28.6188],[81.1157,28.4839],[81.1038,28.4757],[81.0704,28.4576],[81.0594,28.4444],[81.0476,28.4055],[81.0471,28.3893],[81.0471,28.3891],[81.0004,28.397],[80.9932,28.4078],[80.9913,28.4203],[80.9878,28.431],[80.976,28.4369],[80.9605,28.4323],[80.9412,28.4327],[80.9213,28.4362],[80.9053,28.4408],[80.8867,28.4528],[80.8819,28.4668],[80.8804,28.4819],[80.8723,28.4969],[80.858,28.5024],[80.817,28.5026],[80.7984,28.5057],[80.7817,28.5147],[80.7435,28.55],[80.7271,28.5597],[80.6958,28.5675],[80.6786,28.5747],[80.6682,28.5863],[80.6483,28.6198],[80.6356,28.6279],[80.5985,28.6338],[80.5814,28.639],[80.5636,28.647],[80.5569,28.655],[80.5574,28.6643],[80.559,28.673],[80.5558,28.6789],[80.5344,28.6796],[80.5344,28.6799],[80.5344,28.6819],[80.536,28.7548],[80.5338,28.7668],[80.527,28.7865],[80.5213,28.7978],[80.507,28.8183],[80.502,28.827],[80.4995,28.833],[80.4973,28.8436],[80.4964,28.8566],[80.5022,28.931],[80.4927,28.9868],[80.509,29.0151],[80.5152,29.0356],[80.5211,29.0498],[80.5354,29.0643],[80.5396,29.0904],[80.5427,29.0969],[80.5499,29.1042],[80.5514,29.1118],[80.5568,29.1251],[80.5671,29.1379],[80.5942,29.1606],[80.6118,29.1692],[80.6598,29.1822],[80.6741,29.1902],[80.6873,29.2008],[80.7062,29.2237],[80.7177,29.2404],[80.7241,29.2598],[80.726,29.2725],[80.73,29.2866],[80.7367,29.3014],[80.7501,29.3222],[80.7646,29.3538],[80.7793,29.3666],[80.822,29.3788],[80.8543,29.3948],[80.8856,29.4306],[80.8361,29.4733],[80.8145,29.4999],[80.8125,29.5017],[80.8085,29.5043],[80.8026,29.506],[80.7808,29.5084],[80.7523,29.5148],[80.7415,29.5216],[80.7394,29.5313],[80.7475,29.5463],[80.7577,29.5549],[80.7646,29.5647],[80.7686,29.5766],[80.7687,29.5996],[80.7653,29.6151],[80.7611,29.6268],[80.756,29.6358],[80.7537,29.642],[80.7568,29.6512],[80.7605,29.6566],[80.7858,29.6745],[80.7989,29.6773],[80.8156,29.6747],[80.8279,29.6762],[80.8414,29.6813],[80.8614,29.6949],[80.8906,29.7062],[80.9284,29.7136],[80.9385,29.7142],[80.9476,29.7138],[80.9555,29.7145],[80.9651,29.7169],[80.9965,29.7324],[81.0033,29.7341],[81.025,29.7359],[81.0383,29.7394],[81.0496,29.7502],[81.0557,29.7667],[81.0546,29.8004],[81.0381,29.8563],[81.0341,29.8807],[81.0316,29.8907],[81.0271,29.9],[81.0208,29.908],[81.013,29.9143],[81.0054,29.9187],[81.0009,29.9223],[80.9999,29.9289],[81.0046,29.9418],[81.018,29.9642],[81.0473,30.0013],[81.063,30.0142],[81.0844,30.0278],[81.0845,30.0279]]]}}]}