{"type":"FeatureCollection","features":[{"type":"Feature","properties":{"id":"NRU-4972","name":"Aiwo","nameBn":"আয়ো জেলা","type":null,"bounds":[166.907,-0.537,166.9179,-0.5242],"center":[166.913,-0.5298]},"geometry":{"type":"Polygon","coordinates":[[[166.912,-0.537],[166.907,-0.5248],[166.9169,-0.5242],[166.9162,-0.5291],[166.9179,-0.5351],[166.912,-0.537]]]}},{"type":"Feature","properties":{"id":"NRU-4979","name":"Anabar","nameBn":"আনাবার জেলা","type":null,"bounds":[166.9388,-0.5042,166.9556,-0.4904],"center":[166.944,-0.4975]},"geometry":{"type":"Polygon","coordinates":[[[166.9388,-0.4904],[166.9556,-0.498],[166.939,-0.5042],[166.9388,-0.4904]]]}},{"type":"Feature","properties":{"id":"NRU-4978","name":"Anetan","nameBn":"আনেতান জেলা","type":null,"bounds":[166.9312,-0.5042,166.939,-0.4904],"center":[166.936,-0.4947]},"geometry":{"type":"Polygon","coordinates":[[[166.9312,-0.4933],[166.9388,-0.4904],[166.939,-0.5042],[166.9312,-0.4933]]]}},{"type":"Feature","properties":{"id":"NRU-4981","name":"Anibare","nameBn":"আনিবারে জেলা","type":null,"bounds":[166.9355,-0.5334,166.9583,-0.5042],"center":[166.947,-0.52]},"geometry":{"type":"Polygon","coordinates":[[[166.9574,-0.5113],[166.9583,-0.5177],[166.9532,-0.5334],[166.9453,-0.5323],[166.9355,-0.5298],[166.9361,-0.5252],[166.9365,-0.5224],[166.9368,-0.5202],[166.9372,-0.5165],[166.9376,-0.5137],[166.938,-0.5105],[166.939,-0.5042],[166.9467,-0.5087],[166.9574,-0.5113]]]}},{"type":"Feature","properties":{"id":"NRU-4976","name":"Baiti","nameBn":"বোইতি জেলা","type":null,"bounds":[166.9181,-0.5165,166.938,-0.4957],"center":[166.925,-0.5007]},"geometry":{"type":"Polygon","coordinates":[[[166.9181,-0.4984],[166.9251,-0.4957],[166.938,-0.5105],[166.9376,-0.5137],[166.9372,-0.5165],[166.9181,-0.4984]]]}},{"type":"Feature","properties":{"id":"NRU-4971","name":"Boe","nameBn":"বোয়ে জেলা","type":null,"bounds":[166.912,-0.5475,166.9201,-0.5351],"center":[166.916,-0.5386]},"geometry":{"type":"Polygon","coordinates":[[[166.9164,-0.5475],[166.912,-0.537],[166.9179,-0.5351],[166.9201,-0.5388],[166.9183,-0.5403],[166.9164,-0.5475]]]}},{"type":"Feature","properties":{"id":"NRU-4970","name":"Buada","nameBn":"বুয়াদা জেলা","type":null,"bounds":[166.9162,-0.5388,166.9361,-0.5207],"center":[166.925,-0.5279]},"geometry":{"type":"Polygon","coordinates":[[[166.9361,-0.5252],[166.9355,-0.5298],[166.9253,-0.5344],[166.9201,-0.5388],[166.9179,-0.5351],[166.9162,-0.5291],[166.9169,-0.5242],[166.9204,-0.5207],[166.9285,-0.5228],[166.9361,-0.5252]]]}},{"type":"Feature","properties":{"id":"NRU-4973","name":"Denigomodu","nameBn":"ডেনিগোমুদো জেলা","type":null,"bounds":[166.907,-0.5248,166.9204,-0.5121],"center":[166.914,-0.5203]},"geometry":{"type":"Polygon","coordinates":[[[166.907,-0.5248],[166.9103,-0.5121],[166.9204,-0.5207],[166.9169,-0.5242],[166.907,-0.5248]]]}},{"type":"Feature","properties":{"id":"NRU-4977","name":"Ewa","nameBn":"এওয়া জেলা","type":null,"bounds":[166.9251,-0.5105,166.939,-0.4933],"center":[166.934,-0.5021]},"geometry":{"type":"Polygon","coordinates":[[[166.9251,-0.4957],[166.9312,-0.4933],[166.939,-0.5042],[166.938,-0.5105],[166.9251,-0.4957]]]}},{"type":"Feature","properties":{"id":"NRU-4980","name":"Ijuw","nameBn":"ইজুউ জেলা","type":null,"bounds":[166.939,-0.5113,166.9574,-0.498],"center":[166.951,-0.5045]},"geometry":{"type":"Polygon","coordinates":[[[166.9556,-0.498],[166.9574,-0.5113],[166.9467,-0.5087],[166.939,-0.5042],[166.9556,-0.498]]]}},{"type":"Feature","properties":{"id":"NRU-4982","name":"Meneng","nameBn":"মেনেং জেলা","type":null,"bounds":[166.9253,-0.5519,166.9532,-0.5298],"center":[166.939,-0.5396]},"geometry":{"type":"Polygon","coordinates":[[[166.9532,-0.5334],[166.9513,-0.5392],[166.9388,-0.5519],[166.9326,-0.5507],[166.9253,-0.5344],[166.9355,-0.5298],[166.9453,-0.5323],[166.9532,-0.5334]]]}},{"type":"Feature","properties":{"id":"NRU-4974","name":"Nibok","nameBn":"নিবুক জেলা","type":null,"bounds":[166.9103,-0.5252,166.9368,-0.5002],"center":[166.921,-0.513]},"geometry":{"type":"Polygon","coordinates":[[[166.9103,-0.5121],[166.9134,-0.5002],[166.9368,-0.5202],[166.9365,-0.5224],[166.9361,-0.5252],[166.9285,-0.5228],[166.9204,-0.5207],[166.9103,-0.5121]]]}},{"type":"Feature","properties":{"id":"NRU-4975","name":"Uaboe","nameBn":"উয়াবুয়ে জেলা","type":null,"bounds":[166.9134,-0.5202,166.9372,-0.4984],"center":[166.924,-0.507]},"geometry":{"type":"Polygon","coordinates":[[[166.9134,-0.5002],[166.9181,-0.4984],[166.9372,-0.5165],[166.9368,-0.5202],[166.9134,-0.5002]]]}},{"type":"Feature","properties":{"id":"NRU-4983","name":"Yaren","nameBn":"ইয়ারেন জেলা","type":null,"bounds":[166.9164,-0.5507,166.9326,-0.5344],"center":[166.925,-0.5432]},"geometry":{"type":"Polygon","coordinates":[[[166.9326,-0.5507],[166.9164,-0.5475],[166.9183,-0.5403],[166.9201,-0.5388],[166.9253,-0.5344],[166.9326,-0.5507]]]}}]}