{"type":"FeatureCollection","features":[{"type":"Feature","properties":{"id":"PAN-1958","name":"Bocas del Toro","nameBn":"বোকাস ডেল টোরো প্রদেশ","type":"Province","bounds":[-82.9443,8.8088,-82.0067,9.6027],"center":[-82.6597,9.2074]},"geometry":{"type":"MultiPolygon","coordinates":[[[[-82.829,9.6027],[-82.7711,9.5799],[-82.7294,9.5449],[-82.7197,9.5413],[-82.7117,9.545],[-82.7015,9.5336],[-82.6887,9.5094],[-82.678,9.4978],[-82.6682,9.4932],[-82.6507,9.4878],[-82.6321,9.4847],[-82.6189,9.4867],[-82.6124,9.4995],[-82.6082,9.5379],[-82.6011,9.5487],[-82.5859,9.5462],[-82.5706,9.5382],[-82.5628,9.5387],[-82.5736,9.5762],[-82.5619,9.5691],[-82.4656,9.494],[-82.4066,9.4352],[-82.369,9.4149],[-82.3428,9.4325],[-82.3451,9.4154],[-82.3496,9.402],[-82.3768,9.3552],[-82.3795,9.3438],[-82.3763,9.3301],[-82.3678,9.3207],[-82.3564,9.3134],[-82.3481,9.3056],[-82.3489,9.2947],[-82.3625,9.2841],[-82.3876,9.2861],[-82.39,9.2748],[-82.3949,9.2671],[-82.3937,9.2621],[-82.3888,9.2601],[-82.383,9.2612],[-82.3732,9.2545],[-82.3645,9.2429],[-82.3581,9.2294],[-82.3558,9.2168],[-82.3506,9.2073],[-82.3148,9.1855],[-82.308,9.1855],[-82.3004,9.1971],[-82.2882,9.1986],[-82.2825,9.2021],[-82.2943,9.2203],[-82.281,9.2166],[-82.2759,9.2064],[-82.2731,9.1945],[-82.2664,9.1855],[-82.2555,9.1826],[-82.2479,9.187],[-82.2445,9.1976],[-82.246,9.2134],[-82.2391,9.2134],[-82.2381,9.2003],[-82.2311,9.1938],[-82.2231,9.1928],[-82.2192,9.1964],[-82.2187,9.2086],[-82.2169,9.2175],[-82.2125,9.22],[-82.2049,9.2134],[-82.204,9.2165],[-82.204,9.2192],[-82.2028,9.2207],[-82.1981,9.2203],[-82.1962,9.2112],[-82.1934,9.2041],[-82.1896,9.1983],[-82.1844,9.1929],[-82.1776,9.1929],[-82.1776,9.1998],[-82.1708,9.1998],[-82.1735,9.1848],[-82.1717,9.1574],[-82.1776,9.1452],[-82.2081,9.1638],[-82.2241,9.1697],[-82.2496,9.1718],[-82.2607,9.164],[-82.2638,9.1466],[-82.2607,9.1279],[-82.2534,9.1166],[-82.2534,9.1104],[-82.2589,9.1127],[-82.2738,9.1166],[-82.2685,9.1024],[-82.2445,9.0899],[-82.2391,9.0793],[-82.246,9.0141],[-82.2505,9.0152],[-82.2535,9.0163],[-82.2562,9.018],[-82.2602,9.021],[-82.243,9.0045],[-82.2188,8.9934],[-82.1947,8.991],[-82.1776,9.0006],[-82.1418,8.989],[-82.129,8.9814],[-82.1292,8.9732],[-82.1144,8.9508],[-82.1094,8.9453],[-82.107,8.9419],[-82.1054,8.9352],[-82.1019,8.9316],[-82.0978,8.9306],[-82.0867,8.9317],[-82.0676,8.9307],[-82.02,8.9453],[-82.0067,8.9466],[-82.0068,8.9465],[-82.0084,8.9419],[-82.0159,8.9194],[-82.0346,8.9081],[-82.0609,8.9025],[-82.1021,8.9025],[-82.1321,8.9006],[-82.1509,8.8912],[-82.164,8.8706],[-82.1696,8.8481],[-82.179,8.8444],[-82.1865,8.8556],[-82.1921,8.8819],[-82.1959,8.8912],[-82.209,8.8987],[-82.2109,8.9175],[-82.1996,8.925],[-82.1959,8.9419],[-82.2015,8.955],[-82.2259,8.97],[-82.2615,8.9775],[-82.2728,8.9869],[-82.2803,8.9981],[-82.3009,9.0019],[-82.3215,9.0094],[-82.3234,9.0244],[-82.3178,9.0394],[-82.3027,9.0506],[-82.2896,9.0675],[-82.2803,9.0806],[-82.2878,9.0844],[-82.3084,9.0919],[-82.3159,9.0994],[-82.3103,9.1144],[-82.314,9.1256],[-82.3234,9.1275],[-82.3384,9.1125],[-82.3515,9.0862],[-82.3534,9.0619],[-82.3796,9.0394],[-82.3928,9.0262],[-82.4265,9.0131],[-82.4396,9.0],[-82.4284,8.9888],[-82.4078,8.9812],[-82.3703,8.9681],[-82.3478,8.9494],[-82.3346,8.925],[-82.3309,8.9044],[-82.3384,8.8894],[-82.3478,8.8575],[-82.3553,8.8275],[-82.363,8.8088],[-82.4459,8.8465],[-82.4923,8.8613],[-82.5297,8.863],[-82.5408,8.8848],[-82.5516,8.8937],[-82.5677,8.8997],[-82.625,8.9028],[-82.6928,8.8943],[-82.7145,8.9162],[-82.7202,8.9202],[-82.7194,8.9215],[-82.7233,8.9309],[-82.7491,8.9741],[-82.7627,8.983],[-82.8082,8.9984],[-82.8541,9.032],[-82.8766,9.0419],[-82.8824,9.0453],[-82.8869,9.0515],[-82.8897,9.0594],[-82.8933,9.0669],[-82.9002,9.0721],[-82.9095,9.072],[-82.9394,9.0596],[-82.9395,9.0706],[-82.9417,9.2344],[-82.9432,9.3543],[-82.9443,9.4372],[-82.9417,9.4563],[-82.9333,9.4703],[-82.9146,9.4769],[-82.8613,9.4841],[-82.8464,9.4925],[-82.8448,9.5007],[-82.8494,9.5035],[-82.8559,9.5054],[-82.8602,9.5112],[-82.8671,9.5386],[-82.8793,9.5599],[-82.8774,9.5692],[-82.866,9.5851],[-82.8475,9.6007],[-82.829,9.6027]]],[[[-82.123,9.3227],[-82.0977,9.3112],[-82.0853,9.3027],[-82.0746,9.2885],[-82.094,9.2912],[-82.1142,9.2833],[-82.1302,9.2683],[-82.1388,9.2453],[-82.1436,9.2471],[-82.1544,9.2584],[-82.154,9.2592],[-82.1517,9.2599],[-82.1503,9.2644],[-82.1503,9.2873],[-82.154,9.2963],[-82.164,9.3022],[-82.164,9.3084],[-82.1503,9.3022],[-82.1593,9.3231],[-82.1743,9.3304],[-82.1926,9.3339],[-82.2118,9.3432],[-82.2118,9.3494],[-82.2062,9.3542],[-82.201,9.3562],[-82.196,9.3548],[-82.1913,9.3494],[-82.1825,9.3459],[-82.1744,9.3441],[-82.166,9.345],[-82.1566,9.3494],[-82.1467,9.3446],[-82.123,9.3227]]],[[[-82.3285,9.4121],[-82.3017,9.4323],[-82.2855,9.4389],[-82.2664,9.4394],[-82.2388,9.3987],[-82.2318,9.3734],[-82.246,9.3568],[-82.246,9.3494],[-82.2416,9.3445],[-82.2401,9.3419],[-82.2417,9.3381],[-82.246,9.3301],[-82.2597,9.3532],[-82.2808,9.3747],[-82.3285,9.4121]]],[[[-82.0472,9.1726],[-82.0524,9.1777],[-82.0518,9.1822],[-82.0455,9.1794],[-82.0415,9.1731],[-82.0358,9.1698],[-82.0289,9.1692],[-82.0254,9.1607],[-82.0231,9.1539],[-82.0162,9.1511],[-82.0088,9.1477],[-82.0105,9.1415],[-82.0197,9.1375],[-82.0271,9.1329],[-82.0329,9.1346],[-82.042,9.1409],[-82.0501,9.1459],[-82.0553,9.1539],[-82.0547,9.1618],[-82.0472,9.1726]]]]}},{"type":"Feature","properties":{"id":"PAN-1332","name":"Chiriquí","nameBn":"চিরিকুই প্রদেশ","type":"Province","bounds":[-83.0532,7.9973,-81.5105,8.9202],"center":[-82.0992,8.3082]},"geometry":{"type":"MultiPolygon","coordinates":[[[[-82.9892,8.2645],[-82.9955,8.2648],[-83.0011,8.2692],[-83.0108,8.2834],[-83.0161,8.289],[-83.0441,8.3054],[-83.0532,8.3151],[-83.0521,8.3276],[-83.0433,8.3347],[-82.9978,8.3602],[-82.9535,8.4021],[-82.9248,8.4167],[-82.8965,8.4254],[-82.8704,8.4381],[-82.8483,8.4652],[-82.8389,8.4946],[-82.836,8.5298],[-82.8419,8.5995],[-82.8498,8.6299],[-82.8622,8.6557],[-82.8789,8.6791],[-82.9103,8.7139],[-82.9192,8.7271],[-82.9242,8.7412],[-82.923,8.7562],[-82.9149,8.7648],[-82.8851,8.7832],[-82.8758,8.7939],[-82.8756,8.8075],[-82.8836,8.8124],[-82.8883,8.8169],[-82.8786,8.8298],[-82.8669,8.8381],[-82.7638,8.8799],[-82.7339,8.898],[-82.7202,8.9202],[-82.7145,8.9162],[-82.6928,8.8943],[-82.625,8.9028],[-82.5677,8.8997],[-82.5516,8.8937],[-82.5408,8.8848],[-82.5297,8.863],[-82.4923,8.8613],[-82.4459,8.8465],[-82.363,8.8088],[-82.3611,8.808],[-82.3178,8.7911],[-82.2998,8.7821],[-82.2817,8.777],[-82.2509,8.7723],[-82.2235,8.7689],[-82.2181,8.7703],[-82.204,8.7724],[-82.1962,8.7716],[-82.1549,8.7626],[-82.1532,8.7626],[-82.1396,8.7037],[-82.149,8.6194],[-82.1565,8.5898],[-82.1528,8.5687],[-82.1429,8.5573],[-82.1753,8.4825],[-82.1802,8.4579],[-82.164,8.4487],[-82.1328,8.4492],[-82.1003,8.4581],[-82.0837,8.4643],[-82.074,8.4675],[-82.0645,8.4615],[-82.0534,8.4468],[-82.0367,8.418],[-82.0215,8.4019],[-82.0178,8.3709],[-81.9971,8.34],[-81.9491,8.3278],[-81.8565,8.3269],[-81.83,8.3184],[-81.8134,8.2875],[-81.7843,8.264],[-81.7321,8.2622],[-81.7159,8.2781],[-81.7046,8.295],[-81.6896,8.2969],[-81.6805,8.2774],[-81.6559,8.2818],[-81.6336,8.2971],[-81.624,8.3137],[-81.6098,8.3478],[-81.5921,8.3719],[-81.5478,8.3857],[-81.5225,8.3793],[-81.5193,8.3417],[-81.5132,8.3107],[-81.5105,8.2812],[-81.5131,8.251],[-81.5155,8.2461],[-81.5171,8.2438],[-81.523,8.239],[-81.5732,8.1761],[-81.5979,8.1521],[-81.6019,8.1451],[-81.6061,8.1349],[-81.6318,8.035],[-81.6338,8.0227],[-81.638,8.0112],[-81.6425,8.003],[-81.6626,7.9977],[-81.6636,7.9973],[-81.6705,8.0068],[-81.6848,8.0446],[-81.691,8.0546],[-81.6971,8.0391],[-81.6984,8.031],[-81.6979,8.0211],[-81.7084,8.0313],[-81.7085,8.0458],[-81.7104,8.0598],[-81.7257,8.0683],[-81.7257,8.0757],[-81.7173,8.0708],[-81.7095,8.0686],[-81.7029,8.07],[-81.6979,8.0757],[-81.691,8.0757],[-81.6876,8.0728],[-81.6854,8.0716],[-81.6774,8.0683],[-81.7115,8.1303],[-81.7336,8.1577],[-81.7434,8.1732],[-81.7462,8.1918],[-81.7525,8.1918],[-81.7582,8.1806],[-81.7606,8.1696],[-81.7575,8.1612],[-81.7462,8.1577],[-81.7524,8.149],[-81.7675,8.1328],[-81.7742,8.1235],[-81.7804,8.1235],[-81.7983,8.1371],[-81.8766,8.1679],[-81.8854,8.1733],[-81.927,8.1832],[-81.9412,8.185],[-81.9518,8.1914],[-81.9479,8.2062],[-81.9312,8.2333],[-81.9433,8.2296],[-81.9567,8.221],[-81.9676,8.2091],[-81.9722,8.1955],[-81.9784,8.1925],[-81.9922,8.2011],[-82.0132,8.2191],[-82.0279,8.2083],[-82.0603,8.2103],[-82.0931,8.2204],[-82.1094,8.2333],[-82.1156,8.2333],[-82.1173,8.2152],[-82.1424,8.1601],[-82.1446,8.1619],[-82.1489,8.1641],[-82.1503,8.1645],[-82.1503,8.1577],[-82.1565,8.1577],[-82.1472,8.1809],[-82.1476,8.1883],[-82.1565,8.185],[-82.1554,8.1932],[-82.1538,8.1993],[-82.1504,8.2033],[-82.1435,8.2054],[-82.1435,8.2129],[-82.1569,8.2117],[-82.1741,8.2017],[-82.1879,8.1992],[-82.1965,8.2022],[-82.2093,8.2155],[-82.2192,8.2191],[-82.2192,8.2259],[-82.2141,8.2274],[-82.2096,8.2311],[-82.2049,8.2333],[-82.2165,8.2642],[-82.2176,8.2782],[-82.2118,8.288],[-82.2118,8.2948],[-82.2176,8.2993],[-82.2188,8.3043],[-82.2164,8.3098],[-82.2118,8.3153],[-82.2106,8.3126],[-82.2108,8.3099],[-82.2098,8.3081],[-82.2049,8.3085],[-82.2098,8.3218],[-82.2086,8.3321],[-82.2006,8.3393],[-82.1844,8.3432],[-82.2079,8.3439],[-82.2201,8.343],[-82.2255,8.3395],[-82.2414,8.3067],[-82.2425,8.3011],[-82.262,8.3028],[-82.2771,8.3093],[-82.2844,8.3222],[-82.2801,8.3432],[-82.2965,8.3362],[-82.314,8.3308],[-82.3317,8.3298],[-82.3489,8.3358],[-82.3471,8.3292],[-82.345,8.315],[-82.3428,8.3085],[-82.3587,8.3061],[-82.3872,8.2914],[-82.4001,8.288],[-82.4189,8.293],[-82.4333,8.3043],[-82.4353,8.3161],[-82.4172,8.3228],[-82.4172,8.3289],[-82.4257,8.3323],[-82.4303,8.3382],[-82.4318,8.3462],[-82.4309,8.3563],[-82.441,8.3487],[-82.4426,8.3363],[-82.447,8.3236],[-82.4656,8.3153],[-82.4656,8.3085],[-82.4614,8.3029],[-82.4574,8.296],[-82.4541,8.2885],[-82.452,8.2812],[-82.4709,8.2771],[-82.4778,8.2774],[-82.4861,8.2812],[-82.5117,8.2764],[-82.5526,8.2874],[-82.6227,8.3153],[-82.6589,8.3228],[-82.6986,8.3228],[-82.738,8.3174],[-82.8087,8.2957],[-82.839,8.2785],[-82.8625,8.2541],[-82.8772,8.2191],[-82.8799,8.1779],[-82.8728,8.1359],[-82.8492,8.0683],[-82.8492,8.062],[-82.8621,8.0489],[-82.8682,8.0324],[-82.8769,8.0239],[-82.8976,8.0347],[-82.8914,8.0575],[-82.8864,8.1022],[-82.9391,8.2168],[-82.9437,8.2486],[-82.9505,8.2588],[-82.968,8.268],[-82.9771,8.2692],[-82.9892,8.2645]]],[[[-82.2118,8.1992],[-82.233,8.2053],[-82.2471,8.2067],[-82.2534,8.2023],[-82.2533,8.1933],[-82.2526,8.1884],[-82.246,8.1713],[-82.2738,8.1918],[-82.2814,8.1935],[-82.3014,8.1961],[-82.308,8.1992],[-82.3157,8.2149],[-82.3065,8.2241],[-82.2738,8.2333],[-82.2596,8.227],[-82.2389,8.2206],[-82.2201,8.2121],[-82.2118,8.1992]]],[[[-82.3428,8.26],[-82.3148,8.2402],[-82.3349,8.2351],[-82.3697,8.2169],[-82.3865,8.2129],[-82.3983,8.2182],[-82.4125,8.231],[-82.4247,8.2466],[-82.4309,8.26],[-82.4247,8.26],[-82.4019,8.2571],[-82.35,8.2936],[-82.3285,8.288],[-82.3165,8.2773],[-82.3172,8.2676],[-82.3271,8.2629],[-82.3428,8.2675],[-82.3428,8.26]]],[[[-82.362,8.0869],[-82.3592,8.099],[-82.3524,8.112],[-82.3431,8.1234],[-82.3323,8.1297],[-82.3207,8.1303],[-82.3183,8.124],[-82.3194,8.1131],[-82.3182,8.0999],[-82.3365,8.0919],[-82.3475,8.0883],[-82.362,8.0869]]]]}},{"type":"Feature","properties":{"id":"PAN-1336","name":"Coclé","nameBn":"কোক্লে প্রদেশ","type":"Province","bounds":[-80.8221,8.0914,-80.0408,9.0475],"center":[-80.4314,8.5771]},"geometry":{"type":"Polygon","coordinates":[[[-80.0408,8.398],[-80.0809,8.3718],[-80.1258,8.3486],[-80.1955,8.3129],[-80.225,8.3011],[-80.2727,8.2948],[-80.2816,8.2959],[-80.2945,8.3004],[-80.3,8.3011],[-80.3088,8.2987],[-80.3263,8.2903],[-80.3342,8.288],[-80.3615,8.2948],[-80.3747,8.3034],[-80.3807,8.3104],[-80.3758,8.3153],[-80.3858,8.3113],[-80.3863,8.307],[-80.3848,8.3016],[-80.3888,8.2948],[-80.407,8.283],[-80.4702,8.2206],[-80.4782,8.2023],[-80.4748,8.1065],[-80.4761,8.0949],[-80.4785,8.0914],[-80.4914,8.0952],[-80.5146,8.1105],[-80.5264,8.1164],[-80.5322,8.1153],[-80.5436,8.1067],[-80.5495,8.1061],[-80.5585,8.1128],[-80.5773,8.1328],[-80.5912,8.1385],[-80.6097,8.1373],[-80.6464,8.1253],[-80.6627,8.1241],[-80.687,8.1326],[-80.7341,8.1635],[-80.7381,8.1807],[-80.7119,8.2271],[-80.6974,8.2772],[-80.6935,8.3093],[-80.718,8.3489],[-80.7567,8.4502],[-80.7801,8.4914],[-80.8005,8.5186],[-80.8221,8.5377],[-80.8103,8.5483],[-80.7787,8.5533],[-80.7513,8.5864],[-80.7394,8.6152],[-80.7158,8.6138],[-80.7057,8.6299],[-80.695,8.6418],[-80.6926,8.652],[-80.6948,8.6633],[-80.6961,8.6754],[-80.6949,8.6938],[-80.6853,8.7151],[-80.6775,8.7383],[-80.667,8.7523],[-80.6517,8.767],[-80.6402,8.7721],[-80.6304,8.7739],[-80.612,8.7703],[-80.6008,8.7693],[-80.5861,8.7697],[-80.5694,8.7746],[-80.5551,8.7816],[-80.5425,8.791],[-80.5359,8.8059],[-80.5327,8.8212],[-80.5347,8.8524],[-80.5379,8.8613],[-80.5414,8.8665],[-80.5434,8.8708],[-80.5422,8.8806],[-80.531,8.917],[-80.5239,8.9249],[-80.5156,8.9266],[-80.4245,8.8927],[-80.4114,8.8846],[-80.3897,8.8783],[-80.3648,8.8747],[-80.3555,8.8719],[-80.3417,8.8766],[-80.3255,8.8888],[-80.2465,8.9635],[-80.2328,8.9733],[-80.2221,8.9784],[-80.2146,8.9858],[-80.2076,8.9984],[-80.2024,9.0273],[-80.1922,9.0475],[-80.1782,9.0218],[-80.1773,9.0108],[-80.1705,8.9763],[-80.1642,8.9657],[-80.1575,8.9595],[-80.1498,8.9545],[-80.1375,8.9492],[-80.1331,8.9222],[-80.1557,8.8889],[-80.1618,8.8723],[-80.1645,8.8544],[-80.1637,8.8307],[-80.1376,8.7554],[-80.1125,8.643],[-80.1068,8.6264],[-80.1031,8.5919],[-80.1044,8.583],[-80.1047,8.5513],[-80.0956,8.5266],[-80.092,8.4709],[-80.0865,8.4553],[-80.0817,8.4456],[-80.0408,8.398]]]}},{"type":"Feature","properties":{"id":"PAN-1337","name":"Colón","nameBn":"কোলন প্রদেশ","type":"Province","bounds":[-80.8626,8.6138,-79.0745,9.6293],"center":[-79.9683,9.1702]},"geometry":{"type":"Polygon","coordinates":[[[-80.5793,9.0807],[-80.5068,9.1109],[-80.4083,9.1423],[-80.2926,9.1514],[-80.2775,9.1564],[-80.2448,9.1751],[-80.2349,9.1793],[-80.1999,9.1832],[-80.1629,9.1929],[-80.1297,9.2062],[-80.1008,9.2223],[-80.0652,9.2625],[-80.0262,9.2966],[-80.0008,9.3205],[-79.9985,9.3318],[-79.9789,9.3634],[-79.9537,9.3734],[-79.9474,9.3728],[-79.9438,9.3636],[-79.9459,9.3259],[-79.9438,9.3159],[-79.9382,9.3091],[-79.9294,9.3041],[-79.9192,9.3032],[-79.909,9.3084],[-79.9016,9.3266],[-79.9003,9.3468],[-79.8947,9.3564],[-79.8749,9.3432],[-79.8771,9.3516],[-79.8795,9.3688],[-79.8817,9.3773],[-79.8793,9.3754],[-79.8749,9.3711],[-79.868,9.3773],[-79.8804,9.3946],[-79.8712,9.4042],[-79.8598,9.3991],[-79.8409,9.4007],[-79.8186,9.391],[-79.8004,9.3608],[-79.793,9.3494],[-79.797,9.3713],[-79.8022,9.3867],[-79.8027,9.4006],[-79.793,9.4182],[-79.7781,9.4316],[-79.7483,9.4425],[-79.7315,9.453],[-79.7294,9.456],[-79.7266,9.4634],[-79.7247,9.4667],[-79.7213,9.4692],[-79.7147,9.4798],[-79.7055,9.4855],[-79.6906,9.4958],[-79.6843,9.5215],[-79.6774,9.5456],[-79.6597,9.5524],[-79.6517,9.5597],[-79.6565,9.565],[-79.6677,9.5608],[-79.6765,9.5584],[-79.6822,9.5645],[-79.6757,9.5687],[-79.6698,9.5729],[-79.6645,9.5834],[-79.65,9.5896],[-79.6389,9.5985],[-79.6303,9.6085],[-79.6122,9.6137],[-79.5962,9.6115],[-79.5765,9.6178],[-79.551,9.6293],[-79.5329,9.6243],[-79.528,9.6125],[-79.5226,9.6029],[-79.5225,9.5953],[-79.5329,9.5895],[-79.5329,9.5833],[-79.5231,9.579],[-79.5228,9.5767],[-79.5192,9.5691],[-79.5143,9.5725],[-79.5107,9.5745],[-79.5079,9.5774],[-79.505,9.5833],[-79.4982,9.5833],[-79.492,9.5787],[-79.4839,9.575],[-79.464,9.5691],[-79.4635,9.5777],[-79.4565,9.5964],[-79.4512,9.5874],[-79.4446,9.5838],[-79.4372,9.5847],[-79.4298,9.5895],[-79.3919,9.5805],[-79.336,9.5744],[-79.2728,9.557],[-79.2397,9.5455],[-79.1938,9.5396],[-79.175,9.5494],[-79.1563,9.555],[-79.1333,9.5534],[-79.116,9.5519],[-79.0988,9.556],[-79.0801,9.5616],[-79.0745,9.562],[-79.0745,9.5413],[-79.075,9.4573],[-79.0789,9.451],[-79.087,9.4488],[-79.0955,9.4477],[-79.1022,9.4459],[-79.1126,9.4395],[-79.1209,9.4315],[-79.1322,9.4152],[-79.1356,9.4055],[-79.1373,9.3899],[-79.1391,9.3835],[-79.1421,9.3779],[-79.1481,9.372],[-79.1571,9.3666],[-79.1762,9.3602],[-79.1927,9.3527],[-79.2204,9.3356],[-79.2393,9.3205],[-79.2435,9.3206],[-79.247,9.3307],[-79.2398,9.3397],[-79.2387,9.3441],[-79.2381,9.3497],[-79.2393,9.3567],[-79.2427,9.3636],[-79.2481,9.3689],[-79.2571,9.3722],[-79.2616,9.3757],[-79.2615,9.381],[-79.2538,9.3913],[-79.2521,9.3966],[-79.2567,9.4024],[-79.2669,9.4073],[-79.2902,9.4151],[-79.3078,9.4149],[-79.3182,9.4122],[-79.3286,9.4039],[-79.3349,9.4023],[-79.3588,9.4025],[-79.3681,9.4006],[-79.3845,9.3949],[-79.3914,9.394],[-79.3961,9.3959],[-79.3988,9.403],[-79.3973,9.409],[-79.3938,9.4142],[-79.3884,9.4176],[-79.376,9.4229],[-79.3714,9.4254],[-79.3697,9.4283],[-79.3712,9.4325],[-79.3812,9.4453],[-79.3846,9.4509],[-79.3912,9.4595],[-79.3997,9.4661],[-79.4161,9.4725],[-79.4408,9.479],[-79.4852,9.4694],[-79.5225,9.4543],[-79.5485,9.3659],[-79.5506,9.3556],[-79.5499,9.3483],[-79.5472,9.3445],[-79.5475,9.3339],[-79.5519,9.3183],[-79.5651,9.2846],[-79.57,9.2636],[-79.5719,9.2488],[-79.5675,9.231],[-79.5688,9.2239],[-79.5737,9.2182],[-79.5877,9.2121],[-79.6047,9.2071],[-79.6223,9.199],[-79.6293,9.1936],[-79.6352,9.1899],[-79.6416,9.1626],[-79.6698,9.1282],[-79.6879,9.116],[-79.7047,9.11],[-79.7562,9.1092],[-79.7782,9.1144],[-79.7895,9.1262],[-79.8086,9.1581],[-79.8191,9.1679],[-79.83,9.1732],[-79.858,9.1793],[-79.8893,9.194],[-79.9059,9.1906],[-79.9207,9.1752],[-79.9627,9.0835],[-79.9573,9.0662],[-79.949,9.0507],[-79.9455,9.0391],[-79.9452,9.0237],[-79.9506,9.008],[-79.9559,8.997],[-79.9854,8.9778],[-80.0222,8.9662],[-80.0502,8.9683],[-80.0927,8.9837],[-80.1375,8.9492],[-80.1498,8.9545],[-80.1575,8.9595],[-80.1642,8.9657],[-80.1705,8.9763],[-80.1773,9.0108],[-80.1782,9.0218],[-80.1922,9.0475],[-80.2024,9.0273],[-80.2076,8.9984],[-80.2146,8.9858],[-80.2221,8.9784],[-80.2328,8.9733],[-80.2465,8.9635],[-80.3255,8.8888],[-80.3417,8.8766],[-80.3555,8.8719],[-80.3648,8.8747],[-80.3897,8.8783],[-80.4114,8.8846],[-80.4245,8.8927],[-80.5156,8.9266],[-80.5239,8.9249],[-80.531,8.917],[-80.5422,8.8806],[-80.5434,8.8708],[-80.5414,8.8665],[-80.5379,8.8613],[-80.5347,8.8524],[-80.5327,8.8212],[-80.5359,8.8059],[-80.5425,8.791],[-80.5551,8.7816],[-80.5694,8.7746],[-80.5861,8.7697],[-80.6008,8.7693],[-80.612,8.7703],[-80.6304,8.7739],[-80.6402,8.7721],[-80.6517,8.767],[-80.667,8.7523],[-80.6775,8.7383],[-80.6853,8.7151],[-80.6949,8.6938],[-80.6961,8.6754],[-80.6948,8.6633],[-80.6926,8.652],[-80.695,8.6418],[-80.7057,8.6299],[-80.7158,8.6138],[-80.7394,8.6152],[-80.7239,8.6461],[-80.7258,8.653],[-80.7279,8.6586],[-80.7334,8.6644],[-80.7381,8.6725],[-80.742,8.6908],[-80.7386,8.7028],[-80.7329,8.7149],[-80.7282,8.7301],[-80.7335,8.7446],[-80.7404,8.7557],[-80.7615,8.7795],[-80.769,8.7841],[-80.7803,8.7889],[-80.7978,8.7946],[-80.8151,8.8026],[-80.8334,8.8146],[-80.8407,8.8209],[-80.8512,8.8327],[-80.8568,8.8441],[-80.8603,8.8536],[-80.8617,8.8742],[-80.862,8.8769],[-80.8626,8.8851],[-80.8449,8.8845],[-80.8224,8.8907],[-80.8129,8.9027],[-80.8043,8.9124],[-80.7836,8.9392],[-80.7726,8.9534],[-80.7625,8.9595],[-80.7591,8.9627],[-80.7558,8.9698],[-80.7506,8.9769],[-80.7417,8.98],[-80.7268,8.9972],[-80.7035,9.0081],[-80.6671,9.0297],[-80.6532,9.0353],[-80.6371,9.0517],[-80.5793,9.0807]]]}},{"type":"Feature","properties":{"id":"PAN-1418","name":"Darién","nameBn":"ডোরিয়েন প্রদেশ","type":"Province","bounds":[-78.4585,7.2351,-77.1633,9.0732],"center":[-77.7067,7.9019]},"geometry":{"type":"Polygon","coordinates":[[[-77.2694,8.1677],[-77.2601,8.154],[-77.2311,8.0987],[-77.2096,8.0207],[-77.2078,7.9966],[-77.2012,7.982],[-77.1915,7.9728],[-77.1808,7.9651],[-77.1711,7.9549],[-77.1633,7.9393],[-77.169,7.9351],[-77.2061,7.9355],[-77.2361,7.9292],[-77.2697,7.9181],[-77.3004,7.9021],[-77.3216,7.881],[-77.3472,7.8238],[-77.3766,7.7866],[-77.3799,7.7744],[-77.3665,7.7451],[-77.346,7.7257],[-77.3397,7.7072],[-77.3691,7.6808],[-77.5093,7.5941],[-77.5549,7.5485],[-77.58,7.5284],[-77.6027,7.5261],[-77.6133,7.5375],[-77.6255,7.5874],[-77.6331,7.6007],[-77.6608,7.638],[-77.6634,7.6399],[-77.6719,7.642],[-77.6748,7.6447],[-77.6748,7.6484],[-77.6706,7.6573],[-77.6702,7.6599],[-77.6799,7.671],[-77.7299,7.7133],[-77.7402,7.7189],[-77.7642,7.7057],[-77.7705,7.669],[-77.7658,7.6265],[-77.7568,7.5956],[-77.7342,7.5518],[-77.7312,7.5303],[-77.7402,7.5046],[-77.7551,7.4861],[-77.7742,7.4747],[-77.7963,7.4713],[-77.8202,7.4765],[-77.855,7.3654],[-77.8958,7.2351],[-77.8966,7.2353],[-77.9188,7.2416],[-77.9476,7.2676],[-77.9905,7.3209],[-78.0065,7.3325],[-78.0144,7.341],[-78.0178,7.3523],[-78.0155,7.3627],[-78.0115,7.3732],[-78.0098,7.3835],[-78.0144,7.3935],[-78.0201,7.3979],[-78.0229,7.396],[-78.0249,7.392],[-78.028,7.3898],[-78.0359,7.393],[-78.0382,7.3994],[-78.0361,7.4046],[-78.0315,7.4041],[-78.0434,7.4223],[-78.05,7.4259],[-78.0594,7.4178],[-78.0655,7.4178],[-78.0897,7.4452],[-78.1056,7.4594],[-78.1174,7.4656],[-78.1207,7.4699],[-78.1232,7.4795],[-78.1279,7.4892],[-78.1378,7.4935],[-78.1442,7.4979],[-78.1491,7.5079],[-78.1556,7.5277],[-78.1618,7.5277],[-78.1661,7.5126],[-78.1683,7.5224],[-78.1693,7.5574],[-78.1742,7.5754],[-78.1848,7.5794],[-78.1944,7.5714],[-78.1965,7.5537],[-78.202,7.5668],[-78.2003,7.5762],[-78.1966,7.5849],[-78.1965,7.5959],[-78.2003,7.6064],[-78.2045,7.6121],[-78.2164,7.6225],[-78.2377,7.6499],[-78.2523,7.661],[-78.2716,7.6636],[-78.2693,7.6745],[-78.2736,7.6828],[-78.2821,7.6885],[-78.2921,7.6915],[-78.2826,7.7106],[-78.2775,7.7244],[-78.2781,7.7374],[-78.2853,7.7541],[-78.3153,7.7999],[-78.3201,7.8113],[-78.3294,7.8432],[-78.3511,7.8702],[-78.376,7.8942],[-78.3945,7.9174],[-78.4076,7.9482],[-78.4156,7.9801],[-78.416,7.9922],[-78.4136,8.0036],[-78.4156,8.0136],[-78.4336,8.0458],[-78.4361,8.0583],[-78.4308,8.0771],[-78.4191,8.0954],[-78.4073,8.1022],[-78.3957,8.0699],[-78.3813,8.0636],[-78.3652,8.066],[-78.3536,8.0757],[-78.3252,8.0609],[-78.2864,8.0807],[-78.2522,8.1175],[-78.2375,8.154],[-78.2394,8.1744],[-78.2447,8.1869],[-78.2533,8.1958],[-78.2648,8.2054],[-78.2941,8.2392],[-78.3058,8.2464],[-78.3058,8.2539],[-78.2786,8.251],[-78.2701,8.2524],[-78.2574,8.26],[-78.2574,8.2675],[-78.2632,8.2703],[-78.2661,8.2733],[-78.2682,8.2767],[-78.2716,8.2812],[-78.2637,8.2843],[-78.2613,8.2847],[-78.2574,8.2948],[-78.2489,8.2892],[-78.2375,8.2785],[-78.2307,8.2744],[-78.2219,8.2719],[-78.2142,8.2722],[-78.1997,8.2744],[-78.1981,8.2783],[-78.1859,8.2951],[-78.1829,8.2979],[-78.1844,8.3253],[-78.1829,8.3358],[-78.18,8.3376],[-78.1618,8.3563],[-78.1575,8.3655],[-78.1558,8.3743],[-78.1556,8.3941],[-78.1514,8.3995],[-78.1419,8.404],[-78.1325,8.4053],[-78.1283,8.4009],[-78.1233,8.3645],[-78.1208,8.3563],[-78.111,8.348],[-78.0946,8.3391],[-78.0767,8.3319],[-78.0625,8.3289],[-78.051,8.3225],[-78.0425,8.3074],[-78.0249,8.2597],[-78.0151,8.2465],[-78.0026,8.237],[-77.9874,8.2333],[-77.9827,8.2353],[-77.972,8.2385],[-77.9613,8.238],[-77.9535,8.2238],[-77.9466,8.2184],[-77.9377,8.2144],[-77.9291,8.2129],[-77.9154,8.2129],[-77.9154,8.2191],[-77.9307,8.2224],[-77.9447,8.2305],[-77.9559,8.2416],[-77.9626,8.2539],[-77.9126,8.2443],[-77.886,8.2347],[-77.869,8.2155],[-77.8451,8.2026],[-77.8397,8.1955],[-77.8387,8.1806],[-77.8356,8.1701],[-77.8293,8.1628],[-77.8192,8.1577],[-77.8084,8.1638],[-77.7973,8.1577],[-77.7886,8.144],[-77.785,8.1269],[-77.7781,8.1158],[-77.7626,8.1119],[-77.7464,8.1164],[-77.7372,8.1303],[-77.7651,8.1301],[-77.8019,8.1744],[-77.8192,8.1713],[-77.8706,8.2358],[-77.8807,8.2433],[-77.8954,8.2515],[-77.9843,8.2675],[-78.0059,8.276],[-78.0232,8.2905],[-78.0347,8.3096],[-78.0389,8.3323],[-78.0607,8.3759],[-78.067,8.4027],[-78.0519,8.4177],[-78.0627,8.4247],[-78.0748,8.4345],[-78.0859,8.4464],[-78.0941,8.4593],[-78.0985,8.4758],[-78.0956,8.4852],[-78.09,8.4919],[-78.0867,8.5002],[-78.0881,8.5128],[-78.0939,8.5159],[-78.1029,8.5181],[-78.114,8.5276],[-78.1189,8.5388],[-78.1199,8.5483],[-78.1231,8.5561],[-78.1344,8.5617],[-78.1304,8.5525],[-78.1295,8.5273],[-78.1245,8.5176],[-78.1112,8.509],[-78.1062,8.508],[-78.1058,8.505],[-78.1065,8.4721],[-78.1048,8.4634],[-78.0909,8.4309],[-78.0896,8.4204],[-78.0941,8.4109],[-78.1003,8.4109],[-78.1193,8.4425],[-78.1314,8.4581],[-78.1413,8.4661],[-78.1569,8.4662],[-78.1702,8.4577],[-78.1794,8.4421],[-78.1829,8.4211],[-78.1889,8.4057],[-78.2038,8.3939],[-78.2226,8.3863],[-78.2406,8.3835],[-78.2491,8.3869],[-78.2528,8.3947],[-78.253,8.4038],[-78.2511,8.4109],[-78.2454,8.4177],[-78.2164,8.432],[-78.2125,8.4287],[-78.2098,8.427],[-78.2027,8.4245],[-78.2015,8.4573],[-78.2067,8.4877],[-78.2233,8.5418],[-78.2307,8.5418],[-78.2377,8.5275],[-78.2328,8.5184],[-78.2233,8.5106],[-78.2164,8.5002],[-78.2178,8.4825],[-78.2256,8.4682],[-78.2305,8.4564],[-78.2233,8.4456],[-78.2233,8.4382],[-78.2264,8.436],[-78.2298,8.4344],[-78.2375,8.432],[-78.2419,8.44],[-78.2479,8.4445],[-78.2536,8.4478],[-78.2574,8.4519],[-78.2606,8.4606],[-78.2589,8.4617],[-78.255,8.4614],[-78.2511,8.4661],[-78.2404,8.4853],[-78.2416,8.4948],[-78.2574,8.5002],[-78.2526,8.4877],[-78.2548,8.4819],[-78.2601,8.4784],[-78.2648,8.473],[-78.2785,8.4456],[-78.2945,8.4433],[-78.3033,8.4543],[-78.3126,8.4866],[-78.3201,8.4792],[-78.321,8.4663],[-78.3348,8.4462],[-78.353,8.4289],[-78.3673,8.4245],[-78.3765,8.4413],[-78.3869,8.5005],[-78.3945,8.5207],[-78.3907,8.5275],[-78.3883,8.5344],[-78.3945,8.5344],[-78.3945,8.5276],[-78.402,8.5276],[-78.402,8.548],[-78.4082,8.548],[-78.412,8.5235],[-78.3938,8.4739],[-78.3841,8.426],[-78.3653,8.4106],[-78.361,8.3941],[-78.3883,8.3358],[-78.3923,8.3444],[-78.3995,8.3488],[-78.4078,8.352],[-78.4097,8.353],[-78.4132,8.3976],[-78.4296,8.4556],[-78.4324,8.4777],[-78.4452,8.5083],[-78.4491,8.5335],[-78.4479,8.5463],[-78.4513,8.5537],[-78.4549,8.5566],[-78.4585,8.5604],[-78.4578,8.5686],[-78.4521,8.5981],[-78.4481,8.6387],[-78.4451,8.6536],[-78.4415,8.6651],[-78.4356,8.6764],[-78.4317,8.6872],[-78.4282,8.7026],[-78.4288,8.7145],[-78.4334,8.7384],[-78.4369,8.7483],[-78.4484,8.8059],[-78.4512,8.8197],[-78.446,8.8254],[-78.4389,8.83],[-78.393,8.8454],[-78.379,8.8448],[-78.3623,8.8417],[-78.3382,8.833],[-78.3317,8.8274],[-78.3217,8.8121],[-78.309,8.8067],[-78.2996,8.8091],[-78.2903,8.816],[-78.2858,8.8246],[-78.2847,8.833],[-78.281,8.8426],[-78.2713,8.8527],[-78.2427,8.866],[-78.2219,8.8703],[-78.205,8.8709],[-78.1859,8.8693],[-78.175,8.872],[-78.1671,8.8777],[-78.154,8.8997],[-78.1372,8.9143],[-78.1197,8.9221],[-78.0948,8.9278],[-78.0841,8.9344],[-78.0792,8.9437],[-78.0817,8.9587],[-78.0821,8.9767],[-78.0799,9.0011],[-78.0753,9.0198],[-78.0685,9.0346],[-78.0482,9.0613],[-78.0425,9.0732],[-78.0153,9.0732],[-77.9421,9.0207],[-77.9119,8.997],[-77.8567,8.9413],[-77.8465,8.9243],[-77.8404,8.9113],[-77.8337,8.9004],[-77.8237,8.8934],[-77.8067,8.8857],[-77.7792,8.8665],[-77.7642,8.8591],[-77.752,8.8501],[-77.7124,8.8139],[-77.7011,8.8003],[-77.6948,8.7861],[-77.6925,8.7724],[-77.7017,8.7717],[-77.7227,8.7766],[-77.7472,8.7734],[-77.7693,8.7623],[-77.7783,8.7494],[-77.7901,8.7401],[-77.8063,8.7373],[-77.8218,8.7329],[-77.8358,8.7161],[-77.8473,8.6948],[-77.8775,8.6527],[-77.8971,8.6416],[-77.9086,8.6217],[-77.9053,8.6011],[-77.8985,8.5838],[-77.8858,8.5684],[-77.8722,8.5559],[-77.8695,8.5374],[-77.876,8.5258],[-77.8758,8.5233],[-77.8758,8.5216],[-77.8734,8.5177],[-77.8609,8.5055],[-77.8513,8.5018],[-77.8401,8.4986],[-77.8371,8.4921],[-77.8401,8.4872],[-77.8402,8.4818],[-77.8152,8.4558],[-77.8104,8.446],[-77.8089,8.435],[-77.8124,8.4243],[-77.8158,8.4173],[-77.817,8.4097],[-77.8174,8.4013],[-77.8001,8.3749],[-77.7973,8.3613],[-77.7933,8.3483],[-77.787,8.3401],[-77.7775,8.3313],[-77.7715,8.3245],[-77.7643,8.3137],[-77.7627,8.3102],[-77.763,8.3047],[-77.7566,8.2957],[-77.7465,8.2908],[-77.7405,8.29],[-77.7352,8.2876],[-77.7349,8.2801],[-77.7358,8.2722],[-77.7317,8.2583],[-77.7208,8.251],[-77.6916,8.2439],[-77.6635,8.2305],[-77.6255,8.1997],[-77.6073,8.157],[-77.6112,8.1408],[-77.6014,8.1254],[-77.5811,8.1193],[-77.5719,8.1106],[-77.5526,8.0848],[-77.5386,8.0817],[-77.52,8.0927],[-77.499,8.096],[-77.4928,8.094],[-77.4864,8.0929],[-77.4632,8.0967],[-77.4525,8.1011],[-77.4452,8.11],[-77.4391,8.119],[-77.4253,8.1276],[-77.4045,8.1333],[-77.3834,8.1367],[-77.27,8.1675],[-77.2694,8.1677]],[[-78.0831,7.9177],[-78.0919,7.9726],[-78.1018,7.9782],[-78.1116,7.9867],[-78.1182,8.0162],[-78.1274,8.0292],[-78.1372,8.0398],[-78.1673,8.0819],[-78.1834,8.0936],[-78.2001,8.0807],[-78.2255,8.0693],[-78.2277,8.0502],[-78.2128,8.0425],[-78.2103,8.034],[-78.2119,8.0246],[-78.2058,8.0128],[-78.202,8.0012],[-78.2257,7.9844],[-78.2574,7.9961],[-78.2781,7.9827],[-78.2958,7.9658],[-78.3134,7.9645],[-78.3293,7.9597],[-78.3345,7.9451],[-78.3296,7.9361],[-78.3325,7.916],[-78.3311,7.8929],[-78.3272,7.8798],[-78.3212,7.8679],[-78.3109,7.862],[-78.3039,7.8597],[-78.2846,7.8194],[-78.2695,7.7721],[-78.2451,7.7309],[-78.197,7.6779],[-78.1796,7.6653],[-78.1383,7.6773],[-78.1212,7.6678],[-78.106,7.6565],[-78.09,7.6521],[-78.0812,7.6449],[-78.0724,7.6015],[-78.0483,7.5899],[-78.0382,7.6074],[-78.0189,7.6177],[-78.0046,7.6058],[-77.9909,7.5903],[-77.9684,7.6016],[-77.9497,7.6188],[-77.9448,7.6516],[-77.9559,7.7392],[-77.9522,7.7488],[-77.9485,7.762],[-77.953,7.7792],[-77.9617,7.7944],[-77.971,7.7979],[-77.981,7.804],[-77.9853,7.8356],[-78.0162,7.9314],[-78.035,7.9509],[-78.0592,7.9313],[-78.0831,7.9177]]]}},{"type":"Feature","properties":{"id":"PAN-3455","name":"Emberá","nameBn":"এম্বেরা-উনান কামারক্যা","type":"Indigenous Territory","bounds":[-78.3345,7.5899,-77.2694,8.7766],"center":[-78.1396,7.8601]},"geometry":{"type":"MultiPolygon","coordinates":[[[[-77.4694,8.5378],[-77.4804,8.5262],[-77.4887,8.4965],[-77.4887,8.4736],[-77.4797,8.4679],[-77.4496,8.4706],[-77.4327,8.4651],[-77.4223,8.4564],[-77.4058,8.4285],[-77.3913,8.3935],[-77.383,8.3249],[-77.3744,8.2893],[-77.3632,8.2721],[-77.3505,8.2674],[-77.3372,8.2666],[-77.3243,8.2612],[-77.3169,8.2508],[-77.2952,8.2055],[-77.2694,8.1677],[-77.27,8.1675],[-77.3834,8.1367],[-77.4045,8.1333],[-77.4253,8.1276],[-77.4391,8.119],[-77.4452,8.11],[-77.4525,8.1011],[-77.4632,8.0967],[-77.4864,8.0929],[-77.4928,8.094],[-77.499,8.096],[-77.52,8.0927],[-77.5386,8.0817],[-77.5526,8.0848],[-77.5719,8.1106],[-77.5811,8.1193],[-77.6014,8.1254],[-77.6112,8.1408],[-77.6073,8.157],[-77.6255,8.1997],[-77.6635,8.2305],[-77.6916,8.2439],[-77.7208,8.251],[-77.7317,8.2583],[-77.7358,8.2722],[-77.7349,8.2801],[-77.7352,8.2876],[-77.7405,8.29],[-77.7465,8.2908],[-77.7566,8.2957],[-77.763,8.3047],[-77.7627,8.3102],[-77.7643,8.3137],[-77.7715,8.3245],[-77.7775,8.3313],[-77.787,8.3401],[-77.7933,8.3483],[-77.7973,8.3613],[-77.8001,8.3749],[-77.8174,8.4013],[-77.817,8.4097],[-77.8158,8.4173],[-77.8124,8.4243],[-77.8089,8.435],[-77.8104,8.446],[-77.8152,8.4558],[-77.8402,8.4818],[-77.8401,8.4872],[-77.8371,8.4921],[-77.8401,8.4986],[-77.8513,8.5018],[-77.8609,8.5055],[-77.8734,8.5177],[-77.8758,8.5216],[-77.8758,8.5233],[-77.876,8.5258],[-77.8695,8.5374],[-77.8722,8.5559],[-77.8858,8.5684],[-77.8985,8.5838],[-77.9053,8.6011],[-77.9086,8.6217],[-77.8971,8.6416],[-77.8775,8.6527],[-77.8473,8.6948],[-77.8358,8.7161],[-77.8218,8.7329],[-77.8063,8.7373],[-77.7901,8.7401],[-77.7783,8.7494],[-77.7693,8.7623],[-77.7472,8.7734],[-77.7227,8.7766],[-77.7017,8.7717],[-77.6925,8.7724],[-77.6916,8.7669],[-77.6861,8.7579],[-77.6788,8.7488],[-77.6536,8.7305],[-77.6262,8.7066],[-77.6098,8.6842],[-77.5792,8.6548],[-77.5688,8.6399],[-77.5589,8.6065],[-77.5463,8.5901],[-77.5084,8.5737],[-77.4959,8.5701],[-77.4698,8.5383],[-77.4694,8.5378]]],[[[-78.1834,8.0936],[-78.1673,8.0819],[-78.1372,8.0398],[-78.1274,8.0292],[-78.1182,8.0162],[-78.1116,7.9867],[-78.1018,7.9782],[-78.0919,7.9726],[-78.0831,7.9177],[-78.0592,7.9313],[-78.035,7.9509],[-78.0162,7.9314],[-77.9853,7.8356],[-77.981,7.804],[-77.971,7.7979],[-77.9617,7.7944],[-77.953,7.7792],[-77.9485,7.762],[-77.9522,7.7488],[-77.9559,7.7392],[-77.9448,7.6516],[-77.9497,7.6188],[-77.9684,7.6016],[-77.9909,7.5903],[-78.0046,7.6058],[-78.0189,7.6177],[-78.0382,7.6074],[-78.0483,7.5899],[-78.0724,7.6015],[-78.0812,7.6449],[-78.09,7.6521],[-78.106,7.6565],[-78.1212,7.6678],[-78.1383,7.6773],[-78.1796,7.6653],[-78.197,7.6779],[-78.2451,7.7309],[-78.2695,7.7721],[-78.2846,7.8194],[-78.3039,7.8597],[-78.3109,7.862],[-78.3212,7.8679],[-78.3272,7.8798],[-78.3311,7.8929],[-78.3325,7.916],[-78.3296,7.9361],[-78.3345,7.9451],[-78.3293,7.9597],[-78.3134,7.9645],[-78.2958,7.9658],[-78.2781,7.9827],[-78.2574,7.9961],[-78.2257,7.9844],[-78.202,8.0012],[-78.2058,8.0128],[-78.2119,8.0246],[-78.2103,8.034],[-78.2128,8.0425],[-78.2277,8.0502],[-78.2255,8.0693],[-78.2001,8.0807],[-78.1834,8.0936]]]]}},{"type":"Feature","properties":{"id":"PAN-1338","name":"Herrera","nameBn":"হেরেরা প্রদেশ","type":"Province","bounds":[-80.947,7.5296,-80.3755,8.1385],"center":[-80.6613,7.8563]},"geometry":{"type":"Polygon","coordinates":[[[-80.4785,8.0914],[-80.4844,8.0825],[-80.4682,8.0749],[-80.4609,8.0557],[-80.4561,8.0362],[-80.4472,8.0273],[-80.4324,8.0242],[-80.3943,8.0076],[-80.3826,7.9993],[-80.3755,7.9972],[-80.382,7.9835],[-80.3887,7.9752],[-80.3931,7.9569],[-80.4045,7.9419],[-80.4147,7.934],[-80.4275,7.9312],[-80.459,7.9326],[-80.4914,7.9234],[-80.5042,7.9112],[-80.5345,7.8558],[-80.5462,7.8413],[-80.5607,7.8295],[-80.5738,7.8215],[-80.5788,7.8153],[-80.58,7.8113],[-80.5754,7.8053],[-80.5745,7.7897],[-80.5748,7.7825],[-80.5733,7.7735],[-80.5705,7.7661],[-80.5576,7.7489],[-80.5543,7.7412],[-80.5531,7.7336],[-80.5529,7.7221],[-80.5568,7.7089],[-80.5674,7.6908],[-80.5799,7.6789],[-80.5881,7.6725],[-80.5953,7.6697],[-80.6081,7.6682],[-80.6139,7.6631],[-80.6646,7.5832],[-80.7197,7.5296],[-80.7457,7.5557],[-80.7519,7.5592],[-80.7723,7.5636],[-80.8021,7.5812],[-80.8792,7.6953],[-80.8849,7.7087],[-80.8917,7.7374],[-80.8976,7.7532],[-80.9048,7.7633],[-80.9095,7.7677],[-80.9195,7.7718],[-80.9428,7.7658],[-80.947,7.7884],[-80.9434,7.9015],[-80.9377,7.9111],[-80.9329,7.9154],[-80.9074,7.9219],[-80.8863,7.9443],[-80.8578,7.9696],[-80.8499,7.9808],[-80.8392,8.0004],[-80.838,8.0159],[-80.8536,8.0599],[-80.817,8.0736],[-80.781,8.088],[-80.7647,8.1026],[-80.742,8.1298],[-80.7324,8.1334],[-80.7188,8.133],[-80.7097,8.1307],[-80.687,8.1326],[-80.6627,8.1241],[-80.6464,8.1253],[-80.6097,8.1373],[-80.5912,8.1385],[-80.5773,8.1328],[-80.5585,8.1128],[-80.5495,8.1061],[-80.5436,8.1067],[-80.5322,8.1153],[-80.5264,8.1164],[-80.5146,8.1105],[-80.4914,8.0952],[-80.4785,8.0914]]]}},{"type":"Feature","properties":{"id":"PAN-1419","name":"Kuna Yala","nameBn":"গুনা ইয়ালা","type":"Indigenous Territory","bounds":[-79.281,8.5378,-77.3735,9.5733],"center":[-78.3273,9.2827]},"geometry":{"type":"Polygon","coordinates":[[[-77.3735,8.6647],[-77.3749,8.6509],[-77.3854,8.6436],[-77.4016,8.642],[-77.4177,8.6385],[-77.434,8.6283],[-77.435,8.6206],[-77.4302,8.6105],[-77.4291,8.5926],[-77.4411,8.5677],[-77.4694,8.5378],[-77.4698,8.5383],[-77.4959,8.5701],[-77.5084,8.5737],[-77.5463,8.5901],[-77.5589,8.6065],[-77.5688,8.6399],[-77.5792,8.6548],[-77.6098,8.6842],[-77.6262,8.7066],[-77.6536,8.7305],[-77.6788,8.7488],[-77.6861,8.7579],[-77.6916,8.7669],[-77.6925,8.7724],[-77.6948,8.7861],[-77.7011,8.8003],[-77.7124,8.8139],[-77.752,8.8501],[-77.7642,8.8591],[-77.7792,8.8665],[-77.8067,8.8857],[-77.8237,8.8934],[-77.8337,8.9004],[-77.8404,8.9113],[-77.8465,8.9243],[-77.8567,8.9413],[-77.9119,8.997],[-77.9421,9.0207],[-78.0153,9.0732],[-78.0425,9.0732],[-78.065,9.1078],[-78.0724,9.1128],[-78.0833,9.1187],[-78.1523,9.135],[-78.1588,9.14],[-78.1608,9.1454],[-78.1505,9.1612],[-78.1458,9.1728],[-78.1508,9.1943],[-78.1587,9.203],[-78.1656,9.2057],[-78.1696,9.2023],[-78.1713,9.1977],[-78.174,9.1927],[-78.1784,9.1901],[-78.1867,9.1894],[-78.2091,9.1927],[-78.2347,9.1931],[-78.257,9.1909],[-78.2647,9.1961],[-78.2708,9.2049],[-78.2804,9.2316],[-78.2849,9.2486],[-78.2891,9.2557],[-78.2956,9.2573],[-78.3312,9.24],[-78.339,9.2375],[-78.3469,9.238],[-78.3661,9.2418],[-78.3949,9.2406],[-78.4087,9.2436],[-78.4143,9.2479],[-78.4168,9.2548],[-78.4158,9.2619],[-78.4165,9.2695],[-78.4197,9.2789],[-78.4247,9.2874],[-78.4303,9.2919],[-78.4377,9.2946],[-78.4417,9.2984],[-78.4453,9.3044],[-78.449,9.3122],[-78.4577,9.3204],[-78.4651,9.321],[-78.472,9.3172],[-78.4795,9.3113],[-78.4864,9.3087],[-78.4908,9.3117],[-78.4951,9.3289],[-78.5002,9.338],[-78.5129,9.3497],[-78.5218,9.3512],[-78.5284,9.348],[-78.5372,9.335],[-78.542,9.3314],[-78.5945,9.3192],[-78.6101,9.3178],[-78.6277,9.3214],[-78.6418,9.3302],[-78.6771,9.3571],[-78.6989,9.3708],[-78.7097,9.3742],[-78.7149,9.3712],[-78.717,9.3538],[-78.721,9.347],[-78.7282,9.3445],[-78.7418,9.3508],[-78.7588,9.3686],[-78.7654,9.3715],[-78.7706,9.3715],[-78.7778,9.3706],[-78.7816,9.3682],[-78.7875,9.3634],[-78.7959,9.3587],[-78.809,9.3567],[-78.84,9.3611],[-78.857,9.3609],[-78.8714,9.3594],[-78.8783,9.3557],[-78.8908,9.3445],[-78.9001,9.3412],[-78.9154,9.3411],[-78.9263,9.3452],[-78.9328,9.3463],[-78.9372,9.3445],[-78.9379,9.3403],[-78.9377,9.3334],[-78.9394,9.3278],[-78.9457,9.3247],[-78.9561,9.328],[-78.9647,9.3289],[-78.9727,9.3277],[-78.9971,9.3172],[-79.0028,9.3127],[-79.0056,9.3064],[-79.0042,9.2999],[-79.0006,9.2941],[-78.9982,9.2884],[-78.9982,9.2842],[-79.0022,9.2805],[-79.0111,9.2776],[-79.0568,9.2764],[-79.0718,9.2774],[-79.0782,9.2822],[-79.085,9.2898],[-79.0936,9.2975],[-79.1154,9.3063],[-79.1287,9.3091],[-79.1433,9.3101],[-79.1567,9.3099],[-79.1705,9.3078],[-79.2392,9.2864],[-79.2721,9.2795],[-79.2801,9.2865],[-79.281,9.293],[-79.279,9.3034],[-79.2725,9.3143],[-79.2661,9.3216],[-79.247,9.3307],[-79.2435,9.3206],[-79.2393,9.3205],[-79.2204,9.3356],[-79.1927,9.3527],[-79.1762,9.3602],[-79.1571,9.3666],[-79.1481,9.372],[-79.1421,9.3779],[-79.1391,9.3835],[-79.1373,9.3899],[-79.1356,9.4055],[-79.1322,9.4152],[-79.1209,9.4315],[-79.1126,9.4395],[-79.1022,9.4459],[-79.0955,9.4477],[-79.087,9.4488],[-79.0789,9.451],[-79.075,9.4573],[-79.0745,9.5413],[-79.0745,9.562],[-79.0485,9.5642],[-79.0129,9.5702],[-78.9706,9.5733],[-78.9573,9.5653],[-78.9574,9.554],[-78.9745,9.5447],[-78.9869,9.5471],[-78.9969,9.5397],[-79.0078,9.5388],[-79.0382,9.5352],[-79.0549,9.532],[-79.0659,9.5137],[-79.0632,9.4903],[-79.0581,9.4579],[-79.0405,9.4522],[-79.0243,9.4559],[-79.0139,9.4512],[-79.0011,9.4535],[-78.9882,9.4553],[-78.9773,9.4571],[-78.9664,9.4547],[-78.9526,9.4547],[-78.9351,9.4476],[-78.9246,9.4442],[-78.9157,9.4368],[-78.9081,9.4308],[-78.9033,9.4229],[-78.8957,9.4244],[-78.8829,9.4253],[-78.8748,9.4248],[-78.8649,9.4224],[-78.8525,9.4238],[-78.8472,9.4331],[-78.8363,9.4354],[-78.8178,9.4311],[-78.7894,9.4366],[-78.7811,9.4459],[-78.7641,9.4425],[-78.7526,9.4443],[-78.7416,9.4485],[-78.7282,9.455],[-78.7179,9.4418],[-78.7017,9.4343],[-78.6889,9.4356],[-78.6556,9.4265],[-78.6333,9.4287],[-78.62,9.4188],[-78.6039,9.4164],[-78.5896,9.4224],[-78.5781,9.4319],[-78.5613,9.438],[-78.5464,9.4344],[-78.5271,9.4215],[-78.5128,9.416],[-78.4799,9.416],[-78.4634,9.4046],[-78.4526,9.4088],[-78.4377,9.4044],[-78.4273,9.3939],[-78.416,9.3843],[-78.3887,9.3718],[-78.3783,9.3658],[-78.3642,9.3612],[-78.3383,9.356],[-78.3175,9.3447],[-78.3027,9.3333],[-78.2871,9.3263],[-78.2775,9.3219],[-78.2679,9.3209],[-78.2549,9.3174],[-78.2419,9.3095],[-78.2262,9.3008],[-78.208,9.2903],[-78.1924,9.2876],[-78.1767,9.2901],[-78.1671,9.2865],[-78.1549,9.2795],[-78.1419,9.2777],[-78.1237,9.2664],[-78.114,9.2538],[-78.0882,9.248],[-78.056,9.2434],[-78.0369,9.2364],[-78.0246,9.2265],[-78.0208,9.2136],[-77.9993,9.1908],[-77.9863,9.1889],[-77.9687,9.1806],[-77.9354,9.1429],[-77.9185,9.1166],[-77.905,9.0993],[-77.8902,9.0772],[-77.8557,9.0543],[-77.8608,9.0681],[-77.8652,9.0803],[-77.8764,9.1036],[-77.8777,9.1189],[-77.8601,9.1104],[-77.8473,9.0876],[-77.8392,9.0765],[-77.8119,9.058],[-77.8082,9.0353],[-77.7982,9.0243],[-77.7858,9.0169],[-77.7707,9.004],[-77.7672,8.9923],[-77.7585,8.9815],[-77.7475,8.9726],[-77.7444,8.9636],[-77.7542,8.9457],[-77.7347,8.9235],[-77.7208,8.8923],[-77.7103,8.8813],[-77.7011,8.8893],[-77.6967,8.8874],[-77.6955,8.8733],[-77.6763,8.8616],[-77.6559,8.8432],[-77.6335,8.8174],[-77.6143,8.8087],[-77.6195,8.817],[-77.626,8.8231],[-77.6317,8.8299],[-77.6342,8.8398],[-77.6291,8.8445],[-77.618,8.8352],[-77.6074,8.8222],[-77.6038,8.8156],[-77.5741,8.7928],[-77.5779,8.775],[-77.5593,8.7597],[-77.5536,8.7768],[-77.5437,8.7749],[-77.5351,8.7577],[-77.5383,8.7413],[-77.5403,8.7261],[-77.5447,8.7146],[-77.5321,8.7032],[-77.5007,8.6818],[-77.477,8.6699],[-77.4442,8.6644],[-77.4132,8.6667],[-77.3946,8.6784],[-77.3907,8.6735],[-77.3858,8.6696],[-77.38,8.6667],[-77.3735,8.6647]]]}},{"type":"Feature","properties":{"id":"PAN-1339","name":"Los Santos","nameBn":"লস সান্টোস প্রদেশ","type":"Province","bounds":[-80.7221,7.2367,-79.9935,7.9972],"center":[-80.3927,7.584]},"geometry":{"type":"Polygon","coordinates":[[[-80.3755,7.9972],[-80.3489,7.9893],[-80.3277,7.9533],[-80.3133,7.9114],[-80.3,7.8833],[-80.2045,7.8076],[-80.1438,7.7528],[-80.0524,7.6371],[-80.0058,7.5523],[-79.9935,7.5228],[-79.9947,7.5034],[-80.01,7.4652],[-80.0179,7.4568],[-80.0301,7.4539],[-80.0568,7.4525],[-80.065,7.451],[-80.1355,7.4246],[-80.1985,7.4247],[-80.2107,7.4178],[-80.2228,7.4234],[-80.2497,7.4296],[-80.2591,7.4383],[-80.2659,7.4383],[-80.2748,7.4339],[-80.3069,7.4246],[-80.3069,7.4178],[-80.294,7.4193],[-80.2836,7.4218],[-80.2745,7.4257],[-80.2659,7.4308],[-80.2591,7.4246],[-80.331,7.4012],[-80.3576,7.382],[-80.3615,7.3557],[-80.3444,7.3274],[-80.3476,7.3183],[-80.3723,7.3148],[-80.3793,7.3128],[-80.3871,7.3081],[-80.3936,7.3024],[-80.3963,7.2977],[-80.3988,7.2866],[-80.4054,7.2828],[-80.4144,7.2803],[-80.4242,7.2737],[-80.4285,7.2654],[-80.4281,7.2585],[-80.4291,7.2523],[-80.4372,7.2465],[-80.4448,7.2459],[-80.4637,7.2517],[-80.4745,7.2533],[-80.5968,7.2381],[-80.6041,7.2367],[-80.6068,7.2718],[-80.6133,7.2858],[-80.6235,7.2972],[-80.6442,7.3126],[-80.6534,7.318],[-80.6681,7.3228],[-80.6688,7.3273],[-80.6666,7.3378],[-80.6671,7.3525],[-80.6735,7.376],[-80.6993,7.4107],[-80.7151,7.4589],[-80.7221,7.5017],[-80.7197,7.5296],[-80.6646,7.5832],[-80.6139,7.6631],[-80.6081,7.6682],[-80.5953,7.6697],[-80.5881,7.6725],[-80.5799,7.6789],[-80.5674,7.6908],[-80.5568,7.7089],[-80.5529,7.7221],[-80.5531,7.7336],[-80.5543,7.7412],[-80.5576,7.7489],[-80.5705,7.7661],[-80.5733,7.7735],[-80.5748,7.7825],[-80.5745,7.7897],[-80.5754,7.8053],[-80.58,7.8113],[-80.5788,7.8153],[-80.5738,7.8215],[-80.5607,7.8295],[-80.5462,7.8413],[-80.5345,7.8558],[-80.5042,7.9112],[-80.4914,7.9234],[-80.459,7.9326],[-80.4275,7.9312],[-80.4147,7.934],[-80.4045,7.9419],[-80.3931,7.9569],[-80.3887,7.9752],[-80.382,7.9835],[-80.3755,7.9972]]]}},{"type":"Feature","properties":{"id":"PAN-3454","name":"Ngöbe Buglé","nameBn":"নাগুবে বিউগল কুমাকা","type":"Indigenous Territory","bounds":[-82.4396,8.2622,-81.1561,9.1795],"center":[-81.7558,8.68]},"geometry":{"type":"MultiPolygon","coordinates":[[[[-82.0067,8.9466],[-81.9977,8.9475],[-81.9852,8.9423],[-81.9747,8.9352],[-81.9586,8.9316],[-81.944,8.9351],[-81.9294,8.9438],[-81.9208,8.9551],[-81.9237,8.9664],[-81.9125,8.9711],[-81.9037,8.9711],[-81.8896,8.9664],[-81.8877,8.9626],[-81.878,8.9543],[-81.8673,8.9493],[-81.8624,8.9558],[-81.8523,8.9583],[-81.7934,8.9316],[-81.7755,8.9403],[-81.7706,8.9575],[-81.7742,8.9975],[-81.8419,9.0353],[-81.8771,9.0873],[-81.8862,9.0961],[-81.8993,9.1019],[-81.9178,9.115],[-81.9334,9.1292],[-81.9374,9.1383],[-81.922,9.1381],[-81.8966,9.1318],[-81.8729,9.1295],[-81.8624,9.1418],[-81.8948,9.1569],[-81.9103,9.1681],[-81.9033,9.1793],[-81.8828,9.1795],[-81.8655,9.1667],[-81.8419,9.1383],[-81.8188,9.1211],[-81.8146,9.1166],[-81.816,9.1081],[-81.8242,9.1055],[-81.8344,9.107],[-81.8419,9.1104],[-81.8419,9.1036],[-81.8337,9.0938],[-81.8258,9.0853],[-81.8209,9.0706],[-81.8135,9.0678],[-81.8003,9.0678],[-81.7768,9.065],[-81.762,9.0638],[-81.7369,9.0369],[-81.7212,9.032],[-81.7065,8.9992],[-81.7016,8.9943],[-81.6875,8.9842],[-81.6276,8.8991],[-81.5873,8.8564],[-81.5675,8.8435],[-81.5616,8.8344],[-81.5508,8.8228],[-81.5391,8.8129],[-81.5303,8.8087],[-81.5215,8.8068],[-81.5033,8.801],[-81.4912,8.801],[-81.4735,8.8066],[-81.4215,8.7964],[-81.4094,8.8001],[-81.3815,8.8001],[-81.358,8.7851],[-81.3045,8.7819],[-81.2662,8.7892],[-81.2131,8.7918],[-81.2159,8.7882],[-81.2159,8.7829],[-81.2227,8.7578],[-81.2112,8.6838],[-81.2145,8.6232],[-81.2105,8.5863],[-81.2045,8.5653],[-81.1959,8.5523],[-81.1883,8.5441],[-81.1838,8.5357],[-81.1803,8.5266],[-81.1716,8.511],[-81.1561,8.4955],[-81.1836,8.4894],[-81.192,8.4894],[-81.2033,8.4922],[-81.2251,8.501],[-81.2656,8.5116],[-81.2823,8.5222],[-81.3285,8.5581],[-81.3375,8.5602],[-81.3635,8.555],[-81.4105,8.5585],[-81.4152,8.5681],[-81.4212,8.5719],[-81.4324,8.5767],[-81.4632,8.584],[-81.4886,8.5969],[-81.4903,8.5559],[-81.4993,8.5161],[-81.5225,8.4605],[-81.5257,8.4439],[-81.5267,8.4292],[-81.5225,8.3793],[-81.5478,8.3857],[-81.5921,8.3719],[-81.6098,8.3478],[-81.624,8.3137],[-81.6336,8.2971],[-81.6559,8.2818],[-81.6805,8.2774],[-81.6896,8.2969],[-81.7046,8.295],[-81.7159,8.2781],[-81.7321,8.2622],[-81.7843,8.264],[-81.8134,8.2875],[-81.83,8.3184],[-81.8565,8.3269],[-81.9491,8.3278],[-81.9971,8.34],[-82.0178,8.3709],[-82.0215,8.4019],[-82.0367,8.418],[-82.0534,8.4468],[-82.0645,8.4615],[-82.074,8.4675],[-82.0837,8.4643],[-82.1003,8.4581],[-82.1328,8.4492],[-82.164,8.4487],[-82.1802,8.4579],[-82.1753,8.4825],[-82.1429,8.5573],[-82.1528,8.5687],[-82.1565,8.5898],[-82.149,8.6194],[-82.1396,8.7037],[-82.1532,8.7626],[-82.1549,8.7626],[-82.1962,8.7716],[-82.204,8.7724],[-82.2181,8.7703],[-82.2235,8.7689],[-82.2509,8.7723],[-82.2817,8.777],[-82.2998,8.7821],[-82.3178,8.7911],[-82.3611,8.808],[-82.363,8.8088],[-82.3553,8.8275],[-82.3478,8.8575],[-82.3384,8.8894],[-82.3309,8.9044],[-82.3346,8.925],[-82.3478,8.9494],[-82.3703,8.9681],[-82.4078,8.9812],[-82.4284,8.9888],[-82.4396,9.0],[-82.4265,9.0131],[-82.3928,9.0262],[-82.3796,9.0394],[-82.3534,9.0619],[-82.3515,9.0862],[-82.3384,9.1125],[-82.3234,9.1275],[-82.314,9.1256],[-82.3103,9.1144],[-82.3159,9.0994],[-82.3084,9.0919],[-82.2878,9.0844],[-82.2803,9.0806],[-82.2896,9.0675],[-82.3027,9.0506],[-82.3178,9.0394],[-82.3234,9.0244],[-82.3215,9.0094],[-82.3009,9.0019],[-82.2803,8.9981],[-82.2728,8.9869],[-82.2615,8.9775],[-82.2259,8.97],[-82.2015,8.955],[-82.1959,8.9419],[-82.1996,8.925],[-82.2109,8.9175],[-82.209,8.8987],[-82.1959,8.8912],[-82.1921,8.8819],[-82.1865,8.8556],[-82.179,8.8444],[-82.1696,8.8481],[-82.164,8.8706],[-82.1509,8.8912],[-82.1321,8.9006],[-82.1021,8.9025],[-82.0609,8.9025],[-82.0346,8.9081],[-82.0159,8.9194],[-82.0084,8.9419],[-82.0068,8.9465],[-82.0067,8.9466]]],[[[-81.5683,9.1082],[-81.5655,9.1055],[-81.5599,9.104],[-81.5577,9.1061],[-81.5531,9.1058],[-81.5472,9.1027],[-81.5419,9.0991],[-81.5379,9.0951],[-81.5367,9.0914],[-81.5339,9.0887],[-81.5345,9.0859],[-81.5388,9.0859],[-81.5438,9.0884],[-81.5522,9.0896],[-81.5624,9.0908],[-81.567,9.0908],[-81.5717,9.0896],[-81.5729,9.096],[-81.5751,9.1006],[-81.5773,9.1046],[-81.5754,9.1076],[-81.5683,9.1082]]]]}},{"type":"Feature","properties":{"id":"PAN-1340","name":"Panama","nameBn":"পানামা","type":"Province","bounds":[-80.1645,8.209,-78.0425,9.479],"center":[-78.9283,9.0863]},"geometry":{"type":"MultiPolygon","coordinates":[[[[-78.4097,8.353],[-78.4156,8.3563],[-78.4387,8.3844],[-78.4498,8.391],[-78.4444,8.4032],[-78.4452,8.4211],[-78.4499,8.4392],[-78.4567,8.4519],[-78.464,8.4462],[-78.4681,8.4401],[-78.47,8.433],[-78.4709,8.4245],[-78.4755,8.434],[-78.4864,8.4478],[-78.4908,8.4593],[-78.4914,8.4734],[-78.484,8.5071],[-78.4908,8.5245],[-78.52,8.5635],[-78.5317,8.576],[-78.5167,8.5753],[-78.5058,8.572],[-78.4959,8.5707],[-78.484,8.576],[-78.5003,8.5887],[-78.5058,8.5991],[-78.5044,8.634],[-78.5665,8.6511],[-78.5613,8.6664],[-78.559,8.671],[-78.5656,8.6718],[-78.569,8.6702],[-78.5733,8.6647],[-78.5815,8.6701],[-78.5892,8.6696],[-78.5965,8.6665],[-78.6037,8.6647],[-78.6125,8.6697],[-78.6189,8.6815],[-78.6279,8.7057],[-78.6137,8.7172],[-78.6084,8.7353],[-78.6095,8.7559],[-78.6142,8.7746],[-78.6217,8.7746],[-78.6231,8.7585],[-78.6191,8.7379],[-78.6197,8.7235],[-78.6348,8.7262],[-78.6515,8.708],[-78.6822,8.7477],[-78.7099,8.7473],[-78.7294,8.7593],[-78.7494,8.8018],[-78.7651,8.8156],[-78.7651,8.8224],[-78.7576,8.8224],[-78.7576,8.8293],[-78.7725,8.8336],[-78.7818,8.8428],[-78.7896,8.8539],[-78.7999,8.8633],[-78.7919,8.8467],[-78.7902,8.8336],[-78.7965,8.8235],[-78.8129,8.8156],[-78.8279,8.8131],[-78.838,8.817],[-78.8576,8.8398],[-78.8646,8.8556],[-78.8686,8.8749],[-78.8739,8.8912],[-79.0053,8.9595],[-79.0576,8.971],[-79.083,8.9888],[-79.0872,8.9943],[-79.0885,9.0041],[-79.0857,9.0098],[-79.0818,9.0153],[-79.0798,9.0247],[-79.0793,9.0454],[-79.0809,9.0628],[-79.0889,9.0738],[-79.1077,9.0756],[-79.1077,9.0831],[-79.0863,9.0846],[-79.0699,9.0933],[-79.0586,9.1072],[-79.0525,9.124],[-79.0463,9.124],[-79.0374,9.1105],[-79.0277,9.111],[-79.0115,9.124],[-78.9912,9.1312],[-78.9822,9.1364],[-78.9774,9.1452],[-78.9838,9.142],[-78.9972,9.1409],[-79.0053,9.1383],[-79.012,9.1331],[-79.0247,9.1194],[-79.0289,9.1166],[-79.0369,9.1196],[-79.0395,9.1259],[-79.0426,9.1311],[-79.0525,9.1308],[-79.0587,9.1256],[-79.0709,9.1075],[-79.0767,9.1036],[-79.079,9.1015],[-79.0822,9.0967],[-79.0878,9.092],[-79.0975,9.0899],[-79.1068,9.0894],[-79.1142,9.0876],[-79.119,9.0832],[-79.1207,9.0756],[-79.1146,9.0688],[-79.1017,9.065],[-79.09,9.0564],[-79.0872,9.0353],[-79.0918,9.023],[-79.1021,9.006],[-79.1161,8.9941],[-79.1316,8.9975],[-79.1381,9.0008],[-79.1623,9.0074],[-79.1634,9.0118],[-79.1683,9.0198],[-79.1735,9.0225],[-79.176,9.0107],[-79.193,9.0052],[-79.2733,9.0193],[-79.2995,9.0141],[-79.3057,9.0141],[-79.3057,9.021],[-79.3303,9.0134],[-79.3868,9.0189],[-79.4093,9.0074],[-79.4182,9.0141],[-79.4275,9.0134],[-79.4371,9.0096],[-79.4545,9.0063],[-79.4669,9.0017],[-79.4745,9.0006],[-79.482,8.9984],[-79.484,8.9937],[-79.4847,8.989],[-79.4879,8.9869],[-79.4911,8.9835],[-79.5192,8.9664],[-79.5212,8.9574],[-79.5203,8.9489],[-79.5222,8.9423],[-79.5329,8.9391],[-79.5155,8.91],[-79.5118,8.8981],[-79.525,8.9073],[-79.5411,8.9233],[-79.5547,8.9421],[-79.5602,8.9595],[-79.5664,8.9595],[-79.565,8.9538],[-79.5632,8.95],[-79.5602,8.9453],[-79.5602,8.9391],[-79.5664,8.9391],[-79.5592,8.9143],[-79.5639,8.8928],[-79.5785,8.8823],[-79.6012,8.8907],[-79.6468,8.8826],[-79.6612,8.8752],[-79.6558,8.8633],[-79.6558,8.8571],[-79.6669,8.8608],[-79.674,8.8655],[-79.6807,8.8676],[-79.6905,8.8633],[-79.6935,8.8666],[-79.6947,8.8683],[-79.697,8.8692],[-79.7036,8.8702],[-79.7036,8.8633],[-79.7008,8.8599],[-79.6992,8.8548],[-79.6968,8.8497],[-79.7139,8.8526],[-79.7302,8.8443],[-79.7436,8.8301],[-79.752,8.8156],[-79.7563,8.7963],[-79.752,8.7368],[-79.7499,8.731],[-79.7452,8.728],[-79.7405,8.726],[-79.7384,8.7228],[-79.7393,8.7165],[-79.7414,8.7111],[-79.7445,8.7057],[-79.7468,8.6979],[-79.7508,8.6896],[-79.756,8.6816],[-79.762,8.6747],[-79.7659,8.6718],[-79.7784,8.6658],[-79.791,8.6632],[-79.7917,8.6595],[-79.7905,8.655],[-79.793,8.6511],[-79.81,8.6466],[-79.8263,8.6385],[-79.8137,8.6261],[-79.7796,8.6184],[-79.7474,8.6313],[-79.7173,8.6463],[-79.7058,8.6526],[-79.7021,8.6573],[-79.6973,8.6573],[-79.6969,8.6489],[-79.7006,8.6416],[-79.7344,8.6155],[-79.7744,8.5795],[-79.7937,8.5722],[-79.8263,8.5616],[-79.8641,8.5524],[-79.8715,8.5428],[-79.8698,8.5318],[-79.8717,8.5242],[-79.8749,8.5207],[-79.88,8.5186],[-79.8912,8.5163],[-79.8954,8.5146],[-79.9106,8.5005],[-79.9176,8.4954],[-79.9267,8.4934],[-79.9321,8.4892],[-79.9418,8.4704],[-79.9469,8.4661],[-79.949,8.4623],[-79.9702,8.4441],[-80.0408,8.398],[-80.0817,8.4456],[-80.0865,8.4553],[-80.092,8.4709],[-80.0956,8.5266],[-80.1047,8.5513],[-80.1044,8.583],[-80.1031,8.5919],[-80.1068,8.6264],[-80.1125,8.643],[-80.1376,8.7554],[-80.1637,8.8307],[-80.1645,8.8544],[-80.1618,8.8723],[-80.1557,8.8889],[-80.1331,8.9222],[-80.1375,8.9492],[-80.0927,8.9837],[-80.0502,8.9683],[-80.0222,8.9662],[-79.9854,8.9778],[-79.9559,8.997],[-79.9506,9.008],[-79.9452,9.0237],[-79.9455,9.0391],[-79.949,9.0507],[-79.9573,9.0662],[-79.9627,9.0835],[-79.9207,9.1752],[-79.9059,9.1906],[-79.8893,9.194],[-79.858,9.1793],[-79.83,9.1732],[-79.8191,9.1679],[-79.8086,9.1581],[-79.7895,9.1262],[-79.7782,9.1144],[-79.7562,9.1092],[-79.7047,9.11],[-79.6879,9.116],[-79.6698,9.1282],[-79.6416,9.1626],[-79.6352,9.1899],[-79.6293,9.1936],[-79.6223,9.199],[-79.6047,9.2071],[-79.5877,9.2121],[-79.5737,9.2182],[-79.5688,9.2239],[-79.5675,9.231],[-79.5719,9.2488],[-79.57,9.2636],[-79.5651,9.2846],[-79.5519,9.3183],[-79.5475,9.3339],[-79.5472,9.3445],[-79.5499,9.3483],[-79.5506,9.3556],[-79.5485,9.3659],[-79.5225,9.4543],[-79.4852,9.4694],[-79.4408,9.479],[-79.4161,9.4725],[-79.3997,9.4661],[-79.3912,9.4595],[-79.3846,9.4509],[-79.3812,9.4453],[-79.3712,9.4325],[-79.3697,9.4283],[-79.3714,9.4254],[-79.376,9.4229],[-79.3884,9.4176],[-79.3938,9.4142],[-79.3973,9.409],[-79.3988,9.403],[-79.3961,9.3959],[-79.3914,9.394],[-79.3845,9.3949],[-79.3681,9.4006],[-79.3588,9.4025],[-79.3349,9.4023],[-79.3286,9.4039],[-79.3182,9.4122],[-79.3078,9.4149],[-79.2902,9.4151],[-79.2669,9.4073],[-79.2567,9.4024],[-79.2521,9.3966],[-79.2538,9.3913],[-79.2615,9.381],[-79.2616,9.3757],[-79.2571,9.3722],[-79.2481,9.3689],[-79.2427,9.3636],[-79.2393,9.3567],[-79.2381,9.3497],[-79.2387,9.3441],[-79.2398,9.3397],[-79.247,9.3307],[-79.2661,9.3216],[-79.2725,9.3143],[-79.279,9.3034],[-79.281,9.293],[-79.2801,9.2865],[-79.2721,9.2795],[-79.2392,9.2864],[-79.1705,9.3078],[-79.1567,9.3099],[-79.1433,9.3101],[-79.1287,9.3091],[-79.1154,9.3063],[-79.0936,9.2975],[-79.085,9.2898],[-79.0782,9.2822],[-79.0718,9.2774],[-79.0568,9.2764],[-79.0111,9.2776],[-79.0022,9.2805],[-78.9982,9.2842],[-78.9982,9.2884],[-79.0006,9.2941],[-79.0042,9.2999],[-79.0056,9.3064],[-79.0028,9.3127],[-78.9971,9.3172],[-78.9727,9.3277],[-78.9647,9.3289],[-78.9561,9.328],[-78.9457,9.3247],[-78.9394,9.3278],[-78.9377,9.3334],[-78.9379,9.3403],[-78.9372,9.3445],[-78.9328,9.3463],[-78.9263,9.3452],[-78.9154,9.3411],[-78.9001,9.3412],[-78.8908,9.3445],[-78.8783,9.3557],[-78.8714,9.3594],[-78.857,9.3609],[-78.84,9.3611],[-78.809,9.3567],[-78.7959,9.3587],[-78.7875,9.3634],[-78.7816,9.3682],[-78.7778,9.3706],[-78.7706,9.3715],[-78.7654,9.3715],[-78.7588,9.3686],[-78.7418,9.3508],[-78.7282,9.3445],[-78.721,9.347],[-78.717,9.3538],[-78.7149,9.3712],[-78.7097,9.3742],[-78.6989,9.3708],[-78.6771,9.3571],[-78.6418,9.3302],[-78.6277,9.3214],[-78.6101,9.3178],[-78.5945,9.3192],[-78.542,9.3314],[-78.5372,9.335],[-78.5284,9.348],[-78.5218,9.3512],[-78.5129,9.3497],[-78.5002,9.338],[-78.4951,9.3289],[-78.4908,9.3117],[-78.4864,9.3087],[-78.4795,9.3113],[-78.472,9.3172],[-78.4651,9.321],[-78.4577,9.3204],[-78.449,9.3122],[-78.4453,9.3044],[-78.4417,9.2984],[-78.4377,9.2946],[-78.4303,9.2919],[-78.4247,9.2874],[-78.4197,9.2789],[-78.4165,9.2695],[-78.4158,9.2619],[-78.4168,9.2548],[-78.4143,9.2479],[-78.4087,9.2436],[-78.3949,9.2406],[-78.3661,9.2418],[-78.3469,9.238],[-78.339,9.2375],[-78.3312,9.24],[-78.2956,9.2573],[-78.2891,9.2557],[-78.2849,9.2486],[-78.2804,9.2316],[-78.2708,9.2049],[-78.2647,9.1961],[-78.257,9.1909],[-78.2347,9.1931],[-78.2091,9.1927],[-78.1867,9.1894],[-78.1784,9.1901],[-78.174,9.1927],[-78.1713,9.1977],[-78.1696,9.2023],[-78.1656,9.2057],[-78.1587,9.203],[-78.1508,9.1943],[-78.1458,9.1728],[-78.1505,9.1612],[-78.1608,9.1454],[-78.1588,9.14],[-78.1523,9.135],[-78.0833,9.1187],[-78.0724,9.1128],[-78.065,9.1078],[-78.0425,9.0732],[-78.0482,9.0613],[-78.0685,9.0346],[-78.0753,9.0198],[-78.0799,9.0011],[-78.0821,8.9767],[-78.0817,8.9587],[-78.0792,8.9437],[-78.0841,8.9344],[-78.0948,8.9278],[-78.1197,8.9221],[-78.1372,8.9143],[-78.154,8.8997],[-78.1671,8.8777],[-78.175,8.872],[-78.1859,8.8693],[-78.205,8.8709],[-78.2219,8.8703],[-78.2427,8.866],[-78.2713,8.8527],[-78.281,8.8426],[-78.2847,8.833],[-78.2858,8.8246],[-78.2903,8.816],[-78.2996,8.8091],[-78.309,8.8067],[-78.3217,8.8121],[-78.3317,8.8274],[-78.3382,8.833],[-78.3623,8.8417],[-78.379,8.8448],[-78.393,8.8454],[-78.4389,8.83],[-78.446,8.8254],[-78.4512,8.8197],[-78.4484,8.8059],[-78.4369,8.7483],[-78.4334,8.7384],[-78.4288,8.7145],[-78.4282,8.7026],[-78.4317,8.6872],[-78.4356,8.6764],[-78.4415,8.6651],[-78.4451,8.6536],[-78.4481,8.6387],[-78.4521,8.5981],[-78.4578,8.5686],[-78.4585,8.5604],[-78.4549,8.5566],[-78.4513,8.5537],[-78.4479,8.5463],[-78.4491,8.5335],[-78.4452,8.5083],[-78.4324,8.4777],[-78.4296,8.4556],[-78.4132,8.3976],[-78.4097,8.353]]],[[[-79.0941,8.3085],[-79.0875,8.2958],[-79.083,8.2742],[-79.0759,8.266],[-79.071,8.2645],[-79.0657,8.2608],[-79.0699,8.2571],[-79.0804,8.2548],[-79.0913,8.2597],[-79.1038,8.253],[-79.1045,8.2444],[-79.0984,8.2385],[-79.0985,8.2299],[-79.1049,8.2288],[-79.1087,8.2239],[-79.1095,8.2105],[-79.1227,8.209],[-79.14,8.2444],[-79.137,8.2574],[-79.1306,8.2567],[-79.1298,8.2641],[-79.1256,8.2776],[-79.1294,8.2872],[-79.1245,8.3033],[-79.1124,8.3174],[-79.1049,8.3185],[-79.1004,8.3174],[-79.0949,8.3118],[-79.0941,8.3085]]],[[[-79.0844,8.3825],[-79.0928,8.3772],[-79.1122,8.3915],[-79.1301,8.4049],[-79.1182,8.4291],[-79.105,8.4187],[-79.0948,8.4065],[-79.0901,8.4103],[-79.0879,8.4195],[-79.0824,8.416],[-79.0863,8.4035],[-79.0789,8.3986],[-79.0803,8.3909],[-79.0844,8.3825]]],[[[-78.8922,8.458],[-78.8937,8.4693],[-78.8899,8.4741],[-78.8802,8.4685],[-78.8691,8.4617],[-78.8628,8.4537],[-78.8582,8.4429],[-78.8554,8.4313],[-78.8545,8.4211],[-78.8547,8.4133],[-78.8422,8.4111],[-78.8355,8.398],[-78.8373,8.3869],[-78.8457,8.3813],[-78.848,8.3686],[-78.8345,8.3428],[-78.8432,8.3205],[-78.8523,8.3123],[-78.8523,8.3033],[-78.858,8.2958],[-78.8704,8.2966],[-78.8753,8.3015],[-78.8825,8.3004],[-78.8892,8.2991],[-78.8964,8.2974],[-78.8991,8.3026],[-78.9013,8.309],[-78.9047,8.3026],[-78.9122,8.2937],[-78.9205,8.2826],[-78.9201,8.274],[-78.9228,8.2654],[-78.913,8.2539],[-78.9111,8.2341],[-78.9051,8.2293],[-78.8976,8.2289],[-78.8976,8.2244],[-78.904,8.2192],[-78.9179,8.2271],[-78.9285,8.2357],[-78.9269,8.2498],[-78.9337,8.2733],[-78.94,8.2826],[-78.958,8.2904],[-78.9643,8.2948],[-78.9699,8.3051],[-78.9654,8.3208],[-78.9582,8.3291],[-78.9548,8.3465],[-78.9585,8.3529],[-78.9673,8.3624],[-78.9699,8.3699],[-78.9658,8.3773],[-78.9616,8.3836],[-78.9612,8.3903],[-78.9657,8.4082],[-78.9643,8.4177],[-78.9747,8.4444],[-78.9709,8.4584],[-78.9581,8.4588],[-78.9491,8.4528],[-78.9088,8.47],[-78.8998,8.4616],[-78.897,8.4567],[-78.8954,8.4519],[-78.8922,8.458]]],[[[-79.5704,8.7986],[-79.5633,8.8046],[-79.5569,8.8025],[-79.5538,8.8034],[-79.5532,8.8004],[-79.5554,8.798],[-79.5526,8.7919],[-79.548,8.7889],[-79.5419,8.7868],[-79.5412,8.7813],[-79.5434,8.7755],[-79.548,8.774],[-79.5514,8.7792],[-79.5553,8.7828],[-79.5627,8.7813],[-79.5692,8.7831],[-79.5716,8.7892],[-79.5704,8.7986]]],[[[-79.1326,8.9569],[-79.1305,8.9595],[-79.1295,8.9584],[-79.1288,8.9548],[-79.1231,8.9515],[-79.127,8.9488],[-79.127,8.9433],[-79.1314,8.943],[-79.1326,8.9446],[-79.13,8.9484],[-79.1307,8.9505],[-79.1324,8.9518],[-79.1327,8.9553],[-79.1326,8.9569]]]]}},{"type":"Feature","properties":{"id":"PAN-1341","name":"Veraguas","nameBn":"ভেরাগাস প্রদেশ","type":"Province","bounds":[-81.8828,7.2057,-80.6041,8.8857],"center":[-81.1447,8.2255]},"geometry":{"type":"MultiPolygon","coordinates":[[[[-81.8077,7.2874],[-81.798,7.2911],[-81.7899,7.2901],[-81.7805,7.2878],[-81.7667,7.2874],[-81.779,7.2775],[-81.7924,7.2517],[-81.8009,7.239],[-81.797,7.234],[-81.7934,7.226],[-81.8009,7.226],[-81.8162,7.2713],[-81.8146,7.28],[-81.8188,7.2856],[-81.8192,7.2887],[-81.8146,7.2943],[-81.8108,7.2941],[-81.8083,7.2934],[-81.8072,7.2916],[-81.8077,7.2874]]],[[[-81.1492,7.5612],[-81.1356,7.5682],[-81.1181,7.5745],[-81.0877,7.5816],[-81.075,7.5773],[-81.0616,7.5756],[-81.0331,7.5754],[-81.045,7.5541],[-81.0528,7.5446],[-81.0641,7.5407],[-81.075,7.5353],[-81.0828,7.5338],[-81.0914,7.5375],[-81.0978,7.5425],[-81.1033,7.5456],[-81.1099,7.5471],[-81.119,7.5475],[-81.1293,7.5453],[-81.1344,7.5399],[-81.1378,7.5334],[-81.143,7.5277],[-81.1709,7.5134],[-81.1849,7.497],[-81.1907,7.4935],[-81.1991,7.4935],[-81.2086,7.4956],[-81.2158,7.4983],[-81.2181,7.4997],[-81.2457,7.4901],[-81.2519,7.4904],[-81.2426,7.5034],[-81.2329,7.5134],[-81.2227,7.5211],[-81.2104,7.5259],[-81.1744,7.5314],[-81.1641,7.5405],[-81.1576,7.5516],[-81.1492,7.5612]]],[[[-81.6644,7.3973],[-81.6525,7.391],[-81.6221,7.3939],[-81.6159,7.3867],[-81.588,7.3352],[-81.6067,7.3276],[-81.6282,7.3216],[-81.6494,7.3215],[-81.6842,7.3414],[-81.7271,7.3444],[-81.7462,7.3489],[-81.7567,7.3577],[-81.7808,7.3842],[-81.8,7.3956],[-81.8419,7.4308],[-81.8647,7.4785],[-81.8729,7.486],[-81.8751,7.4904],[-81.8828,7.5168],[-81.8789,7.5175],[-81.8581,7.5175],[-81.8487,7.5202],[-81.8489,7.5241],[-81.8363,7.5467],[-81.8344,7.5475],[-81.8318,7.5593],[-81.8314,7.5682],[-81.83,7.5762],[-81.8245,7.5854],[-81.8168,7.5904],[-81.7983,7.5942],[-81.7701,7.6148],[-81.7604,7.6202],[-81.7599,7.6164],[-81.7525,7.6164],[-81.7552,7.624],[-81.7573,7.6364],[-81.7599,7.6443],[-81.7525,7.6443],[-81.7525,7.6369],[-81.7462,7.6369],[-81.7468,7.6418],[-81.7454,7.6433],[-81.7424,7.6435],[-81.7388,7.6443],[-81.7162,7.5797],[-81.7152,7.568],[-81.7133,7.5659],[-81.7053,7.5537],[-81.7048,7.5511],[-81.7059,7.5431],[-81.7053,7.5407],[-81.7021,7.5402],[-81.6938,7.5414],[-81.691,7.5407],[-81.682,7.5346],[-81.6756,7.5321],[-81.6718,7.5264],[-81.6705,7.5102],[-81.6764,7.5055],[-81.7084,7.4935],[-81.7093,7.4866],[-81.7168,7.4575],[-81.719,7.4525],[-81.7127,7.4401],[-81.6947,7.424],[-81.691,7.414],[-81.6892,7.4038],[-81.6844,7.395],[-81.6779,7.3916],[-81.6705,7.3973],[-81.6644,7.3973]]],[[[-81.2131,8.7918],[-81.1748,8.7968],[-81.1303,8.8017],[-81.0877,8.8087],[-81.0799,8.8048],[-81.0707,8.8068],[-81.0615,8.8132],[-81.0536,8.8224],[-80.9751,8.8481],[-80.8989,8.8796],[-80.8817,8.8857],[-80.8626,8.8851],[-80.862,8.8769],[-80.8617,8.8742],[-80.8603,8.8536],[-80.8568,8.8441],[-80.8512,8.8327],[-80.8407,8.8209],[-80.8334,8.8146],[-80.8151,8.8026],[-80.7978,8.7946],[-80.7803,8.7889],[-80.769,8.7841],[-80.7615,8.7795],[-80.7404,8.7557],[-80.7335,8.7446],[-80.7282,8.7301],[-80.7329,8.7149],[-80.7386,8.7028],[-80.742,8.6908],[-80.7381,8.6725],[-80.7334,8.6644],[-80.7279,8.6586],[-80.7258,8.653],[-80.7239,8.6461],[-80.7394,8.6152],[-80.7513,8.5864],[-80.7787,8.5533],[-80.8103,8.5483],[-80.8221,8.5377],[-80.8005,8.5186],[-80.7801,8.4914],[-80.7567,8.4502],[-80.718,8.3489],[-80.6935,8.3093],[-80.6974,8.2772],[-80.7119,8.2271],[-80.7381,8.1807],[-80.7341,8.1635],[-80.687,8.1326],[-80.7097,8.1307],[-80.7188,8.133],[-80.7324,8.1334],[-80.742,8.1298],[-80.7647,8.1026],[-80.781,8.088],[-80.817,8.0736],[-80.8536,8.0599],[-80.838,8.0159],[-80.8392,8.0004],[-80.8499,7.9808],[-80.8578,7.9696],[-80.8863,7.9443],[-80.9074,7.9219],[-80.9329,7.9154],[-80.9377,7.9111],[-80.9434,7.9015],[-80.947,7.7884],[-80.9428,7.7658],[-80.9195,7.7718],[-80.9095,7.7677],[-80.9048,7.7633],[-80.8976,7.7532],[-80.8917,7.7374],[-80.8849,7.7087],[-80.8792,7.6953],[-80.8021,7.5812],[-80.7723,7.5636],[-80.7519,7.5592],[-80.7457,7.5557],[-80.7197,7.5296],[-80.7221,7.5017],[-80.7151,7.4589],[-80.6993,7.4107],[-80.6735,7.376],[-80.6671,7.3525],[-80.6666,7.3378],[-80.6688,7.3273],[-80.6681,7.3228],[-80.6534,7.318],[-80.6442,7.3126],[-80.6235,7.2972],[-80.6133,7.2858],[-80.6068,7.2718],[-80.6041,7.2367],[-80.7131,7.2165],[-80.7934,7.2136],[-80.814,7.2191],[-80.8208,7.2191],[-80.826,7.2133],[-80.8311,7.2114],[-80.8362,7.2133],[-80.8413,7.2191],[-80.8481,7.2191],[-80.8618,7.2057],[-80.8731,7.2126],[-80.8891,7.239],[-80.8944,7.2434],[-80.9018,7.2481],[-80.9106,7.2518],[-80.9201,7.2533],[-80.9297,7.2565],[-80.9302,7.2636],[-80.9256,7.2706],[-80.9201,7.2737],[-80.916,7.2781],[-80.9171,7.2996],[-80.9164,7.3079],[-80.9112,7.315],[-80.8999,7.3235],[-80.896,7.3284],[-80.8924,7.3417],[-80.8916,7.3602],[-80.8957,7.3766],[-80.9212,7.392],[-80.9208,7.4108],[-80.9102,7.4417],[-80.9151,7.4547],[-80.9512,7.4935],[-80.9546,7.4955],[-80.9622,7.5025],[-80.9669,7.5099],[-80.9547,7.5169],[-80.9527,7.5255],[-80.9517,7.5356],[-80.9477,7.5441],[-80.9463,7.5557],[-80.9557,7.5696],[-80.969,7.5821],[-80.9791,7.5891],[-80.9791,7.5959],[-80.9717,7.5959],[-80.9717,7.6027],[-81.02,7.6505],[-81.0299,7.6561],[-81.0375,7.6583],[-81.0413,7.6617],[-81.0399,7.671],[-81.0352,7.68],[-81.0278,7.6862],[-81.0179,7.6884],[-81.0058,7.6853],[-81.0106,7.6939],[-81.0218,7.7027],[-81.0345,7.7093],[-81.0433,7.712],[-81.0448,7.7167],[-81.0262,7.7467],[-81.0371,7.746],[-81.0469,7.7472],[-81.0548,7.75],[-81.061,7.7542],[-81.0576,7.755],[-81.0548,7.7548],[-81.0533,7.7559],[-81.0536,7.7604],[-81.0767,7.7648],[-81.0861,7.7791],[-81.0854,7.7943],[-81.0781,7.8013],[-81.0725,7.8035],[-81.0675,7.8082],[-81.0608,7.8129],[-81.0502,7.815],[-81.0376,7.815],[-81.0276,7.8168],[-81.0213,7.8227],[-81.02,7.8355],[-81.0262,7.8355],[-81.0489,7.8227],[-81.0559,7.8494],[-81.0536,7.9112],[-81.0752,7.8713],[-81.0904,7.8579],[-81.102,7.8771],[-81.1082,7.8771],[-81.1059,7.8664],[-81.1022,7.8586],[-81.0963,7.8531],[-81.0877,7.8492],[-81.0877,7.8423],[-81.133,7.8423],[-81.1424,7.8444],[-81.1548,7.8538],[-81.1671,7.856],[-81.1924,7.8633],[-81.1974,7.8791],[-81.1999,7.8936],[-81.218,7.8975],[-81.2082,7.8935],[-81.2052,7.8899],[-81.2044,7.8833],[-81.2176,7.879],[-81.2152,7.871],[-81.1975,7.856],[-81.1802,7.8469],[-81.1771,7.8457],[-81.1787,7.8369],[-81.1816,7.8297],[-81.1833,7.8237],[-81.1647,7.789],[-81.1744,7.763],[-81.1967,7.7417],[-81.218,7.7263],[-81.2224,7.7344],[-81.2232,7.7392],[-81.2215,7.7427],[-81.218,7.7467],[-81.218,7.7542],[-81.232,7.755],[-81.246,7.7542],[-81.246,7.7467],[-81.2354,7.7438],[-81.2295,7.7378],[-81.218,7.7194],[-81.2316,7.7144],[-81.2374,7.7151],[-81.246,7.7194],[-81.2387,7.7075],[-81.2317,7.6989],[-81.2255,7.6989],[-81.2121,7.7061],[-81.1975,7.712],[-81.1933,7.7008],[-81.1975,7.6574],[-81.1955,7.6457],[-81.1952,7.6389],[-81.1975,7.6301],[-81.2013,7.6252],[-81.2134,7.6154],[-81.218,7.609],[-81.2255,7.609],[-81.234,7.6153],[-81.2662,7.6324],[-81.2733,7.6335],[-81.2787,7.6461],[-81.2912,7.6507],[-81.3142,7.6505],[-81.397,7.6735],[-81.4241,7.671],[-81.4282,7.6826],[-81.4349,7.6927],[-81.4429,7.7005],[-81.4508,7.7051],[-81.4739,7.6994],[-81.5034,7.702],[-81.5258,7.7115],[-81.5271,7.7263],[-81.5187,7.7289],[-81.5,7.7387],[-81.4888,7.7492],[-81.5281,7.7606],[-81.5391,7.7574],[-81.5402,7.7399],[-81.5632,7.7563],[-81.5749,7.7604],[-81.5749,7.7672],[-81.5684,7.776],[-81.5739,7.7843],[-81.5831,7.7934],[-81.588,7.8045],[-81.5863,7.8209],[-81.5818,7.8316],[-81.5675,7.8492],[-81.5675,7.856],[-81.5746,7.8607],[-81.5819,7.8625],[-81.589,7.8611],[-81.5954,7.856],[-81.6016,7.856],[-81.6091,7.8628],[-81.6091,7.8703],[-81.5998,7.8778],[-81.5999,7.885],[-81.608,7.8898],[-81.6227,7.8901],[-81.6196,7.9053],[-81.6187,7.922],[-81.6129,7.9314],[-81.5954,7.9249],[-81.598,7.9338],[-81.6021,7.94],[-81.6159,7.9522],[-81.6112,7.9596],[-81.6129,7.9742],[-81.6091,7.9864],[-81.6213,7.9813],[-81.6271,7.9828],[-81.6289,7.9818],[-81.6289,7.9693],[-81.6241,7.9554],[-81.6226,7.9479],[-81.6259,7.9447],[-81.6333,7.9459],[-81.6385,7.9492],[-81.6416,7.9547],[-81.6426,7.9621],[-81.6459,7.9731],[-81.6636,7.9973],[-81.6626,7.9977],[-81.6425,8.003],[-81.638,8.0112],[-81.6338,8.0227],[-81.6318,8.035],[-81.6061,8.1349],[-81.6019,8.1451],[-81.5979,8.1521],[-81.5732,8.1761],[-81.523,8.239],[-81.5171,8.2438],[-81.5155,8.2461],[-81.5131,8.251],[-81.5105,8.2812],[-81.5132,8.3107],[-81.5193,8.3417],[-81.5225,8.3793],[-81.5267,8.4292],[-81.5257,8.4439],[-81.5225,8.4605],[-81.4993,8.5161],[-81.4903,8.5559],[-81.4886,8.5969],[-81.4632,8.584],[-81.4324,8.5767],[-81.4212,8.5719],[-81.4152,8.5681],[-81.4105,8.5585],[-81.3635,8.555],[-81.3375,8.5602],[-81.3285,8.5581],[-81.2823,8.5222],[-81.2656,8.5116],[-81.2251,8.501],[-81.2033,8.4922],[-81.192,8.4894],[-81.1836,8.4894],[-81.1561,8.4955],[-81.1716,8.511],[-81.1803,8.5266],[-81.1838,8.5357],[-81.1883,8.5441],[-81.1959,8.5523],[-81.2045,8.5653],[-81.2105,8.5863],[-81.2145,8.6232],[-81.2112,8.6838],[-81.2227,8.7578],[-81.2159,8.7829],[-81.2159,8.7882],[-81.2131,8.7918]]]]}}]}