{"type":"FeatureCollection","features":[{"type":"Feature","properties":{"id":"PRT-739","name":"Aveiro","nameBn":"আভিয়েরো","type":"District","bounds":[-8.7879,40.2857,-8.0871,41.0834],"center":[-8.4394,40.6738]},"geometry":{"type":"Polygon","coordinates":[[[-8.7879,40.523],[-8.7849,40.5368],[-8.7658,40.5825],[-8.753,40.6408],[-8.7504,40.6439],[-8.7446,40.6469],[-8.744,40.6258],[-8.7446,40.619],[-8.7247,40.6445],[-8.7103,40.6535],[-8.6962,40.6469],[-8.69,40.6469],[-8.69,40.6531],[-8.6924,40.6557],[-8.6964,40.6613],[-8.6988,40.668],[-8.6962,40.6737],[-8.6864,40.6779],[-8.6808,40.675],[-8.6769,40.6697],[-8.672,40.6668],[-8.6621,40.6699],[-8.6536,40.6772],[-8.6416,40.6942],[-8.6575,40.7014],[-8.6663,40.7132],[-8.6636,40.7241],[-8.6449,40.7289],[-8.6218,40.7307],[-8.6039,40.7358],[-8.5884,40.7442],[-8.5727,40.7556],[-8.5895,40.7547],[-8.6147,40.7449],[-8.636,40.7416],[-8.6399,40.7401],[-8.6454,40.7397],[-8.6684,40.7475],[-8.6757,40.7556],[-8.6837,40.7831],[-8.6456,40.8237],[-8.6553,40.8449],[-8.657,40.8286],[-8.6632,40.8149],[-8.6705,40.8112],[-8.6757,40.8244],[-8.6898,40.8041],[-8.7006,40.778],[-8.7074,40.7503],[-8.7098,40.7252],[-8.7143,40.7091],[-8.7251,40.686],[-8.7384,40.6645],[-8.7508,40.6531],[-8.6551,40.9938],[-8.6552,41.0167],[-8.655,41.0167],[-8.6455,41.0187],[-8.6019,41.0231],[-8.5855,41.0151],[-8.5536,41.0237],[-8.5382,41.032],[-8.5261,41.0322],[-8.5171,41.0284],[-8.5088,41.0223],[-8.4946,41.0166],[-8.4843,41.0173],[-8.4768,41.0212],[-8.4701,41.0349],[-8.4657,41.0405],[-8.4481,41.0555],[-8.4276,41.0393],[-8.423,41.0336],[-8.4157,41.0226],[-8.3978,41.0119],[-8.3896,41.0119],[-8.3863,41.0162],[-8.3877,41.0227],[-8.3924,41.0283],[-8.3933,41.0345],[-8.3923,41.0397],[-8.366,41.0493],[-8.3462,41.044],[-8.2978,41.0696],[-8.2944,41.0724],[-8.2902,41.0834],[-8.2296,41.0538],[-8.2262,41.0476],[-8.2229,41.038],[-8.224,41.0312],[-8.2244,41.0094],[-8.1493,40.982],[-8.1371,40.9819],[-8.1239,40.9838],[-8.1169,40.9956],[-8.1142,40.9991],[-8.1114,41.0019],[-8.0981,41.0106],[-8.0911,41.0103],[-8.0877,41.0067],[-8.0871,41.0024],[-8.0872,40.9999],[-8.0875,40.9985],[-8.0894,40.9934],[-8.1209,40.9585],[-8.1258,40.9477],[-8.1289,40.936],[-8.1277,40.9292],[-8.1231,40.9159],[-8.1183,40.8902],[-8.1098,40.8721],[-8.1104,40.8604],[-8.1154,40.8535],[-8.124,40.8516],[-8.1331,40.8523],[-8.1414,40.8552],[-8.1493,40.8594],[-8.1578,40.8622],[-8.1695,40.8619],[-8.1872,40.8552],[-8.1993,40.8537],[-8.211,40.855],[-8.2189,40.8577],[-8.2496,40.8554],[-8.2383,40.8246],[-8.2396,40.8189],[-8.2486,40.8073],[-8.2689,40.7742],[-8.2924,40.7544],[-8.3156,40.7403],[-8.325,40.7272],[-8.3256,40.723],[-8.3254,40.7184],[-8.3237,40.7121],[-8.3192,40.7059],[-8.3054,40.6943],[-8.2994,40.6859],[-8.2962,40.679],[-8.2952,40.6509],[-8.2883,40.6376],[-8.2834,40.635],[-8.2655,40.6293],[-8.2486,40.619],[-8.2894,40.6065],[-8.2962,40.6013],[-8.302,40.5939],[-8.3014,40.587],[-8.2902,40.5651],[-8.2839,40.5471],[-8.2782,40.5407],[-8.2715,40.5358],[-8.265,40.5296],[-8.2532,40.5145],[-8.3081,40.4976],[-8.3313,40.4844],[-8.3329,40.4787],[-8.3308,40.4721],[-8.3209,40.4581],[-8.3216,40.445],[-8.3256,40.4366],[-8.3542,40.4029],[-8.3502,40.372],[-8.3591,40.3647],[-8.3583,40.3563],[-8.3705,40.3442],[-8.3921,40.3454],[-8.3992,40.3437],[-8.4076,40.3364],[-8.4133,40.3282],[-8.4359,40.3059],[-8.4406,40.2967],[-8.4498,40.2898],[-8.4572,40.2857],[-8.5155,40.2904],[-8.5224,40.2968],[-8.5238,40.3029],[-8.5235,40.312],[-8.5208,40.3224],[-8.5127,40.3375],[-8.5073,40.344],[-8.502,40.3481],[-8.4989,40.3497],[-8.4946,40.3526],[-8.4927,40.3554],[-8.4876,40.3702],[-8.4865,40.3764],[-8.4881,40.3836],[-8.4996,40.4001],[-8.5049,40.4201],[-8.5166,40.4192],[-8.5321,40.4139],[-8.5484,40.4056],[-8.5572,40.4027],[-8.5656,40.4044],[-8.5727,40.4115],[-8.5758,40.4295],[-8.5767,40.4393],[-8.5705,40.4638],[-8.6089,40.484],[-8.6306,40.4584],[-8.6342,40.4422],[-8.6421,40.4317],[-8.6754,40.4347],[-8.7858,40.5209],[-8.7879,40.523]]]}},{"type":"Feature","properties":{"id":"PRT-735","name":"Azores","nameBn":"অ্যাজোরেস","type":"Autonomous region","bounds":[-31.2849,36.9343,-25.0122,39.7283],"center":[-28.0394,38.6351]},"geometry":{"type":"MultiPolygon","coordinates":[[[[-25.0668,37.0215],[-25.0467,37.0107],[-25.0292,36.9924],[-25.0169,36.9704],[-25.0122,36.9492],[-25.0271,36.9343],[-25.0607,36.9372],[-25.119,36.9526],[-25.1517,36.9459],[-25.1691,36.946],[-25.1767,36.956],[-25.1832,36.9689],[-25.1953,36.9802],[-25.2017,36.9904],[-25.191,37.0004],[-25.1703,37.0155],[-25.1336,37.023],[-25.0945,37.0245],[-25.0668,37.0215]]],[[[-25.1978,37.8644],[-25.1592,37.852],[-25.1352,37.8223],[-25.1323,37.7862],[-25.1568,37.7545],[-25.1947,37.7407],[-25.3275,37.7272],[-25.3724,37.7174],[-25.4203,37.7136],[-25.4654,37.7154],[-25.4883,37.7137],[-25.5057,37.7067],[-25.5327,37.7201],[-25.5591,37.7291],[-25.6155,37.7409],[-25.7043,37.744],[-25.8251,37.8154],[-25.8595,37.8539],[-25.8415,37.906],[-25.7646,37.9116],[-25.7391,37.906],[-25.7042,37.8826],[-25.6981,37.8743],[-25.6972,37.8625],[-25.6942,37.8527],[-25.6888,37.8459],[-25.6807,37.8433],[-25.5538,37.8297],[-25.5389,37.833],[-25.5126,37.8475],[-25.4989,37.8508],[-25.4899,37.848],[-25.4689,37.8347],[-25.4585,37.8297],[-25.442,37.8373],[-25.3398,37.8618],[-25.1978,37.8644]]],[[[-28.1095,38.4466],[-28.0638,38.4428],[-28.0471,38.4326],[-28.0406,38.4091],[-28.0542,38.3985],[-28.0849,38.3982],[-28.1627,38.4072],[-28.1852,38.406],[-28.2053,38.4003],[-28.2419,38.3776],[-28.2537,38.3826],[-28.2629,38.3948],[-28.2746,38.4057],[-28.2968,38.4113],[-28.4394,38.4135],[-28.4595,38.4057],[-28.5254,38.4539],[-28.5489,38.4844],[-28.5489,38.5286],[-28.5187,38.5501],[-28.4853,38.5578],[-28.4145,38.5565],[-28.3745,38.5505],[-28.2746,38.5019],[-28.2391,38.4897],[-28.2367,38.4875],[-28.2262,38.4844],[-28.2063,38.4709],[-28.1958,38.4677],[-28.1745,38.4648],[-28.1095,38.4466]]],[[[-28.6097,38.5974],[-28.5961,38.5527],[-28.603,38.5515],[-28.635,38.5406],[-28.644,38.5353],[-28.6378,38.5294],[-28.6354,38.5258],[-28.6321,38.5236],[-28.6234,38.5224],[-28.6362,38.5155],[-28.6478,38.5158],[-28.6718,38.5224],[-28.6839,38.5214],[-28.7143,38.5153],[-28.727,38.5149],[-28.7496,38.5235],[-28.7754,38.5544],[-28.7953,38.5695],[-28.8411,38.5911],[-28.8424,38.5994],[-28.8089,38.6042],[-28.7799,38.6049],[-28.7663,38.6068],[-28.7538,38.6117],[-28.7451,38.6192],[-28.7286,38.639],[-28.7196,38.6452],[-28.6326,38.614],[-28.6097,38.5974]]],[[[-27.891,38.6042],[-27.8166,38.5828],[-27.7789,38.5671],[-27.7606,38.549],[-27.7775,38.5441],[-27.7965,38.5416],[-27.8358,38.5428],[-27.8522,38.5473],[-27.8849,38.5605],[-27.9152,38.5652],[-27.932,38.5703],[-27.9486,38.5778],[-27.9624,38.5869],[-27.9769,38.5931],[-28.0038,38.5894],[-28.0207,38.5974],[-28.0345,38.5901],[-28.0442,38.5939],[-28.0616,38.6117],[-28.0744,38.6176],[-28.1779,38.6451],[-28.1958,38.6557],[-28.2156,38.6821],[-28.2231,38.6862],[-28.2311,38.685],[-28.2347,38.6833],[-28.2386,38.6828],[-28.2472,38.6862],[-28.2496,38.6899],[-28.2485,38.6944],[-28.2493,38.6982],[-28.2572,38.6999],[-28.2655,38.7032],[-28.3121,38.7353],[-28.3158,38.7421],[-28.3155,38.7551],[-28.2975,38.7493],[-28.2645,38.7315],[-28.2504,38.7277],[-28.2325,38.7256],[-28.0343,38.6663],[-27.891,38.6042]]],[[[-27.0201,38.6937],[-27.0257,38.69],[-27.0478,38.6829],[-27.0544,38.6794],[-27.0561,38.6713],[-27.0517,38.6543],[-27.0544,38.6452],[-27.0603,38.6414],[-27.0891,38.631],[-27.1142,38.639],[-27.1817,38.6394],[-27.2045,38.6527],[-27.2172,38.6413],[-27.2284,38.6411],[-27.2529,38.6527],[-27.2788,38.6574],[-27.3048,38.6589],[-27.3276,38.6663],[-27.3527,38.6844],[-27.3734,38.707],[-27.3833,38.7277],[-27.3917,38.7589],[-27.3688,38.7827],[-27.3318,38.798],[-27.2982,38.8035],[-27.1443,38.7961],[-27.1155,38.7861],[-27.0751,38.767],[-27.0426,38.7445],[-27.0375,38.7244],[-27.0409,38.7144],[-27.0328,38.7086],[-27.0228,38.7028],[-27.0201,38.6937]]],[[[-27.9835,39.0151],[-28.0039,39.0159],[-28.0252,39.0191],[-28.0452,39.0256],[-28.0616,39.0363],[-28.073,39.053],[-28.0715,39.0676],[-28.0548,39.0977],[-28.0448,39.1032],[-28.0343,39.105],[-28.0238,39.1032],[-28.0138,39.0977],[-28.0071,39.1046],[-27.9913,39.0878],[-27.9581,39.0665],[-27.9422,39.053],[-27.9359,39.036],[-27.9472,39.0242],[-27.9662,39.0173],[-27.9835,39.0151]]],[[[-31.2079,39.5086],[-31.1986,39.5022],[-31.1863,39.4966],[-31.1727,39.4953],[-31.1595,39.5018],[-31.1407,39.4827],[-31.1327,39.4655],[-31.1316,39.423],[-31.139,39.4003],[-31.1566,39.3726],[-31.1772,39.3556],[-31.1937,39.3647],[-31.2125,39.3577],[-31.2344,39.3557],[-31.2548,39.3581],[-31.2688,39.3647],[-31.2781,39.3784],[-31.2847,39.3979],[-31.2849,39.4162],[-31.2756,39.4261],[-31.2809,39.4431],[-31.2756,39.4571],[-31.2671,39.4721],[-31.2626,39.4919],[-31.2558,39.5075],[-31.2393,39.5176],[-31.219,39.5224],[-31.2005,39.5222],[-31.2079,39.5086]]],[[[-31.1173,39.7283],[-31.0827,39.7227],[-31.0802,39.6933],[-31.1,39.664],[-31.1316,39.6588],[-31.133,39.6654],[-31.1489,39.6964],[-31.1527,39.7011],[-31.1496,39.7115],[-31.1411,39.7209],[-31.1294,39.7271],[-31.1173,39.7283]]]]}},{"type":"Feature","properties":{"id":"PRT-743","name":"Beja","nameBn":"বেজা জেলা","type":"District","bounds":[-8.8265,37.3266,-6.9475,38.3319],"center":[-7.8872,37.8511]},"geometry":{"type":"Polygon","coordinates":[[[-6.9506,38.1984],[-6.9475,38.1966],[-6.9576,38.1682],[-6.9655,38.1533],[-6.979,38.1199],[-6.9976,38.0896],[-7.0064,38.0593],[-7.0158,38.0468],[-7.024,38.0226],[-7.0494,38.0202],[-7.1059,38.0387],[-7.1233,38.04],[-7.132,38.0324],[-7.1419,38.0116],[-7.1522,38.0007],[-7.1597,37.9968],[-7.1729,37.9938],[-7.1853,37.9887],[-7.1976,37.9899],[-7.2103,37.993],[-7.2233,37.9938],[-7.234,37.9881],[-7.2658,37.983],[-7.2727,37.977],[-7.2721,37.9689],[-7.2691,37.9594],[-7.2686,37.9492],[-7.2739,37.9315],[-7.2958,37.8849],[-7.3069,37.8508],[-7.3344,37.8119],[-7.4263,37.7506],[-7.444,37.7302],[-7.4576,37.7001],[-7.4663,37.652],[-7.4716,37.6369],[-7.4785,37.6289],[-7.5049,37.6064],[-7.5143,37.6014],[-7.5118,37.5953],[-7.5125,37.5904],[-7.5147,37.5859],[-7.5158,37.5809],[-7.5265,37.5712],[-7.5297,37.5672],[-7.5291,37.5567],[-7.5276,37.5555],[-7.5237,37.5557],[-7.5184,37.5419],[-7.5175,37.5352],[-7.5154,37.5293],[-7.5146,37.5283],[-7.5148,37.5283],[-7.5395,37.5245],[-7.5684,37.5244],[-7.589,37.5154],[-7.6088,37.5009],[-7.6197,37.4945],[-7.6285,37.4931],[-7.6348,37.4953],[-7.6488,37.4974],[-7.6547,37.4998],[-7.7073,37.5004],[-7.7856,37.4741],[-7.8032,37.4642],[-7.8102,37.461],[-7.8158,37.4576],[-7.8221,37.4574],[-7.8402,37.4497],[-7.8483,37.4478],[-7.8544,37.4452],[-7.8557,37.4384],[-7.8709,37.437],[-7.8882,37.4282],[-7.8904,37.4222],[-7.8956,37.4155],[-7.9086,37.4093],[-7.9362,37.4053],[-7.9496,37.4052],[-7.9824,37.4014],[-7.9955,37.394],[-7.9996,37.3873],[-8.0012,37.3806],[-7.9985,37.3766],[-7.9907,37.3683],[-7.9907,37.3639],[-7.998,37.3616],[-8.0329,37.3465],[-8.0554,37.332],[-8.0707,37.3267],[-8.0813,37.3266],[-8.1189,37.33],[-8.1387,37.3299],[-8.1708,37.337],[-8.2408,37.3791],[-8.2561,37.3851],[-8.2684,37.3963],[-8.2711,37.4023],[-8.2736,37.4167],[-8.2807,37.4283],[-8.3057,37.4339],[-8.3233,37.432],[-8.3323,37.4276],[-8.3426,37.429],[-8.3541,37.4287],[-8.3751,37.4246],[-8.414,37.4139],[-8.4178,37.4111],[-8.4242,37.4038],[-8.4262,37.3966],[-8.4314,37.3871],[-8.4483,37.3814],[-8.466,37.3754],[-8.5091,37.3809],[-8.5239,37.3861],[-8.5622,37.4045],[-8.574,37.4058],[-8.6128,37.4008],[-8.6209,37.398],[-8.6258,37.3924],[-8.6311,37.3871],[-8.6367,37.3836],[-8.6464,37.3851],[-8.6521,37.3893],[-8.6785,37.3991],[-8.7193,37.4003],[-8.7271,37.4039],[-8.7364,37.4109],[-8.745,37.4189],[-8.7609,37.4295],[-8.7764,37.4329],[-8.7958,37.4426],[-8.8076,37.4494],[-8.8041,37.4628],[-8.7979,37.4896],[-8.7955,37.5354],[-8.8013,37.5591],[-8.8111,37.5749],[-8.8244,37.5876],[-8.8265,37.6006],[-8.8129,37.6447],[-8.8083,37.672],[-8.7993,37.6976],[-8.7862,37.7026],[-8.7576,37.7067],[-8.7522,37.7308],[-8.7522,37.7346],[-8.7618,37.7278],[-8.7841,37.7231],[-8.8087,37.7229],[-8.817,37.7403],[-8.8096,37.7912],[-8.8014,37.8268],[-8.7918,37.8192],[-8.786,37.8128],[-8.7811,37.8101],[-8.7737,37.8096],[-8.7668,37.8132],[-8.7584,37.8165],[-8.7515,37.8184],[-8.7341,37.8135],[-8.7269,37.8063],[-8.7235,37.8009],[-8.6978,37.776],[-8.6885,37.7624],[-8.6835,37.7575],[-8.6778,37.7579],[-8.6738,37.7625],[-8.6704,37.7677],[-8.6642,37.7705],[-8.6564,37.7692],[-8.6483,37.7655],[-8.6408,37.761],[-8.6236,37.7551],[-8.6126,37.7544],[-8.5958,37.759],[-8.59,37.7659],[-8.588,37.7738],[-8.5872,37.7815],[-8.578,37.8037],[-8.5728,37.8109],[-8.5557,37.825],[-8.5514,37.8323],[-8.549,37.8395],[-8.5391,37.8465],[-8.5217,37.853],[-8.4325,37.8666],[-8.3885,37.8603],[-8.3621,37.8602],[-8.3581,37.8594],[-8.3286,37.8467],[-8.3148,37.8747],[-8.3105,37.8816],[-8.2995,37.9087],[-8.2928,37.9528],[-8.2934,37.9815],[-8.3029,38.0027],[-8.3095,38.0128],[-8.3228,38.0213],[-8.3356,38.0222],[-8.347,38.0241],[-8.3598,38.029],[-8.3747,38.0433],[-8.3941,38.0551],[-8.3989,38.0652],[-8.4007,38.0705],[-8.4013,38.076],[-8.3982,38.0825],[-8.3966,38.0885],[-8.3937,38.0945],[-8.3912,38.1017],[-8.3858,38.1107],[-8.3788,38.111],[-8.3735,38.1088],[-8.3678,38.1071],[-8.3629,38.1073],[-8.3593,38.1117],[-8.357,38.1151],[-8.3521,38.1244],[-8.3508,38.1295],[-8.3509,38.1346],[-8.3501,38.1388],[-8.3478,38.1432],[-8.3408,38.1454],[-8.335,38.15],[-8.3281,38.1513],[-8.318,38.148],[-8.3107,38.1435],[-8.3026,38.1413],[-8.2957,38.1444],[-8.2893,38.1619],[-8.2882,38.1701],[-8.2847,38.1764],[-8.2773,38.1806],[-8.2417,38.1794],[-8.2349,38.1873],[-8.2308,38.1982],[-8.2227,38.2016],[-8.1879,38.2086],[-8.1704,38.2154],[-8.1351,38.2232],[-8.1305,38.2346],[-8.1307,38.2414],[-8.1301,38.2507],[-8.1377,38.2759],[-8.1621,38.3176],[-8.1583,38.3265],[-8.0843,38.3255],[-8.0619,38.3276],[-8.0475,38.3259],[-8.0425,38.3238],[-8.0304,38.3136],[-8.02,38.3075],[-8.011,38.3054],[-8.0027,38.3052],[-7.9804,38.3145],[-7.9691,38.3136],[-7.9604,38.3117],[-7.9312,38.3025],[-7.9086,38.2812],[-7.8239,38.2511],[-7.7734,38.2469],[-7.7473,38.2393],[-7.6837,38.2109],[-7.6694,38.2075],[-7.6036,38.2062],[-7.5844,38.2031],[-7.5622,38.1973],[-7.5171,38.1963],[-7.5064,38.1983],[-7.5045,38.205],[-7.4912,38.2219],[-7.4746,38.2356],[-7.446,38.2473],[-7.4442,38.2507],[-7.4283,38.2573],[-7.4244,38.2617],[-7.4142,38.2679],[-7.4073,38.2769],[-7.4029,38.2865],[-7.402,38.2932],[-7.4005,38.2998],[-7.3687,38.3068],[-7.3365,38.3206],[-7.328,38.3227],[-7.3216,38.3228],[-7.2962,38.3313],[-7.2881,38.3319],[-7.281,38.3308],[-7.2782,38.3268],[-7.277,38.3238],[-7.2761,38.319],[-7.2739,38.3154],[-7.2703,38.3108],[-7.265,38.3057],[-7.2609,38.2987],[-7.2585,38.291],[-7.2568,38.2837],[-7.2525,38.277],[-7.232,38.2609],[-7.2061,38.2513],[-7.2001,38.2461],[-7.1974,38.2395],[-7.1958,38.2324],[-7.1845,38.2118],[-7.1818,38.2046],[-7.173,38.1903],[-7.1644,38.1834],[-7.1521,38.1765],[-7.1375,38.1756],[-7.1277,38.1782],[-7.1216,38.1819],[-7.1171,38.1836],[-7.1035,38.1736],[-7.0883,38.1734],[-7.0631,38.1775],[-7.0387,38.1862],[-7.0264,38.1996],[-7.021,38.1982],[-7.0181,38.198],[-6.9921,38.2043],[-6.9642,38.2061],[-6.9506,38.1984]]]}},{"type":"Feature","properties":{"id":"PRT-749","name":"Braga","nameBn":"ব্রাগা জেলা","type":"District","bounds":[-8.8198,41.325,-7.8135,41.816],"center":[-8.3186,41.5663]},"geometry":{"type":"Polygon","coordinates":[[[-8.1793,41.8126],[-8.1796,41.8107],[-8.0935,41.8067],[-8.0504,41.816],[-8.0479,41.814],[-8.0476,41.8089],[-8.0494,41.8029],[-8.0548,41.7971],[-8.0596,41.79],[-8.0667,41.7613],[-8.076,41.7488],[-8.0847,41.7277],[-8.0902,41.7184],[-8.0951,41.712],[-8.118,41.6923],[-8.1043,41.6919],[-8.0916,41.6935],[-8.0854,41.6955],[-8.0779,41.6964],[-8.0704,41.6962],[-8.0614,41.695],[-8.0541,41.6958],[-8.0351,41.7024],[-8.0285,41.702],[-8.0219,41.6996],[-7.9959,41.6872],[-7.9907,41.6838],[-7.9882,41.6779],[-7.9923,41.6655],[-7.9946,41.6559],[-7.9985,41.6112],[-7.9782,41.6046],[-7.967,41.6029],[-7.957,41.599],[-7.9475,41.5964],[-7.9089,41.59],[-7.8963,41.5897],[-7.8665,41.5962],[-7.8459,41.6138],[-7.8356,41.6097],[-7.8305,41.6055],[-7.8135,41.5826],[-7.8158,41.571],[-7.8557,41.5256],[-7.8678,41.5157],[-7.8867,41.5091],[-7.8901,41.5062],[-7.8952,41.4942],[-7.9057,41.4868],[-7.9135,41.4885],[-7.9185,41.488],[-7.9236,41.4856],[-7.9328,41.4757],[-7.9419,41.452],[-7.9375,41.4448],[-7.9387,41.4396],[-7.9419,41.4325],[-7.9565,41.4142],[-7.9594,41.407],[-7.9639,41.4043],[-7.9672,41.4034],[-7.9694,41.4],[-7.9671,41.3931],[-7.9668,41.3878],[-7.9755,41.3701],[-7.979,41.36],[-7.9809,41.356],[-7.9845,41.3511],[-7.9892,41.3474],[-7.9945,41.3447],[-8.0016,41.3401],[-8.0055,41.3365],[-8.0107,41.3325],[-8.0183,41.3278],[-8.0256,41.3252],[-8.0361,41.325],[-8.0475,41.332],[-8.069,41.3411],[-8.0799,41.3391],[-8.1118,41.3497],[-8.1474,41.3698],[-8.1455,41.3789],[-8.1495,41.385],[-8.1698,41.4008],[-8.2193,41.4146],[-8.2343,41.3975],[-8.2542,41.3864],[-8.285,41.3753],[-8.2922,41.374],[-8.3157,41.3669],[-8.3223,41.3668],[-8.3358,41.3741],[-8.344,41.3763],[-8.3851,41.3719],[-8.4157,41.366],[-8.4406,41.3688],[-8.4477,41.3727],[-8.4554,41.376],[-8.4677,41.3759],[-8.4848,41.3726],[-8.5036,41.3642],[-8.5114,41.3598],[-8.5186,41.3546],[-8.5271,41.3532],[-8.5346,41.3512],[-8.5909,41.3512],[-8.6007,41.3497],[-8.6042,41.3494],[-8.6115,41.3524],[-8.617,41.3597],[-8.6211,41.3729],[-8.6225,41.3808],[-8.6151,41.3884],[-8.6053,41.3904],[-8.5997,41.3929],[-8.5964,41.3981],[-8.6,41.4041],[-8.6099,41.4111],[-8.6213,41.4131],[-8.6351,41.4194],[-8.6525,41.4328],[-8.6585,41.4382],[-8.667,41.4441],[-8.6769,41.4469],[-8.702,41.4473],[-8.7277,41.4567],[-8.7516,41.4673],[-8.7751,41.4676],[-8.7751,41.4676],[-8.7748,41.4683],[-8.7865,41.4911],[-8.7883,41.5118],[-8.7927,41.5258],[-8.7954,41.5426],[-8.8083,41.5729],[-8.8129,41.5954],[-8.8195,41.6119],[-8.8198,41.6178],[-8.8198,41.6178],[-8.815,41.6173],[-8.7955,41.6151],[-8.7858,41.616],[-8.7127,41.636],[-8.6613,41.6375],[-8.6527,41.6391],[-8.6451,41.6439],[-8.6417,41.6483],[-8.6368,41.6509],[-8.6286,41.6467],[-8.599,41.6386],[-8.5789,41.636],[-8.568,41.6314],[-8.5587,41.6295],[-8.5521,41.6289],[-8.5343,41.6523],[-8.5391,41.6633],[-8.5369,41.6691],[-8.5321,41.6761],[-8.5231,41.6825],[-8.52,41.6894],[-8.518,41.6968],[-8.5161,41.712],[-8.5143,41.7197],[-8.5112,41.7271],[-8.5031,41.7338],[-8.498,41.7363],[-8.4899,41.7379],[-8.4816,41.7364],[-8.4737,41.7361],[-8.4569,41.7412],[-8.4391,41.7523],[-8.4316,41.756],[-8.4177,41.7603],[-8.4027,41.7628],[-8.3152,41.7659],[-8.2908,41.7726],[-8.1961,41.8115],[-8.1836,41.8113],[-8.1798,41.8125],[-8.1793,41.8126]]]}},{"type":"Feature","properties":{"id":"PRT-750","name":"Bragança","nameBn":"ব্রাগাংকা","type":"District","bounds":[-7.4323,41.0481,-6.2059,41.9875],"center":[-6.8194,41.5188]},"geometry":{"type":"Polygon","coordinates":[[[-6.4821,41.303],[-6.4959,41.2949],[-6.5545,41.2756],[-6.5635,41.2707],[-6.6289,41.2699],[-6.6466,41.2676],[-6.6582,41.2578],[-6.6938,41.2174],[-6.7013,41.2024],[-6.7069,41.1943],[-6.7422,41.1714],[-6.7552,41.1588],[-6.759,41.1518],[-6.7565,41.1271],[-6.7648,41.1089],[-6.8044,41.0644],[-6.818,41.0541],[-6.8453,41.0519],[-6.9068,41.0561],[-6.9274,41.0481],[-6.9283,41.0482],[-6.9446,41.0511],[-6.9871,41.0527],[-7.0753,41.0867],[-7.0861,41.0973],[-7.094,41.1108],[-7.099,41.124],[-7.0977,41.1329],[-7.0934,41.142],[-7.0927,41.1491],[-7.1024,41.1519],[-7.1095,41.1531],[-7.1161,41.1561],[-7.1218,41.1602],[-7.1263,41.1643],[-7.1217,41.171],[-7.1126,41.1922],[-7.1227,41.1884],[-7.1611,41.168],[-7.1701,41.1576],[-7.1904,41.1573],[-7.2225,41.1643],[-7.3007,41.1593],[-7.3262,41.1577],[-7.3597,41.1661],[-7.3723,41.1746],[-7.4022,41.2075],[-7.4174,41.2157],[-7.4323,41.216],[-7.4262,41.2293],[-7.4245,41.2341],[-7.4204,41.2398],[-7.4107,41.2429],[-7.3967,41.2445],[-7.393,41.2464],[-7.3945,41.2516],[-7.3952,41.2582],[-7.3945,41.2666],[-7.3905,41.2795],[-7.3815,41.2887],[-7.3716,41.297],[-7.3694,41.3012],[-7.3714,41.3073],[-7.3693,41.3177],[-7.3517,41.3317],[-7.3174,41.3402],[-7.341,41.3509],[-7.3496,41.3587],[-7.3565,41.3724],[-7.3623,41.3926],[-7.3623,41.4419],[-7.3295,41.4606],[-7.3205,41.4632],[-7.312,41.4672],[-7.3033,41.4757],[-7.2957,41.4914],[-7.2841,41.5085],[-7.2746,41.5169],[-7.2648,41.5199],[-7.2556,41.5205],[-7.2469,41.5222],[-7.2396,41.5249],[-7.2362,41.5303],[-7.2378,41.5365],[-7.2418,41.5434],[-7.2473,41.5498],[-7.2519,41.5565],[-7.2552,41.5647],[-7.2565,41.578],[-7.2525,41.6043],[-7.2202,41.6878],[-7.195,41.7273],[-7.1864,41.7336],[-7.1806,41.736],[-7.1752,41.7416],[-7.1727,41.7474],[-7.1729,41.7612],[-7.1739,41.7692],[-7.1922,41.7883],[-7.2011,41.8063],[-7.204,41.8163],[-7.2063,41.8339],[-7.2039,41.8541],[-7.2015,41.8644],[-7.2074,41.884],[-7.2093,41.8892],[-7.1979,41.9015],[-7.1957,41.9174],[-7.2021,41.9497],[-7.1999,41.9637],[-7.1926,41.9696],[-7.1773,41.9784],[-7.1597,41.9857],[-7.1454,41.9875],[-7.1132,41.9724],[-7.0827,41.9528],[-7.0513,41.942],[-7.0158,41.9537],[-6.9924,41.9664],[-6.9835,41.963],[-6.9695,41.9577],[-6.9451,41.9434],[-6.9171,41.9391],[-6.855,41.9429],[-6.8312,41.954],[-6.8249,41.9838],[-6.7944,41.9797],[-6.7579,41.9376],[-6.728,41.9309],[-6.6568,41.9331],[-6.6228,41.941],[-6.6095,41.9623],[-6.5851,41.9547],[-6.5717,41.9426],[-6.5676,41.9261],[-6.5758,41.8829],[-6.5679,41.8759],[-6.5501,41.8739],[-6.5242,41.8674],[-6.5357,41.8486],[-6.5601,41.7669],[-6.5644,41.7575],[-6.5715,41.7492],[-6.5774,41.7397],[-6.5743,41.731],[-6.5677,41.7224],[-6.5631,41.713],[-6.5605,41.6945],[-6.5553,41.6749],[-6.5415,41.6589],[-6.5134,41.6509],[-6.503,41.6531],[-6.488,41.6588],[-6.4744,41.6659],[-6.4677,41.6721],[-6.4608,41.6766],[-6.4471,41.6762],[-6.3659,41.6636],[-6.3171,41.6501],[-6.2722,41.6282],[-6.2301,41.5949],[-6.2161,41.5801],[-6.2059,41.5703],[-6.2536,41.5175],[-6.2795,41.497],[-6.2859,41.4869],[-6.2852,41.479],[-6.2825,41.4723],[-6.2829,41.4656],[-6.321,41.4196],[-6.3211,41.411],[-6.3523,41.4093],[-6.3662,41.4052],[-6.3792,41.3973],[-6.3762,41.3969],[-6.3755,41.3908],[-6.3767,41.383],[-6.3792,41.3775],[-6.3832,41.3765],[-6.3955,41.3784],[-6.3996,41.3775],[-6.431,41.339],[-6.4631,41.3141],[-6.4821,41.303]]]}},{"type":"Feature","properties":{"id":"PRT-751","name":"Castelo Branco","nameBn":"কাস্টেলো ব্রাঙ্কো জেলা","type":"District","bounds":[-8.2844,39.5571,-6.8797,40.4144],"center":[-7.5822,39.9984]},"geometry":{"type":"Polygon","coordinates":[[[-6.9421,40.255],[-6.9547,40.2534],[-6.9978,40.2317],[-7.0158,40.2255],[-7.0248,40.2162],[-7.0346,40.1931],[-7.0431,40.1814],[-7.0348,40.1667],[-7.0277,40.1326],[-7.0158,40.1191],[-7.0037,40.1163],[-6.9772,40.1134],[-6.9664,40.1103],[-6.9557,40.1029],[-6.9421,40.0863],[-6.9199,40.0649],[-6.8797,40.0092],[-6.8969,39.9871],[-6.9016,39.9765],[-6.8998,39.9656],[-6.9037,39.9567],[-6.9095,39.932],[-6.9126,39.9281],[-6.9223,39.9224],[-6.9252,39.9179],[-6.9251,39.9122],[-6.9216,39.9022],[-6.9218,39.8972],[-6.9235,39.8883],[-6.9242,39.8716],[-6.9277,39.8619],[-6.9528,39.8329],[-6.9623,39.8285],[-6.9852,39.8211],[-6.993,39.8161],[-7.0003,39.8025],[-6.9989,39.7918],[-6.9946,39.7826],[-6.993,39.7742],[-6.9968,39.7647],[-7.0087,39.7483],[-7.0133,39.7389],[-7.0137,39.7296],[-7.0107,39.7228],[-7.0096,39.7155],[-7.0211,39.694],[-7.0358,39.6893],[-7.1829,39.6751],[-7.2141,39.6762],[-7.2358,39.6865],[-7.2529,39.6823],[-7.2928,39.6833],[-7.3114,39.6803],[-7.3278,39.6748],[-7.3414,39.6718],[-7.5573,39.6798],[-7.5559,39.6772],[-7.5561,39.6773],[-7.5661,39.6804],[-7.586,39.6748],[-7.6032,39.6658],[-7.6163,39.6558],[-7.6389,39.6422],[-7.6556,39.6443],[-7.6725,39.6513],[-7.6955,39.6527],[-7.7119,39.6433],[-7.7244,39.6269],[-7.7336,39.6112],[-7.7401,39.6043],[-7.7597,39.5985],[-7.7759,39.5848],[-7.7902,39.5691],[-7.8047,39.5571],[-7.8139,39.567],[-7.8213,39.5846],[-7.8253,39.5918],[-7.8461,39.6171],[-7.8668,39.6359],[-7.8854,39.6447],[-7.9001,39.6542],[-7.9204,39.6598],[-7.9327,39.661],[-7.9435,39.6633],[-7.9503,39.6662],[-7.9528,39.6745],[-7.9514,39.6901],[-7.9522,39.7051],[-7.9539,39.7124],[-7.9543,39.7199],[-7.9562,39.7272],[-7.9592,39.7335],[-7.965,39.7377],[-7.9895,39.738],[-8.0211,39.7468],[-8.0419,39.7439],[-8.0468,39.7365],[-8.0586,39.6854],[-8.0662,39.6754],[-8.0709,39.6623],[-8.0705,39.6516],[-8.0632,39.6361],[-8.0618,39.6297],[-8.0615,39.6242],[-8.083,39.6182],[-8.1179,39.6154],[-8.1395,39.6162],[-8.1647,39.6297],[-8.2202,39.6465],[-8.2291,39.6594],[-8.2333,39.695],[-8.2334,39.714],[-8.2263,39.7232],[-8.2279,39.7417],[-8.2274,39.7464],[-8.2277,39.7519],[-8.2287,39.7566],[-8.2324,39.7623],[-8.2386,39.7676],[-8.2499,39.7717],[-8.2635,39.7743],[-8.2732,39.7794],[-8.2791,39.7948],[-8.2842,39.8059],[-8.2844,39.8108],[-8.2768,39.8197],[-8.2704,39.8235],[-8.27,39.8297],[-8.2705,39.8346],[-8.2649,39.8405],[-8.2596,39.8448],[-8.2154,39.8555],[-8.2055,39.8543],[-8.1997,39.8583],[-8.1915,39.8671],[-8.1827,39.8747],[-8.1734,39.878],[-8.165,39.8795],[-8.1555,39.8844],[-8.1458,39.8915],[-8.1263,39.9212],[-8.1105,39.9336],[-8.1079,39.9396],[-8.1008,39.9436],[-8.096,39.9452],[-8.0825,39.9468],[-8.0715,39.9567],[-8.0488,39.9613],[-8.0322,39.9609],[-8.0289,39.9649],[-8.0271,39.9697],[-8.0257,39.9754],[-8.0206,39.9767],[-8.0061,39.9777],[-8.0007,39.9823],[-7.9957,39.9842],[-7.987,39.9859],[-7.9801,39.9854],[-7.974,39.9836],[-7.9695,39.9817],[-7.9646,39.9846],[-7.9516,39.9994],[-7.9444,40.0031],[-7.9365,40.0042],[-7.9173,40.0045],[-7.9077,40.0095],[-7.906,40.0148],[-7.9105,40.0285],[-7.907,40.0367],[-7.8949,40.0469],[-7.8714,40.0562],[-7.857,40.0579],[-7.8449,40.0582],[-7.8358,40.0562],[-7.8266,40.0533],[-7.8072,40.0407],[-7.8045,40.0607],[-7.806,40.0775],[-7.801,40.0833],[-7.7962,40.0858],[-7.7912,40.085],[-7.7895,40.0816],[-7.786,40.0778],[-7.779,40.0762],[-7.7687,40.0775],[-7.7489,40.0878],[-7.7401,40.0945],[-7.7363,40.0999],[-7.7356,40.1055],[-7.736,40.1114],[-7.7372,40.1181],[-7.7419,40.1283],[-7.7693,40.143],[-7.7861,40.1589],[-7.7965,40.1657],[-7.8017,40.1728],[-7.8069,40.185],[-7.8038,40.1928],[-7.7821,40.232],[-7.7627,40.2384],[-7.7459,40.2399],[-7.7339,40.2442],[-7.6962,40.2656],[-7.6692,40.2744],[-7.6432,40.2867],[-7.6214,40.3044],[-7.6019,40.3268],[-7.5769,40.3192],[-7.5433,40.3246],[-7.5336,40.3309],[-7.5267,40.3376],[-7.5195,40.3514],[-7.5177,40.3584],[-7.5039,40.3766],[-7.4535,40.4134],[-7.4142,40.3885],[-7.3909,40.3828],[-7.3797,40.3839],[-7.3477,40.3906],[-7.3261,40.4098],[-7.3178,40.4107],[-7.3078,40.413],[-7.2906,40.4144],[-7.2828,40.4139],[-7.2712,40.4098],[-7.2798,40.3505],[-7.2923,40.3242],[-7.2999,40.3165],[-7.3085,40.3095],[-7.3187,40.2988],[-7.3212,40.2912],[-7.3203,40.2854],[-7.3167,40.2823],[-7.3097,40.2796],[-7.3034,40.2784],[-7.293,40.2751],[-7.272,40.2715],[-7.2466,40.2673],[-7.2016,40.28],[-7.1538,40.28],[-7.141,40.2835],[-7.1338,40.2893],[-7.1317,40.2964],[-7.1272,40.3045],[-7.1212,40.3118],[-7.1103,40.3193],[-7.1036,40.3176],[-7.098,40.3128],[-7.094,40.3059],[-7.0843,40.2924],[-7.0754,40.2863],[-7.0525,40.2829],[-7.0298,40.2837],[-7.0136,40.2872],[-7.0033,40.2865],[-6.9975,40.2856],[-6.9724,40.2759],[-6.957,40.2677],[-6.9466,40.2589],[-6.9425,40.2553],[-6.9421,40.255]]]}},{"type":"Feature","properties":{"id":"PRT-752","name":"Coimbra","nameBn":"কমব্রা জেলা","type":"District","bounds":[-8.9084,39.9212,-7.7356,40.523],"center":[-8.3219,40.1645]},"geometry":{"type":"Polygon","coordinates":[[[-8.9025,40.0474],[-8.8682,40.1248],[-8.8533,40.1392],[-8.8416,40.126],[-8.8251,40.1201],[-8.785,40.1187],[-8.785,40.1262],[-8.8011,40.1379],[-8.8162,40.1466],[-8.8336,40.1517],[-8.8794,40.1562],[-8.8965,40.1647],[-8.9066,40.1794],[-8.9084,40.2007],[-8.8957,40.2287],[-8.8654,40.2755],[-8.7986,40.4744],[-8.7879,40.523],[-8.7858,40.5209],[-8.6754,40.4347],[-8.6421,40.4317],[-8.6342,40.4422],[-8.6306,40.4584],[-8.6089,40.484],[-8.5705,40.4638],[-8.5767,40.4393],[-8.5758,40.4295],[-8.5727,40.4115],[-8.5656,40.4044],[-8.5572,40.4027],[-8.5484,40.4056],[-8.5321,40.4139],[-8.5166,40.4192],[-8.5049,40.4201],[-8.4996,40.4001],[-8.4881,40.3836],[-8.4865,40.3764],[-8.4876,40.3702],[-8.4927,40.3554],[-8.4946,40.3526],[-8.4989,40.3497],[-8.502,40.3481],[-8.5073,40.344],[-8.5127,40.3375],[-8.5208,40.3224],[-8.5235,40.312],[-8.5238,40.3029],[-8.5224,40.2968],[-8.5155,40.2904],[-8.4572,40.2857],[-8.4498,40.2898],[-8.4406,40.2967],[-8.4359,40.3059],[-8.4133,40.3282],[-8.4076,40.3364],[-8.3992,40.3437],[-8.3921,40.3454],[-8.3705,40.3442],[-8.3583,40.3563],[-8.3591,40.3647],[-8.3502,40.372],[-8.3387,40.3685],[-8.3291,40.3624],[-8.2983,40.3558],[-8.2749,40.3431],[-8.2591,40.3325],[-8.2432,40.3265],[-8.2354,40.3206],[-8.2293,40.3206],[-8.2266,40.3234],[-8.2242,40.3277],[-8.2235,40.3325],[-8.221,40.3367],[-8.2167,40.3397],[-8.1744,40.3459],[-8.1162,40.3389],[-8.0405,40.3817],[-7.9863,40.399],[-7.9425,40.4228],[-7.9247,40.4301],[-7.9008,40.4587],[-7.8668,40.4784],[-7.8556,40.4883],[-7.8452,40.4937],[-7.8246,40.4978],[-7.8144,40.4753],[-7.8079,40.4713],[-7.8022,40.4641],[-7.801,40.457],[-7.8051,40.4476],[-7.8108,40.4411],[-7.8191,40.4377],[-7.8278,40.4352],[-7.8346,40.4304],[-7.8376,40.4238],[-7.8306,40.4138],[-7.8221,40.4095],[-7.8047,40.4066],[-7.799,40.4021],[-7.7999,40.3932],[-7.7917,40.3569],[-7.7851,40.3493],[-7.7706,40.3395],[-7.7673,40.3341],[-7.77,40.3273],[-7.7927,40.3151],[-7.8014,40.307],[-7.8084,40.2967],[-7.8134,40.2811],[-7.8246,40.2615],[-7.7974,40.2495],[-7.7821,40.232],[-7.8038,40.1928],[-7.8069,40.185],[-7.8017,40.1728],[-7.7965,40.1657],[-7.7861,40.1589],[-7.7693,40.143],[-7.7419,40.1283],[-7.7372,40.1181],[-7.736,40.1114],[-7.7356,40.1055],[-7.7363,40.0999],[-7.7401,40.0945],[-7.7489,40.0878],[-7.7687,40.0775],[-7.779,40.0762],[-7.786,40.0778],[-7.7895,40.0816],[-7.7912,40.085],[-7.7962,40.0858],[-7.801,40.0833],[-7.806,40.0775],[-7.8045,40.0607],[-7.8072,40.0407],[-7.8266,40.0533],[-7.8358,40.0562],[-7.8449,40.0582],[-7.857,40.0579],[-7.8714,40.0562],[-7.8949,40.0469],[-7.907,40.0367],[-7.9105,40.0285],[-7.906,40.0148],[-7.9077,40.0095],[-7.9173,40.0045],[-7.9365,40.0042],[-7.9444,40.0031],[-7.9516,39.9994],[-7.9646,39.9846],[-7.9695,39.9817],[-7.974,39.9836],[-7.9801,39.9854],[-7.987,39.9859],[-7.9957,39.9842],[-8.0007,39.9823],[-8.0061,39.9777],[-8.0206,39.9767],[-8.0257,39.9754],[-8.0271,39.9697],[-8.0289,39.9649],[-8.0322,39.9609],[-8.0488,39.9613],[-8.0715,39.9567],[-8.0825,39.9468],[-8.096,39.9452],[-8.1008,39.9436],[-8.1079,39.9396],[-8.1105,39.9336],[-8.1263,39.9212],[-8.123,39.9335],[-8.124,39.935],[-8.1257,39.939],[-8.1284,39.944],[-8.1237,39.9543],[-8.1194,39.9584],[-8.108,39.9653],[-8.1494,40.017],[-8.1524,40.0342],[-8.1455,40.0624],[-8.1492,40.0688],[-8.1554,40.0764],[-8.1616,40.0802],[-8.1746,40.0863],[-8.2052,40.0551],[-8.2351,40.064],[-8.2777,40.0345],[-8.2931,40.016],[-8.2924,40.01],[-8.2905,40.0026],[-8.2873,39.9992],[-8.2753,39.9905],[-8.271,39.9848],[-8.2732,39.9764],[-8.2791,39.9716],[-8.2877,39.9708],[-8.3036,39.9764],[-8.314,39.9751],[-8.3491,39.9445],[-8.3899,39.9325],[-8.3979,39.9326],[-8.4048,39.9343],[-8.4002,39.9376],[-8.3928,39.9415],[-8.3873,39.9482],[-8.3853,39.9566],[-8.3896,39.9697],[-8.3993,39.9889],[-8.4127,40.0103],[-8.4199,40.015],[-8.4287,40.0159],[-8.4307,40.0108],[-8.4509,40.0121],[-8.4836,39.9905],[-8.51,39.9782],[-8.5285,39.9606],[-8.5355,39.956],[-8.5402,39.9595],[-8.5442,39.9649],[-8.5458,39.9724],[-8.5458,39.9884],[-8.5472,39.9977],[-8.5538,40.0201],[-8.5602,40.0257],[-8.5673,40.028],[-8.5733,40.0284],[-8.5808,40.0278],[-8.588,40.0251],[-8.5948,40.0209],[-8.6103,40.001],[-8.6132,39.999],[-8.6185,39.9968],[-8.629,39.9963],[-8.636,39.9982],[-8.6389,39.9999],[-8.6481,40.0105],[-8.6651,40.0223],[-8.6772,40.0281],[-8.698,40.0323],[-8.7177,40.0334],[-8.7689,40.0373],[-8.7936,40.029],[-8.8055,40.0222],[-8.8154,40.0211],[-8.8476,40.0262],[-8.8616,40.0316],[-8.8708,40.0363],[-8.8963,40.0454],[-8.9024,40.0474],[-8.9025,40.0474]]]}},{"type":"Feature","properties":{"id":"PRT-745","name":"Faro","nameBn":"ফারো জেলা","type":"District","bounds":[-8.9979,36.9659,-7.4002,37.5283],"center":[-7.939,37.1704]},"geometry":{"type":"MultiPolygon","coordinates":[[[[-7.5146,37.5283],[-7.5063,37.5181],[-7.4986,37.5117],[-7.4815,37.5004],[-7.4759,37.4943],[-7.4689,37.4756],[-7.4629,37.4511],[-7.46,37.4291],[-7.4623,37.4179],[-7.445,37.3868],[-7.4374,37.3073],[-7.4276,37.2745],[-7.4342,37.2593],[-7.4294,37.2367],[-7.4144,37.1928],[-7.4115,37.1879],[-7.4094,37.1837],[-7.4064,37.1805],[-7.4002,37.1785],[-7.4002,37.1723],[-7.4076,37.1649],[-7.4243,37.175],[-7.4457,37.1796],[-7.4687,37.1803],[-7.4901,37.1785],[-7.5118,37.1718],[-7.5522,37.1492],[-7.569,37.1444],[-7.6273,37.114],[-7.6352,37.1054],[-7.7866,37.0227],[-7.8196,36.9987],[-7.8341,36.9989],[-7.8496,37.0044],[-7.8707,37.0079],[-7.9324,37.0085],[-7.9495,37.0141],[-7.9581,37.0026],[-7.9688,37.0037],[-7.9816,37.0101],[-7.9912,37.0141],[-7.9814,37.0017],[-7.9781,36.9953],[-7.9768,36.9868],[-7.9993,37.0133],[-8.0353,37.0375],[-8.1066,37.0693],[-8.1475,37.0765],[-8.1792,37.0881],[-8.2129,37.0869],[-8.2932,37.0777],[-8.3274,37.0874],[-8.3654,37.098],[-8.3952,37.0871],[-8.4388,37.0827],[-8.4823,37.0958],[-8.4843,37.0942],[-8.5375,37.1178],[-8.5801,37.124],[-8.6268,37.1212],[-8.6416,37.1177],[-8.6547,37.1103],[-8.6863,37.083],[-8.7477,37.083],[-8.7597,37.0803],[-8.7856,37.0672],[-8.7986,37.0625],[-8.8137,37.0616],[-8.8372,37.0566],[-8.8592,37.0408],[-8.8789,37.0472],[-8.897,37.0328],[-8.9051,37.0277],[-8.9156,37.0246],[-8.9356,37.011],[-8.946,37.0079],[-8.9612,37.0124],[-8.9721,37.0212],[-8.9829,37.0266],[-8.9979,37.0215],[-8.991,37.0495],[-8.9856,37.0634],[-8.9808,37.0693],[-8.9418,37.1187],[-8.9269,37.1461],[-8.9136,37.1699],[-8.9227,37.1997],[-8.9047,37.2132],[-8.8814,37.2325],[-8.8671,37.2767],[-8.8749,37.2941],[-8.8828,37.3099],[-8.8667,37.3352],[-8.8387,37.3603],[-8.8334,37.3846],[-8.816,37.4179],[-8.8076,37.4494],[-8.7958,37.4426],[-8.7764,37.4329],[-8.7609,37.4295],[-8.745,37.4189],[-8.7364,37.4109],[-8.7271,37.4039],[-8.7193,37.4003],[-8.6785,37.3991],[-8.6521,37.3893],[-8.6464,37.3851],[-8.6367,37.3836],[-8.6311,37.3871],[-8.6258,37.3924],[-8.6209,37.398],[-8.6128,37.4008],[-8.574,37.4058],[-8.5622,37.4045],[-8.5239,37.3861],[-8.5091,37.3809],[-8.466,37.3754],[-8.4483,37.3814],[-8.4314,37.3871],[-8.4262,37.3966],[-8.4242,37.4038],[-8.4178,37.4111],[-8.414,37.4139],[-8.3751,37.4246],[-8.3541,37.4287],[-8.3426,37.429],[-8.3323,37.4276],[-8.3233,37.432],[-8.3057,37.4339],[-8.2807,37.4283],[-8.2736,37.4167],[-8.2711,37.4023],[-8.2684,37.3963],[-8.2561,37.3851],[-8.2408,37.3791],[-8.1708,37.337],[-8.1387,37.3299],[-8.1189,37.33],[-8.0813,37.3266],[-8.0707,37.3267],[-8.0554,37.332],[-8.0329,37.3465],[-7.998,37.3616],[-7.9907,37.3639],[-7.9907,37.3683],[-7.9985,37.3766],[-8.0012,37.3806],[-7.9996,37.3873],[-7.9955,37.394],[-7.9824,37.4014],[-7.9496,37.4052],[-7.9362,37.4053],[-7.9086,37.4093],[-7.8956,37.4155],[-7.8904,37.4222],[-7.8882,37.4282],[-7.8709,37.437],[-7.8557,37.4384],[-7.8544,37.4452],[-7.8483,37.4478],[-7.8402,37.4497],[-7.8221,37.4574],[-7.8158,37.4576],[-7.8102,37.461],[-7.8032,37.4642],[-7.7856,37.4741],[-7.7073,37.5004],[-7.6547,37.4998],[-7.6488,37.4974],[-7.6348,37.4953],[-7.6285,37.4931],[-7.6197,37.4945],[-7.6088,37.5009],[-7.589,37.5154],[-7.5684,37.5244],[-7.5395,37.5245],[-7.5148,37.5283],[-7.5146,37.5283]]],[[[-7.9557,36.9805],[-7.904,36.9748],[-7.884,36.9809],[-7.8601,37.0004],[-7.8578,36.9975],[-7.8561,36.9942],[-7.8533,36.9868],[-7.8591,36.9834],[-7.8601,36.9805],[-7.8785,36.9709],[-7.9039,36.9659],[-7.9314,36.9665],[-7.9557,36.9731],[-7.9557,36.9805]]]]}},{"type":"Feature","properties":{"id":"PRT-753","name":"Guarda","nameBn":"গুয়ার্দা","type":"District","bounds":[-7.8376,40.232,-6.7944,41.1922],"center":[-7.3162,40.2918]},"geometry":{"type":"Polygon","coordinates":[[[-6.8745,40.2792],[-6.8751,40.2712],[-6.8781,40.2652],[-6.8964,40.2555],[-6.9158,40.2544],[-6.9354,40.2558],[-6.9421,40.255],[-6.9425,40.2553],[-6.9466,40.2589],[-6.957,40.2677],[-6.9724,40.2759],[-6.9975,40.2856],[-7.0033,40.2865],[-7.0136,40.2872],[-7.0298,40.2837],[-7.0525,40.2829],[-7.0754,40.2863],[-7.0843,40.2924],[-7.094,40.3059],[-7.098,40.3128],[-7.1036,40.3176],[-7.1103,40.3193],[-7.1212,40.3118],[-7.1272,40.3045],[-7.1317,40.2964],[-7.1338,40.2893],[-7.141,40.2835],[-7.1538,40.28],[-7.2016,40.28],[-7.2466,40.2673],[-7.272,40.2715],[-7.293,40.2751],[-7.3034,40.2784],[-7.3097,40.2796],[-7.3167,40.2823],[-7.3203,40.2854],[-7.3212,40.2912],[-7.3187,40.2988],[-7.3085,40.3095],[-7.2999,40.3165],[-7.2923,40.3242],[-7.2798,40.3505],[-7.2712,40.4098],[-7.2828,40.4139],[-7.2906,40.4144],[-7.3078,40.413],[-7.3178,40.4107],[-7.3261,40.4098],[-7.3477,40.3906],[-7.3797,40.3839],[-7.3909,40.3828],[-7.4142,40.3885],[-7.4535,40.4134],[-7.5039,40.3766],[-7.5177,40.3584],[-7.5195,40.3514],[-7.5267,40.3376],[-7.5336,40.3309],[-7.5433,40.3246],[-7.5769,40.3192],[-7.6019,40.3268],[-7.6214,40.3044],[-7.6432,40.2867],[-7.6692,40.2744],[-7.6962,40.2656],[-7.7339,40.2442],[-7.7459,40.2399],[-7.7627,40.2384],[-7.7821,40.232],[-7.7974,40.2495],[-7.8246,40.2615],[-7.8134,40.2811],[-7.8084,40.2967],[-7.8014,40.307],[-7.7927,40.3151],[-7.77,40.3273],[-7.7673,40.3341],[-7.7706,40.3395],[-7.7851,40.3493],[-7.7917,40.3569],[-7.7999,40.3932],[-7.799,40.4021],[-7.8047,40.4066],[-7.8221,40.4095],[-7.8306,40.4138],[-7.8376,40.4238],[-7.8346,40.4304],[-7.8278,40.4352],[-7.8191,40.4377],[-7.8108,40.4411],[-7.8051,40.4476],[-7.801,40.457],[-7.8022,40.4641],[-7.8079,40.4713],[-7.8144,40.4753],[-7.8246,40.4978],[-7.8147,40.5054],[-7.7848,40.5089],[-7.7744,40.5115],[-7.7477,40.5259],[-7.7183,40.5336],[-7.6867,40.5515],[-7.6444,40.5636],[-7.5777,40.5723],[-7.5817,40.5928],[-7.5583,40.6481],[-7.5445,40.6606],[-7.5399,40.6854],[-7.5571,40.703],[-7.5792,40.7141],[-7.5895,40.7288],[-7.5781,40.7395],[-7.5759,40.745],[-7.5757,40.7523],[-7.5789,40.7589],[-7.5839,40.7651],[-7.6092,40.7802],[-7.6174,40.7881],[-7.6186,40.7954],[-7.6155,40.802],[-7.604,40.8138],[-7.5928,40.8297],[-7.5817,40.8568],[-7.5773,40.8613],[-7.5695,40.8672],[-7.5579,40.8716],[-7.5332,40.87],[-7.523,40.8672],[-7.5082,40.8583],[-7.4747,40.8306],[-7.4688,40.8269],[-7.4616,40.82],[-7.4455,40.8195],[-7.4354,40.8304],[-7.4125,40.8706],[-7.4116,40.8815],[-7.4145,40.8913],[-7.4192,40.897],[-7.4234,40.9173],[-7.411,40.9223],[-7.373,40.9156],[-7.3415,40.9378],[-7.3326,40.9551],[-7.3322,40.9658],[-7.3341,40.9734],[-7.3395,40.9796],[-7.3478,40.9824],[-7.357,40.9866],[-7.3656,40.9925],[-7.3727,41.004],[-7.3735,41.0096],[-7.3705,41.0141],[-7.3464,41.013],[-7.3335,41.0198],[-7.3385,41.0465],[-7.335,41.0653],[-7.326,41.0947],[-7.3007,41.1593],[-7.2225,41.1643],[-7.1904,41.1573],[-7.1701,41.1576],[-7.1611,41.168],[-7.1227,41.1884],[-7.1126,41.1922],[-7.1217,41.171],[-7.1263,41.1643],[-7.1218,41.1602],[-7.1161,41.1561],[-7.1095,41.1531],[-7.1024,41.1519],[-7.0927,41.1491],[-7.0934,41.142],[-7.0977,41.1329],[-7.099,41.124],[-7.094,41.1108],[-7.0861,41.0973],[-7.0753,41.0867],[-6.9871,41.0527],[-6.9446,41.0511],[-6.9283,41.0482],[-6.9274,41.0481],[-6.9279,41.0479],[-6.9318,41.0291],[-6.9425,41.016],[-6.9404,41.0034],[-6.9306,40.9921],[-6.8992,40.9668],[-6.8852,40.9489],[-6.8636,40.9083],[-6.8553,40.8872],[-6.847,40.8789],[-6.8321,40.8759],[-6.8212,40.8701],[-6.8162,40.8568],[-6.8203,40.8442],[-6.8367,40.8402],[-6.8381,40.8149],[-6.8368,40.8083],[-6.8335,40.7978],[-6.8345,40.7922],[-6.8373,40.7868],[-6.8391,40.7769],[-6.8391,40.7575],[-6.837,40.7433],[-6.8243,40.7107],[-6.8162,40.6772],[-6.8142,40.6593],[-6.8143,40.6472],[-6.8213,40.6302],[-6.8445,40.5978],[-6.8505,40.5822],[-6.8484,40.5648],[-6.8398,40.5546],[-6.8285,40.5455],[-6.8181,40.5319],[-6.8125,40.5146],[-6.8153,40.5025],[-6.8387,40.4772],[-6.8571,40.4421],[-6.8513,40.4095],[-6.8281,40.3806],[-6.7944,40.3564],[-6.812,40.3323],[-6.8208,40.3253],[-6.8639,40.301],[-6.8702,40.2955],[-6.8739,40.2878],[-6.8745,40.2792]]]}},{"type":"Feature","properties":{"id":"PRT-740","name":"Leiria","nameBn":"লেইরাইয়া জেলা","type":"District","bounds":[-9.4093,39.2212,-8.108,40.0863],"center":[-8.7586,39.7583]},"geometry":{"type":"Polygon","coordinates":[[[-9.3476,39.2925],[-9.3541,39.3162],[-9.3658,39.336],[-9.4018,39.3652],[-9.4093,39.3752],[-9.3978,39.378],[-9.3529,39.3679],[-9.2792,39.4058],[-9.2608,39.4184],[-9.2403,39.42],[-9.2279,39.4084],[-9.2176,39.4062],[-9.2059,39.4155],[-9.2135,39.4286],[-9.2299,39.4407],[-9.2136,39.461],[-9.1911,39.4815],[-9.1829,39.4926],[-9.1644,39.502],[-9.1357,39.5162],[-9.1213,39.5351],[-9.111,39.5509],[-9.0904,39.5793],[-9.0883,39.5967],[-9.0903,39.6156],[-9.0779,39.6425],[-9.0717,39.6804],[-8.993,39.8432],[-8.9025,40.0474],[-8.9024,40.0474],[-8.8963,40.0454],[-8.8708,40.0363],[-8.8616,40.0316],[-8.8476,40.0262],[-8.8154,40.0211],[-8.8055,40.0222],[-8.7936,40.029],[-8.7689,40.0373],[-8.7177,40.0334],[-8.698,40.0323],[-8.6772,40.0281],[-8.6651,40.0223],[-8.6481,40.0105],[-8.6389,39.9999],[-8.636,39.9982],[-8.629,39.9963],[-8.6185,39.9968],[-8.6132,39.999],[-8.6103,40.001],[-8.5948,40.0209],[-8.588,40.0251],[-8.5808,40.0278],[-8.5733,40.0284],[-8.5673,40.028],[-8.5602,40.0257],[-8.5538,40.0201],[-8.5472,39.9977],[-8.5458,39.9884],[-8.5458,39.9724],[-8.5442,39.9649],[-8.5402,39.9595],[-8.5355,39.956],[-8.5285,39.9606],[-8.51,39.9782],[-8.4836,39.9905],[-8.4509,40.0121],[-8.4307,40.0108],[-8.4287,40.0159],[-8.4199,40.015],[-8.4127,40.0103],[-8.3993,39.9889],[-8.3896,39.9697],[-8.3853,39.9566],[-8.3873,39.9482],[-8.3928,39.9415],[-8.4002,39.9376],[-8.4048,39.9343],[-8.3979,39.9326],[-8.3899,39.9325],[-8.3491,39.9445],[-8.314,39.9751],[-8.3036,39.9764],[-8.2877,39.9708],[-8.2791,39.9716],[-8.2732,39.9764],[-8.271,39.9848],[-8.2753,39.9905],[-8.2873,39.9992],[-8.2905,40.0026],[-8.2924,40.01],[-8.2931,40.016],[-8.2777,40.0345],[-8.2351,40.064],[-8.2052,40.0551],[-8.1746,40.0863],[-8.1616,40.0802],[-8.1554,40.0764],[-8.1492,40.0688],[-8.1455,40.0624],[-8.1524,40.0342],[-8.1494,40.017],[-8.108,39.9653],[-8.1194,39.9584],[-8.1237,39.9543],[-8.1284,39.944],[-8.1257,39.939],[-8.124,39.935],[-8.123,39.9335],[-8.1263,39.9212],[-8.1458,39.8915],[-8.1555,39.8844],[-8.165,39.8795],[-8.1734,39.878],[-8.1827,39.8747],[-8.1915,39.8671],[-8.1997,39.8583],[-8.2055,39.8543],[-8.2154,39.8555],[-8.2596,39.8448],[-8.2649,39.8405],[-8.2705,39.8346],[-8.27,39.8297],[-8.2704,39.8235],[-8.2768,39.8197],[-8.2844,39.8108],[-8.2842,39.8059],[-8.2791,39.7948],[-8.3209,39.7978],[-8.3283,39.8002],[-8.3294,39.7953],[-8.3274,39.7882],[-8.3243,39.7687],[-8.3291,39.7665],[-8.3485,39.7685],[-8.3705,39.7611],[-8.3833,39.7587],[-8.4247,39.7469],[-8.4429,39.7423],[-8.4441,39.7468],[-8.4465,39.7528],[-8.4479,39.7609],[-8.4548,39.7845],[-8.457,39.7953],[-8.4708,39.8373],[-8.4862,39.8335],[-8.4996,39.8256],[-8.5089,39.8252],[-8.5226,39.8217],[-8.5713,39.7943],[-8.5895,39.787],[-8.6017,39.7851],[-8.6199,39.789],[-8.6658,39.7733],[-8.6712,39.7668],[-8.6767,39.7581],[-8.6765,39.7504],[-8.6739,39.7326],[-8.674,39.7209],[-8.671,39.713],[-8.6643,39.7078],[-8.6559,39.7025],[-8.6482,39.6949],[-8.6444,39.6789],[-8.6481,39.67],[-8.6556,39.6639],[-8.6637,39.6592],[-8.6729,39.655],[-8.6946,39.6418],[-8.6857,39.6103],[-8.6841,39.5917],[-8.6722,39.5651],[-8.6785,39.5573],[-8.7043,39.5315],[-8.7125,39.5297],[-8.7225,39.5296],[-8.7303,39.5324],[-8.7378,39.5327],[-8.7423,39.5281],[-8.743,39.5213],[-8.7416,39.5134],[-8.735,39.5025],[-8.7331,39.5002],[-8.7331,39.4984],[-8.7347,39.495],[-8.7367,39.4874],[-8.7511,39.4796],[-8.7996,39.4836],[-8.8651,39.4794],[-8.8945,39.4706],[-8.9081,39.4598],[-8.9397,39.4083],[-8.9489,39.3984],[-8.9573,39.394],[-8.9769,39.3903],[-8.9987,39.3614],[-9.0029,39.3494],[-8.9969,39.3316],[-8.9941,39.299],[-9.0223,39.3041],[-9.0411,39.3108],[-9.0555,39.3127],[-9.067,39.3117],[-9.0739,39.3092],[-9.0839,39.304],[-9.1051,39.2843],[-9.1284,39.253],[-9.1483,39.2345],[-9.1694,39.2212],[-9.1855,39.2332],[-9.2083,39.2936],[-9.2166,39.305],[-9.2241,39.3132],[-9.2312,39.3164],[-9.2361,39.3153],[-9.2494,39.317],[-9.2574,39.3126],[-9.2997,39.2932],[-9.3383,39.2932],[-9.3476,39.2925],[-9.3476,39.2925]]]}},{"type":"Feature","properties":{"id":"PRT-746","name":"Lisboa","nameBn":"লিসোবা","type":"District","bounds":[-9.4975,38.6703,-8.7886,39.317],"center":[-9.134,38.9835]},"geometry":{"type":"MultiPolygon","coordinates":[[[[-8.9426,38.7756],[-8.9426,38.7817],[-8.9526,38.7949],[-8.9643,38.8148],[-8.9703,38.8354],[-8.9631,38.8507],[-8.9863,38.8494],[-8.9968,38.8655],[-9.0026,38.8898],[-9.0115,38.9134],[-8.9691,38.984],[-8.9432,39.0152],[-8.9084,39.0363],[-8.8884,39.0401],[-8.8455,39.0429],[-8.8265,39.0493],[-8.7904,39.0706],[-8.7886,39.0651],[-8.7908,39.0616],[-8.7969,39.0587],[-8.8173,39.0397],[-8.8544,39.0314],[-8.851,39.0227],[-8.8405,39.0161],[-8.8601,38.9934],[-8.8648,38.983],[-8.8743,38.9729],[-8.8845,38.9559],[-8.9191,38.8827],[-8.934,38.8608],[-8.9411,38.8529],[-8.9558,38.8409],[-8.956,38.8286],[-8.9384,38.8116],[-8.9347,38.8073],[-8.9306,38.8006],[-8.9231,38.7778],[-8.9315,38.7781],[-8.9426,38.7756]]],[[[-8.7918,39.0824],[-8.8364,39.0567],[-8.9227,39.0493],[-8.9359,39.0407],[-8.9551,39.0122],[-9.0035,38.9577],[-9.0589,38.8714],[-9.0897,38.8436],[-9.1003,38.8302],[-9.1066,38.8138],[-9.1042,38.7948],[-9.1023,38.7616],[-9.0982,38.7379],[-9.1125,38.7142],[-9.1633,38.7017],[-9.2202,38.6939],[-9.2852,38.6988],[-9.3035,38.6877],[-9.3218,38.6703],[-9.3606,38.6895],[-9.4048,38.7041],[-9.4292,38.7073],[-9.4717,38.7025],[-9.4917,38.7076],[-9.4913,38.7277],[-9.4847,38.7447],[-9.4975,38.7882],[-9.4975,38.8098],[-9.4919,38.8192],[-9.4799,38.8308],[-9.4555,38.8505],[-9.4227,38.9314],[-9.4254,38.9916],[-9.4366,39.0295],[-9.4266,39.0517],[-9.4225,39.0786],[-9.3837,39.134],[-9.3714,39.1609],[-9.3509,39.1973],[-9.3468,39.2352],[-9.3406,39.2668],[-9.3476,39.2925],[-9.3476,39.2925],[-9.3383,39.2932],[-9.2997,39.2932],[-9.2574,39.3126],[-9.2494,39.317],[-9.2361,39.3153],[-9.2312,39.3164],[-9.2241,39.3132],[-9.2166,39.305],[-9.2083,39.2936],[-9.1855,39.2332],[-9.1694,39.2212],[-9.1483,39.2345],[-9.1284,39.253],[-9.1051,39.2843],[-9.0839,39.304],[-9.0739,39.3092],[-9.067,39.3117],[-9.0555,39.3127],[-9.0411,39.3108],[-9.0223,39.3041],[-8.9941,39.299],[-8.9822,39.2753],[-8.9841,39.2604],[-8.9149,39.2448],[-8.8746,39.2542],[-8.8666,39.2396],[-8.8166,39.2009],[-8.8305,39.1909],[-8.8463,39.1876],[-8.8762,39.1887],[-8.8881,39.1857],[-8.9026,39.1778],[-8.9027,39.1715],[-8.898,39.1665],[-8.8897,39.1631],[-8.8829,39.1589],[-8.8756,39.1461],[-8.8708,39.1399],[-8.8417,39.1192],[-8.8353,39.1155],[-8.8148,39.109],[-8.8083,39.1051],[-8.804,39.1011],[-8.7999,39.0961],[-8.7918,39.0824]]],[[[-9.0411,38.8676],[-9.0353,38.8706],[-9.0346,38.8642],[-9.0414,38.8492],[-9.0546,38.833],[-9.0732,38.8182],[-9.0797,38.8201],[-9.0714,38.8376],[-9.0614,38.8522],[-9.0501,38.8617],[-9.0439,38.8658],[-9.0411,38.8676]]]]}},{"type":"Feature","properties":{"id":"PRT-736","name":"Madeira","nameBn":"মাদিয়েরা","type":"Autonomous region","bounds":[-17.2521,30.0292,-15.855,33.1108],"center":[-16.9465,32.7427]},"geometry":{"type":"MultiPolygon","coordinates":[[[[-16.487,32.4917],[-16.5218,32.5395],[-16.5304,32.5485],[-16.5368,32.558],[-16.5408,32.5685],[-16.5423,32.5805],[-16.5253,32.5672],[-16.5067,32.5442],[-16.4921,32.5172],[-16.487,32.4917]]],[[[-16.7887,32.6867],[-16.8064,32.6568],[-16.8478,32.644],[-16.8959,32.6416],[-16.9768,32.6472],[-17.143,32.7056],[-17.1807,32.726],[-17.2145,32.7506],[-17.2412,32.7791],[-17.2499,32.7965],[-17.2521,32.8145],[-17.2464,32.8286],[-17.2313,32.8344],[-17.225,32.8393],[-17.2003,32.8685],[-17.1914,32.8727],[-17.1849,32.8742],[-17.1776,32.8727],[-17.1661,32.8685],[-17.1558,32.8612],[-17.1319,32.8391],[-17.1217,32.8344],[-17.1155,32.8334],[-17.0939,32.8277],[-17.068,32.8142],[-17.0412,32.8122],[-17.0143,32.817],[-16.9948,32.8275],[-16.98,32.8332],[-16.9579,32.8378],[-16.9197,32.8412],[-16.9031,32.8363],[-16.8729,32.8175],[-16.8607,32.8132],[-16.8087,32.78],[-16.7975,32.7746],[-16.7856,32.7723],[-16.7475,32.7708],[-16.7301,32.7668],[-16.7136,32.7586],[-16.7037,32.7646],[-16.693,32.7667],[-16.6825,32.7646],[-16.6727,32.7586],[-16.6898,32.7549],[-16.7251,32.7412],[-16.7379,32.7381],[-16.75,32.7306],[-16.7822,32.6961],[-16.7887,32.6867]]],[[[-16.34,33.0572],[-16.3527,33.0438],[-16.3643,33.0344],[-16.3783,33.032],[-16.3983,33.0398],[-16.3983,33.0466],[-16.388,33.0473],[-16.3799,33.0513],[-16.3741,33.0582],[-16.3617,33.0903],[-16.3413,33.1059],[-16.3171,33.1108],[-16.2959,33.1013],[-16.2891,33.1087],[-16.2898,33.0794],[-16.286,33.0675],[-16.2754,33.0602],[-16.3108,33.0661],[-16.3257,33.0658],[-16.34,33.0572]]],[[[-16.028,30.0336],[-16.0231,30.0323],[-16.023,30.0292],[-16.0273,30.0296],[-16.028,30.0336]]],[[[-15.8644,30.1525],[-15.8555,30.1469],[-15.855,30.1396],[-15.8598,30.1333],[-15.8633,30.1347],[-15.8702,30.1362],[-15.8747,30.1379],[-15.8741,30.1397],[-15.8741,30.1417],[-15.8734,30.1435],[-15.8644,30.1525]]]]}},{"type":"Feature","properties":{"id":"PRT-747","name":"Portalegre","nameBn":"পোর্তালেগ্রে","type":"District","bounds":[-8.3341,38.7661,-6.9733,39.6804],"center":[-7.6539,39.2822]},"geometry":{"type":"Polygon","coordinates":[[[-7.1049,38.8272],[-7.151,38.8193],[-7.1606,38.8129],[-7.1662,38.8034],[-7.1797,38.7909],[-7.1964,38.78],[-7.2115,38.7754],[-7.2259,38.7661],[-7.2262,38.7665],[-7.2335,38.7731],[-7.2327,38.7824],[-7.2306,38.7876],[-7.2156,38.8055],[-7.2144,38.8121],[-7.2151,38.8258],[-7.2183,38.8327],[-7.2304,38.839],[-7.2425,38.8434],[-7.2607,38.8425],[-7.2902,38.835],[-7.312,38.8207],[-7.332,38.8038],[-7.3469,38.8001],[-7.3514,38.8016],[-7.3691,38.8015],[-7.3841,38.8085],[-7.3933,38.8149],[-7.406,38.8341],[-7.4134,38.8418],[-7.4076,38.8571],[-7.4222,38.8734],[-7.4245,38.8865],[-7.4324,38.9063],[-7.4542,38.9218],[-7.4549,38.9325],[-7.4571,38.9383],[-7.4597,38.9559],[-7.466,38.9656],[-7.4819,38.9779],[-7.5219,38.9909],[-7.5271,39.0002],[-7.528,39.0004],[-7.5307,39.0],[-7.5359,39.0001],[-7.5491,38.9926],[-7.5419,38.9849],[-7.5387,38.9796],[-7.5387,38.9728],[-7.5425,38.9662],[-7.5522,38.9611],[-7.5672,38.9561],[-7.5879,38.9527],[-7.6023,38.9489],[-7.6169,38.9395],[-7.6236,38.9318],[-7.6286,38.9249],[-7.6328,38.9211],[-7.6381,38.9193],[-7.6459,38.9178],[-7.6682,38.9248],[-7.6784,38.9263],[-7.6877,38.9258],[-7.6977,38.922],[-7.7058,38.9237],[-7.7209,38.9308],[-7.7294,38.9315],[-7.7452,38.9161],[-7.7549,38.9082],[-7.7873,38.8991],[-7.8084,38.8996],[-7.8169,38.8989],[-7.828,38.8991],[-7.8385,38.9002],[-7.8668,38.9153],[-7.9116,38.9634],[-7.9233,38.9702],[-7.9447,38.9671],[-7.961,38.9583],[-7.9666,38.9525],[-7.9739,38.9478],[-7.9818,38.9444],[-7.9907,38.9429],[-8.015,38.9456],[-8.0185,38.9476],[-8.0178,38.959],[-8.0185,38.9736],[-8.0212,38.9821],[-8.0433,39.0005],[-8.0444,39.0017],[-8.0493,39.004],[-8.0585,39.006],[-8.0737,39.0042],[-8.0853,39.0006],[-8.086,39.0],[-8.0867,38.9992],[-8.0877,38.9968],[-8.0895,38.9917],[-8.0895,38.9853],[-8.0923,38.9795],[-8.0981,38.9779],[-8.1047,38.9837],[-8.1093,38.9972],[-8.1056,39.0105],[-8.1027,39.0167],[-8.1028,39.0221],[-8.118,39.0267],[-8.1458,39.0255],[-8.1533,39.0238],[-8.1606,39.0202],[-8.1771,39.0149],[-8.1969,39.0009],[-8.2414,39.0123],[-8.2547,39.0214],[-8.2567,39.0285],[-8.2604,39.0364],[-8.2671,39.0469],[-8.2779,39.0542],[-8.284,39.062],[-8.2876,39.0697],[-8.291,39.0796],[-8.3001,39.0866],[-8.3105,39.0924],[-8.3341,39.1007],[-8.3336,39.117],[-8.3046,39.1529],[-8.2912,39.1638],[-8.2357,39.1945],[-8.1767,39.2373],[-8.1527,39.2523],[-8.1419,39.2733],[-8.1291,39.2831],[-8.1194,39.2854],[-8.0996,39.2824],[-8.0854,39.2853],[-8.0783,39.2902],[-8.0738,39.2945],[-8.0697,39.2998],[-8.0461,39.3217],[-8.032,39.3389],[-8.0272,39.3465],[-8.024,39.3598],[-8.0171,39.3648],[-7.9689,39.3902],[-7.9492,39.4148],[-7.9505,39.4211],[-7.9549,39.4279],[-7.971,39.4369],[-8.0102,39.4687],[-7.989,39.5124],[-7.968,39.5369],[-7.9499,39.5496],[-7.9366,39.5533],[-7.9177,39.5495],[-7.877,39.5322],[-7.8632,39.5221],[-7.8618,39.5202],[-7.8565,39.5223],[-7.8522,39.5253],[-7.8327,39.5435],[-7.8262,39.5474],[-7.8047,39.5571],[-7.7902,39.5691],[-7.7759,39.5848],[-7.7597,39.5985],[-7.7401,39.6043],[-7.7336,39.6112],[-7.7244,39.6269],[-7.7119,39.6433],[-7.6955,39.6527],[-7.6725,39.6513],[-7.6556,39.6443],[-7.6389,39.6422],[-7.6163,39.6558],[-7.6032,39.6658],[-7.586,39.6748],[-7.5661,39.6804],[-7.5561,39.6773],[-7.5559,39.6772],[-7.5482,39.6632],[-7.5158,39.5938],[-7.4979,39.581],[-7.4681,39.5502],[-7.4513,39.5378],[-7.4176,39.5242],[-7.4089,39.5156],[-7.3994,39.4937],[-7.3842,39.484],[-7.3629,39.4761],[-7.3209,39.4674],[-7.3135,39.4574],[-7.3136,39.4361],[-7.3189,39.4133],[-7.3267,39.3988],[-7.3319,39.3847],[-7.3314,39.3626],[-7.3267,39.3413],[-7.3193,39.3295],[-7.3005,39.3179],[-7.2508,39.2706],[-7.2643,39.2523],[-7.2658,39.2314],[-7.2581,39.2113],[-7.2441,39.1956],[-7.2193,39.1848],[-7.1916,39.1792],[-7.1681,39.1706],[-7.1558,39.1515],[-7.1579,39.1414],[-7.1689,39.1219],[-7.1675,39.1135],[-7.1572,39.1054],[-7.1425,39.0995],[-7.1273,39.0975],[-7.1152,39.1011],[-7.0913,39.1124],[-7.0649,39.1148],[-7.0388,39.1091],[-7.0158,39.0968],[-6.9997,39.0847],[-6.9857,39.0668],[-6.9794,39.0472],[-6.9863,39.0301],[-6.9749,39.023],[-6.9733,39.014],[-6.9788,39.0038],[-6.9886,38.9938],[-7.0221,38.9429],[-7.0445,38.9186],[-7.066,38.9046],[-7.0522,38.885],[-7.0573,38.8694],[-7.0561,38.8551],[-7.0643,38.8511],[-7.0765,38.8432],[-7.0887,38.8334],[-7.1049,38.8272]]]}},{"type":"Feature","properties":{"id":"PRT-754","name":"Porto","nameBn":"পোর্তো","type":"District","bounds":[-8.7856,41.0119,-7.8755,41.4676],"center":[-8.3311,41.2118]},"geometry":{"type":"Polygon","coordinates":[[[-8.6552,41.0167],[-8.6553,41.0305],[-8.6671,41.0976],[-8.6661,41.1328],[-8.6483,41.1466],[-8.6483,41.1528],[-8.6858,41.1595],[-8.7052,41.1869],[-8.7184,41.2215],[-8.7372,41.2497],[-8.7323,41.2629],[-8.7346,41.2741],[-8.7401,41.285],[-8.7446,41.2974],[-8.7445,41.3281],[-8.7491,41.3378],[-8.7561,41.3405],[-8.7603,41.3509],[-8.764,41.3613],[-8.7781,41.3793],[-8.7838,41.3939],[-8.7838,41.4061],[-8.7856,41.4349],[-8.7751,41.4676],[-8.7751,41.4676],[-8.7516,41.4673],[-8.7277,41.4567],[-8.702,41.4473],[-8.6769,41.4469],[-8.667,41.4441],[-8.6585,41.4382],[-8.6525,41.4328],[-8.6351,41.4194],[-8.6213,41.4131],[-8.6099,41.4111],[-8.6,41.4041],[-8.5964,41.3981],[-8.5997,41.3929],[-8.6053,41.3904],[-8.6151,41.3884],[-8.6225,41.3808],[-8.6211,41.3729],[-8.617,41.3597],[-8.6115,41.3524],[-8.6042,41.3494],[-8.6007,41.3497],[-8.5909,41.3512],[-8.5346,41.3512],[-8.5271,41.3532],[-8.5186,41.3546],[-8.5114,41.3598],[-8.5036,41.3642],[-8.4848,41.3726],[-8.4677,41.3759],[-8.4554,41.376],[-8.4477,41.3727],[-8.4406,41.3688],[-8.4157,41.366],[-8.3851,41.3719],[-8.344,41.3763],[-8.3358,41.3741],[-8.3223,41.3668],[-8.3157,41.3669],[-8.2922,41.374],[-8.285,41.3753],[-8.2542,41.3864],[-8.2343,41.3975],[-8.2193,41.4146],[-8.1698,41.4008],[-8.1495,41.385],[-8.1455,41.3789],[-8.1474,41.3698],[-8.1118,41.3497],[-8.0799,41.3391],[-8.069,41.3411],[-8.0475,41.332],[-8.0361,41.325],[-8.0256,41.3252],[-8.0183,41.3278],[-8.0107,41.3325],[-8.0055,41.3365],[-8.0016,41.3401],[-7.9945,41.3447],[-7.9892,41.3474],[-7.9845,41.3511],[-7.9809,41.356],[-7.979,41.36],[-7.9755,41.3701],[-7.9589,41.3542],[-7.9598,41.3454],[-7.9585,41.3366],[-7.9512,41.3283],[-7.9367,41.3223],[-7.9094,41.3068],[-7.9136,41.2938],[-7.9094,41.2789],[-7.8927,41.2556],[-7.8798,41.2484],[-7.8755,41.2468],[-7.8894,41.2068],[-7.8911,41.1826],[-7.896,41.1591],[-7.9402,41.138],[-8.0621,41.1059],[-8.0905,41.1037],[-8.1902,41.1091],[-8.223,41.1035],[-8.2902,41.0834],[-8.2944,41.0724],[-8.2978,41.0696],[-8.3462,41.044],[-8.366,41.0493],[-8.3923,41.0397],[-8.3933,41.0345],[-8.3924,41.0283],[-8.3877,41.0227],[-8.3863,41.0162],[-8.3896,41.0119],[-8.3978,41.0119],[-8.4157,41.0226],[-8.423,41.0336],[-8.4276,41.0393],[-8.4481,41.0555],[-8.4657,41.0405],[-8.4701,41.0349],[-8.4768,41.0212],[-8.4843,41.0173],[-8.4946,41.0166],[-8.5088,41.0223],[-8.5171,41.0284],[-8.5261,41.0322],[-8.5382,41.032],[-8.5536,41.0237],[-8.5855,41.0151],[-8.6019,41.0231],[-8.6455,41.0187],[-8.655,41.0167],[-8.6552,41.0167]]]}},{"type":"Feature","properties":{"id":"PRT-748","name":"Santarém","nameBn":"সান্তারেম জেলা","type":"District","bounds":[-9.0029,38.7339,-7.8047,39.8373],"center":[-8.4038,39.291]},"geometry":{"type":"Polygon","coordinates":[[[-8.7904,39.0706],[-8.7746,39.0834],[-8.7651,39.0977],[-8.7918,39.0824],[-8.7999,39.0961],[-8.804,39.1011],[-8.8083,39.1051],[-8.8148,39.109],[-8.8353,39.1155],[-8.8417,39.1192],[-8.8708,39.1399],[-8.8756,39.1461],[-8.8829,39.1589],[-8.8897,39.1631],[-8.898,39.1665],[-8.9027,39.1715],[-8.9026,39.1778],[-8.8881,39.1857],[-8.8762,39.1887],[-8.8463,39.1876],[-8.8305,39.1909],[-8.8166,39.2009],[-8.8666,39.2396],[-8.8746,39.2542],[-8.9149,39.2448],[-8.9841,39.2604],[-8.9822,39.2753],[-8.9941,39.299],[-8.9969,39.3316],[-9.0029,39.3494],[-8.9987,39.3614],[-8.9769,39.3903],[-8.9573,39.394],[-8.9489,39.3984],[-8.9397,39.4083],[-8.9081,39.4598],[-8.8945,39.4706],[-8.8651,39.4794],[-8.7996,39.4836],[-8.7511,39.4796],[-8.7367,39.4874],[-8.7347,39.495],[-8.7331,39.4984],[-8.7331,39.5002],[-8.735,39.5025],[-8.7416,39.5134],[-8.743,39.5213],[-8.7423,39.5281],[-8.7378,39.5327],[-8.7303,39.5324],[-8.7225,39.5296],[-8.7125,39.5297],[-8.7043,39.5315],[-8.6785,39.5573],[-8.6722,39.5651],[-8.6841,39.5917],[-8.6857,39.6103],[-8.6946,39.6418],[-8.6729,39.655],[-8.6637,39.6592],[-8.6556,39.6639],[-8.6481,39.67],[-8.6444,39.6789],[-8.6482,39.6949],[-8.6559,39.7025],[-8.6643,39.7078],[-8.671,39.713],[-8.674,39.7209],[-8.6739,39.7326],[-8.6765,39.7504],[-8.6767,39.7581],[-8.6712,39.7668],[-8.6658,39.7733],[-8.6199,39.789],[-8.6017,39.7851],[-8.5895,39.787],[-8.5713,39.7943],[-8.5226,39.8217],[-8.5089,39.8252],[-8.4996,39.8256],[-8.4862,39.8335],[-8.4708,39.8373],[-8.457,39.7953],[-8.4548,39.7845],[-8.4479,39.7609],[-8.4465,39.7528],[-8.4441,39.7468],[-8.4429,39.7423],[-8.4247,39.7469],[-8.3833,39.7587],[-8.3705,39.7611],[-8.3485,39.7685],[-8.3291,39.7665],[-8.3243,39.7687],[-8.3274,39.7882],[-8.3294,39.7953],[-8.3283,39.8002],[-8.3209,39.7978],[-8.2791,39.7948],[-8.2732,39.7794],[-8.2635,39.7743],[-8.2499,39.7717],[-8.2386,39.7676],[-8.2324,39.7623],[-8.2287,39.7566],[-8.2277,39.7519],[-8.2274,39.7464],[-8.2279,39.7417],[-8.2263,39.7232],[-8.2334,39.714],[-8.2333,39.695],[-8.2291,39.6594],[-8.2202,39.6465],[-8.1647,39.6297],[-8.1395,39.6162],[-8.1179,39.6154],[-8.083,39.6182],[-8.0615,39.6242],[-8.0618,39.6297],[-8.0632,39.6361],[-8.0705,39.6516],[-8.0709,39.6623],[-8.0662,39.6754],[-8.0586,39.6854],[-8.0468,39.7365],[-8.0419,39.7439],[-8.0211,39.7468],[-7.9895,39.738],[-7.965,39.7377],[-7.9592,39.7335],[-7.9562,39.7272],[-7.9543,39.7199],[-7.9539,39.7124],[-7.9522,39.7051],[-7.9514,39.6901],[-7.9528,39.6745],[-7.9503,39.6662],[-7.9435,39.6633],[-7.9327,39.661],[-7.9204,39.6598],[-7.9001,39.6542],[-7.8854,39.6447],[-7.8668,39.6359],[-7.8461,39.6171],[-7.8253,39.5918],[-7.8213,39.5846],[-7.8139,39.567],[-7.8047,39.5571],[-7.8262,39.5474],[-7.8327,39.5435],[-7.8522,39.5253],[-7.8565,39.5223],[-7.8618,39.5202],[-7.8632,39.5221],[-7.877,39.5322],[-7.9177,39.5495],[-7.9366,39.5533],[-7.9499,39.5496],[-7.968,39.5369],[-7.989,39.5124],[-8.0102,39.4687],[-7.971,39.4369],[-7.9549,39.4279],[-7.9505,39.4211],[-7.9492,39.4148],[-7.9689,39.3902],[-8.0171,39.3648],[-8.024,39.3598],[-8.0272,39.3465],[-8.032,39.3389],[-8.0461,39.3217],[-8.0697,39.2998],[-8.0738,39.2945],[-8.0783,39.2902],[-8.0854,39.2853],[-8.0996,39.2824],[-8.1194,39.2854],[-8.1291,39.2831],[-8.1419,39.2733],[-8.1527,39.2523],[-8.1767,39.2373],[-8.2357,39.1945],[-8.2912,39.1638],[-8.3046,39.1529],[-8.3336,39.117],[-8.3341,39.1007],[-8.3105,39.0924],[-8.3001,39.0866],[-8.291,39.0796],[-8.2876,39.0697],[-8.284,39.062],[-8.2779,39.0542],[-8.2671,39.0469],[-8.2604,39.0364],[-8.2567,39.0285],[-8.2547,39.0214],[-8.2414,39.0123],[-8.1969,39.0009],[-8.2058,38.9885],[-8.2119,38.9846],[-8.2252,38.9841],[-8.2301,38.983],[-8.235,38.9768],[-8.2385,38.9676],[-8.2388,38.9514],[-8.2413,38.9408],[-8.2452,38.9322],[-8.2508,38.9259],[-8.2569,38.9205],[-8.2601,38.914],[-8.2578,38.906],[-8.25,38.9007],[-8.2429,38.897],[-8.1912,38.8787],[-8.1789,38.8772],[-8.1751,38.8743],[-8.1699,38.8666],[-8.1754,38.8495],[-8.1756,38.8418],[-8.1692,38.833],[-8.1532,38.8193],[-8.1454,38.8184],[-8.1368,38.8155],[-8.1306,38.8101],[-8.1289,38.8014],[-8.1342,38.7874],[-8.1516,38.7745],[-8.1678,38.7813],[-8.172,38.7864],[-8.1776,38.7988],[-8.1827,38.8014],[-8.1875,38.8002],[-8.1934,38.8007],[-8.1967,38.8049],[-8.1981,38.8107],[-8.2021,38.8168],[-8.2081,38.822],[-8.2187,38.825],[-8.25,38.8301],[-8.2587,38.8353],[-8.2857,38.8574],[-8.2928,38.8614],[-8.2992,38.8615],[-8.3035,38.8568],[-8.3054,38.8522],[-8.3109,38.8497],[-8.3168,38.8509],[-8.3264,38.8507],[-8.3381,38.847],[-8.351,38.8479],[-8.3684,38.8534],[-8.3746,38.8527],[-8.3772,38.8479],[-8.3795,38.8421],[-8.3838,38.837],[-8.3884,38.833],[-8.394,38.8308],[-8.4015,38.8289],[-8.413,38.8299],[-8.4235,38.8278],[-8.444,38.8114],[-8.4542,38.8056],[-8.4987,38.7988],[-8.5466,38.767],[-8.5726,38.7703],[-8.5818,38.7701],[-8.5932,38.7725],[-8.6045,38.7836],[-8.606,38.7919],[-8.6058,38.8008],[-8.6043,38.8083],[-8.6039,38.8157],[-8.6022,38.8232],[-8.6027,38.8281],[-8.6078,38.8304],[-8.6247,38.8242],[-8.6437,38.8153],[-8.6714,38.8233],[-8.6831,38.8291],[-8.6891,38.8334],[-8.6965,38.8364],[-8.7032,38.8344],[-8.7323,38.7893],[-8.7443,38.7616],[-8.747,38.7537],[-8.762,38.7381],[-8.779,38.7339],[-8.7856,38.7342],[-8.8138,38.7421],[-8.8232,38.752],[-8.8308,38.7549],[-8.8422,38.7562],[-8.8589,38.7525],[-8.8694,38.748],[-8.8898,38.7415],[-8.9013,38.7406],[-8.9111,38.7431],[-8.9194,38.7501],[-8.9245,38.7652],[-8.9231,38.7778],[-8.9306,38.8006],[-8.9347,38.8073],[-8.9384,38.8116],[-8.956,38.8286],[-8.9558,38.8409],[-8.9411,38.8529],[-8.934,38.8608],[-8.9191,38.8827],[-8.8845,38.9559],[-8.8743,38.9729],[-8.8648,38.983],[-8.8601,38.9934],[-8.8405,39.0161],[-8.851,39.0227],[-8.8544,39.0314],[-8.8173,39.0397],[-8.7969,39.0587],[-8.7908,39.0616],[-8.7886,39.0651],[-8.7904,39.0706]]]}},{"type":"Feature","properties":{"id":"PRT-5498","name":"Setúbal","nameBn":"সেতোবাল জেলা","type":"District","bounds":[-9.2527,37.7544,-8.1301,38.8364],"center":[-8.5732,38.2071]},"geometry":{"type":"Polygon","coordinates":[[[-8.8014,37.8268],[-8.7972,37.8449],[-8.799,37.8781],[-8.8048,37.9019],[-8.8207,37.9273],[-8.8539,37.9323],[-8.8948,37.9525],[-8.89,37.9609],[-8.8832,37.9645],[-8.8754,37.9674],[-8.8675,37.9736],[-8.8157,38.0621],[-8.797,38.1332],[-8.7744,38.1869],[-8.778,38.2407],[-8.7855,38.3039],[-8.7951,38.3592],[-8.8209,38.3988],[-8.8468,38.4201],[-8.8783,38.4492],[-8.9147,38.4728],[-8.9426,38.4814],[-8.9273,38.4938],[-8.9045,38.4864],[-8.8675,38.4609],[-8.8218,38.4486],[-8.8002,38.4391],[-8.7986,38.4261],[-8.757,38.4273],[-8.6569,38.406],[-8.6068,38.4187],[-8.6368,38.4202],[-8.6628,38.4245],[-8.7362,38.4519],[-8.745,38.4603],[-8.7508,38.4739],[-8.7525,38.488],[-8.7509,38.5006],[-8.7458,38.5101],[-8.7372,38.5149],[-8.7372,38.5224],[-8.7515,38.5264],[-8.7612,38.5381],[-8.7642,38.5521],[-8.7576,38.5633],[-8.7733,38.5653],[-8.793,38.5336],[-8.8129,38.5286],[-8.8129,38.5224],[-8.7906,38.5199],[-8.7803,38.5054],[-8.78,38.4891],[-8.7884,38.4814],[-8.8123,38.4829],[-8.8323,38.487],[-8.8675,38.5019],[-8.9058,38.5124],[-8.9549,38.5051],[-8.9998,38.4643],[-8.9919,38.4595],[-9.0486,38.4407],[-9.1457,38.4314],[-9.1659,38.4251],[-9.1821,38.4156],[-9.2004,38.4125],[-9.2262,38.4184],[-9.2306,38.4187],[-9.234,38.4242],[-9.2338,38.4315],[-9.2311,38.4377],[-9.2272,38.4404],[-9.22,38.449],[-9.19,38.4725],[-9.1839,38.5041],[-9.1838,38.5515],[-9.2081,38.5974],[-9.2385,38.6354],[-9.2527,38.6655],[-9.2344,38.6734],[-9.1877,38.678],[-9.145,38.6811],[-9.1241,38.671],[-9.1139,38.6589],[-9.1077,38.6589],[-9.1139,38.6794],[-9.0989,38.6856],[-9.0673,38.6923],[-9.0524,38.6937],[-9.0524,38.6999],[-9.0374,38.7139],[-9.0212,38.7265],[-8.9927,38.7438],[-8.9569,38.7681],[-8.953,38.7702],[-8.9471,38.7742],[-8.9426,38.7756],[-8.9315,38.7781],[-8.9231,38.7778],[-8.9245,38.7652],[-8.9194,38.7501],[-8.9111,38.7431],[-8.9013,38.7406],[-8.8898,38.7415],[-8.8694,38.748],[-8.8589,38.7525],[-8.8422,38.7562],[-8.8308,38.7549],[-8.8232,38.752],[-8.8138,38.7421],[-8.7856,38.7342],[-8.779,38.7339],[-8.762,38.7381],[-8.747,38.7537],[-8.7443,38.7616],[-8.7323,38.7893],[-8.7032,38.8344],[-8.6965,38.8364],[-8.6891,38.8334],[-8.6831,38.8291],[-8.6714,38.8233],[-8.6437,38.8153],[-8.6247,38.8242],[-8.6078,38.8304],[-8.6027,38.8281],[-8.6022,38.8232],[-8.6039,38.8157],[-8.6043,38.8083],[-8.6058,38.8008],[-8.606,38.7919],[-8.6045,38.7836],[-8.5932,38.7725],[-8.5818,38.7701],[-8.5726,38.7703],[-8.5466,38.767],[-8.5048,38.7609],[-8.4986,38.7579],[-8.4963,38.7477],[-8.5067,38.7318],[-8.5058,38.7252],[-8.5078,38.7128],[-8.5159,38.7035],[-8.5317,38.6883],[-8.6155,38.6423],[-8.6516,38.6062],[-8.6522,38.5983],[-8.6514,38.5889],[-8.6468,38.5824],[-8.6439,38.5745],[-8.6381,38.5504],[-8.6086,38.5472],[-8.5699,38.5289],[-8.5408,38.5257],[-8.5166,38.5194],[-8.5103,38.5223],[-8.509,38.5274],[-8.5108,38.5339],[-8.5125,38.5388],[-8.5086,38.5426],[-8.4993,38.5417],[-8.4924,38.5382],[-8.4891,38.5327],[-8.4834,38.528],[-8.4742,38.5229],[-8.4619,38.5191],[-8.4333,38.5201],[-8.4188,38.5241],[-8.3958,38.5356],[-8.3772,38.5391],[-8.3685,38.5357],[-8.3493,38.5171],[-8.336,38.5064],[-8.3313,38.5008],[-8.3309,38.5001],[-8.3307,38.4989],[-8.33,38.496],[-8.329,38.49],[-8.3156,38.4625],[-8.3159,38.4566],[-8.32,38.4533],[-8.32,38.4479],[-8.3154,38.4422],[-8.3009,38.4371],[-8.2936,38.4328],[-8.2886,38.4248],[-8.2922,38.4073],[-8.3084,38.3846],[-8.3084,38.377],[-8.3022,38.3744],[-8.2805,38.3678],[-8.2667,38.359],[-8.2461,38.3493],[-8.2369,38.347],[-8.2275,38.3459],[-8.2186,38.346],[-8.1999,38.3405],[-8.1621,38.3176],[-8.1377,38.2759],[-8.1301,38.2507],[-8.1307,38.2414],[-8.1305,38.2346],[-8.1351,38.2232],[-8.1704,38.2154],[-8.1879,38.2086],[-8.2227,38.2016],[-8.2308,38.1982],[-8.2349,38.1873],[-8.2417,38.1794],[-8.2773,38.1806],[-8.2847,38.1764],[-8.2882,38.1701],[-8.2893,38.1619],[-8.2957,38.1444],[-8.3026,38.1413],[-8.3107,38.1435],[-8.318,38.148],[-8.3281,38.1513],[-8.335,38.15],[-8.3408,38.1454],[-8.3478,38.1432],[-8.3501,38.1388],[-8.3509,38.1346],[-8.3508,38.1295],[-8.3521,38.1244],[-8.357,38.1151],[-8.3593,38.1117],[-8.3629,38.1073],[-8.3678,38.1071],[-8.3735,38.1088],[-8.3788,38.111],[-8.3858,38.1107],[-8.3912,38.1017],[-8.3937,38.0945],[-8.3966,38.0885],[-8.3982,38.0825],[-8.4013,38.076],[-8.4007,38.0705],[-8.3989,38.0652],[-8.3941,38.0551],[-8.3747,38.0433],[-8.3598,38.029],[-8.347,38.0241],[-8.3356,38.0222],[-8.3228,38.0213],[-8.3095,38.0128],[-8.3029,38.0027],[-8.2934,37.9815],[-8.2928,37.9528],[-8.2995,37.9087],[-8.3105,37.8816],[-8.3148,37.8747],[-8.3286,37.8467],[-8.3581,37.8594],[-8.3621,37.8602],[-8.3885,37.8603],[-8.4325,37.8666],[-8.5217,37.853],[-8.5391,37.8465],[-8.549,37.8395],[-8.5514,37.8323],[-8.5557,37.825],[-8.5728,37.8109],[-8.578,37.8037],[-8.5872,37.7815],[-8.588,37.7738],[-8.59,37.7659],[-8.5958,37.759],[-8.6126,37.7544],[-8.6236,37.7551],[-8.6408,37.761],[-8.6483,37.7655],[-8.6564,37.7692],[-8.6642,37.7705],[-8.6704,37.7677],[-8.6738,37.7625],[-8.6778,37.7579],[-8.6835,37.7575],[-8.6885,37.7624],[-8.6978,37.776],[-8.7235,37.8009],[-8.7269,37.8063],[-8.7341,37.8135],[-8.7515,37.8184],[-8.7584,37.8165],[-8.7668,37.8132],[-8.7737,37.8096],[-8.7811,37.8101],[-8.786,37.8128],[-8.7918,37.8192],[-8.8014,37.8268]]]}},{"type":"Feature","properties":{"id":"PRT-741","name":"Viana do Castelo","nameBn":"ভিয়ানা ডু কাস্টেলো জেলা","type":"District","bounds":[-8.8803,41.6151,-8.0951,42.1536],"center":[-8.4986,41.9099]},"geometry":{"type":"Polygon","coordinates":[[[-8.2224,42.1536],[-8.2134,42.144],[-8.2043,42.1288],[-8.2074,42.0858],[-8.204,42.0696],[-8.1913,42.0621],[-8.1762,42.0653],[-8.1584,42.0714],[-8.1376,42.0729],[-8.1184,42.0669],[-8.1032,42.0558],[-8.0951,42.0409],[-8.0974,42.0235],[-8.108,42.0109],[-8.1239,42.0009],[-8.153,41.9868],[-8.1821,41.9654],[-8.2207,41.9227],[-8.2302,41.9047],[-8.2317,41.886],[-8.2204,41.8682],[-8.1846,41.8577],[-8.177,41.8499],[-8.1754,41.8366],[-8.1793,41.8126],[-8.1798,41.8125],[-8.1836,41.8113],[-8.1961,41.8115],[-8.2908,41.7726],[-8.3152,41.7659],[-8.4027,41.7628],[-8.4177,41.7603],[-8.4316,41.756],[-8.4391,41.7523],[-8.4569,41.7412],[-8.4737,41.7361],[-8.4816,41.7364],[-8.4899,41.7379],[-8.498,41.7363],[-8.5031,41.7338],[-8.5112,41.7271],[-8.5143,41.7197],[-8.5161,41.712],[-8.518,41.6968],[-8.52,41.6894],[-8.5231,41.6825],[-8.5321,41.6761],[-8.5369,41.6691],[-8.5391,41.6633],[-8.5343,41.6523],[-8.5521,41.6289],[-8.5587,41.6295],[-8.568,41.6314],[-8.5789,41.636],[-8.599,41.6386],[-8.6286,41.6467],[-8.6368,41.6509],[-8.6417,41.6483],[-8.6451,41.6439],[-8.6527,41.6391],[-8.6613,41.6375],[-8.7127,41.636],[-8.7858,41.616],[-8.7955,41.6151],[-8.815,41.6173],[-8.8198,41.6178],[-8.8198,41.6178],[-8.8204,41.6301],[-8.8286,41.6482],[-8.8305,41.6716],[-8.8271,41.6828],[-8.8047,41.6893],[-8.7433,41.697],[-8.7259,41.7031],[-8.71,41.7119],[-8.6962,41.722],[-8.8069,41.697],[-8.83,41.6946],[-8.8429,41.6958],[-8.8611,41.7044],[-8.8803,41.7369],[-8.8803,41.7655],[-8.872,41.8106],[-8.8789,41.839],[-8.8747,41.8496],[-8.8675,41.8591],[-8.7966,41.9033],[-8.7628,41.932],[-8.7508,41.969],[-8.7396,41.9751],[-8.717,41.9838],[-8.6913,41.9896],[-8.6708,41.9998],[-8.6632,42.0099],[-8.6526,42.0314],[-8.6439,42.0415],[-8.6269,42.051],[-8.6094,42.0537],[-8.5728,42.0544],[-8.5544,42.0601],[-8.52,42.0777],[-8.5012,42.0831],[-8.3467,42.1017],[-8.33,42.1084],[-8.3043,42.1258],[-8.2954,42.1301],[-8.2878,42.1314],[-8.2707,42.132],[-8.2523,42.1376],[-8.2224,42.1536]]]}},{"type":"Feature","properties":{"id":"PRT-756","name":"Vila Real","nameBn":"ভিলা রিয়াল","type":"District","bounds":[-8.118,41.1526,-7.1727,41.9139],"center":[-7.6453,41.5279]},"geometry":{"type":"Polygon","coordinates":[[[-8.0504,41.816],[-8.0486,41.8164],[-8.0157,41.8419],[-8.0059,41.854],[-7.9936,41.8637],[-7.9794,41.8686],[-7.9634,41.8666],[-7.9448,41.867],[-7.9354,41.88],[-7.9305,41.8967],[-7.9258,41.9082],[-7.9061,41.9139],[-7.9034,41.8868],[-7.8966,41.8579],[-7.8648,41.8579],[-7.8579,41.8638],[-7.8544,41.8703],[-7.8497,41.8758],[-7.8392,41.8784],[-7.8122,41.8771],[-7.7501,41.8884],[-7.722,41.8993],[-7.7064,41.8963],[-7.6787,41.8813],[-7.6612,41.8749],[-7.6074,41.8732],[-7.6228,41.8417],[-7.6222,41.8323],[-7.6061,41.8255],[-7.5884,41.8242],[-7.5671,41.8266],[-7.5467,41.832],[-7.5316,41.8402],[-7.5263,41.8474],[-7.5252,41.8542],[-7.5233,41.8602],[-7.5158,41.865],[-7.5081,41.8649],[-7.493,41.8569],[-7.4833,41.8562],[-7.4694,41.8525],[-7.4566,41.8392],[-7.447,41.8218],[-7.4427,41.806],[-7.4295,41.8145],[-7.4054,41.8352],[-7.3919,41.842],[-7.3768,41.844],[-7.3405,41.8432],[-7.3225,41.8454],[-7.2515,41.8637],[-7.2187,41.879],[-7.2093,41.8892],[-7.2074,41.884],[-7.2015,41.8644],[-7.2039,41.8541],[-7.2063,41.8339],[-7.204,41.8163],[-7.2011,41.8063],[-7.1922,41.7883],[-7.1739,41.7692],[-7.1729,41.7612],[-7.1727,41.7474],[-7.1752,41.7416],[-7.1806,41.736],[-7.1864,41.7336],[-7.195,41.7273],[-7.2202,41.6878],[-7.2525,41.6043],[-7.2565,41.578],[-7.2552,41.5647],[-7.2519,41.5565],[-7.2473,41.5498],[-7.2418,41.5434],[-7.2378,41.5365],[-7.2362,41.5303],[-7.2396,41.5249],[-7.2469,41.5222],[-7.2556,41.5205],[-7.2648,41.5199],[-7.2746,41.5169],[-7.2841,41.5085],[-7.2957,41.4914],[-7.3033,41.4757],[-7.312,41.4672],[-7.3205,41.4632],[-7.3295,41.4606],[-7.3623,41.4419],[-7.3623,41.3926],[-7.3565,41.3724],[-7.3496,41.3587],[-7.341,41.3509],[-7.3174,41.3402],[-7.3517,41.3317],[-7.3693,41.3177],[-7.3714,41.3073],[-7.3694,41.3012],[-7.3716,41.297],[-7.3815,41.2887],[-7.3905,41.2795],[-7.3945,41.2666],[-7.3952,41.2582],[-7.3945,41.2516],[-7.393,41.2464],[-7.3967,41.2445],[-7.4107,41.2429],[-7.4204,41.2398],[-7.4245,41.2341],[-7.4262,41.2293],[-7.4323,41.216],[-7.5502,41.1828],[-7.5968,41.1778],[-7.6388,41.1813],[-7.6413,41.1813],[-7.6586,41.1801],[-7.6733,41.1744],[-7.7021,41.1594],[-7.7189,41.1548],[-7.7379,41.1526],[-7.757,41.1533],[-7.774,41.1571],[-7.7865,41.1642],[-7.8098,41.1819],[-7.8234,41.1864],[-7.8433,41.1844],[-7.896,41.1591],[-7.8911,41.1826],[-7.8894,41.2068],[-7.8755,41.2468],[-7.8798,41.2484],[-7.8927,41.2556],[-7.9094,41.2789],[-7.9136,41.2938],[-7.9094,41.3068],[-7.9367,41.3223],[-7.9512,41.3283],[-7.9585,41.3366],[-7.9598,41.3454],[-7.9589,41.3542],[-7.9755,41.3701],[-7.9668,41.3878],[-7.9671,41.3931],[-7.9694,41.4],[-7.9672,41.4034],[-7.9639,41.4043],[-7.9594,41.407],[-7.9565,41.4142],[-7.9419,41.4325],[-7.9387,41.4396],[-7.9375,41.4448],[-7.9419,41.452],[-7.9328,41.4757],[-7.9236,41.4856],[-7.9185,41.488],[-7.9135,41.4885],[-7.9057,41.4868],[-7.8952,41.4942],[-7.8901,41.5062],[-7.8867,41.5091],[-7.8678,41.5157],[-7.8557,41.5256],[-7.8158,41.571],[-7.8135,41.5826],[-7.8305,41.6055],[-7.8356,41.6097],[-7.8459,41.6138],[-7.8665,41.5962],[-7.8963,41.5897],[-7.9089,41.59],[-7.9475,41.5964],[-7.957,41.599],[-7.967,41.6029],[-7.9782,41.6046],[-7.9985,41.6112],[-7.9946,41.6559],[-7.9923,41.6655],[-7.9882,41.6779],[-7.9907,41.6838],[-7.9959,41.6872],[-8.0219,41.6996],[-8.0285,41.702],[-8.0351,41.7024],[-8.0541,41.6958],[-8.0614,41.695],[-8.0704,41.6962],[-8.0779,41.6964],[-8.0854,41.6955],[-8.0916,41.6935],[-8.1043,41.6919],[-8.118,41.6923],[-8.0951,41.712],[-8.0902,41.7184],[-8.0847,41.7277],[-8.076,41.7488],[-8.0667,41.7613],[-8.0596,41.79],[-8.0548,41.7971],[-8.0494,41.8029],[-8.0476,41.8089],[-8.0479,41.814],[-8.0504,41.816]]]}},{"type":"Feature","properties":{"id":"PRT-755","name":"Viseu","nameBn":"ভিসেউ জেলা","type":"District","bounds":[-8.3542,40.3206,-7.3007,41.216],"center":[-7.8274,40.8417]},"geometry":{"type":"Polygon","coordinates":[[[-7.5968,41.1778],[-7.5502,41.1828],[-7.4323,41.216],[-7.4174,41.2157],[-7.4022,41.2075],[-7.3723,41.1746],[-7.3597,41.1661],[-7.3262,41.1577],[-7.3007,41.1593],[-7.326,41.0947],[-7.335,41.0653],[-7.3385,41.0465],[-7.3335,41.0198],[-7.3464,41.013],[-7.3705,41.0141],[-7.3735,41.0096],[-7.3727,41.004],[-7.3656,40.9925],[-7.357,40.9866],[-7.3478,40.9824],[-7.3395,40.9796],[-7.3341,40.9734],[-7.3322,40.9658],[-7.3326,40.9551],[-7.3415,40.9378],[-7.373,40.9156],[-7.411,40.9223],[-7.4234,40.9173],[-7.4192,40.897],[-7.4145,40.8913],[-7.4116,40.8815],[-7.4125,40.8706],[-7.4354,40.8304],[-7.4455,40.8195],[-7.4616,40.82],[-7.4688,40.8269],[-7.4747,40.8306],[-7.5082,40.8583],[-7.523,40.8672],[-7.5332,40.87],[-7.5579,40.8716],[-7.5695,40.8672],[-7.5773,40.8613],[-7.5817,40.8568],[-7.5928,40.8297],[-7.604,40.8138],[-7.6155,40.802],[-7.6186,40.7954],[-7.6174,40.7881],[-7.6092,40.7802],[-7.5839,40.7651],[-7.5789,40.7589],[-7.5757,40.7523],[-7.5759,40.745],[-7.5781,40.7395],[-7.5895,40.7288],[-7.5792,40.7141],[-7.5571,40.703],[-7.5399,40.6854],[-7.5445,40.6606],[-7.5583,40.6481],[-7.5817,40.5928],[-7.5777,40.5723],[-7.6444,40.5636],[-7.6867,40.5515],[-7.7183,40.5336],[-7.7477,40.5259],[-7.7744,40.5115],[-7.7848,40.5089],[-7.8147,40.5054],[-7.8246,40.4978],[-7.8452,40.4937],[-7.8556,40.4883],[-7.8668,40.4784],[-7.9008,40.4587],[-7.9247,40.4301],[-7.9425,40.4228],[-7.9863,40.399],[-8.0405,40.3817],[-8.1162,40.3389],[-8.1744,40.3459],[-8.2167,40.3397],[-8.221,40.3367],[-8.2235,40.3325],[-8.2242,40.3277],[-8.2266,40.3234],[-8.2293,40.3206],[-8.2354,40.3206],[-8.2432,40.3265],[-8.2591,40.3325],[-8.2749,40.3431],[-8.2983,40.3558],[-8.3291,40.3624],[-8.3387,40.3685],[-8.3502,40.372],[-8.3542,40.4029],[-8.3256,40.4366],[-8.3216,40.445],[-8.3209,40.4581],[-8.3308,40.4721],[-8.3329,40.4787],[-8.3313,40.4844],[-8.3081,40.4976],[-8.2532,40.5145],[-8.265,40.5296],[-8.2715,40.5358],[-8.2782,40.5407],[-8.2839,40.5471],[-8.2902,40.5651],[-8.3014,40.587],[-8.302,40.5939],[-8.2962,40.6013],[-8.2894,40.6065],[-8.2486,40.619],[-8.2655,40.6293],[-8.2834,40.635],[-8.2883,40.6376],[-8.2952,40.6509],[-8.2962,40.679],[-8.2994,40.6859],[-8.3054,40.6943],[-8.3192,40.7059],[-8.3237,40.7121],[-8.3254,40.7184],[-8.3256,40.723],[-8.325,40.7272],[-8.3156,40.7403],[-8.2924,40.7544],[-8.2689,40.7742],[-8.2486,40.8073],[-8.2396,40.8189],[-8.2383,40.8246],[-8.2496,40.8554],[-8.2189,40.8577],[-8.211,40.855],[-8.1993,40.8537],[-8.1872,40.8552],[-8.1695,40.8619],[-8.1578,40.8622],[-8.1493,40.8594],[-8.1414,40.8552],[-8.1331,40.8523],[-8.124,40.8516],[-8.1154,40.8535],[-8.1104,40.8604],[-8.1098,40.8721],[-8.1183,40.8902],[-8.1231,40.9159],[-8.1277,40.9292],[-8.1289,40.936],[-8.1258,40.9477],[-8.1209,40.9585],[-8.0894,40.9934],[-8.0875,40.9985],[-8.0872,40.9999],[-8.0871,41.0024],[-8.0877,41.0067],[-8.0911,41.0103],[-8.0981,41.0106],[-8.1114,41.0019],[-8.1142,40.9991],[-8.1169,40.9956],[-8.1239,40.9838],[-8.1371,40.9819],[-8.1493,40.982],[-8.2244,41.0094],[-8.224,41.0312],[-8.2229,41.038],[-8.2262,41.0476],[-8.2296,41.0538],[-8.2902,41.0834],[-8.223,41.1035],[-8.1902,41.1091],[-8.0905,41.1037],[-8.0621,41.1059],[-7.9402,41.138],[-7.896,41.1591],[-7.8433,41.1844],[-7.8234,41.1864],[-7.8098,41.1819],[-7.7865,41.1642],[-7.774,41.1571],[-7.757,41.1533],[-7.7379,41.1526],[-7.7189,41.1548],[-7.7021,41.1594],[-7.6733,41.1744],[-7.6586,41.1801],[-7.6413,41.1813],[-7.6388,41.1813],[-7.5968,41.1778]]]}},{"type":"Feature","properties":{"id":"PRT-744","name":"Évora","nameBn":"এভোরা জেলা","type":"District","bounds":[-8.6522,38.1756,-7.1171,39.0267],"center":[-7.8846,38.6036]},"geometry":{"type":"Polygon","coordinates":[[[-7.2259,38.7661],[-7.2704,38.7375],[-7.2722,38.7337],[-7.2807,38.7204],[-7.2841,38.7132],[-7.2909,38.6791],[-7.293,38.6563],[-7.2925,38.6461],[-7.2909,38.6382],[-7.286,38.6319],[-7.2794,38.6289],[-7.2735,38.6254],[-7.2704,38.6177],[-7.2759,38.6038],[-7.3177,38.5563],[-7.3358,38.5059],[-7.3456,38.4941],[-7.3341,38.481],[-7.3352,38.4694],[-7.3448,38.4583],[-7.3592,38.4464],[-7.3455,38.441],[-7.3171,38.4246],[-7.2114,38.3175],[-7.2071,38.3117],[-7.2007,38.2984],[-7.1963,38.2922],[-7.1895,38.2865],[-7.1724,38.2765],[-7.1672,38.2721],[-7.1269,38.1909],[-7.1171,38.1836],[-7.1216,38.1819],[-7.1277,38.1782],[-7.1375,38.1756],[-7.1521,38.1765],[-7.1644,38.1834],[-7.173,38.1903],[-7.1818,38.2046],[-7.1845,38.2118],[-7.1958,38.2324],[-7.1974,38.2395],[-7.2001,38.2461],[-7.2061,38.2513],[-7.232,38.2609],[-7.2525,38.277],[-7.2568,38.2837],[-7.2585,38.291],[-7.2609,38.2987],[-7.265,38.3057],[-7.2703,38.3108],[-7.2739,38.3154],[-7.2761,38.319],[-7.277,38.3238],[-7.2782,38.3268],[-7.281,38.3308],[-7.2881,38.3319],[-7.2962,38.3313],[-7.3216,38.3228],[-7.328,38.3227],[-7.3365,38.3206],[-7.3687,38.3068],[-7.4005,38.2998],[-7.402,38.2932],[-7.4029,38.2865],[-7.4073,38.2769],[-7.4142,38.2679],[-7.4244,38.2617],[-7.4283,38.2573],[-7.4442,38.2507],[-7.446,38.2473],[-7.4746,38.2356],[-7.4912,38.2219],[-7.5045,38.205],[-7.5064,38.1983],[-7.5171,38.1963],[-7.5622,38.1973],[-7.5844,38.2031],[-7.6036,38.2062],[-7.6694,38.2075],[-7.6837,38.2109],[-7.7473,38.2393],[-7.7734,38.2469],[-7.8239,38.2511],[-7.9086,38.2812],[-7.9312,38.3025],[-7.9604,38.3117],[-7.9691,38.3136],[-7.9804,38.3145],[-8.0027,38.3052],[-8.011,38.3054],[-8.02,38.3075],[-8.0304,38.3136],[-8.0425,38.3238],[-8.0475,38.3259],[-8.0619,38.3276],[-8.0843,38.3255],[-8.1583,38.3265],[-8.1621,38.3176],[-8.1999,38.3405],[-8.2186,38.346],[-8.2275,38.3459],[-8.2369,38.347],[-8.2461,38.3493],[-8.2667,38.359],[-8.2805,38.3678],[-8.3022,38.3744],[-8.3084,38.377],[-8.3084,38.3846],[-8.2922,38.4073],[-8.2886,38.4248],[-8.2936,38.4328],[-8.3009,38.4371],[-8.3154,38.4422],[-8.32,38.4479],[-8.32,38.4533],[-8.3159,38.4566],[-8.3156,38.4625],[-8.329,38.49],[-8.33,38.496],[-8.3307,38.4989],[-8.3309,38.5001],[-8.3313,38.5008],[-8.336,38.5064],[-8.3493,38.5171],[-8.3685,38.5357],[-8.3772,38.5391],[-8.3958,38.5356],[-8.4188,38.5241],[-8.4333,38.5201],[-8.4619,38.5191],[-8.4742,38.5229],[-8.4834,38.528],[-8.4891,38.5327],[-8.4924,38.5382],[-8.4993,38.5417],[-8.5086,38.5426],[-8.5125,38.5388],[-8.5108,38.5339],[-8.509,38.5274],[-8.5103,38.5223],[-8.5166,38.5194],[-8.5408,38.5257],[-8.5699,38.5289],[-8.6086,38.5472],[-8.6381,38.5504],[-8.6439,38.5745],[-8.6468,38.5824],[-8.6514,38.5889],[-8.6522,38.5983],[-8.6516,38.6062],[-8.6155,38.6423],[-8.5317,38.6883],[-8.5159,38.7035],[-8.5078,38.7128],[-8.5058,38.7252],[-8.5067,38.7318],[-8.4963,38.7477],[-8.4986,38.7579],[-8.5048,38.7609],[-8.5466,38.767],[-8.4987,38.7988],[-8.4542,38.8056],[-8.444,38.8114],[-8.4235,38.8278],[-8.413,38.8299],[-8.4015,38.8289],[-8.394,38.8308],[-8.3884,38.833],[-8.3838,38.837],[-8.3795,38.8421],[-8.3772,38.8479],[-8.3746,38.8527],[-8.3684,38.8534],[-8.351,38.8479],[-8.3381,38.847],[-8.3264,38.8507],[-8.3168,38.8509],[-8.3109,38.8497],[-8.3054,38.8522],[-8.3035,38.8568],[-8.2992,38.8615],[-8.2928,38.8614],[-8.2857,38.8574],[-8.2587,38.8353],[-8.25,38.8301],[-8.2187,38.825],[-8.2081,38.822],[-8.2021,38.8168],[-8.1981,38.8107],[-8.1967,38.8049],[-8.1934,38.8007],[-8.1875,38.8002],[-8.1827,38.8014],[-8.1776,38.7988],[-8.172,38.7864],[-8.1678,38.7813],[-8.1516,38.7745],[-8.1342,38.7874],[-8.1289,38.8014],[-8.1306,38.8101],[-8.1368,38.8155],[-8.1454,38.8184],[-8.1532,38.8193],[-8.1692,38.833],[-8.1756,38.8418],[-8.1754,38.8495],[-8.1699,38.8666],[-8.1751,38.8743],[-8.1789,38.8772],[-8.1912,38.8787],[-8.2429,38.897],[-8.25,38.9007],[-8.2578,38.906],[-8.2601,38.914],[-8.2569,38.9205],[-8.2508,38.9259],[-8.2452,38.9322],[-8.2413,38.9408],[-8.2388,38.9514],[-8.2385,38.9676],[-8.235,38.9768],[-8.2301,38.983],[-8.2252,38.9841],[-8.2119,38.9846],[-8.2058,38.9885],[-8.1969,39.0009],[-8.1771,39.0149],[-8.1606,39.0202],[-8.1533,39.0238],[-8.1458,39.0255],[-8.118,39.0267],[-8.1028,39.0221],[-8.1027,39.0167],[-8.1056,39.0105],[-8.1093,38.9972],[-8.1047,38.9837],[-8.0981,38.9779],[-8.0923,38.9795],[-8.0895,38.9853],[-8.0895,38.9917],[-8.0877,38.9968],[-8.0867,38.9992],[-8.086,39.0],[-8.0853,39.0006],[-8.0737,39.0042],[-8.0585,39.006],[-8.0493,39.004],[-8.0444,39.0017],[-8.0433,39.0005],[-8.0212,38.9821],[-8.0185,38.9736],[-8.0178,38.959],[-8.0185,38.9476],[-8.015,38.9456],[-7.9907,38.9429],[-7.9818,38.9444],[-7.9739,38.9478],[-7.9666,38.9525],[-7.961,38.9583],[-7.9447,38.9671],[-7.9233,38.9702],[-7.9116,38.9634],[-7.8668,38.9153],[-7.8385,38.9002],[-7.828,38.8991],[-7.8169,38.8989],[-7.8084,38.8996],[-7.7873,38.8991],[-7.7549,38.9082],[-7.7452,38.9161],[-7.7294,38.9315],[-7.7209,38.9308],[-7.7058,38.9237],[-7.6977,38.922],[-7.6877,38.9258],[-7.6784,38.9263],[-7.6682,38.9248],[-7.6459,38.9178],[-7.6381,38.9193],[-7.6328,38.9211],[-7.6286,38.9249],[-7.6236,38.9318],[-7.6169,38.9395],[-7.6023,38.9489],[-7.5879,38.9527],[-7.5672,38.9561],[-7.5522,38.9611],[-7.5425,38.9662],[-7.5387,38.9728],[-7.5387,38.9796],[-7.5419,38.9849],[-7.5491,38.9926],[-7.5359,39.0001],[-7.5307,39.0],[-7.528,39.0004],[-7.5271,39.0002],[-7.5219,38.9909],[-7.4819,38.9779],[-7.466,38.9656],[-7.4597,38.9559],[-7.4571,38.9383],[-7.4549,38.9325],[-7.4542,38.9218],[-7.4324,38.9063],[-7.4245,38.8865],[-7.4222,38.8734],[-7.4076,38.8571],[-7.4134,38.8418],[-7.406,38.8341],[-7.3933,38.8149],[-7.3841,38.8085],[-7.3691,38.8015],[-7.3514,38.8016],[-7.3469,38.8001],[-7.332,38.8038],[-7.312,38.8207],[-7.2902,38.835],[-7.2607,38.8425],[-7.2425,38.8434],[-7.2304,38.839],[-7.2183,38.8327],[-7.2151,38.8258],[-7.2144,38.8121],[-7.2156,38.8055],[-7.2306,38.7876],[-7.2327,38.7824],[-7.2335,38.7731],[-7.2262,38.7665],[-7.2259,38.7661]]]}}]}