{"type":"FeatureCollection","features":[{"type":"Feature","properties":{"id":"PRY-597","name":"Alto Paraguay","nameBn":"আল্টো প্যারাগুই","type":"Department","bounds":[-61.9247,-22.423,-57.816,-19.2867],"center":[-59.8709,-21.796]},"geometry":{"type":"Polygon","coordinates":[[[-58.1588,-20.1651],[-58.1583,-20.1811],[-58.1523,-20.1847],[-58.1441,-20.1835],[-58.137,-20.1856],[-58.1299,-20.1925],[-58.1205,-20.2039],[-58.1185,-20.2144],[-58.1553,-20.2264],[-58.1627,-20.2432],[-58.1563,-20.2617],[-58.137,-20.2744],[-58.1309,-20.2728],[-58.1262,-20.267],[-58.12,-20.2613],[-58.1098,-20.2607],[-58.1031,-20.2644],[-58.0951,-20.2722],[-58.0903,-20.2817],[-58.0999,-20.3092],[-58.0977,-20.3346],[-58.0908,-20.3594],[-58.083,-20.3762],[-58.0671,-20.3935],[-58.0456,-20.4093],[-58.0231,-20.4207],[-58.0042,-20.4252],[-57.9894,-20.4331],[-57.9921,-20.4509],[-58.0079,-20.4798],[-58.01,-20.5001],[-58.0089,-20.5257],[-58.0047,-20.5498],[-57.9933,-20.5738],[-57.9926,-20.585],[-57.9936,-20.6068],[-57.991,-20.6206],[-57.9778,-20.6401],[-57.9731,-20.6512],[-57.9736,-20.6619],[-57.9811,-20.6812],[-57.9806,-20.6927],[-57.9744,-20.704],[-57.965,-20.711],[-57.9564,-20.7099],[-57.9472,-20.6751],[-57.934,-20.6674],[-57.9181,-20.6698],[-57.9043,-20.679],[-57.9002,-20.6852],[-57.8945,-20.7],[-57.8906,-20.7064],[-57.8843,-20.712],[-57.8689,-20.7222],[-57.8602,-20.7303],[-57.8577,-20.7399],[-57.8653,-20.7474],[-57.877,-20.7524],[-57.8988,-20.7566],[-57.9067,-20.7622],[-57.9179,-20.7741],[-57.9331,-20.7846],[-57.9404,-20.7936],[-57.934,-20.7997],[-57.908,-20.802],[-57.8877,-20.8059],[-57.8707,-20.8165],[-57.8596,-20.8316],[-57.8571,-20.8497],[-57.8674,-20.8601],[-57.9087,-20.8816],[-57.9179,-20.8944],[-57.9148,-20.9056],[-57.908,-20.9105],[-57.9011,-20.9124],[-57.8981,-20.9148],[-57.893,-20.9148],[-57.8699,-20.9327],[-57.847,-20.956],[-57.8403,-20.956],[-57.836,-20.9385],[-57.8176,-20.9536],[-57.816,-20.9754],[-57.8254,-20.9986],[-57.8525,-21.0378],[-57.8517,-21.052],[-57.836,-21.0825],[-57.8299,-21.127],[-57.834,-21.1738],[-57.8479,-21.2162],[-57.8707,-21.2476],[-57.899,-21.2672],[-57.9043,-21.2749],[-57.9049,-21.2874],[-57.8999,-21.2951],[-57.8936,-21.3004],[-57.8906,-21.3059],[-57.8823,-21.3164],[-57.8663,-21.3209],[-57.8556,-21.3307],[-57.8633,-21.3569],[-57.9299,-21.4531],[-57.9453,-21.4872],[-57.9491,-21.5083],[-57.9481,-21.5305],[-57.9398,-21.5482],[-57.9216,-21.5554],[-57.9121,-21.564],[-57.9193,-21.584],[-57.9321,-21.6067],[-57.939,-21.6237],[-57.9348,-21.6407],[-57.9243,-21.6587],[-57.9118,-21.673],[-57.9011,-21.6789],[-57.8956,-21.6884],[-57.939,-21.7553],[-57.9384,-21.7746],[-57.9348,-21.7929],[-57.9357,-21.8121],[-57.9489,-21.8339],[-57.9559,-21.8511],[-57.9467,-21.8655],[-57.9328,-21.8819],[-57.9254,-21.905],[-57.9299,-21.9174],[-57.9532,-21.9582],[-57.9626,-21.967],[-57.9649,-21.9767],[-57.9868,-22.0353],[-57.9884,-22.049],[-57.988,-22.0641],[-57.9862,-22.0745],[-57.9731,-22.081],[-57.9733,-22.0812],[-57.9812,-22.0903],[-57.9742,-22.1322],[-57.9669,-22.1484],[-57.9773,-22.2106],[-57.9738,-22.2344],[-57.9657,-22.2568],[-57.9561,-22.2691],[-57.9407,-22.2743],[-57.9154,-22.2753],[-57.8967,-22.2793],[-57.8874,-22.2898],[-57.8775,-22.3231],[-57.8312,-22.3772],[-57.8267,-22.3886],[-57.8453,-22.4045],[-57.8516,-22.4119],[-57.849,-22.423],[-58.1941,-22.2809],[-58.2083,-22.2722],[-58.2164,-22.2621],[-58.2235,-22.2145],[-58.2377,-22.2046],[-58.2632,-22.198],[-58.733,-22.1681],[-58.7851,-22.1735],[-58.9984,-22.1568],[-59.1526,-22.1622],[-59.1688,-22.161],[-59.1924,-22.1553],[-59.2302,-22.1409],[-59.3423,-22.083],[-59.3916,-22.0551],[-59.4204,-22.0465],[-59.7816,-22.0335],[-59.8367,-22.0415],[-59.9292,-22.0438],[-59.9382,-22.0405],[-59.941,-22.0302],[-59.942,-21.9997],[-59.9582,-21.9077],[-59.9582,-21.8981],[-59.956,-21.8851],[-59.9419,-21.8453],[-59.8518,-21.4696],[-59.8473,-21.4597],[-59.8413,-21.4507],[-59.8267,-21.4358],[-59.8115,-21.4246],[-59.7104,-21.3674],[-59.7051,-21.3631],[-59.7019,-21.3597],[-59.6995,-21.3554],[-59.6978,-21.3503],[-59.6962,-21.3435],[-59.6955,-21.3349],[-59.6958,-21.3254],[-59.7369,-21.0687],[-59.7465,-21.0472],[-59.7521,-21.0379],[-59.8058,-20.968],[-59.8263,-20.9339],[-59.829,-20.9265],[-59.8297,-20.9183],[-59.826,-20.892],[-59.8256,-20.8837],[-59.8262,-20.8744],[-59.8324,-20.851],[-59.838,-20.8378],[-59.8498,-20.8178],[-59.8706,-20.7923],[-59.8743,-20.7864],[-59.8757,-20.7804],[-59.8758,-20.776],[-59.8555,-20.6982],[-59.8818,-20.6794],[-59.951,-20.6516],[-61.8187,-20.1319],[-61.9115,-20.0761],[-61.9247,-20.0651],[-61.9184,-20.0526],[-61.9055,-20.0267],[-61.8926,-20.0009],[-61.8644,-19.9274],[-61.8363,-19.8538],[-61.8082,-19.7803],[-61.7801,-19.707],[-61.7612,-19.6578],[-61.7532,-19.6459],[-61.7372,-19.6396],[-61.6482,-19.6268],[-61.6267,-19.6237],[-61.5795,-19.6168],[-61.5323,-19.61],[-61.5108,-19.6069],[-61.1724,-19.5375],[-60.8339,-19.4679],[-60.4955,-19.3985],[-60.157,-19.329],[-60.0064,-19.2981],[-59.9243,-19.2971],[-59.7359,-19.2948],[-59.5475,-19.2924],[-59.3591,-19.2901],[-59.1707,-19.2878],[-59.0895,-19.2867],[-59.0696,-19.2915],[-59.0397,-19.3116],[-59.0111,-19.331],[-58.9607,-19.3605],[-58.8674,-19.4153],[-58.7741,-19.4701],[-58.6808,-19.5248],[-58.5875,-19.5794],[-58.4943,-19.6342],[-58.401,-19.6889],[-58.3078,-19.7437],[-58.2145,-19.7983],[-58.1753,-19.8214],[-58.1644,-19.8329],[-58.1612,-19.8472],[-58.1642,-19.8803],[-58.1622,-19.9123],[-58.1452,-19.9696],[-58.1418,-20.0009],[-58.1445,-20.0231],[-58.1431,-20.0653],[-58.1447,-20.0862],[-58.1595,-20.1391],[-58.1588,-20.1651]]]}},{"type":"Feature","properties":{"id":"PRY-616","name":"Alto Paraná","nameBn":"আলটো পারানা","type":"Department","bounds":[-55.5263,-26.2389,-54.3584,-24.4675],"center":[-54.9426,-25.3757]},"geometry":{"type":"Polygon","coordinates":[[[-54.6002,-25.5749],[-54.6022,-25.5924],[-54.5862,-25.6247],[-54.5834,-25.6448],[-54.5985,-25.6538],[-54.6337,-25.6521],[-54.6429,-25.6616],[-54.6431,-25.6879],[-54.6249,-25.7402],[-54.6221,-25.76],[-54.6172,-25.7735],[-54.5945,-25.7987],[-54.5879,-25.8108],[-54.5896,-25.8329],[-54.5992,-25.8507],[-54.6101,-25.8665],[-54.6152,-25.8829],[-54.6073,-25.9279],[-54.6064,-25.9466],[-54.6152,-25.9617],[-54.6237,-25.9643],[-54.648,-25.9656],[-54.6562,-25.9692],[-54.6623,-25.9799],[-54.6616,-25.9899],[-54.6583,-26.0004],[-54.6533,-26.0308],[-54.6425,-26.0628],[-54.6431,-26.0852],[-54.6638,-26.1492],[-54.6599,-26.1644],[-54.6419,-26.184],[-54.6383,-26.197],[-54.6447,-26.2082],[-54.6562,-26.223],[-54.6643,-26.2362],[-54.665,-26.2389],[-54.6656,-26.2389],[-54.6674,-26.2389],[-54.7245,-26.2347],[-54.7355,-26.2323],[-54.7416,-26.2261],[-54.7435,-26.2196],[-54.7437,-26.2133],[-54.7425,-26.2063],[-54.7425,-26.2013],[-54.7436,-26.1972],[-54.746,-26.1941],[-54.7499,-26.1906],[-54.755,-26.1873],[-54.7742,-26.1785],[-54.7888,-26.1735],[-54.8078,-26.1701],[-54.8233,-26.1703],[-54.8313,-26.1725],[-54.8398,-26.1766],[-54.8532,-26.187],[-54.859,-26.1904],[-54.8646,-26.1925],[-54.8722,-26.1927],[-54.8799,-26.1904],[-54.8892,-26.1836],[-54.8916,-26.1785],[-54.891,-26.1716],[-54.8867,-26.1573],[-54.8861,-26.1521],[-54.8867,-26.1476],[-54.8885,-26.1448],[-54.8916,-26.1435],[-54.8961,-26.1433],[-54.9024,-26.1457],[-54.9071,-26.1489],[-54.9127,-26.155],[-54.92,-26.1647],[-54.9351,-26.1895],[-54.9393,-26.1943],[-54.9461,-26.2003],[-54.9529,-26.2041],[-54.959,-26.2065],[-54.9726,-26.2094],[-55.0057,-26.2122],[-55.0122,-26.2186],[-55.0161,-26.2232],[-55.0191,-26.2303],[-55.021,-26.2326],[-55.0234,-26.2345],[-55.0273,-26.237],[-55.0334,-26.2363],[-55.0414,-26.2329],[-55.0568,-26.2224],[-55.0673,-26.2168],[-55.0995,-26.2094],[-55.1248,-26.1996],[-55.1346,-26.1972],[-55.1428,-26.1958],[-55.1625,-26.1948],[-55.2368,-26.1982],[-55.2575,-26.1803],[-55.2915,-26.0833],[-55.2392,-26.0555],[-55.2309,-26.0482],[-55.2264,-26.0389],[-55.2267,-26.0305],[-55.233,-26.0231],[-55.2394,-26.0197],[-55.2469,-26.0179],[-55.2661,-26.0165],[-55.274,-26.0139],[-55.2804,-26.0094],[-55.2857,-26.004],[-55.2891,-25.9999],[-55.2933,-25.9957],[-55.2993,-25.9916],[-55.3053,-25.9907],[-55.337,-25.9993],[-55.3547,-26.0024],[-55.3832,-26.004],[-55.4074,-26.0032],[-55.4158,-26.0044],[-55.429,-26.0103],[-55.4365,-26.0091],[-55.4444,-26.0063],[-55.4578,-25.9997],[-55.4992,-25.9846],[-55.5039,-25.9814],[-55.5096,-25.9736],[-55.5131,-25.9628],[-55.5097,-25.9353],[-55.5096,-25.9259],[-55.5162,-25.9057],[-55.5165,-25.8959],[-55.5132,-25.8849],[-55.5162,-25.8751],[-55.5211,-25.8689],[-55.5263,-25.8607],[-55.5262,-25.8503],[-55.5196,-25.8323],[-55.4999,-25.7926],[-55.4969,-25.7888],[-55.476,-25.7727],[-55.4698,-25.7657],[-55.4654,-25.7563],[-55.4497,-25.7121],[-55.4463,-25.6983],[-55.4449,-25.6757],[-55.4389,-25.6622],[-55.4313,-25.6519],[-55.406,-25.6309],[-55.4001,-25.623],[-55.3982,-25.6163],[-55.3995,-25.6089],[-55.404,-25.6022],[-55.417,-25.5866],[-55.421,-25.5772],[-55.4228,-25.5688],[-55.423,-25.5613],[-55.4254,-25.5553],[-55.4303,-25.5505],[-55.4441,-25.5471],[-55.4534,-25.5463],[-55.4892,-25.5556],[-55.2564,-25.2613],[-55.2268,-25.2313],[-55.2153,-25.2316],[-55.1968,-25.2435],[-55.1713,-25.2667],[-55.1609,-25.2719],[-55.1371,-25.28],[-55.1243,-25.2828],[-55.1132,-25.2821],[-55.1141,-25.2724],[-55.1195,-25.2526],[-55.1201,-25.2421],[-55.1138,-25.2483],[-55.1042,-25.2624],[-55.098,-25.2689],[-55.0901,-25.2738],[-55.0822,-25.2763],[-55.0651,-25.2793],[-55.0511,-25.2847],[-55.0432,-25.2934],[-55.0394,-25.3048],[-55.0376,-25.3184],[-55.0242,-25.3399],[-54.9986,-25.3433],[-54.9721,-25.344],[-54.9494,-25.3377],[-54.9496,-25.3253],[-54.9506,-25.3198],[-54.9525,-25.3149],[-54.9551,-25.3105],[-54.9614,-25.3023],[-54.9641,-25.2979],[-54.9663,-25.2932],[-54.9674,-25.2878],[-54.9673,-25.2817],[-54.965,-25.2636],[-54.9661,-25.2584],[-54.969,-25.2543],[-54.9734,-25.2515],[-55.0001,-25.2419],[-55.0054,-25.2391],[-55.0092,-25.2363],[-55.0124,-25.2326],[-55.0145,-25.2283],[-55.0146,-25.2232],[-55.0084,-25.2038],[-55.0077,-25.1977],[-55.0083,-25.1919],[-55.0111,-25.1879],[-55.015,-25.1845],[-55.099,-25.1294],[-55.1795,-25.06],[-55.1854,-25.0521],[-55.1887,-25.0485],[-55.1933,-25.0466],[-55.1988,-25.0468],[-55.2046,-25.0475],[-55.2101,-25.0475],[-55.2148,-25.0458],[-55.2187,-25.0427],[-55.2222,-25.0389],[-55.2261,-25.0356],[-55.231,-25.0335],[-55.2368,-25.0326],[-55.255,-25.0349],[-55.2616,-25.035],[-55.2685,-25.0344],[-55.2746,-25.033],[-55.2802,-25.0311],[-55.2849,-25.0283],[-55.2891,-25.0253],[-55.2963,-25.0182],[-55.2994,-25.0143],[-55.3021,-25.0102],[-55.3065,-25.0001],[-55.3102,-24.9909],[-55.315,-24.982],[-55.3275,-24.9659],[-55.3297,-24.9597],[-55.3303,-24.9502],[-55.3266,-24.938],[-55.3262,-24.93],[-55.3267,-24.9236],[-55.3284,-24.9185],[-55.3296,-24.9128],[-55.3298,-24.906],[-55.3283,-24.8904],[-55.3286,-24.8841],[-55.3298,-24.8787],[-55.3317,-24.874],[-55.3335,-24.8678],[-55.3341,-24.861],[-55.3332,-24.8504],[-55.3266,-24.8437],[-55.3162,-24.8291],[-55.3147,-24.8201],[-55.3152,-24.8112],[-55.3239,-24.7874],[-55.3285,-24.7686],[-55.3264,-24.7577],[-55.3224,-24.7515],[-55.3148,-24.7468],[-55.3077,-24.741],[-55.301,-24.7292],[-55.2989,-24.7173],[-55.3002,-24.6762],[-55.2961,-24.6667],[-55.2854,-24.6495],[-55.2843,-24.6409],[-55.2856,-24.6307],[-55.2916,-24.6084],[-55.293,-24.5934],[-55.2916,-24.5837],[-55.2885,-24.5755],[-55.2838,-24.5687],[-55.2534,-24.5359],[-55.2275,-24.5022],[-55.1168,-24.4675],[-55.0953,-24.4727],[-55.0996,-24.5096],[-55.0984,-24.5207],[-55.0937,-24.5328],[-55.079,-24.5458],[-55.0646,-24.5515],[-55.0515,-24.5535],[-55.0393,-24.5512],[-55.0157,-24.5422],[-55.0007,-24.5397],[-54.9923,-24.5396],[-54.9157,-24.562],[-54.8965,-24.5719],[-54.8848,-24.5826],[-54.8829,-24.5916],[-54.8833,-24.5987],[-54.8847,-24.6043],[-54.8869,-24.6097],[-54.8873,-24.6148],[-54.8854,-24.6202],[-54.8788,-24.6264],[-54.871,-24.629],[-54.8626,-24.6302],[-54.8262,-24.6315],[-54.812,-24.6332],[-54.8039,-24.6366],[-54.8002,-24.6397],[-54.8003,-24.6443],[-54.801,-24.6503],[-54.801,-24.659],[-54.7957,-24.666],[-54.7906,-24.6687],[-54.7845,-24.6684],[-54.7793,-24.6662],[-54.7741,-24.6631],[-54.7689,-24.6584],[-54.7644,-24.6535],[-54.758,-24.6442],[-54.7533,-24.6397],[-54.746,-24.6349],[-54.734,-24.6339],[-54.7252,-24.636],[-54.7139,-24.6411],[-54.7064,-24.6436],[-54.6981,-24.6449],[-54.6916,-24.6439],[-54.677,-24.6399],[-54.6684,-24.6388],[-54.6636,-24.6403],[-54.6594,-24.6446],[-54.6488,-24.6698],[-54.6431,-24.6781],[-54.6362,-24.6853],[-54.6265,-24.6892],[-54.55,-24.6996],[-54.5211,-24.7075],[-54.4932,-24.7182],[-54.4697,-24.7227],[-54.4448,-24.7228],[-54.4214,-24.7206],[-54.3957,-24.7205],[-54.3816,-24.7222],[-54.359,-24.7312],[-54.3584,-24.7314],[-54.3711,-24.7667],[-54.3997,-24.8048],[-54.4073,-24.8212],[-54.4533,-25.0028],[-54.4623,-25.0372],[-54.4642,-25.0559],[-54.4633,-25.0728],[-54.4552,-25.0921],[-54.4297,-25.1306],[-54.4266,-25.1495],[-54.4357,-25.167],[-54.4694,-25.1955],[-54.4815,-25.2132],[-54.5036,-25.2787],[-54.5285,-25.3143],[-54.5471,-25.3366],[-54.5757,-25.3603],[-54.598,-25.3975],[-54.6098,-25.4328],[-54.6118,-25.444],[-54.6125,-25.4655],[-54.6085,-25.4876],[-54.5985,-25.5058],[-54.5915,-25.5247],[-54.5942,-25.5486],[-54.5999,-25.5727],[-54.6002,-25.5749]]]}},{"type":"Feature","properties":{"id":"PRY-615","name":"Amambay","nameBn":"আমাম্বে","type":"Department","bounds":[-56.8429,-23.8651,-55.5139,-22.0745],"center":[-56.1788,-23.2295]},"geometry":{"type":"Polygon","coordinates":[[[-56.4218,-22.0745],[-56.4076,-22.0758],[-56.3973,-22.0862],[-56.3708,-22.1473],[-56.3473,-22.1804],[-56.3168,-22.2077],[-56.2611,-22.2386],[-56.2315,-22.2654],[-56.2143,-22.2754],[-56.1968,-22.2793],[-56.0247,-22.2874],[-56.0114,-22.2839],[-55.9986,-22.2772],[-55.9852,-22.2832],[-55.9709,-22.2939],[-55.9553,-22.3013],[-55.8929,-22.3068],[-55.8744,-22.3173],[-55.872,-22.3102],[-55.861,-22.2895],[-55.8108,-22.3531],[-55.7702,-22.3814],[-55.7602,-22.392],[-55.7516,-22.4163],[-55.7483,-22.5009],[-55.7413,-22.5372],[-55.7239,-22.5696],[-55.6979,-22.5956],[-55.6647,-22.6127],[-55.6444,-22.6195],[-55.6312,-22.6268],[-55.6237,-22.6387],[-55.6205,-22.6593],[-55.6215,-22.6671],[-55.627,-22.6836],[-55.6278,-22.6921],[-55.6257,-22.7008],[-55.6192,-22.7169],[-55.6183,-22.7257],[-55.6286,-22.759],[-55.6459,-22.7879],[-55.659,-22.8183],[-55.6566,-22.8557],[-55.6343,-22.9328],[-55.6344,-22.9501],[-55.64,-22.9838],[-55.6378,-23.0007],[-55.6115,-23.0291],[-55.6007,-23.0445],[-55.5952,-23.0641],[-55.6001,-23.1006],[-55.5994,-23.1171],[-55.5887,-23.1301],[-55.5609,-23.1459],[-55.5571,-23.1547],[-55.5352,-23.2291],[-55.5356,-23.2459],[-55.559,-23.2913],[-55.5622,-23.3079],[-55.5556,-23.3303],[-55.5249,-23.3605],[-55.5139,-23.3794],[-55.5155,-23.4102],[-55.5425,-23.4658],[-55.5399,-23.5005],[-55.5338,-23.5304],[-55.5343,-23.5308],[-55.544,-23.5374],[-55.5538,-23.5522],[-55.5717,-23.5969],[-55.5799,-23.6356],[-55.5867,-23.6459],[-55.5978,-23.6557],[-55.6389,-23.6778],[-55.6475,-23.6809],[-55.6566,-23.6831],[-55.6846,-23.6835],[-55.6992,-23.6893],[-55.7206,-23.7011],[-55.8242,-23.7712],[-55.8668,-23.7932],[-55.877,-23.8023],[-55.891,-23.8252],[-55.8971,-23.8315],[-55.9066,-23.8374],[-55.9323,-23.8469],[-55.9572,-23.8524],[-55.9929,-23.8553],[-56.0008,-23.8581],[-56.0091,-23.8621],[-56.0144,-23.8641],[-56.0199,-23.8651],[-56.0263,-23.8643],[-56.0324,-23.8624],[-56.0471,-23.8561],[-56.0591,-23.8485],[-56.0513,-23.8472],[-56.042,-23.8435],[-56.0083,-23.8206],[-56.0061,-23.8184],[-56.0042,-23.815],[-55.9989,-23.7982],[-55.9815,-23.7682],[-55.9772,-23.7583],[-55.9757,-23.7528],[-55.975,-23.7467],[-55.9746,-23.721],[-55.9775,-23.6966],[-55.9824,-23.6812],[-55.9828,-23.6763],[-55.9809,-23.672],[-55.9586,-23.6447],[-55.9479,-23.6339],[-55.9419,-23.6258],[-55.9351,-23.6113],[-55.9338,-23.6057],[-55.9331,-23.5999],[-55.9367,-23.563],[-55.9358,-23.5501],[-55.9335,-23.5387],[-55.9336,-23.5339],[-55.9362,-23.5302],[-55.9462,-23.5288],[-55.96,-23.5292],[-56.0211,-23.5404],[-56.03,-23.5438],[-56.0341,-23.5469],[-56.0352,-23.5522],[-56.0348,-23.5667],[-56.036,-23.5755],[-56.0384,-23.5819],[-56.0419,-23.5866],[-56.0473,-23.59],[-56.0586,-23.5951],[-56.0655,-23.5995],[-56.0809,-23.6112],[-56.0864,-23.6139],[-56.0916,-23.614],[-56.1017,-23.6073],[-56.1141,-23.5946],[-56.132,-23.5653],[-56.1401,-23.5485],[-56.1452,-23.5353],[-56.1475,-23.5266],[-56.1478,-23.5198],[-56.1442,-23.5148],[-56.0615,-23.4521],[-56.0532,-23.443],[-56.0465,-23.4339],[-56.0441,-23.4286],[-56.043,-23.4234],[-56.0432,-23.4197],[-56.0447,-23.4141],[-56.0479,-23.407],[-56.0521,-23.4008],[-56.056,-23.3968],[-56.0728,-23.3832],[-56.0774,-23.3769],[-56.0788,-23.372],[-56.0773,-23.3666],[-56.0722,-23.3566],[-56.0697,-23.3501],[-56.0694,-23.3444],[-56.0716,-23.3379],[-56.0764,-23.331],[-56.0843,-23.3242],[-56.0929,-23.3196],[-56.1073,-23.316],[-56.1495,-23.3139],[-56.1626,-23.3118],[-56.1784,-23.3074],[-56.1835,-23.308],[-56.1927,-23.3124],[-56.2037,-23.3151],[-56.2246,-23.3179],[-56.2436,-23.3226],[-56.2669,-23.3341],[-56.278,-23.3417],[-56.2862,-23.3454],[-56.2905,-23.3467],[-56.301,-23.3397],[-56.2963,-23.3359],[-56.2946,-23.3335],[-56.2926,-23.3299],[-56.2916,-23.3273],[-56.2891,-23.3175],[-56.2858,-23.293],[-56.2844,-23.2875],[-56.2822,-23.2826],[-56.2791,-23.2785],[-56.2756,-23.275],[-56.2714,-23.2718],[-56.2623,-23.2667],[-56.2588,-23.263],[-56.2544,-23.2535],[-56.2517,-23.249],[-56.248,-23.2455],[-56.244,-23.2424],[-56.2352,-23.2366],[-56.1967,-23.2173],[-56.1926,-23.2144],[-56.1905,-23.2089],[-56.1909,-23.2009],[-56.1948,-23.1867],[-56.195,-23.1783],[-56.1942,-23.1715],[-56.1927,-23.166],[-56.1907,-23.1609],[-56.1877,-23.1568],[-56.1835,-23.1537],[-56.1786,-23.1516],[-56.1747,-23.1489],[-56.1737,-23.1445],[-56.1756,-23.1339],[-56.1757,-23.1277],[-56.1746,-23.1221],[-56.172,-23.1178],[-56.168,-23.1156],[-56.1631,-23.1161],[-56.1534,-23.1204],[-56.148,-23.1218],[-56.1421,-23.1217],[-56.1374,-23.1196],[-56.1337,-23.1161],[-56.1315,-23.1113],[-56.1304,-23.1056],[-56.1292,-23.0698],[-56.1274,-23.0587],[-56.1281,-23.0525],[-56.2716,-22.7071],[-56.2751,-22.7014],[-56.2799,-22.696],[-56.2946,-22.6906],[-56.3006,-22.6891],[-56.3059,-22.689],[-56.3112,-22.6901],[-56.3159,-22.6924],[-56.3412,-22.7106],[-56.3458,-22.7131],[-56.3508,-22.7151],[-56.3624,-22.7176],[-56.3677,-22.7196],[-56.3723,-22.7224],[-56.376,-22.7261],[-56.3793,-22.7303],[-56.391,-22.7488],[-56.3976,-22.7571],[-56.4014,-22.7608],[-56.4056,-22.7638],[-56.4154,-22.7683],[-56.4209,-22.7698],[-56.4738,-22.7786],[-56.4788,-22.7804],[-56.4838,-22.7827],[-56.4924,-22.7886],[-56.4985,-22.7946],[-56.4998,-22.7963],[-56.5008,-22.7982],[-56.5043,-22.807],[-56.506,-22.8129],[-56.5092,-22.8323],[-56.5111,-22.8381],[-56.514,-22.8429],[-56.5245,-22.8555],[-56.5324,-22.8704],[-56.5361,-22.8741],[-56.5408,-22.8764],[-56.5522,-22.8789],[-56.5716,-22.887],[-56.5769,-22.8883],[-56.5828,-22.889],[-56.5893,-22.8883],[-56.5954,-22.8867],[-56.6017,-22.883],[-56.6081,-22.8781],[-56.6169,-22.8695],[-56.6234,-22.8654],[-56.6298,-22.8643],[-56.6343,-22.8665],[-56.6421,-22.8735],[-56.6466,-22.8761],[-56.6519,-22.8778],[-56.6705,-22.8795],[-56.684,-22.8793],[-56.69,-22.8797],[-56.6938,-22.8786],[-56.6946,-22.8752],[-56.6922,-22.863],[-56.6867,-22.8552],[-56.68,-22.8481],[-56.6579,-22.8348],[-56.6533,-22.8281],[-56.6522,-22.8176],[-56.6585,-22.7996],[-56.6662,-22.7593],[-56.6742,-22.7394],[-56.6827,-22.7266],[-56.6892,-22.7196],[-56.6944,-22.7159],[-56.7,-22.7127],[-56.7048,-22.7082],[-56.7071,-22.7013],[-56.7039,-22.6862],[-56.7035,-22.6791],[-56.7055,-22.6717],[-56.7149,-22.6604],[-56.7196,-22.6531],[-56.7216,-22.6438],[-56.7197,-22.6327],[-56.7169,-22.6246],[-56.7152,-22.6154],[-56.7147,-22.604],[-56.7171,-22.5852],[-56.7162,-22.5663],[-56.7167,-22.5605],[-56.7219,-22.5403],[-56.7222,-22.5331],[-56.7197,-22.5279],[-56.7099,-22.5214],[-56.7065,-22.5159],[-56.7054,-22.5082],[-56.71,-22.4866],[-56.7093,-22.4796],[-56.7065,-22.4738],[-56.7024,-22.4682],[-56.6971,-22.4631],[-56.6649,-22.4429],[-56.6577,-22.437],[-56.6149,-22.3804],[-56.6094,-22.3767],[-56.5859,-22.3651],[-56.582,-22.362],[-56.6226,-22.3472],[-56.8341,-22.2983],[-56.8429,-22.289],[-56.8197,-22.2655],[-56.8131,-22.2562],[-56.8119,-22.2496],[-56.8083,-22.248],[-56.7946,-22.2525],[-56.787,-22.2518],[-56.7544,-22.2426],[-56.7468,-22.244],[-56.7456,-22.2484],[-56.7435,-22.2504],[-56.7332,-22.2441],[-56.7285,-22.2375],[-56.7205,-22.2195],[-56.7154,-22.2154],[-56.6986,-22.2235],[-56.6646,-22.26],[-56.6488,-22.2635],[-56.6441,-22.2554],[-56.6547,-22.2373],[-56.6483,-22.2314],[-56.6372,-22.2283],[-56.6292,-22.2247],[-56.5957,-22.2015],[-56.585,-22.1905],[-56.5679,-22.1623],[-56.5653,-22.1599],[-56.558,-22.1564],[-56.5546,-22.1521],[-56.5491,-22.1363],[-56.546,-22.1301],[-56.5307,-22.1091],[-56.5216,-22.0999],[-56.5113,-22.0914],[-56.4938,-22.0866],[-56.4218,-22.0745]]]}},{"type":"Feature","properties":{"id":"PRY-4837","name":"Asunción","nameBn":"আসুনসিওন","type":"Capital District","bounds":[-57.672,-25.4034,-57.5392,-25.2344],"center":[-57.5735,-25.3096]},"geometry":{"type":"Polygon","coordinates":[[[-57.5975,-25.4034],[-57.6408,-25.3726],[-57.6412,-25.3605],[-57.6715,-25.2901],[-57.672,-25.2898],[-57.6505,-25.2655],[-57.6392,-25.2562],[-57.6243,-25.2484],[-57.5959,-25.2402],[-57.5835,-25.2344],[-57.5591,-25.2564],[-57.5441,-25.2813],[-57.5392,-25.3186],[-57.5491,-25.3585],[-57.574,-25.3834],[-57.5975,-25.4034]]]}},{"type":"Feature","properties":{"id":"PRY-598","name":"Boquerón","nameBn":"বুকেরন","type":"Department","bounds":[-62.6504,-23.8741,-59.3042,-20.0651],"center":[-60.9776,-22.0943]},"geometry":{"type":"Polygon","coordinates":[[[-62.2756,-22.5135],[-62.2814,-22.5121],[-62.2838,-22.5048],[-62.2836,-22.4938],[-62.2845,-22.4887],[-62.2872,-22.4839],[-62.2945,-22.4798],[-62.3057,-22.4767],[-62.3414,-22.4723],[-62.3487,-22.4713],[-62.3683,-22.4644],[-62.4381,-22.4197],[-62.455,-22.4039],[-62.4619,-22.3888],[-62.4706,-22.3818],[-62.5107,-22.3702],[-62.5234,-22.3649],[-62.5476,-22.3353],[-62.5647,-22.322],[-62.5883,-22.3164],[-62.5996,-22.3152],[-62.6131,-22.3115],[-62.6253,-22.305],[-62.6327,-22.296],[-62.6308,-22.2877],[-62.6242,-22.2789],[-62.6203,-22.2685],[-62.6264,-22.255],[-62.6196,-22.255],[-62.6248,-22.2473],[-62.6318,-22.2408],[-62.6404,-22.2362],[-62.6504,-22.2345],[-62.6275,-22.1845],[-62.5994,-22.0899],[-62.5728,-22.0008],[-62.5292,-21.8651],[-62.4928,-21.7518],[-62.4462,-21.6069],[-62.412,-21.5009],[-62.3755,-21.3845],[-62.3404,-21.2729],[-62.3079,-21.1693],[-62.2757,-21.0666],[-62.2719,-21.0009],[-62.2719,-21.0004],[-62.2738,-20.8548],[-62.275,-20.7587],[-62.2762,-20.6707],[-62.2773,-20.5798],[-62.2688,-20.5531],[-62.2324,-20.501],[-62.2106,-20.4713],[-62.1897,-20.4428],[-62.145,-20.3821],[-62.1002,-20.3212],[-62.0555,-20.2604],[-62.0108,-20.1995],[-61.9942,-20.1757],[-61.9776,-20.1518],[-61.9609,-20.128],[-61.9442,-20.1041],[-61.9314,-20.0783],[-61.9247,-20.0651],[-61.9115,-20.0761],[-61.8187,-20.1319],[-59.951,-20.6516],[-59.8818,-20.6794],[-59.8555,-20.6982],[-59.8758,-20.776],[-59.8757,-20.7804],[-59.8743,-20.7864],[-59.8706,-20.7923],[-59.8498,-20.8178],[-59.838,-20.8378],[-59.8324,-20.851],[-59.8262,-20.8744],[-59.8256,-20.8837],[-59.826,-20.892],[-59.8297,-20.9183],[-59.829,-20.9265],[-59.8263,-20.9339],[-59.8058,-20.968],[-59.7521,-21.0379],[-59.7465,-21.0472],[-59.7369,-21.0687],[-59.6958,-21.3254],[-59.6955,-21.3349],[-59.6962,-21.3435],[-59.6978,-21.3503],[-59.6995,-21.3554],[-59.7019,-21.3597],[-59.7051,-21.3631],[-59.7104,-21.3674],[-59.8115,-21.4246],[-59.8267,-21.4358],[-59.8413,-21.4507],[-59.8473,-21.4597],[-59.8518,-21.4696],[-59.9419,-21.8453],[-59.956,-21.8851],[-59.9582,-21.8981],[-59.9582,-21.9077],[-59.942,-21.9997],[-59.941,-22.0302],[-59.9382,-22.0405],[-59.9292,-22.0438],[-59.8367,-22.0415],[-59.7816,-22.0335],[-59.4204,-22.0465],[-59.3916,-22.0551],[-59.3423,-22.083],[-59.3071,-22.1821],[-59.3042,-22.1956],[-59.3076,-22.2014],[-59.3226,-22.2138],[-59.3847,-22.2494],[-59.4086,-22.2599],[-59.414,-22.2604],[-59.4206,-22.2585],[-59.4288,-22.254],[-59.4365,-22.2487],[-59.4459,-22.2403],[-59.4537,-22.2351],[-59.4641,-22.2302],[-59.4776,-22.2333],[-59.4918,-22.2381],[-59.5945,-22.2956],[-59.6079,-22.3075],[-59.6163,-22.3185],[-59.6216,-22.3297],[-59.6236,-22.3354],[-59.6251,-22.3457],[-59.6248,-22.3532],[-59.6226,-22.3611],[-59.6096,-22.3849],[-59.6081,-22.3913],[-59.6093,-22.3989],[-59.6165,-22.412],[-59.6274,-22.4182],[-59.6426,-22.4213],[-59.7,-22.4215],[-59.7163,-22.4239],[-59.7311,-22.4309],[-59.7373,-22.4393],[-59.7391,-22.4506],[-59.733,-22.4969],[-59.7328,-22.5011],[-59.7348,-22.5164],[-59.741,-22.529],[-59.9344,-22.7958],[-59.9439,-22.8155],[-59.9474,-22.8317],[-59.9474,-22.8573],[-59.9497,-22.8705],[-59.959,-22.9022],[-59.961,-22.9136],[-59.9572,-22.9641],[-59.9596,-23.0098],[-59.9523,-23.0572],[-59.9544,-23.0738],[-59.9597,-23.0944],[-59.987,-23.1626],[-59.9867,-23.1691],[-59.9846,-23.1762],[-59.9763,-23.1941],[-59.9734,-23.2052],[-59.9766,-23.2222],[-59.9875,-23.2513],[-60.0327,-23.3358],[-60.0451,-23.3717],[-60.0544,-23.4109],[-60.0636,-23.4999],[-60.0642,-23.5005],[-60.072,-23.5054],[-60.1715,-23.5546],[-60.1952,-23.5631],[-60.2302,-23.5694],[-60.554,-23.586],[-60.5676,-23.5885],[-60.5812,-23.5938],[-60.6125,-23.6096],[-60.6482,-23.6236],[-60.7201,-23.6344],[-60.7338,-23.6385],[-60.7505,-23.6464],[-60.7594,-23.6549],[-60.7651,-23.6638],[-60.772,-23.6993],[-60.7758,-23.7107],[-60.7889,-23.7319],[-60.7919,-23.7383],[-60.7927,-23.745],[-60.7878,-23.8733],[-60.7878,-23.8734],[-60.8169,-23.8741],[-60.8376,-23.8718],[-60.8664,-23.8559],[-60.8999,-23.8305],[-60.9367,-23.8138],[-60.9748,-23.8241],[-61.0063,-23.8055],[-61.0158,-23.7967],[-61.0302,-23.7746],[-61.0362,-23.7688],[-61.0381,-23.7554],[-61.05,-23.7347],[-61.0662,-23.7157],[-61.0925,-23.7019],[-61.1097,-23.6756],[-61.1188,-23.6664],[-61.1098,-23.65],[-61.1062,-23.6272],[-61.1099,-23.607],[-61.1222,-23.5982],[-61.1395,-23.5927],[-61.1545,-23.5803],[-61.1678,-23.5666],[-61.1802,-23.5572],[-61.1877,-23.5562],[-61.2077,-23.5576],[-61.2144,-23.5572],[-61.2236,-23.5513],[-61.2429,-23.5331],[-61.2519,-23.5293],[-61.2726,-23.5236],[-61.2829,-23.5099],[-61.289,-23.4941],[-61.297,-23.4814],[-61.3618,-23.4547],[-61.3849,-23.4537],[-61.3987,-23.4501],[-61.4087,-23.4436],[-61.4205,-23.4337],[-61.4357,-23.4237],[-61.4519,-23.4174],[-61.4703,-23.4141],[-61.4918,-23.4132],[-61.5011,-23.4078],[-61.5104,-23.3844],[-61.5263,-23.3747],[-61.5255,-23.3647],[-61.5208,-23.3532],[-61.5161,-23.345],[-61.534,-23.3446],[-61.5458,-23.3426],[-61.5546,-23.3384],[-61.6052,-23.2893],[-61.6196,-23.2829],[-61.6669,-23.2829],[-61.6803,-23.2793],[-61.6888,-23.2745],[-61.7044,-23.2584],[-61.7185,-23.2493],[-61.733,-23.2434],[-61.7443,-23.2348],[-61.7488,-23.2173],[-61.7495,-23.1988],[-61.7523,-23.1871],[-61.7585,-23.1774],[-61.7693,-23.1656],[-61.78,-23.1569],[-61.8027,-23.145],[-61.8143,-23.1352],[-61.837,-23.1047],[-61.845,-23.0972],[-61.9564,-23.0344],[-61.9921,-22.9981],[-62.0059,-22.9789],[-62.0061,-22.9744],[-62.0089,-22.9697],[-62.0038,-22.9463],[-62.0061,-22.9368],[-62.0172,-22.9218],[-62.0358,-22.8849],[-62.0504,-22.8645],[-62.0716,-22.8439],[-62.0808,-22.8324],[-62.0846,-22.8202],[-62.0894,-22.8199],[-62.0992,-22.8137],[-62.1079,-22.8065],[-62.1088,-22.803],[-62.1159,-22.7998],[-62.1197,-22.7921],[-62.1225,-22.7832],[-62.1262,-22.7757],[-62.1535,-22.7478],[-62.1597,-22.7372],[-62.1641,-22.7259],[-62.1708,-22.7173],[-62.1842,-22.7137],[-62.1883,-22.7083],[-62.1759,-22.6849],[-62.195,-22.6736],[-62.1946,-22.6606],[-62.1876,-22.6386],[-62.193,-22.6282],[-62.1966,-22.6265],[-62.2025,-22.6272],[-62.2149,-22.6243],[-62.2397,-22.6138],[-62.2528,-22.6036],[-62.253,-22.5911],[-62.2389,-22.573],[-62.2332,-22.5563],[-62.2412,-22.5384],[-62.2634,-22.5144],[-62.2688,-22.513],[-62.2756,-22.5135]]]}},{"type":"Feature","properties":{"id":"PRY-617","name":"Caaguazú","nameBn":"কাগুয়াজু","type":"Department","bounds":[-56.8147,-25.7104,-54.9494,-24.5022],"center":[-55.8821,-25.2234]},"geometry":{"type":"Polygon","coordinates":[[[-56.0457,-24.9715],[-56.0371,-24.9644],[-56.0284,-24.9528],[-55.9846,-24.8735],[-55.9699,-24.8571],[-55.9494,-24.8419],[-55.8689,-24.8115],[-55.7508,-24.7827],[-55.7245,-24.7533],[-55.6963,-24.7132],[-55.6822,-24.6985],[-55.6324,-24.6635],[-55.5228,-24.5557],[-55.5098,-24.5489],[-55.4897,-24.5428],[-55.2275,-24.5022],[-55.2534,-24.5359],[-55.2838,-24.5687],[-55.2885,-24.5755],[-55.2916,-24.5837],[-55.293,-24.5934],[-55.2916,-24.6084],[-55.2856,-24.6307],[-55.2843,-24.6409],[-55.2854,-24.6495],[-55.2961,-24.6667],[-55.3002,-24.6762],[-55.2989,-24.7173],[-55.301,-24.7292],[-55.3077,-24.741],[-55.3148,-24.7468],[-55.3224,-24.7515],[-55.3264,-24.7577],[-55.3285,-24.7686],[-55.3239,-24.7874],[-55.3152,-24.8112],[-55.3147,-24.8201],[-55.3162,-24.8291],[-55.3266,-24.8437],[-55.3332,-24.8504],[-55.3341,-24.861],[-55.3335,-24.8678],[-55.3317,-24.874],[-55.3298,-24.8787],[-55.3286,-24.8841],[-55.3283,-24.8904],[-55.3298,-24.906],[-55.3296,-24.9128],[-55.3284,-24.9185],[-55.3267,-24.9236],[-55.3262,-24.93],[-55.3266,-24.938],[-55.3303,-24.9502],[-55.3297,-24.9597],[-55.3275,-24.9659],[-55.315,-24.982],[-55.3102,-24.9909],[-55.3065,-25.0001],[-55.3021,-25.0102],[-55.2994,-25.0143],[-55.2963,-25.0182],[-55.2891,-25.0253],[-55.2849,-25.0283],[-55.2802,-25.0311],[-55.2746,-25.033],[-55.2685,-25.0344],[-55.2616,-25.035],[-55.255,-25.0349],[-55.2368,-25.0326],[-55.231,-25.0335],[-55.2261,-25.0356],[-55.2222,-25.0389],[-55.2187,-25.0427],[-55.2148,-25.0458],[-55.2101,-25.0475],[-55.2046,-25.0475],[-55.1988,-25.0468],[-55.1933,-25.0466],[-55.1887,-25.0485],[-55.1854,-25.0521],[-55.1795,-25.06],[-55.099,-25.1294],[-55.015,-25.1845],[-55.0111,-25.1879],[-55.0083,-25.1919],[-55.0077,-25.1977],[-55.0084,-25.2038],[-55.0146,-25.2232],[-55.0145,-25.2283],[-55.0124,-25.2326],[-55.0092,-25.2363],[-55.0054,-25.2391],[-55.0001,-25.2419],[-54.9734,-25.2515],[-54.969,-25.2543],[-54.9661,-25.2584],[-54.965,-25.2636],[-54.9673,-25.2817],[-54.9674,-25.2878],[-54.9663,-25.2932],[-54.9641,-25.2979],[-54.9614,-25.3023],[-54.9551,-25.3105],[-54.9525,-25.3149],[-54.9506,-25.3198],[-54.9496,-25.3253],[-54.9494,-25.3377],[-54.9721,-25.344],[-54.9986,-25.3433],[-55.0242,-25.3399],[-55.0376,-25.3184],[-55.0394,-25.3048],[-55.0432,-25.2934],[-55.0511,-25.2847],[-55.0651,-25.2793],[-55.0822,-25.2763],[-55.0901,-25.2738],[-55.098,-25.2689],[-55.1042,-25.2624],[-55.1138,-25.2483],[-55.1201,-25.2421],[-55.1195,-25.2526],[-55.1141,-25.2724],[-55.1132,-25.2821],[-55.1243,-25.2828],[-55.1371,-25.28],[-55.1609,-25.2719],[-55.1713,-25.2667],[-55.1968,-25.2435],[-55.2153,-25.2316],[-55.2268,-25.2313],[-55.2564,-25.2613],[-55.4892,-25.5556],[-55.5057,-25.579],[-55.5078,-25.5914],[-55.5075,-25.596],[-55.5096,-25.6033],[-55.5144,-25.6101],[-55.5239,-25.62],[-55.5293,-25.6272],[-55.5388,-25.6344],[-55.5501,-25.6404],[-55.5992,-25.6576],[-55.6246,-25.6503],[-55.6362,-25.6374],[-55.6415,-25.6355],[-55.6504,-25.635],[-55.7107,-25.6578],[-55.7712,-25.6747],[-55.8027,-25.6785],[-55.8282,-25.6768],[-55.8415,-25.67],[-55.8543,-25.6598],[-55.8751,-25.6368],[-55.8865,-25.6263],[-55.9,-25.6175],[-55.9204,-25.61],[-55.9388,-25.6071],[-56.0461,-25.6098],[-56.0615,-25.6071],[-56.0738,-25.6016],[-56.082,-25.594],[-56.0932,-25.5885],[-56.174,-25.5856],[-56.2034,-25.5808],[-56.218,-25.5802],[-56.2462,-25.5825],[-56.3591,-25.5778],[-56.3788,-25.5795],[-56.396,-25.5843],[-56.4262,-25.6017],[-56.4376,-25.6062],[-56.4506,-25.6097],[-56.482,-25.6146],[-56.4991,-25.6203],[-56.5125,-25.6281],[-56.56,-25.6688],[-56.57,-25.6745],[-56.6251,-25.6985],[-56.6468,-25.7104],[-56.679,-25.7065],[-56.6848,-25.7039],[-56.6933,-25.6993],[-56.7149,-25.6743],[-56.7463,-25.6535],[-56.7499,-25.6457],[-56.7507,-25.6434],[-56.8086,-25.535],[-56.8138,-25.5223],[-56.8147,-25.513],[-56.8093,-25.5061],[-56.5638,-25.3493],[-56.5438,-25.287],[-56.4945,-25.0217],[-56.4217,-24.9534],[-56.4112,-24.9468],[-56.3807,-24.9315],[-56.3707,-24.9221],[-56.3633,-24.9106],[-56.3588,-24.9003],[-56.3527,-24.8903],[-56.3421,-24.8817],[-56.2988,-24.8585],[-56.2857,-24.8462],[-56.2766,-24.8325],[-56.2717,-24.8204],[-56.2649,-24.8081],[-56.2567,-24.7978],[-56.2471,-24.7887],[-56.2363,-24.7833],[-56.2273,-24.7843],[-56.2145,-24.7947],[-56.2102,-24.8069],[-56.2094,-24.8176],[-56.2134,-24.833],[-56.2143,-24.8402],[-56.2136,-24.8484],[-56.2108,-24.8557],[-56.2038,-24.8626],[-56.1938,-24.8689],[-56.1479,-24.8848],[-56.1416,-24.8881],[-56.135,-24.893],[-56.1009,-24.9282],[-56.0544,-24.9679],[-56.0457,-24.9715]]]}},{"type":"Feature","properties":{"id":"PRY-618","name":"Caazapá","nameBn":"কাজাপা","type":"Department","bounds":[-56.7834,-26.776,-55.2264,-25.5463],"center":[-56.0049,-26.2005]},"geometry":{"type":"Polygon","coordinates":[[[-55.5992,-25.6576],[-55.5501,-25.6404],[-55.5388,-25.6344],[-55.5293,-25.6272],[-55.5239,-25.62],[-55.5144,-25.6101],[-55.5096,-25.6033],[-55.5075,-25.596],[-55.5078,-25.5914],[-55.5057,-25.579],[-55.4892,-25.5556],[-55.4534,-25.5463],[-55.4441,-25.5471],[-55.4303,-25.5505],[-55.4254,-25.5553],[-55.423,-25.5613],[-55.4228,-25.5688],[-55.421,-25.5772],[-55.417,-25.5866],[-55.404,-25.6022],[-55.3995,-25.6089],[-55.3982,-25.6163],[-55.4001,-25.623],[-55.406,-25.6309],[-55.4313,-25.6519],[-55.4389,-25.6622],[-55.4449,-25.6757],[-55.4463,-25.6983],[-55.4497,-25.7121],[-55.4654,-25.7563],[-55.4698,-25.7657],[-55.476,-25.7727],[-55.4969,-25.7888],[-55.4999,-25.7926],[-55.5196,-25.8323],[-55.5262,-25.8503],[-55.5263,-25.8607],[-55.5211,-25.8689],[-55.5162,-25.8751],[-55.5132,-25.8849],[-55.5165,-25.8959],[-55.5162,-25.9057],[-55.5096,-25.9259],[-55.5097,-25.9353],[-55.5131,-25.9628],[-55.5096,-25.9736],[-55.5039,-25.9814],[-55.4992,-25.9846],[-55.4578,-25.9997],[-55.4444,-26.0063],[-55.4365,-26.0091],[-55.429,-26.0103],[-55.4158,-26.0044],[-55.4074,-26.0032],[-55.3832,-26.004],[-55.3547,-26.0024],[-55.337,-25.9993],[-55.3053,-25.9907],[-55.2993,-25.9916],[-55.2933,-25.9957],[-55.2891,-25.9999],[-55.2857,-26.004],[-55.2804,-26.0094],[-55.274,-26.0139],[-55.2661,-26.0165],[-55.2469,-26.0179],[-55.2394,-26.0197],[-55.233,-26.0231],[-55.2267,-26.0305],[-55.2264,-26.0389],[-55.2309,-26.0482],[-55.2392,-26.0555],[-55.2915,-26.0833],[-55.3044,-26.0809],[-55.3082,-26.079],[-55.3121,-26.0776],[-55.3156,-26.0787],[-55.3178,-26.0818],[-55.3194,-26.0897],[-55.3193,-26.0963],[-55.3203,-26.1023],[-55.3226,-26.1092],[-55.3242,-26.1173],[-55.3232,-26.1652],[-55.326,-26.1737],[-55.332,-26.1826],[-55.3401,-26.1912],[-55.3816,-26.2276],[-55.4657,-26.2874],[-55.4838,-26.2966],[-55.5517,-26.3197],[-55.5725,-26.3232],[-55.5861,-26.3241],[-55.6002,-26.3211],[-55.6179,-26.3209],[-55.6388,-26.323],[-55.6811,-26.3342],[-55.7399,-26.3569],[-55.7504,-26.3685],[-55.7589,-26.3885],[-55.7657,-26.3962],[-55.7845,-26.4104],[-55.8311,-26.455],[-55.8471,-26.4646],[-55.8646,-26.472],[-55.9339,-26.4834],[-55.9841,-26.498],[-55.999,-26.5082],[-56.0211,-26.5384],[-56.026,-26.5481],[-56.0352,-26.5726],[-56.0449,-26.5859],[-56.0565,-26.598],[-56.0709,-26.6088],[-56.0793,-26.6174],[-56.0856,-26.6267],[-56.0949,-26.6578],[-56.1024,-26.6651],[-56.1184,-26.6713],[-56.149,-26.6755],[-56.2099,-26.6934],[-56.2957,-26.735],[-56.4117,-26.7756],[-56.4287,-26.776],[-56.4444,-26.7726],[-56.4592,-26.7639],[-56.4904,-26.7406],[-56.4969,-26.7373],[-56.5723,-26.7224],[-56.5742,-26.7139],[-56.574,-26.7115],[-56.5727,-26.7066],[-56.5681,-26.6959],[-56.566,-26.6873],[-56.5679,-26.6786],[-56.5766,-26.6704],[-56.5936,-26.6658],[-56.6251,-26.6653],[-56.6397,-26.6626],[-56.6545,-26.6565],[-56.6969,-26.6308],[-56.7134,-26.617],[-56.7318,-26.5901],[-56.7398,-26.5759],[-56.7486,-26.5636],[-56.7545,-26.5571],[-56.7834,-26.5408],[-56.7734,-26.5183],[-56.7595,-26.5076],[-56.7475,-26.5005],[-56.7282,-26.4855],[-56.7196,-26.4737],[-56.7152,-26.4612],[-56.7141,-26.4499],[-56.7102,-26.4383],[-56.7041,-26.4303],[-56.6908,-26.418],[-56.6862,-26.4074],[-56.6852,-26.3977],[-56.6875,-26.3888],[-56.6882,-26.3792],[-56.6863,-26.373],[-56.6826,-26.3678],[-56.6619,-26.3545],[-56.6571,-26.3468],[-56.6546,-26.3378],[-56.6511,-26.3019],[-56.6408,-26.2643],[-56.6334,-26.2526],[-56.5989,-26.2168],[-56.594,-26.2079],[-56.5865,-26.1759],[-56.5543,-26.176],[-56.5291,-26.1788],[-56.5149,-26.1738],[-56.5066,-26.1655],[-56.4998,-26.1214],[-56.4933,-26.1043],[-56.4826,-26.0878],[-56.472,-26.0801],[-56.4578,-26.076],[-56.4089,-26.0741],[-56.3925,-26.0687],[-56.3843,-26.061],[-56.3804,-26.0499],[-56.3787,-26.038],[-56.3752,-26.0265],[-56.3671,-26.014],[-56.3589,-26.0102],[-56.3524,-26.0104],[-56.3459,-26.014],[-56.3388,-26.0157],[-56.3295,-26.0152],[-56.2803,-25.9956],[-56.2657,-25.9921],[-56.2538,-25.9919],[-56.2456,-25.9957],[-56.2409,-25.9985],[-56.2135,-26.0188],[-56.1738,-26.0422],[-56.1552,-26.044],[-56.0989,-26.0185],[-56.0741,-26.0034],[-56.0724,-26.0012],[-56.0714,-25.9994],[-56.0684,-25.9911],[-56.0474,-25.9138],[-56.0424,-25.9044],[-56.0335,-25.894],[-56.0209,-25.8888],[-55.9882,-25.8804],[-55.9754,-25.8733],[-55.9566,-25.8583],[-55.9448,-25.8536],[-55.9089,-25.8467],[-55.8977,-25.842],[-55.8731,-25.8248],[-55.8597,-25.8175],[-55.7702,-25.7842],[-55.757,-25.7774],[-55.7519,-25.7718],[-55.7415,-25.7522],[-55.7341,-25.7433],[-55.7193,-25.7316],[-55.7092,-25.7291],[-55.6998,-25.7297],[-55.6909,-25.7324],[-55.6816,-25.7331],[-55.6694,-25.7301],[-55.6603,-25.7215],[-55.6541,-25.7115],[-55.6411,-25.6795],[-55.6334,-25.6655],[-55.6305,-25.6613],[-55.6246,-25.6503],[-55.5992,-25.6576]]]}},{"type":"Feature","properties":{"id":"PRY-619","name":"Canindeyú","nameBn":"ক্যানিন্দেউ","type":"Department","bounds":[-56.1585,-24.7827,-54.2453,-23.5304],"center":[-55.2022,-24.2567]},"geometry":{"type":"Polygon","coordinates":[[[-55.5338,-23.5304],[-55.5331,-23.534],[-55.5339,-23.57],[-55.5305,-23.6035],[-55.5113,-23.6294],[-55.467,-23.6732],[-55.4453,-23.7354],[-55.4302,-23.9286],[-55.4207,-23.9545],[-55.398,-23.9768],[-55.3672,-23.9896],[-55.3043,-23.9941],[-55.2727,-24.0004],[-55.2727,-24.0005],[-55.2726,-24.0005],[-55.2724,-24.0006],[-55.2368,-24.0127],[-55.2009,-24.0195],[-55.1654,-24.0168],[-55.1313,-24.0006],[-55.1312,-24.0006],[-55.1311,-24.0006],[-55.1311,-24.0004],[-55.1056,-23.9885],[-55.0423,-23.989],[-55.0115,-23.9806],[-54.9946,-23.9731],[-54.9611,-23.9718],[-54.9436,-23.9692],[-54.9267,-23.9599],[-54.9049,-23.933],[-54.8919,-23.9206],[-54.8274,-23.887],[-54.6968,-23.8452],[-54.6798,-23.8367],[-54.6546,-23.8115],[-54.6392,-23.8044],[-54.6126,-23.8112],[-54.4432,-23.8999],[-54.4229,-23.9138],[-54.3676,-23.9847],[-54.2736,-24.0365],[-54.2458,-24.0504],[-54.2453,-24.0506],[-54.2662,-24.0659],[-54.301,-24.0899],[-54.3248,-24.1182],[-54.3346,-24.1489],[-54.3318,-24.165],[-54.319,-24.1968],[-54.3141,-24.2342],[-54.3063,-24.2467],[-54.2827,-24.2753],[-54.2743,-24.2983],[-54.261,-24.3295],[-54.2622,-24.3585],[-54.2717,-24.3894],[-54.2841,-24.4113],[-54.3229,-24.4643],[-54.3345,-24.4967],[-54.3348,-24.5273],[-54.3207,-24.5959],[-54.3213,-24.6284],[-54.3584,-24.7314],[-54.359,-24.7312],[-54.3816,-24.7222],[-54.3957,-24.7205],[-54.4214,-24.7206],[-54.4448,-24.7228],[-54.4697,-24.7227],[-54.4932,-24.7182],[-54.5211,-24.7075],[-54.55,-24.6996],[-54.6265,-24.6892],[-54.6362,-24.6853],[-54.6431,-24.6781],[-54.6488,-24.6698],[-54.6594,-24.6446],[-54.6636,-24.6403],[-54.6684,-24.6388],[-54.677,-24.6399],[-54.6916,-24.6439],[-54.6981,-24.6449],[-54.7064,-24.6436],[-54.7139,-24.6411],[-54.7252,-24.636],[-54.734,-24.6339],[-54.746,-24.6349],[-54.7533,-24.6397],[-54.758,-24.6442],[-54.7644,-24.6535],[-54.7689,-24.6584],[-54.7741,-24.6631],[-54.7793,-24.6662],[-54.7845,-24.6684],[-54.7906,-24.6687],[-54.7957,-24.666],[-54.801,-24.659],[-54.801,-24.6503],[-54.8003,-24.6443],[-54.8002,-24.6397],[-54.8039,-24.6366],[-54.812,-24.6332],[-54.8262,-24.6315],[-54.8626,-24.6302],[-54.871,-24.629],[-54.8788,-24.6264],[-54.8854,-24.6202],[-54.8873,-24.6148],[-54.8869,-24.6097],[-54.8847,-24.6043],[-54.8833,-24.5987],[-54.8829,-24.5916],[-54.8848,-24.5826],[-54.8965,-24.5719],[-54.9157,-24.562],[-54.9923,-24.5396],[-55.0007,-24.5397],[-55.0157,-24.5422],[-55.0393,-24.5512],[-55.0515,-24.5535],[-55.0646,-24.5515],[-55.079,-24.5458],[-55.0937,-24.5328],[-55.0984,-24.5207],[-55.0996,-24.5096],[-55.0953,-24.4727],[-55.1168,-24.4675],[-55.2275,-24.5022],[-55.4897,-24.5428],[-55.5098,-24.5489],[-55.5228,-24.5557],[-55.6324,-24.6635],[-55.6822,-24.6985],[-55.6963,-24.7132],[-55.7245,-24.7533],[-55.7508,-24.7827],[-55.8043,-24.7536],[-55.8142,-24.7457],[-55.8207,-24.7352],[-55.8279,-24.7208],[-55.8368,-24.6977],[-55.8561,-24.6788],[-55.8729,-24.666],[-55.9024,-24.649],[-55.9136,-24.635],[-55.9242,-24.6133],[-55.9386,-24.5716],[-55.9601,-24.5315],[-56.0131,-24.4637],[-56.0338,-24.4198],[-56.0385,-24.4137],[-56.0443,-24.4087],[-56.0519,-24.4052],[-56.0707,-24.3993],[-56.0799,-24.3952],[-56.088,-24.39],[-56.0964,-24.3825],[-56.1034,-24.3745],[-56.109,-24.3649],[-56.1144,-24.3528],[-56.1185,-24.3373],[-56.1228,-24.3047],[-56.1254,-24.2935],[-56.1296,-24.2843],[-56.135,-24.2787],[-56.1566,-24.2616],[-56.1585,-24.2489],[-56.1585,-24.2298],[-56.1526,-24.183],[-56.1535,-24.1608],[-56.1488,-24.1454],[-56.1458,-24.1404],[-56.1264,-24.1162],[-56.1221,-24.1131],[-56.1177,-24.1105],[-56.1126,-24.1082],[-56.0882,-24.1032],[-56.0831,-24.101],[-56.0791,-24.0979],[-56.0663,-24.0822],[-56.0436,-24.0619],[-56.0309,-24.0461],[-56.0159,-24.0325],[-56.0115,-24.03],[-56.0073,-24.0285],[-56.0029,-24.0283],[-56.0004,-24.0285],[-55.9941,-24.0299],[-55.9924,-24.0227],[-55.9975,-23.9998],[-56.0591,-23.8485],[-56.0471,-23.8561],[-56.0324,-23.8624],[-56.0263,-23.8643],[-56.0199,-23.8651],[-56.0144,-23.8641],[-56.0091,-23.8621],[-56.0008,-23.8581],[-55.9929,-23.8553],[-55.9572,-23.8524],[-55.9323,-23.8469],[-55.9066,-23.8374],[-55.8971,-23.8315],[-55.891,-23.8252],[-55.877,-23.8023],[-55.8668,-23.7932],[-55.8242,-23.7712],[-55.7206,-23.7011],[-55.6992,-23.6893],[-55.6846,-23.6835],[-55.6566,-23.6831],[-55.6475,-23.6809],[-55.6389,-23.6778],[-55.5978,-23.6557],[-55.5867,-23.6459],[-55.5799,-23.6356],[-55.5717,-23.5969],[-55.5538,-23.5522],[-55.544,-23.5374],[-55.5343,-23.5308],[-55.5338,-23.5304]]]}},{"type":"Feature","properties":{"id":"PRY-607","name":"Central","nameBn":"সেন্ট্রাল বিভাগ","type":"Department","bounds":[-57.8206,-26.0111,-57.1618,-25.107],"center":[-57.5265,-25.6711]},"geometry":{"type":"Polygon","coordinates":[[[-57.6388,-25.6158],[-57.6231,-25.6154],[-57.6163,-25.6092],[-57.6116,-25.5859],[-57.6007,-25.5788],[-57.5872,-25.5757],[-57.5753,-25.5644],[-57.57,-25.5467],[-57.5569,-25.4598],[-57.5581,-25.4435],[-57.5653,-25.4304],[-57.5787,-25.4167],[-57.5975,-25.4034],[-57.574,-25.3834],[-57.5491,-25.3585],[-57.5392,-25.3186],[-57.5441,-25.2813],[-57.5591,-25.2564],[-57.5835,-25.2344],[-57.5697,-25.2223],[-57.5546,-25.2016],[-57.5415,-25.1756],[-57.5323,-25.1481],[-57.5287,-25.1227],[-57.5238,-25.1092],[-57.5118,-25.107],[-57.4837,-25.1125],[-57.455,-25.1125],[-57.4323,-25.1431],[-57.429,-25.1459],[-57.3888,-25.1694],[-57.3792,-25.1781],[-57.3485,-25.2259],[-57.3182,-25.2559],[-57.3057,-25.2732],[-57.3002,-25.2861],[-57.2975,-25.301],[-57.2913,-25.3203],[-57.2566,-25.3778],[-57.2466,-25.3902],[-57.2401,-25.3948],[-57.2331,-25.3974],[-57.2262,-25.3973],[-57.2201,-25.3958],[-57.2163,-25.3933],[-57.2093,-25.3874],[-57.2041,-25.3842],[-57.1997,-25.3831],[-57.1934,-25.3837],[-57.1821,-25.395],[-57.1618,-25.4253],[-57.2026,-25.4484],[-57.2316,-25.4721],[-57.2383,-25.4797],[-57.3226,-25.6026],[-57.3551,-25.6369],[-57.3907,-25.6683],[-57.4026,-25.6835],[-57.4135,-25.7036],[-57.426,-25.7381],[-57.4298,-25.7676],[-57.4283,-25.79],[-57.405,-25.8584],[-57.4031,-25.8761],[-57.407,-25.8978],[-57.4338,-25.944],[-57.4567,-25.9706],[-57.5036,-26.0111],[-57.5167,-25.9828],[-57.542,-25.9529],[-57.5475,-25.9431],[-57.5505,-25.9344],[-57.552,-25.9239],[-57.5553,-25.9177],[-57.5596,-25.9131],[-57.5799,-25.9051],[-57.5905,-25.8998],[-57.6169,-25.8793],[-57.6402,-25.8658],[-57.6622,-25.8482],[-57.6757,-25.8351],[-57.6893,-25.8187],[-57.6972,-25.8126],[-57.7038,-25.8097],[-57.7101,-25.8098],[-57.7312,-25.8142],[-57.7374,-25.8148],[-57.7442,-25.8138],[-57.7642,-25.8071],[-57.7694,-25.8066],[-57.7741,-25.8074],[-57.7781,-25.8105],[-57.7805,-25.815],[-57.7813,-25.8232],[-57.7801,-25.84],[-57.7804,-25.847],[-57.7816,-25.8512],[-57.7871,-25.8544],[-57.7923,-25.8561],[-57.8163,-25.8513],[-57.8197,-25.8498],[-57.8128,-25.8452],[-57.8019,-25.8314],[-57.8171,-25.7975],[-57.8206,-25.7783],[-57.8056,-25.7699],[-57.7872,-25.7641],[-57.7679,-25.7507],[-57.7511,-25.7349],[-57.7404,-25.7221],[-57.7511,-25.7196],[-57.7606,-25.7156],[-57.7685,-25.71],[-57.7746,-25.7017],[-57.7537,-25.6727],[-57.7413,-25.6619],[-57.7199,-25.6538],[-57.7087,-25.6529],[-57.6982,-25.6536],[-57.6883,-25.6527],[-57.679,-25.647],[-57.6753,-25.6393],[-57.67,-25.6169],[-57.6681,-25.6123],[-57.6388,-25.6158]]]}},{"type":"Feature","properties":{"id":"PRY-603","name":"Concepción","nameBn":"কনসেপশন","type":"Department","bounds":[-57.9812,-23.5048,-56.1274,-22.081],"center":[-57.0543,-22.8458]},"geometry":{"type":"Polygon","coordinates":[[[-57.9731,-22.081],[-57.9729,-22.0812],[-57.9614,-22.0901],[-57.9525,-22.106],[-57.94,-22.1184],[-57.9063,-22.1289],[-57.8955,-22.1289],[-57.8782,-22.1221],[-57.8714,-22.1212],[-57.8628,-22.1258],[-57.8487,-22.1403],[-57.8439,-22.1437],[-57.8318,-22.1411],[-57.8158,-22.1283],[-57.8055,-22.1286],[-57.7953,-22.131],[-57.7875,-22.1297],[-57.7754,-22.124],[-57.7778,-22.1223],[-57.7774,-22.117],[-57.7756,-22.1112],[-57.7737,-22.1077],[-57.7699,-22.1074],[-57.7603,-22.1107],[-57.7562,-22.1106],[-57.7363,-22.1037],[-57.7233,-22.1047],[-57.7099,-22.1085],[-57.6896,-22.1093],[-57.6785,-22.1064],[-57.6708,-22.1024],[-57.6637,-22.1006],[-57.6545,-22.1045],[-57.6389,-22.1445],[-57.6272,-22.1651],[-57.6141,-22.177],[-57.5967,-22.181],[-57.5727,-22.1777],[-57.564,-22.1744],[-57.56,-22.1716],[-57.5547,-22.1703],[-57.5423,-22.1715],[-57.5346,-22.1744],[-57.5112,-22.1888],[-57.4725,-22.1803],[-57.464,-22.1804],[-57.4432,-22.1879],[-57.4323,-22.1887],[-57.4179,-22.1938],[-57.385,-22.2133],[-57.3786,-22.2134],[-57.375,-22.2073],[-57.3666,-22.2091],[-57.3512,-22.2172],[-57.3399,-22.217],[-57.3348,-22.2117],[-57.3331,-22.2054],[-57.3318,-22.2024],[-57.3163,-22.2037],[-57.2717,-22.2138],[-57.2524,-22.2106],[-57.2275,-22.1913],[-57.2138,-22.1882],[-57.2094,-22.1921],[-57.2064,-22.2075],[-57.1995,-22.2129],[-57.19,-22.2136],[-57.1836,-22.2109],[-57.1779,-22.2074],[-57.1704,-22.2057],[-57.1542,-22.208],[-57.1242,-22.2185],[-57.115,-22.2229],[-57.1146,-22.2251],[-57.1133,-22.2294],[-57.1085,-22.2335],[-57.0907,-22.2364],[-57.0851,-22.2381],[-57.0792,-22.2386],[-57.0716,-22.2357],[-57.0595,-22.2327],[-57.0277,-22.2351],[-57.0112,-22.2338],[-56.9865,-22.2414],[-56.9757,-22.2417],[-56.9646,-22.2349],[-56.9655,-22.2509],[-56.9605,-22.2548],[-56.9521,-22.2536],[-56.9426,-22.254],[-56.9249,-22.2624],[-56.9148,-22.2629],[-56.9037,-22.2369],[-56.892,-22.2522],[-56.8817,-22.2772],[-56.8795,-22.29],[-56.8561,-22.2932],[-56.8429,-22.289],[-56.8341,-22.2983],[-56.6226,-22.3472],[-56.582,-22.362],[-56.5859,-22.3651],[-56.6094,-22.3767],[-56.6149,-22.3804],[-56.6577,-22.437],[-56.6649,-22.4429],[-56.6971,-22.4631],[-56.7024,-22.4682],[-56.7065,-22.4738],[-56.7093,-22.4796],[-56.71,-22.4866],[-56.7054,-22.5082],[-56.7065,-22.5159],[-56.7099,-22.5214],[-56.7197,-22.5279],[-56.7222,-22.5331],[-56.7219,-22.5403],[-56.7167,-22.5605],[-56.7162,-22.5663],[-56.7171,-22.5852],[-56.7147,-22.604],[-56.7152,-22.6154],[-56.7169,-22.6246],[-56.7197,-22.6327],[-56.7216,-22.6438],[-56.7196,-22.6531],[-56.7149,-22.6604],[-56.7055,-22.6717],[-56.7035,-22.6791],[-56.7039,-22.6862],[-56.7071,-22.7013],[-56.7048,-22.7082],[-56.7,-22.7127],[-56.6944,-22.7159],[-56.6892,-22.7196],[-56.6827,-22.7266],[-56.6742,-22.7394],[-56.6662,-22.7593],[-56.6585,-22.7996],[-56.6522,-22.8176],[-56.6533,-22.8281],[-56.6579,-22.8348],[-56.68,-22.8481],[-56.6867,-22.8552],[-56.6922,-22.863],[-56.6946,-22.8752],[-56.6938,-22.8786],[-56.69,-22.8797],[-56.684,-22.8793],[-56.6705,-22.8795],[-56.6519,-22.8778],[-56.6466,-22.8761],[-56.6421,-22.8735],[-56.6343,-22.8665],[-56.6298,-22.8643],[-56.6234,-22.8654],[-56.6169,-22.8695],[-56.6081,-22.8781],[-56.6017,-22.883],[-56.5954,-22.8867],[-56.5893,-22.8883],[-56.5828,-22.889],[-56.5769,-22.8883],[-56.5716,-22.887],[-56.5522,-22.8789],[-56.5408,-22.8764],[-56.5361,-22.8741],[-56.5324,-22.8704],[-56.5245,-22.8555],[-56.514,-22.8429],[-56.5111,-22.8381],[-56.5092,-22.8323],[-56.506,-22.8129],[-56.5043,-22.807],[-56.5008,-22.7982],[-56.4998,-22.7963],[-56.4985,-22.7946],[-56.4924,-22.7886],[-56.4838,-22.7827],[-56.4788,-22.7804],[-56.4738,-22.7786],[-56.4209,-22.7698],[-56.4154,-22.7683],[-56.4056,-22.7638],[-56.4014,-22.7608],[-56.3976,-22.7571],[-56.391,-22.7488],[-56.3793,-22.7303],[-56.376,-22.7261],[-56.3723,-22.7224],[-56.3677,-22.7196],[-56.3624,-22.7176],[-56.3508,-22.7151],[-56.3458,-22.7131],[-56.3412,-22.7106],[-56.3159,-22.6924],[-56.3112,-22.6901],[-56.3059,-22.689],[-56.3006,-22.6891],[-56.2946,-22.6906],[-56.2799,-22.696],[-56.2751,-22.7014],[-56.2716,-22.7071],[-56.1281,-23.0525],[-56.1274,-23.0587],[-56.1292,-23.0698],[-56.1304,-23.1056],[-56.1315,-23.1113],[-56.1337,-23.1161],[-56.1374,-23.1196],[-56.1421,-23.1217],[-56.148,-23.1218],[-56.1534,-23.1204],[-56.1631,-23.1161],[-56.168,-23.1156],[-56.172,-23.1178],[-56.1746,-23.1221],[-56.1757,-23.1277],[-56.1756,-23.1339],[-56.1737,-23.1445],[-56.1747,-23.1489],[-56.1786,-23.1516],[-56.1835,-23.1537],[-56.1877,-23.1568],[-56.1907,-23.1609],[-56.1927,-23.166],[-56.1942,-23.1715],[-56.195,-23.1783],[-56.1948,-23.1867],[-56.1909,-23.2009],[-56.1905,-23.2089],[-56.1926,-23.2144],[-56.1967,-23.2173],[-56.2352,-23.2366],[-56.244,-23.2424],[-56.248,-23.2455],[-56.2517,-23.249],[-56.2544,-23.2535],[-56.2588,-23.263],[-56.2623,-23.2667],[-56.2714,-23.2718],[-56.2756,-23.275],[-56.2791,-23.2785],[-56.2822,-23.2826],[-56.2844,-23.2875],[-56.2858,-23.293],[-56.2891,-23.3175],[-56.2916,-23.3273],[-56.2926,-23.3299],[-56.2946,-23.3335],[-56.2963,-23.3359],[-56.301,-23.3397],[-56.3336,-23.3521],[-56.3461,-23.3662],[-56.3542,-23.3788],[-56.3677,-23.3884],[-56.3811,-23.4002],[-56.4049,-23.4114],[-56.4123,-23.4123],[-56.4185,-23.4118],[-56.4249,-23.4108],[-56.4337,-23.4104],[-56.4737,-23.4204],[-56.5182,-23.4412],[-56.5252,-23.4436],[-56.5348,-23.4436],[-56.5492,-23.445],[-56.5812,-23.4517],[-56.5962,-23.4532],[-56.6054,-23.4523],[-56.6121,-23.4452],[-56.6203,-23.443],[-56.6326,-23.442],[-56.6586,-23.4447],[-56.6719,-23.4448],[-56.6816,-23.4438],[-56.7056,-23.4317],[-56.7157,-23.4302],[-56.73,-23.4296],[-56.7882,-23.4326],[-56.8385,-23.4217],[-56.8627,-23.419],[-56.8715,-23.4198],[-56.878,-23.422],[-56.8867,-23.4295],[-56.893,-23.4338],[-56.8995,-23.4357],[-56.908,-23.4363],[-56.9334,-23.4347],[-56.9439,-23.4361],[-56.9577,-23.4393],[-56.9771,-23.4475],[-56.9846,-23.449],[-56.991,-23.4486],[-56.9988,-23.4461],[-57.0066,-23.4445],[-57.0168,-23.4434],[-57.0241,-23.4442],[-57.0301,-23.4462],[-57.0346,-23.4489],[-57.0386,-23.4522],[-57.0459,-23.4561],[-57.09,-23.4691],[-57.1615,-23.4794],[-57.2082,-23.479],[-57.2186,-23.4802],[-57.2261,-23.4825],[-57.2432,-23.4911],[-57.2633,-23.4982],[-57.274,-23.5003],[-57.2816,-23.5008],[-57.284,-23.5003],[-57.3505,-23.5048],[-57.3571,-23.5041],[-57.3681,-23.5017],[-57.3728,-23.5001],[-57.3985,-23.487],[-57.4037,-23.4849],[-57.4085,-23.4824],[-57.4205,-23.4777],[-57.4462,-23.4745],[-57.4422,-23.4647],[-57.4425,-23.4574],[-57.4462,-23.4472],[-57.4527,-23.4173],[-57.4536,-23.4093],[-57.4567,-23.4039],[-57.4704,-23.3939],[-57.4772,-23.3827],[-57.4948,-23.3677],[-57.5008,-23.3578],[-57.5037,-23.3435],[-57.5014,-23.3367],[-57.4955,-23.3303],[-57.4871,-23.3168],[-57.4821,-23.3064],[-57.4802,-23.3005],[-57.4803,-23.279],[-57.484,-23.273],[-57.5006,-23.2579],[-57.5112,-23.2502],[-57.5356,-23.2206],[-57.5444,-23.2132],[-57.5509,-23.2088],[-57.5885,-23.1921],[-57.6086,-23.18],[-57.6246,-23.1653],[-57.6311,-23.1489],[-57.6306,-23.128],[-57.6321,-23.1111],[-57.6399,-23.0988],[-57.6585,-23.0909],[-57.6982,-23.0907],[-57.7141,-23.0852],[-57.7205,-23.0664],[-57.7299,-23.0548],[-57.7744,-23.0348],[-57.7894,-23.0214],[-57.7677,-22.9816],[-57.7729,-22.9607],[-57.786,-22.9447],[-57.8195,-22.9159],[-57.821,-22.9059],[-57.8113,-22.8969],[-57.7981,-22.888],[-57.7894,-22.878],[-57.7884,-22.866],[-57.7924,-22.8568],[-57.8024,-22.8439],[-57.8089,-22.8264],[-57.8119,-22.8213],[-57.8195,-22.8131],[-57.8289,-22.8093],[-57.8518,-22.8104],[-57.8608,-22.8063],[-57.867,-22.7953],[-57.872,-22.7718],[-57.8775,-22.7619],[-57.886,-22.757],[-57.9089,-22.7512],[-57.9185,-22.747],[-57.9402,-22.7163],[-57.9292,-22.6865],[-57.8958,-22.6649],[-57.8502,-22.6589],[-57.8069,-22.6657],[-57.7847,-22.6653],[-57.7751,-22.6555],[-57.7797,-22.634],[-57.7907,-22.6174],[-57.8161,-22.59],[-57.8306,-22.5592],[-57.8434,-22.446],[-57.849,-22.423],[-57.8516,-22.4119],[-57.8453,-22.4045],[-57.8267,-22.3886],[-57.8312,-22.3772],[-57.8775,-22.3231],[-57.8874,-22.2898],[-57.8967,-22.2793],[-57.9154,-22.2753],[-57.9407,-22.2743],[-57.9561,-22.2691],[-57.9657,-22.2568],[-57.9738,-22.2344],[-57.9773,-22.2106],[-57.9669,-22.1484],[-57.9742,-22.1322],[-57.9812,-22.0903],[-57.9733,-22.0812],[-57.9731,-22.081]]]}},{"type":"Feature","properties":{"id":"PRY-604","name":"Cordillera","nameBn":"কর্ডিল্যেরা","type":"Department","bounds":[-57.455,-25.6627,-56.4945,-24.9153],"center":[-56.9747,-25.2506]},"geometry":{"type":"Polygon","coordinates":[[[-56.4945,-25.0217],[-56.5438,-25.287],[-56.5638,-25.3493],[-56.8093,-25.5061],[-56.8147,-25.513],[-56.8138,-25.5223],[-56.8086,-25.535],[-56.7507,-25.6434],[-56.7499,-25.6457],[-56.7463,-25.6535],[-56.7881,-25.6386],[-56.7955,-25.6375],[-56.806,-25.637],[-56.8171,-25.642],[-56.8265,-25.6477],[-56.8336,-25.6531],[-56.84,-25.6569],[-56.8471,-25.6602],[-56.8545,-25.6621],[-56.8615,-25.6627],[-56.8921,-25.6607],[-56.9003,-25.6583],[-56.9075,-25.6544],[-56.9103,-25.6477],[-56.9096,-25.6439],[-56.9061,-25.6401],[-56.8935,-25.6301],[-56.8814,-25.6178],[-56.8785,-25.6128],[-56.8773,-25.6081],[-56.8775,-25.6037],[-56.8789,-25.5998],[-56.885,-25.5878],[-56.8878,-25.5803],[-56.8931,-25.555],[-56.8967,-25.5465],[-56.9026,-25.5394],[-56.9155,-25.5367],[-56.9258,-25.5364],[-57.0002,-25.5405],[-57.0086,-25.5398],[-57.0264,-25.5364],[-57.0495,-25.5293],[-57.0614,-25.5273],[-57.0882,-25.5261],[-57.1035,-25.5163],[-57.1126,-25.5085],[-57.1618,-25.4253],[-57.1821,-25.395],[-57.1934,-25.3837],[-57.1997,-25.3831],[-57.2041,-25.3842],[-57.2093,-25.3874],[-57.2163,-25.3933],[-57.2201,-25.3958],[-57.2262,-25.3973],[-57.2331,-25.3974],[-57.2401,-25.3948],[-57.2466,-25.3902],[-57.2566,-25.3778],[-57.2913,-25.3203],[-57.2975,-25.301],[-57.3002,-25.2861],[-57.3057,-25.2732],[-57.3182,-25.2559],[-57.3485,-25.2259],[-57.3792,-25.1781],[-57.3888,-25.1694],[-57.429,-25.1459],[-57.4323,-25.1431],[-57.455,-25.1125],[-57.4223,-25.1125],[-57.4149,-25.1082],[-57.3962,-25.0894],[-57.3878,-25.0852],[-57.378,-25.0833],[-57.3661,-25.0785],[-57.3541,-25.072],[-57.3438,-25.0647],[-57.2953,-25.006],[-57.2854,-24.9825],[-57.2619,-24.98],[-57.2347,-24.9864],[-57.2134,-24.989],[-57.195,-25.0006],[-57.1298,-25.0279],[-57.0956,-25.0371],[-57.0769,-25.0389],[-57.0587,-25.0376],[-57.0386,-25.0311],[-57.0277,-25.0241],[-57.0222,-25.0181],[-57.0203,-25.0131],[-57.0198,-25.0088],[-57.0199,-25.0049],[-57.0216,-24.9984],[-57.022,-24.9949],[-57.0216,-24.9895],[-57.0204,-24.9837],[-57.0186,-24.9803],[-57.0154,-24.9769],[-57.0062,-24.9714],[-56.9984,-24.9678],[-56.9848,-24.9637],[-56.827,-24.9368],[-56.7722,-24.9224],[-56.7047,-24.9153],[-56.6893,-24.917],[-56.5957,-24.9513],[-56.5786,-24.9618],[-56.5416,-25.0],[-56.5366,-25.0029],[-56.5319,-25.0066],[-56.4945,-25.0217]]]}},{"type":"Feature","properties":{"id":"PRY-608","name":"Guairá","nameBn":"গোয়াইরা","type":"Department","bounds":[-56.6725,-26.1788,-55.6246,-25.5778],"center":[-56.1486,-25.8137]},"geometry":{"type":"Polygon","coordinates":[[[-56.3591,-25.5778],[-56.2462,-25.5825],[-56.218,-25.5802],[-56.2034,-25.5808],[-56.174,-25.5856],[-56.0932,-25.5885],[-56.082,-25.594],[-56.0738,-25.6016],[-56.0615,-25.6071],[-56.0461,-25.6098],[-55.9388,-25.6071],[-55.9204,-25.61],[-55.9,-25.6175],[-55.8865,-25.6263],[-55.8751,-25.6368],[-55.8543,-25.6598],[-55.8415,-25.67],[-55.8282,-25.6768],[-55.8027,-25.6785],[-55.7712,-25.6747],[-55.7107,-25.6578],[-55.6504,-25.635],[-55.6415,-25.6355],[-55.6362,-25.6374],[-55.6246,-25.6503],[-55.6305,-25.6613],[-55.6334,-25.6655],[-55.6411,-25.6795],[-55.6541,-25.7115],[-55.6603,-25.7215],[-55.6694,-25.7301],[-55.6816,-25.7331],[-55.6909,-25.7324],[-55.6998,-25.7297],[-55.7092,-25.7291],[-55.7193,-25.7316],[-55.7341,-25.7433],[-55.7415,-25.7522],[-55.7519,-25.7718],[-55.757,-25.7774],[-55.7702,-25.7842],[-55.8597,-25.8175],[-55.8731,-25.8248],[-55.8977,-25.842],[-55.9089,-25.8467],[-55.9448,-25.8536],[-55.9566,-25.8583],[-55.9754,-25.8733],[-55.9882,-25.8804],[-56.0209,-25.8888],[-56.0335,-25.894],[-56.0424,-25.9044],[-56.0474,-25.9138],[-56.0684,-25.9911],[-56.0714,-25.9994],[-56.0724,-26.0012],[-56.0741,-26.0034],[-56.0989,-26.0185],[-56.1552,-26.044],[-56.1738,-26.0422],[-56.2135,-26.0188],[-56.2409,-25.9985],[-56.2456,-25.9957],[-56.2538,-25.9919],[-56.2657,-25.9921],[-56.2803,-25.9956],[-56.3295,-26.0152],[-56.3388,-26.0157],[-56.3459,-26.014],[-56.3524,-26.0104],[-56.3589,-26.0102],[-56.3671,-26.014],[-56.3752,-26.0265],[-56.3787,-26.038],[-56.3804,-26.0499],[-56.3843,-26.061],[-56.3925,-26.0687],[-56.4089,-26.0741],[-56.4578,-26.076],[-56.472,-26.0801],[-56.4826,-26.0878],[-56.4933,-26.1043],[-56.4998,-26.1214],[-56.5066,-26.1655],[-56.5149,-26.1738],[-56.5291,-26.1788],[-56.5543,-26.176],[-56.5865,-26.1759],[-56.6532,-26.0647],[-56.6591,-26.0517],[-56.6633,-26.0372],[-56.6688,-25.9991],[-56.6695,-25.997],[-56.67,-25.9915],[-56.6688,-25.9853],[-56.6631,-25.9785],[-56.6565,-25.9751],[-56.6137,-25.9655],[-56.6039,-25.9608],[-56.599,-25.9505],[-56.599,-25.9356],[-56.6086,-25.9078],[-56.6171,-25.8928],[-56.6409,-25.865],[-56.6483,-25.8535],[-56.6552,-25.8383],[-56.6654,-25.8071],[-56.6713,-25.7766],[-56.6725,-25.7591],[-56.6706,-25.7426],[-56.6635,-25.7246],[-56.6468,-25.7104],[-56.6251,-25.6985],[-56.57,-25.6745],[-56.56,-25.6688],[-56.5125,-25.6281],[-56.4991,-25.6203],[-56.482,-25.6146],[-56.4506,-25.6097],[-56.4376,-25.6062],[-56.4262,-25.6017],[-56.396,-25.5843],[-56.3788,-25.5795],[-56.3591,-25.5778]]]}},{"type":"Feature","properties":{"id":"PRY-620","name":"Itapúa","nameBn":"ইটাপুয়া","type":"Department","bounds":[-56.6903,-27.5868,-54.6637,-26.0776],"center":[-55.6773,-26.8545]},"geometry":{"type":"Polygon","coordinates":[[[-54.665,-26.2389],[-54.6661,-26.2437],[-54.6637,-26.2633],[-54.6637,-26.3084],[-54.6791,-26.3399],[-54.6804,-26.3453],[-54.6834,-26.3508],[-54.6931,-26.4119],[-54.6977,-26.4282],[-54.7065,-26.4418],[-54.7372,-26.4732],[-54.7653,-26.4941],[-54.7803,-26.5104],[-54.7898,-26.5285],[-54.7888,-26.5426],[-54.7835,-26.5567],[-54.7803,-26.5752],[-54.7813,-26.5982],[-54.7849,-26.6228],[-54.7931,-26.645],[-54.807,-26.6612],[-54.8173,-26.6658],[-54.8228,-26.6633],[-54.8274,-26.6581],[-54.835,-26.6544],[-54.8794,-26.6544],[-54.9033,-26.6599],[-54.9199,-26.6741],[-54.9307,-26.694],[-54.9439,-26.74],[-54.9511,-26.7575],[-54.961,-26.7723],[-54.9753,-26.7878],[-54.9918,-26.7946],[-55.0407,-26.7985],[-55.0609,-26.8052],[-55.1258,-26.8636],[-55.1327,-26.8806],[-55.1189,-26.92],[-55.1223,-26.9417],[-55.1384,-26.9537],[-55.1616,-26.9573],[-55.2012,-26.9555],[-55.2167,-26.9512],[-55.2352,-26.9422],[-55.2565,-26.9346],[-55.2806,-26.9343],[-55.3294,-26.9585],[-55.3762,-26.9638],[-55.3963,-26.9693],[-55.414,-26.9799],[-55.4308,-26.9964],[-55.4428,-27.0155],[-55.4488,-27.0359],[-55.4513,-27.0821],[-55.4619,-27.098],[-55.4864,-27.1],[-55.514,-27.0975],[-55.5338,-27.0994],[-55.5454,-27.1152],[-55.5495,-27.1358],[-55.5553,-27.1538],[-55.5717,-27.1615],[-55.5983,-27.1675],[-55.599,-27.1826],[-55.5749,-27.2236],[-55.5706,-27.2353],[-55.5687,-27.246],[-55.5707,-27.2564],[-55.5841,-27.2768],[-55.5832,-27.2835],[-55.5808,-27.2917],[-55.5816,-27.3055],[-55.5913,-27.3284],[-55.6075,-27.3455],[-55.6287,-27.3564],[-55.6536,-27.3601],[-55.6817,-27.3794],[-55.7175,-27.4173],[-55.7547,-27.4437],[-55.8152,-27.4141],[-55.8421,-27.4074],[-55.8542,-27.4012],[-55.8628,-27.3911],[-55.8779,-27.3536],[-55.8928,-27.3349],[-55.9131,-27.3278],[-55.9364,-27.3283],[-55.9607,-27.3316],[-55.9661,-27.3317],[-55.9848,-27.3323],[-56.0069,-27.3283],[-56.0738,-27.3049],[-56.0742,-27.3048],[-56.0989,-27.3006],[-56.1246,-27.2989],[-56.15,-27.3118],[-56.1689,-27.3247],[-56.2054,-27.3622],[-56.228,-27.3712],[-56.2568,-27.3783],[-56.2798,-27.3896],[-56.2853,-27.4113],[-56.2815,-27.4386],[-56.2853,-27.461],[-56.297,-27.4809],[-56.3165,-27.5004],[-56.336,-27.5257],[-56.3497,-27.5564],[-56.3675,-27.5806],[-56.3997,-27.5868],[-56.4003,-27.5866],[-56.4314,-27.5754],[-56.4615,-27.5539],[-56.4873,-27.5272],[-56.5062,-27.5001],[-56.5464,-27.4551],[-56.5469,-27.455],[-56.613,-27.4464],[-56.638,-27.4529],[-56.638,-27.4526],[-56.6432,-27.3826],[-56.6423,-27.3768],[-56.6382,-27.3689],[-56.6352,-27.3646],[-56.6319,-27.3585],[-56.6316,-27.3532],[-56.6354,-27.3454],[-56.6402,-27.3397],[-56.6753,-27.31],[-56.6823,-27.3026],[-56.6885,-27.294],[-56.6903,-27.2775],[-56.6873,-27.2561],[-56.6739,-27.2151],[-56.6648,-27.1995],[-56.655,-27.1892],[-56.6452,-27.1843],[-56.6366,-27.1774],[-56.6107,-27.1512],[-56.6014,-27.146],[-56.5941,-27.1435],[-56.5433,-27.1378],[-56.5341,-27.121],[-56.532,-27.0864],[-56.5723,-26.7224],[-56.4969,-26.7373],[-56.4904,-26.7406],[-56.4592,-26.7639],[-56.4444,-26.7726],[-56.4287,-26.776],[-56.4117,-26.7756],[-56.2957,-26.735],[-56.2099,-26.6934],[-56.149,-26.6755],[-56.1184,-26.6713],[-56.1024,-26.6651],[-56.0949,-26.6578],[-56.0856,-26.6267],[-56.0793,-26.6174],[-56.0709,-26.6088],[-56.0565,-26.598],[-56.0449,-26.5859],[-56.0352,-26.5726],[-56.026,-26.5481],[-56.0211,-26.5384],[-55.999,-26.5082],[-55.9841,-26.498],[-55.9339,-26.4834],[-55.8646,-26.472],[-55.8471,-26.4646],[-55.8311,-26.455],[-55.7845,-26.4104],[-55.7657,-26.3962],[-55.7589,-26.3885],[-55.7504,-26.3685],[-55.7399,-26.3569],[-55.6811,-26.3342],[-55.6388,-26.323],[-55.6179,-26.3209],[-55.6002,-26.3211],[-55.5861,-26.3241],[-55.5725,-26.3232],[-55.5517,-26.3197],[-55.4838,-26.2966],[-55.4657,-26.2874],[-55.3816,-26.2276],[-55.3401,-26.1912],[-55.332,-26.1826],[-55.326,-26.1737],[-55.3232,-26.1652],[-55.3242,-26.1173],[-55.3226,-26.1092],[-55.3203,-26.1023],[-55.3193,-26.0963],[-55.3194,-26.0897],[-55.3178,-26.0818],[-55.3156,-26.0787],[-55.3121,-26.0776],[-55.3082,-26.079],[-55.3044,-26.0809],[-55.2915,-26.0833],[-55.2575,-26.1803],[-55.2368,-26.1982],[-55.1625,-26.1948],[-55.1428,-26.1958],[-55.1346,-26.1972],[-55.1248,-26.1996],[-55.0995,-26.2094],[-55.0673,-26.2168],[-55.0568,-26.2224],[-55.0414,-26.2329],[-55.0334,-26.2363],[-55.0273,-26.237],[-55.0234,-26.2345],[-55.021,-26.2326],[-55.0191,-26.2303],[-55.0161,-26.2232],[-55.0122,-26.2186],[-55.0057,-26.2122],[-54.9726,-26.2094],[-54.959,-26.2065],[-54.9529,-26.2041],[-54.9461,-26.2003],[-54.9393,-26.1943],[-54.9351,-26.1895],[-54.92,-26.1647],[-54.9127,-26.155],[-54.9071,-26.1489],[-54.9024,-26.1457],[-54.8961,-26.1433],[-54.8916,-26.1435],[-54.8885,-26.1448],[-54.8867,-26.1476],[-54.8861,-26.1521],[-54.8867,-26.1573],[-54.891,-26.1716],[-54.8916,-26.1785],[-54.8892,-26.1836],[-54.8799,-26.1904],[-54.8722,-26.1927],[-54.8646,-26.1925],[-54.859,-26.1904],[-54.8532,-26.187],[-54.8398,-26.1766],[-54.8313,-26.1725],[-54.8233,-26.1703],[-54.8078,-26.1701],[-54.7888,-26.1735],[-54.7742,-26.1785],[-54.755,-26.1873],[-54.7499,-26.1906],[-54.746,-26.1941],[-54.7436,-26.1972],[-54.7425,-26.2013],[-54.7425,-26.2063],[-54.7437,-26.2133],[-54.7435,-26.2196],[-54.7416,-26.2261],[-54.7355,-26.2323],[-54.7245,-26.2347],[-54.6674,-26.2389],[-54.6656,-26.2389],[-54.665,-26.2389]]]}},{"type":"Feature","properties":{"id":"PRY-609","name":"Misiones","nameBn":"মিশনেস","type":"Department","bounds":[-57.7055,-27.5067,-56.532,-26.4028],"center":[-57.1187,-26.9861]},"geometry":{"type":"Polygon","coordinates":[[[-57.109,-27.4906],[-57.1482,-27.489],[-57.1567,-27.4877],[-57.1801,-27.4873],[-57.1805,-27.4872],[-57.1912,-27.4842],[-57.2004,-27.4789],[-57.2271,-27.4587],[-57.2371,-27.4542],[-57.2376,-27.4541],[-57.283,-27.443],[-57.2925,-27.4407],[-57.303,-27.4355],[-57.3101,-27.4292],[-57.3096,-27.428],[-57.2914,-27.3615],[-57.2021,-27.1338],[-57.1959,-27.0957],[-57.2036,-27.08],[-57.2322,-27.0727],[-57.4143,-27.0479],[-57.4217,-27.0443],[-57.5368,-26.9237],[-57.6197,-26.818],[-57.6286,-26.7984],[-57.6348,-26.7808],[-57.7055,-26.4125],[-57.6715,-26.4282],[-57.6548,-26.4492],[-57.648,-26.4536],[-57.6365,-26.4594],[-57.6306,-26.4663],[-57.6253,-26.4757],[-57.6182,-26.4935],[-57.6147,-26.5005],[-57.6081,-26.5075],[-57.5828,-26.5208],[-57.5759,-26.5274],[-57.5697,-26.5361],[-57.5622,-26.5442],[-57.5488,-26.5506],[-57.4761,-26.565],[-57.4627,-26.5713],[-57.4559,-26.5797],[-57.4458,-26.5888],[-57.4317,-26.5955],[-57.405,-26.6019],[-57.3888,-26.6122],[-57.3671,-26.621],[-57.3406,-26.6232],[-57.2524,-26.6057],[-57.2008,-26.5894],[-57.1878,-26.5816],[-57.1811,-26.5719],[-57.1796,-26.5603],[-57.1795,-26.545],[-57.178,-26.5318],[-57.1724,-26.5226],[-57.1639,-26.5166],[-57.1491,-26.5115],[-57.142,-26.5062],[-57.1382,-26.5021],[-57.1366,-26.4974],[-57.1333,-26.4925],[-57.128,-26.4861],[-57.1173,-26.4815],[-57.1123,-26.476],[-57.1085,-26.4688],[-57.1057,-26.4595],[-57.1001,-26.4474],[-57.0907,-26.4344],[-57.0791,-26.4234],[-57.0635,-26.4123],[-57.0574,-26.4093],[-57.0498,-26.4064],[-57.0393,-26.404],[-57.0291,-26.4028],[-57.0197,-26.403],[-57.0109,-26.4045],[-57.0036,-26.4069],[-56.9442,-26.4349],[-56.923,-26.448],[-56.8898,-26.4728],[-56.8711,-26.4832],[-56.8524,-26.4853],[-56.8407,-26.4823],[-56.8281,-26.486],[-56.8193,-26.4898],[-56.7834,-26.5408],[-56.7545,-26.5571],[-56.7486,-26.5636],[-56.7398,-26.5759],[-56.7318,-26.5901],[-56.7134,-26.617],[-56.6969,-26.6308],[-56.6545,-26.6565],[-56.6397,-26.6626],[-56.6251,-26.6653],[-56.5936,-26.6658],[-56.5766,-26.6704],[-56.5679,-26.6786],[-56.566,-26.6873],[-56.5681,-26.6959],[-56.5727,-26.7066],[-56.574,-26.7115],[-56.5742,-26.7139],[-56.5723,-26.7224],[-56.532,-27.0864],[-56.5341,-27.121],[-56.5433,-27.1378],[-56.5941,-27.1435],[-56.6014,-27.146],[-56.6107,-27.1512],[-56.6366,-27.1774],[-56.6452,-27.1843],[-56.655,-27.1892],[-56.6648,-27.1995],[-56.6739,-27.2151],[-56.6873,-27.2561],[-56.6903,-27.2775],[-56.6885,-27.294],[-56.6823,-27.3026],[-56.6753,-27.31],[-56.6402,-27.3397],[-56.6354,-27.3454],[-56.6316,-27.3532],[-56.6319,-27.3585],[-56.6352,-27.3646],[-56.6382,-27.3689],[-56.6423,-27.3768],[-56.6432,-27.3826],[-56.638,-27.4526],[-56.638,-27.4529],[-56.6831,-27.4647],[-56.7342,-27.5004],[-56.7712,-27.5067],[-56.7715,-27.5065],[-56.8075,-27.4868],[-56.8693,-27.4315],[-56.9044,-27.4187],[-56.9044,-27.4187],[-56.941,-27.4221],[-56.9773,-27.4353],[-57.0762,-27.484],[-57.109,-27.4906]]]}},{"type":"Feature","properties":{"id":"PRY-611","name":"Paraguarí","nameBn":"পারাগুয়ারি","type":"Department","bounds":[-57.7055,-26.6232,-56.5865,-25.4253],"center":[-57.146,-25.9805]},"geometry":{"type":"Polygon","coordinates":[[[-56.7463,-25.6535],[-56.7149,-25.6743],[-56.6933,-25.6993],[-56.6848,-25.7039],[-56.679,-25.7065],[-56.6468,-25.7104],[-56.6635,-25.7246],[-56.6706,-25.7426],[-56.6725,-25.7591],[-56.6713,-25.7766],[-56.6654,-25.8071],[-56.6552,-25.8383],[-56.6483,-25.8535],[-56.6409,-25.865],[-56.6171,-25.8928],[-56.6086,-25.9078],[-56.599,-25.9356],[-56.599,-25.9505],[-56.6039,-25.9608],[-56.6137,-25.9655],[-56.6565,-25.9751],[-56.6631,-25.9785],[-56.6688,-25.9853],[-56.67,-25.9915],[-56.6695,-25.997],[-56.6688,-25.9991],[-56.6633,-26.0372],[-56.6591,-26.0517],[-56.6532,-26.0647],[-56.5865,-26.1759],[-56.594,-26.2079],[-56.5989,-26.2168],[-56.6334,-26.2526],[-56.6408,-26.2643],[-56.6511,-26.3019],[-56.6546,-26.3378],[-56.6571,-26.3468],[-56.6619,-26.3545],[-56.6826,-26.3678],[-56.6863,-26.373],[-56.6882,-26.3792],[-56.6875,-26.3888],[-56.6852,-26.3977],[-56.6862,-26.4074],[-56.6908,-26.418],[-56.7041,-26.4303],[-56.7102,-26.4383],[-56.7141,-26.4499],[-56.7152,-26.4612],[-56.7196,-26.4737],[-56.7282,-26.4855],[-56.7475,-26.5005],[-56.7595,-26.5076],[-56.7734,-26.5183],[-56.7834,-26.5408],[-56.8193,-26.4898],[-56.8281,-26.486],[-56.8407,-26.4823],[-56.8524,-26.4853],[-56.8711,-26.4832],[-56.8898,-26.4728],[-56.923,-26.448],[-56.9442,-26.4349],[-57.0036,-26.4069],[-57.0109,-26.4045],[-57.0197,-26.403],[-57.0291,-26.4028],[-57.0393,-26.404],[-57.0498,-26.4064],[-57.0574,-26.4093],[-57.0635,-26.4123],[-57.0791,-26.4234],[-57.0907,-26.4344],[-57.1001,-26.4474],[-57.1057,-26.4595],[-57.1085,-26.4688],[-57.1123,-26.476],[-57.1173,-26.4815],[-57.128,-26.4861],[-57.1333,-26.4925],[-57.1366,-26.4974],[-57.1382,-26.5021],[-57.142,-26.5062],[-57.1491,-26.5115],[-57.1639,-26.5166],[-57.1724,-26.5226],[-57.178,-26.5318],[-57.1795,-26.545],[-57.1796,-26.5603],[-57.1811,-26.5719],[-57.1878,-26.5816],[-57.2008,-26.5894],[-57.2524,-26.6057],[-57.3406,-26.6232],[-57.3671,-26.621],[-57.3888,-26.6122],[-57.405,-26.6019],[-57.4317,-26.5955],[-57.4458,-26.5888],[-57.4559,-26.5797],[-57.4627,-26.5713],[-57.4761,-26.565],[-57.5488,-26.5506],[-57.5622,-26.5442],[-57.5697,-26.5361],[-57.5759,-26.5274],[-57.5828,-26.5208],[-57.6081,-26.5075],[-57.6147,-26.5005],[-57.6182,-26.4935],[-57.6253,-26.4757],[-57.6306,-26.4663],[-57.6365,-26.4594],[-57.648,-26.4536],[-57.6548,-26.4492],[-57.6715,-26.4282],[-57.7055,-26.4125],[-57.6859,-26.3922],[-57.6645,-26.3773],[-57.6528,-26.3617],[-57.6142,-26.2941],[-57.4812,-26.1743],[-57.477,-26.1672],[-57.4757,-26.1569],[-57.5036,-26.0111],[-57.4567,-25.9706],[-57.4338,-25.944],[-57.407,-25.8978],[-57.4031,-25.8761],[-57.405,-25.8584],[-57.4283,-25.79],[-57.4298,-25.7676],[-57.426,-25.7381],[-57.4135,-25.7036],[-57.4026,-25.6835],[-57.3907,-25.6683],[-57.3551,-25.6369],[-57.3226,-25.6026],[-57.2383,-25.4797],[-57.2316,-25.4721],[-57.2026,-25.4484],[-57.1618,-25.4253],[-57.1126,-25.5085],[-57.1035,-25.5163],[-57.0882,-25.5261],[-57.0614,-25.5273],[-57.0495,-25.5293],[-57.0264,-25.5364],[-57.0086,-25.5398],[-57.0002,-25.5405],[-56.9258,-25.5364],[-56.9155,-25.5367],[-56.9026,-25.5394],[-56.8967,-25.5465],[-56.8931,-25.555],[-56.8878,-25.5803],[-56.885,-25.5878],[-56.8789,-25.5998],[-56.8775,-25.6037],[-56.8773,-25.6081],[-56.8785,-25.6128],[-56.8814,-25.6178],[-56.8935,-25.6301],[-56.9061,-25.6401],[-56.9096,-25.6439],[-56.9103,-25.6477],[-56.9075,-25.6544],[-56.9003,-25.6583],[-56.8921,-25.6607],[-56.8615,-25.6627],[-56.8545,-25.6621],[-56.8471,-25.6602],[-56.84,-25.6569],[-56.8336,-25.6531],[-56.8265,-25.6477],[-56.8171,-25.642],[-56.806,-25.637],[-56.7955,-25.6375],[-56.7881,-25.6386],[-56.7463,-25.6535]]]}},{"type":"Feature","properties":{"id":"PRY-605","name":"Presidente Hayes","nameBn":"প্রেসিডেন্টে হায়েস","type":"Department","bounds":[-60.7927,-25.2898,-57.0907,-22.083],"center":[-58.9417,-23.4234]},"geometry":{"type":"Polygon","coordinates":[[[-60.6897,-23.8936],[-60.6994,-23.8913],[-60.7199,-23.875],[-60.7293,-23.8721],[-60.7878,-23.8734],[-60.7878,-23.8733],[-60.7927,-23.745],[-60.7919,-23.7383],[-60.7889,-23.7319],[-60.7758,-23.7107],[-60.772,-23.6993],[-60.7651,-23.6638],[-60.7594,-23.6549],[-60.7505,-23.6464],[-60.7338,-23.6385],[-60.7201,-23.6344],[-60.6482,-23.6236],[-60.6125,-23.6096],[-60.5812,-23.5938],[-60.5676,-23.5885],[-60.554,-23.586],[-60.2302,-23.5694],[-60.1952,-23.5631],[-60.1715,-23.5546],[-60.072,-23.5054],[-60.0642,-23.5005],[-60.0636,-23.4999],[-60.0544,-23.4109],[-60.0451,-23.3717],[-60.0327,-23.3358],[-59.9875,-23.2513],[-59.9766,-23.2222],[-59.9734,-23.2052],[-59.9763,-23.1941],[-59.9846,-23.1762],[-59.9867,-23.1691],[-59.987,-23.1626],[-59.9597,-23.0944],[-59.9544,-23.0738],[-59.9523,-23.0572],[-59.9596,-23.0098],[-59.9572,-22.9641],[-59.961,-22.9136],[-59.959,-22.9022],[-59.9497,-22.8705],[-59.9474,-22.8573],[-59.9474,-22.8317],[-59.9439,-22.8155],[-59.9344,-22.7958],[-59.741,-22.529],[-59.7348,-22.5164],[-59.7328,-22.5011],[-59.733,-22.4969],[-59.7391,-22.4506],[-59.7373,-22.4393],[-59.7311,-22.4309],[-59.7163,-22.4239],[-59.7,-22.4215],[-59.6426,-22.4213],[-59.6274,-22.4182],[-59.6165,-22.412],[-59.6093,-22.3989],[-59.6081,-22.3913],[-59.6096,-22.3849],[-59.6226,-22.3611],[-59.6248,-22.3532],[-59.6251,-22.3457],[-59.6236,-22.3354],[-59.6216,-22.3297],[-59.6163,-22.3185],[-59.6079,-22.3075],[-59.5945,-22.2956],[-59.4918,-22.2381],[-59.4776,-22.2333],[-59.4641,-22.2302],[-59.4537,-22.2351],[-59.4459,-22.2403],[-59.4365,-22.2487],[-59.4288,-22.254],[-59.4206,-22.2585],[-59.414,-22.2604],[-59.4086,-22.2599],[-59.3847,-22.2494],[-59.3226,-22.2138],[-59.3076,-22.2014],[-59.3042,-22.1956],[-59.3071,-22.1821],[-59.3423,-22.083],[-59.2302,-22.1409],[-59.1924,-22.1553],[-59.1688,-22.161],[-59.1526,-22.1622],[-58.9984,-22.1568],[-58.7851,-22.1735],[-58.733,-22.1681],[-58.2632,-22.198],[-58.2377,-22.2046],[-58.2235,-22.2145],[-58.2164,-22.2621],[-58.2083,-22.2722],[-58.1941,-22.2809],[-57.849,-22.423],[-57.8434,-22.446],[-57.8306,-22.5592],[-57.8161,-22.59],[-57.7907,-22.6174],[-57.7797,-22.634],[-57.7751,-22.6555],[-57.7847,-22.6653],[-57.8069,-22.6657],[-57.8502,-22.6589],[-57.8958,-22.6649],[-57.9292,-22.6865],[-57.9402,-22.7163],[-57.9185,-22.747],[-57.9089,-22.7512],[-57.886,-22.757],[-57.8775,-22.7619],[-57.872,-22.7718],[-57.867,-22.7953],[-57.8608,-22.8063],[-57.8518,-22.8104],[-57.8289,-22.8093],[-57.8195,-22.8131],[-57.8119,-22.8213],[-57.8089,-22.8264],[-57.8024,-22.8439],[-57.7924,-22.8568],[-57.7884,-22.866],[-57.7894,-22.878],[-57.7981,-22.888],[-57.8113,-22.8969],[-57.821,-22.9059],[-57.8195,-22.9159],[-57.786,-22.9447],[-57.7729,-22.9607],[-57.7677,-22.9816],[-57.7894,-23.0214],[-57.7744,-23.0348],[-57.7299,-23.0548],[-57.7205,-23.0664],[-57.7141,-23.0852],[-57.6982,-23.0907],[-57.6585,-23.0909],[-57.6399,-23.0988],[-57.6321,-23.1111],[-57.6306,-23.128],[-57.6311,-23.1489],[-57.6246,-23.1653],[-57.6086,-23.18],[-57.5885,-23.1921],[-57.5509,-23.2088],[-57.5444,-23.2132],[-57.5356,-23.2206],[-57.5112,-23.2502],[-57.5006,-23.2579],[-57.484,-23.273],[-57.4803,-23.279],[-57.4802,-23.3005],[-57.4821,-23.3064],[-57.4871,-23.3168],[-57.4955,-23.3303],[-57.5014,-23.3367],[-57.5037,-23.3435],[-57.5008,-23.3578],[-57.4948,-23.3677],[-57.4772,-23.3827],[-57.4704,-23.3939],[-57.4567,-23.4039],[-57.4536,-23.4093],[-57.4527,-23.4173],[-57.4462,-23.4472],[-57.4425,-23.4574],[-57.4422,-23.4647],[-57.4462,-23.4745],[-57.4482,-23.486],[-57.457,-23.5047],[-57.4598,-23.5155],[-57.4596,-23.5277],[-57.4549,-23.5489],[-57.4536,-23.5599],[-57.4504,-23.5738],[-57.4257,-23.6179],[-57.398,-23.6456],[-57.3259,-23.6828],[-57.2953,-23.7072],[-57.2803,-23.7234],[-57.2758,-23.7315],[-57.2755,-23.742],[-57.2812,-23.7513],[-57.299,-23.7577],[-57.3028,-23.7653],[-57.2994,-23.775],[-57.2919,-23.7821],[-57.2844,-23.7877],[-57.2811,-23.7932],[-57.2816,-23.801],[-57.2885,-23.8307],[-57.2913,-23.8619],[-57.2953,-23.8717],[-57.3182,-23.8859],[-57.3221,-23.8891],[-57.3254,-23.8941],[-57.3329,-23.9015],[-57.3404,-23.9113],[-57.3438,-23.9232],[-57.3386,-23.9305],[-57.3264,-23.9322],[-57.3127,-23.9322],[-57.3028,-23.9338],[-57.2845,-23.954],[-57.2799,-23.9788],[-57.278,-24.0051],[-57.268,-24.03],[-57.2484,-24.0236],[-57.2318,-24.0334],[-57.2239,-24.0507],[-57.2305,-24.067],[-57.2367,-24.0758],[-57.2379,-24.0862],[-57.2336,-24.0947],[-57.2237,-24.0983],[-57.1879,-24.0962],[-57.1786,-24.0983],[-57.163,-24.1174],[-57.1722,-24.1371],[-57.1897,-24.1568],[-57.1978,-24.1736],[-57.2159,-24.1926],[-57.2197,-24.1979],[-57.2207,-24.202],[-57.2211,-24.208],[-57.2198,-24.2208],[-57.2169,-24.2293],[-57.2125,-24.2367],[-57.1934,-24.2559],[-57.1856,-24.2664],[-57.1749,-24.285],[-57.1709,-24.298],[-57.1652,-24.3599],[-57.1574,-24.3895],[-57.1466,-24.4607],[-57.142,-24.4749],[-57.1305,-24.5001],[-57.1322,-24.5099],[-57.1412,-24.5419],[-57.1457,-24.5829],[-57.1449,-24.603],[-57.1411,-24.6163],[-57.134,-24.6288],[-57.1266,-24.6414],[-57.1132,-24.649],[-57.0975,-24.6615],[-57.0907,-24.6775],[-57.1121,-24.7175],[-57.1167,-24.7364],[-57.1223,-24.752],[-57.1377,-24.7624],[-57.1494,-24.763],[-57.1581,-24.7596],[-57.1668,-24.7577],[-57.1786,-24.7624],[-57.1819,-24.7695],[-57.1971,-24.8268],[-57.2487,-24.8915],[-57.2484,-24.8972],[-57.2401,-24.9064],[-57.2312,-24.9074],[-57.2225,-24.9019],[-57.216,-24.9014],[-57.2134,-24.917],[-57.2156,-24.9282],[-57.219,-24.9374],[-57.2187,-24.9466],[-57.21,-24.958],[-57.1985,-24.9697],[-57.1948,-24.9781],[-57.1995,-24.9842],[-57.2134,-24.989],[-57.2347,-24.9864],[-57.2619,-24.98],[-57.2854,-24.9825],[-57.2953,-25.006],[-57.3438,-25.0647],[-57.3541,-25.072],[-57.3661,-25.0785],[-57.378,-25.0833],[-57.3878,-25.0852],[-57.3962,-25.0894],[-57.4149,-25.1082],[-57.4223,-25.1125],[-57.455,-25.1125],[-57.4837,-25.1125],[-57.5118,-25.107],[-57.5238,-25.1092],[-57.5287,-25.1227],[-57.5323,-25.1481],[-57.5415,-25.1756],[-57.5546,-25.2016],[-57.5697,-25.2223],[-57.5835,-25.2344],[-57.5959,-25.2402],[-57.6243,-25.2484],[-57.6392,-25.2562],[-57.6505,-25.2655],[-57.672,-25.2898],[-57.7023,-25.2709],[-57.7218,-25.2461],[-57.7541,-25.1809],[-57.766,-25.1679],[-57.7973,-25.1539],[-57.8124,-25.1437],[-57.8565,-25.0968],[-57.8707,-25.0853],[-57.8905,-25.0787],[-57.9698,-25.0785],[-57.9838,-25.0742],[-57.9899,-25.0641],[-57.9936,-25.0527],[-58.0005,-25.0444],[-58.0098,-25.0425],[-58.0321,-25.0451],[-58.0421,-25.0444],[-58.1115,-25.0123],[-58.124,-25.0129],[-58.1339,-24.9979],[-58.2241,-24.9412],[-58.2425,-24.9417],[-58.2592,-24.953],[-58.2873,-24.9798],[-58.2993,-24.9877],[-58.312,-24.9936],[-58.3233,-24.9953],[-58.336,-24.9919],[-58.3413,-24.9862],[-58.3444,-24.9783],[-58.3506,-24.9686],[-58.4148,-24.9031],[-58.4385,-24.8728],[-58.4508,-24.8617],[-58.4734,-24.8513],[-58.6942,-24.812],[-58.6994,-24.8073],[-58.7019,-24.7993],[-58.7081,-24.7951],[-58.716,-24.7919],[-58.7233,-24.7867],[-58.7375,-24.7828],[-58.7885,-24.7816],[-58.8092,-24.7768],[-59.0009,-24.6442],[-59.0327,-24.637],[-59.0424,-24.6305],[-59.0625,-24.6123],[-59.0722,-24.6068],[-59.0783,-24.6056],[-59.0972,-24.6054],[-59.117,-24.5988],[-59.1544,-24.5763],[-59.1779,-24.5687],[-59.2065,-24.5502],[-59.2481,-24.5372],[-59.2576,-24.5302],[-59.2631,-24.5235],[-59.2705,-24.5182],[-59.2856,-24.5161],[-59.2951,-24.5129],[-59.3081,-24.4988],[-59.341,-24.4876],[-59.3574,-24.469],[-59.3778,-24.4335],[-59.3871,-24.4238],[-59.426,-24.3925],[-59.4503,-24.3824],[-59.4538,-24.3745],[-59.4563,-24.3654],[-59.4597,-24.3585],[-59.4659,-24.3536],[-59.4877,-24.3448],[-59.5104,-24.3327],[-59.5211,-24.325],[-59.532,-24.3141],[-59.54,-24.3088],[-59.5584,-24.3054],[-59.5754,-24.2959],[-59.6005,-24.2929],[-59.6105,-24.2896],[-59.6177,-24.2835],[-59.6353,-24.2615],[-59.6736,-24.2254],[-60.0337,-24.007],[-60.0517,-24.0029],[-60.0724,-24.0048],[-60.1193,-24.0202],[-60.1432,-24.0252],[-60.2181,-24.0274],[-60.2964,-24.0164],[-60.328,-24.018],[-60.3374,-24.0164],[-60.348,-24.0108],[-60.3676,-23.9947],[-60.3784,-23.9885],[-60.3874,-23.9872],[-60.4231,-23.9885],[-60.4849,-23.9773],[-60.5177,-23.9557],[-60.536,-23.9476],[-60.5718,-23.946],[-60.5775,-23.9442],[-60.5936,-23.9122],[-60.5946,-23.9065],[-60.6038,-23.9047],[-60.6212,-23.8958],[-60.6322,-23.8923],[-60.6437,-23.8914],[-60.6897,-23.8936]]]}},{"type":"Feature","properties":{"id":"PRY-606","name":"San Pedro","nameBn":"সান পেদ্রো","type":"Department","bounds":[-57.4598,-25.0389,-55.7508,-23.3074],"center":[-56.6053,-24.2001]},"geometry":{"type":"Polygon","coordinates":[[[-55.7508,-24.7827],[-55.8689,-24.8115],[-55.9494,-24.8419],[-55.9699,-24.8571],[-55.9846,-24.8735],[-56.0284,-24.9528],[-56.0371,-24.9644],[-56.0457,-24.9715],[-56.0544,-24.9679],[-56.1009,-24.9282],[-56.135,-24.893],[-56.1416,-24.8881],[-56.1479,-24.8848],[-56.1938,-24.8689],[-56.2038,-24.8626],[-56.2108,-24.8557],[-56.2136,-24.8484],[-56.2143,-24.8402],[-56.2134,-24.833],[-56.2094,-24.8176],[-56.2102,-24.8069],[-56.2145,-24.7947],[-56.2273,-24.7843],[-56.2363,-24.7833],[-56.2471,-24.7887],[-56.2567,-24.7978],[-56.2649,-24.8081],[-56.2717,-24.8204],[-56.2766,-24.8325],[-56.2857,-24.8462],[-56.2988,-24.8585],[-56.3421,-24.8817],[-56.3527,-24.8903],[-56.3588,-24.9003],[-56.3633,-24.9106],[-56.3707,-24.9221],[-56.3807,-24.9315],[-56.4112,-24.9468],[-56.4217,-24.9534],[-56.4945,-25.0217],[-56.5319,-25.0066],[-56.5366,-25.0029],[-56.5416,-25.0],[-56.5786,-24.9618],[-56.5957,-24.9513],[-56.6893,-24.917],[-56.7047,-24.9153],[-56.7722,-24.9224],[-56.827,-24.9368],[-56.9848,-24.9637],[-56.9984,-24.9678],[-57.0062,-24.9714],[-57.0154,-24.9769],[-57.0186,-24.9803],[-57.0204,-24.9837],[-57.0216,-24.9895],[-57.022,-24.9949],[-57.0216,-24.9984],[-57.0199,-25.0049],[-57.0198,-25.0088],[-57.0203,-25.0131],[-57.0222,-25.0181],[-57.0277,-25.0241],[-57.0386,-25.0311],[-57.0587,-25.0376],[-57.0769,-25.0389],[-57.0956,-25.0371],[-57.1298,-25.0279],[-57.195,-25.0006],[-57.2134,-24.989],[-57.1995,-24.9842],[-57.1948,-24.9781],[-57.1985,-24.9697],[-57.21,-24.958],[-57.2187,-24.9466],[-57.219,-24.9374],[-57.2156,-24.9282],[-57.2134,-24.917],[-57.216,-24.9014],[-57.2225,-24.9019],[-57.2312,-24.9074],[-57.2401,-24.9064],[-57.2484,-24.8972],[-57.2487,-24.8915],[-57.1971,-24.8268],[-57.1819,-24.7695],[-57.1786,-24.7624],[-57.1668,-24.7577],[-57.1581,-24.7596],[-57.1494,-24.763],[-57.1377,-24.7624],[-57.1223,-24.752],[-57.1167,-24.7364],[-57.1121,-24.7175],[-57.0907,-24.6775],[-57.0975,-24.6615],[-57.1132,-24.649],[-57.1266,-24.6414],[-57.134,-24.6288],[-57.1411,-24.6163],[-57.1449,-24.603],[-57.1457,-24.5829],[-57.1412,-24.5419],[-57.1322,-24.5099],[-57.1305,-24.5001],[-57.142,-24.4749],[-57.1466,-24.4607],[-57.1574,-24.3895],[-57.1652,-24.3599],[-57.1709,-24.298],[-57.1749,-24.285],[-57.1856,-24.2664],[-57.1934,-24.2559],[-57.2125,-24.2367],[-57.2169,-24.2293],[-57.2198,-24.2208],[-57.2211,-24.208],[-57.2207,-24.202],[-57.2197,-24.1979],[-57.2159,-24.1926],[-57.1978,-24.1736],[-57.1897,-24.1568],[-57.1722,-24.1371],[-57.163,-24.1174],[-57.1786,-24.0983],[-57.1879,-24.0962],[-57.2237,-24.0983],[-57.2336,-24.0947],[-57.2379,-24.0862],[-57.2367,-24.0758],[-57.2305,-24.067],[-57.2239,-24.0507],[-57.2318,-24.0334],[-57.2484,-24.0236],[-57.268,-24.03],[-57.278,-24.0051],[-57.2799,-23.9788],[-57.2845,-23.954],[-57.3028,-23.9338],[-57.3127,-23.9322],[-57.3264,-23.9322],[-57.3386,-23.9305],[-57.3438,-23.9232],[-57.3404,-23.9113],[-57.3329,-23.9015],[-57.3254,-23.8941],[-57.3221,-23.8891],[-57.3182,-23.8859],[-57.2953,-23.8717],[-57.2913,-23.8619],[-57.2885,-23.8307],[-57.2816,-23.801],[-57.2811,-23.7932],[-57.2844,-23.7877],[-57.2919,-23.7821],[-57.2994,-23.775],[-57.3028,-23.7653],[-57.299,-23.7577],[-57.2812,-23.7513],[-57.2755,-23.742],[-57.2758,-23.7315],[-57.2803,-23.7234],[-57.2953,-23.7072],[-57.3259,-23.6828],[-57.398,-23.6456],[-57.4257,-23.6179],[-57.4504,-23.5738],[-57.4536,-23.5599],[-57.4549,-23.5489],[-57.4596,-23.5277],[-57.4598,-23.5155],[-57.457,-23.5047],[-57.4482,-23.486],[-57.4462,-23.4745],[-57.4205,-23.4777],[-57.4085,-23.4824],[-57.4037,-23.4849],[-57.3985,-23.487],[-57.3728,-23.5001],[-57.3681,-23.5017],[-57.3571,-23.5041],[-57.3505,-23.5048],[-57.284,-23.5003],[-57.2816,-23.5008],[-57.274,-23.5003],[-57.2633,-23.4982],[-57.2432,-23.4911],[-57.2261,-23.4825],[-57.2186,-23.4802],[-57.2082,-23.479],[-57.1615,-23.4794],[-57.09,-23.4691],[-57.0459,-23.4561],[-57.0386,-23.4522],[-57.0346,-23.4489],[-57.0301,-23.4462],[-57.0241,-23.4442],[-57.0168,-23.4434],[-57.0066,-23.4445],[-56.9988,-23.4461],[-56.991,-23.4486],[-56.9846,-23.449],[-56.9771,-23.4475],[-56.9577,-23.4393],[-56.9439,-23.4361],[-56.9334,-23.4347],[-56.908,-23.4363],[-56.8995,-23.4357],[-56.893,-23.4338],[-56.8867,-23.4295],[-56.878,-23.422],[-56.8715,-23.4198],[-56.8627,-23.419],[-56.8385,-23.4217],[-56.7882,-23.4326],[-56.73,-23.4296],[-56.7157,-23.4302],[-56.7056,-23.4317],[-56.6816,-23.4438],[-56.6719,-23.4448],[-56.6586,-23.4447],[-56.6326,-23.442],[-56.6203,-23.443],[-56.6121,-23.4452],[-56.6054,-23.4523],[-56.5962,-23.4532],[-56.5812,-23.4517],[-56.5492,-23.445],[-56.5348,-23.4436],[-56.5252,-23.4436],[-56.5182,-23.4412],[-56.4737,-23.4204],[-56.4337,-23.4104],[-56.4249,-23.4108],[-56.4185,-23.4118],[-56.4123,-23.4123],[-56.4049,-23.4114],[-56.3811,-23.4002],[-56.3677,-23.3884],[-56.3542,-23.3788],[-56.3461,-23.3662],[-56.3336,-23.3521],[-56.301,-23.3397],[-56.2905,-23.3467],[-56.2862,-23.3454],[-56.278,-23.3417],[-56.2669,-23.3341],[-56.2436,-23.3226],[-56.2246,-23.3179],[-56.2037,-23.3151],[-56.1927,-23.3124],[-56.1835,-23.308],[-56.1784,-23.3074],[-56.1626,-23.3118],[-56.1495,-23.3139],[-56.1073,-23.316],[-56.0929,-23.3196],[-56.0843,-23.3242],[-56.0764,-23.331],[-56.0716,-23.3379],[-56.0694,-23.3444],[-56.0697,-23.3501],[-56.0722,-23.3566],[-56.0773,-23.3666],[-56.0788,-23.372],[-56.0774,-23.3769],[-56.0728,-23.3832],[-56.056,-23.3968],[-56.0521,-23.4008],[-56.0479,-23.407],[-56.0447,-23.4141],[-56.0432,-23.4197],[-56.043,-23.4234],[-56.0441,-23.4286],[-56.0465,-23.4339],[-56.0532,-23.443],[-56.0615,-23.4521],[-56.1442,-23.5148],[-56.1478,-23.5198],[-56.1475,-23.5266],[-56.1452,-23.5353],[-56.1401,-23.5485],[-56.132,-23.5653],[-56.1141,-23.5946],[-56.1017,-23.6073],[-56.0916,-23.614],[-56.0864,-23.6139],[-56.0809,-23.6112],[-56.0655,-23.5995],[-56.0586,-23.5951],[-56.0473,-23.59],[-56.0419,-23.5866],[-56.0384,-23.5819],[-56.036,-23.5755],[-56.0348,-23.5667],[-56.0352,-23.5522],[-56.0341,-23.5469],[-56.03,-23.5438],[-56.0211,-23.5404],[-55.96,-23.5292],[-55.9462,-23.5288],[-55.9362,-23.5302],[-55.9336,-23.5339],[-55.9335,-23.5387],[-55.9358,-23.5501],[-55.9367,-23.563],[-55.9331,-23.5999],[-55.9338,-23.6057],[-55.9351,-23.6113],[-55.9419,-23.6258],[-55.9479,-23.6339],[-55.9586,-23.6447],[-55.9809,-23.672],[-55.9828,-23.6763],[-55.9824,-23.6812],[-55.9775,-23.6966],[-55.9746,-23.721],[-55.975,-23.7467],[-55.9757,-23.7528],[-55.9772,-23.7583],[-55.9815,-23.7682],[-55.9989,-23.7982],[-56.0042,-23.815],[-56.0061,-23.8184],[-56.0083,-23.8206],[-56.042,-23.8435],[-56.0513,-23.8472],[-56.0591,-23.8485],[-55.9975,-23.9998],[-55.9924,-24.0227],[-55.9941,-24.0299],[-56.0004,-24.0285],[-56.0029,-24.0283],[-56.0073,-24.0285],[-56.0115,-24.03],[-56.0159,-24.0325],[-56.0309,-24.0461],[-56.0436,-24.0619],[-56.0663,-24.0822],[-56.0791,-24.0979],[-56.0831,-24.101],[-56.0882,-24.1032],[-56.1126,-24.1082],[-56.1177,-24.1105],[-56.1221,-24.1131],[-56.1264,-24.1162],[-56.1458,-24.1404],[-56.1488,-24.1454],[-56.1535,-24.1608],[-56.1526,-24.183],[-56.1585,-24.2298],[-56.1585,-24.2489],[-56.1566,-24.2616],[-56.135,-24.2787],[-56.1296,-24.2843],[-56.1254,-24.2935],[-56.1228,-24.3047],[-56.1185,-24.3373],[-56.1144,-24.3528],[-56.109,-24.3649],[-56.1034,-24.3745],[-56.0964,-24.3825],[-56.088,-24.39],[-56.0799,-24.3952],[-56.0707,-24.3993],[-56.0519,-24.4052],[-56.0443,-24.4087],[-56.0385,-24.4137],[-56.0338,-24.4198],[-56.0131,-24.4637],[-55.9601,-24.5315],[-55.9386,-24.5716],[-55.9242,-24.6133],[-55.9136,-24.635],[-55.9024,-24.649],[-55.8729,-24.666],[-55.8561,-24.6788],[-55.8368,-24.6977],[-55.8279,-24.7208],[-55.8207,-24.7352],[-55.8142,-24.7457],[-55.8043,-24.7536],[-55.7508,-24.7827]]]}},{"type":"Feature","properties":{"id":"PRY-610","name":"Ñeembucú","nameBn":"নেম্বুকু","type":"Department","bounds":[-58.6584,-27.4292,-57.1959,-25.8066],"center":[-57.9275,-26.6639]},"geometry":{"type":"Polygon","coordinates":[[[-58.124,-26.2019],[-58.1152,-26.191],[-58.1063,-26.1703],[-58.0967,-26.1367],[-58.0865,-26.1272],[-58.0216,-26.1057],[-57.9882,-26.0885],[-57.8727,-26.0103],[-57.8597,-25.9943],[-57.8596,-25.9809],[-57.9058,-25.9686],[-57.8982,-25.9536],[-57.8633,-25.9276],[-57.8571,-25.9199],[-57.8514,-25.9084],[-57.8524,-25.898],[-57.8754,-25.8902],[-57.8782,-25.8832],[-57.8754,-25.8761],[-57.8542,-25.8689],[-57.8332,-25.8588],[-57.8197,-25.8498],[-57.8163,-25.8513],[-57.7923,-25.8561],[-57.7871,-25.8544],[-57.7816,-25.8512],[-57.7804,-25.847],[-57.7801,-25.84],[-57.7813,-25.8232],[-57.7805,-25.815],[-57.7781,-25.8105],[-57.7741,-25.8074],[-57.7694,-25.8066],[-57.7642,-25.8071],[-57.7442,-25.8138],[-57.7374,-25.8148],[-57.7312,-25.8142],[-57.7101,-25.8098],[-57.7038,-25.8097],[-57.6972,-25.8126],[-57.6893,-25.8187],[-57.6757,-25.8351],[-57.6622,-25.8482],[-57.6402,-25.8658],[-57.6169,-25.8793],[-57.5905,-25.8998],[-57.5799,-25.9051],[-57.5596,-25.9131],[-57.5553,-25.9177],[-57.552,-25.9239],[-57.5505,-25.9344],[-57.5475,-25.9431],[-57.542,-25.9529],[-57.5167,-25.9828],[-57.5036,-26.0111],[-57.4757,-26.1569],[-57.477,-26.1672],[-57.4812,-26.1743],[-57.6142,-26.2941],[-57.6528,-26.3617],[-57.6645,-26.3773],[-57.6859,-26.3922],[-57.7055,-26.4125],[-57.6348,-26.7808],[-57.6286,-26.7984],[-57.6197,-26.818],[-57.5368,-26.9237],[-57.4217,-27.0443],[-57.4143,-27.0479],[-57.2322,-27.0727],[-57.2036,-27.08],[-57.1959,-27.0957],[-57.2021,-27.1338],[-57.2914,-27.3615],[-57.3096,-27.428],[-57.3101,-27.4292],[-57.3263,-27.4149],[-57.3352,-27.4095],[-57.3565,-27.4043],[-57.3604,-27.4034],[-57.3867,-27.4035],[-57.4877,-27.4164],[-57.5134,-27.4141],[-57.5199,-27.4121],[-57.5357,-27.4072],[-57.6978,-27.3335],[-57.6982,-27.3334],[-57.7094,-27.3298],[-57.8116,-27.3107],[-57.8119,-27.3106],[-57.8548,-27.2976],[-57.8551,-27.2975],[-57.8995,-27.289],[-57.9134,-27.2863],[-57.944,-27.2746],[-57.9444,-27.2746],[-58.0037,-27.2633],[-58.022,-27.2598],[-58.022,-27.2598],[-58.0535,-27.259],[-58.114,-27.2689],[-58.1288,-27.2697],[-58.2382,-27.257],[-58.5108,-27.2784],[-58.6002,-27.313],[-58.6042,-27.3163],[-58.6041,-27.3155],[-58.5999,-27.2661],[-58.6016,-27.2457],[-58.614,-27.2267],[-58.6387,-27.2101],[-58.6524,-27.198],[-58.6584,-27.1851],[-58.6533,-27.1563],[-58.6388,-27.1359],[-58.6161,-27.1238],[-58.5655,-27.116],[-58.5605,-27.1055],[-58.5624,-27.0901],[-58.5622,-27.0721],[-58.5597,-27.0634],[-58.5564,-27.0555],[-58.5517,-27.0482],[-58.5454,-27.041],[-58.5363,-27.0363],[-58.536,-27.0362],[-58.5305,-27.0405],[-58.528,-27.0478],[-58.528,-27.0517],[-58.527,-27.0542],[-58.52,-27.0584],[-58.5198,-27.0585],[-58.5115,-27.0602],[-58.5076,-27.0551],[-58.5067,-27.0385],[-58.5049,-27.0315],[-58.5014,-27.0237],[-58.4924,-27.0097],[-58.4745,-26.9901],[-58.4666,-26.9759],[-58.4816,-26.9638],[-58.4837,-26.9506],[-58.4755,-26.938],[-58.4598,-26.9282],[-58.4155,-26.9175],[-58.3939,-26.9097],[-58.3847,-26.8971],[-58.3747,-26.8876],[-58.3513,-26.8858],[-58.3289,-26.8841],[-58.3158,-26.8741],[-58.3221,-26.8568],[-58.3404,-26.8445],[-58.3524,-26.8305],[-58.34,-26.8086],[-58.3233,-26.8038],[-58.3055,-26.8091],[-58.2886,-26.8115],[-58.2748,-26.7984],[-58.2785,-26.7902],[-58.2865,-26.7787],[-58.2879,-26.7686],[-58.2714,-26.7643],[-58.2593,-26.7645],[-58.2518,-26.7632],[-58.2479,-26.7582],[-58.2452,-26.6802],[-58.2407,-26.6612],[-58.2355,-26.6498],[-58.2323,-26.6486],[-58.2272,-26.652],[-58.1957,-26.6575],[-58.1839,-26.6568],[-58.1786,-26.6507],[-58.1814,-26.6416],[-58.1872,-26.6336],[-58.1921,-26.6246],[-58.1923,-26.6128],[-58.1885,-26.6097],[-58.1715,-26.5986],[-58.1649,-26.5923],[-58.1705,-26.5868],[-58.1793,-26.5726],[-58.1854,-26.565],[-58.208,-26.5502],[-58.2134,-26.5445],[-58.2173,-26.5276],[-58.2142,-26.5124],[-58.2087,-26.4969],[-58.2059,-26.4794],[-58.2027,-26.4716],[-58.1887,-26.4621],[-58.1854,-26.4517],[-58.2096,-26.4313],[-58.2131,-26.4186],[-58.2062,-26.4027],[-58.1727,-26.3493],[-58.1676,-26.335],[-58.1649,-26.3186],[-58.17,-26.2866],[-58.17,-26.2703],[-58.1618,-26.2633],[-58.146,-26.2601],[-58.1233,-26.2515],[-58.106,-26.2395],[-58.1066,-26.2261],[-58.1212,-26.2167],[-58.1371,-26.2095],[-58.1489,-26.1993],[-58.1513,-26.1815],[-58.1412,-26.1848],[-58.1332,-26.189],[-58.1276,-26.1947],[-58.124,-26.2019]]]}}]}