{"type":"FeatureCollection","features":[{"type":"Feature","properties":{"id":"PYF-4966","name":"Austral Islands","nameBn":"আউস্ট্রাল আইল্যান্ড","type":null,"bounds":[-151.397,-27.6412,-144.2838,-22.4225],"center":[-151.324,-22.5218]},"geometry":{"type":"MultiPolygon","coordinates":[[[[-147.7242,-23.8718],[-147.7242,-23.8649],[-147.7059,-23.8586],[-147.688,-23.8546],[-147.6479,-23.8518],[-147.6512,-23.8586],[-147.6559,-23.8639],[-147.6618,-23.8681],[-147.6689,-23.8718],[-147.699,-23.878],[-147.7126,-23.8772],[-147.7242,-23.8718]]],[[[-149.4817,-23.3578],[-149.4565,-23.3653],[-149.4509,-23.3811],[-149.4632,-23.3958],[-149.5078,-23.4005],[-149.5187,-23.395],[-149.5248,-23.384],[-149.5267,-23.3681],[-149.5214,-23.3627],[-149.5089,-23.3596],[-149.4817,-23.3578]]],[[[-151.3869,-22.4225],[-151.3777,-22.4233],[-151.3675,-22.4342],[-151.3592,-22.4475],[-151.3559,-22.4566],[-151.3575,-22.4817],[-151.3627,-22.5081],[-151.3687,-22.5131],[-151.3718,-22.5144],[-151.3763,-22.5143],[-151.3804,-22.4887],[-151.3911,-22.4645],[-151.397,-22.4422],[-151.3869,-22.4225]]],[[[-144.2838,-27.5792],[-144.2882,-27.5842],[-144.3013,-27.5954],[-144.3042,-27.5997],[-144.3035,-27.6005],[-144.3003,-27.62],[-144.2974,-27.6208],[-144.3044,-27.6324],[-144.3127,-27.6401],[-144.3236,-27.6412],[-144.3384,-27.6337],[-144.3466,-27.6153],[-144.348,-27.5855],[-144.3394,-27.5593],[-144.3179,-27.5512],[-144.2982,-27.5629],[-144.2899,-27.5701],[-144.2838,-27.5792]]]]}},{"type":"Feature","properties":{"id":"PYF-4964","name":"Leeward Islands","nameBn":"লীওয়ার্ড আইল্যান্ড","type":null,"bounds":[-154.537,-16.9029,-150.9784,-15.7893],"center":[-151.495,-16.6692]},"geometry":{"type":"MultiPolygon","coordinates":[[[[-153.934,-16.7975],[-153.9285,-16.8069],[-153.9228,-16.8209],[-153.9202,-16.8317],[-153.9243,-16.8318],[-153.9332,-16.8191],[-153.9432,-16.7875],[-153.9507,-16.7739],[-153.943,-16.7746],[-153.9377,-16.7795],[-153.9348,-16.7874],[-153.934,-16.7975]]],[[[-152.2447,-16.4438],[-152.2563,-16.4513],[-152.2636,-16.4472],[-152.2615,-16.4415],[-152.2447,-16.4438]]],[[[-154.5232,-15.8194],[-154.5206,-15.8085],[-154.5221,-15.8005],[-154.5275,-15.7949],[-154.537,-15.7922],[-154.5248,-15.7893],[-154.5191,-15.7956],[-154.5173,-15.8064],[-154.5163,-15.8173],[-154.5192,-15.8234],[-154.5255,-15.8277],[-154.5288,-15.8272],[-154.5232,-15.8194]]],[[[-151.0058,-16.7692],[-151.0024,-16.7608],[-150.9943,-16.7619],[-150.9853,-16.7692],[-150.9791,-16.7797],[-150.9784,-16.788],[-150.9796,-16.8004],[-150.9839,-16.8093],[-150.9928,-16.8071],[-150.9948,-16.8136],[-150.9989,-16.818],[-151.005,-16.8204],[-151.0133,-16.8207],[-151.0314,-16.8063],[-151.0376,-16.7996],[-151.0399,-16.79],[-151.0346,-16.777],[-151.0229,-16.7729],[-151.0111,-16.7721],[-151.0058,-16.7692]]],[[[-151.4787,-16.7382],[-151.4647,-16.7364],[-151.4465,-16.7405],[-151.4308,-16.7478],[-151.4241,-16.7553],[-151.4128,-16.7797],[-151.3525,-16.8586],[-151.3641,-16.8665],[-151.4009,-16.8853],[-151.4139,-16.8889],[-151.4243,-16.8819],[-151.4294,-16.8819],[-151.4316,-16.8922],[-151.4342,-16.8976],[-151.4405,-16.9011],[-151.4492,-16.9029],[-151.4582,-16.9026],[-151.4779,-16.8896],[-151.4881,-16.8564],[-151.4947,-16.7646],[-151.4912,-16.7503],[-151.4787,-16.7382]]],[[[-151.0263,-16.7081],[-151.0076,-16.7405],[-151.0095,-16.7457],[-151.0163,-16.7487],[-151.0242,-16.7556],[-151.0342,-16.7626],[-151.0474,-16.766],[-151.0532,-16.7536],[-151.054,-16.7418],[-151.0515,-16.7301],[-151.0422,-16.7055],[-151.0351,-16.6943],[-151.029,-16.6925],[-151.0263,-16.7081]]],[[[-151.4582,-16.629],[-151.4598,-16.6611],[-151.4632,-16.6741],[-151.4726,-16.6699],[-151.4805,-16.665],[-151.5347,-16.6417],[-151.5404,-16.6365],[-151.5409,-16.631],[-151.5361,-16.5949],[-151.5238,-16.5829],[-151.5027,-16.5802],[-151.4726,-16.5805],[-151.4766,-16.5905],[-151.4787,-16.5942],[-151.4596,-16.5934],[-151.4496,-16.5947],[-151.4453,-16.5976],[-151.444,-16.6022],[-151.4387,-16.6093],[-151.4378,-16.6147],[-151.4412,-16.6198],[-151.4482,-16.6242],[-151.4582,-16.629]]],[[[-151.7804,-16.4781],[-151.7638,-16.4723],[-151.7536,-16.4838],[-151.7484,-16.5043],[-151.7469,-16.526],[-151.7626,-16.5258],[-151.7768,-16.5118],[-151.7845,-16.4929],[-151.7804,-16.4781]]]]}},{"type":"Feature","properties":{"id":"PYF-4967","name":"Marquesas Islands","nameBn":"মার্কুইসাস আইল্যান্ডস","type":null,"bounds":[-140.7278,-10.5505,-138.6202,-7.9501],"center":[-139.037,-9.7556]},"geometry":{"type":"MultiPolygon","coordinates":[[[[-138.6988,-10.4264],[-138.6652,-10.4273],[-138.6505,-10.4314],[-138.6367,-10.4406],[-138.6204,-10.4719],[-138.6202,-10.5108],[-138.637,-10.5422],[-138.6715,-10.5505],[-138.6856,-10.5421],[-138.6934,-10.5261],[-138.6944,-10.5079],[-138.6796,-10.4736],[-138.6816,-10.4583],[-138.6988,-10.4264]]],[[[-139.0824,-9.8995],[-139.0692,-9.9039],[-139.0557,-9.9132],[-139.0478,-9.9225],[-139.0513,-9.9267],[-139.055,-9.9284],[-139.0576,-9.9324],[-139.0597,-9.9371],[-139.0619,-9.9404],[-139.0666,-9.9433],[-139.0767,-9.9446],[-139.0824,-9.9472],[-139.0959,-9.9617],[-139.1185,-10.0002],[-139.1308,-10.0149],[-139.1439,-9.9978],[-139.1427,-9.9789],[-139.139,-9.9594],[-139.1444,-9.9404],[-139.1339,-9.9283],[-139.1207,-9.9044],[-139.1038,-9.8883],[-139.0824,-9.8995]]],[[[-138.8366,-9.7411],[-138.814,-9.7395],[-138.8185,-9.7487],[-138.8693,-9.7916],[-138.8921,-9.8007],[-138.9166,-9.8066],[-138.9557,-9.81],[-139.0094,-9.809],[-139.0209,-9.8063],[-139.0262,-9.8034],[-139.038,-9.8024],[-139.0497,-9.8035],[-139.055,-9.8063],[-139.055,-9.8373],[-139.0619,-9.8539],[-139.0714,-9.8547],[-139.0855,-9.8488],[-139.1263,-9.8401],[-139.1435,-9.8289],[-139.1569,-9.8152],[-139.1649,-9.8033],[-139.1703,-9.7901],[-139.1732,-9.7742],[-139.1694,-9.761],[-139.1384,-9.7509],[-139.0514,-9.7014],[-139.0154,-9.6944],[-138.9845,-9.6995],[-138.9725,-9.7206],[-138.9613,-9.7338],[-138.9427,-9.7424],[-138.9212,-9.7472],[-138.9008,-9.7486],[-138.8769,-9.7543],[-138.8667,-9.7555],[-138.8555,-9.7535],[-138.848,-9.749],[-138.8424,-9.7442],[-138.8366,-9.7411]]],[[[-140.0767,-9.3234],[-140.0539,-9.3463],[-140.0414,-9.351],[-140.0277,-9.3439],[-140.0406,-9.3741],[-140.0489,-9.4081],[-140.0629,-9.436],[-140.0928,-9.4475],[-140.1114,-9.4378],[-140.1586,-9.3718],[-140.1395,-9.3578],[-140.1214,-9.3403],[-140.1016,-9.3263],[-140.0767,-9.3234]]],[[[-139.5144,-8.884],[-139.5032,-8.899],[-139.5084,-8.912],[-139.5234,-8.9216],[-139.5417,-8.9262],[-139.5856,-8.9295],[-139.6031,-8.9369],[-139.6168,-8.9542],[-139.6127,-8.9392],[-139.618,-8.925],[-139.6262,-8.9108],[-139.6304,-8.8954],[-139.5969,-8.858],[-139.5895,-8.858],[-139.5823,-8.8689],[-139.5745,-8.8702],[-139.5584,-8.8647],[-139.547,-8.8671],[-139.5144,-8.884]]],[[[-140.0494,-8.8232],[-140.0223,-8.8468],[-140.016,-8.8593],[-140.014,-8.8811],[-140.0192,-8.8964],[-140.0313,-8.8945],[-140.0556,-8.8785],[-140.0605,-8.9],[-140.0767,-8.9152],[-140.096,-8.919],[-140.1102,-8.9057],[-140.1177,-8.9057],[-140.13,-8.9164],[-140.1699,-8.9295],[-140.1785,-8.9368],[-140.1832,-8.9537],[-140.1943,-8.9504],[-140.207,-8.9394],[-140.2277,-8.927],[-140.2348,-8.9129],[-140.2452,-8.8669],[-140.2474,-8.8473],[-140.2496,-8.8386],[-140.2589,-8.8305],[-140.2611,-8.8232],[-140.2478,-8.7869],[-140.2167,-8.781],[-140.0897,-8.802],[-140.059,-8.802],[-140.0514,-8.8005],[-140.0374,-8.7922],[-140.0277,-8.789],[-140.0277,-8.7937],[-140.0295,-8.7965],[-140.0322,-8.7988],[-140.0394,-8.8071],[-140.0494,-8.8232]]],[[[-140.6925,-8.0151],[-140.6989,-8.029],[-140.7078,-8.0397],[-140.7178,-8.0413],[-140.7272,-8.0281],[-140.7278,-7.9915],[-140.7064,-7.9631],[-140.6732,-7.9501],[-140.6384,-7.9597],[-140.6531,-7.9708],[-140.6583,-7.9734],[-140.6756,-7.9767],[-140.6839,-7.9853],[-140.6925,-8.0151]]]]}},{"type":"Feature","properties":{"id":"PYF-4965","name":"Tuamotu-Gambier","nameBn":"তুয়ামোটু-গাম্বিয়ার","type":null,"bounds":[-148.6907,-23.1388,-134.943,-14.165],"center":[-143.144,-16.7377]},"geometry":{"type":"MultiPolygon","coordinates":[[[[-136.1658,-22.0243],[-136.1757,-22.0299],[-136.1859,-22.0344],[-136.1636,-22.0136],[-136.1639,-22.0164],[-136.1658,-22.0243]]],[[[-136.3772,-21.4684],[-136.3863,-21.4636],[-136.3958,-21.4628],[-136.405,-21.4654],[-136.4134,-21.4714],[-136.4049,-21.4602],[-136.3915,-21.4562],[-136.3799,-21.4591],[-136.3772,-21.4684]]],[[[-136.5494,-21.3368],[-136.5322,-21.3313],[-136.5257,-21.3381],[-136.5294,-21.3499],[-136.5431,-21.3598],[-136.5342,-21.3489],[-136.5357,-21.3424],[-136.5424,-21.3388],[-136.5494,-21.3368]]],[[[-136.6362,-21.3416],[-136.6468,-21.3272],[-136.6516,-21.3229],[-136.6439,-21.3228],[-136.6399,-21.3264],[-136.6379,-21.3331],[-136.6362,-21.3416]]],[[[-136.7344,-21.3121],[-136.7392,-21.3085],[-136.7423,-21.3045],[-136.7458,-21.3034],[-136.7522,-21.3085],[-136.746,-21.2995],[-136.7386,-21.2995],[-136.7323,-21.3062],[-136.7291,-21.318],[-136.7313,-21.3173],[-136.7322,-21.3157],[-136.7328,-21.3139],[-136.7344,-21.3121]]],[[[-140.414,-19.6142],[-140.4074,-19.6101],[-140.3952,-19.6154],[-140.3832,-19.6254],[-140.377,-19.6363],[-140.3791,-19.6486],[-140.3874,-19.657],[-140.3993,-19.6617],[-140.4124,-19.6638],[-140.3968,-19.6511],[-140.3866,-19.6403],[-140.3898,-19.6288],[-140.414,-19.6142]]],[[[-139.2023,-19.3507],[-139.2041,-19.3461],[-139.2051,-19.3415],[-139.2077,-19.3373],[-139.2148,-19.3346],[-139.203,-19.3349],[-139.1959,-19.3409],[-139.1959,-19.3498],[-139.2052,-19.3591],[-139.2023,-19.3507]]],[[[-138.7967,-19.2903],[-138.806,-19.2888],[-138.8094,-19.2873],[-138.8121,-19.2838],[-138.8024,-19.282],[-138.7946,-19.2817],[-138.7917,-19.2839],[-138.7967,-19.2903]]],[[[-141.2662,-19.2035],[-141.2523,-19.1897],[-141.2372,-19.1936],[-141.2275,-19.2084],[-141.2304,-19.2271],[-141.2337,-19.2117],[-141.2428,-19.2022],[-141.2548,-19.1994],[-141.2662,-19.2035]]],[[[-140.7218,-19.1337],[-140.6962,-19.1193],[-140.6702,-19.1318],[-140.6609,-19.1524],[-140.6859,-19.1616],[-140.67,-19.1428],[-140.6814,-19.1323],[-140.704,-19.1293],[-140.7218,-19.1337]]],[[[-138.8016,-18.7652],[-138.7952,-18.7709],[-138.7933,-18.774],[-138.7932,-18.7789],[-138.8297,-18.7599],[-138.8229,-18.7603],[-138.8157,-18.7614],[-138.8016,-18.7652]]],[[[-143.0921,-17.8533],[-143.0809,-17.8376],[-143.0723,-17.8404],[-143.0599,-17.8658],[-143.0603,-17.8678],[-143.0648,-17.8637],[-143.0702,-17.8552],[-143.0728,-17.8443],[-143.0776,-17.8522],[-143.0824,-17.8575],[-143.0871,-17.8585],[-143.0921,-17.8533]]],[[[-141.4385,-17.3681],[-141.4425,-17.3601],[-141.4538,-17.3523],[-141.4674,-17.3488],[-141.4818,-17.3486],[-141.4608,-17.3448],[-141.4452,-17.3517],[-141.4363,-17.3674],[-141.4361,-17.3707],[-141.4353,-17.3836],[-141.435,-17.3893],[-141.4368,-17.3858],[-141.4368,-17.3827],[-141.4385,-17.3681]]],[[[-138.4417,-17.3664],[-138.4614,-17.3657],[-138.4635,-17.36],[-138.4637,-17.3569],[-138.4609,-17.3504],[-138.4469,-17.3327],[-138.4261,-17.3249],[-138.4549,-17.3498],[-138.4588,-17.3569],[-138.4578,-17.3588],[-138.4537,-17.3596],[-138.4477,-17.3616],[-138.4417,-17.3664]]],[[[-143.0848,-17.0046],[-143.0938,-16.998],[-143.0977,-16.9943],[-143.1012,-16.9902],[-143.0904,-16.9895],[-143.0798,-16.9933],[-143.0702,-17.0002],[-143.062,-17.009],[-143.0675,-17.01],[-143.0731,-17.0094],[-143.0789,-17.0074],[-143.0848,-17.0046]]],[[[-144.2007,-16.6484],[-144.1981,-16.6422],[-144.1881,-16.6457],[-144.1767,-16.6554],[-144.1696,-16.6672],[-144.1778,-16.6638],[-144.1859,-16.6594],[-144.2007,-16.6484]]],[[[-145.8989,-15.8881],[-145.9505,-15.8396],[-145.9143,-15.8635],[-145.8986,-15.8784],[-145.8989,-15.8881]]],[[[-140.889,-15.8198],[-140.8614,-15.8155],[-140.8524,-15.8155],[-140.8599,-15.8199],[-140.8797,-15.8383],[-140.889,-15.8373],[-140.895,-15.8329],[-140.8956,-15.8268],[-140.889,-15.8198]]],[[[-148.2508,-15.8674],[-148.2717,-15.8532],[-148.2794,-15.8305],[-148.2756,-15.81],[-148.2621,-15.8024],[-148.2576,-15.8079],[-148.2462,-15.8316],[-148.239,-15.8396],[-148.2299,-15.8481],[-148.2308,-15.8569],[-148.2387,-15.8639],[-148.2508,-15.8674]]],[[[-146.4866,-15.8034],[-146.4827,-15.8149],[-146.4817,-15.8206],[-146.4819,-15.8269],[-146.4906,-15.8083],[-146.4962,-15.7995],[-146.503,-15.7917],[-146.4989,-15.794],[-146.4866,-15.8034]]],[[[-144.6498,-15.7302],[-144.6328,-15.7284],[-144.6219,-15.736],[-144.6204,-15.747],[-144.6313,-15.7553],[-144.6419,-15.7551],[-144.6489,-15.7493],[-144.6517,-15.7402],[-144.6498,-15.7302]]],[[[-145.4559,-15.4796],[-145.444,-15.4797],[-145.4354,-15.483],[-145.4327,-15.4885],[-145.4379,-15.4964],[-145.4573,-15.4817],[-145.5239,-15.4705],[-145.5496,-15.4521],[-145.4815,-15.4748],[-145.4559,-15.4796]]],[[[-146.1942,-15.3595],[-146.203,-15.3888],[-146.1986,-15.3698],[-146.1962,-15.3476],[-146.1983,-15.3387],[-146.2036,-15.3315],[-146.2074,-15.3286],[-146.2172,-15.3237],[-146.214,-15.3231],[-146.205,-15.3277],[-146.2006,-15.3297],[-146.1967,-15.3356],[-146.1928,-15.3463],[-146.1942,-15.3595]]],[[[-146.6208,-15.2398],[-146.639,-15.2326],[-146.6239,-15.235],[-146.6117,-15.2439],[-146.6029,-15.2569],[-146.5978,-15.2716],[-146.6101,-15.2564],[-146.6208,-15.2398]]],[[[-147.2563,-15.2325],[-147.2423,-15.2324],[-147.2385,-15.2353],[-147.2374,-15.2442],[-147.2418,-15.239],[-147.2462,-15.2367],[-147.2509,-15.235],[-147.2563,-15.2325]]],[[[-147.779,-15.2164],[-147.7741,-15.2135],[-147.7634,-15.2194],[-147.75,-15.2287],[-147.7371,-15.2353],[-147.779,-15.2164]]],[[[-147.459,-15.1214],[-147.512,-15.08],[-147.5309,-15.069],[-147.5109,-15.0779],[-147.4925,-15.0911],[-147.459,-15.1214]]],[[[-147.932,-15.0808],[-147.9343,-15.0769],[-147.9367,-15.0739],[-147.9378,-15.0709],[-147.9366,-15.0663],[-147.932,-15.0808]]],[[[-145.9224,-14.4338],[-145.9328,-14.4384],[-145.9437,-14.4418],[-145.9549,-14.4435],[-145.9662,-14.4431],[-145.9332,-14.4376],[-145.9224,-14.4338]]],[[[-141.1746,-14.1896],[-141.1795,-14.1965],[-141.1893,-14.1902],[-141.2128,-14.165],[-141.2027,-14.1702],[-141.1746,-14.1896]]],[[[-135.0194,-23.1176],[-134.998,-23.1163],[-134.9655,-23.0905],[-134.943,-23.0836],[-134.9506,-23.0969],[-134.9845,-23.1388],[-134.9952,-23.1371],[-135.0045,-23.1339],[-135.0194,-23.1251],[-135.0194,-23.1176]]],[[[-140.6719,-21.6589],[-140.6532,-21.6471],[-140.6342,-21.6608],[-140.6037,-21.7068],[-140.6305,-21.7216],[-140.6583,-21.7127],[-140.6758,-21.6889],[-140.6719,-21.6589]]],[[[-140.6788,-17.7804],[-140.7272,-17.8071],[-140.758,-17.8316],[-140.7852,-17.8586],[-140.796,-17.8627],[-140.8121,-17.8631],[-140.8278,-17.8601],[-140.837,-17.8547],[-140.8387,-17.8434],[-140.8343,-17.83],[-140.8227,-17.8071],[-140.8023,-17.7866],[-140.7825,-17.7516],[-140.7458,-17.7296],[-140.6719,-17.6978],[-140.6521,-17.6842],[-140.6247,-17.6873],[-140.6199,-17.7067],[-140.6285,-17.7284],[-140.6483,-17.7439],[-140.6788,-17.7804]]],[[[-146.3873,-16.1082],[-146.3594,-16.1002],[-146.3377,-16.1134],[-146.3288,-16.1376],[-146.3389,-16.1628],[-146.3671,-16.1588],[-146.3918,-16.1472],[-146.4021,-16.13],[-146.3873,-16.1082]]],[[[-138.8496,-21.8713],[-138.9322,-21.8713],[-138.9119,-21.8639],[-138.8916,-21.8659],[-138.871,-21.8704],[-138.8496,-21.8713]]],[[[-135.4575,-21.528],[-135.5258,-21.4871],[-135.5038,-21.4895],[-135.4849,-21.4968],[-135.4693,-21.5095],[-135.4575,-21.528]]],[[[-138.5349,-20.8769],[-138.5194,-20.8609],[-138.5173,-20.8492],[-138.5407,-20.7897],[-138.5447,-20.7847],[-138.5501,-20.7826],[-138.5684,-20.7882],[-138.5643,-20.7848],[-138.5544,-20.7809],[-138.5489,-20.78],[-138.5426,-20.7804],[-138.5198,-20.8145],[-138.5128,-20.8577],[-138.5349,-20.8769]]],[[[-136.3141,-18.5673],[-136.3135,-18.5656],[-136.3127,-18.561],[-136.3131,-18.5543],[-136.3161,-18.5463],[-136.3221,-18.5388],[-136.3313,-18.5326],[-136.3437,-18.5274],[-136.3739,-18.5187],[-136.383,-18.5147],[-136.389,-18.5102],[-136.3943,-18.5041],[-136.4027,-18.4967],[-136.4489,-18.4719],[-136.4613,-18.4687],[-136.4654,-18.4743],[-136.4652,-18.4821],[-136.4643,-18.486],[-136.4678,-18.4819],[-136.47,-18.4778],[-136.4729,-18.4743],[-136.4786,-18.4719],[-136.4587,-18.4643],[-136.4261,-18.4754],[-136.3958,-18.4942],[-136.3824,-18.5099],[-136.3304,-18.5276],[-136.3048,-18.5457],[-136.3141,-18.5673]]],[[[-140.6719,-18.4172],[-140.6748,-18.4138],[-140.681,-18.4023],[-140.6951,-18.3904],[-140.7521,-18.3639],[-140.7701,-18.3503],[-140.7793,-18.3395],[-140.7818,-18.3352],[-140.7562,-18.3537],[-140.6871,-18.3906],[-140.6786,-18.403],[-140.6719,-18.4172]]],[[[-136.9714,-18.3619],[-137.0676,-18.2663],[-137.0423,-18.2776],[-137.0102,-18.3044],[-136.9828,-18.3359],[-136.9714,-18.3619]]],[[[-140.8227,-18.2179],[-140.8484,-18.1825],[-140.8955,-18.149],[-140.918,-18.1082],[-140.9303,-18.0956],[-140.9736,-18.0602],[-140.9645,-18.0666],[-140.9252,-18.0847],[-140.8985,-18.1291],[-140.8773,-18.1506],[-140.8513,-18.1695],[-140.8299,-18.1904],[-140.8227,-18.2179]]],[[[-142.5775,-17.6214],[-142.5652,-17.6017],[-142.6395,-17.5326],[-142.6125,-17.547],[-142.5776,-17.5717],[-142.5582,-17.5992],[-142.5775,-17.6214]]],[[[-143.4136,-17.457],[-143.4379,-17.4389],[-143.475,-17.4303],[-143.4566,-17.4293],[-143.4377,-17.4332],[-143.422,-17.4422],[-143.4136,-17.457]]],[[[-145.3805,-17.485],[-145.4351,-17.4172],[-145.4194,-17.4269],[-145.4056,-17.443],[-145.3805,-17.485]]],[[[-145.5785,-17.3831],[-145.5865,-17.3704],[-145.5914,-17.3577],[-145.5934,-17.343],[-145.5929,-17.3248],[-145.5785,-17.3831]]],[[[-143.3862,-16.6699],[-143.454,-16.6246],[-143.5062,-16.6271],[-143.5507,-16.6222],[-143.4648,-16.6147],[-143.4406,-16.6208],[-143.4203,-16.6357],[-143.3862,-16.6699]]],[[[-143.5712,-16.6358],[-143.6204,-16.632],[-143.6601,-16.6022],[-143.7015,-16.5805],[-143.6662,-16.5885],[-143.6095,-16.63],[-143.5712,-16.6358]]],[[[-143.8176,-16.5396],[-143.8214,-16.5377],[-143.8487,-16.4929],[-143.8798,-16.4694],[-143.914,-16.4574],[-143.9342,-16.4503],[-143.9303,-16.45],[-143.9103,-16.4553],[-143.8775,-16.4597],[-143.862,-16.4672],[-143.8328,-16.4985],[-143.823,-16.5164],[-143.8176,-16.5396]]],[[[-144.2565,-16.4781],[-144.2587,-16.4577],[-144.2609,-16.4509],[-144.2912,-16.4161],[-144.2757,-16.4256],[-144.2601,-16.4423],[-144.2513,-16.4614],[-144.2565,-16.4781]]],[[[-144.3731,-16.3404],[-144.4061,-16.3292],[-144.426,-16.3328],[-144.4346,-16.3199],[-144.4283,-16.3206],[-144.4272,-16.3224],[-144.4277,-16.3266],[-144.4122,-16.3212],[-144.3961,-16.3245],[-144.3823,-16.3323],[-144.3731,-16.3404]]],[[[-145.4823,-16.3478],[-145.5023,-16.3366],[-145.5296,-16.2795],[-145.5531,-16.2521],[-145.5768,-16.2026],[-145.5904,-16.1516],[-145.6066,-16.1293],[-145.6139,-16.0803],[-145.611,-16.0973],[-145.6036,-16.1203],[-145.5934,-16.1404],[-145.5822,-16.1491],[-145.5771,-16.1608],[-145.5683,-16.2126],[-145.5621,-16.2243],[-145.5592,-16.233],[-145.5171,-16.2789],[-145.494,-16.3352],[-145.4823,-16.3478]]],[[[-145.6139,-16.0529],[-145.7089,-16.0605],[-145.6576,-16.0426],[-145.6313,-16.0383],[-145.6139,-16.0529]]],[[[-142.5297,-16.1082],[-142.5221,-16.0842],[-142.5098,-16.059],[-142.4953,-16.0363],[-142.4813,-16.0188],[-142.5297,-16.1082]]],[[[-140.1102,-15.9772],[-140.1172,-15.9617],[-140.1432,-15.9605],[-140.1723,-15.9772],[-140.1517,-15.9577],[-140.1255,-15.9533],[-140.1071,-15.9606],[-140.1102,-15.9772]]],[[[-145.1676,-15.9505],[-145.2359,-15.8884],[-145.22,-15.8984],[-145.1676,-15.9505]]],[[[-145.0577,-15.9021],[-145.0765,-15.8587],[-145.1299,-15.778],[-145.1608,-15.7581],[-145.1336,-15.7631],[-145.1175,-15.7807],[-145.0925,-15.8263],[-145.067,-15.8564],[-145.0587,-15.8759],[-145.0577,-15.9021]]],[[[-148.0458,-14.9977],[-148.0543,-14.9846],[-148.0663,-14.9711],[-148.0843,-14.955],[-148.1107,-14.9404],[-148.1761,-14.9221],[-148.1341,-14.9252],[-148.0891,-14.9368],[-148.055,-14.9599],[-148.0458,-14.9977]]],[[[-148.628,-14.8947],[-148.6479,-14.8718],[-148.6907,-14.8538],[-148.6677,-14.8566],[-148.6406,-14.8649],[-148.6228,-14.8779],[-148.628,-14.8947]]],[[[-145.1949,-14.662],[-145.2054,-14.6752],[-145.223,-14.6884],[-145.2428,-14.6984],[-145.2604,-14.7023],[-145.2639,-14.6901],[-145.2532,-14.6632],[-145.2296,-14.6204],[-145.2498,-14.6707],[-145.2548,-14.6933],[-145.2335,-14.6882],[-145.1949,-14.662]]],[[[-146.2569,-14.4975],[-146.2458,-14.476],[-146.2395,-14.4558],[-146.2711,-14.4355],[-146.2433,-14.4392],[-146.2318,-14.4568],[-146.2363,-14.4792],[-146.2569,-14.4975]]],[[[-145.0031,-14.5112],[-144.9547,-14.4635],[-144.9107,-14.4395],[-144.8881,-14.4181],[-144.9132,-14.4282],[-144.9559,-14.4321],[-145.0031,-14.443],[-144.9851,-14.4323],[-144.9623,-14.4262],[-144.9178,-14.4225],[-144.8974,-14.4123],[-144.8851,-14.408],[-144.8796,-14.4118],[-144.8806,-14.4221],[-144.8833,-14.4274],[-144.9027,-14.4422],[-144.935,-14.4597],[-144.9447,-14.4633],[-144.9547,-14.4698],[-144.9858,-14.5006],[-145.0031,-14.5112]]],[[[-145.8466,-14.3671],[-145.8426,-14.3466],[-145.8602,-14.3442],[-145.9143,-14.3466],[-145.8584,-14.3373],[-145.8354,-14.3427],[-145.8466,-14.3671]]],[[[-136.7388,-21.3172],[-136.7402,-21.32],[-136.7423,-21.3201],[-136.7469,-21.3162],[-136.7448,-21.3159],[-136.741,-21.317],[-136.7388,-21.3172]]],[[[-139.1354,-20.7997],[-139.1415,-20.8032],[-139.1445,-20.8044],[-139.1479,-20.8049],[-139.1358,-20.7997],[-139.1354,-20.7997]]],[[[-144.1068,-16.7239],[-144.0801,-16.7172],[-144.0631,-16.7307],[-144.0541,-16.7497],[-144.0509,-16.7595],[-144.0628,-16.7486],[-144.0757,-16.7304],[-144.0911,-16.7219],[-144.1107,-16.7397],[-144.1114,-16.7353],[-144.1105,-16.7317],[-144.1068,-16.7239]]]]}},{"type":"Feature","properties":{"id":"PYF-4963","name":"Windward Islands","nameBn":"উইন্ডওয়ার্ড দ্বীপপুঞ্জ","type":null,"bounds":[-150.6553,-17.8691,-149.1491,-16.9822],"center":[-149.519,-17.7462]},"geometry":{"type":"MultiPolygon","coordinates":[[[[-150.6553,-17.6687],[-150.6432,-17.6554],[-150.6403,-17.6661],[-150.645,-17.678],[-150.6553,-17.6687]]],[[[-149.5836,-16.9871],[-149.5759,-16.9837],[-149.5721,-16.9826],[-149.5682,-16.9822],[-149.5723,-16.9874],[-149.5869,-17.0004],[-149.587,-16.9967],[-149.5861,-16.9936],[-149.5836,-16.9871]]],[[[-149.1835,-17.7312],[-149.1606,-17.7569],[-149.1491,-17.802],[-149.1564,-17.8463],[-149.1903,-17.8691],[-149.2064,-17.8666],[-149.2609,-17.8517],[-149.2759,-17.8449],[-149.3087,-17.8036],[-149.3343,-17.7592],[-149.3435,-17.7249],[-149.348,-17.7182],[-149.3575,-17.7179],[-149.3625,-17.7253],[-149.3662,-17.7343],[-149.3718,-17.7387],[-149.3919,-17.7414],[-149.4504,-17.7592],[-149.472,-17.7605],[-149.4879,-17.758],[-149.5192,-17.7462],[-149.5761,-17.7376],[-149.5875,-17.7312],[-149.6051,-17.6718],[-149.6118,-17.663],[-149.6212,-17.6562],[-149.631,-17.6393],[-149.6387,-17.6189],[-149.6422,-17.6008],[-149.6328,-17.5534],[-149.6043,-17.5258],[-149.5641,-17.51],[-149.5192,-17.4985],[-149.475,-17.4941],[-149.4295,-17.5016],[-149.3876,-17.518],[-149.3541,-17.5401],[-149.3441,-17.5507],[-149.3356,-17.5641],[-149.3297,-17.5798],[-149.3275,-17.5978],[-149.3303,-17.6638],[-149.3275,-17.6842],[-149.3039,-17.7121],[-149.2633,-17.7228],[-149.1835,-17.7312]]],[[[-149.7967,-17.4645],[-149.7861,-17.4689],[-149.7856,-17.4792],[-149.8048,-17.5234],[-149.8225,-17.5497],[-149.8428,-17.5676],[-149.8619,-17.5668],[-149.8852,-17.5554],[-149.9141,-17.5353],[-149.9375,-17.5125],[-149.9444,-17.4924],[-149.9341,-17.4815],[-149.9155,-17.4736],[-149.8978,-17.4723],[-149.8898,-17.4815],[-149.8859,-17.4918],[-149.8776,-17.492],[-149.87,-17.4877],[-149.8681,-17.485],[-149.8602,-17.4832],[-149.8536,-17.4792],[-149.8458,-17.478],[-149.8346,-17.485],[-149.8317,-17.4728],[-149.8231,-17.4666],[-149.8109,-17.4646],[-149.7967,-17.4645]]]]}}]}