{"type":"FeatureCollection","features":[{"type":"Feature","properties":{"id":"QAT-1099","name":"Ad Dawhah","nameBn":"দোহা","type":"Municipality","bounds":[51.4293,25.1571,51.6111,25.3828],"center":[51.5282,25.2686]},"geometry":{"type":"MultiPolygon","coordinates":[[[[51.5157,25.3828],[51.512,25.3302],[51.5132,25.3083],[51.5188,25.2971],[51.5313,25.2922],[51.59,25.2838],[51.5991,25.2749],[51.6076,25.2551],[51.6111,25.2375],[51.6043,25.2383],[51.5739,25.2432],[51.5433,25.2182],[51.5255,25.2482],[51.5112,25.2601],[51.4451,25.3597],[51.5157,25.3828]]],[[[51.4936,25.18],[51.4766,25.1695],[51.4616,25.1571],[51.4293,25.197],[51.4527,25.2152],[51.4936,25.18]]]]}},{"type":"Feature","properties":{"id":"QAT-5487","name":"Al Daayen","nameBn":"আল দায়েন","type":"Municipality","bounds":[51.4006,25.3597,51.5359,25.6577],"center":[51.4671,25.4579]},"geometry":{"type":"Polygon","coordinates":[[[51.5359,25.6224],[51.5188,25.6187],[51.5051,25.612],[51.4983,25.6159],[51.4914,25.6182],[51.4937,25.5658],[51.4915,25.5506],[51.4914,25.5493],[51.4858,25.5405],[51.4776,25.5311],[51.4719,25.5214],[51.4743,25.5121],[51.511,25.4543],[51.5169,25.4402],[51.5188,25.4262],[51.5157,25.3828],[51.4451,25.3597],[51.4084,25.426],[51.4058,25.4963],[51.4006,25.5509],[51.4058,25.6108],[51.4527,25.6577],[51.5099,25.6368],[51.5359,25.6224]]]}},{"type":"Feature","properties":{"id":"QAT-1105","name":"Al Khawr","nameBn":"আল খোর","type":"Municipality","bounds":[50.9496,25.5509,51.5947,25.954],"center":[51.4212,25.7512]},"geometry":{"type":"Polygon","coordinates":[[[51.4165,25.9521],[51.4243,25.9509],[51.4675,25.954],[51.492,25.9519],[51.512,25.9461],[51.5295,25.9373],[51.5461,25.9261],[51.5594,25.9138],[51.5703,25.8984],[51.5775,25.8808],[51.5947,25.7719],[51.5945,25.7582],[51.5916,25.7466],[51.5835,25.7418],[51.5776,25.7451],[51.572,25.7595],[51.5633,25.7629],[51.5554,25.7587],[51.5483,25.7488],[51.5446,25.7374],[51.5461,25.7281],[51.555,25.7206],[51.5637,25.7216],[51.5703,25.7275],[51.574,25.7349],[51.5901,25.7119],[51.5768,25.6887],[51.5568,25.6816],[51.5529,25.7076],[51.5393,25.7039],[51.5051,25.6872],[51.5197,25.6817],[51.5349,25.6732],[51.5471,25.6632],[51.5529,25.653],[51.5495,25.6312],[51.5359,25.6224],[51.5099,25.6368],[51.4527,25.6577],[51.4058,25.6108],[51.4006,25.5509],[51.302,25.5512],[51.2874,25.5658],[51.2474,25.6189],[51.221,25.6798],[51.2136,25.7324],[51.1047,25.7324],[51.1047,25.7752],[50.9496,25.7753],[50.9637,25.7839],[50.973,25.7975],[50.9759,25.8138],[50.9724,25.8251],[50.9726,25.8252],[51.1039,25.8242],[51.1039,25.9283],[51.2445,25.9283],[51.2444,25.8994],[51.2973,25.8994],[51.2974,25.8675],[51.3457,25.8674],[51.3459,25.8291],[51.4168,25.8297],[51.4164,25.9481],[51.4165,25.9521]]]}},{"type":"Feature","properties":{"id":"QAT-1101","name":"Al Wakrah","nameBn":"আল ওয়াকরাহ","type":"Municipality","bounds":[51.221,24.5699,51.6165,25.2432],"center":[51.4743,24.9661]},"geometry":{"type":"Polygon","coordinates":[[[51.6111,25.2375],[51.6146,25.2198],[51.6165,25.1372],[51.6057,25.0342],[51.611,25.0224],[51.6023,25.0138],[51.5869,24.9534],[51.5741,24.9344],[51.5394,24.8989],[51.5288,24.8744],[51.5208,24.8706],[51.5117,24.8679],[51.5051,24.8641],[51.5003,24.8554],[51.4742,24.7645],[51.4728,24.7594],[51.4675,24.7487],[51.4558,24.7407],[51.4504,24.7217],[51.4436,24.6798],[51.4304,24.6645],[51.39,24.6425],[51.3815,24.6351],[51.3762,24.6119],[51.3635,24.5963],[51.3498,24.5838],[51.3406,24.5699],[51.3289,24.5848],[51.3327,24.5989],[51.3416,24.6147],[51.3469,24.6351],[51.3391,24.6462],[51.3211,24.6482],[51.286,24.645],[51.2844,24.6625],[51.2781,24.663],[51.2679,24.6562],[51.2546,24.6518],[51.237,24.6501],[51.221,24.6442],[51.221,25.0096],[51.333,25.0096],[51.3318,25.0899],[51.4035,25.0608],[51.4226,25.0947],[51.4382,25.1378],[51.4616,25.1571],[51.4766,25.1695],[51.4936,25.18],[51.5183,25.1952],[51.5433,25.2182],[51.5739,25.2432],[51.6043,25.2383],[51.6111,25.2375]]]}},{"type":"Feature","properties":{"id":"QAT-1100","name":"Ar Rayyān","nameBn":"আল রায়য়ান পৌরসভা","type":"Municipality","bounds":[50.751,24.5599,51.5433,25.8106],"center":[51.1605,25.1648]},"geometry":{"type":"Polygon","coordinates":[[[51.0389,24.5599],[50.9789,24.5677],[50.9286,24.5872],[50.881,24.6364],[50.8079,24.7466],[50.8267,24.7487],[50.8528,24.77],[50.8596,24.7956],[50.8511,24.8908],[50.8428,24.9161],[50.8,24.9888],[50.7966,25.0036],[50.8074,25.0316],[50.8097,25.0512],[50.8086,25.0692],[50.8024,25.077],[50.7757,25.0919],[50.7684,25.1258],[50.7669,25.1626],[50.7578,25.1862],[50.765,25.2043],[50.7634,25.2253],[50.759,25.2475],[50.7578,25.2694],[50.7658,25.3236],[50.7651,25.3445],[50.751,25.4196],[50.7625,25.4627],[50.7638,25.4824],[50.751,25.4947],[50.778,25.527],[50.7971,25.5299],[50.8085,25.5172],[50.8116,25.4989],[50.8205,25.4913],[50.8205,25.4718],[50.8472,25.4674],[50.8313,25.5078],[50.8279,25.5251],[50.8267,25.5431],[50.8286,25.5543],[50.8322,25.5661],[50.8329,25.5785],[50.8267,25.5909],[50.8185,25.5958],[50.7966,25.5996],[50.785,25.6046],[50.7964,25.6173],[50.8096,25.6206],[50.8235,25.6221],[50.8369,25.6288],[50.8402,25.6345],[50.8465,25.6498],[50.8506,25.653],[50.8572,25.6508],[50.8635,25.6414],[50.8709,25.6393],[50.8762,25.6318],[50.8743,25.6149],[50.8677,25.5878],[50.8677,25.567],[50.8687,25.5596],[50.8767,25.5406],[50.8815,25.5351],[50.8887,25.5295],[50.8987,25.5322],[50.9007,25.5349],[50.9001,25.5397],[50.9041,25.5631],[50.9048,25.5871],[50.9092,25.5977],[50.9206,25.6083],[50.9275,25.6052],[50.9357,25.5983],[50.9496,25.5977],[50.9559,25.6047],[50.9699,25.6339],[50.9776,25.6461],[50.9499,25.6365],[50.9243,25.6323],[50.9032,25.6401],[50.8887,25.6667],[50.8875,25.6809],[50.8949,25.7281],[50.8973,25.7326],[50.907,25.7399],[50.9092,25.7451],[50.908,25.7493],[50.9028,25.7553],[50.9017,25.7595],[50.9017,25.7895],[50.9155,25.7864],[50.9203,25.7944],[50.9236,25.8052],[50.9329,25.8106],[50.9397,25.8072],[50.9456,25.7985],[50.9492,25.787],[50.9496,25.7753],[51.1047,25.7752],[51.1047,25.7324],[51.2136,25.7324],[51.221,25.6798],[51.2474,25.6189],[51.2874,25.5658],[51.2871,25.4866],[51.3043,25.3844],[51.3827,25.3789],[51.4451,25.3597],[51.5112,25.2601],[51.5255,25.2482],[51.5433,25.2182],[51.5183,25.1952],[51.4936,25.18],[51.4527,25.2152],[51.4293,25.197],[51.4616,25.1571],[51.4382,25.1378],[51.4226,25.0947],[51.4035,25.0608],[51.3318,25.0899],[51.333,25.0096],[51.221,25.0096],[51.221,24.6442],[51.2126,24.6337],[51.2149,24.6272],[51.2153,24.6258],[51.1475,24.5763],[51.0955,24.5602],[51.0389,24.5599]]]}},{"type":"Feature","properties":{"id":"QAT-1106","name":"Madinat ach Shamal","nameBn":"মাদিনাত আস শামাল","type":"Municipality","bounds":[50.9494,25.8237,51.4168,26.1601],"center":[51.1832,26.0095]},"geometry":{"type":"Polygon","coordinates":[[[50.9724,25.8251],[50.9707,25.8305],[50.9639,25.8237],[50.9494,25.838],[50.9512,25.8593],[50.9773,25.9164],[50.9815,25.9359],[50.9842,25.9813],[50.9925,25.9757],[50.9956,25.9728],[50.9985,25.967],[51.0047,25.967],[51.0274,26.0269],[51.0474,26.053],[51.0759,26.0639],[51.0911,26.067],[51.1331,26.0821],[51.1419,26.0878],[51.1472,26.1031],[51.1706,26.1246],[51.1761,26.1396],[51.1943,26.1335],[51.2149,26.1394],[51.2512,26.1601],[51.3307,26.1212],[51.3469,26.1049],[51.3485,26.0856],[51.3464,26.0607],[51.3472,26.039],[51.3577,26.0297],[51.3766,26.0229],[51.3825,26.0062],[51.3835,25.9856],[51.3884,25.967],[51.404,25.9541],[51.4165,25.9521],[51.4164,25.9481],[51.4168,25.8297],[51.3459,25.8291],[51.3457,25.8674],[51.2974,25.8675],[51.2973,25.8994],[51.2444,25.8994],[51.2445,25.9283],[51.1039,25.9283],[51.1039,25.8242],[50.9726,25.8252],[50.9724,25.8251]]]}},{"type":"Feature","properties":{"id":"QAT-1107","name":"Umm Salal","nameBn":"উম্ম সালাল পৌরসভা","type":"Municipality","bounds":[51.2871,25.3597,51.4451,25.5658],"center":[51.3552,25.4594]},"geometry":{"type":"Polygon","coordinates":[[[51.2874,25.5658],[51.302,25.5512],[51.4006,25.5509],[51.4058,25.4963],[51.4084,25.426],[51.4451,25.3597],[51.3827,25.3789],[51.3043,25.3844],[51.2871,25.4866],[51.2874,25.5658]]]}}]}