{"type":"FeatureCollection","features":[{"type":"Feature","properties":{"id":"SDS-865","name":"Central Equatoria","nameBn":"সেন্টাল নিরক্ষীয়তা","type":"State","bounds":[29.7762,3.4902,32.3347,6.1944],"center":[31.2854,4.6814]},"geometry":{"type":"Polygon","coordinates":[[[29.8149,4.3468],[29.7878,4.3688],[29.7762,4.4056],[29.7768,4.4493],[29.7857,4.4794],[29.787,4.4897],[29.7854,4.4986],[29.7785,4.5151],[29.7777,4.5239],[29.7837,4.5338],[29.7883,4.5394],[29.8166,4.5551],[30.0003,4.698],[30.0381,4.7395],[30.0623,4.7613],[30.085,4.7771],[30.1108,4.7875],[30.132,4.7921],[30.1576,4.7909],[30.1801,4.7826],[30.2023,4.7672],[30.2669,4.7078],[30.2923,4.6927],[30.3179,4.6867],[30.35,4.6921],[30.3853,4.7097],[30.5174,4.8386],[30.5631,4.873],[30.6773,4.9311],[30.8162,4.9764],[30.8384,4.9893],[30.8504,5.0002],[30.8563,5.0107],[30.8597,5.0236],[30.8631,5.0441],[30.8787,5.3397],[30.8891,5.3887],[30.9066,5.4317],[30.9527,5.5019],[30.9639,5.538],[30.9602,5.5806],[30.9378,5.6298],[30.908,5.6805],[30.8354,5.7481],[30.7778,5.7872],[30.7572,5.8105],[30.7299,5.8568],[30.706,5.8877],[30.6663,5.9257],[30.5559,6.0098],[30.4352,6.1203],[30.6565,6.1388],[30.7459,6.1567],[30.8191,6.1944],[30.87,6.1927],[31.0561,6.0354],[31.1779,5.9828],[31.5172,5.9212],[31.5838,5.8856],[31.6206,5.8817],[31.6715,5.9265],[32.2082,5.8963],[32.1834,5.7846],[32.1924,5.1566],[32.2155,5.0683],[32.2296,5.0293],[32.3097,4.891],[32.3249,4.8562],[32.3347,4.8201],[32.3333,4.7888],[32.322,4.7552],[32.3021,4.7173],[32.2445,4.6333],[32.1516,4.4302],[32.1144,4.2822],[32.0948,4.2419],[32.0706,4.2106],[32.037,4.1778],[31.9328,4.1034],[31.9137,4.081],[31.8949,4.0446],[31.8288,3.8626],[31.8044,3.8237],[31.8011,3.8066],[31.8011,3.8065],[31.781,3.8158],[31.7779,3.8164],[31.7757,3.8107],[31.6961,3.7213],[31.6868,3.7128],[31.6685,3.705],[31.6139,3.697],[31.5648,3.6898],[31.5472,3.681],[31.5355,3.6664],[31.5345,3.6656],[31.5237,3.6561],[31.5054,3.6599],[31.3777,3.7293],[31.295,3.7742],[31.2557,3.7867],[31.2148,3.7924],[31.1676,3.7924],[31.1415,3.7851],[31.1044,3.7562],[31.0777,3.7353],[31.0687,3.7317],[31.0497,3.728],[31.0404,3.7242],[31.0096,3.6998],[30.996,3.6935],[30.9858,3.6921],[30.966,3.6926],[30.9555,3.689],[30.9444,3.6793],[30.9394,3.6684],[30.9363,3.6569],[30.9317,3.6451],[30.8657,3.549],[30.8438,3.5059],[30.8395,3.4902],[30.8277,3.5111],[30.8377,3.5627],[30.8232,3.5804],[30.7921,3.5927],[30.7791,3.6026],[30.7723,3.6176],[30.7692,3.6518],[30.7651,3.6617],[30.7469,3.6749],[30.7313,3.6635],[30.7146,3.6438],[30.6934,3.6319],[30.6654,3.6321],[30.6538,3.6306],[30.6365,3.6241],[30.6049,3.6067],[30.5924,3.6035],[30.5726,3.601],[30.5622,3.6014],[30.5535,3.6045],[30.543,3.6129],[30.5434,3.6179],[30.5493,3.6241],[30.5549,3.6364],[30.5622,3.6753],[30.5629,3.6949],[30.5389,3.8415],[30.5252,3.8675],[30.5155,3.8708],[30.5055,3.8698],[30.4955,3.8671],[30.4859,3.8656],[30.4657,3.8661],[30.4568,3.8676],[30.4189,3.8797],[30.3379,3.9279],[30.2709,3.9495],[30.2059,3.9504],[30.1894,3.9561],[30.1821,3.9655],[30.1805,3.9756],[30.1804,3.9862],[30.1781,3.9971],[30.1716,4.0082],[30.1475,4.0367],[30.1385,4.0597],[30.133,4.0828],[30.1227,4.1025],[30.0998,4.1151],[30.0578,4.1237],[30.0429,4.1331],[30.0279,4.1544],[30.0048,4.1993],[29.9894,4.2178],[29.966,4.2318],[29.9542,4.2338],[29.9426,4.2338],[29.9322,4.2362],[29.9241,4.2456],[29.9232,4.2578],[29.9293,4.2684],[29.9369,4.2783],[29.9401,4.2883],[29.9303,4.3087],[29.9085,4.3292],[29.8827,4.344],[29.8607,4.3473],[29.8149,4.3468]]]}},{"type":"Feature","properties":{"id":"SDS-892","name":"Eastern Equatoria","nameBn":"ইস্টার্ন ইকুয়েটারিয়া","type":"State","bounds":[31.8011,3.5118,35.9208,6.0081],"center":[33.5351,4.7964]},"geometry":{"type":"Polygon","coordinates":[[[35.2693,5.4918],[35.2736,5.4799],[35.2676,5.4686],[35.259,5.4581],[35.2518,5.4474],[35.2507,5.4351],[35.2546,5.4259],[35.2875,5.3741],[35.3024,5.3574],[35.3208,5.3487],[35.345,5.3524],[35.3675,5.368],[35.4082,5.4126],[35.4302,5.4272],[35.4482,5.4308],[35.4693,5.4308],[35.4902,5.428],[35.508,5.4234],[35.5308,5.4101],[35.5739,5.3753],[35.5982,5.3687],[35.6219,5.3738],[35.6398,5.3821],[35.6583,5.3864],[35.6836,5.3796],[35.7494,5.3392],[35.8041,5.318],[35.8091,5.3091],[35.782,5.2699],[35.7753,5.2466],[35.7784,5.2271],[35.7983,5.1893],[35.8071,5.1653],[35.8074,5.1447],[35.7992,5.1246],[35.7609,5.0763],[35.7559,5.0634],[35.7516,4.8544],[35.76,4.8057],[35.7845,4.7642],[35.9208,4.6193],[35.8565,4.6196],[35.7812,4.6199],[35.7784,4.6783],[35.7394,4.6811],[35.7115,4.6616],[35.7059,4.62],[35.7058,4.6194],[35.7058,4.6193],[35.7004,4.5891],[35.6121,4.6195],[35.6106,4.62],[35.6102,4.6208],[35.5626,4.7071],[35.5222,4.7805],[35.5708,4.9043],[35.4956,4.9264],[35.3961,4.9264],[35.4337,5.0038],[35.4116,5.0304],[35.3336,4.9873],[35.2634,4.9485],[35.2457,4.9817],[35.1762,4.9556],[35.0943,4.9248],[35.0027,4.8903],[34.9208,4.8595],[34.8448,4.8309],[34.7636,4.8004],[34.6663,4.765],[34.5982,4.7309],[34.5292,4.6964],[34.4597,4.6606],[34.3812,4.6202],[34.2801,4.5201],[34.1791,4.4199],[34.0782,4.3198],[33.9771,4.2197],[33.896,4.1384],[33.8137,4.056],[33.7019,3.9441],[33.6062,3.8481],[33.5326,3.7743],[33.5277,3.7714],[33.4906,3.7497],[33.4473,3.7444],[33.2865,3.7525],[33.2637,3.7537],[33.1954,3.7571],[33.1645,3.7631],[33.1435,3.7741],[33.0172,3.8772],[32.9972,3.8855],[32.9796,3.8792],[32.9189,3.8342],[32.8404,3.7943],[32.7564,3.769],[32.5993,3.7563],[32.4156,3.7413],[32.3718,3.7311],[32.1878,3.6192],[32.1759,3.6056],[32.1749,3.5926],[32.1792,3.5569],[32.179,3.5414],[32.1759,3.5272],[32.1746,3.5209],[32.168,3.5122],[32.1558,3.5118],[32.093,3.5245],[32.0762,3.5332],[32.0609,3.549],[32.0542,3.5596],[32.0415,3.5799],[32.0302,3.5859],[32.0222,3.5864],[31.9437,3.5913],[31.93,3.5984],[31.9231,3.6153],[31.92,3.6613],[31.9163,3.6803],[31.9019,3.7043],[31.8307,3.7839],[31.807,3.8037],[31.8011,3.8065],[31.8011,3.8066],[31.8044,3.8237],[31.8288,3.8626],[31.8949,4.0446],[31.9137,4.081],[31.9328,4.1034],[32.037,4.1778],[32.0706,4.2106],[32.0948,4.2419],[32.1144,4.2822],[32.1516,4.4302],[32.2445,4.6333],[32.3021,4.7173],[32.322,4.7552],[32.3333,4.7888],[32.3347,4.8201],[32.3249,4.8562],[32.3097,4.891],[32.2296,5.0293],[32.2155,5.0683],[32.1924,5.1566],[32.1834,5.7846],[32.2082,5.8963],[34.1881,5.7755],[34.9677,6.0081],[34.968,6.0081],[34.9698,5.9967],[34.9592,5.9755],[34.9557,5.9642],[34.9553,5.9526],[34.9604,5.9417],[34.9768,5.924],[34.9799,5.9128],[34.9777,5.8987],[34.9745,5.8872],[34.9727,5.8763],[34.9744,5.8631],[34.9844,5.841],[35.0653,5.7264],[35.0795,5.6998],[35.0882,5.6418],[35.0987,5.6225],[35.1433,5.5897],[35.2234,5.543],[35.262,5.5119],[35.2693,5.4918]]]}},{"type":"Feature","properties":{"id":"SDS-870","name":"Jonglei","nameBn":"জংলি","type":"State","bounds":[30.1913,5.7755,34.968,9.5402],"center":[32.5795,7.2461]},"geometry":{"type":"Polygon","coordinates":[[[33.0076,7.9441],[33.0068,7.9425],[32.9936,7.9281],[32.9898,7.9172],[33.015,7.8506],[33.0235,7.8351],[33.0408,7.8248],[33.0446,7.8164],[33.0477,7.8073],[33.0513,7.8011],[33.0583,7.798],[33.0854,7.795],[33.1075,7.7852],[33.1209,7.7833],[33.1269,7.7916],[33.1321,7.7939],[33.1645,7.8011],[33.1729,7.7996],[33.2015,7.7882],[33.2339,7.7832],[33.2424,7.7807],[33.2578,7.7674],[33.2735,7.7492],[33.2916,7.7331],[33.3471,7.719],[33.3598,7.7193],[33.3844,7.7354],[33.3933,7.7397],[33.4365,7.7486],[33.4623,7.7495],[33.4795,7.7431],[33.4885,7.7362],[33.5068,7.7309],[33.5168,7.7261],[33.5265,7.7171],[33.5404,7.6989],[33.5509,7.6913],[33.5723,7.6852],[33.6372,7.6913],[33.6477,7.6886],[33.675,7.6709],[33.7066,7.6619],[33.7161,7.6572],[33.7294,7.6421],[33.7611,7.5981],[33.8115,7.561],[33.8214,7.5584],[33.8421,7.5559],[33.8525,7.5535],[33.8824,7.5361],[34.0065,7.4099],[34.0237,7.3824],[34.0306,7.3487],[34.0311,7.2554],[34.0336,7.2503],[34.04,7.2473],[34.0859,7.2115],[34.1132,7.1775],[34.1324,7.1634],[34.1511,7.1675],[34.1678,7.1754],[34.1814,7.1672],[34.1909,7.1495],[34.1958,7.129],[34.1958,7.0977],[34.1958,7.087],[34.1983,7.0644],[34.206,7.0545],[34.2138,7.052],[34.22,7.0461],[34.2299,7.0334],[34.2708,7.0034],[34.2757,6.9974],[34.2807,6.9801],[34.2877,6.9753],[34.2945,6.9722],[34.2976,6.9686],[34.4392,6.9349],[34.5037,6.89],[34.5123,6.8768],[34.5191,6.8616],[34.5233,6.8442],[34.5247,6.8246],[34.5226,6.8218],[34.5133,6.8153],[34.5111,6.8143],[34.5121,6.8083],[34.5167,6.7981],[34.5179,6.7938],[34.5247,6.7529],[34.5363,6.7431],[34.554,6.7393],[34.5967,6.7392],[34.6185,6.7365],[34.6355,6.7298],[34.7035,6.6849],[34.7096,6.674],[34.7145,6.6557],[34.7266,6.6419],[34.7335,6.6376],[34.7435,6.5968],[34.7539,6.5564],[34.7761,6.4994],[34.7843,6.4418],[34.7927,6.4217],[34.8326,6.3535],[34.839,6.3276],[34.8398,6.2687],[34.8447,6.2487],[34.88,6.1876],[34.8989,6.1387],[34.9155,6.1197],[34.9344,6.1024],[34.9515,6.0812],[34.9594,6.0617],[34.968,6.0081],[34.9677,6.0081],[34.1881,5.7755],[32.2082,5.8963],[31.6715,5.9265],[31.6657,5.942],[31.6588,5.942],[31.6523,5.9379],[31.6464,5.9375],[31.6376,5.9459],[31.6285,5.9581],[31.6214,5.9711],[31.6184,5.9819],[31.6155,6.0019],[31.585,6.08],[31.5751,6.0959],[31.5636,6.1097],[31.5532,6.1157],[31.5415,6.1266],[31.5328,6.1515],[31.5222,6.1976],[31.4983,6.2486],[31.494,6.2884],[31.4898,6.3065],[31.4833,6.3226],[31.475,6.3354],[31.4108,6.4119],[31.3993,6.4378],[31.3959,6.4802],[31.3898,6.4989],[31.3754,6.5067],[31.3572,6.5099],[31.345,6.5193],[31.3369,6.5343],[31.331,6.5545],[31.3242,6.6011],[31.3182,6.6217],[31.3068,6.6302],[31.3001,6.6339],[31.2983,6.6425],[31.2973,6.6526],[31.2932,6.6606],[31.2622,6.6911],[31.2544,6.7087],[31.2496,6.7265],[31.2418,6.7402],[31.2246,6.7457],[31.212,6.7515],[31.2023,6.7652],[31.187,6.7941],[31.164,6.8176],[31.1485,6.8298],[31.1287,6.8375],[31.1217,6.8436],[31.1076,6.8593],[31.1001,6.8643],[31.0827,6.872],[31.0772,6.876],[31.0734,6.8852],[31.0697,6.9074],[31.0635,6.9176],[31.053,6.9237],[31.0284,6.9292],[31.0185,6.9347],[31.0041,6.9451],[30.9708,6.9604],[30.9031,7.0166],[30.8955,7.0203],[30.8702,7.026],[30.8615,7.0269],[30.8526,7.0289],[30.8464,7.0339],[30.8191,7.0728],[30.8157,7.0808],[30.8128,7.0876],[30.8102,7.1063],[30.803,7.1179],[30.7551,7.1435],[30.7345,7.1709],[30.7218,7.1802],[30.7167,7.1858],[30.7122,7.2172],[30.7057,7.2297],[30.6967,7.2414],[30.6867,7.2608],[30.6799,7.2875],[30.6633,7.3064],[30.6568,7.322],[30.652,7.3627],[30.6421,7.3828],[30.6109,7.4159],[30.6042,7.4346],[30.6012,7.4477],[30.5937,7.45],[30.5847,7.4492],[30.5769,7.4526],[30.5762,7.4569],[30.578,7.4687],[30.5769,7.4725],[30.5657,7.4825],[30.5626,7.4862],[30.5578,7.4894],[30.5473,7.4989],[30.5403,7.5088],[30.5462,7.5135],[30.5584,7.5144],[30.5657,7.518],[30.5691,7.5255],[30.5701,7.5377],[30.5668,7.5565],[30.5581,7.5755],[30.546,7.5902],[30.5233,7.6001],[30.5223,7.6099],[30.5236,7.6212],[30.5223,7.6302],[30.5157,7.6366],[30.4999,7.6486],[30.4943,7.6575],[30.4963,7.6658],[30.5041,7.6719],[30.5096,7.6785],[30.5015,7.697],[30.5093,7.7424],[30.5127,7.7483],[30.5174,7.7526],[30.5223,7.7605],[30.5278,7.7671],[30.5347,7.7737],[30.5369,7.7807],[30.5285,7.7884],[30.5285,7.7953],[30.5361,7.7962],[30.5404,7.7977],[30.5441,7.7995],[30.5496,7.8015],[30.5304,7.8074],[30.5223,7.8077],[30.5223,7.8151],[30.5362,7.8243],[30.5294,7.8309],[30.5156,7.8374],[30.508,7.8459],[30.508,7.8738],[30.5058,7.881],[30.4965,7.8872],[30.486,7.9229],[30.4261,7.9933],[30.4374,8.0025],[30.4255,8.0213],[30.4055,8.0434],[30.3925,8.0621],[30.3913,8.0761],[30.3922,8.0912],[30.3914,8.1052],[30.3845,8.1161],[30.3724,8.117],[30.3597,8.1117],[30.351,8.1122],[30.3509,8.1304],[30.3248,8.1185],[30.3111,8.1497],[30.3078,8.1918],[30.3131,8.213],[30.3294,8.2182],[30.3272,8.2297],[30.3198,8.2413],[30.3202,8.2465],[30.3382,8.253],[30.3371,8.2683],[30.3168,8.3011],[30.3242,8.3041],[30.3441,8.3154],[30.3379,8.3257],[30.3332,8.354],[30.3237,8.3638],[30.3305,8.3911],[30.3356,8.3963],[30.3424,8.4],[30.3484,8.405],[30.354,8.432],[30.3591,8.446],[30.3601,8.4603],[30.3509,8.4793],[30.3472,8.4803],[30.3346,8.4784],[30.3305,8.4793],[30.3296,8.4835],[30.3315,8.4963],[30.3305,8.5004],[30.3013,8.5198],[30.2963,8.5243],[30.2931,8.5349],[30.2785,8.5497],[30.2752,8.5587],[30.2786,8.5715],[30.2842,8.5819],[30.2853,8.5901],[30.2752,8.5966],[30.2751,8.5932],[30.2757,8.5862],[30.2752,8.5829],[30.269,8.5829],[30.2695,8.5951],[30.2724,8.6077],[30.2771,8.62],[30.2827,8.6307],[30.3021,8.6556],[30.3098,8.6703],[30.3094,8.6853],[30.3036,8.6932],[30.2966,8.6956],[30.2894,8.6964],[30.2827,8.699],[30.2428,8.736],[30.2345,8.7469],[30.2274,8.7604],[30.2399,8.7701],[30.2501,8.7811],[30.2542,8.794],[30.2485,8.8088],[30.2411,8.802],[30.2356,8.8182],[30.237,8.8529],[30.2349,8.8703],[30.2305,8.8786],[30.2184,8.8902],[30.2138,8.8982],[30.2128,8.9044],[30.2139,8.9181],[30.2138,8.9255],[30.2101,8.9411],[30.1984,8.9615],[30.1933,8.9733],[30.1913,8.9905],[30.194,9.0066],[30.1997,9.0199],[30.207,9.0286],[30.2132,9.0311],[30.2296,9.0337],[30.2349,9.0354],[30.2526,9.0536],[30.2548,9.0553],[30.2563,9.0608],[30.259,9.0775],[30.2616,9.0832],[30.2671,9.0869],[30.2813,9.0916],[30.2889,9.0962],[30.2999,9.108],[30.304,9.1186],[30.3094,9.1515],[30.3189,9.1697],[30.3325,9.1796],[30.3469,9.1876],[30.3584,9.1999],[30.3514,9.2072],[30.3538,9.2129],[30.36,9.2187],[30.3646,9.2266],[30.3646,9.2917],[30.3623,9.3066],[30.356,9.312],[30.3472,9.315],[30.3373,9.3228],[30.3249,9.3478],[30.3362,9.3576],[30.3548,9.3646],[30.3646,9.3811],[30.3695,9.4036],[30.3809,9.4172],[30.3944,9.4274],[30.4049,9.4395],[30.4162,9.4718],[30.425,9.483],[30.4431,9.4873],[30.457,9.4923],[30.4682,9.504],[30.4781,9.5176],[30.4881,9.5282],[30.5049,9.5364],[30.5234,9.5402],[30.6458,9.5351],[30.7736,9.5049],[30.8165,9.5003],[30.8959,9.5003],[30.9114,9.5035],[30.9241,9.5101],[30.9386,9.5177],[30.9598,9.5146],[31.0042,9.4995],[31.125,9.4326],[31.2832,9.3917],[31.3281,9.3865],[31.3493,9.38],[31.3583,9.3675],[31.3663,9.3596],[31.3846,9.3517],[31.4051,9.3457],[31.4198,9.3433],[31.4642,9.3491],[31.5098,9.3645],[31.5138,9.3667],[31.5211,9.3663],[31.5265,9.3637],[31.5387,9.3526],[31.8709,8.9126],[31.9045,8.8832],[31.9451,8.8673],[31.9834,8.8682],[32.0156,8.8763],[32.1489,8.94],[32.2709,9.0143],[32.2953,9.0255],[32.3182,9.0319],[32.3373,9.0314],[32.3572,9.0185],[32.3772,8.9934],[32.4127,8.9227],[32.4302,8.8784],[32.608,8.569],[32.6657,8.4995],[32.7512,8.4268],[32.8562,8.3769],[32.8809,8.355],[32.8961,8.323],[32.9009,8.2741],[32.8972,8.2333],[32.889,8.192],[32.8756,8.1545],[32.8447,8.0895],[32.8381,8.0614],[32.841,8.0337],[32.8652,8.0106],[32.8874,7.9957],[33.0061,7.9446],[33.0072,7.9442],[33.0076,7.9441]]]}},{"type":"Feature","properties":{"id":"SDS-863","name":"Lakes","nameBn":"লেকস","type":"State","bounds":[28.6023,5.698,31.6715,7.8212],"center":[30.1369,6.8802]},"geometry":{"type":"Polygon","coordinates":[[[29.6986,7.8212],[29.8514,7.8091],[29.8684,7.8053],[29.8848,7.7973],[29.8961,7.7835],[30.2149,7.1295],[30.3323,7.0925],[30.8157,7.0808],[30.8191,7.0728],[30.8464,7.0339],[30.8526,7.0289],[30.8615,7.0269],[30.8702,7.026],[30.8955,7.0203],[30.9031,7.0166],[30.9708,6.9604],[31.0041,6.9451],[31.0185,6.9347],[31.0284,6.9292],[31.053,6.9237],[31.0635,6.9176],[31.0697,6.9074],[31.0734,6.8852],[31.0772,6.876],[31.0827,6.872],[31.1001,6.8643],[31.1076,6.8593],[31.1217,6.8436],[31.1287,6.8375],[31.1485,6.8298],[31.164,6.8176],[31.187,6.7941],[31.2023,6.7652],[31.212,6.7515],[31.2246,6.7457],[31.2418,6.7402],[31.2496,6.7265],[31.2544,6.7087],[31.2622,6.6911],[31.2932,6.6606],[31.2973,6.6526],[31.2983,6.6425],[31.3001,6.6339],[31.3068,6.6302],[31.3182,6.6217],[31.3242,6.6011],[31.331,6.5545],[31.3369,6.5343],[31.345,6.5193],[31.3572,6.5099],[31.3754,6.5067],[31.3898,6.4989],[31.3959,6.4802],[31.3993,6.4378],[31.4108,6.4119],[31.475,6.3354],[31.4833,6.3226],[31.4898,6.3065],[31.494,6.2884],[31.4983,6.2486],[31.5222,6.1976],[31.5328,6.1515],[31.5415,6.1266],[31.5532,6.1157],[31.5636,6.1097],[31.5751,6.0959],[31.585,6.08],[31.6155,6.0019],[31.6184,5.9819],[31.6214,5.9711],[31.6285,5.9581],[31.6376,5.9459],[31.6464,5.9375],[31.6523,5.9379],[31.6588,5.942],[31.6657,5.942],[31.6715,5.9265],[31.6206,5.8817],[31.5838,5.8856],[31.5172,5.9212],[31.1779,5.9828],[31.0561,6.0354],[30.87,6.1927],[30.8191,6.1944],[30.7459,6.1567],[30.6565,6.1388],[30.4352,6.1203],[30.3916,6.1728],[30.2892,6.378],[30.2555,6.4206],[30.2209,6.4542],[30.2017,6.4685],[30.1844,6.4766],[30.1401,6.471],[29.9376,6.4675],[29.9224,6.4571],[29.9105,6.4379],[29.9073,6.3514],[29.9181,6.2876],[29.9295,6.2487],[29.9292,6.2034],[29.9115,6.1054],[29.8933,6.0597],[29.8766,6.0324],[29.8387,5.997],[29.7686,5.9064],[29.7481,5.8687],[29.7161,5.7762],[29.7044,5.7287],[29.6546,5.6997],[29.5846,5.698],[29.1468,5.741],[29.1119,5.7509],[29.0778,5.7704],[29.0622,5.7909],[29.0441,5.8046],[29.0236,5.8169],[28.9957,5.8287],[28.9616,5.8385],[28.935,5.8624],[28.8618,5.9584],[28.8351,6.0012],[28.7756,6.0645],[28.7314,6.0891],[28.7044,6.1192],[28.688,6.1708],[28.6692,6.2082],[28.6298,6.2676],[28.6215,6.2916],[28.6183,6.322],[28.625,6.358],[28.615,6.4159],[28.6023,6.4475],[28.618,6.4821],[28.6108,6.5222],[28.6212,6.558],[28.615,6.6018],[28.6396,6.736],[28.7215,6.6728],[28.8017,6.6399],[28.8362,6.6346],[28.8694,6.6356],[28.905,6.6409],[28.9389,6.6493],[28.9727,6.663],[29.0031,6.6813],[29.0235,6.7083],[29.0346,6.7305],[29.1577,7.1315],[29.1757,7.1685],[29.2411,7.2633],[29.5692,7.6248],[29.6986,7.8212]]]}},{"type":"Feature","properties":{"id":"SDS-147","name":"Northern Bahr el Ghazal","nameBn":"নর্দান বাহ্র এল ঘেসাল","type":"State","bounds":[26.0702,7.8073,28.9997,9.9882],"center":[27.535,8.9038]},"geometry":{"type":"Polygon","coordinates":[[[27.8951,9.5954],[27.9971,9.3849],[28.0451,9.3314],[28.4438,9.328],[28.8425,9.3246],[28.8438,9.3245],[28.8449,9.324],[28.8578,9.3211],[28.865,9.3206],[28.8739,9.3175],[28.8799,9.3131],[28.8857,9.3121],[28.8919,9.3127],[28.9001,9.315],[28.9079,9.3165],[28.9152,9.3186],[28.9232,9.3164],[28.9314,9.3127],[28.9415,9.3113],[28.9508,9.3072],[28.9687,9.2973],[28.9766,9.2908],[28.9899,9.2779],[28.9997,9.2717],[28.9992,9.2674],[28.9957,9.2594],[28.9751,9.2425],[28.9527,9.2325],[28.9059,9.2174],[28.8855,9.1978],[28.8692,9.1671],[28.8449,9.0593],[28.834,9.0317],[28.4008,9.0003],[28.3986,8.9991],[28.3844,8.9924],[28.3745,8.9906],[28.3649,8.9908],[28.299,8.9985],[28.2887,9.0006],[28.118,9.0075],[28.0038,8.9969],[27.961,8.987],[27.9324,8.9741],[27.912,8.9585],[27.8915,8.9307],[27.871,8.8722],[27.8578,8.7199],[27.8446,8.6764],[27.8164,8.6226],[27.7864,8.5817],[27.7652,8.5379],[27.7001,8.2511],[27.5581,8.2138],[26.9575,7.9314],[26.8481,7.8574],[26.7857,7.8244],[26.7596,7.8144],[26.7348,7.8086],[26.707,7.8073],[26.6731,7.8122],[26.6327,7.8275],[26.3039,8.0407],[26.2453,8.0934],[26.1846,8.1789],[26.1486,8.2913],[26.1272,8.4284],[26.1234,8.5674],[26.0702,8.9053],[26.0736,9.5642],[26.107,9.9058],[26.1023,9.9882],[26.1026,9.9878],[26.1795,9.959],[26.3682,9.7397],[26.5569,9.5205],[26.6009,9.492],[26.6257,9.4807],[26.6836,9.476],[26.6943,9.4769],[27.0804,9.6068],[27.3392,9.6128],[27.3851,9.6048],[27.5281,9.6054],[27.6093,9.5952],[27.6151,9.5958],[27.6359,9.6014],[27.6415,9.6019],[27.7696,9.5833],[27.8684,9.5885],[27.8848,9.5914],[27.8951,9.5954]]]}},{"type":"Feature","properties":{"id":"SDS-871","name":"Unity","nameBn":"ইউনিটি","type":"State","bounds":[28.8274,7.0808,30.9499,10.2705],"center":[29.8883,8.9993]},"geometry":{"type":"Polygon","coordinates":[[[30.7791,9.7199],[30.793,9.728],[30.8048,9.7389],[30.8241,9.7462],[30.837,9.7494],[30.9499,9.7524],[30.9386,9.5177],[30.9241,9.5101],[30.9114,9.5035],[30.8959,9.5003],[30.8165,9.5003],[30.7736,9.5049],[30.6458,9.5351],[30.5234,9.5402],[30.5049,9.5364],[30.4881,9.5282],[30.4781,9.5176],[30.4682,9.504],[30.457,9.4923],[30.4431,9.4873],[30.425,9.483],[30.4162,9.4718],[30.4049,9.4395],[30.3944,9.4274],[30.3809,9.4172],[30.3695,9.4036],[30.3646,9.3811],[30.3548,9.3646],[30.3362,9.3576],[30.3249,9.3478],[30.3373,9.3228],[30.3472,9.315],[30.356,9.312],[30.3623,9.3066],[30.3646,9.2917],[30.3646,9.2266],[30.36,9.2187],[30.3538,9.2129],[30.3514,9.2072],[30.3584,9.1999],[30.3469,9.1876],[30.3325,9.1796],[30.3189,9.1697],[30.3094,9.1515],[30.304,9.1186],[30.2999,9.108],[30.2889,9.0962],[30.2813,9.0916],[30.2671,9.0869],[30.2616,9.0832],[30.259,9.0775],[30.2563,9.0608],[30.2548,9.0553],[30.2526,9.0536],[30.2349,9.0354],[30.2296,9.0337],[30.2132,9.0311],[30.207,9.0286],[30.1997,9.0199],[30.194,9.0066],[30.1913,8.9905],[30.1933,8.9733],[30.1984,8.9615],[30.2101,8.9411],[30.2138,8.9255],[30.2139,8.9181],[30.2128,8.9044],[30.2138,8.8982],[30.2184,8.8902],[30.2305,8.8786],[30.2349,8.8703],[30.237,8.8529],[30.2356,8.8182],[30.2411,8.802],[30.2485,8.8088],[30.2542,8.794],[30.2501,8.7811],[30.2399,8.7701],[30.2274,8.7604],[30.2345,8.7469],[30.2428,8.736],[30.2827,8.699],[30.2894,8.6964],[30.2966,8.6956],[30.3036,8.6932],[30.3094,8.6853],[30.3098,8.6703],[30.3021,8.6556],[30.2827,8.6307],[30.2771,8.62],[30.2724,8.6077],[30.2695,8.5951],[30.269,8.5829],[30.2752,8.5829],[30.2757,8.5862],[30.2751,8.5932],[30.2752,8.5966],[30.2853,8.5901],[30.2842,8.5819],[30.2786,8.5715],[30.2752,8.5587],[30.2785,8.5497],[30.2931,8.5349],[30.2963,8.5243],[30.3013,8.5198],[30.3305,8.5004],[30.3315,8.4963],[30.3296,8.4835],[30.3305,8.4793],[30.3346,8.4784],[30.3472,8.4803],[30.3509,8.4793],[30.3601,8.4603],[30.3591,8.446],[30.354,8.432],[30.3484,8.405],[30.3424,8.4],[30.3356,8.3963],[30.3305,8.3911],[30.3237,8.3638],[30.3332,8.354],[30.3379,8.3257],[30.3441,8.3154],[30.3242,8.3041],[30.3168,8.3011],[30.3371,8.2683],[30.3382,8.253],[30.3202,8.2465],[30.3198,8.2413],[30.3272,8.2297],[30.3294,8.2182],[30.3131,8.213],[30.3078,8.1918],[30.3111,8.1497],[30.3248,8.1185],[30.3509,8.1304],[30.351,8.1122],[30.3597,8.1117],[30.3724,8.117],[30.3845,8.1161],[30.3914,8.1052],[30.3922,8.0912],[30.3913,8.0761],[30.3925,8.0621],[30.4055,8.0434],[30.4255,8.0213],[30.4374,8.0025],[30.4261,7.9933],[30.486,7.9229],[30.4965,7.8872],[30.5058,7.881],[30.508,7.8738],[30.508,7.8459],[30.5156,7.8374],[30.5294,7.8309],[30.5362,7.8243],[30.5223,7.8151],[30.5223,7.8077],[30.5304,7.8074],[30.5496,7.8015],[30.5441,7.7995],[30.5404,7.7977],[30.5361,7.7962],[30.5285,7.7953],[30.5285,7.7884],[30.5369,7.7807],[30.5347,7.7737],[30.5278,7.7671],[30.5223,7.7605],[30.5174,7.7526],[30.5127,7.7483],[30.5093,7.7424],[30.5015,7.697],[30.5096,7.6785],[30.5041,7.6719],[30.4963,7.6658],[30.4943,7.6575],[30.4999,7.6486],[30.5157,7.6366],[30.5223,7.6302],[30.5236,7.6212],[30.5223,7.6099],[30.5233,7.6001],[30.546,7.5902],[30.5581,7.5755],[30.5668,7.5565],[30.5701,7.5377],[30.5691,7.5255],[30.5657,7.518],[30.5584,7.5144],[30.5462,7.5135],[30.5403,7.5088],[30.5473,7.4989],[30.5578,7.4894],[30.5626,7.4862],[30.5657,7.4825],[30.5769,7.4725],[30.578,7.4687],[30.5762,7.4569],[30.5769,7.4526],[30.5847,7.4492],[30.5937,7.45],[30.6012,7.4477],[30.6042,7.4346],[30.6109,7.4159],[30.6421,7.3828],[30.652,7.3627],[30.6568,7.322],[30.6633,7.3064],[30.6799,7.2875],[30.6867,7.2608],[30.6967,7.2414],[30.7057,7.2297],[30.7122,7.2172],[30.7167,7.1858],[30.7218,7.1802],[30.7345,7.1709],[30.7551,7.1435],[30.803,7.1179],[30.8102,7.1063],[30.8128,7.0876],[30.8157,7.0808],[30.3323,7.0925],[30.2149,7.1295],[29.8961,7.7835],[29.8848,7.7973],[29.8684,7.8053],[29.8514,7.8091],[29.6986,7.8212],[29.6623,8.4043],[29.653,8.4247],[29.6364,8.4464],[29.3507,8.6417],[29.0952,9.0295],[29.0388,9.0481],[28.834,9.0317],[28.8449,9.0593],[28.8692,9.1671],[28.8855,9.1978],[28.9059,9.2174],[28.9527,9.2325],[28.9751,9.2425],[28.9957,9.2594],[28.9992,9.2674],[28.9997,9.2717],[28.9899,9.2779],[28.9766,9.2908],[28.9687,9.2973],[28.9508,9.3072],[28.9415,9.3113],[28.9314,9.3127],[28.9232,9.3164],[28.9152,9.3186],[28.9079,9.3165],[28.9001,9.315],[28.8919,9.3127],[28.8857,9.3121],[28.8799,9.3131],[28.8739,9.3175],[28.865,9.3206],[28.8578,9.3211],[28.8449,9.324],[28.8438,9.3245],[28.8315,9.3492],[28.8274,9.3849],[28.8287,9.4275],[28.8493,9.4659],[28.9138,9.529],[28.9895,9.5871],[29.0095,9.6032],[29.1323,9.6677],[29.2524,9.7112],[29.4831,9.7617],[29.5673,9.8414],[29.6139,9.9145],[29.6154,10.0581],[29.6459,10.0817],[29.701,10.115],[29.9678,10.2433],[30.013,10.2705],[30.2488,10.1213],[30.4846,9.972],[30.7493,9.7358],[30.7653,9.7243],[30.7791,9.7199]]]}},{"type":"Feature","properties":{"id":"SDS-869","name":"Upper Nile","nameBn":"আপার নীল","type":"State","bounds":[30.9386,7.9441,34.1118,12.2162],"center":[32.5251,10.3577]},"geometry":{"type":"Polygon","coordinates":[[[34.1073,8.6015],[34.1032,8.5793],[34.0902,8.5565],[34.0696,8.5336],[33.9708,8.4454],[33.9503,8.4332],[33.9317,8.4281],[33.8752,8.4279],[33.8409,8.424],[33.8241,8.4195],[33.8081,8.4126],[33.7977,8.4056],[33.7562,8.3701],[33.7519,8.3688],[33.741,8.3671],[33.6955,8.3729],[33.6713,8.4003],[33.6517,8.4345],[33.6204,8.4607],[33.6001,8.464],[33.5854,8.4581],[33.5712,8.4501],[33.5521,8.4468],[33.5371,8.4532],[33.522,8.4653],[33.5051,8.4749],[33.4848,8.474],[33.4903,8.4665],[33.4899,8.4629],[33.4805,8.4576],[33.4131,8.4497],[33.4002,8.4526],[33.3921,8.4519],[33.3846,8.448],[33.3709,8.4374],[33.3614,8.4343],[33.2527,8.4582],[33.2352,8.4556],[33.2064,8.4306],[33.2074,8.4266],[33.2104,8.4208],[33.2029,8.4141],[33.1878,8.411],[33.1741,8.4045],[33.1695,8.3974],[33.1679,8.3897],[33.168,8.3728],[33.1668,8.3683],[33.1619,8.3615],[33.1612,8.3561],[33.1633,8.353],[33.1723,8.3465],[33.1741,8.3431],[33.1718,8.3309],[33.1631,8.3121],[33.1612,8.3046],[33.1644,8.2928],[33.1714,8.2831],[33.1784,8.2757],[33.1858,8.2645],[33.1949,8.2592],[33.2083,8.2537],[33.2069,8.2407],[33.1999,8.2355],[33.1905,8.2324],[33.1816,8.2257],[33.174,8.2146],[33.1699,8.2055],[33.1683,8.1954],[33.168,8.1814],[33.1711,8.176],[33.1847,8.1662],[33.1878,8.1609],[33.1851,8.1411],[33.1773,8.1271],[33.1648,8.1171],[33.1475,8.1091],[33.1175,8.1042],[33.1134,8.0991],[33.1113,8.0906],[33.1066,8.0805],[33.1006,8.071],[33.0439,8.0135],[33.0311,7.9963],[33.0261,7.9863],[33.0216,7.9653],[33.0168,7.9583],[33.012,7.9533],[33.0076,7.9441],[33.0072,7.9442],[33.0061,7.9446],[32.8874,7.9957],[32.8652,8.0106],[32.841,8.0337],[32.8381,8.0614],[32.8447,8.0895],[32.8756,8.1545],[32.889,8.192],[32.8972,8.2333],[32.9009,8.2741],[32.8961,8.323],[32.8809,8.355],[32.8562,8.3769],[32.7512,8.4268],[32.6657,8.4995],[32.608,8.569],[32.4302,8.8784],[32.4127,8.9227],[32.3772,8.9934],[32.3572,9.0185],[32.3373,9.0314],[32.3182,9.0319],[32.2953,9.0255],[32.2709,9.0143],[32.1489,8.94],[32.0156,8.8763],[31.9834,8.8682],[31.9451,8.8673],[31.9045,8.8832],[31.8709,8.9126],[31.5387,9.3526],[31.5265,9.3637],[31.5211,9.3663],[31.5138,9.3667],[31.5098,9.3645],[31.4642,9.3491],[31.4198,9.3433],[31.4051,9.3457],[31.3846,9.3517],[31.3663,9.3596],[31.3583,9.3675],[31.3493,9.38],[31.3281,9.3865],[31.2832,9.3917],[31.125,9.4326],[31.0042,9.4995],[30.9598,9.5146],[30.9386,9.5177],[30.9499,9.7524],[30.9502,9.7525],[31.1644,9.764],[31.2348,9.7923],[31.4498,10.0033],[31.6648,10.2142],[31.7742,10.3488],[31.802,10.3762],[31.8642,10.4721],[31.9299,10.6369],[31.9429,10.6556],[32.1785,10.8532],[32.4141,11.0509],[32.4307,11.0822],[32.4354,11.107],[32.3642,11.24],[32.3488,11.3076],[32.3457,11.4116],[32.3598,11.5735],[32.3549,11.6758],[32.353,11.6874],[32.3483,11.7032],[32.3452,11.7091],[32.0822,11.9998],[32.4144,12.0013],[32.7467,12.0027],[32.7482,12.0268],[32.7476,12.0395],[32.7456,12.0511],[32.733,12.086],[32.7257,12.1323],[32.7253,12.1453],[32.7262,12.1579],[32.7301,12.1819],[32.7304,12.1949],[32.7297,12.2011],[32.7285,12.2069],[32.7288,12.2119],[32.7318,12.2162],[33.2092,12.2104],[33.203,12.1281],[33.145,11.9347],[33.146,11.8187],[33.1324,11.6862],[33.129,11.6755],[33.116,11.6469],[33.1046,11.6306],[33.0914,11.6148],[33.0877,11.6089],[33.0832,11.5992],[33.0829,11.5846],[33.1325,11.2139],[33.1821,10.8432],[33.1784,10.8245],[33.1746,10.8123],[33.1482,10.766],[33.1414,10.7508],[33.14,10.739],[33.1507,10.731],[33.3706,10.6509],[33.3813,10.6458],[33.3898,10.6392],[33.469,10.5439],[33.6855,10.368],[33.9021,10.192],[33.917,10.1745],[33.9618,10.064],[33.9668,10.0473],[33.9683,10.0208],[33.9673,10.0003],[33.9561,9.934],[33.9598,9.9042],[33.9673,9.8845],[33.9733,9.8618],[33.9733,9.8549],[33.9724,9.8489],[33.9691,9.8383],[33.9049,9.7107],[33.8839,9.6199],[33.8777,9.5434],[33.8814,9.4992],[33.8887,9.4708],[33.892,9.4643],[33.8948,9.4595],[33.8978,9.4566],[33.9009,9.4553],[34.0707,9.4546],[34.0831,9.2051],[34.0975,8.9158],[34.1118,8.6266],[34.1073,8.6015]]]}},{"type":"Feature","properties":{"id":"SDS-872","name":"Warrap","nameBn":"ওয়ারর্যাপ","type":"State","bounds":[27.7001,6.6346,29.6986,9.0481],"center":[28.6994,7.8559]},"geometry":{"type":"Polygon","coordinates":[[[28.3745,8.9906],[28.3844,8.9924],[28.3986,8.9991],[28.4008,9.0003],[28.834,9.0317],[29.0388,9.0481],[29.0952,9.0295],[29.3507,8.6417],[29.6364,8.4464],[29.653,8.4247],[29.6623,8.4043],[29.6986,7.8212],[29.5692,7.6248],[29.2411,7.2633],[29.1757,7.1685],[29.1577,7.1315],[29.0346,6.7305],[29.0235,6.7083],[29.0031,6.6813],[28.9727,6.663],[28.9389,6.6493],[28.905,6.6409],[28.8694,6.6356],[28.8362,6.6346],[28.8017,6.6399],[28.7215,6.6728],[28.6396,6.736],[28.5994,6.965],[28.5902,7.0893],[28.6082,7.2465],[28.6105,7.4083],[28.6057,7.448],[28.5943,7.4723],[28.5548,7.5032],[28.5469,7.5225],[28.5511,7.5427],[28.562,7.5681],[28.5637,7.5944],[28.5496,7.6172],[28.517,7.6353],[28.4752,7.6503],[28.3488,7.7191],[28.2654,7.783],[28.1938,7.8272],[28.1447,7.8481],[27.9934,7.8739],[27.974,7.8818],[27.9595,7.8924],[27.9362,7.9148],[27.8736,7.9929],[27.7441,8.2046],[27.7001,8.2511],[27.7652,8.5379],[27.7864,8.5817],[27.8164,8.6226],[27.8446,8.6764],[27.8578,8.7199],[27.871,8.8722],[27.8915,8.9307],[27.912,8.9585],[27.9324,8.9741],[27.961,8.987],[28.0038,8.9969],[28.118,9.0075],[28.2887,9.0006],[28.299,8.9985],[28.3649,8.9908],[28.3745,8.9906]]]}},{"type":"Feature","properties":{"id":"SDS-873","name":"Western Bahr el Ghazal","nameBn":"ওয়েস্টার্ন বাহ্র এল ঘাজাল","type":"State","bounds":[24.1216,6.6314,28.6396,10.4206],"center":[26.3804,7.3113]},"geometry":{"type":"Polygon","coordinates":[[[24.2632,8.2685],[24.2571,8.2692],[24.2224,8.2772],[24.2066,8.2833],[24.18,8.2977],[24.1529,8.3179],[24.1314,8.3431],[24.1216,8.3723],[24.1252,8.4049],[24.1372,8.4389],[24.1932,8.5324],[24.2032,8.5435],[24.2437,8.5702],[24.2505,8.5796],[24.2456,8.5918],[24.2184,8.613],[24.2113,8.6271],[24.2151,8.6414],[24.2335,8.6678],[24.2358,8.682],[24.2177,8.6915],[24.1805,8.6907],[24.1703,8.6893],[24.1748,8.6956],[24.177,8.7099],[24.183,8.7179],[24.2406,8.7615],[24.2708,8.7757],[24.3801,8.8442],[24.4029,8.8489],[24.4938,8.8583],[24.5429,8.8747],[24.5528,8.8801],[24.5584,8.8867],[24.5584,8.9934],[24.5593,8.9999],[24.5654,9.0149],[24.656,9.1673],[24.6599,9.177],[24.661,9.1823],[24.6802,9.3734],[24.687,9.3914],[24.695,9.4029],[24.7239,9.4292],[24.7852,9.4975],[24.7925,9.5204],[24.7944,9.5322],[24.7927,9.7984],[24.7964,9.8189],[24.7998,9.8252],[24.8037,9.8292],[24.8073,9.83],[24.8168,9.8307],[24.8276,9.8327],[24.8363,9.8366],[24.8448,9.8417],[24.8793,9.8699],[24.9139,9.8907],[24.9269,9.9052],[24.9544,9.9422],[24.9679,9.956],[24.9763,9.9674],[24.985,9.9856],[24.9907,10.0031],[25.0169,10.0568],[25.0278,10.0862],[25.029,10.092],[25.0293,10.0982],[25.0287,10.1039],[25.0256,10.1142],[25.0174,10.133],[25.0158,10.138],[25.0136,10.1491],[25.0144,10.1574],[25.0171,10.168],[25.067,10.2749],[25.077,10.2869],[25.0841,10.2932],[25.0903,10.2958],[25.106,10.3004],[25.1206,10.3061],[25.1313,10.3083],[25.1569,10.3062],[25.1684,10.3081],[25.1926,10.3174],[25.1983,10.3176],[25.21,10.3161],[25.2166,10.317],[25.2256,10.3206],[25.2328,10.3223],[25.2396,10.323],[25.2515,10.321],[25.257,10.3192],[25.2671,10.3148],[25.2728,10.313],[25.2787,10.312],[25.2847,10.3119],[25.2902,10.3131],[25.2998,10.3167],[25.3054,10.3171],[25.3162,10.3156],[25.322,10.3157],[25.3274,10.3166],[25.346,10.3253],[25.3511,10.3268],[25.3629,10.3281],[25.3693,10.3282],[25.3813,10.3294],[25.3915,10.3327],[25.401,10.337],[25.4158,10.342],[25.4272,10.3441],[25.4393,10.3452],[25.4795,10.3438],[25.4908,10.3456],[25.5034,10.3492],[25.5065,10.3496],[25.5803,10.3753],[25.6233,10.3859],[25.6291,10.3867],[25.6614,10.387],[25.6841,10.3907],[25.7,10.395],[25.7057,10.396],[25.7459,10.3944],[25.754,10.3953],[25.7628,10.3977],[25.7838,10.4079],[25.8285,10.4195],[25.8393,10.4206],[25.8431,10.4178],[25.8865,10.3643],[25.8916,10.356],[25.8936,10.3513],[25.8949,10.3458],[25.9009,10.1911],[25.9028,10.1855],[25.9054,10.1813],[25.9119,10.1742],[25.9197,10.1679],[25.9557,10.1469],[25.9709,10.1403],[25.9981,10.1325],[26.0009,10.1311],[26.0072,10.126],[26.0108,10.1227],[26.0167,10.1149],[26.0764,10.0177],[26.0882,10.0028],[26.1023,9.9882],[26.107,9.9058],[26.0736,9.5642],[26.0702,8.9053],[26.1234,8.5674],[26.1272,8.4284],[26.1486,8.2913],[26.1846,8.1789],[26.2453,8.0934],[26.3039,8.0407],[26.6327,7.8275],[26.6731,7.8122],[26.707,7.8073],[26.7348,7.8086],[26.7596,7.8144],[26.7857,7.8244],[26.8481,7.8574],[26.9575,7.9314],[27.5581,8.2138],[27.7001,8.2511],[27.7441,8.2046],[27.8736,7.9929],[27.9362,7.9148],[27.9595,7.8924],[27.974,7.8818],[27.9934,7.8739],[28.1447,7.8481],[28.1938,7.8272],[28.2654,7.783],[28.3488,7.7191],[28.4752,7.6503],[28.517,7.6353],[28.5496,7.6172],[28.5637,7.5944],[28.562,7.5681],[28.5511,7.5427],[28.5469,7.5225],[28.5548,7.5032],[28.5943,7.4723],[28.6057,7.448],[28.6105,7.4083],[28.6082,7.2465],[28.5902,7.0893],[28.5994,6.965],[28.6396,6.736],[28.132,6.6932],[28.1192,6.6939],[28.1061,6.6985],[28.0968,6.7033],[27.9354,6.8165],[26.4065,6.6354],[26.3792,6.6314],[26.378,6.6533],[26.3297,6.6806],[26.2706,6.7025],[26.2362,6.72],[26.2195,6.7375],[26.1787,6.7659],[26.1476,6.8047],[26.1318,6.8117],[26.1137,6.8165],[26.0912,6.8303],[26.081,6.8423],[26.0774,6.8533],[26.0757,6.8646],[26.0716,6.8775],[26.0712,6.8836],[26.0731,6.8897],[26.0736,6.8951],[26.0692,6.8991],[26.0634,6.8991],[26.0569,6.8974],[26.0506,6.8967],[26.0454,6.8997],[26.0358,6.9223],[26.0323,6.9741],[26.0261,6.9967],[25.9811,7.0003],[25.9695,7.0036],[25.9668,7.0099],[25.9662,7.0175],[25.9605,7.0245],[25.9504,7.0286],[25.9304,7.0315],[25.9203,7.0341],[25.8887,7.0519],[25.8841,7.0611],[25.8817,7.0798],[25.8775,7.0877],[25.8607,7.0955],[25.8158,7.0998],[25.8008,7.1049],[25.7917,7.1211],[25.7916,7.1344],[25.7862,7.1427],[25.7613,7.1438],[25.7502,7.1465],[25.7344,7.1624],[25.7245,7.1667],[25.7051,7.1664],[25.697,7.1686],[25.6727,7.1878],[25.654,7.1954],[25.5924,7.2112],[25.5766,7.2198],[25.5316,7.2607],[25.5168,7.2699],[25.5003,7.2728],[25.4812,7.2662],[25.4551,7.2782],[25.4162,7.3078],[25.36,7.3356],[25.3468,7.345],[25.336,7.3596],[25.3306,7.3741],[25.3242,7.4029],[25.3162,7.4172],[25.3097,7.422],[25.293,7.4272],[25.2851,7.4316],[25.2792,7.4384],[25.2696,7.4542],[25.2633,7.461],[25.25,7.47],[25.1904,7.5012],[25.169,7.5512],[25.1646,7.5673],[25.1652,7.5799],[25.1865,7.6001],[25.2525,7.6224],[25.275,7.642],[25.2794,7.6595],[25.2764,7.6743],[25.2706,7.6882],[25.2668,7.7031],[25.2706,7.7461],[25.2699,7.7608],[25.2645,7.7777],[25.2497,7.8043],[25.2394,7.836],[25.2297,7.8516],[25.2169,7.8641],[25.1916,7.8724],[25.1855,7.8779],[25.1805,7.884],[25.1732,7.8886],[25.1486,7.8926],[25.1344,7.8925],[25.1034,7.8858],[25.0896,7.8849],[25.0592,7.8961],[25.0293,7.9188],[24.9812,7.9723],[24.9727,7.977],[24.9648,7.9826],[24.9581,7.9892],[24.9526,7.9966],[24.9505,8.0144],[24.9301,8.0355],[24.9278,8.071],[24.918,8.087],[24.8321,8.1657],[24.8002,8.1803],[24.7423,8.1868],[24.7106,8.2043],[24.6904,8.2066],[24.6709,8.2068],[24.6149,8.2171],[24.5447,8.2061],[24.5129,8.2071],[24.4813,8.2267],[24.4715,8.2289],[24.4643,8.2332],[24.4589,8.2398],[24.4549,8.2487],[24.4311,8.2714],[24.3966,8.2678],[24.3321,8.2457],[24.3268,8.2486],[24.3103,8.2616],[24.3027,8.2654],[24.2955,8.2665],[24.281,8.2665],[24.2632,8.2685]]]}},{"type":"Feature","properties":{"id":"SDS-864","name":"Western Equatoria","nameBn":"ওয়েস্টার্ন ইকুয়েটোরিয়া","type":"State","bounds":[26.2702,4.2753,30.9639,6.8165],"center":[28.6169,5.413]},"geometry":{"type":"Polygon","coordinates":[[[26.4649,6.2244],[26.4556,6.2305],[26.4553,6.2545],[26.452,6.2803],[26.4362,6.2917],[26.3946,6.3005],[26.3758,6.3126],[26.3518,6.3444],[26.3352,6.3606],[26.3158,6.3716],[26.3007,6.3778],[26.2896,6.3872],[26.2828,6.4079],[26.2851,6.4259],[26.2907,6.4447],[26.2891,6.4594],[26.2702,6.4657],[26.277,6.4774],[26.2864,6.4842],[26.2965,6.4895],[26.305,6.4969],[26.3244,6.5372],[26.3561,6.5795],[26.3723,6.6098],[26.3799,6.6198],[26.3792,6.6314],[26.4065,6.6354],[27.9354,6.8165],[28.0968,6.7033],[28.1061,6.6985],[28.1192,6.6939],[28.132,6.6932],[28.6396,6.736],[28.615,6.6018],[28.6212,6.558],[28.6108,6.5222],[28.618,6.4821],[28.6023,6.4475],[28.615,6.4159],[28.625,6.358],[28.6183,6.322],[28.6215,6.2916],[28.6298,6.2676],[28.6692,6.2082],[28.688,6.1708],[28.7044,6.1192],[28.7314,6.0891],[28.7756,6.0645],[28.8351,6.0012],[28.8618,5.9584],[28.935,5.8624],[28.9616,5.8385],[28.9957,5.8287],[29.0236,5.8169],[29.0441,5.8046],[29.0622,5.7909],[29.0778,5.7704],[29.1119,5.7509],[29.1468,5.741],[29.5846,5.698],[29.6546,5.6997],[29.7044,5.7287],[29.7161,5.7762],[29.7481,5.8687],[29.7686,5.9064],[29.8387,5.997],[29.8766,6.0324],[29.8933,6.0597],[29.9115,6.1054],[29.9292,6.2034],[29.9295,6.2487],[29.9181,6.2876],[29.9073,6.3514],[29.9105,6.4379],[29.9224,6.4571],[29.9376,6.4675],[30.1401,6.471],[30.1844,6.4766],[30.2017,6.4685],[30.2209,6.4542],[30.2555,6.4206],[30.2892,6.378],[30.3916,6.1728],[30.4352,6.1203],[30.5559,6.0098],[30.6663,5.9257],[30.706,5.8877],[30.7299,5.8568],[30.7572,5.8105],[30.7778,5.7872],[30.8354,5.7481],[30.908,5.6805],[30.9378,5.6298],[30.9602,5.5806],[30.9639,5.538],[30.9527,5.5019],[30.9066,5.4317],[30.8891,5.3887],[30.8787,5.3397],[30.8631,5.0441],[30.8597,5.0236],[30.8563,5.0107],[30.8504,5.0002],[30.8384,4.9893],[30.8162,4.9764],[30.6773,4.9311],[30.5631,4.873],[30.5174,4.8386],[30.3853,4.7097],[30.35,4.6921],[30.3179,4.6867],[30.2923,4.6927],[30.2669,4.7078],[30.2023,4.7672],[30.1801,4.7826],[30.1576,4.7909],[30.132,4.7921],[30.1108,4.7875],[30.085,4.7771],[30.0623,4.7613],[30.0381,4.7395],[30.0003,4.698],[29.8166,4.5551],[29.7883,4.5394],[29.7933,4.5454],[29.7967,4.556],[29.7846,4.5633],[29.7745,4.5675],[29.7518,4.5813],[29.7451,4.5839],[29.7229,4.5782],[29.7153,4.5797],[29.7008,4.5883],[29.6719,4.614],[29.6603,4.6221],[29.6185,4.6416],[29.6068,4.6439],[29.5767,4.6444],[29.5464,4.6574],[29.535,4.6607],[29.5288,4.6599],[29.5133,4.6521],[29.5085,4.6554],[29.4981,4.6656],[29.4941,4.6683],[29.4726,4.6722],[29.4576,4.6695],[29.4492,4.6571],[29.4468,4.6221],[29.4437,4.6047],[29.4446,4.5945],[29.4427,4.5834],[29.4239,4.5661],[29.4173,4.5555],[29.4109,4.5323],[29.4026,4.5121],[29.3902,4.4938],[29.3389,4.4495],[29.3289,4.4349],[29.3187,4.4111],[29.3039,4.3871],[29.2874,4.3836],[29.2674,4.3879],[29.2428,4.3874],[29.2316,4.3755],[29.2287,4.3567],[29.2213,4.3407],[29.1961,4.3371],[29.1735,4.348],[29.1098,4.4124],[29.0986,4.4205],[29.0589,4.4377],[29.056,4.4365],[29.0532,4.4508],[29.0423,4.4553],[28.9941,4.4875],[28.9862,4.4959],[28.9256,4.4808],[28.9036,4.4786],[28.8562,4.4825],[28.8257,4.4784],[28.8153,4.4783],[28.79,4.4886],[28.7851,4.508],[28.7836,4.5304],[28.7692,4.5498],[28.7554,4.554],[28.7469,4.5493],[28.7382,4.5409],[28.7245,4.534],[28.7041,4.534],[28.6952,4.5326],[28.6537,4.4527],[28.6386,4.4321],[28.6237,4.4224],[28.5824,4.4126],[28.5705,4.4051],[28.5667,4.3941],[28.5643,4.3826],[28.5573,4.3735],[28.5482,4.3708],[28.5385,4.3718],[28.5288,4.3738],[28.5193,4.3744],[28.4968,4.369],[28.4824,4.359],[28.4439,4.3085],[28.4254,4.2908],[28.4041,4.2778],[28.3815,4.2753],[28.3574,4.2829],[28.3491,4.2923],[28.3458,4.3064],[28.3369,4.3275],[28.3032,4.3522],[28.261,4.3504],[28.217,4.342],[28.1776,4.3472],[28.1587,4.3608],[28.1402,4.3793],[28.1124,4.4146],[28.1083,4.434],[28.1017,4.4421],[28.0856,4.4433],[28.0763,4.4377],[28.0598,4.4201],[28.0497,4.4191],[28.019,4.4628],[28.0142,4.4722],[28.0112,4.4801],[28.0096,4.4884],[28.0089,4.4991],[28.0121,4.5218],[28.0171,4.5391],[28.014,4.55],[27.9625,4.5574],[27.9512,4.556],[27.9445,4.5573],[27.9343,4.5682],[27.9292,4.57],[27.9203,4.5653],[27.9161,4.5622],[27.9179,4.5608],[27.917,4.5584],[27.9164,4.5536],[27.914,4.5493],[27.9079,4.5487],[27.891,4.5558],[27.8855,4.5567],[27.8569,4.5525],[27.8491,4.5532],[27.8377,4.56],[27.8195,4.5796],[27.8092,4.588],[27.8014,4.5906],[27.7769,4.5957],[27.7724,4.5958],[27.7652,4.6121],[27.7608,4.636],[27.7588,4.6772],[27.7669,4.7354],[27.7631,4.7571],[27.7592,4.7663],[27.7526,4.7777],[27.7442,4.7878],[27.7348,4.7932],[27.7258,4.7928],[27.7065,4.7874],[27.6991,4.7874],[27.6859,4.7979],[27.6797,4.8145],[27.6719,4.8559],[27.6588,4.8797],[27.641,4.8909],[27.5527,4.9005],[27.5326,4.9076],[27.5146,4.9224],[27.5092,4.9324],[27.505,4.9539],[27.5013,4.9633],[27.4928,4.973],[27.4616,4.9969],[27.4545,4.9998],[27.4479,5.0035],[27.4418,5.008],[27.4363,5.0132],[27.4431,5.0578],[27.4413,5.0707],[27.4312,5.0836],[27.4021,5.1045],[27.3858,5.1438],[27.3585,5.1668],[27.3013,5.2052],[27.2809,5.2306],[27.2645,5.2601],[27.2378,5.3232],[27.2337,5.3383],[27.2282,5.3876],[27.2201,5.4131],[27.2181,5.4255],[27.2201,5.4409],[27.2607,5.5503],[27.2589,5.56],[27.2611,5.5776],[27.2571,5.5861],[27.2475,5.5926],[27.2401,5.592],[27.2346,5.5888],[27.2311,5.5876],[27.2273,5.5867],[27.2226,5.5844],[27.2173,5.5854],[27.2113,5.5949],[27.2107,5.6016],[27.2152,5.6161],[27.2167,5.6335],[27.2192,5.64],[27.2184,5.6453],[27.2011,5.657],[27.1964,5.6615],[27.1943,5.6673],[27.1938,5.6763],[27.1908,5.6918],[27.1824,5.7075],[27.1704,5.7203],[27.1563,5.7275],[27.1363,5.734],[27.1314,5.7415],[27.1309,5.7521],[27.1238,5.7687],[27.1148,5.7753],[27.0727,5.7912],[27.0635,5.7909],[27.0454,5.7849],[27.0361,5.7851],[27.0295,5.7899],[27.022,5.8051],[27.0035,5.8193],[26.9918,5.8477],[26.9811,5.8592],[26.9375,5.8485],[26.9165,5.8496],[26.9038,5.867],[26.8943,5.8897],[26.8821,5.8919],[26.8653,5.886],[26.8422,5.8843],[26.8189,5.8946],[26.8108,5.9124],[26.8051,5.9572],[26.7944,5.9705],[26.7763,5.9819],[26.705,6.0098],[26.6343,6.0065],[26.6022,6.0106],[26.5436,6.0308],[26.528,6.0432],[26.518,6.0612],[26.5099,6.0827],[26.4988,6.0998],[26.481,6.105],[26.4406,6.077],[26.4248,6.0724],[26.4213,6.0937],[26.4293,6.1131],[26.4456,6.1302],[26.4653,6.1443],[26.4835,6.1545],[26.5001,6.168],[26.5095,6.1864],[26.509,6.2055],[26.4958,6.2211],[26.4795,6.2251],[26.4649,6.2244]]]}}]}