{"type":"FeatureCollection","features":[{"type":"Feature","properties":{"id":"SEN-759","name":"Dakar","nameBn":"ডাকার","type":"Region","bounds":[-17.536,14.6132,-17.1295,14.8971],"center":[-17.3327,14.7835]},"geometry":{"type":"Polygon","coordinates":[[[-17.1484,14.6132],[-17.1782,14.6531],[-17.2069,14.6789],[-17.2241,14.6904],[-17.2438,14.6993],[-17.2655,14.7028],[-17.2816,14.7073],[-17.324,14.7289],[-17.3306,14.7363],[-17.3636,14.7359],[-17.3923,14.7393],[-17.4174,14.7377],[-17.4398,14.7221],[-17.4314,14.7125],[-17.4193,14.709],[-17.4268,14.6944],[-17.4398,14.6885],[-17.4364,14.6853],[-17.4302,14.678],[-17.4268,14.6749],[-17.433,14.6605],[-17.4364,14.6596],[-17.4398,14.6538],[-17.453,14.6621],[-17.5202,14.7431],[-17.536,14.7574],[-17.371,14.8003],[-17.3221,14.839],[-17.182,14.8971],[-17.1807,14.8956],[-17.1601,14.8508],[-17.1543,14.8326],[-17.1534,14.8272],[-17.153,14.8035],[-17.1496,14.7945],[-17.134,14.7686],[-17.1307,14.7596],[-17.1295,14.7503],[-17.1483,14.6139],[-17.1484,14.6134],[-17.1484,14.6132]]]}},{"type":"Feature","properties":{"id":"SEN-763","name":"Diourbel","nameBn":"ডিউরেবেল অঞ্চল","type":"Region","bounds":[-16.6791,14.5262,-15.3796,15.0116],"center":[-16.1895,14.7509]},"geometry":{"type":"Polygon","coordinates":[[[-15.6212,14.8574],[-15.5935,14.855],[-15.589,14.8527],[-15.5793,14.8459],[-15.5715,14.8415],[-15.5565,14.8363],[-15.5472,14.835],[-15.481,14.841],[-15.4681,14.84],[-15.4594,14.8379],[-15.4558,14.834],[-15.453,14.829],[-15.4479,14.7689],[-15.4416,14.7472],[-15.4158,14.7195],[-15.3796,14.6983],[-15.4011,14.6068],[-15.4313,14.5743],[-15.4452,14.6091],[-15.4684,14.6277],[-15.6008,14.6788],[-15.6333,14.6927],[-15.6565,14.7159],[-15.6751,14.7183],[-15.7029,14.709],[-15.7238,14.7066],[-15.7735,14.7417],[-15.7776,14.7387],[-15.7904,14.7327],[-15.7956,14.7293],[-15.7993,14.7252],[-15.8017,14.7204],[-15.8034,14.7152],[-15.8081,14.6303],[-15.811,14.6187],[-15.8133,14.6138],[-15.816,14.6095],[-15.8701,14.5574],[-15.8743,14.5546],[-15.8993,14.5432],[-15.9329,14.5352],[-16.0168,14.5265],[-16.0307,14.5262],[-16.1398,14.5453],[-16.1543,14.5494],[-16.1638,14.5536],[-16.1747,14.5645],[-16.1876,14.573],[-16.1971,14.5775],[-16.2305,14.5881],[-16.2635,14.5918],[-16.2742,14.5913],[-16.3263,14.5804],[-16.3334,14.5805],[-16.3407,14.5817],[-16.3492,14.5865],[-16.3546,14.5905],[-16.3625,14.5976],[-16.367,14.6009],[-16.3767,14.6028],[-16.462,14.6073],[-16.5064,14.6033],[-16.5192,14.5992],[-16.5313,14.5806],[-16.5524,14.587],[-16.6027,14.6089],[-16.6147,14.6162],[-16.618,14.6197],[-16.6205,14.6244],[-16.6214,14.6298],[-16.6214,14.6357],[-16.6169,14.6428],[-16.6101,14.6517],[-16.5953,14.6672],[-16.59,14.677],[-16.5875,14.6856],[-16.5885,14.6917],[-16.5901,14.6972],[-16.5925,14.7019],[-16.5959,14.7056],[-16.6,14.7085],[-16.6095,14.7129],[-16.6136,14.7157],[-16.6168,14.7192],[-16.6185,14.7238],[-16.618,14.7324],[-16.6168,14.7404],[-16.6133,14.7512],[-16.6127,14.7556],[-16.6133,14.7602],[-16.6156,14.7643],[-16.6189,14.7678],[-16.623,14.771],[-16.6273,14.7738],[-16.637,14.7776],[-16.6408,14.7808],[-16.6428,14.7858],[-16.6443,14.7915],[-16.6462,14.8033],[-16.6455,14.8088],[-16.6429,14.8193],[-16.6426,14.8445],[-16.6436,14.8505],[-16.6454,14.8557],[-16.6483,14.8598],[-16.6525,14.8626],[-16.6574,14.8644],[-16.6666,14.8669],[-16.6706,14.8694],[-16.6763,14.8746],[-16.6783,14.8775],[-16.6791,14.8822],[-16.6745,14.9045],[-16.6685,14.92],[-16.6593,14.9346],[-16.6405,14.9444],[-16.3995,15.0116],[-16.3956,15.0098],[-16.3927,15.0076],[-16.3904,15.0053],[-16.3787,14.9985],[-16.3697,14.9952],[-16.3625,14.994],[-16.3537,14.9938],[-16.3392,14.9958],[-16.3316,14.9977],[-16.3271,14.9994],[-16.3261,15.0],[-16.3257,15.0003],[-16.3251,15.0005],[-16.3234,15.001],[-16.3195,15.001],[-16.3146,14.9997],[-16.2809,14.9734],[-16.2766,14.9707],[-16.2602,14.9644],[-16.2536,14.961],[-16.25,14.9563],[-16.248,14.9509],[-16.2477,14.9452],[-16.2468,14.9398],[-16.2448,14.9349],[-16.2419,14.9309],[-16.2379,14.9278],[-16.2326,14.9254],[-16.2263,14.9235],[-16.2176,14.9224],[-16.2043,14.9232],[-16.1927,14.9263],[-16.1447,14.9507],[-16.1363,14.9565],[-16.1324,14.969],[-16.1003,14.9963],[-16.0771,15.0019],[-15.8319,15.0034],[-15.8168,15.0006],[-15.8171,14.9916],[-15.8162,14.9787],[-15.815,14.9725],[-15.8132,14.9672],[-15.8103,14.963],[-15.8064,14.96],[-15.8022,14.9578],[-15.7952,14.9551],[-15.7916,14.9528],[-15.7888,14.9492],[-15.7829,14.9341],[-15.7801,14.93],[-15.7765,14.9265],[-15.7721,14.9237],[-15.747,14.9131],[-15.7301,14.9017],[-15.727,14.898],[-15.7245,14.8936],[-15.7233,14.888],[-15.7224,14.8748],[-15.7177,14.8616],[-15.6999,14.8479],[-15.6741,14.8556],[-15.6212,14.8574]]]}},{"type":"Feature","properties":{"id":"SEN-764","name":"Fatick","nameBn":"ফ্যাটিক","type":"Region","bounds":[-16.8113,13.5852,-15.4313,14.7417],"center":[-16.4165,13.8699]},"geometry":{"type":"MultiPolygon","coordinates":[[[[-16.0854,13.5852],[-16.1261,13.5853],[-16.1882,13.5855],[-16.2503,13.5857],[-16.3125,13.586],[-16.3746,13.5862],[-16.4366,13.5865],[-16.4988,13.5867],[-16.5614,13.5869],[-16.5615,13.5871],[-16.5714,13.6018],[-16.5764,13.6122],[-16.5758,13.6403],[-16.5587,13.6559],[-16.5335,13.6686],[-16.5082,13.688],[-16.5135,13.6909],[-16.5238,13.6984],[-16.5293,13.701],[-16.5166,13.7128],[-16.5072,13.7281],[-16.5089,13.7402],[-16.5293,13.7426],[-16.5266,13.7266],[-16.5315,13.7073],[-16.5421,13.6937],[-16.5565,13.6948],[-16.5637,13.6738],[-16.5793,13.6596],[-16.5989,13.6542],[-16.618,13.6601],[-16.6356,13.678],[-16.64,13.6965],[-16.6317,13.7358],[-16.6298,13.7605],[-16.6271,13.7705],[-16.618,13.7836],[-16.5825,13.8247],[-16.5764,13.8388],[-16.5705,13.8351],[-16.5549,13.8279],[-16.5491,13.8245],[-16.5514,13.8291],[-16.5565,13.8456],[-16.5218,13.8518],[-16.5201,13.832],[-16.5129,13.8133],[-16.5016,13.802],[-16.487,13.8046],[-16.4946,13.8275],[-16.4963,13.8527],[-16.5006,13.8727],[-16.5157,13.8798],[-16.5104,13.8933],[-16.4887,13.9864],[-16.487,14.0026],[-16.5089,13.9714],[-16.5181,13.9519],[-16.526,13.9105],[-16.5362,13.8857],[-16.5494,13.8693],[-16.5628,13.873],[-16.5702,13.873],[-16.5802,13.8595],[-16.5979,13.8543],[-16.6186,13.8516],[-16.6379,13.8456],[-16.6487,13.8369],[-16.6523,13.8286],[-16.6539,13.8201],[-16.659,13.8109],[-16.6645,13.806],[-16.6759,13.7995],[-16.6825,13.7941],[-16.6925,13.7757],[-16.7001,13.769],[-16.7102,13.7736],[-16.7134,13.7834],[-16.7135,13.7957],[-16.7153,13.8063],[-16.7245,13.8109],[-16.7372,13.8196],[-16.7424,13.8394],[-16.7411,13.8604],[-16.7341,13.873],[-16.7402,13.8866],[-16.7445,13.9022],[-16.7478,13.9344],[-16.7468,13.9514],[-16.7434,13.9611],[-16.7372,13.9677],[-16.7142,13.9856],[-16.7025,13.99],[-16.6897,13.9905],[-16.6603,13.9872],[-16.6463,13.983],[-16.6368,13.9749],[-16.6379,13.9617],[-16.6239,13.9739],[-16.6129,13.9887],[-16.599,13.9968],[-16.5764,13.989],[-16.5768,14.011],[-16.5689,14.0208],[-16.5563,14.0269],[-16.5423,14.0373],[-16.5548,14.0331],[-16.5683,14.0303],[-16.581,14.0328],[-16.5907,14.0436],[-16.5455,14.071],[-16.5293,14.0852],[-16.5033,14.1163],[-16.4891,14.1282],[-16.457,14.1374],[-16.4415,14.1566],[-16.4294,14.161],[-16.421,14.1571],[-16.413,14.1498],[-16.4047,14.1454],[-16.3949,14.1504],[-16.3888,14.1549],[-16.3726,14.1624],[-16.3723,14.1627],[-16.3721,14.1626],[-16.3079,14.1612],[-16.3024,14.16],[-16.297,14.1569],[-16.2914,14.1526],[-16.2626,14.1345],[-16.2488,14.1233],[-16.2418,14.1152],[-16.2354,14.1045],[-16.2312,14.0826],[-16.2302,14.0699],[-16.2316,14.059],[-16.2348,14.0511],[-16.2454,14.0365],[-16.2487,14.0289],[-16.2481,14.0206],[-16.2276,13.9951],[-16.2153,13.9842],[-16.209,13.974],[-16.1974,13.9056],[-16.1972,13.8979],[-16.1982,13.8904],[-16.2014,13.8825],[-16.2063,13.8749],[-16.2177,13.8604],[-16.2322,13.8483],[-16.2379,13.8419],[-16.2402,13.8352],[-16.2413,13.8282],[-16.242,13.8135],[-16.2407,13.805],[-16.2373,13.7964],[-16.2274,13.7864],[-16.1956,13.7606],[-16.1799,13.7514],[-16.1725,13.7459],[-16.1663,13.7379],[-16.1621,13.7247],[-16.1574,13.692],[-16.1539,13.6776],[-16.1484,13.6682],[-16.14,13.6581],[-16.1078,13.6293],[-16.0942,13.6118],[-16.0886,13.5923],[-16.0855,13.5854],[-16.0854,13.5852]]],[[[-16.3802,14.1684],[-16.4277,14.1701],[-16.4547,14.1802],[-16.453,14.2019],[-16.4687,14.1938],[-16.4746,14.1794],[-16.4715,14.1643],[-16.4604,14.1541],[-16.4728,14.1474],[-16.4831,14.1481],[-16.4931,14.1518],[-16.5048,14.1541],[-16.5132,14.151],[-16.5168,14.1435],[-16.5188,14.1343],[-16.5218,14.1262],[-16.5475,14.0819],[-16.5565,14.0715],[-16.5668,14.067],[-16.5885,14.062],[-16.6003,14.0542],[-16.6091,14.0432],[-16.6216,14.02],[-16.6317,14.0101],[-16.6542,14.0028],[-16.6754,14.0069],[-16.697,14.0142],[-16.7211,14.0163],[-16.6976,14.0574],[-16.6968,14.0647],[-16.68,14.0694],[-16.6523,14.0995],[-16.6656,14.0956],[-16.6786,14.0761],[-16.6897,14.0715],[-16.7118,14.0709],[-16.7205,14.0689],[-16.7279,14.0647],[-16.7161,14.0513],[-16.7171,14.0424],[-16.7341,14.0231],[-16.737,14.0154],[-16.7396,14.0011],[-16.7447,13.9927],[-16.7646,13.9706],[-16.7689,13.9617],[-16.7734,13.9336],[-16.7689,13.8388],[-16.7751,13.8388],[-16.781,14.0307],[-16.786,14.0597],[-16.8026,14.1079],[-16.8113,14.1249],[-16.8111,14.125],[-16.8033,14.1331],[-16.7752,14.1421],[-16.7704,14.1469],[-16.7694,14.1521],[-16.7719,14.1562],[-16.7753,14.1606],[-16.7781,14.1654],[-16.7783,14.1738],[-16.7754,14.1785],[-16.7497,14.1997],[-16.7455,14.2075],[-16.7453,14.2135],[-16.7485,14.2174],[-16.7528,14.2206],[-16.7564,14.2237],[-16.7593,14.2281],[-16.7453,14.2856],[-16.695,14.4267],[-16.6915,14.4285],[-16.6866,14.4297],[-16.6537,14.4321],[-16.6479,14.4332],[-16.643,14.4356],[-16.6391,14.4388],[-16.6354,14.4423],[-16.6256,14.4541],[-16.6179,14.4602],[-16.6131,14.4624],[-16.6026,14.4657],[-16.5938,14.471],[-16.5773,14.4879],[-16.5511,14.5214],[-16.5458,14.5299],[-16.5388,14.5504],[-16.5313,14.5806],[-16.5192,14.5992],[-16.5064,14.6033],[-16.462,14.6073],[-16.3767,14.6028],[-16.367,14.6009],[-16.3625,14.5976],[-16.3546,14.5905],[-16.3492,14.5865],[-16.3407,14.5817],[-16.3334,14.5805],[-16.3263,14.5804],[-16.2742,14.5913],[-16.2635,14.5918],[-16.2305,14.5881],[-16.1971,14.5775],[-16.1876,14.573],[-16.1747,14.5645],[-16.1638,14.5536],[-16.1543,14.5494],[-16.1398,14.5453],[-16.0307,14.5262],[-16.0168,14.5265],[-15.9329,14.5352],[-15.8993,14.5432],[-15.8743,14.5546],[-15.8701,14.5574],[-15.816,14.6095],[-15.8133,14.6138],[-15.811,14.6187],[-15.8081,14.6303],[-15.8034,14.7152],[-15.8017,14.7204],[-15.7993,14.7252],[-15.7956,14.7293],[-15.7904,14.7327],[-15.7776,14.7387],[-15.7735,14.7417],[-15.7238,14.7066],[-15.7029,14.709],[-15.6751,14.7183],[-15.6565,14.7159],[-15.6333,14.6927],[-15.6008,14.6788],[-15.4684,14.6277],[-15.4452,14.6091],[-15.4313,14.5743],[-15.4684,14.565],[-15.5218,14.5557],[-15.5706,14.5488],[-15.5938,14.5441],[-15.6147,14.5279],[-15.6611,14.4907],[-15.6843,14.4791],[-15.7099,14.4768],[-15.7494,14.4327],[-15.7726,14.4048],[-15.799,14.3849],[-15.8306,14.3653],[-15.9049,14.3677],[-15.9537,14.37],[-15.9746,14.3607],[-15.9931,14.3421],[-16.014,14.3351],[-16.0989,14.3493],[-16.1042,14.3536],[-16.1044,14.3588],[-16.1131,14.3595],[-16.1646,14.3551],[-16.2249,14.3424],[-16.2571,14.3396],[-16.2669,14.3347],[-16.2783,14.3256],[-16.3057,14.2938],[-16.3558,14.2209],[-16.3658,14.1872],[-16.3802,14.1684],[-16.3802,14.1684]]]]}},{"type":"Feature","properties":{"id":"SEN-5516","name":"Kaffrine","nameBn":"ক্যাফ্রিন","type":"Region","bounds":[-15.8549,13.7418,-14.5774,14.6983],"center":[-15.2014,14.2364]},"geometry":{"type":"Polygon","coordinates":[[[-14.8603,13.7656],[-14.8793,13.7806],[-14.9158,13.7924],[-15.0168,13.7969],[-15.0763,13.819],[-15.0977,13.82],[-15.1706,13.7938],[-15.246,13.7467],[-15.2673,13.7418],[-15.2757,13.7481],[-15.2951,13.7732],[-15.3045,13.7819],[-15.3478,13.7886],[-15.3941,13.7715],[-15.4449,13.7947],[-15.4739,13.7947],[-15.5138,13.7983],[-15.5827,13.8273],[-15.6045,13.7947],[-15.6227,13.7656],[-15.6408,13.7584],[-15.6662,13.7693],[-15.6952,13.7983],[-15.7097,13.8273],[-15.7097,13.8527],[-15.6989,13.8781],[-15.7025,13.9035],[-15.746,13.9289],[-15.7823,13.9652],[-15.7932,13.987],[-15.7968,14.0124],[-15.8113,14.0305],[-15.8549,14.0378],[-15.8549,14.0886],[-15.8549,14.1539],[-15.844,14.1902],[-15.8186,14.2446],[-15.8004,14.2881],[-15.799,14.3849],[-15.7726,14.4048],[-15.7494,14.4327],[-15.7099,14.4768],[-15.6843,14.4791],[-15.6611,14.4907],[-15.6147,14.5279],[-15.5938,14.5441],[-15.5706,14.5488],[-15.5218,14.5557],[-15.4684,14.565],[-15.4313,14.5743],[-15.4011,14.6068],[-15.3796,14.6983],[-15.2997,14.6514],[-15.2495,14.6329],[-15.0968,14.6032],[-15.0628,14.5999],[-15.0394,14.6053],[-15.0201,14.6126],[-14.9316,14.6656],[-14.9145,14.6734],[-14.898,14.6771],[-14.8856,14.6677],[-14.8627,14.6377],[-14.8442,14.622],[-14.8176,14.6097],[-14.6549,14.5628],[-14.6391,14.5567],[-14.6325,14.5501],[-14.6308,14.5376],[-14.6312,14.5262],[-14.633,14.5109],[-14.6337,14.3226],[-14.611,14.2576],[-14.5984,14.2392],[-14.593,14.2216],[-14.5886,14.1456],[-14.5794,14.1011],[-14.5774,14.0816],[-14.5775,14.0648],[-14.5864,14.0236],[-14.5907,14.016],[-14.5947,14.0104],[-14.6042,14.0058],[-14.6131,14.0025],[-14.6172,14.0004],[-14.6185,13.9987],[-14.6225,13.981],[-14.6217,13.9632],[-14.6238,13.9512],[-14.6258,13.9437],[-14.6287,13.9391],[-14.6875,13.884],[-14.7112,13.8659],[-14.7157,13.8633],[-14.7618,13.852],[-14.7716,13.8475],[-14.7775,13.8466],[-14.7904,13.8461],[-14.8022,13.8439],[-14.8126,13.84],[-14.8264,13.8256],[-14.8382,13.8092],[-14.8563,13.7787],[-14.8603,13.7656]]]}},{"type":"Feature","properties":{"id":"SEN-765","name":"Kaolack","nameBn":"কাওলাক","type":"Region","bounds":[-16.3802,13.5831,-15.3941,14.3849],"center":[-15.9845,13.8846]},"geometry":{"type":"Polygon","coordinates":[[[-15.498,13.6415],[-15.5005,13.628],[-15.5025,13.5883],[-15.5182,13.5831],[-15.5671,13.5833],[-15.6292,13.5835],[-15.6914,13.5837],[-15.7534,13.584],[-15.8156,13.5842],[-15.8777,13.5844],[-15.9398,13.5846],[-16.0019,13.5849],[-16.0641,13.5851],[-16.0854,13.5852],[-16.0855,13.5854],[-16.0886,13.5923],[-16.0942,13.6118],[-16.1078,13.6293],[-16.14,13.6581],[-16.1484,13.6682],[-16.1539,13.6776],[-16.1574,13.692],[-16.1621,13.7247],[-16.1663,13.7379],[-16.1725,13.7459],[-16.1799,13.7514],[-16.1956,13.7606],[-16.2274,13.7864],[-16.2373,13.7964],[-16.2407,13.805],[-16.242,13.8135],[-16.2413,13.8282],[-16.2402,13.8352],[-16.2379,13.8419],[-16.2322,13.8483],[-16.2177,13.8604],[-16.2063,13.8749],[-16.2014,13.8825],[-16.1982,13.8904],[-16.1972,13.8979],[-16.1974,13.9056],[-16.209,13.974],[-16.2153,13.9842],[-16.2276,13.9951],[-16.2481,14.0206],[-16.2487,14.0289],[-16.2454,14.0365],[-16.2348,14.0511],[-16.2316,14.059],[-16.2302,14.0699],[-16.2312,14.0826],[-16.2354,14.1045],[-16.2418,14.1152],[-16.2488,14.1233],[-16.2626,14.1345],[-16.2914,14.1526],[-16.297,14.1569],[-16.3024,14.16],[-16.3079,14.1612],[-16.3721,14.1626],[-16.3723,14.1627],[-16.3647,14.1678],[-16.3802,14.1684],[-16.3802,14.1684],[-16.3658,14.1872],[-16.3558,14.2209],[-16.3057,14.2938],[-16.2783,14.3256],[-16.2669,14.3347],[-16.2571,14.3396],[-16.2249,14.3424],[-16.1646,14.3551],[-16.1131,14.3595],[-16.1044,14.3588],[-16.1042,14.3536],[-16.0989,14.3493],[-16.014,14.3351],[-15.9931,14.3421],[-15.9746,14.3607],[-15.9537,14.37],[-15.9049,14.3677],[-15.8306,14.3653],[-15.799,14.3849],[-15.8004,14.2881],[-15.8186,14.2446],[-15.844,14.1902],[-15.8549,14.1539],[-15.8549,14.0886],[-15.8549,14.0378],[-15.8113,14.0305],[-15.7968,14.0124],[-15.7932,13.987],[-15.7823,13.9652],[-15.746,13.9289],[-15.7025,13.9035],[-15.6989,13.8781],[-15.7097,13.8527],[-15.7097,13.8273],[-15.6952,13.7983],[-15.6662,13.7693],[-15.6408,13.7584],[-15.6227,13.7656],[-15.6045,13.7947],[-15.5827,13.8273],[-15.5138,13.7983],[-15.4739,13.7947],[-15.4449,13.7947],[-15.3941,13.7715],[-15.4363,13.7412],[-15.4675,13.7083],[-15.4786,13.6913],[-15.4889,13.6703],[-15.4968,13.6483],[-15.498,13.6415]]]}},{"type":"Feature","properties":{"id":"SEN-774","name":"Kolda","nameBn":"কোডলা","type":"Region","bounds":[-15.3656,12.6497,-13.3566,13.59],"center":[-14.422,12.9574]},"geometry":{"type":"Polygon","coordinates":[[[-13.3598,12.6497],[-13.4048,12.6618],[-13.7283,12.6734],[-14.0828,12.6748],[-14.3431,12.6759],[-14.4373,12.6763],[-14.7917,12.6778],[-14.8722,12.6781],[-15.1462,12.6792],[-15.1543,12.7406],[-15.1455,12.77],[-15.1308,12.8023],[-15.1308,12.8492],[-15.1308,12.8844],[-15.1484,12.9138],[-15.169,12.9373],[-15.1719,12.9725],[-15.169,12.9989],[-15.2042,13.0224],[-15.2365,13.0429],[-15.2394,13.0664],[-15.2424,13.0987],[-15.2629,13.1515],[-15.2776,13.175],[-15.3245,13.1838],[-15.3597,13.2073],[-15.3656,13.2425],[-15.3539,13.2807],[-15.3451,13.3188],[-15.3424,13.3626],[-15.3098,13.3684],[-15.2771,13.3803],[-15.2483,13.399],[-15.2278,13.4252],[-15.2217,13.4528],[-15.218,13.5147],[-15.204,13.5369],[-15.1813,13.5598],[-15.1605,13.581],[-15.1377,13.59],[-15.1102,13.5725],[-15.0653,13.5313],[-15.0156,13.4961],[-15.0154,13.496],[-15.0152,13.4958],[-15.0151,13.4957],[-14.9497,13.4631],[-14.9159,13.4544],[-14.8776,13.4514],[-14.8626,13.4471],[-14.8291,13.427],[-14.8108,13.4212],[-14.7903,13.4173],[-14.7796,13.4109],[-14.7595,13.3834],[-14.7316,13.359],[-14.6981,13.3452],[-14.6616,13.3409],[-14.6246,13.3452],[-14.5922,13.3531],[-14.5807,13.3492],[-14.5521,13.3231],[-14.5429,13.3147],[-14.5296,13.3073],[-14.5151,13.3032],[-14.4836,13.3019],[-14.4703,13.2983],[-14.4591,13.2869],[-14.4515,13.2769],[-14.442,13.2685],[-14.4314,13.2614],[-14.395,13.243],[-14.3688,13.2357],[-14.3418,13.2336],[-14.2849,13.2385],[-14.2306,13.2286],[-14.2017,13.2296],[-14.1798,13.2401],[-14.1318,13.2756],[-14.1168,13.2822],[-14.0995,13.282],[-14.0566,13.2972],[-14.0163,13.2976],[-13.9761,13.3082],[-13.9006,13.3146],[-13.851,13.3358],[-13.8226,13.3782],[-13.8187,13.4294],[-13.8427,13.4766],[-13.8528,13.4848],[-13.8755,13.4979],[-13.8825,13.5038],[-13.8694,13.5095],[-13.8603,13.5133],[-13.8493,13.5143],[-13.8436,13.5155],[-13.8401,13.5187],[-13.8379,13.5234],[-13.8363,13.5285],[-13.8335,13.5328],[-13.8296,13.5356],[-13.8247,13.5367],[-13.8142,13.5353],[-13.8029,13.5356],[-13.7984,13.534],[-13.7957,13.5303],[-13.7965,13.524],[-13.8003,13.5141],[-13.8003,13.5045],[-13.8008,13.5014],[-13.8015,13.4997],[-13.8055,13.4948],[-13.8082,13.4907],[-13.8101,13.4858],[-13.8101,13.4801],[-13.8076,13.4743],[-13.8008,13.4692],[-13.7947,13.4683],[-13.7895,13.4696],[-13.7808,13.4749],[-13.7755,13.4767],[-13.7699,13.4778],[-13.7639,13.4776],[-13.7584,13.4765],[-13.7433,13.4708],[-13.733,13.4681],[-13.7297,13.4662],[-13.7288,13.4637],[-13.7308,13.4585],[-13.7338,13.4544],[-13.7521,13.437],[-13.7547,13.4327],[-13.7569,13.4282],[-13.7581,13.423],[-13.7584,13.4173],[-13.758,13.4113],[-13.7583,13.4052],[-13.7596,13.3997],[-13.7622,13.3954],[-13.7651,13.3913],[-13.7683,13.3876],[-13.771,13.3836],[-13.772,13.3793],[-13.7701,13.3746],[-13.7639,13.3711],[-13.7577,13.3692],[-13.7511,13.3684],[-13.7449,13.3683],[-13.7385,13.3688],[-13.7141,13.3732],[-13.7009,13.3738],[-13.6955,13.3721],[-13.6922,13.3686],[-13.6924,13.3622],[-13.6946,13.3575],[-13.7036,13.3453],[-13.7046,13.341],[-13.7025,13.3365],[-13.6969,13.3325],[-13.6914,13.3295],[-13.688,13.3249],[-13.6876,13.317],[-13.6884,13.3107],[-13.6913,13.2999],[-13.6903,13.2941],[-13.6864,13.2884],[-13.6766,13.2817],[-13.6622,13.2767],[-13.6578,13.2735],[-13.655,13.2683],[-13.6537,13.2599],[-13.6516,13.2527],[-13.6485,13.2464],[-13.6412,13.2414],[-13.6349,13.2402],[-13.6228,13.2401],[-13.6183,13.2374],[-13.615,13.233],[-13.6126,13.2261],[-13.6115,13.2048],[-13.6125,13.1973],[-13.6123,13.1816],[-13.6139,13.1757],[-13.6145,13.17],[-13.6141,13.1638],[-13.6096,13.1559],[-13.6088,13.1396],[-13.607,13.1304],[-13.6,13.1155],[-13.5866,13.1009],[-13.5807,13.0961],[-13.5757,13.0936],[-13.572,13.09],[-13.5719,13.0831],[-13.5725,13.077],[-13.5724,13.0711],[-13.5703,13.0663],[-13.5547,13.0568],[-13.5436,13.0454],[-13.5364,13.0361],[-13.5293,13.0291],[-13.5272,13.0252],[-13.5288,13.0191],[-13.5314,13.0147],[-13.5328,13.0104],[-13.5306,13.0064],[-13.524,13.0035],[-13.5178,13.0023],[-13.5134,12.9998],[-13.5117,12.9964],[-13.5072,12.9654],[-13.5094,12.9598],[-13.5124,12.9555],[-13.5138,12.9515],[-13.5121,12.9459],[-13.507,12.9392],[-13.5038,12.9232],[-13.5004,12.9152],[-13.4909,12.9047],[-13.4774,12.8956],[-13.473,12.8918],[-13.4691,12.8681],[-13.4651,12.8608],[-13.4666,12.8543],[-13.4708,12.8522],[-13.4767,12.8519],[-13.4817,12.8524],[-13.4854,12.8515],[-13.4846,12.8485],[-13.4799,12.8446],[-13.4769,12.8405],[-13.4773,12.8348],[-13.4797,12.8305],[-13.4854,12.822],[-13.4875,12.8172],[-13.4891,12.812],[-13.4884,12.8061],[-13.4862,12.7991],[-13.4794,12.7918],[-13.4767,12.7829],[-13.4739,12.7768],[-13.4727,12.7707],[-13.475,12.7339],[-13.4767,12.7287],[-13.4816,12.7201],[-13.4827,12.7149],[-13.4808,12.7089],[-13.4741,12.7003],[-13.4664,12.6946],[-13.4535,12.6883],[-13.4429,12.6844],[-13.43,12.6823],[-13.407,12.6822],[-13.3964,12.6845],[-13.3887,12.6873],[-13.3839,12.6897],[-13.3779,12.6906],[-13.3646,12.6847],[-13.3566,12.6653],[-13.3598,12.6499],[-13.3598,12.6497]]]}},{"type":"Feature","properties":{"id":"SEN-5515","name":"Kédougou","nameBn":"কেদুগো","type":"Region","bounds":[-13.6232,12.3056,-11.3778,13.4479],"center":[-12.1903,12.842]},"geometry":{"type":"Polygon","coordinates":[[[-11.9,13.3822],[-11.8976,13.3712],[-11.8888,13.3689],[-11.8623,13.3561],[-11.8546,13.3506],[-11.8508,13.3431],[-11.8446,13.3238],[-11.84,13.3169],[-11.8281,13.3073],[-11.8226,13.3067],[-11.8171,13.3123],[-11.7751,13.3433],[-11.7725,13.3627],[-11.7666,13.3832],[-11.7565,13.3998],[-11.7412,13.4078],[-11.7269,13.4058],[-11.7198,13.3979],[-11.714,13.3881],[-11.704,13.3804],[-11.6945,13.3792],[-11.675,13.3832],[-11.6498,13.3841],[-11.6453,13.3798],[-11.6466,13.3655],[-11.644,13.3556],[-11.6329,13.3544],[-11.6203,13.3575],[-11.6131,13.3608],[-11.613,13.3391],[-11.6058,13.3197],[-11.5812,13.2861],[-11.5585,13.2665],[-11.5543,13.2569],[-11.5558,13.2459],[-11.5686,13.2279],[-11.5723,13.2171],[-11.5693,13.1992],[-11.5597,13.1869],[-11.5478,13.1762],[-11.5385,13.163],[-11.5381,13.128],[-11.5331,13.1118],[-11.5154,13.1078],[-11.5015,13.0996],[-11.4897,13.0908],[-11.4771,13.0833],[-11.4608,13.0792],[-11.4503,13.0751],[-11.4514,13.0681],[-11.4569,13.0604],[-11.459,13.0547],[-11.4452,13.0352],[-11.4395,13.023],[-11.4357,13.0167],[-11.4317,13.0135],[-11.423,13.0094],[-11.4245,13.0052],[-11.4301,13.001],[-11.4334,12.997],[-11.4335,12.9884],[-11.436,12.9688],[-11.4387,12.9589],[-11.4231,12.956],[-11.4115,12.9607],[-11.4042,12.9721],[-11.4018,12.9895],[-11.3934,12.9808],[-11.3888,12.9706],[-11.3866,12.9591],[-11.3844,12.9331],[-11.3878,12.9271],[-11.3942,12.9233],[-11.4029,12.9164],[-11.4073,12.9163],[-11.4136,12.9197],[-11.4207,12.922],[-11.4272,12.9186],[-11.428,12.9125],[-11.4231,12.9071],[-11.4173,12.902],[-11.4151,12.8967],[-11.4193,12.8865],[-11.4249,12.8762],[-11.4286,12.8658],[-11.4255,12.8496],[-11.427,12.8452],[-11.43,12.8411],[-11.4325,12.8355],[-11.4321,12.8293],[-11.4282,12.827],[-11.4235,12.8264],[-11.421,12.8256],[-11.4197,12.8247],[-11.416,12.8201],[-11.4117,12.8129],[-11.4085,12.8045],[-11.4064,12.7943],[-11.4054,12.7823],[-11.4076,12.7715],[-11.4146,12.7642],[-11.4146,12.7597],[-11.404,12.7412],[-11.4022,12.7317],[-11.4103,12.7188],[-11.4242,12.7164],[-11.4374,12.7122],[-11.448,12.6859],[-11.4558,12.6806],[-11.4619,12.6731],[-11.461,12.6584],[-11.4572,12.656],[-11.4496,12.6532],[-11.4418,12.6478],[-11.4368,12.6375],[-11.4366,12.6271],[-11.4418,12.5955],[-11.4409,12.5849],[-11.4386,12.578],[-11.4374,12.5708],[-11.4398,12.5593],[-11.4606,12.5498],[-11.4678,12.5435],[-11.4567,12.5398],[-11.4495,12.5352],[-11.4379,12.5154],[-11.4298,12.5083],[-11.4304,12.5157],[-11.4247,12.5264],[-11.417,12.5293],[-11.4108,12.5133],[-11.4087,12.5049],[-11.4024,12.4885],[-11.4005,12.4795],[-11.3926,12.4918],[-11.3904,12.4975],[-11.3778,12.4802],[-11.3798,12.4569],[-11.3866,12.4305],[-11.3884,12.4039],[-11.416,12.405],[-11.4816,12.4282],[-11.5154,12.4316],[-11.6015,12.4252],[-11.6431,12.4176],[-11.72,12.3895],[-11.7578,12.3833],[-11.8396,12.3867],[-11.8602,12.3911],[-11.9206,12.416],[-11.922,12.4177],[-11.9239,12.4188],[-11.9309,12.4187],[-11.9352,12.417],[-11.9463,12.4094],[-11.9843,12.389],[-11.9976,12.3864],[-12.0189,12.3884],[-12.0792,12.4081],[-12.104,12.4074],[-12.1219,12.3987],[-12.155,12.369],[-12.192,12.3488],[-12.3609,12.3056],[-12.3771,12.3137],[-12.4055,12.3565],[-12.4234,12.3691],[-12.4668,12.3845],[-12.4878,12.3895],[-12.5051,12.3903],[-12.5219,12.3869],[-12.5415,12.3795],[-12.5706,12.3637],[-12.5781,12.3615],[-12.5794,12.3612],[-12.5937,12.3616],[-12.5973,12.3654],[-12.5981,12.3724],[-12.6034,12.3819],[-12.6316,12.4127],[-12.648,12.4258],[-12.6675,12.4337],[-12.6881,12.436],[-12.7527,12.4324],[-12.7733,12.4351],[-12.7792,12.4433],[-12.7835,12.4531],[-12.7994,12.4606],[-12.8291,12.4628],[-12.8386,12.4664],[-12.8491,12.4758],[-12.8513,12.4844],[-12.8497,12.4911],[-12.8492,12.495],[-12.874,12.5164],[-12.9131,12.5363],[-12.9495,12.5359],[-12.9662,12.4961],[-12.9695,12.4768],[-12.981,12.467],[-12.9974,12.4659],[-13.0152,12.4727],[-13.0346,12.4706],[-13.052,12.4723],[-13.0667,12.4801],[-13.0783,12.4962],[-13.0827,12.5157],[-13.0791,12.5322],[-13.0642,12.5662],[-13.0604,12.5834],[-13.0593,12.6035],[-13.0636,12.6223],[-13.0765,12.6359],[-13.0917,12.6382],[-13.109,12.6354],[-13.1273,12.6348],[-13.1453,12.6439],[-13.1547,12.6328],[-13.1626,12.6381],[-13.1692,12.6388],[-13.1763,12.6377],[-13.1852,12.6378],[-13.1979,12.6341],[-13.2019,12.6334],[-13.2065,12.6357],[-13.216,12.6457],[-13.2215,12.6484],[-13.2291,12.6478],[-13.246,12.6432],[-13.2547,12.6418],[-13.2634,12.6432],[-13.2757,12.6511],[-13.2841,12.6533],[-13.2929,12.6527],[-13.3229,12.6465],[-13.3277,12.6449],[-13.33,12.6421],[-13.3328,12.6396],[-13.3386,12.6392],[-13.3434,12.641],[-13.352,12.647],[-13.3566,12.6489],[-13.3598,12.6497],[-13.3598,12.6499],[-13.3566,12.6653],[-13.3646,12.6847],[-13.3779,12.6906],[-13.3839,12.6897],[-13.3887,12.6873],[-13.3964,12.6845],[-13.407,12.6822],[-13.43,12.6823],[-13.4429,12.6844],[-13.4535,12.6883],[-13.4664,12.6946],[-13.4741,12.7003],[-13.4808,12.7089],[-13.4827,12.7149],[-13.4816,12.7201],[-13.4767,12.7287],[-13.475,12.7339],[-13.4727,12.7707],[-13.4739,12.7768],[-13.4767,12.7829],[-13.4794,12.7918],[-13.4862,12.7991],[-13.4884,12.8061],[-13.4891,12.812],[-13.4875,12.8172],[-13.4854,12.822],[-13.4797,12.8305],[-13.4773,12.8348],[-13.4769,12.8405],[-13.4799,12.8446],[-13.4846,12.8485],[-13.4854,12.8515],[-13.4817,12.8524],[-13.4767,12.8519],[-13.4708,12.8522],[-13.4666,12.8543],[-13.4651,12.8608],[-13.4691,12.8681],[-13.473,12.8918],[-13.4774,12.8956],[-13.4909,12.9047],[-13.5004,12.9152],[-13.5038,12.9232],[-13.507,12.9392],[-13.5121,12.9459],[-13.5138,12.9515],[-13.5124,12.9555],[-13.5094,12.9598],[-13.5072,12.9654],[-13.5117,12.9964],[-13.5134,12.9998],[-13.5178,13.0023],[-13.524,13.0035],[-13.5306,13.0064],[-13.5328,13.0104],[-13.5314,13.0147],[-13.5288,13.0191],[-13.5272,13.0252],[-13.5293,13.0291],[-13.5364,13.0361],[-13.5436,13.0454],[-13.5547,13.0568],[-13.5703,13.0663],[-13.5724,13.0711],[-13.5725,13.077],[-13.5719,13.0831],[-13.572,13.09],[-13.5757,13.0936],[-13.5807,13.0961],[-13.5866,13.1009],[-13.6,13.1155],[-13.607,13.1304],[-13.6088,13.1396],[-13.6096,13.1559],[-13.6141,13.1638],[-13.6145,13.17],[-13.6139,13.1757],[-13.6123,13.1816],[-13.6125,13.1973],[-13.6115,13.2048],[-13.6126,13.2261],[-13.615,13.233],[-13.6183,13.2374],[-13.6228,13.2401],[-13.6232,13.2491],[-13.6001,13.2598],[-13.5995,13.3133],[-13.5823,13.3249],[-13.5856,13.3082],[-13.5797,13.3009],[-13.568,13.2976],[-13.5581,13.2994],[-13.5522,13.3114],[-13.5475,13.3174],[-13.5326,13.3246],[-13.5126,13.3299],[-13.4999,13.3258],[-13.5065,13.3044],[-13.4938,13.3093],[-13.4853,13.333],[-13.4761,13.3385],[-13.4352,13.3385],[-13.3967,13.3311],[-13.3842,13.3365],[-13.3738,13.3423],[-13.3646,13.341],[-13.3557,13.3249],[-13.3653,13.3087],[-13.3731,13.3001],[-13.3776,13.2918],[-13.3768,13.2764],[-13.3729,13.2683],[-13.3705,13.261],[-13.3694,13.2525],[-13.3662,13.2488],[-13.3586,13.2492],[-13.3526,13.2495],[-13.3495,13.246],[-13.3467,13.2399],[-13.3402,13.2356],[-13.3331,13.2322],[-13.3284,13.2286],[-13.3278,13.2237],[-13.3315,13.2145],[-13.3253,13.2048],[-13.3213,13.191],[-13.3258,13.1773],[-13.3275,13.1645],[-13.3148,13.1536],[-13.3557,13.1393],[-13.3557,13.1331],[-13.3348,13.1241],[-13.3312,13.0995],[-13.333,13.0692],[-13.3284,13.0437],[-13.3092,13.0218],[-13.2895,13.0169],[-13.2458,13.0294],[-13.2173,13.04],[-13.2026,13.04],[-13.1733,13.0371],[-13.1469,13.0283],[-13.1292,13.0136],[-13.1116,13.0136],[-13.1028,13.0283],[-13.094,13.0371],[-13.0735,13.0371],[-13.05,13.0488],[-13.0324,13.0576],[-12.9766,13.0576],[-12.9561,13.0488],[-12.9385,13.0312],[-12.9238,13.0312],[-12.9003,13.0077],[-12.8739,12.9901],[-12.8534,12.9842],[-12.8446,12.9989],[-12.8446,13.0106],[-12.8358,13.0195],[-12.8181,13.0195],[-12.8035,13.0253],[-12.8005,13.0429],[-12.7917,13.0517],[-12.7712,13.0488],[-12.7565,13.0429],[-12.7418,13.0459],[-12.7418,13.0635],[-12.733,13.0811],[-12.7096,13.0958],[-12.6949,13.1134],[-12.7008,13.1368],[-12.7008,13.1603],[-12.6861,13.1721],[-12.6655,13.175],[-12.645,13.175],[-12.6274,13.1838],[-12.6156,13.1926],[-12.601,13.1838],[-12.5863,13.175],[-12.5628,13.1721],[-12.5305,13.1809],[-12.5129,13.1926],[-12.5012,13.2132],[-12.4982,13.2337],[-12.4865,13.2484],[-12.466,13.2513],[-12.4601,13.266],[-12.4454,13.2777],[-12.419,13.2836],[-12.3955,13.2777],[-12.3809,13.2601],[-12.3691,13.2513],[-12.3574,13.2542],[-12.3515,13.2719],[-12.3427,13.2836],[-12.3368,13.3071],[-12.3251,13.3129],[-12.2928,13.3071],[-12.2664,13.3071],[-12.2517,13.3247],[-12.2576,13.3482],[-12.2869,13.3834],[-12.2928,13.401],[-12.2781,13.4157],[-12.2781,13.4391],[-12.2547,13.4479],[-12.2253,13.4303],[-12.1989,13.4098],[-12.1695,13.3951],[-12.1402,13.3775],[-12.105,13.3687],[-12.0786,13.3599],[-12.0727,13.3394],[-12.0668,13.3159],[-12.0463,13.3159],[-12.0199,13.3335],[-11.9934,13.3628],[-11.9582,13.3716],[-11.9,13.3822]]]}},{"type":"Feature","properties":{"id":"SEN-766","name":"Louga","nameBn":"লুগা","type":"Region","bounds":[-16.7353,14.5999,-14.5342,16.1818],"center":[-15.5162,15.4183]},"geometry":{"type":"Polygon","coordinates":[[[-16.7353,15.4773],[-16.6697,15.5618],[-16.5389,15.7744],[-16.5343,15.7844],[-16.536,15.7947],[-16.5409,15.8057],[-16.5407,15.8057],[-16.5396,15.8057],[-16.3777,15.8091],[-16.3587,15.8125],[-16.3398,15.8185],[-16.3181,15.8337],[-16.3041,15.8389],[-16.287,15.8415],[-16.2715,15.8423],[-16.2575,15.8445],[-16.2498,15.8524],[-16.2456,15.8593],[-16.233,15.8924],[-16.2265,15.9045],[-16.2164,15.9126],[-16.1733,15.9343],[-16.1681,15.9381],[-16.1655,15.9431],[-16.1627,15.9533],[-16.1603,15.9579],[-16.1576,15.9621],[-16.1508,15.9693],[-16.116,15.9973],[-16.1109,16.0001],[-16.1106,16.0004],[-15.9219,16.1034],[-15.9156,16.1079],[-15.9086,16.1159],[-15.8981,16.1331],[-15.8942,16.143],[-15.8911,16.1468],[-15.8868,16.1496],[-15.8677,16.1591],[-15.851,16.1709],[-15.8474,16.1744],[-15.8411,16.1818],[-15.8285,16.1741],[-15.8076,16.1553],[-15.602,15.9279],[-15.5912,15.9212],[-15.434,15.9317],[-15.4267,15.9985],[-14.8545,15.9974],[-14.8375,15.9916],[-14.7572,15.95],[-14.7047,15.9535],[-14.5922,15.8773],[-14.5414,15.8047],[-14.6213,15.7322],[-14.6612,15.7068],[-14.712,15.6886],[-14.741,15.6778],[-14.7482,15.4963],[-14.7845,15.4419],[-14.6176,15.3585],[-14.5342,15.3693],[-14.5668,15.2315],[-14.585,15.1226],[-14.542,15.102],[-14.6213,15.0791],[-14.7337,15.0646],[-14.8027,15.0392],[-14.7736,14.9412],[-14.7301,14.8469],[-14.7664,14.7743],[-14.8099,14.7453],[-14.8244,14.6655],[-14.8627,14.6377],[-14.8856,14.6677],[-14.898,14.6771],[-14.9145,14.6734],[-14.9316,14.6656],[-15.0201,14.6126],[-15.0394,14.6053],[-15.0628,14.5999],[-15.0968,14.6032],[-15.2495,14.6329],[-15.2997,14.6514],[-15.3796,14.6983],[-15.4158,14.7195],[-15.4416,14.7472],[-15.4479,14.7689],[-15.453,14.829],[-15.4558,14.834],[-15.4594,14.8379],[-15.4681,14.84],[-15.481,14.841],[-15.5472,14.835],[-15.5565,14.8363],[-15.5715,14.8415],[-15.5793,14.8459],[-15.589,14.8527],[-15.5935,14.855],[-15.6212,14.8574],[-15.6741,14.8556],[-15.6999,14.8479],[-15.7177,14.8616],[-15.7224,14.8748],[-15.7233,14.888],[-15.7245,14.8936],[-15.727,14.898],[-15.7301,14.9017],[-15.747,14.9131],[-15.7721,14.9237],[-15.7765,14.9265],[-15.7801,14.93],[-15.7829,14.9341],[-15.7888,14.9492],[-15.7916,14.9528],[-15.7952,14.9551],[-15.8022,14.9578],[-15.8064,14.96],[-15.8103,14.963],[-15.8132,14.9672],[-15.815,14.9725],[-15.8162,14.9787],[-15.8171,14.9916],[-15.8168,15.0006],[-15.8319,15.0034],[-16.0771,15.0019],[-16.1003,14.9963],[-16.1324,14.969],[-16.1543,14.9801],[-16.1769,14.9885],[-16.1816,14.991],[-16.1869,14.995],[-16.1922,15.0001],[-16.199,15.0102],[-16.2022,15.0175],[-16.2044,15.0246],[-16.2078,15.0426],[-16.2096,15.0481],[-16.2119,15.0531],[-16.2172,15.0613],[-16.2465,15.0957],[-16.2519,15.1043],[-16.2615,15.1288],[-16.2639,15.1386],[-16.2649,15.147],[-16.2643,15.1557],[-16.2633,15.1599],[-16.261,15.1854],[-16.2638,15.199],[-16.268,15.2092],[-16.2717,15.2158],[-16.2745,15.2197],[-16.2834,15.2388],[-16.2863,15.2424],[-16.2903,15.2444],[-16.2959,15.2424],[-16.3046,15.2362],[-16.3086,15.2339],[-16.3135,15.2333],[-16.318,15.2357],[-16.3217,15.2414],[-16.3249,15.2543],[-16.3304,15.302],[-16.3319,15.3072],[-16.334,15.3114],[-16.3382,15.3151],[-16.3437,15.3178],[-16.3533,15.3187],[-16.359,15.3181],[-16.3742,15.3144],[-16.3859,15.3135],[-16.4331,15.3251],[-16.4407,15.3249],[-16.4469,15.3234],[-16.4514,15.3206],[-16.4552,15.3173],[-16.4583,15.3136],[-16.4668,15.3012],[-16.4765,15.2901],[-16.488,15.274],[-16.4946,15.2669],[-16.51,15.2472],[-16.5159,15.2322],[-16.5187,15.2212],[-16.5225,15.2114],[-16.5277,15.2031],[-16.5729,15.1571],[-16.5781,15.1486],[-16.5911,15.1338],[-16.5948,15.1306],[-16.5991,15.128],[-16.6042,15.1273],[-16.6093,15.1283],[-16.6143,15.1312],[-16.6184,15.1363],[-16.6232,15.1449],[-16.6244,15.1612],[-16.623,15.1655],[-16.6217,15.1686],[-16.6194,15.1724],[-16.618,15.1766],[-16.6172,15.1809],[-16.6185,15.1864],[-16.6213,15.1914],[-16.6281,15.1992],[-16.6339,15.2033],[-16.65,15.2106],[-16.6586,15.216],[-16.6624,15.219],[-16.666,15.2225],[-16.678,15.2384],[-16.6844,15.2511],[-16.6874,15.2557],[-16.6909,15.2597],[-16.6968,15.2635],[-16.7086,15.2686],[-16.7169,15.2707],[-16.7227,15.2817],[-16.7254,15.3008],[-16.7204,15.3429],[-16.7131,15.3663],[-16.6953,15.4008],[-16.6905,15.4202],[-16.6904,15.427],[-16.6909,15.4323],[-16.6959,15.444],[-16.7003,15.4512],[-16.7305,15.4745],[-16.7353,15.4773],[-16.7353,15.4773]]]}},{"type":"Feature","properties":{"id":"SEN-767","name":"Matam","nameBn":"মাতাম","type":"Region","bounds":[-14.8627,14.3943,-12.5705,16.1563],"center":[-13.5063,15.4647]},"geometry":{"type":"Polygon","coordinates":[[[-13.7196,16.1356],[-13.7148,16.1328],[-13.7045,16.1288],[-13.7,16.1256],[-13.6988,16.1239],[-13.6973,16.1204],[-13.696,16.1189],[-13.6936,16.1175],[-13.6875,16.1152],[-13.6847,16.1138],[-13.6781,16.1082],[-13.6759,16.1069],[-13.669,16.1057],[-13.6624,16.1074],[-13.635,16.1216],[-13.6293,16.1228],[-13.6105,16.1229],[-13.607,16.1233],[-13.5994,16.1255],[-13.5691,16.1382],[-13.5164,16.149],[-13.5028,16.1544],[-13.4973,16.1561],[-13.4915,16.1563],[-13.4849,16.155],[-13.4831,16.141],[-13.4999,16.1106],[-13.5017,16.0951],[-13.4915,16.0884],[-13.4551,16.1022],[-13.44,16.1019],[-13.4351,16.0965],[-13.427,16.0831],[-13.4221,16.0772],[-13.3946,16.0593],[-13.3886,16.0521],[-13.3861,16.0444],[-13.385,16.0269],[-13.3837,16.0192],[-13.3698,15.9855],[-13.3633,15.9751],[-13.3558,15.9655],[-13.347,15.9568],[-13.3218,15.9382],[-13.3159,15.9305],[-13.3137,15.9221],[-13.3144,15.9136],[-13.3182,15.8967],[-13.3182,15.8885],[-13.316,15.8818],[-13.3118,15.8758],[-13.2937,15.8553],[-13.2848,15.8399],[-13.28,15.8229],[-13.2797,15.8035],[-13.2819,15.7951],[-13.2852,15.7866],[-13.2875,15.7782],[-13.2861,15.7696],[-13.281,15.7628],[-13.274,15.7575],[-13.2587,15.7488],[-13.2507,15.7428],[-13.2439,15.7358],[-13.2325,15.7196],[-13.2283,15.7113],[-13.2271,15.704],[-13.2289,15.6966],[-13.244,15.6737],[-13.2477,15.6656],[-13.2487,15.6567],[-13.2473,15.6483],[-13.2378,15.6234],[-13.2228,15.6239],[-13.1928,15.629],[-13.1782,15.6282],[-13.1711,15.6254],[-13.1526,15.6124],[-13.1452,15.6095],[-13.1222,15.6035],[-13.1097,15.5964],[-13.099,15.5869],[-13.0918,15.5751],[-13.0895,15.561],[-13.0951,15.5234],[-13.095,15.5147],[-13.0931,15.5062],[-13.0896,15.497],[-13.0838,15.4927],[-13.0532,15.4851],[-13.0389,15.4869],[-13.0238,15.496],[-13.0105,15.5063],[-12.9958,15.5142],[-12.9802,15.5163],[-12.9643,15.5092],[-12.958,15.5017],[-12.9549,15.4931],[-12.9509,15.4654],[-12.9476,15.4586],[-12.9376,15.4458],[-12.9331,15.4383],[-12.9312,15.4305],[-12.931,15.397],[-12.9272,15.3807],[-12.919,15.3654],[-12.9068,15.3527],[-12.8473,15.3133],[-12.8345,15.3002],[-12.828,15.2839],[-12.8334,15.27],[-12.85,15.2674],[-12.8842,15.2708],[-12.8944,15.2634],[-12.8884,15.2509],[-12.8655,15.2287],[-12.8568,15.222],[-12.8479,15.2189],[-12.8383,15.2188],[-12.817,15.2231],[-12.8064,15.2231],[-12.7963,15.2203],[-12.7872,15.2142],[-12.782,15.2073],[-12.7795,15.1996],[-12.7793,15.1914],[-12.7847,15.166],[-12.784,15.1581],[-12.7809,15.1491],[-12.7798,15.1464],[-12.7546,15.1386],[-12.7466,15.1311],[-12.717,15.1034],[-12.6903,15.0924],[-12.6896,15.0925],[-12.6875,15.0851],[-12.5824,14.9495],[-12.5753,14.9335],[-12.5705,14.9102],[-12.5708,14.9028],[-12.5726,14.8937],[-12.6489,14.7063],[-12.7308,14.5847],[-12.7433,14.5714],[-12.7555,14.5655],[-12.9058,14.5468],[-12.9488,14.5462],[-13.2189,14.5946],[-13.2295,14.5913],[-13.2375,14.5871],[-13.5001,14.4037],[-13.5112,14.3985],[-13.7849,14.3943],[-13.8341,14.4018],[-14.2695,14.5625],[-14.2859,14.5717],[-14.3042,14.5852],[-14.313,14.604],[-14.3566,14.6437],[-14.3979,14.6308],[-14.4129,14.6232],[-14.4311,14.6079],[-14.4609,14.5735],[-14.5087,14.5403],[-14.633,14.5109],[-14.6312,14.5262],[-14.6308,14.5376],[-14.6325,14.5501],[-14.6391,14.5567],[-14.6549,14.5628],[-14.8176,14.6097],[-14.8442,14.622],[-14.8627,14.6377],[-14.8244,14.6655],[-14.8099,14.7453],[-14.7664,14.7743],[-14.7301,14.8469],[-14.7736,14.9412],[-14.8027,15.0392],[-14.7337,15.0646],[-14.6213,15.0791],[-14.542,15.102],[-14.585,15.1226],[-14.5668,15.2315],[-14.5342,15.3693],[-14.6176,15.3585],[-14.7845,15.4419],[-14.7482,15.4963],[-14.741,15.6778],[-14.712,15.6886],[-14.6612,15.7068],[-14.6213,15.7322],[-14.5414,15.8047],[-14.4979,15.7467],[-14.4144,15.7032],[-14.3382,15.6669],[-14.2983,15.6378],[-14.1496,15.7503],[-13.9899,15.8773],[-13.8775,15.9753],[-13.8629,16.0116],[-13.7614,16.0515],[-13.7196,16.1356]]]}},{"type":"Feature","properties":{"id":"SEN-5517","name":"Saint-Louis","nameBn":"সেন্ট লুইস","type":"Region","bounds":[-16.5423,15.6378,-13.7106,16.6914],"center":[-14.9945,16.3051]},"geometry":{"type":"Polygon","coordinates":[[[-14.9489,16.6706],[-14.9413,16.656],[-14.9309,16.6434],[-14.9125,16.6406],[-14.882,16.6477],[-14.7112,16.6358],[-14.6997,16.6371],[-14.6659,16.6457],[-14.656,16.6459],[-14.6472,16.6435],[-14.6191,16.6307],[-14.6081,16.6288],[-14.597,16.6292],[-14.5551,16.6406],[-14.5445,16.6408],[-14.5039,16.6327],[-14.4931,16.6325],[-14.4824,16.6337],[-14.472,16.6364],[-14.4621,16.6408],[-14.4358,16.656],[-14.4262,16.6596],[-14.4066,16.6608],[-14.3433,16.6367],[-14.3355,16.6315],[-14.3313,16.6241],[-14.3318,16.6131],[-14.337,16.5941],[-14.3353,16.5865],[-14.326,16.5824],[-14.2876,16.5857],[-14.278,16.5813],[-14.2746,16.5735],[-14.2733,16.5556],[-14.2681,16.5479],[-14.2577,16.5432],[-14.2337,16.5416],[-14.2223,16.5396],[-14.2142,16.535],[-14.1972,16.5135],[-14.1901,16.5071],[-14.1664,16.4909],[-14.1324,16.4526],[-14.073,16.4007],[-14.0398,16.3821],[-14.0331,16.3761],[-14.0156,16.3559],[-14.0067,16.3503],[-13.987,16.3429],[-13.9779,16.338],[-13.9719,16.3312],[-13.9712,16.3242],[-13.9775,16.3088],[-13.9793,16.3004],[-13.9773,16.2938],[-13.9674,16.2814],[-13.963,16.2724],[-13.9627,16.264],[-13.9678,16.246],[-13.9641,16.2301],[-13.9471,16.2211],[-13.9078,16.21],[-13.8996,16.2053],[-13.8838,16.1937],[-13.8772,16.1869],[-13.8723,16.1788],[-13.8638,16.1518],[-13.8591,16.1423],[-13.8528,16.1335],[-13.8448,16.126],[-13.8358,16.1206],[-13.8273,16.1185],[-13.8192,16.1193],[-13.8113,16.1221],[-13.7949,16.1312],[-13.7788,16.1432],[-13.772,16.1504],[-13.7542,16.1753],[-13.7467,16.1824],[-13.7382,16.1871],[-13.7294,16.1895],[-13.7201,16.19],[-13.7106,16.1889],[-13.7126,16.1761],[-13.7183,16.1593],[-13.7228,16.1461],[-13.7196,16.1356],[-13.7614,16.0515],[-13.8629,16.0116],[-13.8775,15.9753],[-13.9899,15.8773],[-14.1496,15.7503],[-14.2983,15.6378],[-14.3382,15.6669],[-14.4144,15.7032],[-14.4979,15.7467],[-14.5414,15.8047],[-14.5922,15.8773],[-14.7047,15.9535],[-14.7572,15.95],[-14.8375,15.9916],[-14.8545,15.9974],[-15.4267,15.9985],[-15.434,15.9317],[-15.5912,15.9212],[-15.602,15.9279],[-15.8076,16.1553],[-15.8285,16.1741],[-15.8411,16.1818],[-15.8474,16.1744],[-15.851,16.1709],[-15.8677,16.1591],[-15.8868,16.1496],[-15.8911,16.1468],[-15.8942,16.143],[-15.8981,16.1331],[-15.9086,16.1159],[-15.9156,16.1079],[-15.9219,16.1034],[-16.1106,16.0004],[-16.1109,16.0001],[-16.116,15.9973],[-16.1508,15.9693],[-16.1576,15.9621],[-16.1603,15.9579],[-16.1627,15.9533],[-16.1655,15.9431],[-16.1681,15.9381],[-16.1733,15.9343],[-16.2164,15.9126],[-16.2265,15.9045],[-16.233,15.8924],[-16.2456,15.8593],[-16.2498,15.8524],[-16.2575,15.8445],[-16.2715,15.8423],[-16.287,15.8415],[-16.3041,15.8389],[-16.3181,15.8337],[-16.3398,15.8185],[-16.3587,15.8125],[-16.3777,15.8091],[-16.5396,15.8057],[-16.5407,15.8057],[-16.5409,15.8057],[-16.5423,15.8088],[-16.5197,15.8464],[-16.5099,15.9015],[-16.5075,16.0104],[-16.5016,16.0219],[-16.4878,16.066],[-16.4704,16.1064],[-16.466,16.1741],[-16.4588,16.1942],[-16.4442,16.2063],[-16.4073,16.2148],[-16.3917,16.2247],[-16.3854,16.2349],[-16.3811,16.2467],[-16.3402,16.4159],[-16.3349,16.4558],[-16.3274,16.4746],[-16.3135,16.4933],[-16.2951,16.5106],[-16.2738,16.5232],[-16.251,16.5276],[-16.2179,16.5215],[-16.2067,16.5207],[-16.1954,16.5227],[-16.1852,16.5273],[-16.1558,16.5475],[-16.1443,16.5527],[-16.1323,16.5548],[-16.1197,16.5524],[-16.1105,16.5469],[-16.1031,16.5396],[-16.091,16.5222],[-16.074,16.5049],[-16.0538,16.4954],[-16.0312,16.4929],[-16.0073,16.4962],[-16.0002,16.5011],[-15.9931,16.5046],[-15.9856,16.5059],[-15.9773,16.504],[-15.9644,16.499],[-15.9581,16.4984],[-15.9507,16.4998],[-15.911,16.5169],[-15.8969,16.5184],[-15.862,16.5103],[-15.8536,16.5103],[-15.8289,16.5145],[-15.813,16.5138],[-15.7677,16.4995],[-15.7353,16.4977],[-15.7268,16.4953],[-15.7032,16.4844],[-15.6875,16.4805],[-15.6722,16.4814],[-15.6574,16.4862],[-15.6436,16.4947],[-15.6215,16.5142],[-15.6097,16.5213],[-15.5944,16.5236],[-15.5515,16.5151],[-15.5367,16.5165],[-15.5248,16.5222],[-15.5152,16.5309],[-15.4909,16.5645],[-15.4785,16.5752],[-15.464,16.5815],[-15.4488,16.5802],[-15.4394,16.5727],[-15.4337,16.5625],[-15.4269,16.5532],[-15.4145,16.548],[-15.3998,16.5483],[-15.3857,16.5518],[-15.3436,16.5687],[-15.328,16.572],[-15.2959,16.573],[-15.2486,16.5658],[-15.2325,16.5664],[-15.1251,16.5827],[-15.104,16.5904],[-15.0975,16.5945],[-15.0932,16.6002],[-15.0928,16.6076],[-15.0962,16.614],[-15.1123,16.6292],[-15.1183,16.6426],[-15.1163,16.6555],[-15.1076,16.6654],[-15.0933,16.6692],[-15.0789,16.665],[-15.0699,16.6553],[-15.062,16.6438],[-15.0516,16.6342],[-15.0444,16.6319],[-15.0369,16.6326],[-15.0299,16.6355],[-15.0237,16.64],[-15.0187,16.6461],[-15.0165,16.6526],[-15.0134,16.6666],[-15.0069,16.6758],[-14.9966,16.6824],[-14.9743,16.6914],[-14.9629,16.6858],[-14.9499,16.6723],[-14.9489,16.6706]]]}},{"type":"Feature","properties":{"id":"SEN-5514","name":"Sédhiou","nameBn":"সেধিউ","type":"Region","bounds":[-16.0237,12.4322,-15.1308,13.3866],"center":[-15.6151,12.8803]},"geometry":{"type":"Polygon","coordinates":[[[-15.1462,12.6792],[-15.1951,12.6794],[-15.2238,12.6752],[-15.2497,12.6636],[-15.3078,12.6227],[-15.3686,12.5954],[-15.4217,12.5571],[-15.4246,12.555],[-15.677,12.4393],[-15.7115,12.4322],[-15.884,12.4422],[-15.8842,12.4424],[-15.8886,12.4481],[-15.9196,12.493],[-15.9293,12.5145],[-15.9474,12.5404],[-15.9618,12.5699],[-15.9647,12.5962],[-15.9639,12.6022],[-15.948,12.5898],[-15.9396,12.5806],[-15.928,12.5786],[-15.8639,12.5776],[-15.8577,12.5732],[-15.8448,12.5599],[-15.84,12.5571],[-15.8312,12.5583],[-15.8055,12.5645],[-15.7941,12.5715],[-15.7829,12.5847],[-15.7688,12.5926],[-15.7479,12.5837],[-15.7424,12.5883],[-15.7361,12.5914],[-15.7296,12.5915],[-15.7159,12.5818],[-15.7101,12.5828],[-15.705,12.5852],[-15.6995,12.5837],[-15.6916,12.5749],[-15.6849,12.5579],[-15.6796,12.5502],[-15.6731,12.5444],[-15.6659,12.5402],[-15.6569,12.5376],[-15.6448,12.5373],[-15.6334,12.5395],[-15.5877,12.558],[-15.5694,12.5763],[-15.5387,12.6154],[-15.5273,12.6237],[-15.5171,12.6289],[-15.5098,12.6358],[-15.5071,12.6496],[-15.5128,12.6557],[-15.5238,12.6603],[-15.5299,12.6658],[-15.5213,12.6738],[-15.5311,12.6964],[-15.5402,12.7269],[-15.5434,12.758],[-15.5349,12.783],[-15.5233,12.7899],[-15.509,12.7904],[-15.494,12.789],[-15.4803,12.7905],[-15.4664,12.7965],[-15.4569,12.8037],[-15.4507,12.8128],[-15.4462,12.8246],[-15.4256,12.805],[-15.4068,12.7997],[-15.394,12.8102],[-15.3916,12.8382],[-15.4071,12.8223],[-15.4218,12.8228],[-15.4369,12.8293],[-15.453,12.8314],[-15.4681,12.8249],[-15.4928,12.8071],[-15.5107,12.8035],[-15.5209,12.8034],[-15.5359,12.8013],[-15.5495,12.7943],[-15.5554,12.7796],[-15.5554,12.7216],[-15.5441,12.6841],[-15.5423,12.6738],[-15.5417,12.6575],[-15.5425,12.6494],[-15.5455,12.6427],[-15.5697,12.6223],[-15.5774,12.6125],[-15.6278,12.5676],[-15.641,12.5595],[-15.6529,12.5589],[-15.6633,12.5635],[-15.6721,12.5707],[-15.6664,12.6007],[-15.6968,12.6142],[-15.7677,12.6254],[-15.8158,12.5954],[-15.8335,12.5913],[-15.8369,12.5944],[-15.8413,12.6015],[-15.8485,12.6085],[-15.8605,12.6117],[-15.8727,12.6096],[-15.8896,12.6002],[-15.9017,12.598],[-15.9133,12.6012],[-15.9284,12.6089],[-15.9533,12.6254],[-15.9545,12.6303],[-15.9532,12.6374],[-15.9527,12.6437],[-15.9565,12.6464],[-15.9697,12.6482],[-15.9767,12.6502],[-15.9812,12.6527],[-15.9875,12.661],[-16.0011,12.6874],[-16.0048,12.6908],[-16.0093,12.6927],[-16.0132,12.6962],[-16.017,12.7175],[-16.0221,12.729],[-16.0221,12.7291],[-16.0237,12.7375],[-16.0216,12.7515],[-16.0174,12.7605],[-16.0091,12.8225],[-16.0067,12.8285],[-16.0016,12.835],[-15.991,12.845],[-15.9883,12.8504],[-15.9865,12.857],[-15.985,12.8776],[-15.9818,12.8878],[-15.9864,12.9049],[-15.9879,12.9154],[-15.9868,12.9269],[-15.9418,12.9973],[-15.9016,13.0791],[-15.9013,13.0863],[-15.9072,13.0935],[-15.914,13.0967],[-15.9214,13.099],[-15.9278,13.1026],[-15.9289,13.1109],[-15.924,13.1228],[-15.9069,13.1417],[-15.8974,13.1574],[-15.8708,13.1572],[-15.8333,13.1568],[-15.8266,13.1617],[-15.8247,13.2329],[-15.8244,13.2485],[-15.8227,13.3194],[-15.8187,13.3335],[-15.8071,13.3398],[-15.7374,13.3463],[-15.6925,13.3603],[-15.6799,13.3607],[-15.6125,13.3542],[-15.5961,13.3558],[-15.566,13.3657],[-15.5429,13.378],[-15.5195,13.3866],[-15.4883,13.3853],[-15.3792,13.3625],[-15.3424,13.3626],[-15.3451,13.3188],[-15.3539,13.2807],[-15.3656,13.2425],[-15.3597,13.2073],[-15.3245,13.1838],[-15.2776,13.175],[-15.2629,13.1515],[-15.2424,13.0987],[-15.2394,13.0664],[-15.2365,13.0429],[-15.2042,13.0224],[-15.169,12.9989],[-15.1719,12.9725],[-15.169,12.9373],[-15.1484,12.9138],[-15.1308,12.8844],[-15.1308,12.8492],[-15.1308,12.8023],[-15.1455,12.77],[-15.1543,12.7406],[-15.1462,12.6792]]]}},{"type":"Feature","properties":{"id":"SEN-779","name":"Tambacounda","nameBn":"তাম্বাকুন্ডা অঞ্চল","type":"Region","bounds":[-14.8603,12.9842,-11.8835,15.1054],"center":[-13.2878,13.9278]},"geometry":{"type":"Polygon","coordinates":[[[-12.2641,14.7749],[-12.2565,14.7458],[-12.2366,14.7285],[-12.2305,14.7146],[-12.2228,14.7033],[-12.2076,14.6966],[-12.1914,14.6934],[-12.1803,14.6928],[-12.1858,14.6808],[-12.1903,14.6737],[-12.1922,14.6669],[-12.1898,14.656],[-12.1828,14.6502],[-12.1726,14.6479],[-12.165,14.6419],[-12.1659,14.6252],[-12.1715,14.6164],[-12.191,14.598],[-12.1984,14.5876],[-12.2005,14.5774],[-12.2014,14.5652],[-12.2042,14.5543],[-12.2115,14.548],[-12.2304,14.5367],[-12.2364,14.5195],[-12.2342,14.4986],[-12.2224,14.4549],[-12.2199,14.4346],[-12.2217,14.3912],[-12.2088,14.3888],[-12.1156,14.3551],[-12.1087,14.342],[-12.113,14.3296],[-12.1278,14.3243],[-12.1196,14.3106],[-12.11,14.2981],[-12.0978,14.2881],[-12.0584,14.2741],[-12.0443,14.2649],[-12.0345,14.2503],[-11.9976,14.1662],[-11.9954,14.144],[-12.0028,14.1035],[-12.0252,14.0267],[-12.0253,13.9852],[-12.0153,13.9593],[-11.999,13.9436],[-11.9804,13.9296],[-11.9629,13.9092],[-11.9568,13.8903],[-11.957,13.87],[-11.9629,13.8295],[-11.9788,13.7848],[-12.0123,13.7512],[-12.0976,13.7044],[-12.0839,13.693],[-12.0704,13.6732],[-12.0498,13.6344],[-12.0373,13.5983],[-12.0152,13.5644],[-11.9968,13.5442],[-11.939,13.503],[-11.9327,13.4961],[-11.9238,13.4811],[-11.9182,13.4747],[-11.9077,13.4696],[-11.8985,13.4685],[-11.8904,13.4651],[-11.8835,13.4535],[-11.8857,13.4358],[-11.9,13.3822],[-11.9582,13.3716],[-11.9934,13.3628],[-12.0199,13.3335],[-12.0463,13.3159],[-12.0668,13.3159],[-12.0727,13.3394],[-12.0786,13.3599],[-12.105,13.3687],[-12.1402,13.3775],[-12.1695,13.3951],[-12.1989,13.4098],[-12.2253,13.4303],[-12.2547,13.4479],[-12.2781,13.4391],[-12.2781,13.4157],[-12.2928,13.401],[-12.2869,13.3834],[-12.2576,13.3482],[-12.2517,13.3247],[-12.2664,13.3071],[-12.2928,13.3071],[-12.3251,13.3129],[-12.3368,13.3071],[-12.3427,13.2836],[-12.3515,13.2719],[-12.3574,13.2542],[-12.3691,13.2513],[-12.3809,13.2601],[-12.3955,13.2777],[-12.419,13.2836],[-12.4454,13.2777],[-12.4601,13.266],[-12.466,13.2513],[-12.4865,13.2484],[-12.4982,13.2337],[-12.5012,13.2132],[-12.5129,13.1926],[-12.5305,13.1809],[-12.5628,13.1721],[-12.5863,13.175],[-12.601,13.1838],[-12.6156,13.1926],[-12.6274,13.1838],[-12.645,13.175],[-12.6655,13.175],[-12.6861,13.1721],[-12.7008,13.1603],[-12.7008,13.1368],[-12.6949,13.1134],[-12.7096,13.0958],[-12.733,13.0811],[-12.7418,13.0635],[-12.7418,13.0459],[-12.7565,13.0429],[-12.7712,13.0488],[-12.7917,13.0517],[-12.8005,13.0429],[-12.8035,13.0253],[-12.8181,13.0195],[-12.8358,13.0195],[-12.8446,13.0106],[-12.8446,12.9989],[-12.8534,12.9842],[-12.8739,12.9901],[-12.9003,13.0077],[-12.9238,13.0312],[-12.9385,13.0312],[-12.9561,13.0488],[-12.9766,13.0576],[-13.0324,13.0576],[-13.05,13.0488],[-13.0735,13.0371],[-13.094,13.0371],[-13.1028,13.0283],[-13.1116,13.0136],[-13.1292,13.0136],[-13.1469,13.0283],[-13.1733,13.0371],[-13.2026,13.04],[-13.2173,13.04],[-13.2458,13.0294],[-13.2895,13.0169],[-13.3092,13.0218],[-13.3284,13.0437],[-13.333,13.0692],[-13.3312,13.0995],[-13.3348,13.1241],[-13.3557,13.1331],[-13.3557,13.1393],[-13.3148,13.1536],[-13.3275,13.1645],[-13.3258,13.1773],[-13.3213,13.191],[-13.3253,13.2048],[-13.3315,13.2145],[-13.3278,13.2237],[-13.3284,13.2286],[-13.3331,13.2322],[-13.3402,13.2356],[-13.3467,13.2399],[-13.3495,13.246],[-13.3526,13.2495],[-13.3586,13.2492],[-13.3662,13.2488],[-13.3694,13.2525],[-13.3705,13.261],[-13.3729,13.2683],[-13.3768,13.2764],[-13.3776,13.2918],[-13.3731,13.3001],[-13.3653,13.3087],[-13.3557,13.3249],[-13.3646,13.341],[-13.3738,13.3423],[-13.3842,13.3365],[-13.3967,13.3311],[-13.4352,13.3385],[-13.4761,13.3385],[-13.4853,13.333],[-13.4938,13.3093],[-13.5065,13.3044],[-13.4999,13.3258],[-13.5126,13.3299],[-13.5326,13.3246],[-13.5475,13.3174],[-13.5522,13.3114],[-13.5581,13.2994],[-13.568,13.2976],[-13.5797,13.3009],[-13.5856,13.3082],[-13.5823,13.3249],[-13.5995,13.3133],[-13.6001,13.2598],[-13.6232,13.2491],[-13.6228,13.2401],[-13.6349,13.2402],[-13.6412,13.2414],[-13.6485,13.2464],[-13.6516,13.2527],[-13.6537,13.2599],[-13.655,13.2683],[-13.6578,13.2735],[-13.6622,13.2767],[-13.6766,13.2817],[-13.6864,13.2884],[-13.6903,13.2941],[-13.6913,13.2999],[-13.6884,13.3107],[-13.6876,13.317],[-13.688,13.3249],[-13.6914,13.3295],[-13.6969,13.3325],[-13.7025,13.3365],[-13.7046,13.341],[-13.7036,13.3453],[-13.6946,13.3575],[-13.6924,13.3622],[-13.6922,13.3686],[-13.6955,13.3721],[-13.7009,13.3738],[-13.7141,13.3732],[-13.7385,13.3688],[-13.7449,13.3683],[-13.7511,13.3684],[-13.7577,13.3692],[-13.7639,13.3711],[-13.7701,13.3746],[-13.772,13.3793],[-13.771,13.3836],[-13.7683,13.3876],[-13.7651,13.3913],[-13.7622,13.3954],[-13.7596,13.3997],[-13.7583,13.4052],[-13.758,13.4113],[-13.7584,13.4173],[-13.7581,13.423],[-13.7569,13.4282],[-13.7547,13.4327],[-13.7521,13.437],[-13.7338,13.4544],[-13.7308,13.4585],[-13.7288,13.4637],[-13.7297,13.4662],[-13.733,13.4681],[-13.7433,13.4708],[-13.7584,13.4765],[-13.7639,13.4776],[-13.7699,13.4778],[-13.7755,13.4767],[-13.7808,13.4749],[-13.7895,13.4696],[-13.7947,13.4683],[-13.8008,13.4692],[-13.8076,13.4743],[-13.8101,13.4801],[-13.8101,13.4858],[-13.8082,13.4907],[-13.8055,13.4948],[-13.8015,13.4997],[-13.8008,13.5014],[-13.8003,13.5045],[-13.8003,13.5141],[-13.7965,13.524],[-13.7957,13.5303],[-13.7984,13.534],[-13.8029,13.5356],[-13.8142,13.5353],[-13.8247,13.5367],[-13.8296,13.5356],[-13.8335,13.5328],[-13.8363,13.5285],[-13.8379,13.5234],[-13.8401,13.5187],[-13.8436,13.5155],[-13.8493,13.5143],[-13.8603,13.5133],[-13.8694,13.5095],[-13.8825,13.5038],[-13.8846,13.5055],[-13.8898,13.514],[-13.8962,13.5329],[-13.9013,13.5416],[-13.9181,13.555],[-13.9421,13.5669],[-13.9675,13.5756],[-13.9885,13.5791],[-14.0019,13.577],[-14.0223,13.5653],[-14.034,13.5602],[-14.0445,13.5586],[-14.0618,13.5601],[-14.0726,13.5597],[-14.0929,13.5547],[-14.1391,13.5316],[-14.1968,13.5188],[-14.2158,13.5108],[-14.2712,13.477],[-14.3299,13.4564],[-14.3473,13.4524],[-14.3656,13.4548],[-14.3896,13.4659],[-14.4621,13.5167],[-14.4703,13.5224],[-14.4804,13.5331],[-14.4869,13.5465],[-14.5002,13.59],[-14.5097,13.6091],[-14.5232,13.6257],[-14.5426,13.6408],[-14.5855,13.6605],[-14.6267,13.6635],[-14.6672,13.6529],[-14.7286,13.6193],[-14.7409,13.6154],[-14.7549,13.6204],[-14.796,13.6447],[-14.8029,13.6523],[-14.8224,13.7172],[-14.8313,13.7356],[-14.844,13.7527],[-14.8603,13.7656],[-14.8563,13.7787],[-14.8382,13.8092],[-14.8264,13.8256],[-14.8126,13.84],[-14.8022,13.8439],[-14.7904,13.8461],[-14.7775,13.8466],[-14.7716,13.8475],[-14.7618,13.852],[-14.7157,13.8633],[-14.7112,13.8659],[-14.6875,13.884],[-14.6287,13.9391],[-14.6258,13.9437],[-14.6238,13.9512],[-14.6217,13.9632],[-14.6225,13.981],[-14.6185,13.9987],[-14.6172,14.0004],[-14.6131,14.0025],[-14.6042,14.0058],[-14.5947,14.0104],[-14.5907,14.016],[-14.5864,14.0236],[-14.5775,14.0648],[-14.5774,14.0816],[-14.5794,14.1011],[-14.5886,14.1456],[-14.593,14.2216],[-14.5984,14.2392],[-14.611,14.2576],[-14.6337,14.3226],[-14.633,14.5109],[-14.5087,14.5403],[-14.4609,14.5735],[-14.4311,14.6079],[-14.4129,14.6232],[-14.3979,14.6308],[-14.3566,14.6437],[-14.313,14.604],[-14.3042,14.5852],[-14.2859,14.5717],[-14.2695,14.5625],[-13.8341,14.4018],[-13.7849,14.3943],[-13.5112,14.3985],[-13.5001,14.4037],[-13.2375,14.5871],[-13.2295,14.5913],[-13.2189,14.5946],[-12.9488,14.5462],[-12.9058,14.5468],[-12.7555,14.5655],[-12.7433,14.5714],[-12.7308,14.5847],[-12.6489,14.7063],[-12.5726,14.8937],[-12.5708,14.9028],[-12.5705,14.9102],[-12.5753,14.9335],[-12.5824,14.9495],[-12.6875,15.0851],[-12.6896,15.0925],[-12.6793,15.0938],[-12.6476,15.1032],[-12.6323,15.1054],[-12.6229,15.1023],[-12.6151,15.0946],[-12.6021,15.0788],[-12.5471,15.0472],[-12.5296,15.0344],[-12.519,15.0283],[-12.4956,15.023],[-12.4849,15.0173],[-12.4763,15.0077],[-12.4715,14.998],[-12.4482,14.9182],[-12.4476,14.9074],[-12.4338,14.8994],[-12.4001,14.8604],[-12.3825,14.846],[-12.3196,14.8172],[-12.2641,14.7749]]]}},{"type":"Feature","properties":{"id":"SEN-768","name":"Thiès","nameBn":"থিস","type":"Region","bounds":[-17.182,14.1249,-16.1324,15.4773],"center":[-16.8671,14.6931]},"geometry":{"type":"Polygon","coordinates":[[[-17.182,14.8971],[-17.173,14.9008],[-17.1387,14.9277],[-16.9797,15.1119],[-16.9479,15.1579],[-16.8782,15.2331],[-16.7392,15.4724],[-16.7353,15.4773],[-16.7353,15.4773],[-16.7305,15.4745],[-16.7003,15.4512],[-16.6959,15.444],[-16.6909,15.4323],[-16.6904,15.427],[-16.6905,15.4202],[-16.6953,15.4008],[-16.7131,15.3663],[-16.7204,15.3429],[-16.7254,15.3008],[-16.7227,15.2817],[-16.7169,15.2707],[-16.7086,15.2686],[-16.6968,15.2635],[-16.6909,15.2597],[-16.6874,15.2557],[-16.6844,15.2511],[-16.678,15.2384],[-16.666,15.2225],[-16.6624,15.219],[-16.6586,15.216],[-16.65,15.2106],[-16.6339,15.2033],[-16.6281,15.1992],[-16.6213,15.1914],[-16.6185,15.1864],[-16.6172,15.1809],[-16.618,15.1766],[-16.6194,15.1724],[-16.6217,15.1686],[-16.623,15.1655],[-16.6244,15.1612],[-16.6232,15.1449],[-16.6184,15.1363],[-16.6143,15.1312],[-16.6093,15.1283],[-16.6042,15.1273],[-16.5991,15.128],[-16.5948,15.1306],[-16.5911,15.1338],[-16.5781,15.1486],[-16.5729,15.1571],[-16.5277,15.2031],[-16.5225,15.2114],[-16.5187,15.2212],[-16.5159,15.2322],[-16.51,15.2472],[-16.4946,15.2669],[-16.488,15.274],[-16.4765,15.2901],[-16.4668,15.3012],[-16.4583,15.3136],[-16.4552,15.3173],[-16.4514,15.3206],[-16.4469,15.3234],[-16.4407,15.3249],[-16.4331,15.3251],[-16.3859,15.3135],[-16.3742,15.3144],[-16.359,15.3181],[-16.3533,15.3187],[-16.3437,15.3178],[-16.3382,15.3151],[-16.334,15.3114],[-16.3319,15.3072],[-16.3304,15.302],[-16.3249,15.2543],[-16.3217,15.2414],[-16.318,15.2357],[-16.3135,15.2333],[-16.3086,15.2339],[-16.3046,15.2362],[-16.2959,15.2424],[-16.2903,15.2444],[-16.2863,15.2424],[-16.2834,15.2388],[-16.2745,15.2197],[-16.2717,15.2158],[-16.268,15.2092],[-16.2638,15.199],[-16.261,15.1854],[-16.2633,15.1599],[-16.2643,15.1557],[-16.2649,15.147],[-16.2639,15.1386],[-16.2615,15.1288],[-16.2519,15.1043],[-16.2465,15.0957],[-16.2172,15.0613],[-16.2119,15.0531],[-16.2096,15.0481],[-16.2078,15.0426],[-16.2044,15.0246],[-16.2022,15.0175],[-16.199,15.0102],[-16.1922,15.0001],[-16.1869,14.995],[-16.1816,14.991],[-16.1769,14.9885],[-16.1543,14.9801],[-16.1324,14.969],[-16.1363,14.9565],[-16.1447,14.9507],[-16.1927,14.9263],[-16.2043,14.9232],[-16.2176,14.9224],[-16.2263,14.9235],[-16.2326,14.9254],[-16.2379,14.9278],[-16.2419,14.9309],[-16.2448,14.9349],[-16.2468,14.9398],[-16.2477,14.9452],[-16.248,14.9509],[-16.25,14.9563],[-16.2536,14.961],[-16.2602,14.9644],[-16.2766,14.9707],[-16.2809,14.9734],[-16.3146,14.9997],[-16.3195,15.001],[-16.3234,15.001],[-16.3251,15.0005],[-16.3257,15.0003],[-16.3261,15.0],[-16.3271,14.9994],[-16.3316,14.9977],[-16.3392,14.9958],[-16.3537,14.9938],[-16.3625,14.994],[-16.3697,14.9952],[-16.3787,14.9985],[-16.3904,15.0053],[-16.3927,15.0076],[-16.3956,15.0098],[-16.3995,15.0116],[-16.6405,14.9444],[-16.6593,14.9346],[-16.6685,14.92],[-16.6745,14.9045],[-16.6791,14.8822],[-16.6783,14.8775],[-16.6763,14.8746],[-16.6706,14.8694],[-16.6666,14.8669],[-16.6574,14.8644],[-16.6525,14.8626],[-16.6483,14.8598],[-16.6454,14.8557],[-16.6436,14.8505],[-16.6426,14.8445],[-16.6429,14.8193],[-16.6455,14.8088],[-16.6462,14.8033],[-16.6443,14.7915],[-16.6428,14.7858],[-16.6408,14.7808],[-16.637,14.7776],[-16.6273,14.7738],[-16.623,14.771],[-16.6189,14.7678],[-16.6156,14.7643],[-16.6133,14.7602],[-16.6127,14.7556],[-16.6133,14.7512],[-16.6168,14.7404],[-16.618,14.7324],[-16.6185,14.7238],[-16.6168,14.7192],[-16.6136,14.7157],[-16.6095,14.7129],[-16.6,14.7085],[-16.5959,14.7056],[-16.5925,14.7019],[-16.5901,14.6972],[-16.5885,14.6917],[-16.5875,14.6856],[-16.59,14.677],[-16.5953,14.6672],[-16.6101,14.6517],[-16.6169,14.6428],[-16.6214,14.6357],[-16.6214,14.6298],[-16.6205,14.6244],[-16.618,14.6197],[-16.6147,14.6162],[-16.6027,14.6089],[-16.5524,14.587],[-16.5313,14.5806],[-16.5388,14.5504],[-16.5458,14.5299],[-16.5511,14.5214],[-16.5773,14.4879],[-16.5938,14.471],[-16.6026,14.4657],[-16.6131,14.4624],[-16.6179,14.4602],[-16.6256,14.4541],[-16.6354,14.4423],[-16.6391,14.4388],[-16.643,14.4356],[-16.6479,14.4332],[-16.6537,14.4321],[-16.6866,14.4297],[-16.6915,14.4285],[-16.695,14.4267],[-16.7453,14.2856],[-16.7593,14.2281],[-16.7564,14.2237],[-16.7528,14.2206],[-16.7485,14.2174],[-16.7453,14.2135],[-16.7455,14.2075],[-16.7497,14.1997],[-16.7754,14.1785],[-16.7783,14.1738],[-16.7781,14.1654],[-16.7753,14.1606],[-16.7719,14.1562],[-16.7694,14.1521],[-16.7704,14.1469],[-16.7752,14.1421],[-16.8033,14.1331],[-16.8111,14.125],[-16.8113,14.1249],[-16.8208,14.1435],[-16.8297,14.1541],[-16.8428,14.1601],[-16.8688,14.1658],[-16.8787,14.1745],[-16.8839,14.189],[-16.8924,14.2429],[-16.8989,14.26],[-16.907,14.2725],[-16.9259,14.2912],[-16.9346,14.2959],[-16.9412,14.2973],[-16.9455,14.3014],[-16.947,14.3145],[-16.9458,14.3248],[-16.9407,14.3444],[-16.9396,14.3559],[-16.9444,14.3724],[-16.9565,14.3901],[-16.9879,14.421],[-17.0595,14.4539],[-17.0705,14.4654],[-17.0762,14.4786],[-17.1115,14.5302],[-17.1378,14.599],[-17.1484,14.6132],[-17.1484,14.6134],[-17.1483,14.6139],[-17.1295,14.7503],[-17.1307,14.7596],[-17.134,14.7686],[-17.1496,14.7945],[-17.153,14.8035],[-17.1534,14.8272],[-17.1543,14.8326],[-17.1601,14.8508],[-17.1807,14.8956],[-17.182,14.8971]]]}},{"type":"Feature","properties":{"id":"SEN-775","name":"Ziguinchor","nameBn":"জিগুইনকা","type":"Region","bounds":[-16.803,12.3325,-15.884,13.1643],"center":[-16.3435,12.4818]},"geometry":{"type":"MultiPolygon","coordinates":[[[[-15.9733,12.4372],[-15.9925,12.4407],[-16.055,12.4612],[-16.0905,12.4643],[-16.1661,12.4514],[-16.1728,12.4485],[-16.1772,12.4452],[-16.1819,12.4434],[-16.1901,12.4448],[-16.2117,12.4531],[-16.2224,12.4551],[-16.2329,12.4529],[-16.3019,12.4162],[-16.382,12.3738],[-16.4123,12.3617],[-16.4627,12.3613],[-16.5149,12.3485],[-16.5333,12.3478],[-16.6689,12.3567],[-16.7056,12.348],[-16.7284,12.3325],[-16.735,12.3452],[-16.7397,12.3584],[-16.7441,12.3789],[-16.7505,12.3856],[-16.7655,12.396],[-16.7885,12.418],[-16.7987,12.4309],[-16.803,12.4438],[-16.803,12.4854],[-16.8008,12.4945],[-16.7909,12.5032],[-16.7887,12.5124],[-16.7814,12.5229],[-16.7317,12.5521],[-16.7099,12.5528],[-16.6788,12.5502],[-16.6454,12.5707],[-16.6347,12.5795],[-16.629,12.5876],[-16.6246,12.596],[-16.618,12.6055],[-16.5797,12.6328],[-16.5614,12.6118],[-16.5472,12.5739],[-16.5333,12.5653],[-16.5327,12.5809],[-16.5224,12.5931],[-16.5048,12.598],[-16.4851,12.5937],[-16.4516,12.575],[-16.4215,12.5669],[-16.3883,12.5516],[-16.371,12.5502],[-16.3513,12.5595],[-16.3273,12.5887],[-16.3096,12.598],[-16.2863,12.5971],[-16.2665,12.59],[-16.2467,12.588],[-16.2239,12.6018],[-16.2122,12.6064],[-16.2045,12.5976],[-16.1986,12.5849],[-16.1929,12.5776],[-16.115,12.6061],[-16.0971,12.6103],[-16.0731,12.6117],[-16.0576,12.6162],[-16.0447,12.6255],[-16.0298,12.633],[-16.0079,12.6321],[-15.9903,12.6229],[-15.9639,12.6022],[-15.9647,12.5962],[-15.9618,12.5699],[-15.9474,12.5404],[-15.9293,12.5145],[-15.9196,12.493],[-15.8886,12.4481],[-15.8842,12.4424],[-15.884,12.4422],[-15.8939,12.4428],[-15.9733,12.4372]]],[[[-16.6735,13.1643],[-16.63,13.1639],[-16.4652,13.1624],[-16.3133,13.1611],[-16.0921,13.1591],[-15.9617,13.158],[-15.8974,13.1574],[-15.9069,13.1417],[-15.924,13.1228],[-15.9289,13.1109],[-15.9278,13.1026],[-15.9214,13.099],[-15.914,13.0967],[-15.9072,13.0935],[-15.9013,13.0863],[-15.9016,13.0791],[-15.9418,12.9973],[-15.9868,12.9269],[-15.9879,12.9154],[-15.9864,12.9049],[-15.9818,12.8878],[-15.985,12.8776],[-15.9865,12.857],[-15.9883,12.8504],[-15.991,12.845],[-16.0016,12.835],[-16.0067,12.8285],[-16.0091,12.8225],[-16.0174,12.7605],[-16.0216,12.7515],[-16.0237,12.7375],[-16.0221,12.7291],[-16.0221,12.729],[-16.0283,12.729],[-16.0283,12.7216],[-16.0298,12.7175],[-16.0405,12.697],[-16.0452,12.6905],[-16.0489,12.6564],[-16.0768,12.639],[-16.1177,12.6321],[-16.1283,12.6277],[-16.1489,12.6144],[-16.155,12.6117],[-16.1656,12.6129],[-16.1898,12.6191],[-16.2276,12.6191],[-16.2388,12.6165],[-16.2579,12.6082],[-16.2686,12.6055],[-16.2807,12.6055],[-16.313,12.6117],[-16.3238,12.6096],[-16.3378,12.6002],[-16.3468,12.598],[-16.3502,12.5933],[-16.3551,12.5826],[-16.362,12.5712],[-16.371,12.5645],[-16.412,12.5776],[-16.4452,12.5961],[-16.4607,12.6089],[-16.4672,12.6223],[-16.4712,12.6246],[-16.4803,12.6274],[-16.4896,12.6318],[-16.4945,12.639],[-16.4928,12.6489],[-16.4865,12.6578],[-16.4773,12.6641],[-16.4672,12.6663],[-16.4672,12.6738],[-16.4826,12.6741],[-16.4923,12.6817],[-16.4979,12.6938],[-16.5013,12.7079],[-16.5082,12.6254],[-16.5157,12.6254],[-16.5289,12.6428],[-16.5657,12.6739],[-16.5702,12.6936],[-16.5819,12.6844],[-16.5897,12.6733],[-16.5988,12.664],[-16.6146,12.6601],[-16.6266,12.6625],[-16.6347,12.6694],[-16.6387,12.68],[-16.6379,12.6936],[-16.6238,12.7197],[-16.6038,12.7393],[-16.5907,12.762],[-16.5969,12.7973],[-16.6014,12.7702],[-16.6037,12.7625],[-16.6091,12.7537],[-16.6138,12.7494],[-16.6185,12.7465],[-16.6384,12.7285],[-16.6469,12.7182],[-16.651,12.7053],[-16.6523,12.684],[-16.6451,12.6486],[-16.6472,12.6322],[-16.6773,12.6196],[-16.7211,12.5837],[-16.7546,12.5722],[-16.7731,12.583],[-16.7809,12.6088],[-16.7825,12.6427],[-16.7771,12.678],[-16.7612,12.7132],[-16.7355,12.7329],[-16.7006,12.7216],[-16.699,12.7364],[-16.7132,12.7473],[-16.734,12.7514],[-16.7515,12.7454],[-16.7721,12.7206],[-16.7836,12.7126],[-16.7962,12.7153],[-16.7903,12.7235],[-16.7882,12.7321],[-16.7903,12.7405],[-16.7962,12.7488],[-16.7745,12.7786],[-16.7701,12.7934],[-16.7751,12.8109],[-16.7825,12.8109],[-16.7872,12.7999],[-16.7941,12.795],[-16.8003,12.7988],[-16.803,12.814],[-16.8005,12.826],[-16.7945,12.8388],[-16.7589,12.8908],[-16.7552,12.9035],[-16.7563,12.9162],[-16.761,12.9397],[-16.7621,12.9512],[-16.7598,12.9721],[-16.75,13.0136],[-16.7478,13.0403],[-16.7493,13.0566],[-16.7537,13.065],[-16.7521,13.088],[-16.7485,13.0992],[-16.7422,13.1074],[-16.7263,13.1226],[-16.7232,13.1322],[-16.7084,13.1567],[-16.6735,13.1643]]]]}}]}