{"type":"FeatureCollection","features":[{"type":"Feature","properties":{"id":"SGP-4871","name":"Central Singapore","nameBn":"সেন্ট্রাল সিঙ্গাপুর","type":null,"bounds":[103.8064,1.2719,103.9094,1.4266],"center":[103.846,1.317]},"geometry":{"type":"Polygon","coordinates":[[[103.8981,1.3052],[103.8877,1.3013],[103.8527,1.2773],[103.8469,1.2719],[103.84,1.2737],[103.8284,1.2783],[103.8193,1.2835],[103.8096,1.2938],[103.807,1.3035],[103.8076,1.3119],[103.8064,1.3249],[103.8148,1.3314],[103.8238,1.3404],[103.8238,1.3508],[103.8193,1.3579],[103.8245,1.3657],[103.8348,1.3715],[103.8426,1.378],[103.8413,1.3857],[103.8374,1.3935],[103.8309,1.4006],[103.8335,1.409],[103.8413,1.4168],[103.8504,1.4174],[103.8627,1.4168],[103.8743,1.4181],[103.8815,1.4266],[103.9094,1.4126],[103.9047,1.4064],[103.9009,1.3967],[103.8989,1.3864],[103.8905,1.3831],[103.884,1.3799],[103.8769,1.3728],[103.873,1.3631],[103.873,1.3534],[103.875,1.343],[103.8808,1.3333],[103.8879,1.3223],[103.895,1.3106],[103.8981,1.3052]]]}},{"type":"Feature","properties":{"id":"SGP-4874","name":"North East","nameBn":"নর্থ ইস্ট","type":null,"bounds":[103.8976,1.354,103.9658,1.4126],"center":[103.925,1.3838]},"geometry":{"type":"Polygon","coordinates":[[[103.9094,1.4126],[103.9325,1.4011],[103.9608,1.3911],[103.9658,1.39],[103.9623,1.3831],[103.9546,1.3767],[103.9455,1.3728],[103.9455,1.365],[103.9423,1.354],[103.9352,1.354],[103.93,1.3585],[103.917,1.3644],[103.906,1.3683],[103.8976,1.3747],[103.8989,1.3864],[103.9009,1.3967],[103.9047,1.4064],[103.9094,1.4126]]]}},{"type":"Feature","properties":{"id":"SGP-4873","name":"North West","nameBn":"নর্থ ওয়েস্ট","type":null,"bounds":[103.7585,1.3249,103.8815,1.4486],"center":[103.808,1.4181]},"geometry":{"type":"Polygon","coordinates":[[[103.7622,1.431],[103.79,1.4443],[103.8049,1.4486],[103.8316,1.4471],[103.8572,1.4387],[103.8815,1.4266],[103.8743,1.4181],[103.8627,1.4168],[103.8504,1.4174],[103.8413,1.4168],[103.8335,1.409],[103.8309,1.4006],[103.8374,1.3935],[103.8413,1.3857],[103.8426,1.378],[103.8348,1.3715],[103.8245,1.3657],[103.8193,1.3579],[103.8238,1.3508],[103.8238,1.3404],[103.8148,1.3314],[103.8064,1.3249],[103.7979,1.3339],[103.7902,1.3404],[103.7824,1.343],[103.7805,1.3475],[103.7843,1.3514],[103.7882,1.356],[103.7876,1.3624],[103.7779,1.3702],[103.7708,1.376],[103.7636,1.3831],[103.7585,1.3903],[103.7585,1.4019],[103.7591,1.4103],[103.761,1.4213],[103.7622,1.431]]]}},{"type":"Feature","properties":{"id":"SGP-4875","name":"South East","nameBn":"দক্ষিণ -পূর্ব","type":null,"bounds":[103.873,1.3052,104.0034,1.39],"center":[103.932,1.3352]},"geometry":{"type":"Polygon","coordinates":[[[103.9658,1.39],[103.9857,1.3854],[103.9995,1.3803],[104.0034,1.3742],[103.9919,1.3549],[103.9749,1.3345],[103.9544,1.3181],[103.9319,1.3115],[103.9072,1.3087],[103.8981,1.3052],[103.895,1.3106],[103.8879,1.3223],[103.8808,1.3333],[103.875,1.343],[103.873,1.3534],[103.873,1.3631],[103.8769,1.3728],[103.884,1.3799],[103.8905,1.3831],[103.8989,1.3864],[103.8976,1.3747],[103.906,1.3683],[103.917,1.3644],[103.93,1.3585],[103.9352,1.354],[103.9423,1.354],[103.9455,1.365],[103.9455,1.3728],[103.9546,1.3767],[103.9623,1.3831],[103.9658,1.39]]]}},{"type":"Feature","properties":{"id":"SGP-4872","name":"South West","nameBn":"দক্ষিণ পশ্চিম","type":null,"bounds":[103.6404,1.2643,103.8469,1.431],"center":[103.705,1.3372]},"geometry":{"type":"Polygon","coordinates":[[[103.8469,1.2719],[103.8441,1.2685],[103.8389,1.2663],[103.826,1.2643],[103.8016,1.2648],[103.7896,1.2679],[103.7844,1.2739],[103.7759,1.2876],[103.7551,1.2971],[103.7302,1.3029],[103.7088,1.3052],[103.6653,1.3041],[103.6476,1.3084],[103.6404,1.3223],[103.6447,1.338],[103.6746,1.3803],[103.6789,1.3992],[103.6838,1.4099],[103.6951,1.4213],[103.7083,1.4294],[103.7179,1.431],[103.7398,1.4281],[103.7622,1.431],[103.761,1.4213],[103.7591,1.4103],[103.7585,1.4019],[103.7585,1.3903],[103.7636,1.3831],[103.7708,1.376],[103.7779,1.3702],[103.7876,1.3624],[103.7882,1.356],[103.7843,1.3514],[103.7805,1.3475],[103.7824,1.343],[103.7902,1.3404],[103.7979,1.3339],[103.8064,1.3249],[103.8076,1.3119],[103.807,1.3035],[103.8096,1.2938],[103.8193,1.2835],[103.8284,1.2783],[103.84,1.2737],[103.8469,1.2719]]]}}]}