{"type":"FeatureCollection","features":[{"type":"Feature","properties":{"id":"SLV-1343","name":"Ahuachapán","nameBn":"আহোয়াচাপান বিভাগ","type":"Department","bounds":[-90.1148,13.6651,-89.6959,14.0601],"center":[-89.9057,13.8657]},"geometry":{"type":"Polygon","coordinates":[[[-90.0983,13.7314],[-90.1143,13.7963],[-90.1148,13.812],[-90.1123,13.8283],[-90.107,13.8441],[-90.099,13.8585],[-90.0871,13.8705],[-90.0596,13.8847],[-90.0474,13.8943],[-90.0381,13.9084],[-90.0315,13.9229],[-90.023,13.937],[-90.0082,13.9497],[-89.9121,14.0152],[-89.8908,14.0359],[-89.8801,14.0427],[-89.8359,14.0591],[-89.8211,14.0601],[-89.803,14.0555],[-89.7769,14.0358],[-89.7623,14.03],[-89.7476,14.0376],[-89.7473,14.0432],[-89.748,14.0449],[-89.7397,14.0415],[-89.7216,14.0303],[-89.7179,14.0273],[-89.7162,14.0252],[-89.715,14.023],[-89.7128,14.0149],[-89.7118,14.0125],[-89.7103,14.0103],[-89.7067,14.0069],[-89.7027,14.0038],[-89.699,14.0002],[-89.699,14.0],[-89.6968,13.9961],[-89.6959,13.9937],[-89.6988,13.9758],[-89.7188,13.909],[-89.7366,13.9017],[-89.7585,13.8958],[-89.7707,13.894],[-89.7735,13.8922],[-89.7756,13.8893],[-89.7766,13.8829],[-89.7769,13.8787],[-89.7745,13.86],[-89.7728,13.8541],[-89.771,13.8496],[-89.7686,13.845],[-89.7677,13.8427],[-89.7683,13.8392],[-89.7887,13.809],[-89.7906,13.8036],[-89.7911,13.7996],[-89.7827,13.7736],[-89.7816,13.768],[-89.783,13.7641],[-89.7859,13.7593],[-89.7935,13.7506],[-89.7965,13.7452],[-89.7981,13.7409],[-89.7986,13.7317],[-89.7994,13.7292],[-89.8123,13.7068],[-89.8141,13.7019],[-89.8198,13.6797],[-89.8248,13.6777],[-89.8331,13.6767],[-89.8632,13.6783],[-89.8694,13.6796],[-89.8714,13.681],[-89.8787,13.6877],[-89.8918,13.7024],[-89.8938,13.704],[-89.8979,13.7068],[-89.9003,13.7079],[-89.903,13.7089],[-89.9065,13.7092],[-89.9106,13.7092],[-89.9163,13.7082],[-89.9196,13.7071],[-89.9226,13.7058],[-89.925,13.7042],[-89.9278,13.7019],[-89.9353,13.6931],[-89.9512,13.6688],[-89.9535,13.6651],[-90.0212,13.6952],[-90.0983,13.7314]]]}},{"type":"Feature","properties":{"id":"SLV-1344","name":"Cabañas","nameBn":"কাবানাস বিভাগ","type":"Department","bounds":[-88.9765,13.7487,-88.488,14.0161],"center":[-88.7326,13.9079]},"geometry":{"type":"Polygon","coordinates":[[[-88.6908,14.0118],[-88.6909,14.01],[-88.6848,14.0123],[-88.6593,14.0161],[-88.6339,14.0145],[-88.5581,13.9909],[-88.514,13.9876],[-88.5044,13.9837],[-88.4954,13.9751],[-88.4962,13.972],[-88.4965,13.9696],[-88.4971,13.9691],[-88.4979,13.9684],[-88.4982,13.9684],[-88.5023,13.9689],[-88.5012,13.9666],[-88.4961,13.9557],[-88.4968,13.944],[-88.5002,13.9319],[-88.5023,13.9171],[-88.4995,13.9076],[-88.4887,13.8813],[-88.488,13.8653],[-88.4968,13.8512],[-88.4987,13.8496],[-88.503,13.8457],[-88.4968,13.8333],[-88.4982,13.8214],[-88.5053,13.8114],[-88.516,13.8047],[-88.5139,13.7908],[-88.5232,13.7769],[-88.5324,13.7597],[-88.5323,13.7594],[-88.5486,13.7487],[-88.558,13.7512],[-88.5832,13.7542],[-88.5869,13.7554],[-88.5889,13.7571],[-88.5901,13.7593],[-88.5909,13.7617],[-88.5922,13.7671],[-88.5936,13.7694],[-88.5964,13.7708],[-88.6033,13.7726],[-88.6058,13.7737],[-88.6124,13.7776],[-88.6231,13.7812],[-88.6255,13.7824],[-88.6439,13.7956],[-88.6461,13.7967],[-88.6571,13.7987],[-88.6709,13.7994],[-88.6774,13.8006],[-88.7094,13.8003],[-88.7165,13.8009],[-88.7212,13.8022],[-88.7356,13.8123],[-88.7389,13.812],[-88.7425,13.8102],[-88.7475,13.8037],[-88.7508,13.8003],[-88.7543,13.7981],[-88.7602,13.7986],[-88.7673,13.8004],[-88.7739,13.7986],[-88.805,13.7852],[-88.8147,13.7822],[-88.8216,13.7811],[-88.832,13.7845],[-88.8378,13.7858],[-88.8442,13.7861],[-88.8471,13.7823],[-88.8489,13.7793],[-88.8503,13.7506],[-88.8849,13.7598],[-88.8938,13.7649],[-88.8948,13.7674],[-88.9013,13.7769],[-88.9109,13.787],[-88.915,13.7923],[-88.9174,13.7967],[-88.9188,13.8032],[-88.92,13.807],[-88.925,13.8157],[-88.9262,13.8199],[-88.927,13.8244],[-88.9306,13.8322],[-88.9355,13.8374],[-88.9436,13.8428],[-88.9498,13.8492],[-88.9693,13.8761],[-88.974,13.8847],[-88.9765,13.891],[-88.976,13.894],[-88.9752,13.8968],[-88.9742,13.8992],[-88.9727,13.9013],[-88.9711,13.903],[-88.9691,13.9046],[-88.9558,13.9121],[-88.952,13.9152],[-88.9486,13.9187],[-88.9457,13.923],[-88.9445,13.9252],[-88.9297,13.9479],[-88.9002,13.9487],[-88.874,13.9464],[-88.8604,13.9497],[-88.8453,13.9553],[-88.7838,13.9749],[-88.7719,13.9803],[-88.7651,13.9854],[-88.7576,13.9953],[-88.7369,14.005],[-88.6908,14.0118]]]}},{"type":"Feature","properties":{"id":"SLV-1357","name":"Chalatenango","nameBn":"শ্যালাতেনাংগো","type":"Department","bounds":[-89.4272,13.9464,-88.6904,14.4131],"center":[-89.0591,14.1895]},"geometry":{"type":"Polygon","coordinates":[[[-89.3462,14.4131],[-89.3076,14.4071],[-89.2765,14.3927],[-89.2255,14.3821],[-89.2002,14.3647],[-89.154,14.3513],[-89.1445,14.3597],[-89.1301,14.3867],[-89.1222,14.3947],[-89.1133,14.3971],[-89.1075,14.396],[-89.1026,14.3915],[-89.0968,14.384],[-89.0918,14.3748],[-89.0897,14.3649],[-89.0906,14.3547],[-89.0945,14.3449],[-89.0831,14.3353],[-89.049,14.3315],[-89.033,14.3237],[-89.0266,14.3113],[-89.0226,14.2807],[-89.0181,14.2717],[-88.9928,14.253],[-88.9835,14.2421],[-88.9746,14.2274],[-88.9708,14.2148],[-88.9702,14.2102],[-88.9692,14.202],[-88.966,14.1914],[-88.9572,14.1852],[-88.9475,14.1873],[-88.9356,14.194],[-88.9216,14.1999],[-88.906,14.1996],[-88.8813,14.1842],[-88.8603,14.1585],[-88.8453,14.1286],[-88.8388,14.1004],[-88.8212,14.1029],[-88.7773,14.0997],[-88.7654,14.1043],[-88.7551,14.1105],[-88.7464,14.1113],[-88.7392,14.0999],[-88.7401,14.083],[-88.7461,14.0666],[-88.7466,14.0525],[-88.731,14.0425],[-88.7095,14.0397],[-88.7049,14.038],[-88.6977,14.032],[-88.6927,14.0253],[-88.6904,14.0169],[-88.6908,14.0118],[-88.7369,14.005],[-88.7576,13.9953],[-88.7651,13.9854],[-88.7719,13.9803],[-88.7838,13.9749],[-88.8453,13.9553],[-88.8604,13.9497],[-88.874,13.9464],[-88.9002,13.9487],[-88.9297,13.9479],[-88.9462,13.9497],[-88.9617,13.9556],[-88.9798,13.9541],[-89.0012,13.964],[-89.005,13.9663],[-89.0095,13.9703],[-89.0148,13.978],[-89.0175,13.9834],[-89.0192,13.988],[-89.0198,13.9905],[-89.0202,13.993],[-89.0202,13.9957],[-89.0194,14.0],[-89.0194,14.0002],[-89.0198,14.0018],[-89.0216,14.0046],[-89.0436,14.0299],[-89.0481,14.0377],[-89.0496,14.0396],[-89.0665,14.0513],[-89.0738,14.0576],[-89.0788,14.0603],[-89.1046,14.0694],[-89.1171,14.0755],[-89.1206,14.0759],[-89.1237,14.076],[-89.1413,14.067],[-89.169,14.0546],[-89.1803,14.0574],[-89.1944,14.0682],[-89.2008,14.0558],[-89.2147,14.056],[-89.2354,14.0648],[-89.2431,14.0622],[-89.256,14.0531],[-89.2602,14.0511],[-89.2673,14.0521],[-89.2768,14.0564],[-89.2801,14.0573],[-89.2964,14.0596],[-89.3144,14.0696],[-89.3248,14.0716],[-89.3346,14.0644],[-89.3437,14.0596],[-89.3555,14.0573],[-89.3638,14.0542],[-89.367,14.0474],[-89.3714,14.0406],[-89.3831,14.0375],[-89.3981,14.0374],[-89.413,14.0402],[-89.4241,14.0502],[-89.4272,14.0716],[-89.408,14.1358],[-89.3892,14.1346],[-89.3867,14.1355],[-89.3844,14.1368],[-89.3824,14.1386],[-89.38,14.1418],[-89.3684,14.1625],[-89.3663,14.1643],[-89.3644,14.1655],[-89.362,14.1666],[-89.3593,14.1673],[-89.3567,14.1677],[-89.3464,14.1683],[-89.3433,14.1688],[-89.3405,14.1696],[-89.338,14.1705],[-89.3357,14.1718],[-89.3337,14.1732],[-89.3302,14.1766],[-89.3108,14.2028],[-89.3089,14.2074],[-89.3085,14.2112],[-89.3095,14.2223],[-89.3093,14.2423],[-89.2721,14.257],[-89.2633,14.2665],[-89.2594,14.2866],[-89.2465,14.3228],[-89.2648,14.3341],[-89.2696,14.3404],[-89.2718,14.3421],[-89.2866,14.3497],[-89.2902,14.3524],[-89.2924,14.3546],[-89.2968,14.3619],[-89.3002,14.3694],[-89.3014,14.3713],[-89.3081,14.3785],[-89.3462,14.4131]]]}},{"type":"Feature","properties":{"id":"SLV-1345","name":"Cuscatlán","nameBn":"কুসকাতলান বিভাগ","type":"Department","bounds":[-89.1608,13.6423,-88.8503,14.076],"center":[-89.0055,13.8166]},"geometry":{"type":"Polygon","coordinates":[[[-88.9297,13.9479],[-88.9445,13.9252],[-88.9457,13.923],[-88.9486,13.9187],[-88.952,13.9152],[-88.9558,13.9121],[-88.9691,13.9046],[-88.9711,13.903],[-88.9727,13.9013],[-88.9742,13.8992],[-88.9752,13.8968],[-88.976,13.894],[-88.9765,13.891],[-88.974,13.8847],[-88.9693,13.8761],[-88.9498,13.8492],[-88.9436,13.8428],[-88.9355,13.8374],[-88.9306,13.8322],[-88.927,13.8244],[-88.9262,13.8199],[-88.925,13.8157],[-88.92,13.807],[-88.9188,13.8032],[-88.9174,13.7967],[-88.915,13.7923],[-88.9109,13.787],[-88.9013,13.7769],[-88.8948,13.7674],[-88.8938,13.7649],[-88.8849,13.7598],[-88.8503,13.7506],[-88.8685,13.7032],[-88.8719,13.6892],[-88.8743,13.6846],[-88.8766,13.6813],[-88.8961,13.6626],[-88.903,13.6585],[-88.9085,13.6567],[-88.9211,13.6552],[-88.9238,13.6544],[-88.926,13.6532],[-88.9276,13.6513],[-88.9298,13.6465],[-88.9313,13.6447],[-88.9335,13.6437],[-88.9355,13.6431],[-88.9399,13.6424],[-88.9434,13.6423],[-88.9622,13.6482],[-88.9796,13.6572],[-89.0236,13.6729],[-89.0244,13.7031],[-89.0266,13.7081],[-89.0284,13.7134],[-89.0333,13.7193],[-89.0507,13.7515],[-89.0521,13.7563],[-89.0504,13.7779],[-89.0514,13.7823],[-89.0531,13.785],[-89.0557,13.7859],[-89.0595,13.7884],[-89.0637,13.7926],[-89.0763,13.8106],[-89.0783,13.8121],[-89.0808,13.8131],[-89.0837,13.8137],[-89.0901,13.814],[-89.0971,13.8195],[-89.1062,13.8297],[-89.1329,13.8704],[-89.1356,13.878],[-89.1339,13.8797],[-89.1266,13.8828],[-89.124,13.8846],[-89.1221,13.8867],[-89.1203,13.8904],[-89.1212,13.8927],[-89.1274,13.9003],[-89.1482,13.9335],[-89.1577,13.9525],[-89.1597,13.96],[-89.1608,13.9686],[-89.1601,13.9701],[-89.1587,13.9715],[-89.1568,13.973],[-89.155,13.9746],[-89.1524,13.9786],[-89.1515,13.9811],[-89.1508,13.9838],[-89.1499,13.9897],[-89.1485,13.9952],[-89.148,13.9993],[-89.148,14.0003],[-89.1478,14.0022],[-89.1486,14.0118],[-89.1517,14.0282],[-89.1521,14.0326],[-89.1511,14.0358],[-89.1463,14.0454],[-89.1419,14.0573],[-89.1413,14.067],[-89.1237,14.076],[-89.1206,14.0759],[-89.1171,14.0755],[-89.1046,14.0694],[-89.0788,14.0603],[-89.0738,14.0576],[-89.0665,14.0513],[-89.0496,14.0396],[-89.0481,14.0377],[-89.0436,14.0299],[-89.0216,14.0046],[-89.0198,14.0018],[-89.0194,14.0002],[-89.0194,14.0],[-89.0202,13.9957],[-89.0202,13.993],[-89.0198,13.9905],[-89.0192,13.988],[-89.0175,13.9834],[-89.0148,13.978],[-89.0095,13.9703],[-89.005,13.9663],[-89.0012,13.964],[-88.9798,13.9541],[-88.9617,13.9556],[-88.9462,13.9497],[-88.9297,13.9479]]]}},{"type":"Feature","properties":{"id":"SLV-1346","name":"La Libertad","nameBn":"লা লিবারটেড বিভাগ","type":"Department","bounds":[-89.6094,13.4145,-89.1119,14.0716],"center":[-89.3593,13.7727]},"geometry":{"type":"Polygon","coordinates":[[[-89.1357,13.4145],[-89.1835,13.4431],[-89.2515,13.4723],[-89.3249,13.4893],[-89.359,13.4893],[-89.385,13.4953],[-89.5271,13.4942],[-89.5878,13.5089],[-89.6094,13.5131],[-89.6067,13.5194],[-89.5961,13.5429],[-89.5907,13.5514],[-89.5654,13.573],[-89.561,13.5779],[-89.5583,13.582],[-89.557,13.594],[-89.5551,13.6023],[-89.5527,13.6073],[-89.5505,13.6104],[-89.5485,13.6124],[-89.5464,13.6138],[-89.5246,13.635],[-89.5197,13.6415],[-89.517,13.6464],[-89.5167,13.6497],[-89.518,13.6717],[-89.5164,13.6833],[-89.5135,13.6952],[-89.5113,13.7006],[-89.5091,13.7043],[-89.5071,13.7061],[-89.503,13.7084],[-89.5008,13.7091],[-89.4938,13.7097],[-89.4898,13.7114],[-89.4858,13.7145],[-89.474,13.7286],[-89.4685,13.7335],[-89.4538,13.7418],[-89.4475,13.7463],[-89.4403,13.7524],[-89.4376,13.7564],[-89.4362,13.7601],[-89.4367,13.7629],[-89.4377,13.7653],[-89.439,13.7674],[-89.4407,13.769],[-89.4428,13.7704],[-89.4452,13.7716],[-89.4566,13.7751],[-89.452,13.8029],[-89.4345,13.8495],[-89.4326,13.8708],[-89.4334,13.8888],[-89.4321,13.9156],[-89.4309,13.9212],[-89.4293,13.9231],[-89.4272,13.9244],[-89.4248,13.9251],[-89.4221,13.9249],[-89.4196,13.9241],[-89.4168,13.9245],[-89.4136,13.9265],[-89.4056,13.939],[-89.4035,13.9401],[-89.4007,13.9404],[-89.3974,13.9403],[-89.3937,13.9405],[-89.3885,13.9427],[-89.3863,13.9454],[-89.3852,13.9486],[-89.3837,13.9677],[-89.3839,13.9708],[-89.3822,13.9853],[-89.3714,14.0406],[-89.367,14.0474],[-89.3638,14.0542],[-89.3555,14.0573],[-89.3437,14.0596],[-89.3346,14.0644],[-89.3248,14.0716],[-89.3144,14.0696],[-89.2964,14.0596],[-89.2801,14.0573],[-89.2768,14.0564],[-89.2673,14.0521],[-89.2684,14.0184],[-89.2738,13.997],[-89.2741,13.9915],[-89.2733,13.988],[-89.2673,13.9834],[-89.2649,13.9799],[-89.262,13.9747],[-89.257,13.9634],[-89.2541,13.958],[-89.2513,13.9544],[-89.2471,13.9518],[-89.2424,13.9495],[-89.2343,13.9472],[-89.2313,13.947],[-89.222,13.9477],[-89.2189,13.9476],[-89.2159,13.9472],[-89.2131,13.9465],[-89.2104,13.9456],[-89.2071,13.9438],[-89.2035,13.9409],[-89.1981,13.9381],[-89.1966,13.936],[-89.1962,13.9344],[-89.1988,13.9278],[-89.2002,13.9222],[-89.2005,13.921],[-89.2014,13.9203],[-89.2088,13.9205],[-89.2114,13.9198],[-89.2133,13.9181],[-89.2143,13.9148],[-89.2193,13.859],[-89.2208,13.8534],[-89.2219,13.8511],[-89.2239,13.8497],[-89.2291,13.8479],[-89.2313,13.8465],[-89.2333,13.845],[-89.2364,13.8413],[-89.2384,13.8365],[-89.2396,13.8317],[-89.2414,13.8143],[-89.2435,13.8065],[-89.2468,13.7992],[-89.2486,13.79],[-89.2498,13.774],[-89.2507,13.7697],[-89.2514,13.7672],[-89.2583,13.7546],[-89.2627,13.7421],[-89.2624,13.7381],[-89.2606,13.736],[-89.258,13.7353],[-89.2548,13.7351],[-89.2498,13.7287],[-89.2507,13.7187],[-89.2501,13.7092],[-89.249,13.7067],[-89.2476,13.7046],[-89.2459,13.7027],[-89.2421,13.6999],[-89.2402,13.6975],[-89.239,13.6942],[-89.2372,13.6863],[-89.2357,13.682],[-89.2337,13.6791],[-89.2316,13.6775],[-89.2172,13.67],[-89.2155,13.6689],[-89.2112,13.6651],[-89.2045,13.6565],[-89.2035,13.6527],[-89.2038,13.6496],[-89.2071,13.6436],[-89.2094,13.6381],[-89.2093,13.635],[-89.2071,13.6328],[-89.1995,13.6292],[-89.1983,13.6268],[-89.1988,13.6246],[-89.2004,13.6226],[-89.2024,13.6211],[-89.2038,13.6154],[-89.2046,13.606],[-89.2027,13.5647],[-89.2032,13.5615],[-89.2094,13.5457],[-89.2117,13.5371],[-89.212,13.5324],[-89.2114,13.5287],[-89.1954,13.5035],[-89.1898,13.4916],[-89.1883,13.4897],[-89.1861,13.4885],[-89.1832,13.4881],[-89.18,13.4883],[-89.1744,13.4896],[-89.1639,13.493],[-89.158,13.4937],[-89.1543,13.4932],[-89.1517,13.4925],[-89.1444,13.4893],[-89.1409,13.473],[-89.1379,13.4688],[-89.1355,13.4689],[-89.1313,13.4687],[-89.1257,13.4674],[-89.1159,13.4635],[-89.1127,13.4601],[-89.1119,13.4573],[-89.1144,13.453],[-89.1192,13.4472],[-89.1205,13.4451],[-89.1221,13.4432],[-89.1299,13.4297],[-89.1327,13.4238],[-89.1357,13.4145],[-89.1357,13.4145]]]}},{"type":"Feature","properties":{"id":"SLV-1347","name":"La Paz","nameBn":"লা পাজ বিভাগ","type":"Department","bounds":[-89.1444,13.2661,-88.7813,13.6729],"center":[-88.9628,13.4872]},"geometry":{"type":"Polygon","coordinates":[[[-88.8316,13.2661],[-89.0648,13.372],[-89.1357,13.4145],[-89.1357,13.4145],[-89.1327,13.4238],[-89.1299,13.4297],[-89.1221,13.4432],[-89.1205,13.4451],[-89.1192,13.4472],[-89.1144,13.453],[-89.1119,13.4573],[-89.1127,13.4601],[-89.1159,13.4635],[-89.1257,13.4674],[-89.1313,13.4687],[-89.1355,13.4689],[-89.1379,13.4688],[-89.1409,13.473],[-89.1444,13.4893],[-89.1422,13.4977],[-89.1392,13.4996],[-89.1321,13.5073],[-89.127,13.518],[-89.1185,13.5427],[-89.1162,13.5535],[-89.1157,13.5606],[-89.1176,13.5655],[-89.1253,13.5787],[-89.1282,13.5867],[-89.13,13.5954],[-89.1296,13.6],[-89.1282,13.6031],[-89.126,13.6044],[-89.1232,13.6049],[-89.1201,13.6049],[-89.117,13.6045],[-89.101,13.5994],[-89.0979,13.5989],[-89.0949,13.5987],[-89.0898,13.6025],[-89.0597,13.6397],[-89.0236,13.6729],[-88.9796,13.6572],[-88.9622,13.6482],[-88.9434,13.6423],[-88.9399,13.6424],[-88.9355,13.6431],[-88.9335,13.6437],[-88.9313,13.6447],[-88.9298,13.6465],[-88.9276,13.6513],[-88.926,13.6532],[-88.9238,13.6544],[-88.9211,13.6552],[-88.9085,13.6567],[-88.903,13.6585],[-88.8961,13.6626],[-88.8886,13.6429],[-88.8882,13.6265],[-88.8893,13.6096],[-88.8883,13.6028],[-88.8864,13.5988],[-88.8833,13.5984],[-88.8801,13.5985],[-88.8769,13.5989],[-88.853,13.6062],[-88.8489,13.6064],[-88.8444,13.6056],[-88.8365,13.6028],[-88.8338,13.5995],[-88.8092,13.5481],[-88.8085,13.5453],[-88.808,13.5424],[-88.8082,13.536],[-88.8095,13.5302],[-88.8172,13.5098],[-88.8177,13.5074],[-88.8186,13.5051],[-88.8192,13.5019],[-88.8194,13.5004],[-88.8194,13.5001],[-88.8234,13.4782],[-88.8236,13.4736],[-88.8221,13.4562],[-88.8208,13.4505],[-88.8194,13.4464],[-88.8128,13.4393],[-88.8068,13.4347],[-88.7981,13.4295],[-88.7912,13.4231],[-88.7845,13.4148],[-88.7823,13.4097],[-88.7813,13.4055],[-88.7816,13.4024],[-88.783,13.3966],[-88.7838,13.3942],[-88.7851,13.3921],[-88.7912,13.3875],[-88.7928,13.3857],[-88.7941,13.3836],[-88.795,13.381],[-88.7954,13.378],[-88.7956,13.3748],[-88.791,13.334],[-88.7913,13.3283],[-88.7926,13.3261],[-88.7942,13.3242],[-88.7962,13.3224],[-88.7983,13.321],[-88.8075,13.3165],[-88.8149,13.3136],[-88.8193,13.3111],[-88.8232,13.308],[-88.8248,13.3061],[-88.8262,13.304],[-88.8274,13.3016],[-88.8284,13.2991],[-88.8291,13.2963],[-88.8315,13.2662],[-88.8316,13.2661]]]}},{"type":"Feature","properties":{"id":"SLV-1350","name":"La Unión","nameBn":"লা ইউনিয়ন","type":"Department","bounds":[-88.0915,13.1586,-87.6932,13.9159],"center":[-87.9301,13.302]},"geometry":{"type":"MultiPolygon","coordinates":[[[[-87.8179,13.9159],[-87.8085,13.9086],[-87.7987,13.8823],[-87.7906,13.8705],[-87.7854,13.8674],[-87.7714,13.8621],[-87.7653,13.8589],[-87.7495,13.8456],[-87.7212,13.8219],[-87.7036,13.815],[-87.7126,13.8005],[-87.7328,13.7551],[-87.7378,13.7388],[-87.7314,13.7222],[-87.7363,13.7115],[-87.7463,13.7022],[-87.755,13.6899],[-87.7586,13.6723],[-87.7578,13.6352],[-87.7601,13.6169],[-87.7841,13.5605],[-87.7899,13.5328],[-87.7795,13.51],[-87.7692,13.5064],[-87.748,13.5132],[-87.7334,13.5077],[-87.7257,13.499],[-87.7206,13.487],[-87.7188,13.4737],[-87.7212,13.4608],[-87.7384,13.4417],[-87.8172,13.4066],[-87.8179,13.4068],[-87.8257,13.4113],[-87.8307,13.4195],[-87.8383,13.4409],[-87.8664,13.3933],[-87.8738,13.3653],[-87.8554,13.3528],[-87.8436,13.3485],[-87.8104,13.3174],[-87.7915,13.305],[-87.7899,13.2991],[-87.7899,13.287],[-87.7981,13.2657],[-87.818,13.2504],[-87.8923,13.2139],[-87.9125,13.1982],[-87.916,13.1822],[-87.8929,13.1666],[-87.9282,13.1586],[-88.066,13.1679],[-88.0915,13.1727],[-88.0915,13.1728],[-88.086,13.2511],[-88.0846,13.2589],[-88.082,13.2687],[-88.0799,13.2678],[-88.0717,13.2619],[-88.0631,13.2568],[-88.0526,13.2532],[-88.0493,13.2526],[-88.046,13.2525],[-88.0413,13.2539],[-88.0389,13.2562],[-88.0259,13.2979],[-88.0252,13.304],[-88.0267,13.3099],[-88.0271,13.314],[-88.0142,13.386],[-88.0146,13.3884],[-88.0155,13.3908],[-88.0167,13.3932],[-88.026,13.4078],[-88.0273,13.4102],[-88.0282,13.4127],[-88.0311,13.4303],[-88.0316,13.456],[-88.0308,13.4624],[-88.0292,13.4664],[-88.0274,13.4679],[-88.023,13.4703],[-88.0203,13.4722],[-88.0175,13.4746],[-88.0138,13.4789],[-88.0128,13.4824],[-88.0128,13.4856],[-88.0167,13.5],[-88.0172,13.5302],[-88.0151,13.5429],[-88.0085,13.5514],[-87.9776,13.5837],[-87.9703,13.5945],[-87.9686,13.6133],[-87.9456,13.6711],[-87.9396,13.698],[-87.9367,13.7212],[-87.9364,13.7403],[-87.9374,13.7463],[-87.9381,13.7489],[-87.9391,13.7512],[-87.9405,13.7534],[-87.945,13.7591],[-87.9463,13.7612],[-87.947,13.7639],[-87.9472,13.7672],[-87.9431,13.8279],[-87.945,13.8561],[-87.9494,13.8724],[-87.9526,13.892],[-87.9469,13.8909],[-87.9322,13.8816],[-87.9253,13.8796],[-87.9208,13.8819],[-87.9079,13.8915],[-87.9001,13.8941],[-87.8901,13.8935],[-87.8705,13.8896],[-87.8609,13.8902],[-87.8512,13.8969],[-87.843,13.9071],[-87.8329,13.9153],[-87.8179,13.9159]]],[[[-87.7263,13.1984],[-87.7272,13.2111],[-87.7199,13.2162],[-87.7061,13.2117],[-87.6976,13.1933],[-87.697,13.1781],[-87.6932,13.1679],[-87.7017,13.1634],[-87.7146,13.1679],[-87.7231,13.1641],[-87.723,13.1749],[-87.7284,13.1857],[-87.7263,13.1984]]],[[[-87.7658,13.248],[-87.7579,13.2436],[-87.7514,13.2289],[-87.7573,13.2207],[-87.7638,13.2143],[-87.7769,13.2257],[-87.7802,13.2416],[-87.7743,13.2474],[-87.7658,13.248]]]]}},{"type":"Feature","properties":{"id":"SLV-1351","name":"Morazán","nameBn":"মুরাজান বিভাগ","type":"Department","bounds":[-88.2742,13.5418,-87.9364,13.9929],"center":[-88.1055,13.7736]},"geometry":{"type":"Polygon","coordinates":[[[-88.2351,13.9929],[-88.2201,13.9913],[-88.2177,13.9908],[-88.1935,13.9856],[-88.1775,13.9852],[-88.1254,13.9913],[-88.099,13.9898],[-88.0875,13.9805],[-88.0729,13.9434],[-88.0584,13.9265],[-88.04,13.9101],[-88.0236,13.8912],[-88.0153,13.8664],[-87.9697,13.8885],[-87.9548,13.8925],[-87.9526,13.892],[-87.9494,13.8724],[-87.945,13.8561],[-87.9431,13.8279],[-87.9472,13.7672],[-87.947,13.7639],[-87.9463,13.7612],[-87.945,13.7591],[-87.9405,13.7534],[-87.9391,13.7512],[-87.9381,13.7489],[-87.9374,13.7463],[-87.9364,13.7403],[-87.9367,13.7212],[-87.9396,13.698],[-87.9456,13.6711],[-87.9686,13.6133],[-87.9703,13.5945],[-87.9776,13.5837],[-88.0085,13.5514],[-88.0301,13.5549],[-88.0404,13.5543],[-88.0796,13.5426],[-88.087,13.5418],[-88.0919,13.5425],[-88.0933,13.5441],[-88.095,13.5469],[-88.0959,13.5489],[-88.0983,13.5516],[-88.1015,13.5545],[-88.1163,13.5632],[-88.1185,13.5648],[-88.12,13.5668],[-88.1211,13.569],[-88.124,13.5869],[-88.1255,13.5921],[-88.1292,13.5989],[-88.1335,13.6043],[-88.1372,13.6065],[-88.1409,13.6077],[-88.1796,13.6047],[-88.1853,13.6035],[-88.1904,13.6016],[-88.1985,13.5969],[-88.2039,13.5953],[-88.2056,13.5965],[-88.2057,13.5983],[-88.2045,13.6004],[-88.1986,13.6082],[-88.1976,13.6106],[-88.1974,13.6132],[-88.199,13.6158],[-88.2013,13.618],[-88.2084,13.6224],[-88.2106,13.6242],[-88.2122,13.6261],[-88.2131,13.6285],[-88.2139,13.6312],[-88.2143,13.6343],[-88.2164,13.6381],[-88.2201,13.6428],[-88.2296,13.6497],[-88.2333,13.6532],[-88.2351,13.6592],[-88.2384,13.6642],[-88.2511,13.6753],[-88.2563,13.6811],[-88.2594,13.6858],[-88.2611,13.7109],[-88.2609,13.7136],[-88.2598,13.7157],[-88.2581,13.7175],[-88.2252,13.7406],[-88.2207,13.743],[-88.213,13.7457],[-88.2107,13.7471],[-88.2088,13.7487],[-88.2072,13.7506],[-88.2064,13.7535],[-88.2065,13.7572],[-88.2082,13.7631],[-88.2108,13.767],[-88.2131,13.7696],[-88.2509,13.7947],[-88.2565,13.7996],[-88.2601,13.8033],[-88.261,13.8058],[-88.2617,13.8086],[-88.2622,13.8183],[-88.2612,13.8239],[-88.2607,13.8257],[-88.2601,13.8274],[-88.2589,13.8294],[-88.2559,13.8331],[-88.2541,13.8346],[-88.2519,13.836],[-88.2502,13.8377],[-88.2487,13.8397],[-88.2475,13.8419],[-88.2465,13.8445],[-88.2459,13.8472],[-88.2461,13.8533],[-88.2493,13.8616],[-88.2532,13.8691],[-88.2548,13.8735],[-88.2552,13.8768],[-88.257,13.8848],[-88.2687,13.9118],[-88.2742,13.9191],[-88.2702,13.926],[-88.2636,13.9331],[-88.2516,13.9381],[-88.2428,13.9367],[-88.2364,13.9381],[-88.2316,13.9518],[-88.2334,13.9545],[-88.2423,13.9625],[-88.2444,13.9661],[-88.2454,13.9859],[-88.2449,13.9893],[-88.2351,13.9929]]]}},{"type":"Feature","properties":{"id":"SLV-1352","name":"San Miguel","nameBn":"সান মিগুয়েল বিভাগ","type":"Department","bounds":[-88.5324,13.1712,-88.0085,13.9191],"center":[-88.1953,13.4882]},"geometry":{"type":"Polygon","coordinates":[[[-88.3262,13.8851],[-88.3193,13.8976],[-88.3084,13.9015],[-88.2963,13.9024],[-88.2854,13.906],[-88.2775,13.9133],[-88.2742,13.9191],[-88.2687,13.9118],[-88.257,13.8848],[-88.2552,13.8768],[-88.2548,13.8735],[-88.2532,13.8691],[-88.2493,13.8616],[-88.2461,13.8533],[-88.2459,13.8472],[-88.2465,13.8445],[-88.2475,13.8419],[-88.2487,13.8397],[-88.2502,13.8377],[-88.2519,13.836],[-88.2541,13.8346],[-88.2559,13.8331],[-88.2589,13.8294],[-88.2601,13.8274],[-88.2607,13.8257],[-88.2612,13.8239],[-88.2622,13.8183],[-88.2617,13.8086],[-88.261,13.8058],[-88.2601,13.8033],[-88.2565,13.7996],[-88.2509,13.7947],[-88.2131,13.7696],[-88.2108,13.767],[-88.2082,13.7631],[-88.2065,13.7572],[-88.2064,13.7535],[-88.2072,13.7506],[-88.2088,13.7487],[-88.2107,13.7471],[-88.213,13.7457],[-88.2207,13.743],[-88.2252,13.7406],[-88.2581,13.7175],[-88.2598,13.7157],[-88.2609,13.7136],[-88.2611,13.7109],[-88.2594,13.6858],[-88.2563,13.6811],[-88.2511,13.6753],[-88.2384,13.6642],[-88.2351,13.6592],[-88.2333,13.6532],[-88.2296,13.6497],[-88.2201,13.6428],[-88.2164,13.6381],[-88.2143,13.6343],[-88.2139,13.6312],[-88.2131,13.6285],[-88.2122,13.6261],[-88.2106,13.6242],[-88.2084,13.6224],[-88.2013,13.618],[-88.199,13.6158],[-88.1974,13.6132],[-88.1976,13.6106],[-88.1986,13.6082],[-88.2045,13.6004],[-88.2057,13.5983],[-88.2056,13.5965],[-88.2039,13.5953],[-88.1985,13.5969],[-88.1904,13.6016],[-88.1853,13.6035],[-88.1796,13.6047],[-88.1409,13.6077],[-88.1372,13.6065],[-88.1335,13.6043],[-88.1292,13.5989],[-88.1255,13.5921],[-88.124,13.5869],[-88.1211,13.569],[-88.12,13.5668],[-88.1185,13.5648],[-88.1163,13.5632],[-88.1015,13.5545],[-88.0983,13.5516],[-88.0959,13.5489],[-88.095,13.5469],[-88.0933,13.5441],[-88.0919,13.5425],[-88.087,13.5418],[-88.0796,13.5426],[-88.0404,13.5543],[-88.0301,13.5549],[-88.0085,13.5514],[-88.0151,13.5429],[-88.0172,13.5302],[-88.0167,13.5],[-88.0128,13.4856],[-88.0128,13.4824],[-88.0138,13.4789],[-88.0175,13.4746],[-88.0203,13.4722],[-88.023,13.4703],[-88.0274,13.4679],[-88.0292,13.4664],[-88.0308,13.4624],[-88.0316,13.456],[-88.0311,13.4303],[-88.0282,13.4127],[-88.0273,13.4102],[-88.026,13.4078],[-88.0167,13.3932],[-88.0155,13.3908],[-88.0146,13.3884],[-88.0142,13.386],[-88.0271,13.314],[-88.0267,13.3099],[-88.0252,13.304],[-88.0259,13.2979],[-88.0389,13.2562],[-88.0413,13.2539],[-88.046,13.2525],[-88.0493,13.2526],[-88.0526,13.2532],[-88.0631,13.2568],[-88.0717,13.2619],[-88.0799,13.2678],[-88.082,13.2687],[-88.0846,13.2589],[-88.086,13.2511],[-88.0915,13.1728],[-88.0915,13.1727],[-88.0984,13.174],[-88.1052,13.174],[-88.1125,13.1712],[-88.1738,13.2407],[-88.1764,13.2417],[-88.1793,13.2422],[-88.1824,13.2424],[-88.2096,13.2382],[-88.2121,13.2388],[-88.2139,13.2408],[-88.214,13.2457],[-88.2135,13.249],[-88.2125,13.2522],[-88.205,13.2656],[-88.2056,13.2683],[-88.2079,13.2715],[-88.2145,13.2749],[-88.2183,13.2778],[-88.2206,13.2815],[-88.2209,13.2963],[-88.2212,13.2992],[-88.2222,13.3023],[-88.2238,13.3053],[-88.2271,13.3088],[-88.2314,13.3093],[-88.2345,13.309],[-88.2439,13.304],[-88.2489,13.3019],[-88.2518,13.3014],[-88.2547,13.3012],[-88.2574,13.3016],[-88.26,13.3025],[-88.2621,13.3038],[-88.2659,13.307],[-88.268,13.3084],[-88.2706,13.3093],[-88.2734,13.3095],[-88.2759,13.3094],[-88.2789,13.3113],[-88.283,13.3151],[-88.2919,13.3254],[-88.297,13.3295],[-88.3015,13.332],[-88.3211,13.3342],[-88.3264,13.3356],[-88.3339,13.3388],[-88.3361,13.3401],[-88.3379,13.3415],[-88.3449,13.3503],[-88.355,13.366],[-88.3604,13.3767],[-88.3657,13.3947],[-88.3672,13.4023],[-88.3678,13.4083],[-88.3676,13.4147],[-88.3682,13.4178],[-88.3697,13.4204],[-88.3737,13.4217],[-88.3783,13.4201],[-88.3802,13.4201],[-88.3815,13.4212],[-88.3827,13.4244],[-88.3859,13.4428],[-88.3861,13.4493],[-88.3878,13.4627],[-88.3879,13.4657],[-88.3877,13.4687],[-88.3868,13.4712],[-88.3853,13.473],[-88.3834,13.4736],[-88.382,13.473],[-88.3808,13.4721],[-88.3795,13.4705],[-88.3778,13.4693],[-88.376,13.4691],[-88.3746,13.4707],[-88.3736,13.4732],[-88.3732,13.4795],[-88.3734,13.4856],[-88.373,13.4886],[-88.3722,13.4912],[-88.3709,13.4936],[-88.3693,13.4954],[-88.364,13.5002],[-88.3638,13.5005],[-88.3625,13.5031],[-88.3622,13.5052],[-88.3626,13.509],[-88.3667,13.5222],[-88.3675,13.5274],[-88.3675,13.5316],[-88.3654,13.5394],[-88.3654,13.5418],[-88.3667,13.5455],[-88.3788,13.5704],[-88.3796,13.5731],[-88.3799,13.576],[-88.3802,13.5819],[-88.3797,13.5849],[-88.3788,13.5874],[-88.3778,13.5897],[-88.3761,13.5915],[-88.3738,13.5927],[-88.3684,13.5945],[-88.3662,13.5956],[-88.3645,13.5974],[-88.3631,13.5994],[-88.3621,13.6019],[-88.3617,13.6046],[-88.3622,13.6082],[-88.3635,13.6123],[-88.3664,13.6193],[-88.3683,13.6277],[-88.3683,13.6307],[-88.3678,13.6336],[-88.363,13.6466],[-88.3629,13.6494],[-88.3663,13.652],[-88.3724,13.6538],[-88.3968,13.6568],[-88.4045,13.6594],[-88.4132,13.6654],[-88.4201,13.6717],[-88.4284,13.6846],[-88.4345,13.6921],[-88.4465,13.6928],[-88.4873,13.6883],[-88.4988,13.7057],[-88.5297,13.7358],[-88.5323,13.7594],[-88.5324,13.7597],[-88.5232,13.7769],[-88.5139,13.7908],[-88.516,13.8047],[-88.5053,13.8114],[-88.4982,13.8214],[-88.4968,13.8333],[-88.503,13.8457],[-88.4987,13.8496],[-88.4968,13.8512],[-88.4702,13.8525],[-88.4514,13.8636],[-88.4332,13.8711],[-88.3929,13.8798],[-88.3834,13.8793],[-88.3674,13.8731],[-88.3601,13.8724],[-88.3589,13.8753],[-88.3589,13.8812],[-88.3582,13.8874],[-88.3551,13.891],[-88.3486,13.8914],[-88.3406,13.89],[-88.3326,13.8877],[-88.3262,13.8851]]]}},{"type":"Feature","properties":{"id":"SLV-1349","name":"San Salvador","nameBn":"সান সাল্ভাদর বিভাগ","type":"Department","bounds":[-89.2741,13.4881,-89.0236,14.0682],"center":[-89.1488,13.713]},"geometry":{"type":"Polygon","coordinates":[[[-89.1413,14.067],[-89.1419,14.0573],[-89.1463,14.0454],[-89.1511,14.0358],[-89.1521,14.0326],[-89.1517,14.0282],[-89.1486,14.0118],[-89.1478,14.0022],[-89.148,14.0003],[-89.148,13.9993],[-89.1485,13.9952],[-89.1499,13.9897],[-89.1508,13.9838],[-89.1515,13.9811],[-89.1524,13.9786],[-89.155,13.9746],[-89.1568,13.973],[-89.1587,13.9715],[-89.1601,13.9701],[-89.1608,13.9686],[-89.1597,13.96],[-89.1577,13.9525],[-89.1482,13.9335],[-89.1274,13.9003],[-89.1212,13.8927],[-89.1203,13.8904],[-89.1221,13.8867],[-89.124,13.8846],[-89.1266,13.8828],[-89.1339,13.8797],[-89.1356,13.878],[-89.1329,13.8704],[-89.1062,13.8297],[-89.0971,13.8195],[-89.0901,13.814],[-89.0837,13.8137],[-89.0808,13.8131],[-89.0783,13.8121],[-89.0763,13.8106],[-89.0637,13.7926],[-89.0595,13.7884],[-89.0557,13.7859],[-89.0531,13.785],[-89.0514,13.7823],[-89.0504,13.7779],[-89.0521,13.7563],[-89.0507,13.7515],[-89.0333,13.7193],[-89.0284,13.7134],[-89.0266,13.7081],[-89.0244,13.7031],[-89.0236,13.6729],[-89.0597,13.6397],[-89.0898,13.6025],[-89.0949,13.5987],[-89.0979,13.5989],[-89.101,13.5994],[-89.117,13.6045],[-89.1201,13.6049],[-89.1232,13.6049],[-89.126,13.6044],[-89.1282,13.6031],[-89.1296,13.6],[-89.13,13.5954],[-89.1282,13.5867],[-89.1253,13.5787],[-89.1176,13.5655],[-89.1157,13.5606],[-89.1162,13.5535],[-89.1185,13.5427],[-89.127,13.518],[-89.1321,13.5073],[-89.1392,13.4996],[-89.1422,13.4977],[-89.1444,13.4893],[-89.1517,13.4925],[-89.1543,13.4932],[-89.158,13.4937],[-89.1639,13.493],[-89.1744,13.4896],[-89.18,13.4883],[-89.1832,13.4881],[-89.1861,13.4885],[-89.1883,13.4897],[-89.1898,13.4916],[-89.1954,13.5035],[-89.2114,13.5287],[-89.212,13.5324],[-89.2117,13.5371],[-89.2094,13.5457],[-89.2032,13.5615],[-89.2027,13.5647],[-89.2046,13.606],[-89.2038,13.6154],[-89.2024,13.6211],[-89.2004,13.6226],[-89.1988,13.6246],[-89.1983,13.6268],[-89.1995,13.6292],[-89.2071,13.6328],[-89.2093,13.635],[-89.2094,13.6381],[-89.2071,13.6436],[-89.2038,13.6496],[-89.2035,13.6527],[-89.2045,13.6565],[-89.2112,13.6651],[-89.2155,13.6689],[-89.2172,13.67],[-89.2316,13.6775],[-89.2337,13.6791],[-89.2357,13.682],[-89.2372,13.6863],[-89.239,13.6942],[-89.2402,13.6975],[-89.2421,13.6999],[-89.2459,13.7027],[-89.2476,13.7046],[-89.249,13.7067],[-89.2501,13.7092],[-89.2507,13.7187],[-89.2498,13.7287],[-89.2548,13.7351],[-89.258,13.7353],[-89.2606,13.736],[-89.2624,13.7381],[-89.2627,13.7421],[-89.2583,13.7546],[-89.2514,13.7672],[-89.2507,13.7697],[-89.2498,13.774],[-89.2486,13.79],[-89.2468,13.7992],[-89.2435,13.8065],[-89.2414,13.8143],[-89.2396,13.8317],[-89.2384,13.8365],[-89.2364,13.8413],[-89.2333,13.845],[-89.2313,13.8465],[-89.2291,13.8479],[-89.2239,13.8497],[-89.2219,13.8511],[-89.2208,13.8534],[-89.2193,13.859],[-89.2143,13.9148],[-89.2133,13.9181],[-89.2114,13.9198],[-89.2088,13.9205],[-89.2014,13.9203],[-89.2005,13.921],[-89.2002,13.9222],[-89.1988,13.9278],[-89.1962,13.9344],[-89.1966,13.936],[-89.1981,13.9381],[-89.2035,13.9409],[-89.2071,13.9438],[-89.2104,13.9456],[-89.2131,13.9465],[-89.2159,13.9472],[-89.2189,13.9476],[-89.222,13.9477],[-89.2313,13.947],[-89.2343,13.9472],[-89.2424,13.9495],[-89.2471,13.9518],[-89.2513,13.9544],[-89.2541,13.958],[-89.257,13.9634],[-89.262,13.9747],[-89.2649,13.9799],[-89.2673,13.9834],[-89.2733,13.988],[-89.2741,13.9915],[-89.2738,13.997],[-89.2684,14.0184],[-89.2673,14.0521],[-89.2602,14.0511],[-89.256,14.0531],[-89.2431,14.0622],[-89.2354,14.0648],[-89.2147,14.056],[-89.2008,14.0558],[-89.1944,14.0682],[-89.1803,14.0574],[-89.169,14.0546],[-89.1413,14.067]]]}},{"type":"Feature","properties":{"id":"SLV-1353","name":"San Vicente","nameBn":"সান ভিসেন্তে বিভাগ","type":"Department","bounds":[-88.8961,13.2593,-88.4873,13.8123],"center":[-88.6917,13.6291]},"geometry":{"type":"Polygon","coordinates":[[[-88.8166,13.2593],[-88.8316,13.2661],[-88.8315,13.2662],[-88.8291,13.2963],[-88.8284,13.2991],[-88.8274,13.3016],[-88.8262,13.304],[-88.8248,13.3061],[-88.8232,13.308],[-88.8193,13.3111],[-88.8149,13.3136],[-88.8075,13.3165],[-88.7983,13.321],[-88.7962,13.3224],[-88.7942,13.3242],[-88.7926,13.3261],[-88.7913,13.3283],[-88.791,13.334],[-88.7956,13.3748],[-88.7954,13.378],[-88.795,13.381],[-88.7941,13.3836],[-88.7928,13.3857],[-88.7912,13.3875],[-88.7851,13.3921],[-88.7838,13.3942],[-88.783,13.3966],[-88.7816,13.4024],[-88.7813,13.4055],[-88.7823,13.4097],[-88.7845,13.4148],[-88.7912,13.4231],[-88.7981,13.4295],[-88.8068,13.4347],[-88.8128,13.4393],[-88.8194,13.4464],[-88.8208,13.4505],[-88.8221,13.4562],[-88.8236,13.4736],[-88.8234,13.4782],[-88.8194,13.5001],[-88.8194,13.5004],[-88.8192,13.5019],[-88.8186,13.5051],[-88.8177,13.5074],[-88.8172,13.5098],[-88.8095,13.5302],[-88.8082,13.536],[-88.808,13.5424],[-88.8085,13.5453],[-88.8092,13.5481],[-88.8338,13.5995],[-88.8365,13.6028],[-88.8444,13.6056],[-88.8489,13.6064],[-88.853,13.6062],[-88.8769,13.5989],[-88.8801,13.5985],[-88.8833,13.5984],[-88.8864,13.5988],[-88.8883,13.6028],[-88.8893,13.6096],[-88.8882,13.6265],[-88.8886,13.6429],[-88.8961,13.6626],[-88.8766,13.6813],[-88.8743,13.6846],[-88.8719,13.6892],[-88.8685,13.7032],[-88.8503,13.7506],[-88.8489,13.7793],[-88.8471,13.7823],[-88.8442,13.7861],[-88.8378,13.7858],[-88.832,13.7845],[-88.8216,13.7811],[-88.8147,13.7822],[-88.805,13.7852],[-88.7739,13.7986],[-88.7673,13.8004],[-88.7602,13.7986],[-88.7543,13.7981],[-88.7508,13.8003],[-88.7475,13.8037],[-88.7425,13.8102],[-88.7389,13.812],[-88.7356,13.8123],[-88.7212,13.8022],[-88.7165,13.8009],[-88.7094,13.8003],[-88.6774,13.8006],[-88.6709,13.7994],[-88.6571,13.7987],[-88.6461,13.7967],[-88.6439,13.7956],[-88.6255,13.7824],[-88.6231,13.7812],[-88.6124,13.7776],[-88.6058,13.7737],[-88.6033,13.7726],[-88.5964,13.7708],[-88.5936,13.7694],[-88.5922,13.7671],[-88.5909,13.7617],[-88.5901,13.7593],[-88.5889,13.7571],[-88.5869,13.7554],[-88.5832,13.7542],[-88.558,13.7512],[-88.5486,13.7487],[-88.5323,13.7594],[-88.5297,13.7358],[-88.4988,13.7057],[-88.4873,13.6883],[-88.5501,13.6437],[-88.5559,13.626],[-88.5706,13.6061],[-88.5908,13.5937],[-88.6128,13.5987],[-88.6416,13.5639],[-88.6429,13.5577],[-88.6594,13.555],[-88.6651,13.5471],[-88.6675,13.5167],[-88.6759,13.4872],[-88.7215,13.4025],[-88.7257,13.392],[-88.7281,13.3793],[-88.7294,13.3483],[-88.7319,13.3415],[-88.7494,13.3249],[-88.7587,13.3114],[-88.7648,13.3004],[-88.7741,13.2929],[-88.7938,13.2902],[-88.8056,13.2858],[-88.8132,13.2757],[-88.8172,13.2616],[-88.8171,13.2596],[-88.8166,13.2593]]]}},{"type":"Feature","properties":{"id":"SLV-1358","name":"Santa Ana","nameBn":"সান্তা আনা বিভাগ","type":"Department","bounds":[-89.7554,13.7751,-89.2465,14.4454],"center":[-89.5013,14.1024]},"geometry":{"type":"Polygon","coordinates":[[[-89.748,14.0449],[-89.7545,14.0594],[-89.7554,14.0671],[-89.7526,14.0752],[-89.7099,14.1487],[-89.6898,14.17],[-89.6646,14.1889],[-89.6383,14.2006],[-89.5309,14.2256],[-89.5245,14.2318],[-89.5247,14.2474],[-89.5279,14.2515],[-89.5405,14.2576],[-89.5449,14.2618],[-89.5468,14.2683],[-89.5486,14.2836],[-89.5499,14.2883],[-89.5557,14.299],[-89.5586,14.3028],[-89.5644,14.3081],[-89.5713,14.3111],[-89.5922,14.3138],[-89.5984,14.328],[-89.5924,14.3364],[-89.5824,14.3434],[-89.5761,14.3531],[-89.579,14.3648],[-89.5863,14.3747],[-89.5906,14.386],[-89.5841,14.4018],[-89.5699,14.412],[-89.5552,14.4108],[-89.5442,14.4001],[-89.5414,14.3815],[-89.5278,14.3911],[-89.503,14.4201],[-89.4961,14.4229],[-89.4853,14.4274],[-89.4694,14.4254],[-89.4581,14.4196],[-89.4468,14.4155],[-89.4311,14.4187],[-89.4084,14.4415],[-89.3982,14.4454],[-89.3969,14.426],[-89.3917,14.4337],[-89.3906,14.436],[-89.3618,14.4155],[-89.3616,14.4155],[-89.3462,14.4131],[-89.3081,14.3785],[-89.3014,14.3713],[-89.3002,14.3694],[-89.2968,14.3619],[-89.2924,14.3546],[-89.2902,14.3524],[-89.2866,14.3497],[-89.2718,14.3421],[-89.2696,14.3404],[-89.2648,14.3341],[-89.2465,14.3228],[-89.2594,14.2866],[-89.2633,14.2665],[-89.2721,14.257],[-89.3093,14.2423],[-89.3095,14.2223],[-89.3085,14.2112],[-89.3089,14.2074],[-89.3108,14.2028],[-89.3302,14.1766],[-89.3337,14.1732],[-89.3357,14.1718],[-89.338,14.1705],[-89.3405,14.1696],[-89.3433,14.1688],[-89.3464,14.1683],[-89.3567,14.1677],[-89.3593,14.1673],[-89.362,14.1666],[-89.3644,14.1655],[-89.3663,14.1643],[-89.3684,14.1625],[-89.38,14.1418],[-89.3824,14.1386],[-89.3844,14.1368],[-89.3867,14.1355],[-89.3892,14.1346],[-89.408,14.1358],[-89.4272,14.0716],[-89.4241,14.0502],[-89.413,14.0402],[-89.3981,14.0374],[-89.3831,14.0375],[-89.3714,14.0406],[-89.3822,13.9853],[-89.3839,13.9708],[-89.3837,13.9677],[-89.3852,13.9486],[-89.3863,13.9454],[-89.3885,13.9427],[-89.3937,13.9405],[-89.3974,13.9403],[-89.4007,13.9404],[-89.4035,13.9401],[-89.4056,13.939],[-89.4136,13.9265],[-89.4168,13.9245],[-89.4196,13.9241],[-89.4221,13.9249],[-89.4248,13.9251],[-89.4272,13.9244],[-89.4293,13.9231],[-89.4309,13.9212],[-89.4321,13.9156],[-89.4334,13.8888],[-89.4326,13.8708],[-89.4345,13.8495],[-89.452,13.8029],[-89.4566,13.7751],[-89.5043,13.7839],[-89.517,13.7882],[-89.5186,13.7901],[-89.52,13.7922],[-89.5261,13.8068],[-89.5393,13.8189],[-89.5605,13.8342],[-89.5701,13.8398],[-89.5769,13.8427],[-89.5796,13.8421],[-89.5816,13.8407],[-89.5833,13.8388],[-89.586,13.8346],[-89.5892,13.8275],[-89.5905,13.822],[-89.5905,13.8131],[-89.5911,13.8106],[-89.5934,13.8084],[-89.597,13.8066],[-89.6042,13.8049],[-89.6089,13.8058],[-89.6121,13.8071],[-89.6143,13.8088],[-89.616,13.8107],[-89.6173,13.813],[-89.6184,13.8161],[-89.6208,13.8194],[-89.6254,13.824],[-89.6316,13.8251],[-89.6348,13.8271],[-89.6361,13.8292],[-89.6357,13.8317],[-89.6345,13.8339],[-89.6328,13.8359],[-89.629,13.8389],[-89.6274,13.8407],[-89.6261,13.8429],[-89.6253,13.8457],[-89.6251,13.8485],[-89.6262,13.8537],[-89.6306,13.8607],[-89.6367,13.8662],[-89.6399,13.8696],[-89.6421,13.8725],[-89.6452,13.8796],[-89.6482,13.8836],[-89.6644,13.899],[-89.6703,13.9032],[-89.6749,13.9054],[-89.6781,13.9054],[-89.6811,13.905],[-89.6866,13.9036],[-89.6956,13.9033],[-89.7188,13.909],[-89.6988,13.9758],[-89.6959,13.9937],[-89.6968,13.9961],[-89.699,14.0],[-89.699,14.0002],[-89.7027,14.0038],[-89.7067,14.0069],[-89.7103,14.0103],[-89.7118,14.0125],[-89.7128,14.0149],[-89.715,14.023],[-89.7162,14.0252],[-89.7179,14.0273],[-89.7216,14.0303],[-89.7397,14.0415],[-89.748,14.0449]]]}},{"type":"Feature","properties":{"id":"SLV-1348","name":"Sonsonate","nameBn":"সোন্সোনাটে বিভাগ","type":"Department","bounds":[-89.9535,13.5131,-89.4362,13.909],"center":[-89.6937,13.7165]},"geometry":{"type":"Polygon","coordinates":[[[-89.6094,13.5131],[-89.6164,13.5144],[-89.6798,13.5347],[-89.7131,13.528],[-89.808,13.5269],[-89.8233,13.5371],[-89.8334,13.5739],[-89.8371,13.5968],[-89.8497,13.6069],[-89.8703,13.6193],[-89.9513,13.6641],[-89.9535,13.6651],[-89.9512,13.6688],[-89.9353,13.6931],[-89.9278,13.7019],[-89.925,13.7042],[-89.9226,13.7058],[-89.9196,13.7071],[-89.9163,13.7082],[-89.9106,13.7092],[-89.9065,13.7092],[-89.903,13.7089],[-89.9003,13.7079],[-89.8979,13.7068],[-89.8938,13.704],[-89.8918,13.7024],[-89.8787,13.6877],[-89.8714,13.681],[-89.8694,13.6796],[-89.8632,13.6783],[-89.8331,13.6767],[-89.8248,13.6777],[-89.8198,13.6797],[-89.8141,13.7019],[-89.8123,13.7068],[-89.7994,13.7292],[-89.7986,13.7317],[-89.7981,13.7409],[-89.7965,13.7452],[-89.7935,13.7506],[-89.7859,13.7593],[-89.783,13.7641],[-89.7816,13.768],[-89.7827,13.7736],[-89.7911,13.7996],[-89.7906,13.8036],[-89.7887,13.809],[-89.7683,13.8392],[-89.7677,13.8427],[-89.7686,13.845],[-89.771,13.8496],[-89.7728,13.8541],[-89.7745,13.86],[-89.7769,13.8787],[-89.7766,13.8829],[-89.7756,13.8893],[-89.7735,13.8922],[-89.7707,13.894],[-89.7585,13.8958],[-89.7366,13.9017],[-89.7188,13.909],[-89.6956,13.9033],[-89.6866,13.9036],[-89.6811,13.905],[-89.6781,13.9054],[-89.6749,13.9054],[-89.6703,13.9032],[-89.6644,13.899],[-89.6482,13.8836],[-89.6452,13.8796],[-89.6421,13.8725],[-89.6399,13.8696],[-89.6367,13.8662],[-89.6306,13.8607],[-89.6262,13.8537],[-89.6251,13.8485],[-89.6253,13.8457],[-89.6261,13.8429],[-89.6274,13.8407],[-89.629,13.8389],[-89.6328,13.8359],[-89.6345,13.8339],[-89.6357,13.8317],[-89.6361,13.8292],[-89.6348,13.8271],[-89.6316,13.8251],[-89.6254,13.824],[-89.6208,13.8194],[-89.6184,13.8161],[-89.6173,13.813],[-89.616,13.8107],[-89.6143,13.8088],[-89.6121,13.8071],[-89.6089,13.8058],[-89.6042,13.8049],[-89.597,13.8066],[-89.5934,13.8084],[-89.5911,13.8106],[-89.5905,13.8131],[-89.5905,13.822],[-89.5892,13.8275],[-89.586,13.8346],[-89.5833,13.8388],[-89.5816,13.8407],[-89.5796,13.8421],[-89.5769,13.8427],[-89.5701,13.8398],[-89.5605,13.8342],[-89.5393,13.8189],[-89.5261,13.8068],[-89.52,13.7922],[-89.5186,13.7901],[-89.517,13.7882],[-89.5043,13.7839],[-89.4566,13.7751],[-89.4452,13.7716],[-89.4428,13.7704],[-89.4407,13.769],[-89.439,13.7674],[-89.4377,13.7653],[-89.4367,13.7629],[-89.4362,13.7601],[-89.4376,13.7564],[-89.4403,13.7524],[-89.4475,13.7463],[-89.4538,13.7418],[-89.4685,13.7335],[-89.474,13.7286],[-89.4858,13.7145],[-89.4898,13.7114],[-89.4938,13.7097],[-89.5008,13.7091],[-89.503,13.7084],[-89.5071,13.7061],[-89.5091,13.7043],[-89.5113,13.7006],[-89.5135,13.6952],[-89.5164,13.6833],[-89.518,13.6717],[-89.5167,13.6497],[-89.517,13.6464],[-89.5197,13.6415],[-89.5246,13.635],[-89.5464,13.6138],[-89.5485,13.6124],[-89.5505,13.6104],[-89.5527,13.6073],[-89.5551,13.6023],[-89.557,13.594],[-89.5583,13.582],[-89.561,13.5779],[-89.5654,13.573],[-89.5907,13.5514],[-89.5961,13.5429],[-89.6067,13.5194],[-89.6094,13.5131]]]}},{"type":"Feature","properties":{"id":"SLV-1354","name":"Usulután","nameBn":"উসুলুটান বিভাগ","type":"Department","bounds":[-88.8172,13.1604,-88.1125,13.6928],"center":[-88.5293,13.4104]},"geometry":{"type":"Polygon","coordinates":[[[-88.1125,13.1712],[-88.1219,13.1675],[-88.2083,13.1604],[-88.3009,13.1742],[-88.3249,13.1666],[-88.3378,13.1708],[-88.3523,13.174],[-88.3523,13.1802],[-88.3297,13.1817],[-88.3281,13.1971],[-88.3402,13.2161],[-88.3584,13.2287],[-88.3545,13.2209],[-88.3426,13.2047],[-88.3379,13.1945],[-88.3741,13.1957],[-88.3918,13.1939],[-88.4069,13.1877],[-88.3972,13.1836],[-88.3894,13.1848],[-88.38,13.1874],[-88.3659,13.1877],[-88.3659,13.1802],[-88.3892,13.1708],[-88.4148,13.1716],[-88.4348,13.1837],[-88.441,13.2082],[-88.4312,13.2039],[-88.4274,13.2014],[-88.4137,13.215],[-88.4137,13.2212],[-88.4308,13.2288],[-88.4496,13.2546],[-88.4621,13.2622],[-88.4588,13.2477],[-88.4531,13.2359],[-88.4502,13.2254],[-88.4547,13.215],[-88.4692,13.2231],[-88.5115,13.2335],[-88.5298,13.2429],[-88.5463,13.2718],[-88.554,13.2764],[-88.5657,13.2774],[-88.5987,13.2839],[-88.6134,13.2839],[-88.6539,13.2764],[-88.7104,13.275],[-88.7228,13.2696],[-88.7161,13.2644],[-88.7087,13.2605],[-88.7014,13.2593],[-88.6949,13.2622],[-88.6666,13.2558],[-88.5863,13.2642],[-88.5774,13.2628],[-88.5645,13.256],[-88.5575,13.2496],[-88.545,13.2348],[-88.5366,13.2287],[-88.5366,13.2212],[-88.5553,13.2243],[-88.569,13.2268],[-88.5987,13.2355],[-88.5987,13.2287],[-88.5167,13.2122],[-88.4739,13.1986],[-88.4547,13.1802],[-88.4617,13.1683],[-88.4796,13.1712],[-88.4995,13.1814],[-88.5127,13.1911],[-88.5275,13.1984],[-88.7857,13.2453],[-88.8166,13.2593],[-88.8171,13.2596],[-88.8172,13.2616],[-88.8132,13.2757],[-88.8056,13.2858],[-88.7938,13.2902],[-88.7741,13.2929],[-88.7648,13.3004],[-88.7587,13.3114],[-88.7494,13.3249],[-88.7319,13.3415],[-88.7294,13.3483],[-88.7281,13.3793],[-88.7257,13.392],[-88.7215,13.4025],[-88.6759,13.4872],[-88.6675,13.5167],[-88.6651,13.5471],[-88.6594,13.555],[-88.6429,13.5577],[-88.6416,13.5639],[-88.6128,13.5987],[-88.5908,13.5937],[-88.5706,13.6061],[-88.5559,13.626],[-88.5501,13.6437],[-88.4873,13.6883],[-88.4465,13.6928],[-88.4345,13.6921],[-88.4284,13.6846],[-88.4201,13.6717],[-88.4132,13.6654],[-88.4045,13.6594],[-88.3968,13.6568],[-88.3724,13.6538],[-88.3663,13.652],[-88.3629,13.6494],[-88.363,13.6466],[-88.3678,13.6336],[-88.3683,13.6307],[-88.3683,13.6277],[-88.3664,13.6193],[-88.3635,13.6123],[-88.3622,13.6082],[-88.3617,13.6046],[-88.3621,13.6019],[-88.3631,13.5994],[-88.3645,13.5974],[-88.3662,13.5956],[-88.3684,13.5945],[-88.3738,13.5927],[-88.3761,13.5915],[-88.3778,13.5897],[-88.3788,13.5874],[-88.3797,13.5849],[-88.3802,13.5819],[-88.3799,13.576],[-88.3796,13.5731],[-88.3788,13.5704],[-88.3667,13.5455],[-88.3654,13.5418],[-88.3654,13.5394],[-88.3675,13.5316],[-88.3675,13.5274],[-88.3667,13.5222],[-88.3626,13.509],[-88.3622,13.5052],[-88.3625,13.5031],[-88.3638,13.5005],[-88.364,13.5002],[-88.3693,13.4954],[-88.3709,13.4936],[-88.3722,13.4912],[-88.373,13.4886],[-88.3734,13.4856],[-88.3732,13.4795],[-88.3736,13.4732],[-88.3746,13.4707],[-88.376,13.4691],[-88.3778,13.4693],[-88.3795,13.4705],[-88.3808,13.4721],[-88.382,13.473],[-88.3834,13.4736],[-88.3853,13.473],[-88.3868,13.4712],[-88.3877,13.4687],[-88.3879,13.4657],[-88.3878,13.4627],[-88.3861,13.4493],[-88.3859,13.4428],[-88.3827,13.4244],[-88.3815,13.4212],[-88.3802,13.4201],[-88.3783,13.4201],[-88.3737,13.4217],[-88.3697,13.4204],[-88.3682,13.4178],[-88.3676,13.4147],[-88.3678,13.4083],[-88.3672,13.4023],[-88.3657,13.3947],[-88.3604,13.3767],[-88.355,13.366],[-88.3449,13.3503],[-88.3379,13.3415],[-88.3361,13.3401],[-88.3339,13.3388],[-88.3264,13.3356],[-88.3211,13.3342],[-88.3015,13.332],[-88.297,13.3295],[-88.2919,13.3254],[-88.283,13.3151],[-88.2789,13.3113],[-88.2759,13.3094],[-88.2734,13.3095],[-88.2706,13.3093],[-88.268,13.3084],[-88.2659,13.307],[-88.2621,13.3038],[-88.26,13.3025],[-88.2574,13.3016],[-88.2547,13.3012],[-88.2518,13.3014],[-88.2489,13.3019],[-88.2439,13.304],[-88.2345,13.309],[-88.2314,13.3093],[-88.2271,13.3088],[-88.2238,13.3053],[-88.2222,13.3023],[-88.2212,13.2992],[-88.2209,13.2963],[-88.2206,13.2815],[-88.2183,13.2778],[-88.2145,13.2749],[-88.2079,13.2715],[-88.2056,13.2683],[-88.205,13.2656],[-88.2125,13.2522],[-88.2135,13.249],[-88.214,13.2457],[-88.2139,13.2408],[-88.2121,13.2388],[-88.2096,13.2382],[-88.1824,13.2424],[-88.1793,13.2422],[-88.1764,13.2417],[-88.1738,13.2407],[-88.1125,13.1712]]]}}]}