{"type":"FeatureCollection","features":[{"type":"Feature","properties":{"id":"SMR-4885","name":"Acquaviva","nameBn":"আকোয়াভাইভা","type":null,"bounds":[12.3856,43.9245,12.4265,43.9637],"center":[12.4052,43.9425]},"geometry":{"type":"Polygon","coordinates":[[[12.3856,43.9245],[12.3957,43.9484],[12.411,43.9597],[12.4166,43.9637],[12.4214,43.9609],[12.4257,43.9568],[12.4265,43.9512],[12.4216,43.9485],[12.4184,43.9498],[12.4184,43.9474],[12.4181,43.9406],[12.4184,43.935],[12.4144,43.9312],[12.4076,43.9282],[12.3982,43.9258],[12.3856,43.9245]]]}},{"type":"Feature","properties":{"id":"SMR-4883","name":"Borgo Maggiore","nameBn":"বোর্গ ম্যাজ্ঞুইর","type":null,"bounds":[12.4166,43.9145,12.4667,43.9694],"center":[12.4389,43.9337]},"geometry":{"type":"Polygon","coordinates":[[[12.4166,43.9637],[12.4214,43.9672],[12.4272,43.9694],[12.4343,43.9668],[12.4416,43.969],[12.4443,43.9679],[12.444,43.9614],[12.4481,43.9547],[12.4462,43.9471],[12.4448,43.9404],[12.4489,43.9363],[12.4572,43.9334],[12.4613,43.9307],[12.4664,43.9307],[12.4667,43.928],[12.4645,43.9245],[12.4575,43.9175],[12.4497,43.9145],[12.4411,43.9145],[12.4405,43.9207],[12.4367,43.928],[12.4314,43.9334],[12.4238,43.9363],[12.4181,43.9406],[12.4184,43.9474],[12.4184,43.9498],[12.4216,43.9485],[12.4265,43.9512],[12.4257,43.9568],[12.4214,43.9609],[12.4166,43.9637]]]}},{"type":"Feature","properties":{"id":"SMR-4891","name":"Chiesanuova","nameBn":"চিচান্যুভা","type":null,"bounds":[12.39,43.8921,12.4413,43.9183],"center":[12.4095,43.9069]},"geometry":{"type":"Polygon","coordinates":[[[12.4413,43.8933],[12.4294,43.8921],[12.4211,43.8952],[12.3996,43.9032],[12.39,43.9179],[12.3993,43.9183],[12.409,43.9172],[12.4214,43.9131],[12.4222,43.9096],[12.4222,43.9064],[12.4265,43.904],[12.4351,43.904],[12.4392,43.8999],[12.4413,43.8933]]]}},{"type":"Feature","properties":{"id":"SMR-4887","name":"Domagnano","nameBn":"ডোমাগ্নানো","type":null,"bounds":[12.4448,43.9334,12.4924,43.965],"center":[12.4721,43.9466]},"geometry":{"type":"Polygon","coordinates":[[[12.4907,43.965],[12.4924,43.9564],[12.4915,43.9491],[12.488,43.9463],[12.4818,43.9436],[12.4788,43.942],[12.471,43.9417],[12.4659,43.9366],[12.4572,43.9334],[12.4489,43.9363],[12.4448,43.9404],[12.4462,43.9471],[12.4481,43.9547],[12.4567,43.9603],[12.4645,43.952],[12.4729,43.9598],[12.4823,43.9622],[12.4907,43.965]]]}},{"type":"Feature","properties":{"id":"SMR-4888","name":"Faetano","nameBn":"ফেটানো","type":null,"bounds":[12.4572,43.9226,12.4915,43.9491],"center":[12.4761,43.9312]},"geometry":{"type":"Polygon","coordinates":[[[12.4915,43.9491],[12.4903,43.9392],[12.4831,43.9292],[12.4822,43.9279],[12.4796,43.9258],[12.478,43.9232],[12.4718,43.9237],[12.468,43.9226],[12.4645,43.9245],[12.4667,43.928],[12.4664,43.9307],[12.4613,43.9307],[12.4572,43.9334],[12.4659,43.9366],[12.471,43.9417],[12.4788,43.942],[12.4818,43.9436],[12.488,43.9463],[12.4915,43.9491]]]}},{"type":"Feature","properties":{"id":"SMR-4890","name":"Fiorentino","nameBn":"ফিয়োরেনটিনো","type":null,"bounds":[12.4351,43.8933,12.468,43.9245],"center":[12.4521,43.9021]},"geometry":{"type":"Polygon","coordinates":[[[12.4644,43.9001],[12.4605,43.8953],[12.4413,43.8933],[12.4392,43.8999],[12.4351,43.904],[12.4394,43.908],[12.4411,43.9145],[12.4497,43.9145],[12.4575,43.9175],[12.4645,43.9245],[12.468,43.9226],[12.4675,43.9201],[12.4651,43.9172],[12.464,43.9134],[12.4632,43.9072],[12.4644,43.9001]]]}},{"type":"Feature","properties":{"id":"SMR-4889","name":"Montegiardino","nameBn":"মন্টেগার্ডিনো","type":null,"bounds":[12.4632,43.9001,12.4783,43.9237],"center":[12.4699,43.9134]},"geometry":{"type":"Polygon","coordinates":[[[12.478,43.9232],[12.4775,43.9201],[12.4783,43.917],[12.4644,43.9001],[12.4632,43.9072],[12.464,43.9134],[12.4651,43.9172],[12.4675,43.9201],[12.468,43.9226],[12.4718,43.9237],[12.478,43.9232]]]}},{"type":"Feature","properties":{"id":"SMR-4884","name":"San Marino","nameBn":"সান মারিনো","type":null,"bounds":[12.3856,43.904,12.4411,43.9406],"center":[12.4243,43.9215]},"geometry":{"type":"Polygon","coordinates":[[[12.39,43.9179],[12.3856,43.9245],[12.3982,43.9258],[12.4076,43.9282],[12.4144,43.9312],[12.4184,43.935],[12.4181,43.9406],[12.4238,43.9363],[12.4314,43.9334],[12.4367,43.928],[12.4405,43.9207],[12.4411,43.9145],[12.4394,43.908],[12.4351,43.904],[12.4265,43.904],[12.4222,43.9064],[12.4222,43.9096],[12.4214,43.9131],[12.409,43.9172],[12.3993,43.9183],[12.39,43.9179]]]}},{"type":"Feature","properties":{"id":"SMR-4886","name":"Serravalle","nameBn":"সের্যাভাল্ল্যে","type":null,"bounds":[12.4272,43.952,12.4907,43.9826],"center":[12.4721,43.9676]},"geometry":{"type":"Polygon","coordinates":[[[12.4822,43.9826],[12.4892,43.9731],[12.4907,43.965],[12.4823,43.9622],[12.4729,43.9598],[12.4645,43.952],[12.4567,43.9603],[12.4481,43.9547],[12.444,43.9614],[12.4443,43.9679],[12.4416,43.969],[12.4343,43.9668],[12.4272,43.9694],[12.4533,43.9791],[12.4822,43.9826]]]}}]}