{"type":"FeatureCollection","features":[{"type":"Feature","properties":{"id":"SOM-2312","name":"Bakool","nameBn":"বাকুল","type":"Region","bounds":[42.8702,3.25,44.8,4.954],"center":[43.835,4.4061]},"geometry":{"type":"Polygon","coordinates":[[[43.969,4.954],[44.0291,4.9504],[44.081,4.9475],[44.1328,4.9445],[44.1847,4.9414],[44.2365,4.9385],[44.2883,4.9355],[44.3401,4.9324],[44.392,4.9295],[44.4437,4.9264],[44.4956,4.9235],[44.5474,4.9205],[44.5968,4.9176],[44.68,4.41],[44.75,4.0699],[44.8,3.8599],[44.77,3.7],[44.7799,3.27],[44.6599,3.25],[44.61,3.27],[44.4099,3.26],[44.28,3.34],[44.31,3.3899],[44.31,3.57],[44.2899,3.61],[44.18,3.8499],[43.95,3.9199],[43.8799,3.9199],[43.79,3.8799],[43.75,3.8499],[43.6799,3.72],[43.58,3.61],[43.41,3.57],[43.12,3.67],[43.1399,3.8499],[43.0999,3.9299],[42.89,4.2899],[42.8702,4.3282],[42.8996,4.3611],[42.9147,4.3933],[42.9325,4.4632],[42.9459,4.4969],[42.9526,4.5076],[42.9604,4.5174],[43.0354,4.5789],[43.1193,4.6477],[43.2328,4.7015],[43.347,4.7557],[43.4593,4.8088],[43.5285,4.8416],[43.6405,4.8674],[43.7165,4.8848],[43.8152,4.9075],[43.8452,4.9144],[43.9323,4.9452],[43.969,4.954]]]}},{"type":"Feature","properties":{"id":"SOM-2407","name":"Banaadir","nameBn":"বানাদির","type":"Region","bounds":[45.2662,1.9873,45.6056,2.183],"center":[45.436,2.1241]},"geometry":{"type":"Polygon","coordinates":[[[45.6056,2.183],[45.2662,1.9873],[45.2664,1.9884],[45.39,2.1499],[45.46,2.1699],[45.6034,2.183],[45.6056,2.183]]]}},{"type":"Feature","properties":{"id":"SOM-1","name":"Bari","nameBn":"বারি","type":"Region","bounds":[48.9391,8.33,51.417,11.9891],"center":[50.1777,9.9558]},"geometry":{"type":"Polygon","coordinates":[[[48.9391,9.5627],[48.9391,9.5636],[48.9391,9.676],[48.9391,9.7884],[48.9391,9.9007],[48.9391,10.013],[48.9391,10.1254],[48.9391,10.2378],[48.9391,10.3501],[48.9391,10.4626],[48.9391,10.5749],[48.9391,10.6873],[48.9391,10.7996],[48.9391,10.912],[48.9391,11.0244],[48.9391,11.1367],[48.9391,11.2491],[48.9768,11.2514],[49.1084,11.2766],[49.2396,11.3003],[49.2781,11.317],[49.2933,11.338],[49.3035,11.3454],[49.3159,11.3405],[49.3254,11.3351],[49.3357,11.3346],[49.4001,11.3405],[49.4192,11.3448],[49.4351,11.3511],[49.4886,11.3817],[49.5073,11.3852],[49.5217,11.3938],[49.5444,11.4367],[49.5586,11.4535],[49.5768,11.46],[49.5996,11.4617],[49.6445,11.4604],[49.6501,11.4621],[49.666,11.4711],[49.6753,11.4739],[49.6868,11.4744],[49.7163,11.4678],[49.8049,11.4584],[49.8512,11.4649],[49.8807,11.4882],[49.8885,11.4873],[49.9064,11.4987],[49.918,11.5019],[49.9219,11.5039],[49.9344,11.5129],[49.9421,11.5156],[49.9495,11.515],[49.9563,11.5125],[49.9611,11.51],[49.9627,11.5087],[50.0539,11.5114],[50.0725,11.5087],[50.1315,11.5399],[50.1511,11.5579],[50.1619,11.5634],[50.1976,11.5626],[50.2066,11.5668],[50.2144,11.5727],[50.2254,11.5781],[50.2683,11.5893],[50.2889,11.6024],[50.3723,11.6689],[50.4181,11.678],[50.437,11.6906],[50.4704,11.7279],[50.5008,11.7548],[50.5127,11.7712],[50.5176,11.7927],[50.5189,11.8153],[50.523,11.838],[50.5295,11.8595],[50.5386,11.8786],[50.5612,11.9079],[50.5759,11.921],[50.5899,11.9265],[50.6021,11.928],[50.6275,11.9401],[50.6321,11.9468],[50.6365,11.9516],[50.6411,11.9544],[50.6471,11.954],[50.6559,11.9484],[50.6615,11.9476],[50.683,11.9534],[50.7249,11.9711],[50.7616,11.9787],[50.772,11.9858],[50.7979,11.9891],[50.8671,11.9429],[50.9701,11.9323],[51.0293,11.8851],[51.0488,11.8786],[51.1277,11.8786],[51.1472,11.8736],[51.1812,11.8554],[51.1997,11.8513],[51.2229,11.8508],[51.2471,11.8476],[51.2673,11.8394],[51.2927,11.8331],[51.2774,11.8006],[51.2664,11.7593],[51.2494,11.7288],[51.2557,11.6817],[51.2478,11.6524],[51.2295,11.6359],[51.2125,11.6079],[51.1812,11.5788],[51.1481,11.536],[51.1248,11.5118],[51.1209,11.5053],[51.1219,11.4941],[51.1266,11.4788],[51.1277,11.4709],[51.125,11.448],[51.1184,11.4263],[51.0862,11.3572],[51.0813,11.3415],[51.0794,11.2759],[51.0725,11.2338],[51.0859,11.188],[51.1309,11.1608],[51.1744,11.1588],[51.1895,11.1383],[51.1644,11.1168],[51.1423,11.0684],[51.1314,11.0529],[51.1238,11.0388],[51.1183,11.0169],[51.1151,10.9934],[51.1245,10.8546],[51.1382,10.6767],[51.1607,10.5985],[51.1543,10.5877],[51.1314,10.5839],[51.1074,10.5766],[51.1019,10.5586],[51.1072,10.515],[51.1022,10.4947],[51.0923,10.4822],[51.0769,10.4758],[51.0557,10.4741],[51.0358,10.4675],[51.0183,10.4521],[51.0101,10.434],[51.0184,10.4194],[51.0381,10.4161],[51.1904,10.4461],[51.2009,10.4448],[51.2119,10.4418],[51.2204,10.442],[51.2239,10.4499],[51.2196,10.461],[51.2102,10.4671],[51.2009,10.4715],[51.1965,10.4774],[51.1958,10.5003],[51.193,10.5212],[51.1868,10.5416],[51.1761,10.5628],[51.1917,10.549],[51.2073,10.5381],[51.2206,10.5249],[51.238,10.515],[51.2466,10.5091],[51.2579,10.5038],[51.2806,10.4873],[51.2925,10.4801],[51.3112,10.4761],[51.3259,10.4727],[51.3359,10.4746],[51.3459,10.4805],[51.3572,10.4837],[51.3779,10.4817],[51.3952,10.479],[51.4031,10.4567],[51.417,10.4475],[51.411,10.4298],[51.3975,10.3958],[51.385,10.3915],[51.3802,10.3873],[51.3726,10.3814],[51.3761,10.3677],[51.3674,10.3677],[51.3495,10.375],[51.3361,10.3744],[51.3201,10.3785],[51.3008,10.3726],[51.2729,10.3779],[51.2654,10.3969],[51.2629,10.4086],[51.2566,10.4203],[51.241,10.4256],[51.0901,10.4073],[51.0171,10.3819],[50.9274,10.3278],[50.9099,10.2956],[50.9017,10.2344],[50.9128,10.1769],[50.8838,10.1013],[50.8887,10.0556],[50.9004,10.0241],[50.9017,10.0117],[50.8997,10.0007],[50.8908,9.986],[50.8777,9.9167],[50.8812,9.9055],[50.8696,9.8845],[50.8631,9.866],[50.854,9.8161],[50.8406,9.7798],[50.8333,9.7688],[50.8386,9.7409],[50.8369,9.7308],[50.8317,9.7121],[50.8245,9.6511],[50.8062,9.6245],[50.8055,9.5939],[50.813,9.5412],[50.8368,9.477],[50.8403,9.4561],[50.8374,9.4372],[50.8303,9.4196],[50.7683,9.3193],[50.7483,9.3035],[50.7063,9.2857],[50.6895,9.2748],[50.6768,9.2592],[50.647,9.2114],[50.6411,9.1964],[50.6492,9.1325],[50.6484,9.1104],[50.6336,9.0732],[50.6045,9.0379],[50.4949,8.952],[50.4641,8.9206],[50.4397,8.8882],[50.422,8.8571],[50.408,8.8164],[50.3898,8.7335],[50.3743,8.6989],[50.3265,8.6411],[50.3196,8.6203],[50.3226,8.5598],[50.3196,8.5418],[50.3035,8.5046],[50.2902,8.4868],[50.2749,8.4792],[50.2562,8.4726],[50.2461,8.4564],[50.2391,8.4363],[50.2302,8.4177],[50.166,8.3334],[50.05,8.4399],[49.93,8.4599],[49.89,8.4],[49.84,8.33],[49.7799,8.5299],[49.68,8.5799],[49.4499,8.5899],[49.2899,8.69],[49.18,8.77],[49.11,8.8999],[49.08,9.14],[49.06,9.57],[48.9391,9.5627]]]}},{"type":"Feature","properties":{"id":"SOM-2313","name":"Bay","nameBn":"বে","type":"Region","bounds":[42.4,1.46,44.69,3.9199],"center":[43.545,2.6721]},"geometry":{"type":"Polygon","coordinates":[[[43.95,3.9199],[44.18,3.8499],[44.2899,3.61],[44.31,3.57],[44.31,3.3899],[44.28,3.34],[44.4099,3.26],[44.61,3.27],[44.6599,3.25],[44.69,3.0499],[44.64,2.81],[44.6599,2.75],[44.6199,2.48],[44.65,2.2199],[43.8799,1.8799],[43.58,1.7599],[43.32,1.63],[42.9799,1.46],[42.8999,1.52],[42.52,1.8799],[42.4,1.95],[42.51,2.5699],[42.54,2.7399],[42.6,3.0699],[42.93,3.0399],[43.0999,3.0599],[43.0999,3.2299],[43.12,3.67],[43.41,3.57],[43.58,3.61],[43.6799,3.72],[43.75,3.8499],[43.79,3.8799],[43.8799,3.9199],[43.95,3.9199]]]}},{"type":"Feature","properties":{"id":"SOM-2408","name":"Galguduud","nameBn":"গেল্গুদুদ","type":"Region","bounds":[45.5185,3.4693,47.8406,6.5383],"center":[46.6795,5.0962]},"geometry":{"type":"Polygon","coordinates":[[[45.5185,5.5406],[45.6141,5.6451],[45.7214,5.7623],[45.8287,5.8795],[45.936,5.9967],[45.9968,6.0592],[46.0578,6.1217],[46.1188,6.1842],[46.1799,6.2467],[46.241,6.3092],[46.3021,6.3717],[46.3629,6.4343],[46.4239,6.4967],[46.467,6.5383],[46.8446,6.4522],[47.2223,6.366],[47.6,6.2799],[47.35,5.7499],[47.47,5.5699],[47.6099,5.1899],[47.5,4.49],[47.8348,4.3431],[47.8406,4.3414],[47.578,4.0599],[47.4893,3.9363],[47.3356,3.7788],[47.2067,3.6446],[47.0398,3.4693],[47.0357,3.4718],[46.39,3.8899],[46.4,4.2299],[46.15,4.43],[46.11,4.7399],[46.21,4.94],[46.23,5.0799],[46.04,5.03],[45.71,5.1099],[45.67,5.1899],[45.5185,5.5406]]]}},{"type":"Feature","properties":{"id":"SOM-2314","name":"Gedo","nameBn":"গেডো","type":"Region","bounds":[40.9654,1.2303,43.1399,4.3282],"center":[42.0524,3.0538]},"geometry":{"type":"Polygon","coordinates":[[[41.885,3.9772],[41.8985,3.9969],[41.9122,4.008],[41.9175,4.0205],[41.9166,4.0511],[41.9235,4.0706],[41.9412,4.0862],[42.0118,4.1295],[42.0684,4.1746],[42.1029,4.1919],[42.1353,4.2001],[42.2218,4.201],[42.2973,4.2017],[42.415,4.2217],[42.5683,4.2479],[42.7187,4.2735],[42.7898,4.2856],[42.8316,4.3023],[42.8689,4.3268],[42.8702,4.3282],[42.89,4.2899],[43.0999,3.9299],[43.1399,3.8499],[43.12,3.67],[43.0999,3.2299],[43.0999,3.0599],[42.93,3.0399],[42.6,3.0699],[42.54,2.7399],[42.51,2.5699],[42.4,1.95],[41.64,1.9399],[41.4199,1.26],[40.9685,1.2303],[40.9685,1.2472],[40.9685,1.3722],[40.9685,1.4971],[40.9685,1.6221],[40.9685,1.7472],[40.9685,1.8721],[40.9685,1.9972],[40.9685,2.1036],[40.9685,2.21],[40.9685,2.3165],[40.9685,2.423],[40.9685,2.4971],[40.9671,2.6317],[40.9659,2.7606],[40.9654,2.8141],[40.9798,2.8419],[41.014,2.8758],[41.0961,2.9571],[41.1784,3.0384],[41.2607,3.1198],[41.3427,3.2011],[41.3945,3.2752],[41.4462,3.349],[41.498,3.4231],[41.5496,3.497],[41.6336,3.6171],[41.7174,3.7372],[41.8013,3.8572],[41.885,3.9772]]]}},{"type":"Feature","properties":{"id":"SOM-2409","name":"Hiiraan","nameBn":"হিরন","type":"Region","bounds":[44.5968,3.2,46.4,5.5406],"center":[45.4984,4.3681]},"geometry":{"type":"Polygon","coordinates":[[[44.9126,4.8994],[44.9415,4.9115],[45.0206,4.9969],[45.0209,4.9969],[45.0777,5.0591],[45.185,5.1762],[45.2924,5.2935],[45.3996,5.4107],[45.5069,5.5279],[45.5185,5.5406],[45.67,5.1899],[45.71,5.1099],[46.04,5.03],[46.23,5.0799],[46.21,4.94],[46.11,4.7399],[46.15,4.43],[46.4,4.2299],[46.39,3.8899],[46.08,3.57],[46.0789,3.5665],[46.0317,3.5193],[46.03,3.5199],[45.94,3.25],[45.2699,3.2],[45.1499,3.2099],[45.0699,3.25],[44.7799,3.27],[44.77,3.7],[44.8,3.8599],[44.75,4.0699],[44.68,4.41],[44.5968,4.9176],[44.5992,4.9175],[44.6511,4.9145],[44.7029,4.9116],[44.7548,4.9086],[44.8065,4.9055],[44.8584,4.9025],[44.9126,4.8994]]]}},{"type":"Feature","properties":{"id":"SOM-2315","name":"Jubbada Dhexe","nameBn":"মধ্য যুবা","type":"Region","bounds":[41.4199,0.31,43.5213,1.95],"center":[42.4706,1.5534]},"geometry":{"type":"Polygon","coordinates":[[[43.5213,0.6723],[43.4676,0.6206],[43.2855,0.415],[43.1849,0.3163],[43.1795,0.3163],[42.7299,0.31],[42.63,0.72],[42.43,1.3199],[42.1999,1.3099],[41.4199,1.26],[41.64,1.9399],[42.4,1.95],[42.52,1.8799],[42.8999,1.52],[42.9799,1.46],[43.2699,1.03],[43.3499,0.9199],[43.5184,0.6757],[43.5213,0.6723]]]}},{"type":"Feature","properties":{"id":"SOM-2645","name":"Jubbada Hoose","nameBn":"লোয়ার জুবা","type":"Region","bounds":[40.9685,-1.6963,43.1849,1.3199],"center":[41.8088,0.0079]},"geometry":{"type":"Polygon","coordinates":[[[41.5359,-1.6763],[41.5386,-1.6137],[41.535,-1.5948],[41.5229,-1.5728],[41.4845,-1.5232],[41.4342,-1.458],[41.3838,-1.393],[41.3322,-1.3264],[41.283,-1.2628],[41.2373,-1.2039],[41.1822,-1.1327],[41.1311,-1.0664],[41.0816,-1.0026],[41.0561,-0.9696],[41.0306,-0.9367],[41.0053,-0.9038],[40.9798,-0.8708],[40.9788,-0.7948],[40.9779,-0.7243],[40.977,-0.6539],[40.9755,-0.5452],[40.9741,-0.4367],[40.9726,-0.3283],[40.9712,-0.2197],[40.9704,-0.1522],[40.9696,-0.0847],[40.9685,-0.0027],[40.9685,0.1223],[40.9685,0.2473],[40.9685,0.3723],[40.9685,0.4973],[40.9685,0.6223],[40.9685,0.7472],[40.9685,0.8722],[40.9685,0.9972],[40.9685,1.1222],[40.9685,1.2303],[41.4199,1.26],[42.1999,1.3099],[42.43,1.3199],[42.63,0.72],[42.7299,0.31],[43.1795,0.3163],[43.1849,0.3163],[43.0902,0.2234],[42.8911,0.0031],[42.7703,-0.1293],[42.7121,-0.1767],[42.6478,-0.2289],[42.5803,-0.2975],[42.5559,-0.3321],[42.5536,-0.3424],[42.554,-0.3513],[42.5508,-0.3576],[42.5266,-0.3627],[42.5193,-0.3693],[42.4797,-0.4221],[42.4745,-0.4387],[42.4865,-0.4494],[42.4764,-0.466],[42.4728,-0.4699],[42.4729,-0.4638],[42.4724,-0.4587],[42.4705,-0.454],[42.466,-0.4494],[42.4126,-0.491],[42.4046,-0.5009],[42.398,-0.5173],[42.3827,-0.5353],[42.3499,-0.5656],[42.2503,-0.6856],[42.2468,-0.6943],[42.2468,-0.7019],[42.2453,-0.7075],[42.2363,-0.7096],[42.2326,-0.7131],[42.1922,-0.7761],[42.1665,-0.8027],[42.1516,-0.8139],[42.1355,-0.8217],[42.1165,-0.8263],[42.0866,-0.8256],[42.0715,-0.8287],[42.0625,-0.8393],[42.0817,-0.8434],[42.0809,-0.8629],[42.072,-0.8845],[42.0657,-0.8945],[42.0514,-0.902],[42.037,-0.92],[42.0256,-0.9416],[42.0208,-0.9601],[42.0164,-0.968],[41.9832,-0.9941],[41.9719,-0.9998],[41.9679,-0.9929],[41.9636,-0.9509],[41.9647,-0.9116],[41.9588,-0.8945],[41.9528,-0.8945],[41.9554,-0.9096],[41.9524,-0.9208],[41.9475,-0.9308],[41.9452,-0.943],[41.9465,-0.9548],[41.9514,-0.9694],[41.9528,-0.9804],[41.9556,-0.9929],[41.9622,-0.999],[41.9692,-1.0032],[41.9732,-1.0112],[41.9717,-1.0236],[41.9614,-1.0441],[41.9588,-1.0558],[41.9535,-1.0686],[41.93,-1.0899],[41.9247,-1.0971],[41.923,-1.1101],[41.9183,-1.121],[41.9116,-1.131],[41.8739,-1.176],[41.8695,-1.1862],[41.8729,-1.1955],[41.8807,-1.1949],[41.8901,-1.1894],[41.8975,-1.1832],[41.8854,-1.2096],[41.8628,-1.2123],[41.842,-1.197],[41.8353,-1.1689],[41.8291,-1.1689],[41.8303,-1.1892],[41.842,-1.2249],[41.8428,-1.2439],[41.8366,-1.2623],[41.7323,-1.4311],[41.7088,-1.4601],[41.6897,-1.4895],[41.6521,-1.5651],[41.6333,-1.5803],[41.6106,-1.5932],[41.575,-1.6526],[41.5549,-1.6697],[41.561,-1.6697],[41.5351,-1.6963],[41.5359,-1.6763]]]}},{"type":"Feature","properties":{"id":"SOM-2412","name":"Mudug","nameBn":"মুদুগ","type":"Region","bounds":[46.467,4.3414,49.6408,7.7099],"center":[48.1009,5.5104]},"geometry":{"type":"Polygon","coordinates":[[[46.467,6.5383],[46.488,6.5586],[46.5084,6.5783],[46.5532,6.6215],[46.5981,6.6646],[46.6184,6.6842],[46.667,6.7311],[46.7156,6.778],[46.7641,6.8249],[46.8127,6.8717],[46.8614,6.9186],[46.91,6.9655],[46.9586,7.0123],[47.007,7.0592],[47.0556,7.1061],[47.1043,7.153],[47.1529,7.1998],[47.2014,7.2467],[47.2501,7.2935],[47.2988,7.3404],[47.3474,7.3873],[47.3959,7.4342],[47.4445,7.481],[47.4931,7.5279],[47.5324,7.5659],[47.5576,7.5603],[47.5656,7.5594],[48.5,7.4099],[49.03,7.7099],[49.19,7.6999],[49.44,7.58],[49.5,7.57],[49.6408,7.4091],[49.5866,7.3148],[49.5205,7.2397],[49.367,7.0257],[49.2932,6.8809],[49.2473,6.8106],[49.1979,6.6736],[49.0747,6.4153],[49.072,6.3933],[49.0741,6.3708],[49.0835,6.329],[49.0856,6.3074],[49.0713,6.2199],[49.0361,6.1442],[48.9515,5.9987],[48.8501,5.8244],[48.6958,5.5873],[48.6467,5.48],[48.6201,5.444],[48.5481,5.3751],[48.448,5.2087],[48.3289,5.0797],[48.2024,4.9089],[48.0557,4.6129],[47.9485,4.4571],[47.8406,4.3414],[47.8348,4.3431],[47.5,4.49],[47.6099,5.1899],[47.47,5.5699],[47.35,5.7499],[47.6,6.2799],[47.2223,6.366],[46.8446,6.4522],[46.467,6.5383]]]}},{"type":"Feature","properties":{"id":"SOM-2413","name":"Nugaal","nameBn":"নুগাল","type":"Region","bounds":[47.5324,7.4091,50.166,9.57],"center":[48.849,8.461]},"geometry":{"type":"Polygon","coordinates":[[[47.5324,7.5659],[47.5417,7.5748],[47.5903,7.6217],[47.6389,7.6685],[47.6875,7.7154],[47.736,7.7622],[47.7847,7.8091],[47.8332,7.856],[47.8818,7.9028],[47.9306,7.9497],[47.9792,7.9966],[48.0391,8.0875],[48.0991,8.1785],[48.159,8.2694],[48.2192,8.3603],[48.2791,8.4512],[48.3391,8.5421],[48.3993,8.6331],[48.4592,8.7239],[48.5192,8.8149],[48.5792,8.9058],[48.6393,8.9967],[48.6992,9.0877],[48.7592,9.1785],[48.8193,9.2694],[48.8791,9.3603],[48.9391,9.4512],[48.9391,9.5627],[49.06,9.57],[49.08,9.14],[49.11,8.8999],[49.18,8.77],[49.2899,8.69],[49.4499,8.5899],[49.68,8.5799],[49.7799,8.5299],[49.84,8.33],[49.89,8.4],[49.93,8.4599],[50.05,8.4399],[50.166,8.3334],[50.1564,8.3206],[50.1414,8.288],[50.113,8.1995],[50.0911,8.161],[50.0583,8.1303],[49.9294,8.0517],[49.8421,7.9627],[49.8242,7.9339],[49.8125,7.8975],[49.8032,7.8269],[49.8086,7.815],[49.8234,7.8053],[49.8276,7.7829],[49.825,7.7578],[49.8193,7.7399],[49.7908,7.6995],[49.7609,7.6673],[49.7522,7.6503],[49.7483,7.6066],[49.7442,7.5891],[49.6408,7.4091],[49.5,7.57],[49.44,7.58],[49.19,7.6999],[49.03,7.7099],[48.5,7.4099],[47.5656,7.5594],[47.5576,7.5603],[47.5324,7.5659]]]}},{"type":"Feature","properties":{"id":"SOM-2410","name":"Shabeellaha Dhexe","nameBn":"মিডল শেবিলে","type":"Region","bounds":[45.0699,2.1499,47.0398,3.8899],"center":[46.0549,3.0056]},"geometry":{"type":"Polygon","coordinates":[[[47.0398,3.4693],[47.0129,3.4411],[46.8342,3.2325],[46.7,3.1133],[46.6257,3.0239],[46.4878,2.9088],[46.4143,2.8334],[46.3516,2.7886],[46.3496,2.7802],[46.3449,2.7701],[46.3392,2.7617],[46.3345,2.7582],[46.3176,2.7519],[46.3076,2.736],[46.2998,2.7158],[46.2894,2.6962],[46.2754,2.6859],[46.2365,2.6676],[46.1423,2.5689],[46.1309,2.554],[46.1145,2.5233],[46.105,2.5106],[46.063,2.484],[46.0476,2.4551],[46.027,2.4381],[45.8263,2.3088],[45.7119,2.2443],[45.6056,2.183],[45.6034,2.183],[45.46,2.1699],[45.39,2.1499],[45.33,2.1799],[45.34,2.7199],[45.12,3.0399],[45.0699,3.25],[45.1499,3.2099],[45.2699,3.2],[45.94,3.25],[46.03,3.5199],[46.0317,3.5193],[46.0789,3.5665],[46.08,3.57],[46.39,3.8899],[47.0357,3.4718],[47.0398,3.4693]]]}},{"type":"Feature","properties":{"id":"SOM-2316","name":"Shabeellaha Hoose","nameBn":"লোয়ার শেবারেল","type":"Region","bounds":[42.9799,0.6723,45.39,3.27],"center":[44.185,1.636]},"geometry":{"type":"Polygon","coordinates":[[[45.2662,1.9873],[45.2322,1.9677],[45.2107,1.9631],[45.1997,1.9596],[45.0015,1.8664],[44.8316,1.7497],[44.824,1.7403],[44.8122,1.7356],[44.6763,1.6376],[44.5501,1.5591],[44.3328,1.39],[44.2214,1.2756],[44.1984,1.2657],[44.1579,1.2408],[44.1455,1.2296],[44.1421,1.2214],[44.1397,1.2112],[44.138,1.1916],[44.134,1.1876],[44.115,1.182],[44.1108,1.1783],[44.1038,1.1684],[44.0329,1.0975],[44.0125,1.0842],[43.991,1.0786],[43.9788,1.0687],[43.9326,1.0098],[43.8198,0.9494],[43.7819,0.9216],[43.7342,0.855],[43.7173,0.8453],[43.7035,0.8405],[43.6589,0.8049],[43.5213,0.6723],[43.5184,0.6757],[43.3499,0.9199],[43.2699,1.03],[42.9799,1.46],[43.32,1.63],[43.58,1.7599],[43.8799,1.8799],[44.65,2.2199],[44.6199,2.48],[44.6599,2.75],[44.64,2.81],[44.69,3.0499],[44.6599,3.25],[44.7799,3.27],[45.0699,3.25],[45.12,3.0399],[45.34,2.7199],[45.33,2.1799],[45.39,2.1499],[45.2664,1.9884],[45.2662,1.9873]]]}}]}