{"type":"FeatureCollection","features":[{"type":"Feature","properties":{"id":"SPM-4867","name":"Miquelon-Langlade","nameBn":"মিকুইলন-ল্যাংলেড","type":"Commune","bounds":[-56.3966,46.7807,-56.2355,47.1413],"center":[-56.3418,47.0461]},"geometry":{"type":"Polygon","coordinates":[[[-56.2738,46.8955],[-56.2355,46.872],[-56.2493,46.8423],[-56.2893,46.8138],[-56.3463,46.7836],[-56.3585,46.7807],[-56.3707,46.7862],[-56.3779,46.799],[-56.3751,46.807],[-56.3751,46.814],[-56.3911,46.824],[-56.3964,46.8364],[-56.3799,46.8515],[-56.3428,46.8756],[-56.3283,46.9149],[-56.3368,46.9543],[-56.385,47.0356],[-56.3882,47.0518],[-56.3911,47.0878],[-56.3966,47.104],[-56.3959,47.1136],[-56.3877,47.1254],[-56.3774,47.1343],[-56.3663,47.1402],[-56.3546,47.1413],[-56.3428,47.1356],[-56.3613,47.126],[-56.3717,47.1162],[-56.3712,47.1059],[-56.357,47.0947],[-56.3403,47.0891],[-56.3048,47.0832],[-56.2533,47.0537],[-56.2517,47.0439],[-56.2523,47.0302],[-56.256,47.018],[-56.2694,47.0085],[-56.2738,46.9991],[-56.2803,46.9897],[-56.2919,46.9854],[-56.2976,46.9875],[-56.3003,46.9923],[-56.302,46.997],[-56.3052,46.9991],[-56.3122,46.9984],[-56.3297,46.9923],[-56.3436,46.9959],[-56.3502,46.9946],[-56.3502,46.9854],[-56.3458,46.9799],[-56.3397,46.9791],[-56.3339,46.9796],[-56.3259,46.9765],[-56.3201,46.9764],[-56.3137,46.9757],[-56.3086,46.9717],[-56.3068,46.965],[-56.3097,46.9601],[-56.3139,46.9567],[-56.316,46.9538],[-56.316,46.9128],[-56.3118,46.9001],[-56.3012,46.8963],[-56.2738,46.8955]]]}},{"type":"Feature","properties":{"id":"SPM-4866","name":"Saint-Pierre","nameBn":"সাঁ পিয়ের ও মিকলোঁ","type":"Commune","bounds":[-56.2403,46.7528,-56.1448,46.8116],"center":[-56.1918,46.7795]},"geometry":{"type":"Polygon","coordinates":[[[-56.151,46.7936],[-56.1565,46.7893],[-56.1608,46.7844],[-56.1638,46.7789],[-56.1652,46.7725],[-56.1502,46.7669],[-56.1448,46.7657],[-56.1681,46.7573],[-56.1958,46.7528],[-56.2219,46.7546],[-56.2403,46.7657],[-56.2189,46.7883],[-56.2075,46.7978],[-56.1919,46.8066],[-56.1802,46.8096],[-56.1614,46.8116],[-56.1475,46.8078],[-56.151,46.7936]]]}}]}