{"type":"FeatureCollection","features":[{"type":"Feature","properties":{"id":"SYC-5199","name":"Anse Boileau","nameBn":"আন্স বুইলু","type":null,"bounds":[55.478,-4.7391,55.5079,-4.6778],"center":[55.4923,-4.7136]},"geometry":{"type":"Polygon","coordinates":[[[55.4916,-4.7364],[55.485,-4.7275],[55.4803,-4.7214],[55.4817,-4.713],[55.478,-4.7064],[55.4807,-4.6972],[55.4917,-4.6884],[55.4952,-4.6778],[55.5002,-4.6796],[55.5035,-4.7059],[55.5079,-4.7198],[55.505,-4.7391],[55.4916,-4.7364]]]}},{"type":"Feature","properties":{"id":"SYC-5200","name":"Anse Etoile","nameBn":"আন্সে ইতুয়াইলে","type":null,"bounds":[55.4394,-4.6045,55.4672,-4.5714],"center":[55.4543,-4.5879]},"geometry":{"type":"Polygon","coordinates":[[[55.4639,-4.5714],[55.4672,-4.5834],[55.4631,-4.5879],[55.4599,-4.5985],[55.4544,-4.5975],[55.4407,-4.6045],[55.4394,-4.5957],[55.4407,-4.587],[55.4469,-4.5742],[55.4592,-4.5764],[55.4639,-4.5714]]]}},{"type":"Feature","properties":{"id":"SYC-5202","name":"Anse Royale","nameBn":"আন্স রয়েল","type":null,"bounds":[55.5044,-4.7713,55.5281,-4.7198],"center":[55.5118,-4.7456]},"geometry":{"type":"Polygon","coordinates":[[[55.5281,-4.7368],[55.5197,-4.7392],[55.5169,-4.7504],[55.5257,-4.7701],[55.5097,-4.7713],[55.5057,-4.7613],[55.5044,-4.7433],[55.505,-4.7391],[55.5079,-4.7198],[55.5097,-4.7253],[55.5281,-4.7368]]]}},{"type":"Feature","properties":{"id":"SYC-5198","name":"Anse aux Pins","nameBn":"আন্স- আউস পিন্স","type":null,"bounds":[55.504,-4.6891,55.5286,-4.6774],"center":[55.5208,-4.683]},"geometry":{"type":"Polygon","coordinates":[[[55.5286,-4.6802],[55.5263,-4.6891],[55.504,-4.6809],[55.5063,-4.6774],[55.5286,-4.6802]]]}},{"type":"Feature","properties":{"id":"SYC-5201","name":"Au Cap","nameBn":"অ ক্যাপ","type":null,"bounds":[55.5002,-4.7368,55.5281,-4.6796],"center":[55.5138,-4.7036]},"geometry":{"type":"Polygon","coordinates":[[[55.5263,-4.6891],[55.5215,-4.7078],[55.5253,-4.7139],[55.5281,-4.7368],[55.5097,-4.7253],[55.5079,-4.7198],[55.5035,-4.7059],[55.5002,-4.6796],[55.504,-4.6809],[55.5263,-4.6891]]]}},{"type":"Feature","properties":{"id":"SYC-5203","name":"Baie Lazare","nameBn":"বে লাজার","type":null,"bounds":[55.4635,-4.7775,55.5101,-4.7364],"center":[55.4918,-4.7546]},"geometry":{"type":"Polygon","coordinates":[[[55.4932,-4.7766],[55.4911,-4.7729],[55.4869,-4.7621],[55.478,-4.7588],[55.471,-4.7635],[55.4635,-4.7598],[55.4682,-4.7415],[55.4848,-4.7416],[55.4916,-4.7364],[55.505,-4.7391],[55.5044,-4.7433],[55.5057,-4.7613],[55.5097,-4.7713],[55.5101,-4.7775],[55.4932,-4.7766]]]}},{"type":"Feature","properties":{"id":"SYC-5204","name":"Baie Sainte Anne","nameBn":"বাইয়ে সেন্টে আন্যে","type":null,"bounds":[55.6828,-4.3503,55.787,-4.2768],"center":[55.76,-4.3292]},"geometry":{"type":"MultiPolygon","coordinates":[[[[55.6828,-4.2944],[55.6901,-4.2918],[55.697,-4.2906],[55.7044,-4.2902],[55.7187,-4.3032],[55.7322,-4.3088],[55.7467,-4.3114],[55.7545,-4.3211],[55.7645,-4.3166],[55.7772,-4.3185],[55.787,-4.3306],[55.7709,-4.3313],[55.7682,-4.3396],[55.768,-4.3503],[55.7476,-4.3389],[55.741,-4.3291],[55.6828,-4.2944]]],[[[55.7121,-4.2804],[55.7151,-4.2768],[55.7221,-4.2768],[55.7385,-4.278],[55.743,-4.2783],[55.7415,-4.2832],[55.7322,-4.2832],[55.7333,-4.2891],[55.7329,-4.2925],[55.7207,-4.2883],[55.7121,-4.2804]]]]}},{"type":"Feature","properties":{"id":"SYC-5205","name":"Beau Vallon","nameBn":"বিউ ভ্যালোন","type":null,"bounds":[55.4144,-4.6238,55.4407,-4.5869],"center":[55.4317,-4.6029]},"geometry":{"type":"Polygon","coordinates":[[[55.4144,-4.6128],[55.4176,-4.6114],[55.4223,-4.6034],[55.4261,-4.5955],[55.4317,-4.5916],[55.4327,-4.5869],[55.4407,-4.587],[55.4394,-4.5957],[55.4407,-4.6045],[55.4359,-4.6085],[55.4385,-4.6151],[55.4315,-4.6238],[55.4258,-4.6129],[55.417,-4.6159],[55.4144,-4.6128]]]}},{"type":"Feature","properties":{"id":"SYC-5206","name":"Bel Air","nameBn":"বেল এয়ার","type":null,"bounds":[55.435,-4.6576,55.4645,-4.6181],"center":[55.4483,-4.632]},"geometry":{"type":"Polygon","coordinates":[[[55.4588,-4.6181],[55.4618,-4.6225],[55.4572,-4.624],[55.4567,-4.6258],[55.4605,-4.6256],[55.4605,-4.63],[55.4552,-4.6322],[55.4645,-4.6471],[55.4592,-4.6576],[55.4451,-4.6506],[55.4412,-4.6361],[55.435,-4.6304],[55.4473,-4.6208],[55.4588,-4.6181]]]}},{"type":"Feature","properties":{"id":"SYC-5207","name":"Bel Ombre","nameBn":"বেল ওম্ব্রে","type":null,"bounds":[55.3805,-4.6414,55.4315,-4.6128],"center":[55.4092,-4.6245]},"geometry":{"type":"Polygon","coordinates":[[[55.3805,-4.6272],[55.3884,-4.6196],[55.3946,-4.617],[55.4069,-4.6161],[55.4144,-4.6128],[55.417,-4.6159],[55.4258,-4.6129],[55.4315,-4.6238],[55.4179,-4.6291],[55.4197,-4.6366],[55.4087,-4.6414],[55.3805,-4.6272]]]}},{"type":"Feature","properties":{"id":"SYC-5208","name":"Cascade","nameBn":"ক্যাস্কেড","type":null,"bounds":[55.4827,-4.6809,55.5136,-4.6514],"center":[55.4988,-4.667]},"geometry":{"type":"Polygon","coordinates":[[[55.492,-4.6514],[55.4977,-4.6554],[55.5136,-4.6662],[55.5063,-4.6774],[55.504,-4.6809],[55.5002,-4.6796],[55.4952,-4.6778],[55.4827,-4.6623],[55.4895,-4.6585],[55.492,-4.6514]]]}},{"type":"Feature","properties":{"id":"SYC-5213","name":"English River","nameBn":"লা রিভেরে এংলাইস","type":null,"bounds":[55.4407,-4.6208,55.4599,-4.5975],"center":[55.4533,-4.6075]},"geometry":{"type":"Polygon","coordinates":[[[55.4599,-4.5985],[55.4599,-4.6065],[55.4588,-4.6181],[55.4473,-4.6208],[55.4486,-4.6129],[55.4407,-4.6045],[55.4544,-4.5975],[55.4599,-4.5985]]]}},{"type":"Feature","properties":{"id":"SYC-5209","name":"Glacis","nameBn":"গ্লাচিচ","type":null,"bounds":[55.4327,-4.587,55.4639,-4.5605],"center":[55.4433,-4.5694]},"geometry":{"type":"Polygon","coordinates":[[[55.4327,-4.5869],[55.4343,-4.5795],[55.4337,-4.5625],[55.4406,-4.5605],[55.4475,-4.5611],[55.4549,-4.5622],[55.4639,-4.5714],[55.4592,-4.5764],[55.4469,-4.5742],[55.4407,-4.587],[55.4327,-4.5869]]]}},{"type":"Feature","properties":{"id":"SYC-5210","name":"Grand'Anse","nameBn":"গ্রান্ড'আন্সে প্রাস্লিন","type":null,"bounds":[55.4465,-4.7064,55.4952,-4.6576],"center":[55.4738,-4.6865]},"geometry":{"type":"Polygon","coordinates":[[[55.478,-4.7064],[55.4682,-4.7055],[55.4583,-4.691],[55.449,-4.6779],[55.45,-4.6739],[55.4465,-4.6726],[55.4469,-4.6664],[55.4552,-4.6651],[55.4592,-4.6576],[55.4798,-4.6721],[55.4775,-4.6651],[55.4827,-4.6623],[55.4952,-4.6778],[55.4917,-4.6884],[55.4807,-4.6972],[55.478,-4.7064]]]}},{"type":"Feature","properties":{"id":"SYC-5211","name":"Grand'Anse Praslin","nameBn":"গ্রান্ড'আন্সে প্রাস্লিন","type":null,"bounds":[55.6437,-4.3584,55.768,-4.2099],"center":[55.7435,-4.3447]},"geometry":{"type":"MultiPolygon","coordinates":[[[[55.768,-4.3503],[55.7591,-4.3584],[55.7468,-4.3581],[55.7328,-4.3522],[55.7233,-4.3426],[55.7176,-4.3301],[55.7041,-4.3279],[55.692,-4.3263],[55.6846,-4.3189],[55.6838,-4.3116],[55.6772,-4.2964],[55.6828,-4.2944],[55.741,-4.3291],[55.7476,-4.3389],[55.768,-4.3503]]],[[[55.663,-4.3282],[55.6664,-4.3293],[55.6656,-4.3341],[55.6604,-4.3349],[55.66,-4.3304],[55.663,-4.3282]]],[[[55.647,-4.3467],[55.6489,-4.3486],[55.6511,-4.3534],[55.6481,-4.3534],[55.6437,-4.3494],[55.647,-4.3467]]],[[[55.6667,-4.2099],[55.6704,-4.2107],[55.6753,-4.2121],[55.6719,-4.2147],[55.6645,-4.214],[55.6593,-4.2129],[55.6604,-4.2103],[55.6667,-4.2099]]]]}},{"type":"Feature","properties":{"id":"SYC-5212","name":"La Digue and Inner Islands","nameBn":"লা দিগুয়ে অ্যান্ড ইনার আইল্যান্ড","type":null,"bounds":[55.2214,-4.5928,55.9501,-3.7911],"center":[55.8393,-4.3595]},"geometry":{"type":"MultiPolygon","coordinates":[[[[55.6597,-3.7911],[55.6659,-3.8118],[55.6585,-3.8117],[55.6519,-3.8012],[55.6597,-3.7911]]],[[[55.2603,-4.5001],[55.242,-4.504],[55.228,-4.4875],[55.2214,-4.4635],[55.2254,-4.4449],[55.242,-4.4504],[55.2599,-4.463],[55.2692,-4.4802],[55.2603,-4.5001]]],[[[55.8318,-4.3375],[55.8441,-4.3427],[55.8508,-4.3553],[55.8571,-4.365],[55.8504,-4.3683],[55.8441,-4.3743],[55.8415,-4.3828],[55.8344,-4.381],[55.8255,-4.372],[55.8233,-4.3598],[55.8285,-4.3475],[55.8318,-4.3375]]],[[[55.8686,-4.3174],[55.8735,-4.3185],[55.8831,-4.3289],[55.8846,-4.3367],[55.8787,-4.3382],[55.8735,-4.3326],[55.8668,-4.3233],[55.8686,-4.3174]]],[[[55.8664,-4.2832],[55.8698,-4.2835],[55.8709,-4.2899],[55.8738,-4.2962],[55.8701,-4.2965],[55.8664,-4.2887],[55.8664,-4.2832]]],[[[55.92,-4.3341],[55.9248,-4.3371],[55.9237,-4.343],[55.9226,-4.3497],[55.9188,-4.3479],[55.9177,-4.3404],[55.92,-4.3341]]],[[[55.9401,-4.5787],[55.9444,-4.5799],[55.9494,-4.5865],[55.9501,-4.591],[55.9449,-4.5928],[55.9391,-4.5923],[55.933,-4.5862],[55.9325,-4.5824],[55.9358,-4.5799],[55.9401,-4.5787]]]]}},{"type":"Feature","properties":{"id":"SYC-5221","name":"Les Mamelles","nameBn":"লেস মামেলস","type":null,"bounds":[55.4741,-4.6651,55.4895,-4.6475],"center":[55.4808,-4.6575]},"geometry":{"type":"Polygon","coordinates":[[[55.4775,-4.6651],[55.4741,-4.655],[55.4759,-4.6528],[55.475,-4.6475],[55.4895,-4.6585],[55.4827,-4.6623],[55.4775,-4.6651]]]}},{"type":"Feature","properties":{"id":"SYC-5214","name":"Mont Buxton","nameBn":"মন্ট বাক্সটন","type":null,"bounds":[55.4359,-4.6208,55.4486,-4.6045],"center":[55.4428,-4.6125]},"geometry":{"type":"Polygon","coordinates":[[[55.4385,-4.6151],[55.4359,-4.6085],[55.4407,-4.6045],[55.4486,-4.6129],[55.4473,-4.6208],[55.4385,-4.6151]]]}},{"type":"Feature","properties":{"id":"SYC-5215","name":"Mont Fleuri","nameBn":"মন্ট ফ্লেঊরি","type":null,"bounds":[55.4552,-4.6471,55.5144,-4.5984],"center":[55.4633,-4.6345]},"geometry":{"type":"MultiPolygon","coordinates":[[[[55.4605,-4.6256],[55.4644,-4.6254],[55.4718,-4.6349],[55.4671,-4.6418],[55.4645,-4.6471],[55.4552,-4.6322],[55.4605,-4.63],[55.4605,-4.6256]]],[[[55.5016,-4.6289],[55.5041,-4.6297],[55.5068,-4.6369],[55.5058,-4.6396],[55.5026,-4.6399],[55.4985,-4.6385],[55.4956,-4.6357],[55.492,-4.6343],[55.4917,-4.6299],[55.4937,-4.628],[55.4972,-4.6281],[55.4997,-4.6299],[55.5016,-4.6289]]],[[[55.5042,-4.6214],[55.5057,-4.6217],[55.5082,-4.6239],[55.5115,-4.6248],[55.5128,-4.6272],[55.5111,-4.6296],[55.5084,-4.6284],[55.5051,-4.6262],[55.5033,-4.6236],[55.5042,-4.6214]]],[[[55.4979,-4.6008],[55.4994,-4.5997],[55.5038,-4.5984],[55.5084,-4.5994],[55.5125,-4.5994],[55.5144,-4.6006],[55.5125,-4.6046],[55.5093,-4.609],[55.5028,-4.6116],[55.4987,-4.6144],[55.4968,-4.6147],[55.4963,-4.6118],[55.4974,-4.6065],[55.4968,-4.603],[55.4979,-4.6008]]]]}},{"type":"Feature","properties":{"id":"SYC-5197","name":"Outer Islands","nameBn":"আউটার আইল্যান্ড","type":null,"bounds":[46.2074,-9.7555,56.2874,-5.4202],"center":[46.4946,-9.7392]},"geometry":{"type":"MultiPolygon","coordinates":[[[[46.5098,-9.72],[46.5076,-9.7319],[46.5007,-9.7465],[46.4905,-9.7555],[46.4797,-9.7511],[46.4785,-9.7404],[46.487,-9.7302],[46.4994,-9.7228],[46.5098,-9.72]]],[[[47.5073,-9.7131],[47.5073,-9.6982],[47.5129,-9.6944],[47.5158,-9.7001],[47.5073,-9.7131]]],[[[53.334,-5.4202],[53.3416,-5.4299],[53.3441,-5.4347],[53.3447,-5.441],[53.3405,-5.4362],[53.3379,-5.4312],[53.334,-5.4202]]],[[[46.4955,-9.3576],[46.516,-9.3718],[46.5252,-9.3813],[46.52,-9.3855],[46.5071,-9.3907],[46.4729,-9.4164],[46.4546,-9.4264],[46.3807,-9.4246],[46.2998,-9.4493],[46.2344,-9.4523],[46.2074,-9.3855],[46.2305,-9.4137],[46.2741,-9.4264],[46.3205,-9.4238],[46.3516,-9.4059],[46.369,-9.4068],[46.396,-9.3984],[46.4216,-9.3869],[46.4346,-9.3781],[46.4408,-9.3855],[46.4478,-9.3781],[46.4577,-9.383],[46.4688,-9.3855],[46.4688,-9.3781],[46.4588,-9.3717],[46.4528,-9.3624],[46.4496,-9.3508],[46.4478,-9.3377],[46.4955,-9.3576]]],[[[46.2839,-9.3513],[46.2821,-9.3481],[46.2826,-9.3458],[46.2817,-9.3445],[46.2764,-9.3439],[46.2761,-9.3393],[46.278,-9.3385],[46.2809,-9.3388],[46.3152,-9.3264],[46.3537,-9.3289],[46.3931,-9.3359],[46.4271,-9.3377],[46.4107,-9.3533],[46.3794,-9.357],[46.348,-9.3526],[46.3311,-9.3439],[46.3184,-9.3508],[46.2957,-9.3476],[46.2839,-9.3513]]],[[[56.2471,-7.1926],[56.2588,-7.1402],[56.2694,-7.1198],[56.2874,-7.11],[56.283,-7.1319],[56.2725,-7.1536],[56.2471,-7.1926]]],[[[52.7419,-6.9943],[52.7472,-7.0051],[52.7434,-7.0041],[52.7422,-7.0017],[52.7422,-6.9985],[52.7419,-6.9943]]],[[[55.3828,-5.8539],[55.3818,-5.8655],[55.3801,-5.8691],[55.3799,-5.8649],[55.3828,-5.8539]]]]}},{"type":"Feature","properties":{"id":"SYC-5216","name":"Plaisance","nameBn":"প্লায়সেন্স","type":null,"bounds":[55.4592,-4.6721,55.4798,-4.6349],"center":[55.4693,-4.6545]},"geometry":{"type":"Polygon","coordinates":[[[55.4718,-4.6349],[55.4757,-4.6399],[55.475,-4.6475],[55.4759,-4.6528],[55.4741,-4.655],[55.4775,-4.6651],[55.4798,-4.6721],[55.4592,-4.6576],[55.4645,-4.6471],[55.4671,-4.6418],[55.4718,-4.6349]]]}},{"type":"Feature","properties":{"id":"SYC-5217","name":"Pointe La Rue","nameBn":"পয়ন্তে লা রো","type":null,"bounds":[55.5063,-4.6802,55.5286,-4.6662],"center":[55.5163,-4.674]},"geometry":{"type":"Polygon","coordinates":[[[55.5136,-4.6662],[55.5164,-4.668],[55.5286,-4.6802],[55.5063,-4.6774],[55.5136,-4.6662]]]}},{"type":"Feature","properties":{"id":"SYC-5218","name":"Port Glaud","nameBn":"পোর্ট গ্লড","type":null,"bounds":[55.3605,-4.6803,55.4592,-4.6238],"center":[55.4262,-4.6535]},"geometry":{"type":"MultiPolygon","coordinates":[[[[55.449,-4.6779],[55.4354,-4.6764],[55.4181,-4.6662],[55.4092,-4.6608],[55.4017,-4.6605],[55.3944,-4.6579],[55.3949,-4.6539],[55.4001,-4.6529],[55.3975,-4.6498],[55.3895,-4.6473],[55.3797,-4.6495],[55.3713,-4.6469],[55.3656,-4.6427],[55.3673,-4.6393],[55.3749,-4.64],[55.3777,-4.6378],[55.3747,-4.6327],[55.3805,-4.6272],[55.4087,-4.6414],[55.4197,-4.6366],[55.4179,-4.6291],[55.4315,-4.6238],[55.435,-4.6304],[55.4412,-4.6361],[55.4451,-4.6506],[55.4592,-4.6576],[55.4552,-4.6651],[55.4469,-4.6664],[55.4465,-4.6726],[55.45,-4.6739],[55.449,-4.6779]]],[[[55.3627,-4.6593],[55.3662,-4.6606],[55.3705,-4.6639],[55.3738,-4.6664],[55.3729,-4.6679],[55.3698,-4.6666],[55.3649,-4.6659],[55.362,-4.6637],[55.3605,-4.6613],[55.3627,-4.6593]]],[[[55.399,-4.6686],[55.4012,-4.6695],[55.4048,-4.6717],[55.4068,-4.675],[55.4059,-4.6781],[55.4054,-4.6799],[55.4041,-4.6803],[55.4001,-4.6757],[55.3975,-4.6734],[55.3977,-4.6714],[55.3964,-4.6697],[55.3972,-4.6684],[55.399,-4.6686]]]]}},{"type":"Feature","properties":{"id":"SYC-5222","name":"Roche Caïman","nameBn":"রোচ কাইম্যান","type":null,"bounds":[55.475,-4.6585,55.492,-4.6399],"center":[55.4828,-4.6495]},"geometry":{"type":"Polygon","coordinates":[[[55.4757,-4.6399],[55.492,-4.6514],[55.4895,-4.6585],[55.475,-4.6475],[55.4757,-4.6399]]]}},{"type":"Feature","properties":{"id":"SYC-5219","name":"Saint Louis","nameBn":"সেন্ট লুই","type":null,"bounds":[55.4315,-4.6304,55.4473,-4.6151],"center":[55.4388,-4.6225]},"geometry":{"type":"Polygon","coordinates":[[[55.4315,-4.6238],[55.4385,-4.6151],[55.4473,-4.6208],[55.435,-4.6304],[55.4315,-4.6238]]]}},{"type":"Feature","properties":{"id":"SYC-5220","name":"Takamaka","nameBn":"তাকামাকা","type":null,"bounds":[55.4932,-4.8038,55.5379,-4.7701],"center":[55.5173,-4.7907]},"geometry":{"type":"Polygon","coordinates":[[[55.5257,-4.7701],[55.5272,-4.7838],[55.5346,-4.7897],[55.5379,-4.8038],[55.5197,-4.8038],[55.5042,-4.7958],[55.4932,-4.7766],[55.5101,-4.7775],[55.5097,-4.7713],[55.5257,-4.7701]]]}}]}