{"type":"FeatureCollection","features":[{"type":"Feature","properties":{"id":"SYR-137","name":"Aleppo","nameBn":"আলেপ্পো","type":"Province","bounds":[36.5312,35.4349,38.671,36.9084],"center":[37.601,36.1054]},"geometry":{"type":"Polygon","coordinates":[[[38.2243,36.9084],[38.2899,36.9017],[38.48,36.8557],[38.5294,36.8337],[38.6352,36.744],[38.6482,36.6992],[38.6488,36.6955],[38.6483,36.6904],[38.6463,36.6846],[38.6406,36.6755],[38.6359,36.6716],[38.631,36.6694],[38.5807,36.6637],[38.5766,36.6627],[38.5732,36.6611],[38.572,36.6554],[38.5728,36.6469],[38.5779,36.6292],[38.5814,36.621],[38.5847,36.6156],[38.588,36.6136],[38.5915,36.6124],[38.5959,36.6121],[38.6002,36.6125],[38.6083,36.6149],[38.6182,36.6203],[38.6424,36.6376],[38.6496,36.6407],[38.6537,36.6415],[38.6579,36.6413],[38.6622,36.6402],[38.6654,36.6381],[38.6679,36.6356],[38.6693,36.6324],[38.6704,36.629],[38.671,36.6253],[38.6695,36.5581],[38.665,36.5299],[38.6575,36.501],[38.6575,36.5004],[38.6575,36.5003],[38.6497,36.4663],[38.6434,36.4491],[38.6314,36.4294],[38.5934,36.383],[38.5844,36.3748],[38.5725,36.3659],[38.5068,36.3286],[38.4252,36.292],[38.2596,36.2698],[38.2222,36.2687],[38.1946,36.263],[38.1534,36.2459],[38.1367,36.2383],[38.1311,36.2346],[38.1201,36.2251],[38.1094,36.213],[38.1002,36.1988],[38.0878,36.1753],[38.066,36.1477],[38.0621,36.1409],[38.0598,36.134],[38.0584,36.1267],[38.0598,36.1145],[38.0638,36.0984],[38.0761,36.0687],[38.085,36.0543],[38.0942,36.0442],[38.1087,36.0323],[38.1218,36.0186],[38.1346,36.0006],[38.1352,35.9999],[38.1752,35.973],[38.1788,35.9682],[38.1802,35.9625],[38.1786,35.9521],[38.1771,35.9471],[38.1751,35.9428],[38.1734,35.9401],[38.1689,35.9281],[38.1619,35.9141],[38.1597,35.9111],[38.1546,35.906],[38.1347,35.8895],[38.0965,35.8447],[38.0937,35.8423],[38.0888,35.8369],[38.0799,35.8249],[38.0519,35.7691],[38.0264,35.6784],[38.0208,35.643],[38.0208,35.6382],[38.0214,35.6331],[38.0234,35.6265],[38.0256,35.6222],[38.0279,35.6186],[38.0427,35.6031],[38.2348,35.4359],[37.8085,35.4349],[37.7238,35.4452],[37.679,35.456],[37.6621,35.4622],[37.5957,35.5001],[37.5952,35.5004],[37.5759,35.5113],[37.4116,35.5016],[37.3534,35.5022],[37.3461,35.504],[37.3374,35.5074],[37.3016,35.5271],[37.2164,35.5515],[37.1747,35.5657],[37.1695,35.5685],[37.1545,35.5806],[37.1483,35.5843],[37.1427,35.5869],[37.1345,35.5892],[37.1293,35.5916],[37.0979,35.6223],[37.0922,35.6291],[37.0885,35.647],[37.0857,35.6537],[37.0791,35.6613],[37.0702,35.6759],[37.0557,35.7137],[37.0608,35.7207],[37.067,35.7247],[37.0783,35.7287],[37.0817,35.7305],[37.0879,35.7347],[37.0928,35.7389],[37.0962,35.7424],[37.0999,35.7483],[37.1011,35.7522],[37.1017,35.7563],[37.1016,35.7602],[37.101,35.7639],[37.098,35.768],[37.0931,35.7724],[37.064,35.789],[37.0439,35.8048],[37.0315,35.8113],[37.0162,35.8131],[37.0114,35.8142],[37.0072,35.8156],[37.0009,35.8215],[36.993,35.8311],[36.9422,35.9055],[36.8887,35.9692],[36.8873,35.9729],[36.8867,35.9768],[36.8868,35.9852],[36.8848,36.0167],[36.8831,36.024],[36.8809,36.0307],[36.8749,36.0353],[36.8653,36.041],[36.7816,36.0726],[36.7726,36.0772],[36.7635,36.0838],[36.7543,36.0925],[36.747,36.1045],[36.7262,36.1265],[36.7386,36.1435],[36.772,36.1655],[36.7774,36.1705],[36.7821,36.176],[36.7869,36.1808],[36.7892,36.1824],[36.7912,36.1836],[36.801,36.1882],[36.8038,36.1905],[36.8112,36.1985],[36.8313,36.2148],[36.8362,36.2201],[36.8404,36.2263],[36.8421,36.2299],[36.8432,36.2339],[36.8431,36.2393],[36.839,36.2462],[36.8128,36.2734],[36.7821,36.2968],[36.7766,36.3054],[36.7745,36.3208],[36.7732,36.3242],[36.7715,36.3272],[36.7694,36.33],[36.7663,36.3322],[36.7611,36.3327],[36.7543,36.3312],[36.7333,36.3183],[36.7282,36.317],[36.6958,36.3172],[36.6612,36.3112],[36.6488,36.3057],[36.6486,36.3059],[36.6371,36.3168],[36.6207,36.322],[36.5878,36.3248],[36.5776,36.3329],[36.5822,36.3331],[36.5878,36.3421],[36.5943,36.3571],[36.5945,36.3659],[36.5934,36.3735],[36.5906,36.3804],[36.5857,36.387],[36.5808,36.3899],[36.565,36.3956],[36.558,36.4006],[36.5527,36.4082],[36.5338,36.4625],[36.5312,36.479],[36.5355,36.494],[36.5653,36.5325],[36.57,36.5757],[36.5693,36.6201],[36.5828,36.6624],[36.5947,36.6858],[36.5981,36.7055],[36.5989,36.7248],[36.6033,36.747],[36.6157,36.7666],[36.632,36.7843],[36.6433,36.8036],[36.6399,36.8281],[36.6492,36.8286],[36.6586,36.8275],[36.6596,36.8272],[36.8437,36.7758],[36.9068,36.7726],[36.9259,36.769],[36.9459,36.7627],[36.9647,36.7538],[36.9801,36.7423],[37.0106,36.7195],[37.0184,36.7066],[37.0195,36.6858],[37.0108,36.6537],[37.0145,36.6423],[37.0333,36.6287],[37.0531,36.6199],[37.0624,36.6221],[37.0701,36.6315],[37.0856,36.6442],[37.1044,36.651],[37.121,36.6499],[37.1374,36.6459],[37.1561,36.6439],[37.2197,36.6571],[37.2419,36.6586],[37.4045,36.6345],[37.4461,36.6342],[37.5221,36.6736],[37.5934,36.7105],[37.6541,36.7321],[37.8197,36.7605],[37.98,36.8197],[38.0079,36.8258],[38.026,36.835],[38.123,36.8846],[38.1901,36.9055],[38.2243,36.9084]]]}},{"type":"Feature","properties":{"id":"SYR-136","name":"Ar Raqqah","nameBn":"আর রাক্কাহ","type":"Province","bounds":[38.0208,35.2493,39.8045,36.744],"center":[38.9127,36.0067]},"geometry":{"type":"Polygon","coordinates":[[[39.1859,36.6595],[39.2396,36.6613],[39.4417,36.6924],[39.4652,36.636],[39.474,36.6195],[39.5248,36.5668],[39.5382,36.5571],[39.5468,36.5539],[39.557,36.5519],[39.5676,36.5512],[39.5859,36.5529],[39.5943,36.5547],[39.6099,36.5596],[39.6142,36.5605],[39.6185,36.561],[39.6235,36.5607],[39.6283,36.5599],[39.7202,36.5291],[39.7825,36.5008],[39.7934,36.4918],[39.7999,36.4836],[39.8014,36.4805],[39.8027,36.4766],[39.8045,36.4637],[39.7392,36.2276],[39.6414,35.8643],[39.6309,35.8026],[39.6308,35.7921],[39.6377,35.7899],[39.6669,35.774],[39.675,35.7709],[39.6666,35.7576],[39.242,35.2493],[38.6842,35.3723],[38.3903,35.3909],[38.3017,35.3823],[38.2863,35.4015],[38.2747,35.4115],[38.2348,35.4359],[38.0427,35.6031],[38.0279,35.6186],[38.0256,35.6222],[38.0234,35.6265],[38.0214,35.6331],[38.0208,35.6382],[38.0208,35.643],[38.0264,35.6784],[38.0519,35.7691],[38.0799,35.8249],[38.0888,35.8369],[38.0937,35.8423],[38.0965,35.8447],[38.1347,35.8895],[38.1546,35.906],[38.1597,35.9111],[38.1619,35.9141],[38.1689,35.9281],[38.1734,35.9401],[38.1751,35.9428],[38.1771,35.9471],[38.1786,35.9521],[38.1802,35.9625],[38.1788,35.9682],[38.1752,35.973],[38.1352,35.9999],[38.1346,36.0006],[38.1218,36.0186],[38.1087,36.0323],[38.0942,36.0442],[38.085,36.0543],[38.0761,36.0687],[38.0638,36.0984],[38.0598,36.1145],[38.0584,36.1267],[38.0598,36.134],[38.0621,36.1409],[38.066,36.1477],[38.0878,36.1753],[38.1002,36.1988],[38.1094,36.213],[38.1201,36.2251],[38.1311,36.2346],[38.1367,36.2383],[38.1534,36.2459],[38.1946,36.263],[38.2222,36.2687],[38.2596,36.2698],[38.4252,36.292],[38.5068,36.3286],[38.5725,36.3659],[38.5844,36.3748],[38.5934,36.383],[38.6314,36.4294],[38.6434,36.4491],[38.6497,36.4663],[38.6575,36.5003],[38.6575,36.5004],[38.6575,36.501],[38.665,36.5299],[38.6695,36.5581],[38.671,36.6253],[38.6704,36.629],[38.6693,36.6324],[38.6679,36.6356],[38.6654,36.6381],[38.6622,36.6402],[38.6579,36.6413],[38.6537,36.6415],[38.6496,36.6407],[38.6424,36.6376],[38.6182,36.6203],[38.6083,36.6149],[38.6002,36.6125],[38.5959,36.6121],[38.5915,36.6124],[38.588,36.6136],[38.5847,36.6156],[38.5814,36.621],[38.5779,36.6292],[38.5728,36.6469],[38.572,36.6554],[38.5732,36.6611],[38.5766,36.6627],[38.5807,36.6637],[38.631,36.6694],[38.6359,36.6716],[38.6406,36.6755],[38.6463,36.6846],[38.6483,36.6904],[38.6488,36.6955],[38.6482,36.6992],[38.6352,36.744],[38.6641,36.7195],[38.725,36.6939],[38.7954,36.6867],[38.958,36.6929],[38.98,36.6982],[39.0322,36.7012],[39.1859,36.6595]]]}},{"type":"Feature","properties":{"id":"SYR-143","name":"As Suwayda'","nameBn":"আস-সুবায়দা গভর্নোরেট","type":"Province","bounds":[36.3363,32.313,37.4946,33.2247],"center":[36.9153,32.7577]},"geometry":{"type":"Polygon","coordinates":[[[37.4946,32.6901],[37.4152,32.6471],[37.2441,32.5544],[37.1334,32.4945],[37.1332,32.4945],[36.9801,32.41],[36.8194,32.3168],[36.8066,32.313],[36.7925,32.3135],[36.7286,32.3278],[36.7069,32.3283],[36.6896,32.3197],[36.6535,32.3429],[36.5167,32.357],[36.5167,32.3573],[36.5163,32.3631],[36.5203,32.3916],[36.5211,32.3942],[36.5181,32.4426],[36.5187,32.447],[36.5256,32.4664],[36.5265,32.4703],[36.5273,32.4787],[36.5261,32.4823],[36.5237,32.4867],[36.5138,32.5001],[36.5,32.5134],[36.495,32.5196],[36.4947,32.5222],[36.4955,32.5256],[36.5007,32.5356],[36.5073,32.5432],[36.5082,32.5447],[36.5066,32.5506],[36.495,32.5662],[36.4786,32.5645],[36.4763,32.5646],[36.4742,32.5652],[36.4707,32.5667],[36.4669,32.5693],[36.4646,32.572],[36.4604,32.5758],[36.4581,32.5765],[36.4556,32.5769],[36.4533,32.5769],[36.4343,32.5742],[36.4187,32.5744],[36.4022,32.5767],[36.4007,32.5785],[36.4,32.5814],[36.4011,32.5878],[36.402,32.5911],[36.4053,32.5987],[36.4064,32.6025],[36.4056,32.6055],[36.3997,32.6168],[36.3988,32.6213],[36.4002,32.6266],[36.4024,32.6286],[36.4044,32.63],[36.4169,32.6333],[36.4207,32.6346],[36.4223,32.6355],[36.4236,32.6366],[36.4288,32.6416],[36.4302,32.6428],[36.4336,32.6446],[36.4407,32.6477],[36.4436,32.6498],[36.4464,32.6521],[36.4474,32.6535],[36.4483,32.655],[36.4505,32.6624],[36.4506,32.6668],[36.4481,32.6702],[36.4435,32.6743],[36.4305,32.6819],[36.4241,32.6848],[36.4194,32.6864],[36.3994,32.688],[36.3951,32.689],[36.3797,32.6944],[36.3774,32.6949],[36.3751,32.6952],[36.3703,32.6953],[36.3658,32.6961],[36.3628,32.6971],[36.3614,32.6983],[36.3597,32.7003],[36.3572,32.7047],[36.3558,32.7074],[36.3552,32.7098],[36.3542,32.716],[36.3542,32.7203],[36.355,32.7267],[36.3574,32.7317],[36.3681,32.7401],[36.3603,32.807],[36.3603,32.8229],[36.3622,32.8253],[36.3627,32.8262],[36.3636,32.8294],[36.36,32.8399],[36.3422,32.8758],[36.3397,32.8861],[36.337,32.8932],[36.3363,32.8992],[36.3364,32.9014],[36.3369,32.9033],[36.3381,32.9068],[36.3463,32.9205],[36.3468,32.9224],[36.3471,32.9243],[36.347,32.9263],[36.3466,32.9281],[36.346,32.93],[36.3453,32.9316],[36.3426,32.9363],[36.3414,32.9397],[36.3411,32.9418],[36.3412,32.9439],[36.3432,32.9468],[36.3468,32.95],[36.3628,32.96],[36.3748,32.966],[36.3886,32.9772],[36.4193,32.997],[36.4267,33.0001],[36.4374,33.0025],[36.4778,33.0046],[36.5368,33.0013],[36.5416,33.0017],[36.5437,33.0022],[36.5448,33.0038],[36.5451,33.0064],[36.5431,33.0116],[36.5385,33.0196],[36.5368,33.023],[36.5363,33.0248],[36.5358,33.0266],[36.5344,33.0505],[36.5334,33.054],[36.5324,33.0555],[36.5313,33.0569],[36.5299,33.058],[36.5282,33.0588],[36.5259,33.0593],[36.5235,33.0594],[36.5187,33.0591],[36.5166,33.0587],[36.5011,33.054],[36.4997,33.0538],[36.498,33.0538],[36.4959,33.0542],[36.4942,33.0549],[36.4925,33.0557],[36.4913,33.0569],[36.489,33.0594],[36.488,33.0611],[36.4876,33.063],[36.4871,33.0785],[36.4866,33.0826],[36.4859,33.0864],[36.4845,33.0899],[36.4776,33.1024],[36.4748,33.1091],[36.4726,33.1164],[36.4725,33.1189],[36.4728,33.122],[36.4741,33.1274],[36.475,33.1337],[36.4748,33.136],[36.4739,33.1397],[36.4719,33.1449],[36.4713,33.1467],[36.471,33.1491],[36.4711,33.152],[36.4723,33.1565],[36.4742,33.1612],[36.4772,33.1658],[36.482,33.1708],[36.4877,33.1753],[36.5048,33.1864],[36.509,33.1869],[36.5153,33.1871],[36.5434,33.1842],[36.5515,33.1857],[36.5709,33.194],[36.8238,33.2247],[36.8255,33.2237],[36.8348,33.2155],[36.8393,33.2125],[36.8475,33.2054],[36.8562,33.1997],[36.8853,33.1865],[36.8884,33.1845],[36.8995,33.1738],[36.9036,33.1674],[36.9047,33.1639],[36.9068,33.1521],[36.9084,33.1489],[36.9107,33.1463],[36.9459,33.1162],[36.948,33.114],[36.9494,33.1118],[36.9509,33.1084],[36.9537,33.1001],[36.9543,33.0912],[36.9551,33.0872],[36.9563,33.0835],[36.9571,33.0819],[36.958,33.0805],[36.9607,33.0781],[36.9812,33.0652],[36.9846,33.0637],[37.0018,33.0618],[37.0077,33.0617],[37.0727,33.0498],[37.0778,33.0472],[37.0794,33.0461],[37.082,33.044],[37.0872,33.0406],[37.0988,33.035],[37.1019,33.033],[37.1033,33.0319],[37.1044,33.0305],[37.1053,33.0289],[37.1059,33.0272],[37.1064,33.0256],[37.1066,33.0239],[37.1064,33.0212],[37.1056,33.0177],[37.1059,33.0119],[37.1061,33.0108],[37.1066,33.0094],[37.1083,33.0065],[37.1104,33.0037],[37.1124,33.0014],[37.1137,33.0003],[37.1138,33.0002],[37.114,33.0001],[37.1157,32.999],[37.1183,32.9968],[37.1194,32.9954],[37.1208,32.9925],[37.1216,32.991],[37.1228,32.9896],[37.1234,32.9883],[37.1244,32.9871],[37.1266,32.9849],[37.129,32.9832],[37.1307,32.981],[37.1326,32.9748],[37.1835,32.9499],[37.1964,32.9449],[37.1982,32.9453],[37.202,32.9465],[37.2037,32.9473],[37.2052,32.9483],[37.2079,32.9507],[37.2127,32.9517],[37.2414,32.9507],[37.2572,32.9463],[37.2642,32.9401],[37.2684,32.9344],[37.2703,32.9313],[37.2717,32.928],[37.2748,32.9181],[37.2793,32.8724],[37.2802,32.8686],[37.2807,32.8672],[37.2813,32.8663],[37.2839,32.8626],[37.4198,32.7471],[37.4685,32.717],[37.4775,32.7088],[37.4943,32.6904],[37.4946,32.6901]]]}},{"type":"Feature","properties":{"id":"SYR-4843","name":"Damascus","nameBn":"দামাস্কাস","type":"Province","bounds":[36.1832,33.4607,36.3521,33.5641],"center":[36.2897,33.5101]},"geometry":{"type":"Polygon","coordinates":[[[36.3071,33.5641],[36.335,33.5621],[36.3511,33.5439],[36.3501,33.5329],[36.3521,33.5144],[36.3431,33.4924],[36.3201,33.473],[36.3166,33.4607],[36.2975,33.4635],[36.2368,33.4891],[36.2143,33.4764],[36.209,33.4865],[36.2303,33.5052],[36.2065,33.5149],[36.1907,33.5132],[36.1832,33.5315],[36.2216,33.5495],[36.2515,33.5503],[36.3071,33.5641]]]}},{"type":"Feature","properties":{"id":"SYR-146","name":"Dar`a","nameBn":"দার'এ","type":"Province","bounds":[35.7697,32.357,36.5709,33.2948],"center":[36.1698,32.8686]},"geometry":{"type":"Polygon","coordinates":[[[35.9275,32.6924],[35.9225,32.6938],[35.9052,32.7086],[35.8957,32.7133],[35.7882,32.7344],[35.779,32.7443],[35.779,32.7444],[35.7791,32.7445],[35.7749,32.7473],[35.7697,32.7481],[35.7911,32.7741],[35.8077,32.7826],[35.8154,32.7865],[35.8217,32.7959],[35.8427,32.8217],[35.8482,32.8303],[35.8468,32.8358],[35.854,32.8451],[35.9067,32.8862],[35.9367,32.9068],[35.9418,32.9128],[35.9424,32.9144],[35.9429,32.9189],[35.94,32.9385],[35.9384,32.9444],[35.9369,32.9482],[35.9344,32.9507],[35.9333,32.9521],[35.9325,32.9537],[35.9328,32.956],[35.9342,32.9585],[35.9384,32.9616],[35.9415,32.9629],[35.9446,32.9636],[35.9623,32.9644],[35.9671,32.9638],[35.9691,32.9632],[35.9707,32.9621],[35.9718,32.9607],[35.9724,32.9591],[35.9735,32.9556],[35.9743,32.954],[35.9755,32.9526],[35.9766,32.9513],[35.9781,32.9502],[35.9799,32.9493],[35.9816,32.9486],[35.9833,32.9481],[35.9851,32.9482],[35.9864,32.9491],[35.9873,32.9507],[35.9871,32.9545],[35.9859,32.9602],[35.9794,32.9779],[35.9775,32.9814],[35.9735,32.9851],[35.9691,32.9905],[35.9638,33.0001],[35.9637,33.0002],[35.9635,33.0006],[35.952,33.0151],[35.9471,33.0246],[35.9477,33.0321],[35.9598,33.0948],[35.9609,33.0962],[35.9674,33.1091],[35.98,33.1261],[35.9797,33.1288],[35.9783,33.1328],[35.9736,33.1405],[35.9707,33.1439],[35.9682,33.146],[35.9541,33.1548],[35.953,33.1562],[35.9538,33.1665],[35.9617,33.2048],[35.9834,33.1973],[35.9861,33.1957],[35.9901,33.1926],[35.9961,33.183],[35.9997,33.1792],[36.0062,33.1779],[36.0254,33.1776],[36.0311,33.1783],[36.0373,33.1801],[36.0408,33.1816],[36.047,33.1854],[36.0618,33.1964],[36.0635,33.1972],[36.1428,33.2027],[36.147,33.2038],[36.162,33.2105],[36.2039,33.2224],[36.2134,33.2263],[36.2171,33.2342],[36.2228,33.2429],[36.2244,33.2462],[36.2258,33.2502],[36.2258,33.2503],[36.2258,33.2505],[36.2261,33.252],[36.2262,33.2539],[36.2258,33.2579],[36.2222,33.269],[36.2227,33.2722],[36.2241,33.2766],[36.2289,33.2859],[36.232,33.2893],[36.2349,33.2909],[36.2368,33.2902],[36.2385,33.2894],[36.2399,33.2883],[36.2411,33.287],[36.2492,33.2754],[36.254,33.2704],[36.2568,33.2682],[36.2585,33.2672],[36.2692,33.2625],[36.2708,33.2615],[36.2722,33.2603],[36.2734,33.2591],[36.2744,33.2575],[36.275,33.2557],[36.2761,33.2454],[36.2767,33.2436],[36.2776,33.2421],[36.2787,33.2407],[36.2802,33.2397],[36.2818,33.2387],[36.2837,33.2379],[36.2864,33.2371],[36.3048,33.235],[36.3091,33.234],[36.311,33.2333],[36.3139,33.2311],[36.3152,33.23],[36.3163,33.2286],[36.3205,33.2207],[36.3214,33.2192],[36.3228,33.218],[36.3327,33.2126],[36.3356,33.2104],[36.3381,33.2078],[36.3425,33.2059],[36.3683,33.1996],[36.3762,33.1984],[36.3816,33.1982],[36.3834,33.1989],[36.3858,33.2003],[36.3865,33.2011],[36.3875,33.2025],[36.3881,33.2043],[36.3886,33.2063],[36.3895,33.2171],[36.39,33.2189],[36.3907,33.2205],[36.394,33.2247],[36.4241,33.2478],[36.4281,33.2501],[36.4283,33.2502],[36.4285,33.2502],[36.4778,33.276],[36.4811,33.2788],[36.4865,33.2848],[36.5032,33.2945],[36.5066,33.2948],[36.5108,33.2948],[36.5144,33.2922],[36.5163,33.2903],[36.5176,33.2884],[36.5195,33.2854],[36.5211,33.2822],[36.5254,33.27],[36.5271,33.2668],[36.5292,33.2639],[36.5631,33.2309],[36.5644,33.2292],[36.5662,33.2262],[36.5668,33.2245],[36.5675,33.2226],[36.5679,33.2208],[36.5685,33.2045],[36.5709,33.194],[36.5515,33.1857],[36.5434,33.1842],[36.5153,33.1871],[36.509,33.1869],[36.5048,33.1864],[36.4877,33.1753],[36.482,33.1708],[36.4772,33.1658],[36.4742,33.1612],[36.4723,33.1565],[36.4711,33.152],[36.471,33.1491],[36.4713,33.1467],[36.4719,33.1449],[36.4739,33.1397],[36.4748,33.136],[36.475,33.1337],[36.4741,33.1274],[36.4728,33.122],[36.4725,33.1189],[36.4726,33.1164],[36.4748,33.1091],[36.4776,33.1024],[36.4845,33.0899],[36.4859,33.0864],[36.4866,33.0826],[36.4871,33.0785],[36.4876,33.063],[36.488,33.0611],[36.489,33.0594],[36.4913,33.0569],[36.4925,33.0557],[36.4942,33.0549],[36.4959,33.0542],[36.498,33.0538],[36.4997,33.0538],[36.5011,33.054],[36.5166,33.0587],[36.5187,33.0591],[36.5235,33.0594],[36.5259,33.0593],[36.5282,33.0588],[36.5299,33.058],[36.5313,33.0569],[36.5324,33.0555],[36.5334,33.054],[36.5344,33.0505],[36.5358,33.0266],[36.5363,33.0248],[36.5368,33.023],[36.5385,33.0196],[36.5431,33.0116],[36.5451,33.0064],[36.5448,33.0038],[36.5437,33.0022],[36.5416,33.0017],[36.5368,33.0013],[36.4778,33.0046],[36.4374,33.0025],[36.4267,33.0001],[36.4193,32.997],[36.3886,32.9772],[36.3748,32.966],[36.3628,32.96],[36.3468,32.95],[36.3432,32.9468],[36.3412,32.9439],[36.3411,32.9418],[36.3414,32.9397],[36.3426,32.9363],[36.3453,32.9316],[36.346,32.93],[36.3466,32.9281],[36.347,32.9263],[36.3471,32.9243],[36.3468,32.9224],[36.3463,32.9205],[36.3381,32.9068],[36.3369,32.9033],[36.3364,32.9014],[36.3363,32.8992],[36.337,32.8932],[36.3397,32.8861],[36.3422,32.8758],[36.36,32.8399],[36.3636,32.8294],[36.3627,32.8262],[36.3622,32.8253],[36.3603,32.8229],[36.3603,32.807],[36.3681,32.7401],[36.3574,32.7317],[36.355,32.7267],[36.3542,32.7203],[36.3542,32.716],[36.3552,32.7098],[36.3558,32.7074],[36.3572,32.7047],[36.3597,32.7003],[36.3614,32.6983],[36.3628,32.6971],[36.3658,32.6961],[36.3703,32.6953],[36.3751,32.6952],[36.3774,32.6949],[36.3797,32.6944],[36.3951,32.689],[36.3994,32.688],[36.4194,32.6864],[36.4241,32.6848],[36.4305,32.6819],[36.4435,32.6743],[36.4481,32.6702],[36.4506,32.6668],[36.4505,32.6624],[36.4483,32.655],[36.4474,32.6535],[36.4464,32.6521],[36.4436,32.6498],[36.4407,32.6477],[36.4336,32.6446],[36.4302,32.6428],[36.4288,32.6416],[36.4236,32.6366],[36.4223,32.6355],[36.4207,32.6346],[36.4169,32.6333],[36.4044,32.63],[36.4024,32.6286],[36.4002,32.6266],[36.3988,32.6213],[36.3997,32.6168],[36.4056,32.6055],[36.4064,32.6025],[36.4053,32.5987],[36.402,32.5911],[36.4011,32.5878],[36.4,32.5814],[36.4007,32.5785],[36.4022,32.5767],[36.4187,32.5744],[36.4343,32.5742],[36.4533,32.5769],[36.4556,32.5769],[36.4581,32.5765],[36.4604,32.5758],[36.4646,32.572],[36.4669,32.5693],[36.4707,32.5667],[36.4742,32.5652],[36.4763,32.5646],[36.4786,32.5645],[36.495,32.5662],[36.5066,32.5506],[36.5082,32.5447],[36.5073,32.5432],[36.5007,32.5356],[36.4955,32.5256],[36.4947,32.5222],[36.495,32.5196],[36.5,32.5134],[36.5138,32.5001],[36.5237,32.4867],[36.5261,32.4823],[36.5273,32.4787],[36.5265,32.4703],[36.5256,32.4664],[36.5187,32.447],[36.5181,32.4426],[36.5211,32.3942],[36.5203,32.3916],[36.5163,32.3631],[36.5167,32.3573],[36.5167,32.357],[36.4802,32.3608],[36.464,32.3694],[36.4076,32.3742],[36.3879,32.3793],[36.3731,32.3864],[36.2853,32.4569],[36.2208,32.4946],[36.1882,32.5223],[36.1774,32.5273],[36.1722,32.5259],[36.1608,32.5172],[36.1559,32.5152],[36.1499,32.5161],[36.1395,32.5195],[36.1332,32.5201],[36.0962,32.5159],[36.0819,32.5163],[36.0699,32.5166],[36.0663,32.5173],[36.066,32.5216],[36.0605,32.5333],[36.0154,32.5912],[36.006,32.6079],[36.0053,32.6267],[36.0083,32.6437],[36.0036,32.6551],[35.9803,32.6566],[35.9658,32.6544],[35.9554,32.6574],[35.9466,32.6644],[35.9375,32.674],[35.9412,32.6735],[35.9444,32.6776],[35.9457,32.6841],[35.9442,32.6908],[35.9404,32.6925],[35.9275,32.6924]]]}},{"type":"Feature","properties":{"id":"SYR-142","name":"Dayr Az Zawr","nameBn":"ডিএর এজ-জর গভর্নোরেট","type":"Province","bounds":[39.242,34.0723,41.3085,36.4637],"center":[40.275,35.0736]},"geometry":{"type":"Polygon","coordinates":[[[41.3085,35.5522],[41.2613,35.4943],[41.2613,35.4942],[41.2612,35.4942],[41.2611,35.4942],[41.2519,35.4641],[41.2431,35.3665],[41.2013,35.243],[41.1915,35.1821],[41.1923,35.1589],[41.198,34.994],[41.2065,34.8193],[41.2042,34.7931],[41.1957,34.7685],[41.024,34.4943],[41.024,34.4942],[40.988,34.4285],[40.9653,34.4019],[40.936,34.3861],[40.6905,34.3315],[40.5438,34.258],[40.4332,34.2025],[40.3226,34.1472],[40.212,34.0918],[40.1731,34.0723],[40.1728,34.0726],[39.6094,34.7431],[39.4445,34.9364],[39.4406,34.9424],[39.4358,34.9517],[39.4352,34.9622],[39.4416,35.0198],[39.4411,35.0293],[39.4378,35.0385],[39.3744,35.1492],[39.3427,35.182],[39.242,35.2493],[39.6666,35.7576],[39.675,35.7709],[39.6669,35.774],[39.6377,35.7899],[39.6308,35.7921],[39.6309,35.8026],[39.6414,35.8643],[39.7392,36.2276],[39.8045,36.4637],[39.8261,36.4244],[39.9007,36.3243],[40.0258,36.2212],[40.775,35.6263],[40.8069,35.6108],[40.8254,35.6041],[40.8871,35.593],[40.923,35.5821],[40.9995,35.5692],[41.196,35.5653],[41.308,35.5523],[41.3085,35.5522]]]}},{"type":"Feature","properties":{"id":"SYR-138","name":"Hamah","nameBn":"হামা গভর্নোরেট","type":"Province","bounds":[36.1368,34.8498,38.3031,35.7559],"center":[37.22,35.2352]},"geometry":{"type":"Polygon","coordinates":[[[37.2164,35.5515],[37.3016,35.5271],[37.3374,35.5074],[37.3461,35.504],[37.3534,35.5022],[37.4116,35.5016],[37.5759,35.5113],[37.5952,35.5004],[37.5957,35.5001],[37.6621,35.4622],[37.679,35.456],[37.7238,35.4452],[37.8085,35.4349],[38.2348,35.4359],[38.2747,35.4115],[38.2863,35.4015],[38.3017,35.3823],[38.3031,35.365],[38.3,35.2536],[38.2953,35.2372],[38.2846,35.2164],[38.275,35.2018],[38.2506,35.1721],[38.2467,35.1654],[38.2421,35.1545],[38.2396,35.1465],[38.2381,35.1377],[38.2379,35.1294],[38.2432,35.096],[38.2398,35.0914],[38.2326,35.0861],[38.1008,35.0379],[38.0843,35.0276],[38.057,35.0066],[38.0528,35.0024],[38.0523,35.0002],[38.0523,34.9999],[38.0514,34.9918],[38.0506,34.9899],[38.0497,34.9883],[38.0486,34.9869],[38.0427,34.9806],[38.0416,34.9789],[38.0366,34.9687],[38.0317,34.9613],[38.0309,34.9597],[38.0303,34.9578],[38.0303,34.9557],[38.0309,34.9474],[38.0307,34.943],[38.03,34.9389],[38.0293,34.9371],[38.0286,34.9354],[38.0278,34.9338],[38.0265,34.9325],[38.0247,34.9294],[38.0238,34.9278],[38.0227,34.9241],[38.0211,34.9208],[38.02,34.9193],[38.0016,34.9024],[37.9994,34.9013],[37.992,34.8987],[37.9887,34.8983],[37.986,34.8985],[37.9805,34.9032],[37.9417,34.9442],[37.9328,34.9553],[37.9261,34.9612],[37.8697,34.9993],[37.8678,35.0003],[37.8676,35.0003],[37.8644,35.0022],[37.8557,35.0088],[37.852,35.0125],[37.8511,35.0141],[37.8504,35.0159],[37.8473,35.029],[37.8464,35.0395],[37.845,35.0451],[37.8404,35.0594],[37.8394,35.0609],[37.8383,35.0622],[37.8329,35.0668],[37.8317,35.0682],[37.8307,35.0696],[37.8292,35.0729],[37.8286,35.0747],[37.8269,35.0778],[37.8238,35.082],[37.8189,35.0872],[37.8176,35.0883],[37.8141,35.0903],[37.8124,35.0911],[37.8079,35.0921],[37.7881,35.0924],[37.7829,35.0929],[37.7786,35.094],[37.7749,35.0955],[37.7716,35.0974],[37.7701,35.0985],[37.7587,35.1097],[37.7527,35.1141],[37.7458,35.1175],[37.7438,35.1183],[37.7407,35.1186],[37.7368,35.1186],[37.6539,35.1026],[37.6075,35.0891],[37.5938,35.0866],[37.5894,35.0864],[37.5804,35.0867],[37.575,35.0853],[37.5683,35.0826],[37.5373,35.0643],[37.5177,35.0557],[37.5109,35.0517],[37.5066,35.0483],[37.5053,35.047],[37.5044,35.0456],[37.501,35.0392],[37.4996,35.0356],[37.4973,35.0218],[37.4974,34.9959],[37.4981,34.9919],[37.5027,34.9799],[37.5038,34.9762],[37.5039,34.9742],[37.5038,34.9721],[37.5033,34.9703],[37.5025,34.9686],[37.5008,34.9659],[37.4999,34.9652],[37.4988,34.9644],[37.4973,34.9635],[37.4943,34.9629],[37.4903,34.9629],[37.4822,34.9642],[37.4785,34.9655],[37.4758,34.9668],[37.4724,34.9707],[37.4633,34.9836],[37.4619,34.9847],[37.4602,34.9857],[37.4561,34.9869],[37.4512,34.9874],[37.4396,34.9869],[37.4321,34.9882],[37.4262,34.9881],[37.4131,34.9865],[37.4074,34.9866],[37.4037,34.9858],[37.3989,34.984],[37.39,34.9789],[37.384,34.9766],[37.3767,34.975],[37.368,34.9759],[37.3604,34.9777],[37.3503,34.9833],[37.3484,34.9841],[37.3463,34.9846],[37.3432,34.984],[37.3396,34.9821],[37.3347,34.9766],[37.3329,34.9732],[37.3323,34.9703],[37.3323,34.9682],[37.3322,34.9662],[37.3303,34.965],[37.3272,34.9644],[37.3116,34.9677],[37.3008,34.9677],[37.2983,34.9673],[37.2955,34.9663],[37.2924,34.9644],[37.2898,34.9607],[37.2884,34.958],[37.2861,34.9501],[37.2851,34.9486],[37.2839,34.9473],[37.2766,34.9417],[37.2752,34.9404],[37.2743,34.939],[37.2735,34.9375],[37.2696,34.9244],[37.2681,34.9212],[37.2672,34.9196],[37.2661,34.9182],[37.2606,34.9135],[37.2544,34.9095],[37.2515,34.9091],[37.2474,34.9091],[37.2355,34.9116],[37.2268,34.9149],[37.2234,34.9166],[37.2218,34.9177],[37.2195,34.9203],[37.2158,34.9262],[37.2119,34.9347],[37.2108,34.9361],[37.2094,34.9373],[37.2068,34.9395],[37.2035,34.9414],[37.1998,34.9431],[37.1957,34.9443],[37.1933,34.9446],[37.188,34.9447],[37.1826,34.9428],[37.1592,34.9298],[37.153,34.9252],[37.1494,34.9217],[37.1478,34.916],[37.1466,34.9147],[37.1447,34.9143],[37.1365,34.918],[37.1284,34.9207],[37.1266,34.9215],[37.1236,34.9236],[37.1183,34.9262],[37.1163,34.9269],[37.1141,34.9274],[37.1117,34.9276],[37.1069,34.9277],[37.1038,34.9262],[37.1002,34.9239],[37.0893,34.9121],[37.0863,34.9108],[37.0815,34.9095],[37.0645,34.9083],[37.0558,34.9062],[37.0491,34.9026],[36.9995,34.8696],[36.9934,34.8669],[36.9728,34.8609],[36.9481,34.9064],[36.9174,34.9567],[36.9166,34.9583],[36.9116,34.9637],[36.8967,34.974],[36.884,34.9772],[36.8736,34.9783],[36.8674,34.9773],[36.861,34.9755],[36.8463,34.9674],[36.8418,34.9659],[36.8375,34.9655],[36.828,34.9654],[36.822,34.9642],[36.8161,34.9621],[36.8027,34.9518],[36.7987,34.9507],[36.7672,34.9488],[36.7639,34.949],[36.7622,34.9495],[36.7543,34.9493],[36.7454,34.9476],[36.7417,34.9474],[36.7391,34.9477],[36.7377,34.9484],[36.7279,34.9454],[36.6493,34.9126],[36.6004,34.9141],[36.5777,34.9098],[36.5659,34.9038],[36.562,34.9024],[36.5597,34.9018],[36.5554,34.9021],[36.5495,34.9032],[36.5402,34.9066],[36.5366,34.9091],[36.5348,34.9116],[36.5348,34.9161],[36.5346,34.9182],[36.534,34.9199],[36.5329,34.9213],[36.5313,34.9224],[36.5296,34.9233],[36.5276,34.9238],[36.5254,34.9241],[36.5181,34.9245],[36.5163,34.9252],[36.515,34.9264],[36.5145,34.9282],[36.5145,34.9302],[36.5152,34.9319],[36.5159,34.9335],[36.5195,34.9374],[36.5217,34.9403],[36.5225,34.942],[36.5229,34.9438],[36.5228,34.9459],[36.5221,34.9475],[36.5212,34.9491],[36.52,34.9503],[36.5184,34.9514],[36.515,34.9532],[36.5111,34.9545],[36.508,34.9547],[36.5043,34.9546],[36.495,34.9525],[36.493,34.9517],[36.4919,34.951],[36.4905,34.9501],[36.4825,34.9413],[36.4747,34.9305],[36.4502,34.9082],[36.4498,34.9002],[36.4508,34.8938],[36.4498,34.8911],[36.448,34.8878],[36.4427,34.8824],[36.4407,34.8791],[36.4398,34.8763],[36.4398,34.8676],[36.4395,34.8656],[36.4378,34.8634],[36.4302,34.8563],[36.4278,34.8535],[36.423,34.8522],[36.4194,34.8516],[36.3887,34.8572],[36.3816,34.867],[36.3789,34.8687],[36.3749,34.8703],[36.3676,34.8703],[36.3642,34.8698],[36.3615,34.8689],[36.3587,34.8667],[36.3473,34.8532],[36.3443,34.8511],[36.3426,34.8503],[36.3404,34.8498],[36.3366,34.852],[36.3319,34.8563],[36.3229,34.8674],[36.3186,34.8713],[36.3156,34.8735],[36.3135,34.8737],[36.3115,34.8741],[36.3094,34.8749],[36.3088,34.8766],[36.3096,34.8792],[36.3158,34.8859],[36.3175,34.8873],[36.32,34.8889],[36.3198,34.8919],[36.3132,34.9009],[36.3094,34.9076],[36.3046,34.9127],[36.279,34.9277],[36.2751,34.9308],[36.2731,34.9336],[36.2702,34.9399],[36.2661,34.9539],[36.2601,34.9663],[36.2542,34.9685],[36.2454,34.9701],[36.2069,34.9671],[36.1907,34.9677],[36.144,34.9753],[36.1368,35.0022],[36.1473,35.0075],[36.1574,35.0079],[36.1667,35.0064],[36.171,35.0063],[36.1749,35.007],[36.1781,35.0087],[36.1843,35.0128],[36.1879,35.0142],[36.1921,35.0152],[36.2011,35.0164],[36.205,35.0176],[36.2112,35.0215],[36.2152,35.0227],[36.2293,35.0237],[36.2332,35.0254],[36.24,35.032],[36.2436,35.0346],[36.2504,35.0385],[36.2539,35.0422],[36.257,35.0479],[36.2652,35.0711],[36.2651,35.0865],[36.2536,35.2044],[36.253,35.2234],[36.2504,35.2624],[36.2247,35.3635],[36.2081,35.4023],[36.2019,35.4215],[36.2013,35.4252],[36.2205,35.5354],[36.2244,35.602],[36.2216,35.6333],[36.219,35.6445],[36.2165,35.6511],[36.2129,35.6568],[36.2011,35.67],[36.1994,35.6731],[36.1999,35.6773],[36.2028,35.6825],[36.2129,35.6909],[36.2281,35.6996],[36.2307,35.704],[36.2328,35.7103],[36.2345,35.7356],[36.2386,35.7444],[36.2548,35.7559],[36.2596,35.749],[36.262,35.7467],[36.2658,35.7441],[36.27,35.7418],[36.2776,35.7398],[36.2854,35.739],[36.2982,35.74],[36.3101,35.7433],[36.3136,35.7451],[36.3173,35.7464],[36.3215,35.7471],[36.3259,35.7471],[36.3299,35.7458],[36.3336,35.7433],[36.3392,35.7376],[36.3418,35.7333],[36.3439,35.7292],[36.3448,35.7257],[36.346,35.7225],[36.3479,35.7195],[36.3615,35.7159],[36.4051,35.7148],[36.4123,35.7112],[36.4138,35.6984],[36.4075,35.6545],[36.3934,35.6005],[36.3914,35.5827],[36.3997,35.5152],[36.398,35.5099],[36.3958,35.5059],[36.3938,35.5037],[36.3929,35.5006],[36.3929,35.5001],[36.4147,35.46],[36.4196,35.4426],[36.4261,35.4366],[36.4477,35.4316],[36.4825,35.4455],[36.4871,35.446],[36.4938,35.4441],[36.5114,35.4369],[36.5147,35.4349],[36.5173,35.4325],[36.5207,35.4264],[36.5234,35.42],[36.5251,35.417],[36.5271,35.4142],[36.5296,35.4117],[36.5329,35.4096],[36.5371,35.4082],[36.5419,35.4073],[36.552,35.4067],[36.5712,35.4078],[36.5811,35.4067],[36.6479,35.3916],[36.6994,35.3901],[36.8198,35.417],[36.8244,35.4173],[36.8289,35.417],[36.8333,35.4159],[36.837,35.4143],[36.8669,35.3923],[36.8709,35.3865],[36.8724,35.3833],[36.8764,35.3776],[36.8791,35.3753],[36.8823,35.3732],[36.893,35.3677],[36.8957,35.3653],[36.8975,35.3624],[36.8998,35.3599],[36.904,35.3584],[36.9102,35.3587],[36.9204,35.3602],[36.9276,35.3607],[36.9345,35.3627],[36.9405,35.3661],[36.958,35.3882],[36.9798,35.4059],[36.9834,35.4095],[36.9916,35.4219],[36.9944,35.4245],[36.9976,35.4259],[37.0026,35.425],[37.0058,35.423],[37.0083,35.4204],[37.0103,35.4175],[37.012,35.4146],[37.0134,35.4113],[37.0142,35.4076],[37.015,35.3999],[37.0148,35.3958],[37.0142,35.3917],[37.013,35.3877],[37.0034,35.3711],[37.0023,35.3673],[37.0021,35.3633],[37.0024,35.3595],[37.006,35.3455],[37.0065,35.3416],[37.0066,35.3294],[37.0077,35.326],[37.0096,35.3232],[37.0125,35.3209],[37.0162,35.319],[37.0204,35.3176],[37.0251,35.3168],[37.0347,35.3169],[37.0572,35.3191],[37.0781,35.3184],[37.0832,35.3191],[37.089,35.3208],[37.0932,35.3227],[37.0963,35.3252],[37.1045,35.3367],[37.1103,35.3426],[37.1134,35.3447],[37.1166,35.3465],[37.1204,35.3478],[37.1244,35.3484],[37.1289,35.348],[37.1335,35.347],[37.1374,35.3459],[37.1405,35.346],[37.1421,35.3488],[37.1427,35.3905],[37.1414,35.398],[37.1402,35.4013],[37.1383,35.4041],[37.1355,35.4065],[37.1323,35.4082],[37.1281,35.4089],[37.1242,35.4082],[37.1211,35.4063],[37.1185,35.4039],[37.1159,35.4012],[37.11,35.3915],[37.1078,35.3887],[37.105,35.3863],[37.1014,35.3847],[37.0974,35.3837],[37.0928,35.3834],[37.0879,35.3839],[37.0837,35.3852],[37.0805,35.3872],[37.0778,35.3897],[37.0766,35.393],[37.0763,35.3969],[37.0769,35.4011],[37.0795,35.408],[37.0988,35.4423],[37.1039,35.4495],[37.1097,35.4544],[37.1227,35.4609],[37.1433,35.4684],[37.1503,35.4718],[37.1564,35.4783],[37.181,35.5142],[37.1917,35.5352],[37.1948,35.5398],[37.1976,35.5429],[37.2164,35.5515]]]}},{"type":"Feature","properties":{"id":"SYR-141","name":"Hasaka (Al Haksa)","nameBn":"আল-হাসাকাহ গভর্নোরেট","type":"Province","bounds":[39.4417,35.5522,42.3772,37.3249],"center":[40.9092,36.3536]},"geometry":{"type":"Polygon","coordinates":[[[42.2112,37.3249],[42.2226,37.314],[42.2238,37.3024],[42.2222,37.2924],[42.2232,37.2881],[42.2368,37.2863],[42.2672,37.2745],[42.2729,37.2767],[42.2792,37.2823],[42.2858,37.2866],[42.292,37.2851],[42.2964,37.2797],[42.3014,37.2699],[42.3058,37.2645],[42.3399,37.2426],[42.3467,37.2398],[42.3532,37.227],[42.3353,37.1712],[42.3467,37.1584],[42.3546,37.1524],[42.3565,37.1383],[42.3572,37.11],[42.3636,37.0981],[42.3712,37.0879],[42.3769,37.0768],[42.3772,37.0622],[42.3768,37.062],[42.3459,37.0429],[42.2819,36.9941],[42.2819,36.994],[42.2816,36.994],[42.1784,36.9053],[41.9786,36.7336],[41.8438,36.6179],[41.8173,36.5997],[41.7899,36.5893],[41.4798,36.5361],[41.4149,36.5274],[41.3854,36.5164],[41.3654,36.4942],[41.3654,36.4941],[41.3653,36.494],[41.3653,36.4939],[41.277,36.3548],[41.2688,36.328],[41.2366,36.077],[41.2367,36.0603],[41.2406,36.043],[41.2662,35.9943],[41.2663,35.9943],[41.2663,35.9942],[41.3437,35.8577],[41.3545,35.8256],[41.3593,35.7928],[41.3635,35.6552],[41.358,35.6239],[41.3422,35.5937],[41.3085,35.5522],[41.308,35.5523],[41.196,35.5653],[40.9995,35.5692],[40.923,35.5821],[40.8871,35.593],[40.8254,35.6041],[40.8069,35.6108],[40.775,35.6263],[40.0258,36.2212],[39.9007,36.3243],[39.8261,36.4244],[39.8045,36.4637],[39.8027,36.4766],[39.8014,36.4805],[39.7999,36.4836],[39.7934,36.4918],[39.7825,36.5008],[39.7202,36.5291],[39.6283,36.5599],[39.6235,36.5607],[39.6185,36.561],[39.6142,36.5605],[39.6099,36.5596],[39.5943,36.5547],[39.5859,36.5529],[39.5676,36.5512],[39.557,36.5519],[39.5468,36.5539],[39.5382,36.5571],[39.5248,36.5668],[39.474,36.6195],[39.4652,36.636],[39.4417,36.6924],[39.7653,36.7422],[39.9798,36.807],[40.0792,36.8549],[40.1152,36.8647],[40.1527,36.8704],[40.1901,36.8844],[40.2614,36.9228],[40.3937,36.994],[40.4139,37.004],[40.4352,37.0106],[40.457,37.0141],[40.4798,37.0152],[40.5257,37.0259],[40.6595,37.0853],[40.709,37.1005],[40.8964,37.1227],[41.1351,37.0842],[41.1797,37.0696],[41.2013,37.065],[41.4798,37.0756],[41.8964,37.1543],[42.0092,37.1756],[42.053,37.1966],[42.1283,37.2533],[42.1785,37.3063],[42.193,37.3132],[42.2112,37.3249]]]}},{"type":"Feature","properties":{"id":"SYR-139","name":"Homs (Hims)","nameBn":"হোমস গভর্নোরেট","type":"Province","bounds":[36.1121,33.1312,40.1731,35.3909],"center":[38.1425,34.1503]},"geometry":{"type":"Polygon","coordinates":[[[36.3912,34.6225],[36.3675,34.6292],[36.3474,34.6441],[36.3238,34.6795],[36.3089,34.6875],[36.2882,34.6756],[36.2848,34.6679],[36.2844,34.6483],[36.2807,34.6391],[36.2715,34.631],[36.2616,34.6272],[36.2012,34.6245],[36.1951,34.6262],[36.1834,34.6335],[36.1783,34.6353],[36.1722,34.6341],[36.1602,34.6281],[36.1559,34.6269],[36.1121,34.6295],[36.1122,34.6298],[36.1145,34.6401],[36.1161,34.66],[36.1182,34.6668],[36.1865,34.7687],[36.2097,34.7947],[36.2111,34.7959],[36.2126,34.7969],[36.2145,34.7977],[36.221,34.7991],[36.2244,34.8012],[36.2286,34.8047],[36.2442,34.8212],[36.2702,34.8398],[36.2734,34.8432],[36.2753,34.8462],[36.2756,34.8483],[36.2754,34.8549],[36.2736,34.8645],[36.2737,34.868],[36.2744,34.8724],[36.2765,34.8812],[36.2782,34.8853],[36.2796,34.8881],[36.2823,34.8906],[36.2838,34.8917],[36.2871,34.8936],[36.2948,34.8963],[36.3132,34.9009],[36.3198,34.8919],[36.32,34.8889],[36.3175,34.8873],[36.3158,34.8859],[36.3096,34.8792],[36.3088,34.8766],[36.3094,34.8749],[36.3115,34.8741],[36.3135,34.8737],[36.3156,34.8735],[36.3186,34.8713],[36.3229,34.8674],[36.3319,34.8563],[36.3366,34.852],[36.3404,34.8498],[36.3426,34.8503],[36.3443,34.8511],[36.3473,34.8532],[36.3587,34.8667],[36.3615,34.8689],[36.3642,34.8698],[36.3676,34.8703],[36.3749,34.8703],[36.3789,34.8687],[36.3816,34.867],[36.3887,34.8572],[36.4194,34.8516],[36.423,34.8522],[36.4278,34.8535],[36.4302,34.8563],[36.4378,34.8634],[36.4395,34.8656],[36.4398,34.8676],[36.4398,34.8763],[36.4407,34.8791],[36.4427,34.8824],[36.448,34.8878],[36.4498,34.8911],[36.4508,34.8938],[36.4498,34.9002],[36.4502,34.9082],[36.4747,34.9305],[36.4825,34.9413],[36.4905,34.9501],[36.4919,34.951],[36.493,34.9517],[36.495,34.9525],[36.5043,34.9546],[36.508,34.9547],[36.5111,34.9545],[36.515,34.9532],[36.5184,34.9514],[36.52,34.9503],[36.5212,34.9491],[36.5221,34.9475],[36.5228,34.9459],[36.5229,34.9438],[36.5225,34.942],[36.5217,34.9403],[36.5195,34.9374],[36.5159,34.9335],[36.5152,34.9319],[36.5145,34.9302],[36.5145,34.9282],[36.515,34.9264],[36.5163,34.9252],[36.5181,34.9245],[36.5254,34.9241],[36.5276,34.9238],[36.5296,34.9233],[36.5313,34.9224],[36.5329,34.9213],[36.534,34.9199],[36.5346,34.9182],[36.5348,34.9161],[36.5348,34.9116],[36.5366,34.9091],[36.5402,34.9066],[36.5495,34.9032],[36.5554,34.9021],[36.5597,34.9018],[36.562,34.9024],[36.5659,34.9038],[36.5777,34.9098],[36.6004,34.9141],[36.6493,34.9126],[36.7279,34.9454],[36.7377,34.9484],[36.7391,34.9477],[36.7417,34.9474],[36.7454,34.9476],[36.7543,34.9493],[36.7622,34.9495],[36.7639,34.949],[36.7672,34.9488],[36.7987,34.9507],[36.8027,34.9518],[36.8161,34.9621],[36.822,34.9642],[36.828,34.9654],[36.8375,34.9655],[36.8418,34.9659],[36.8463,34.9674],[36.861,34.9755],[36.8674,34.9773],[36.8736,34.9783],[36.884,34.9772],[36.8967,34.974],[36.9116,34.9637],[36.9166,34.9583],[36.9174,34.9567],[36.9481,34.9064],[36.9728,34.8609],[36.9934,34.8669],[36.9995,34.8696],[37.0491,34.9026],[37.0558,34.9062],[37.0645,34.9083],[37.0815,34.9095],[37.0863,34.9108],[37.0893,34.9121],[37.1002,34.9239],[37.1038,34.9262],[37.1069,34.9277],[37.1117,34.9276],[37.1141,34.9274],[37.1163,34.9269],[37.1183,34.9262],[37.1236,34.9236],[37.1266,34.9215],[37.1284,34.9207],[37.1365,34.918],[37.1447,34.9143],[37.1466,34.9147],[37.1478,34.916],[37.1494,34.9217],[37.153,34.9252],[37.1592,34.9298],[37.1826,34.9428],[37.188,34.9447],[37.1933,34.9446],[37.1957,34.9443],[37.1998,34.9431],[37.2035,34.9414],[37.2068,34.9395],[37.2094,34.9373],[37.2108,34.9361],[37.2119,34.9347],[37.2158,34.9262],[37.2195,34.9203],[37.2218,34.9177],[37.2234,34.9166],[37.2268,34.9149],[37.2355,34.9116],[37.2474,34.9091],[37.2515,34.9091],[37.2544,34.9095],[37.2606,34.9135],[37.2661,34.9182],[37.2672,34.9196],[37.2681,34.9212],[37.2696,34.9244],[37.2735,34.9375],[37.2743,34.939],[37.2752,34.9404],[37.2766,34.9417],[37.2839,34.9473],[37.2851,34.9486],[37.2861,34.9501],[37.2884,34.958],[37.2898,34.9607],[37.2924,34.9644],[37.2955,34.9663],[37.2983,34.9673],[37.3008,34.9677],[37.3116,34.9677],[37.3272,34.9644],[37.3303,34.965],[37.3322,34.9662],[37.3323,34.9682],[37.3323,34.9703],[37.3329,34.9732],[37.3347,34.9766],[37.3396,34.9821],[37.3432,34.984],[37.3463,34.9846],[37.3484,34.9841],[37.3503,34.9833],[37.3604,34.9777],[37.368,34.9759],[37.3767,34.975],[37.384,34.9766],[37.39,34.9789],[37.3989,34.984],[37.4037,34.9858],[37.4074,34.9866],[37.4131,34.9865],[37.4262,34.9881],[37.4321,34.9882],[37.4396,34.9869],[37.4512,34.9874],[37.4561,34.9869],[37.4602,34.9857],[37.4619,34.9847],[37.4633,34.9836],[37.4724,34.9707],[37.4758,34.9668],[37.4785,34.9655],[37.4822,34.9642],[37.4903,34.9629],[37.4943,34.9629],[37.4973,34.9635],[37.4988,34.9644],[37.4999,34.9652],[37.5008,34.9659],[37.5025,34.9686],[37.5033,34.9703],[37.5038,34.9721],[37.5039,34.9742],[37.5038,34.9762],[37.5027,34.9799],[37.4981,34.9919],[37.4974,34.9959],[37.4973,35.0218],[37.4996,35.0356],[37.501,35.0392],[37.5044,35.0456],[37.5053,35.047],[37.5066,35.0483],[37.5109,35.0517],[37.5177,35.0557],[37.5373,35.0643],[37.5683,35.0826],[37.575,35.0853],[37.5804,35.0867],[37.5894,35.0864],[37.5938,35.0866],[37.6075,35.0891],[37.6539,35.1026],[37.7368,35.1186],[37.7407,35.1186],[37.7438,35.1183],[37.7458,35.1175],[37.7527,35.1141],[37.7587,35.1097],[37.7701,35.0985],[37.7716,35.0974],[37.7749,35.0955],[37.7786,35.094],[37.7829,35.0929],[37.7881,35.0924],[37.8079,35.0921],[37.8124,35.0911],[37.8141,35.0903],[37.8176,35.0883],[37.8189,35.0872],[37.8238,35.082],[37.8269,35.0778],[37.8286,35.0747],[37.8292,35.0729],[37.8307,35.0696],[37.8317,35.0682],[37.8329,35.0668],[37.8383,35.0622],[37.8394,35.0609],[37.8404,35.0594],[37.845,35.0451],[37.8464,35.0395],[37.8473,35.029],[37.8504,35.0159],[37.8511,35.0141],[37.852,35.0125],[37.8557,35.0088],[37.8644,35.0022],[37.8676,35.0003],[37.8678,35.0003],[37.8697,34.9993],[37.9261,34.9612],[37.9328,34.9553],[37.9417,34.9442],[37.9805,34.9032],[37.986,34.8985],[37.9887,34.8983],[37.992,34.8987],[37.9994,34.9013],[38.0016,34.9024],[38.02,34.9193],[38.0211,34.9208],[38.0227,34.9241],[38.0238,34.9278],[38.0247,34.9294],[38.0265,34.9325],[38.0278,34.9338],[38.0286,34.9354],[38.0293,34.9371],[38.03,34.9389],[38.0307,34.943],[38.0309,34.9474],[38.0303,34.9557],[38.0303,34.9578],[38.0309,34.9597],[38.0317,34.9613],[38.0366,34.9687],[38.0416,34.9789],[38.0427,34.9806],[38.0486,34.9869],[38.0497,34.9883],[38.0506,34.9899],[38.0514,34.9918],[38.0523,34.9999],[38.0523,35.0002],[38.0528,35.0024],[38.057,35.0066],[38.0843,35.0276],[38.1008,35.0379],[38.2326,35.0861],[38.2398,35.0914],[38.2432,35.096],[38.2379,35.1294],[38.2381,35.1377],[38.2396,35.1465],[38.2421,35.1545],[38.2467,35.1654],[38.2506,35.1721],[38.275,35.2018],[38.2846,35.2164],[38.2953,35.2372],[38.3,35.2536],[38.3031,35.365],[38.3017,35.3823],[38.3903,35.3909],[38.6842,35.3723],[39.242,35.2493],[39.3427,35.182],[39.3744,35.1492],[39.4378,35.0385],[39.4411,35.0293],[39.4416,35.0198],[39.4352,34.9622],[39.4358,34.9517],[39.4406,34.9424],[39.4445,34.9364],[39.6094,34.7431],[40.1728,34.0726],[40.1731,34.0723],[40.1015,34.0364],[39.9909,33.981],[39.8804,33.9256],[39.7697,33.8702],[39.6592,33.8148],[39.5486,33.7595],[39.438,33.7041],[39.3274,33.6487],[39.2169,33.5933],[39.1063,33.5379],[38.9957,33.4825],[38.8851,33.4271],[38.7745,33.3717],[38.5296,33.2443],[38.3157,33.1312],[38.3153,33.1315],[37.9082,33.4047],[37.8779,33.4205],[37.8526,33.4374],[37.8464,33.4406],[37.8369,33.4444],[37.8351,33.4449],[37.8334,33.4455],[37.8166,33.4477],[37.8067,33.4511],[37.7691,33.459],[37.7537,33.4647],[37.744,33.4706],[37.7159,33.4839],[37.648,33.5279],[37.5804,33.6043],[37.575,33.6178],[37.5714,33.624],[37.5657,33.6373],[37.5649,33.6388],[37.564,33.6413],[37.5624,33.6475],[37.5528,33.6667],[37.5468,33.6754],[37.4499,33.7502],[37.44,33.7566],[37.423,33.7653],[37.3429,33.8324],[37.3277,33.8409],[37.3205,33.8458],[37.2686,33.9168],[37.2678,33.9182],[37.2648,33.9226],[37.2584,33.9353],[37.258,33.9372],[37.2574,33.9389],[37.2566,33.9406],[37.2555,33.942],[37.2497,33.9453],[37.2297,33.9512],[37.2101,33.9491],[37.1995,33.9492],[37.1948,33.95],[37.1846,33.9528],[37.0873,33.9999],[37.0867,34.0001],[37.0866,34.0002],[37.0863,34.0003],[37.086,34.0003],[37.0801,34.0029],[37.069,34.0098],[37.0346,34.0356],[37.0302,34.0424],[37.0274,34.0458],[37.026,34.0469],[37.0213,34.0499],[37.0199,34.051],[37.0168,34.0552],[37.0153,34.0582],[37.0144,34.0605],[37.0043,34.0746],[37.0027,34.0778],[36.9953,34.0874],[36.9941,34.0888],[36.9883,34.0978],[36.9732,34.1172],[36.9667,34.1279],[36.9608,34.1345],[36.943,34.1499],[36.9281,34.1684],[36.9143,34.18],[36.8921,34.2029],[36.8888,34.2071],[36.8881,34.2086],[36.8758,34.2236],[36.8701,34.2279],[36.8653,34.2281],[36.8578,34.2273],[36.8276,34.2195],[36.7926,34.2029],[36.7903,34.2024],[36.7813,34.2025],[36.7106,34.2102],[36.6927,34.2186],[36.6879,34.2193],[36.6645,34.2192],[36.6482,34.2166],[36.6239,34.2051],[36.6036,34.2001],[36.5982,34.2099],[36.574,34.2297],[36.5675,34.2441],[36.5628,34.2629],[36.5703,34.2759],[36.5799,34.2869],[36.582,34.2999],[36.5768,34.3077],[36.5703,34.309],[36.563,34.3085],[36.5558,34.3111],[36.5452,34.3207],[36.5236,34.3459],[36.5186,34.3536],[36.5159,34.3616],[36.5168,34.3699],[36.52,34.3751],[36.5236,34.3798],[36.5263,34.3867],[36.5298,34.4031],[36.5306,34.4142],[36.5251,34.4229],[36.5092,34.4324],[36.5019,34.4303],[36.4947,34.4343],[36.4802,34.4491],[36.4632,34.4552],[36.4498,34.4645],[36.4399,34.4775],[36.4335,34.4942],[36.4335,34.4943],[36.4197,34.4983],[36.3923,34.5001],[36.3631,34.499],[36.3437,34.4942],[36.341,34.4935],[36.3382,34.4933],[36.3354,34.4935],[36.3327,34.4942],[36.3299,34.4986],[36.3199,34.5141],[36.3366,34.5288],[36.364,34.5411],[36.3835,34.5538],[36.3881,34.5695],[36.3869,34.5842],[36.3889,34.5962],[36.4037,34.6038],[36.4185,34.6003],[36.4291,34.5932],[36.4363,34.5978],[36.4402,34.6294],[36.416,34.6229],[36.3912,34.6225]]]}},{"type":"Feature","properties":{"id":"SYR-140","name":"Idlib","nameBn":"ইদলিব গভর্নোরেট","type":"Province","bounds":[36.1495,35.3168,37.2164,36.3327],"center":[36.6829,35.8528]},"geometry":{"type":"Polygon","coordinates":[[[36.5935,36.2181],[36.6643,36.229],[36.67,36.2373],[36.6691,36.2599],[36.6655,36.274],[36.6585,36.2905],[36.6488,36.3057],[36.6612,36.3112],[36.6958,36.3172],[36.7282,36.317],[36.7333,36.3183],[36.7543,36.3312],[36.7611,36.3327],[36.7663,36.3322],[36.7694,36.33],[36.7715,36.3272],[36.7732,36.3242],[36.7745,36.3208],[36.7766,36.3054],[36.7821,36.2968],[36.8128,36.2734],[36.839,36.2462],[36.8431,36.2393],[36.8432,36.2339],[36.8421,36.2299],[36.8404,36.2263],[36.8362,36.2201],[36.8313,36.2148],[36.8112,36.1985],[36.8038,36.1905],[36.801,36.1882],[36.7912,36.1836],[36.7892,36.1824],[36.7869,36.1808],[36.7821,36.176],[36.7774,36.1705],[36.772,36.1655],[36.7386,36.1435],[36.7262,36.1265],[36.747,36.1045],[36.7543,36.0925],[36.7635,36.0838],[36.7726,36.0772],[36.7816,36.0726],[36.8653,36.041],[36.8749,36.0353],[36.8809,36.0307],[36.8831,36.024],[36.8848,36.0167],[36.8868,35.9852],[36.8867,35.9768],[36.8873,35.9729],[36.8887,35.9692],[36.9422,35.9055],[36.993,35.8311],[37.0009,35.8215],[37.0072,35.8156],[37.0114,35.8142],[37.0162,35.8131],[37.0315,35.8113],[37.0439,35.8048],[37.064,35.789],[37.0931,35.7724],[37.098,35.768],[37.101,35.7639],[37.1016,35.7602],[37.1017,35.7563],[37.1011,35.7522],[37.0999,35.7483],[37.0962,35.7424],[37.0928,35.7389],[37.0879,35.7347],[37.0817,35.7305],[37.0783,35.7287],[37.067,35.7247],[37.0608,35.7207],[37.0557,35.7137],[37.0702,35.6759],[37.0791,35.6613],[37.0857,35.6537],[37.0885,35.647],[37.0922,35.6291],[37.0979,35.6223],[37.1293,35.5916],[37.1345,35.5892],[37.1427,35.5869],[37.1483,35.5843],[37.1545,35.5806],[37.1695,35.5685],[37.1747,35.5657],[37.2164,35.5515],[37.1976,35.5429],[37.1948,35.5398],[37.1917,35.5352],[37.181,35.5142],[37.1564,35.4783],[37.1503,35.4718],[37.1433,35.4684],[37.1227,35.4609],[37.1097,35.4544],[37.1039,35.4495],[37.0988,35.4423],[37.0795,35.408],[37.0769,35.4011],[37.0763,35.3969],[37.0766,35.393],[37.0778,35.3897],[37.0805,35.3872],[37.0837,35.3852],[37.0879,35.3839],[37.0928,35.3834],[37.0974,35.3837],[37.1014,35.3847],[37.105,35.3863],[37.1078,35.3887],[37.11,35.3915],[37.1159,35.4012],[37.1185,35.4039],[37.1211,35.4063],[37.1242,35.4082],[37.1281,35.4089],[37.1323,35.4082],[37.1355,35.4065],[37.1383,35.4041],[37.1402,35.4013],[37.1414,35.398],[37.1427,35.3905],[37.1421,35.3488],[37.1405,35.346],[37.1374,35.3459],[37.1335,35.347],[37.1289,35.348],[37.1244,35.3484],[37.1204,35.3478],[37.1166,35.3465],[37.1134,35.3447],[37.1103,35.3426],[37.1045,35.3367],[37.0963,35.3252],[37.0932,35.3227],[37.089,35.3208],[37.0832,35.3191],[37.0781,35.3184],[37.0572,35.3191],[37.0347,35.3169],[37.0251,35.3168],[37.0204,35.3176],[37.0162,35.319],[37.0125,35.3209],[37.0096,35.3232],[37.0077,35.326],[37.0066,35.3294],[37.0065,35.3416],[37.006,35.3455],[37.0024,35.3595],[37.0021,35.3633],[37.0023,35.3673],[37.0034,35.3711],[37.013,35.3877],[37.0142,35.3917],[37.0148,35.3958],[37.015,35.3999],[37.0142,35.4076],[37.0134,35.4113],[37.012,35.4146],[37.0103,35.4175],[37.0083,35.4204],[37.0058,35.423],[37.0026,35.425],[36.9976,35.4259],[36.9944,35.4245],[36.9916,35.4219],[36.9834,35.4095],[36.9798,35.4059],[36.958,35.3882],[36.9405,35.3661],[36.9345,35.3627],[36.9276,35.3607],[36.9204,35.3602],[36.9102,35.3587],[36.904,35.3584],[36.8998,35.3599],[36.8975,35.3624],[36.8957,35.3653],[36.893,35.3677],[36.8823,35.3732],[36.8791,35.3753],[36.8764,35.3776],[36.8724,35.3833],[36.8709,35.3865],[36.8669,35.3923],[36.837,35.4143],[36.8333,35.4159],[36.8289,35.417],[36.8244,35.4173],[36.8198,35.417],[36.6994,35.3901],[36.6479,35.3916],[36.5811,35.4067],[36.5712,35.4078],[36.552,35.4067],[36.5419,35.4073],[36.5371,35.4082],[36.5329,35.4096],[36.5296,35.4117],[36.5271,35.4142],[36.5251,35.417],[36.5234,35.42],[36.5207,35.4264],[36.5173,35.4325],[36.5147,35.4349],[36.5114,35.4369],[36.4938,35.4441],[36.4871,35.446],[36.4825,35.4455],[36.4477,35.4316],[36.4261,35.4366],[36.4196,35.4426],[36.4147,35.46],[36.3929,35.5001],[36.3929,35.5006],[36.3938,35.5037],[36.3958,35.5059],[36.398,35.5099],[36.3997,35.5152],[36.3914,35.5827],[36.3934,35.6005],[36.4075,35.6545],[36.4138,35.6984],[36.4123,35.7112],[36.4051,35.7148],[36.3615,35.7159],[36.3479,35.7195],[36.346,35.7225],[36.3448,35.7257],[36.3439,35.7292],[36.3418,35.7333],[36.3392,35.7376],[36.3336,35.7433],[36.3299,35.7458],[36.3259,35.7471],[36.3215,35.7471],[36.3173,35.7464],[36.3136,35.7451],[36.3101,35.7433],[36.2982,35.74],[36.2854,35.739],[36.2776,35.7398],[36.27,35.7418],[36.2658,35.7441],[36.262,35.7467],[36.2596,35.749],[36.2548,35.7559],[36.2799,35.7698],[36.2875,35.7779],[36.2885,35.7818],[36.2885,35.7859],[36.2871,35.7897],[36.2835,35.7936],[36.2795,35.7957],[36.2747,35.7969],[36.2066,35.794],[36.1983,35.7925],[36.1898,35.7899],[36.1842,35.789],[36.1764,35.7887],[36.162,35.7898],[36.1552,35.7919],[36.1508,35.7947],[36.1498,35.798],[36.1495,35.8016],[36.1502,35.8054],[36.1518,35.809],[36.1532,35.8117],[36.1553,35.8173],[36.156,35.8184],[36.1553,35.8222],[36.1576,35.8226],[36.1688,35.8521],[36.1749,35.9227],[36.1969,35.9517],[36.229,35.9612],[36.2531,35.9556],[36.269,35.9587],[36.2774,35.994],[36.2775,35.9942],[36.2974,36.0007],[36.3367,35.9882],[36.358,35.994],[36.3555,36.0224],[36.3586,36.167],[36.3605,36.1817],[36.3663,36.1892],[36.3745,36.1959],[36.3758,36.2045],[36.3614,36.2182],[36.373,36.2276],[36.3856,36.2155],[36.3981,36.2082],[36.4119,36.2045],[36.4393,36.2014],[36.4452,36.1999],[36.4507,36.1999],[36.4592,36.2031],[36.464,36.2088],[36.4653,36.2159],[36.4689,36.2224],[36.4802,36.2255],[36.4986,36.2279],[36.5744,36.2184],[36.5935,36.2181]]]}},{"type":"Feature","properties":{"id":"SYR-134","name":"Lattakia","nameBn":"লাত্তাকিয়া","type":"Province","bounds":[35.7234,35.2195,36.2885,35.9269],"center":[36.0061,35.5494]},"geometry":{"type":"Polygon","coordinates":[[[36.1385,35.8198],[36.1553,35.8222],[36.156,35.8184],[36.1553,35.8173],[36.1532,35.8117],[36.1518,35.809],[36.1502,35.8054],[36.1495,35.8016],[36.1498,35.798],[36.1508,35.7947],[36.1552,35.7919],[36.162,35.7898],[36.1764,35.7887],[36.1842,35.789],[36.1898,35.7899],[36.1983,35.7925],[36.2066,35.794],[36.2747,35.7969],[36.2795,35.7957],[36.2835,35.7936],[36.2871,35.7897],[36.2885,35.7859],[36.2885,35.7818],[36.2875,35.7779],[36.2799,35.7698],[36.2548,35.7559],[36.2386,35.7444],[36.2345,35.7356],[36.2328,35.7103],[36.2307,35.704],[36.2281,35.6996],[36.2129,35.6909],[36.2028,35.6825],[36.1999,35.6773],[36.1994,35.6731],[36.2011,35.67],[36.2129,35.6568],[36.2165,35.6511],[36.219,35.6445],[36.2216,35.6333],[36.2244,35.602],[36.2205,35.5354],[36.2013,35.4252],[36.2019,35.4215],[36.2081,35.4023],[36.2247,35.3635],[36.2504,35.2624],[36.253,35.2234],[36.2145,35.239],[36.2011,35.2401],[36.1873,35.2332],[36.18,35.2304],[36.176,35.2292],[36.0256,35.2195],[36.0186,35.2209],[35.9898,35.2415],[35.9743,35.2496],[35.9315,35.2614],[35.9312,35.2615],[35.9153,35.2879],[35.929,35.3215],[35.9241,35.3385],[35.9167,35.4033],[35.919,35.4177],[35.9089,35.4257],[35.8606,35.4791],[35.8401,35.4874],[35.8301,35.4935],[35.8259,35.5033],[35.8184,35.5089],[35.8023,35.5069],[35.7868,35.5022],[35.7813,35.4996],[35.7705,35.5042],[35.772,35.5154],[35.7771,35.5291],[35.7781,35.5412],[35.772,35.5463],[35.7371,35.5617],[35.7388,35.5666],[35.7409,35.5765],[35.7433,35.5821],[35.7371,35.5821],[35.7234,35.5759],[35.7234,35.5821],[35.7434,35.588],[35.7634,35.5983],[35.7785,35.6127],[35.7844,35.6306],[35.7821,35.6418],[35.7732,35.6555],[35.7712,35.6678],[35.7766,35.6751],[35.8001,35.6815],[35.8386,35.7421],[35.8403,35.7475],[35.8401,35.7708],[35.8359,35.79],[35.8254,35.8135],[35.8119,35.8354],[35.7986,35.8497],[35.8469,35.8472],[35.8709,35.8518],[35.881,35.8667],[35.8853,35.886],[35.9113,35.9177],[35.9208,35.9151],[35.9406,35.9184],[35.9607,35.9244],[35.9803,35.9269],[35.9928,35.9153],[35.9931,35.9024],[35.9901,35.8893],[35.9924,35.8773],[36.0039,35.8692],[36.0194,35.8662],[36.0508,35.8654],[36.0803,35.8542],[36.1385,35.8198]]]}},{"type":"Feature","properties":{"id":"SYR-145","name":"Quneitra","nameBn":"কুনিত্রা গভর্নোরেট","type":"Province","bounds":[35.8193,32.8358,35.9873,33.3228],"center":[35.9145,33.053]},"geometry":{"type":"Polygon","coordinates":[[[35.8468,32.8358],[35.8466,32.8365],[35.8607,32.8802],[35.8903,32.9286],[35.9122,32.9473],[35.9238,32.9677],[35.8981,32.9855],[35.8771,32.9926],[35.8646,33.0815],[35.8684,33.1073],[35.8903,33.1096],[35.9027,33.1096],[35.9027,33.1166],[35.8973,33.1166],[35.8934,33.1205],[35.8919,33.1244],[35.8949,33.1283],[35.9004,33.1307],[35.906,33.1331],[35.9106,33.1354],[35.9113,33.1393],[35.9113,33.1494],[35.9113,33.1658],[35.9075,33.1713],[35.906,33.1768],[35.9004,33.1798],[35.8965,33.1806],[35.8903,33.1768],[35.8881,33.1768],[35.8849,33.1791],[35.8825,33.1846],[35.8825,33.1892],[35.8888,33.1946],[35.8888,33.1986],[35.8856,33.204],[35.8747,33.2158],[35.8662,33.226],[35.8615,33.2376],[35.8544,33.2688],[35.8537,33.2727],[35.8513,33.2758],[35.8458,33.279],[35.8358,33.279],[35.8264,33.2798],[35.8202,33.2806],[35.8193,33.2844],[35.8217,33.286],[35.8264,33.2883],[35.8334,33.2906],[35.8404,33.2954],[35.845,33.3039],[35.8458,33.3133],[35.8434,33.3219],[35.843,33.3228],[35.8432,33.3227],[35.8847,33.3046],[35.8953,33.2987],[35.8951,33.2969],[35.8943,33.2953],[35.8894,33.2902],[35.8852,33.2847],[35.8842,33.2831],[35.8829,33.2803],[35.8808,33.2747],[35.8796,33.2687],[35.8793,33.2645],[35.8796,33.2602],[35.8801,33.2583],[35.8811,33.255],[35.8873,33.2429],[35.89,33.2406],[35.892,33.24],[35.8931,33.2413],[35.8942,33.2427],[35.8956,33.246],[35.897,33.2501],[35.897,33.2502],[35.8976,33.2516],[35.8984,33.2529],[35.8996,33.2541],[35.901,33.2552],[35.9049,33.2566],[35.907,33.257],[35.9096,33.2572],[35.9327,33.2537],[35.9443,33.2532],[35.957,33.2515],[35.961,33.2497],[35.9634,33.2479],[35.9638,33.246],[35.9641,33.2439],[35.9641,33.2396],[35.9632,33.2313],[35.9635,33.2161],[35.9632,33.2115],[35.9617,33.2048],[35.9538,33.1665],[35.953,33.1562],[35.9541,33.1548],[35.9682,33.146],[35.9707,33.1439],[35.9736,33.1405],[35.9783,33.1328],[35.9797,33.1288],[35.98,33.1261],[35.9674,33.1091],[35.9609,33.0962],[35.9598,33.0948],[35.9477,33.0321],[35.9471,33.0246],[35.952,33.0151],[35.9635,33.0006],[35.9637,33.0002],[35.9638,33.0001],[35.9691,32.9905],[35.9735,32.9851],[35.9775,32.9814],[35.9794,32.9779],[35.9859,32.9602],[35.9871,32.9545],[35.9873,32.9507],[35.9864,32.9491],[35.9851,32.9482],[35.9833,32.9481],[35.9816,32.9486],[35.9799,32.9493],[35.9781,32.9502],[35.9766,32.9513],[35.9755,32.9526],[35.9743,32.954],[35.9735,32.9556],[35.9724,32.9591],[35.9718,32.9607],[35.9707,32.9621],[35.9691,32.9632],[35.9671,32.9638],[35.9623,32.9644],[35.9446,32.9636],[35.9415,32.9629],[35.9384,32.9616],[35.9342,32.9585],[35.9328,32.956],[35.9325,32.9537],[35.9333,32.9521],[35.9344,32.9507],[35.9369,32.9482],[35.9384,32.9444],[35.94,32.9385],[35.9429,32.9189],[35.9424,32.9144],[35.9418,32.9128],[35.9367,32.9068],[35.9067,32.8862],[35.854,32.8451],[35.8468,32.8358]]]}},{"type":"Feature","properties":{"id":"SYR-144","name":"Rif Dimashq","nameBn":"রিফ দামাস্ক গভর্নোরেট","type":"Province","bounds":[35.8302,32.6901,38.3157,34.2281],"center":[37.0728,33.5286]},"geometry":{"type":"Polygon","coordinates":[[[36.4451,34.0461],[36.4589,34.0467],[36.4752,34.0535],[36.4807,34.0628],[36.4827,34.0745],[36.4884,34.0886],[36.508,34.1092],[36.5527,34.141],[36.5759,34.1733],[36.6041,34.1991],[36.6036,34.2001],[36.6239,34.2051],[36.6482,34.2166],[36.6645,34.2192],[36.6879,34.2193],[36.6927,34.2186],[36.7106,34.2102],[36.7813,34.2025],[36.7903,34.2024],[36.7926,34.2029],[36.8276,34.2195],[36.8578,34.2273],[36.8653,34.2281],[36.8701,34.2279],[36.8758,34.2236],[36.8881,34.2086],[36.8888,34.2071],[36.8921,34.2029],[36.9143,34.18],[36.9281,34.1684],[36.943,34.1499],[36.9608,34.1345],[36.9667,34.1279],[36.9732,34.1172],[36.9883,34.0978],[36.9941,34.0888],[36.9953,34.0874],[37.0027,34.0778],[37.0043,34.0746],[37.0144,34.0605],[37.0153,34.0582],[37.0168,34.0552],[37.0199,34.051],[37.0213,34.0499],[37.026,34.0469],[37.0274,34.0458],[37.0302,34.0424],[37.0346,34.0356],[37.069,34.0098],[37.0801,34.0029],[37.086,34.0003],[37.0863,34.0003],[37.0866,34.0002],[37.0867,34.0001],[37.0873,33.9999],[37.1846,33.9528],[37.1948,33.95],[37.1995,33.9492],[37.2101,33.9491],[37.2297,33.9512],[37.2497,33.9453],[37.2555,33.942],[37.2566,33.9406],[37.2574,33.9389],[37.258,33.9372],[37.2584,33.9353],[37.2648,33.9226],[37.2678,33.9182],[37.2686,33.9168],[37.3205,33.8458],[37.3277,33.8409],[37.3429,33.8324],[37.423,33.7653],[37.44,33.7566],[37.4499,33.7502],[37.5468,33.6754],[37.5528,33.6667],[37.5624,33.6475],[37.564,33.6413],[37.5649,33.6388],[37.5657,33.6373],[37.5714,33.624],[37.575,33.6178],[37.5804,33.6043],[37.648,33.5279],[37.7159,33.4839],[37.744,33.4706],[37.7537,33.4647],[37.7691,33.459],[37.8067,33.4511],[37.8166,33.4477],[37.8334,33.4455],[37.8351,33.4449],[37.8369,33.4444],[37.8464,33.4406],[37.8526,33.4374],[37.8779,33.4205],[37.9082,33.4047],[38.3153,33.1315],[38.3157,33.1312],[38.2309,33.0863],[38.0567,32.9943],[37.9294,32.9253],[37.758,32.8325],[37.5867,32.7398],[37.4946,32.6901],[37.4943,32.6904],[37.4775,32.7088],[37.4685,32.717],[37.4198,32.7471],[37.2839,32.8626],[37.2813,32.8663],[37.2807,32.8672],[37.2802,32.8686],[37.2793,32.8724],[37.2748,32.9181],[37.2717,32.928],[37.2703,32.9313],[37.2684,32.9344],[37.2642,32.9401],[37.2572,32.9463],[37.2414,32.9507],[37.2127,32.9517],[37.2079,32.9507],[37.2052,32.9483],[37.2037,32.9473],[37.202,32.9465],[37.1982,32.9453],[37.1964,32.9449],[37.1835,32.9499],[37.1326,32.9748],[37.1307,32.981],[37.129,32.9832],[37.1266,32.9849],[37.1244,32.9871],[37.1234,32.9883],[37.1228,32.9896],[37.1216,32.991],[37.1208,32.9925],[37.1194,32.9954],[37.1183,32.9968],[37.1157,32.999],[37.114,33.0001],[37.1138,33.0002],[37.1137,33.0003],[37.1124,33.0014],[37.1104,33.0037],[37.1083,33.0065],[37.1066,33.0094],[37.1061,33.0108],[37.1059,33.0119],[37.1056,33.0177],[37.1064,33.0212],[37.1066,33.0239],[37.1064,33.0256],[37.1059,33.0272],[37.1053,33.0289],[37.1044,33.0305],[37.1033,33.0319],[37.1019,33.033],[37.0988,33.035],[37.0872,33.0406],[37.082,33.044],[37.0794,33.0461],[37.0778,33.0472],[37.0727,33.0498],[37.0077,33.0617],[37.0018,33.0618],[36.9846,33.0637],[36.9812,33.0652],[36.9607,33.0781],[36.958,33.0805],[36.9571,33.0819],[36.9563,33.0835],[36.9551,33.0872],[36.9543,33.0912],[36.9537,33.1001],[36.9509,33.1084],[36.9494,33.1118],[36.948,33.114],[36.9459,33.1162],[36.9107,33.1463],[36.9084,33.1489],[36.9068,33.1521],[36.9047,33.1639],[36.9036,33.1674],[36.8995,33.1738],[36.8884,33.1845],[36.8853,33.1865],[36.8562,33.1997],[36.8475,33.2054],[36.8393,33.2125],[36.8348,33.2155],[36.8255,33.2237],[36.8238,33.2247],[36.5709,33.194],[36.5685,33.2045],[36.5679,33.2208],[36.5675,33.2226],[36.5668,33.2245],[36.5662,33.2262],[36.5644,33.2292],[36.5631,33.2309],[36.5292,33.2639],[36.5271,33.2668],[36.5254,33.27],[36.5211,33.2822],[36.5195,33.2854],[36.5176,33.2884],[36.5163,33.2903],[36.5144,33.2922],[36.5108,33.2948],[36.5066,33.2948],[36.5032,33.2945],[36.4865,33.2848],[36.4811,33.2788],[36.4778,33.276],[36.4285,33.2502],[36.4283,33.2502],[36.4281,33.2501],[36.4241,33.2478],[36.394,33.2247],[36.3907,33.2205],[36.39,33.2189],[36.3895,33.2171],[36.3886,33.2063],[36.3881,33.2043],[36.3875,33.2025],[36.3865,33.2011],[36.3858,33.2003],[36.3834,33.1989],[36.3816,33.1982],[36.3762,33.1984],[36.3683,33.1996],[36.3425,33.2059],[36.3381,33.2078],[36.3356,33.2104],[36.3327,33.2126],[36.3228,33.218],[36.3214,33.2192],[36.3205,33.2207],[36.3163,33.2286],[36.3152,33.23],[36.3139,33.2311],[36.311,33.2333],[36.3091,33.234],[36.3048,33.235],[36.2864,33.2371],[36.2837,33.2379],[36.2818,33.2387],[36.2802,33.2397],[36.2787,33.2407],[36.2776,33.2421],[36.2767,33.2436],[36.2761,33.2454],[36.275,33.2557],[36.2744,33.2575],[36.2734,33.2591],[36.2722,33.2603],[36.2708,33.2615],[36.2692,33.2625],[36.2585,33.2672],[36.2568,33.2682],[36.254,33.2704],[36.2492,33.2754],[36.2411,33.287],[36.2399,33.2883],[36.2385,33.2894],[36.2368,33.2902],[36.2349,33.2909],[36.232,33.2893],[36.2289,33.2859],[36.2241,33.2766],[36.2227,33.2722],[36.2222,33.269],[36.2258,33.2579],[36.2262,33.2539],[36.2261,33.252],[36.2258,33.2505],[36.2258,33.2503],[36.2258,33.2502],[36.2244,33.2462],[36.2228,33.2429],[36.2171,33.2342],[36.2134,33.2263],[36.2039,33.2224],[36.162,33.2105],[36.147,33.2038],[36.1428,33.2027],[36.0635,33.1972],[36.0618,33.1964],[36.047,33.1854],[36.0408,33.1816],[36.0373,33.1801],[36.0311,33.1783],[36.0254,33.1776],[36.0062,33.1779],[35.9997,33.1792],[35.9961,33.183],[35.9901,33.1926],[35.9861,33.1957],[35.9834,33.1973],[35.9617,33.2048],[35.9632,33.2115],[35.9635,33.2161],[35.9632,33.2313],[35.9641,33.2396],[35.9641,33.2439],[35.9638,33.246],[35.9634,33.2479],[35.961,33.2497],[35.957,33.2515],[35.9443,33.2532],[35.9327,33.2537],[35.9096,33.2572],[35.907,33.257],[35.9049,33.2566],[35.901,33.2552],[35.8996,33.2541],[35.8984,33.2529],[35.8976,33.2516],[35.897,33.2502],[35.897,33.2501],[35.8956,33.246],[35.8942,33.2427],[35.8931,33.2413],[35.892,33.24],[35.89,33.2406],[35.8873,33.2429],[35.8811,33.255],[35.8801,33.2583],[35.8796,33.2602],[35.8793,33.2645],[35.8796,33.2687],[35.8808,33.2747],[35.8829,33.2803],[35.8842,33.2831],[35.8852,33.2847],[35.8894,33.2902],[35.8943,33.2953],[35.8951,33.2969],[35.8953,33.2987],[35.8847,33.3046],[35.8432,33.3227],[35.843,33.3228],[35.8349,33.339],[35.8302,33.3515],[35.8302,33.3648],[35.8349,33.3781],[35.845,33.389],[35.8615,33.3991],[35.87,33.4069],[35.8731,33.4163],[35.8701,33.4312],[35.8885,33.4404],[35.9195,33.4624],[35.9354,33.4943],[35.9219,33.5146],[35.9332,33.5278],[35.9568,33.5342],[35.9803,33.5339],[35.9993,33.5413],[36.0198,33.5526],[36.0352,33.5678],[36.0385,33.5863],[36.0297,33.5976],[36.0129,33.608],[35.9945,33.6157],[35.9803,33.619],[35.9569,33.6299],[35.9348,33.6334],[35.9216,33.6403],[35.9254,33.6617],[35.9294,33.6651],[35.9424,33.6692],[35.9472,33.6731],[35.9499,33.6827],[35.947,33.7008],[35.9484,33.7092],[35.9559,33.7181],[35.9742,33.7322],[35.9803,33.7435],[35.994,33.7607],[36.0271,33.7843],[36.0405,33.8056],[36.0504,33.8164],[36.0665,33.822],[36.0851,33.8261],[36.1024,33.8323],[36.1383,33.8506],[36.1449,33.8474],[36.1576,33.8341],[36.1657,33.8298],[36.1866,33.8302],[36.2027,33.8383],[36.2166,33.8478],[36.2318,33.8525],[36.2492,33.8497],[36.3006,33.8287],[36.3383,33.8212],[36.3575,33.8238],[36.3696,33.837],[36.3676,33.8575],[36.3504,33.8664],[36.3111,33.872],[36.2816,33.8911],[36.2753,33.8972],[36.2689,33.9068],[36.2672,33.9104],[36.2886,33.9465],[36.3023,33.9644],[36.318,33.9805],[36.3578,34.0096],[36.3911,34.0447],[36.4122,34.0536],[36.4236,34.0528],[36.4451,34.0461]],[[36.3166,33.4607],[36.3201,33.473],[36.3431,33.4924],[36.3521,33.5144],[36.3501,33.5329],[36.3511,33.5439],[36.335,33.5621],[36.3071,33.5641],[36.2515,33.5503],[36.2216,33.5495],[36.1832,33.5315],[36.1907,33.5132],[36.2065,33.5149],[36.2303,33.5052],[36.209,33.4865],[36.2143,33.4764],[36.2368,33.4891],[36.2975,33.4635],[36.3166,33.4607]]]}},{"type":"Feature","properties":{"id":"SYR-135","name":"Tartus","nameBn":"টারটাস গভর্নোরেট","type":"Province","bounds":[35.8669,34.6279,36.3132,35.2615],"center":[36.0901,34.9274]},"geometry":{"type":"Polygon","coordinates":[[[36.0608,34.6279],[36.0379,34.6284],[36.0162,34.6336],[35.9988,34.6454],[35.9914,34.6482],[35.9826,34.6502],[35.9699,34.6498],[35.9657,34.6684],[35.9474,34.6995],[35.9409,34.7262],[35.9312,34.741],[35.929,34.7498],[35.929,34.7907],[35.926,34.7969],[35.9085,34.8218],[35.9046,34.8318],[35.8991,34.8528],[35.8669,34.9242],[35.8729,34.9269],[35.8735,34.9316],[35.8796,34.9381],[35.8814,34.945],[35.8796,34.9519],[35.8735,34.9583],[35.8735,34.9652],[35.8786,34.9695],[35.8789,34.9702],[35.8766,34.9717],[35.8735,34.9788],[35.8816,34.9929],[35.8874,35.0002],[35.8954,35.0068],[35.9006,35.0219],[35.8973,35.0366],[35.8914,35.05],[35.8879,35.0613],[35.8879,35.1092],[35.8942,35.1211],[35.9413,35.1806],[35.9624,35.1979],[35.9533,35.2248],[35.9312,35.2615],[35.9315,35.2614],[35.9743,35.2496],[35.9898,35.2415],[36.0186,35.2209],[36.0256,35.2195],[36.176,35.2292],[36.18,35.2304],[36.1873,35.2332],[36.2011,35.2401],[36.2145,35.239],[36.253,35.2234],[36.2536,35.2044],[36.2651,35.0865],[36.2652,35.0711],[36.257,35.0479],[36.2539,35.0422],[36.2504,35.0385],[36.2436,35.0346],[36.24,35.032],[36.2332,35.0254],[36.2293,35.0237],[36.2152,35.0227],[36.2112,35.0215],[36.205,35.0176],[36.2011,35.0164],[36.1921,35.0152],[36.1879,35.0142],[36.1843,35.0128],[36.1781,35.0087],[36.1749,35.007],[36.171,35.0063],[36.1667,35.0064],[36.1574,35.0079],[36.1473,35.0075],[36.1368,35.0022],[36.144,34.9753],[36.1907,34.9677],[36.2069,34.9671],[36.2454,34.9701],[36.2542,34.9685],[36.2601,34.9663],[36.2661,34.9539],[36.2702,34.9399],[36.2731,34.9336],[36.2751,34.9308],[36.279,34.9277],[36.3046,34.9127],[36.3094,34.9076],[36.3132,34.9009],[36.2948,34.8963],[36.2871,34.8936],[36.2838,34.8917],[36.2823,34.8906],[36.2796,34.8881],[36.2782,34.8853],[36.2765,34.8812],[36.2744,34.8724],[36.2737,34.868],[36.2736,34.8645],[36.2754,34.8549],[36.2756,34.8483],[36.2753,34.8462],[36.2734,34.8432],[36.2702,34.8398],[36.2442,34.8212],[36.2286,34.8047],[36.2244,34.8012],[36.221,34.7991],[36.2145,34.7977],[36.2126,34.7969],[36.2111,34.7959],[36.2097,34.7947],[36.1865,34.7687],[36.1182,34.6668],[36.1161,34.66],[36.1145,34.6401],[36.1122,34.6298],[36.1121,34.6295],[36.0872,34.631],[36.0608,34.6279]]]}},{"type":"Feature","properties":{"id":"SYR-5261","name":"UNDOF","nameBn":"আনডফ","type":null,"bounds":[35.7576,32.7443,35.9238,33.4312],"center":[35.8621,33.1509]},"geometry":{"type":"Polygon","coordinates":[[[35.7576,32.7443],[35.7842,32.7779],[35.8342,32.8279],[35.8419,32.8536],[35.8381,32.866],[35.8497,32.8958],[35.8669,32.9208],[35.874,32.9223],[35.8881,32.9449],[35.8646,32.9777],[35.859,32.9902],[35.8458,33.0854],[35.8489,33.0987],[35.8115,33.1119],[35.8115,33.1268],[35.8224,33.1416],[35.8334,33.1611],[35.8302,33.19],[35.8077,33.2017],[35.8036,33.2485],[35.7756,33.2649],[35.7686,33.2727],[35.8021,33.3125],[35.7638,33.3344],[35.7858,33.3429],[35.7935,33.3499],[35.8099,33.36],[35.8123,33.3734],[35.8154,33.3789],[35.817,33.3952],[35.8224,33.4014],[35.8211,33.4067],[35.8451,33.4187],[35.8701,33.4312],[35.8731,33.4163],[35.87,33.4069],[35.8615,33.3991],[35.845,33.389],[35.8349,33.3781],[35.8302,33.3648],[35.8302,33.3515],[35.8349,33.339],[35.843,33.3228],[35.8434,33.3219],[35.8458,33.3133],[35.845,33.3039],[35.8404,33.2954],[35.8334,33.2906],[35.8264,33.2883],[35.8217,33.286],[35.8193,33.2844],[35.8202,33.2806],[35.8264,33.2798],[35.8358,33.279],[35.8458,33.279],[35.8513,33.2758],[35.8537,33.2727],[35.8544,33.2688],[35.8615,33.2376],[35.8662,33.226],[35.8747,33.2158],[35.8856,33.204],[35.8888,33.1986],[35.8888,33.1946],[35.8825,33.1892],[35.8825,33.1846],[35.8849,33.1791],[35.8881,33.1768],[35.8903,33.1768],[35.8965,33.1806],[35.9004,33.1798],[35.906,33.1768],[35.9075,33.1713],[35.9113,33.1658],[35.9113,33.1494],[35.9113,33.1393],[35.9106,33.1354],[35.906,33.1331],[35.9004,33.1307],[35.8949,33.1283],[35.8919,33.1244],[35.8934,33.1205],[35.8973,33.1166],[35.9027,33.1166],[35.9027,33.1096],[35.8903,33.1096],[35.8684,33.1073],[35.8646,33.0815],[35.8771,32.9926],[35.8981,32.9855],[35.9238,32.9677],[35.9122,32.9473],[35.8903,32.9286],[35.8607,32.8802],[35.8466,32.8365],[35.8468,32.8358],[35.8482,32.8303],[35.8427,32.8217],[35.8217,32.7959],[35.8154,32.7865],[35.8077,32.7826],[35.7911,32.7741],[35.7697,32.7481],[35.7638,32.747],[35.7576,32.7443]]]}}]}