{"type":"FeatureCollection","features":[{"type":"Feature","properties":{"id":"TCA-5007","name":"Grand Turk","nameBn":"গ্র্যান্ড টুর্ক","type":null,"bounds":[-71.1517,21.4316,-71.1289,21.5136],"center":[-71.137,21.4725]},"geometry":{"type":"Polygon","coordinates":[[[-71.1381,21.5136],[-71.1304,21.4981],[-71.1289,21.4722],[-71.1336,21.4465],[-71.1449,21.4316],[-71.1517,21.4506],[-71.151,21.4728],[-71.1455,21.4951],[-71.1381,21.5136]]]}},{"type":"Feature","properties":{"id":"TCA-5003","name":"Middle Caicos","nameBn":"মিডল কাইকোস","type":null,"bounds":[-71.8507,21.7439,-71.6309,21.8563],"center":[-71.7669,21.8196]},"geometry":{"type":"Polygon","coordinates":[[[-71.8028,21.7879],[-71.8277,21.7858],[-71.8355,21.7915],[-71.8444,21.8078],[-71.848,21.8194],[-71.8507,21.8563],[-71.8424,21.8556],[-71.8338,21.8538],[-71.8258,21.8508],[-71.8094,21.84],[-71.7999,21.8399],[-71.7908,21.8422],[-71.7817,21.8432],[-71.7203,21.8358],[-71.6918,21.8412],[-71.6788,21.8419],[-71.6656,21.8358],[-71.6552,21.8232],[-71.6309,21.7743],[-71.6481,21.7796],[-71.659,21.7935],[-71.6681,21.8098],[-71.6793,21.8221],[-71.6712,21.7997],[-71.6524,21.765],[-71.6452,21.7464],[-71.6586,21.7439],[-71.6685,21.7504],[-71.6861,21.7743],[-71.692,21.7641],[-71.6936,21.76],[-71.6998,21.76],[-71.7154,21.7873],[-71.7411,21.7949],[-71.8028,21.7879]]]}},{"type":"Feature","properties":{"id":"TCA-5004","name":"North Caicos","nameBn":"নর্থ কাইকস","type":null,"bounds":[-72.0362,21.8283,-71.8574,21.9592],"center":[-71.9298,21.8916]},"geometry":{"type":"Polygon","coordinates":[[[-72.022,21.9046],[-72.0261,21.914],[-72.0245,21.9238],[-72.025,21.9326],[-72.0362,21.9388],[-72.0318,21.9465],[-72.0255,21.9526],[-72.0174,21.9569],[-72.0083,21.9592],[-71.9499,21.9592],[-71.944,21.9581],[-71.9305,21.9529],[-71.9227,21.9518],[-71.911,21.9484],[-71.9088,21.9405],[-71.9121,21.9251],[-71.9034,21.8665],[-71.8886,21.8462],[-71.8574,21.8432],[-71.8773,21.8283],[-71.8946,21.8322],[-71.9097,21.8432],[-71.9227,21.8494],[-71.9311,21.8519],[-71.943,21.8581],[-71.9543,21.8669],[-71.9605,21.8767],[-71.9592,21.8898],[-71.9438,21.9132],[-71.94,21.9251],[-71.9476,21.9425],[-71.964,21.9334],[-71.9879,21.9078],[-71.9919,21.8999],[-72.0016,21.8978],[-72.013,21.8999],[-72.022,21.9046]]]}},{"type":"Feature","properties":{"id":"TCA-5005","name":"Providenciales and West Caicos","nameBn":"প্রভিডেন্সিয়ালস অ্যান্ড ওয়েস্ট কোস্ট","type":null,"bounds":[-72.4813,21.6303,-72.087,21.8854],"center":[-72.2861,21.7987]},"geometry":{"type":"MultiPolygon","coordinates":[[[[-72.4608,21.7054],[-72.4334,21.7092],[-72.4333,21.6801],[-72.452,21.645],[-72.4813,21.6303],[-72.4813,21.6365],[-72.4702,21.6469],[-72.4634,21.6649],[-72.4604,21.686],[-72.4608,21.7054]]],[[[-72.3372,21.801],[-72.3402,21.814],[-72.3297,21.8454],[-72.3304,21.8625],[-72.3079,21.8522],[-72.245,21.7979],[-72.2318,21.7934],[-72.2121,21.7934],[-72.1927,21.7966],[-72.1796,21.801],[-72.1653,21.8139],[-72.1571,21.8245],[-72.1463,21.8271],[-72.1244,21.8153],[-72.1244,21.8078],[-72.151,21.7838],[-72.1591,21.7743],[-72.1643,21.7888],[-72.1653,21.7948],[-72.1933,21.7812],[-72.1895,21.7799],[-72.1861,21.7792],[-72.1829,21.7778],[-72.1796,21.7743],[-72.1944,21.7669],[-72.2197,21.7703],[-72.2342,21.7668],[-72.2342,21.7812],[-72.2738,21.7514],[-72.2919,21.7489],[-72.3031,21.7743],[-72.2969,21.7743],[-72.2907,21.7658],[-72.2812,21.7615],[-72.2742,21.7636],[-72.2751,21.7743],[-72.2812,21.7796],[-72.3162,21.7948],[-72.3129,21.7812],[-72.3154,21.7708],[-72.3236,21.7638],[-72.3372,21.76],[-72.3395,21.7667],[-72.34,21.7712],[-72.3392,21.7755],[-72.3372,21.7812],[-72.3356,21.7768],[-72.3352,21.7762],[-72.3341,21.7762],[-72.3304,21.7743],[-72.3265,21.7874],[-72.314,21.8091],[-72.3099,21.8221],[-72.3314,21.8066],[-72.3372,21.801]]],[[[-72.1249,21.8546],[-72.1195,21.8579],[-72.1163,21.8537],[-72.1244,21.8469],[-72.133,21.8476],[-72.1249,21.8546]]],[[[-72.0948,21.8825],[-72.0895,21.8854],[-72.087,21.8809],[-72.0871,21.8727],[-72.093,21.8672],[-72.0997,21.8646],[-72.1016,21.8716],[-72.0948,21.8825]]]]}},{"type":"Feature","properties":{"id":"TCA-5008","name":"Salt Cay","nameBn":"সল্ট কে","type":null,"bounds":[-71.2192,21.3106,-71.1925,21.3414],"center":[-71.2072,21.3295]},"geometry":{"type":"Polygon","coordinates":[[[-71.2098,21.3414],[-71.2001,21.3411],[-71.1925,21.335],[-71.2012,21.3231],[-71.2137,21.3106],[-71.2192,21.3144],[-71.2143,21.3328],[-71.2098,21.3414]]]}},{"type":"Feature","properties":{"id":"TCA-5006","name":"South Caicos and East Caicos","nameBn":"দক্ষিণ কাইকোস এবং পূর্ব কাইকোস","type":null,"bounds":[-71.6991,21.2901,-71.4519,21.7668],"center":[-71.4782,21.7034]},"geometry":{"type":"MultiPolygon","coordinates":[[[[-71.508,21.7054],[-71.5289,21.7174],[-71.5732,21.7353],[-71.5906,21.7538],[-71.5859,21.7568],[-71.5818,21.7584],[-71.5785,21.7609],[-71.5763,21.7668],[-71.5431,21.7465],[-71.5255,21.7398],[-71.5011,21.7333],[-71.4809,21.7255],[-71.4618,21.7108],[-71.4519,21.6902],[-71.4596,21.6645],[-71.4713,21.6622],[-71.4853,21.6754],[-71.508,21.7054]]],[[[-71.6878,21.2998],[-71.6803,21.3044],[-71.6741,21.3065],[-71.6786,21.2989],[-71.6959,21.2901],[-71.6991,21.2919],[-71.6878,21.2998]]],[[[-71.6343,21.3188],[-71.6288,21.3244],[-71.6282,21.3102],[-71.6347,21.2945],[-71.6409,21.303],[-71.6343,21.3188]]],[[[-71.4983,21.5694],[-71.4962,21.5634],[-71.4972,21.5303],[-71.4963,21.5074],[-71.5043,21.494],[-71.521,21.4893],[-71.5376,21.4995],[-71.5397,21.5165],[-71.5278,21.5243],[-71.5157,21.5227],[-71.5089,21.5278],[-71.5088,21.5517],[-71.5016,21.5691],[-71.4983,21.5694]]]]}}]}