{"type":"FeatureCollection","features":[{"type":"Feature","properties":{"id":"TCD-5581","name":"Barh El Gazel","nameBn":"বার এল গাজেল অঞ্চল","type":"Prefecture","bounds":[15.5905,13.0476,17.9929,16.3419],"center":[16.9496,14.5304]},"geometry":{"type":"Polygon","coordinates":[[[15.8836,13.1879],[15.897,13.2268],[15.8999,13.2505],[15.8984,13.5215],[15.8965,13.5355],[15.8909,13.5438],[15.8698,13.5653],[15.8605,13.5768],[15.8582,13.5812],[15.8534,13.5954],[15.8507,13.609],[15.8402,13.6426],[15.84,13.6501],[15.8416,13.6565],[15.8599,13.6882],[15.865,13.7009],[15.8653,13.7072],[15.8614,13.7303],[15.8574,13.7451],[15.8526,13.7569],[15.8473,13.7622],[15.8418,13.7658],[15.8198,13.7731],[15.7963,13.7787],[15.7755,13.7865],[15.7641,13.7896],[15.7582,13.7902],[15.7524,13.7895],[15.7485,13.7867],[15.7261,13.76],[15.722,13.757],[15.7162,13.7549],[15.6007,13.7539],[15.5905,14.0767],[15.7743,14.1482],[16.05,14.475],[16.1113,14.5771],[16.1317,14.812],[16.2644,15.2613],[16.4891,16.0374],[16.6714,16.3419],[17.8428,15.7925],[17.8553,15.7846],[17.8635,15.7764],[17.9091,15.708],[17.9929,15.6164],[17.5514,13.8201],[17.2496,13.7277],[17.2382,13.7206],[17.2325,13.7093],[17.2291,13.6965],[17.1978,13.5107],[17.197,13.5006],[17.2038,13.2708],[17.2021,13.251],[17.1956,13.2353],[17.1317,13.144],[17.0597,13.1706],[17.0058,13.1823],[16.9973,13.1821],[16.9937,13.1796],[16.9799,13.1657],[16.974,13.1629],[16.9663,13.1605],[16.9089,13.1525],[16.8977,13.1498],[16.8801,13.1432],[16.8719,13.143],[16.8473,13.1473],[16.8388,13.1512],[16.8241,13.1598],[16.8187,13.1595],[16.8108,13.1569],[16.8012,13.1525],[16.7807,13.147],[16.7707,13.1432],[16.7635,13.1396],[16.7484,13.1261],[16.74,13.1206],[16.731,13.1161],[16.7194,13.113],[16.4894,13.0816],[16.4807,13.0763],[16.4727,13.0704],[16.4618,13.059],[16.4564,13.0552],[16.4478,13.051],[16.441,13.0503],[16.4349,13.0513],[16.4242,13.055],[16.4098,13.0618],[16.3967,13.0646],[16.3729,13.0661],[16.3617,13.0692],[16.3249,13.0744],[16.3148,13.0743],[16.3071,13.0732],[16.2913,13.0679],[16.2715,13.0584],[16.2567,13.0535],[16.2469,13.052],[16.0,13.0476],[15.9868,13.0515],[15.9702,13.1135],[15.9653,13.122],[15.8836,13.1879]]]}},{"type":"Feature","properties":{"id":"TCD-1472","name":"Batha","nameBn":"বাথা অঞ্চল","type":"Prefecture","bounds":[16.9396,12.1556,20.3048,16.182],"center":[18.6222,14.0823]},"geometry":{"type":"Polygon","coordinates":[[[17.1317,13.144],[17.1956,13.2353],[17.2021,13.251],[17.2038,13.2708],[17.197,13.5006],[17.1978,13.5107],[17.2291,13.6965],[17.2325,13.7093],[17.2382,13.7206],[17.2496,13.7277],[17.5514,13.8201],[17.9929,15.6164],[18.0849,15.5317],[18.209,15.4572],[18.2706,15.4315],[18.48,15.3839],[18.5628,15.3845],[18.5922,15.3905],[18.7912,15.4505],[18.8924,15.4951],[18.9354,15.522],[19.047,15.6147],[19.1007,15.6749],[19.1304,15.7307],[19.2074,15.9401],[19.2096,15.9523],[19.2192,16.0729],[19.215,16.1733],[19.2164,16.1787],[19.2208,16.1818],[19.2277,16.182],[19.2378,16.1792],[19.2535,16.165],[19.26,16.1611],[19.2706,16.1605],[19.2895,16.1643],[19.2957,16.1645],[19.3083,16.1628],[19.3424,16.1528],[19.3494,16.1494],[19.3571,16.1442],[19.3694,16.1335],[19.3755,16.1268],[19.3794,16.1205],[19.3845,16.099],[19.3975,16.0058],[19.3992,16.0002],[19.4015,15.9951],[19.4098,15.9826],[19.4234,15.9681],[19.555,15.8864],[19.5716,15.88],[19.6503,15.8669],[19.7724,15.8306],[19.8112,15.8128],[19.8638,15.7987],[20.0001,15.7838],[20.0001,14.156],[20.0001,14.0106],[20.2249,13.8993],[20.235,13.8925],[20.2385,13.8862],[20.2317,13.6698],[20.237,13.6465],[20.2449,13.6268],[20.2806,13.5722],[20.2832,13.5632],[20.2815,13.4027],[20.3048,13.2232],[20.3043,13.1183],[20.3009,13.1069],[20.2946,13.0923],[20.268,13.0509],[20.2604,13.0435],[20.2557,13.0412],[20.2454,13.0379],[19.9876,12.986],[19.9806,12.9827],[19.9823,12.9779],[19.9903,12.9706],[19.7057,13.0556],[19.4709,12.9535],[19.1672,12.7765],[19.1126,12.7517],[19.0962,12.7487],[19.0814,12.7479],[18.4727,12.7706],[18.4554,12.7686],[18.4353,12.7638],[18.0753,12.5697],[18.0461,12.5498],[18.0002,12.4938],[17.9867,12.4824],[17.9738,12.479],[17.8602,12.4682],[17.8437,12.4642],[17.8259,12.4572],[17.5647,12.2363],[17.5454,12.2089],[17.5601,12.1556],[17.5519,12.1586],[17.5434,12.163],[17.5393,12.1661],[17.5308,12.1718],[17.5255,12.1737],[17.5198,12.1752],[17.4983,12.1774],[17.4934,12.1786],[17.4887,12.1805],[17.4807,12.1866],[17.4762,12.1889],[17.4706,12.1901],[17.4647,12.19],[17.4589,12.1889],[17.4484,12.186],[17.4426,12.1849],[17.4366,12.1846],[17.4245,12.1855],[17.4124,12.1876],[17.4069,12.1894],[17.4021,12.1917],[17.3982,12.195],[17.3844,12.2091],[17.382,12.2143],[17.3803,12.2212],[17.3815,12.2487],[17.3806,12.2562],[17.3775,12.2634],[17.3705,12.2732],[17.3607,12.2829],[17.3575,12.2878],[17.3511,12.3037],[17.3477,12.3098],[17.3442,12.3142],[17.3405,12.3169],[17.3159,12.3256],[17.3115,12.3282],[17.308,12.3316],[17.2895,12.3547],[17.2853,12.3688],[17.2599,12.4938],[17.2595,12.5064],[17.2575,12.5155],[17.2507,12.5259],[17.2442,12.5301],[17.2373,12.5324],[17.2308,12.5326],[17.2181,12.5315],[17.2117,12.5318],[17.2062,12.5332],[17.2012,12.5355],[17.1972,12.5385],[17.1936,12.5424],[17.1856,12.5529],[17.1774,12.5604],[17.1729,12.566],[17.1686,12.5739],[17.1596,12.5979],[17.156,12.6042],[17.1522,12.6073],[17.1475,12.6097],[17.1373,12.6136],[17.1328,12.6164],[17.1287,12.6195],[17.1253,12.6231],[17.1223,12.6271],[17.1158,12.6391],[17.1022,12.6749],[17.0859,12.7397],[17.0819,12.7492],[17.0389,12.8299],[17.0322,12.8373],[17.0018,12.8614],[16.9782,12.8751],[16.947,12.9],[16.9436,12.9037],[16.9411,12.9084],[16.9396,12.914],[16.9399,12.922],[16.9413,12.9281],[16.9436,12.9334],[16.9698,12.9706],[17.0587,13.0538],[17.0727,13.064],[17.0882,13.081],[17.1317,13.144]]]}},{"type":"Feature","properties":{"id":"TCD-5577","name":"Borkou","nameBn":"বুরকু অঞ্চল","type":"Préfecture","bounds":[15.4685,15.3839,20.8933,21.9968],"center":[19.4819,18.8249]},"geometry":{"type":"Polygon","coordinates":[[[19.1858,21.8642],[19.2876,21.8139],[19.4111,21.7529],[19.5347,21.6919],[19.6583,21.6309],[19.7817,21.5699],[19.9053,21.5089],[20.0288,21.4479],[20.1523,21.3869],[20.2758,21.3259],[20.3994,21.265],[20.5228,21.2039],[20.6464,21.1429],[20.7699,21.082],[20.8933,21.0209],[20.0043,19.2795],[20.1526,18.6864],[20.4244,17.9697],[20.4244,17.6237],[20.3997,17.1788],[20.3009,16.7587],[20.548,16.0667],[20.637,15.8437],[20.4835,15.7116],[20.3926,15.6999],[20.3531,15.6827],[20.3043,15.6695],[20.2983,15.6688],[20.2918,15.669],[20.2778,15.6737],[20.1828,15.7177],[20.133,15.7534],[20.1129,15.7641],[20.0803,15.7734],[20.0001,15.7838],[19.8638,15.7987],[19.8112,15.8128],[19.7724,15.8306],[19.6503,15.8669],[19.5716,15.88],[19.555,15.8864],[19.4234,15.9681],[19.4098,15.9826],[19.4015,15.9951],[19.3992,16.0002],[19.3975,16.0058],[19.3845,16.099],[19.3794,16.1205],[19.3755,16.1268],[19.3694,16.1335],[19.3571,16.1442],[19.3494,16.1494],[19.3424,16.1528],[19.3083,16.1628],[19.2957,16.1645],[19.2895,16.1643],[19.2706,16.1605],[19.26,16.1611],[19.2535,16.165],[19.2378,16.1792],[19.2277,16.182],[19.2208,16.1818],[19.2164,16.1787],[19.215,16.1733],[19.2192,16.0729],[19.2096,15.9523],[19.2074,15.9401],[19.1304,15.7307],[19.1007,15.6749],[19.047,15.6147],[18.9354,15.522],[18.8924,15.4951],[18.7912,15.4505],[18.5922,15.3905],[18.5628,15.3845],[18.48,15.3839],[18.2706,15.4315],[18.209,15.4572],[18.0849,15.5317],[17.9929,15.6164],[17.9091,15.708],[17.8635,15.7764],[17.8553,15.7846],[17.8428,15.7925],[16.6714,16.3419],[15.4853,16.8981],[15.4685,16.9049],[15.472,16.9167],[15.4741,16.9421],[15.4783,16.9877],[15.4823,17.0333],[15.4862,17.0789],[15.4902,17.1245],[16.2714,18.4999],[16.8179,19.4622],[17.3598,20.4164],[17.4093,20.6882],[17.7058,20.6882],[17.8294,20.713],[17.953,20.8365],[18.1507,20.9354],[18.5214,21.059],[18.7438,21.1331],[18.7686,21.3555],[18.7438,21.6027],[18.7191,21.8498],[18.9171,21.9968],[19.0407,21.9359],[19.1641,21.8749],[19.1858,21.8642]]]}},{"type":"Feature","properties":{"id":"TCD-5580","name":"Chari-Baguirmi","nameBn":"চারি-বাগুরমি অঞ্চল","type":"Prefecture","bounds":[14.8948,9.8148,17.5337,12.4633],"center":[16.2095,11.468]},"geometry":{"type":"Polygon","coordinates":[[[14.9648,12.0924],[14.9507,12.1033],[14.9287,12.1286],[14.9031,12.1459],[14.898,12.1528],[14.8948,12.1674],[14.8999,12.1718],[14.9074,12.1735],[14.9116,12.1801],[14.9101,12.1904],[14.9059,12.1956],[14.9009,12.2],[14.898,12.2075],[14.898,12.2195],[14.9031,12.2363],[14.9049,12.2484],[14.9049,12.2487],[14.9049,12.2487],[14.9982,12.2591],[15.0697,12.2591],[15.1616,12.2795],[15.2637,12.2999],[15.3045,12.3408],[15.3658,12.3305],[15.4066,12.2795],[15.4986,12.2693],[15.5496,12.3101],[15.713,12.351],[15.8764,12.3408],[15.9785,12.3714],[16.0602,12.4633],[16.5197,12.2897],[16.6423,12.2284],[16.6729,12.1161],[16.6729,12.0038],[16.7239,11.9425],[16.775,11.8812],[16.7852,11.7383],[16.8363,11.6974],[16.918,11.6974],[16.9895,11.6872],[17.0609,11.6259],[17.1222,11.5647],[17.2652,11.4932],[17.255,11.2379],[17.2958,10.9724],[17.3162,10.7477],[17.2958,10.5844],[17.5337,10.4637],[17.3295,9.8158],[17.3146,9.8148],[17.307,9.8157],[17.2979,9.8183],[17.2839,9.8247],[17.2698,9.8293],[17.2564,9.8307],[17.2416,9.8289],[17.2351,9.8294],[17.2276,9.8319],[17.2183,9.8391],[17.1992,9.8509],[17.1639,9.8681],[17.1562,9.8743],[17.1534,9.8783],[17.1508,9.8826],[17.1381,9.9107],[17.1348,9.9143],[17.1301,9.917],[17.1246,9.9185],[17.1163,9.9178],[17.1044,9.9144],[17.1,9.9141],[17.096,9.9161],[17.0937,9.9209],[17.0833,9.926],[17.0654,9.9315],[17.029,9.939],[16.9999,9.9416],[16.9942,9.9406],[16.9439,9.9372],[16.9369,9.9385],[16.9301,9.9419],[16.9225,9.9508],[16.9154,9.9694],[16.9117,9.9726],[16.8984,9.9805],[16.8908,9.9869],[16.8854,9.9948],[16.8828,9.9979],[16.8798,10.0001],[16.8501,10.0002],[16.8303,10.0044],[16.8216,10.0077],[16.8043,10.019],[16.7956,10.0224],[16.769,10.025],[16.7537,10.0236],[16.7472,10.0239],[16.7399,10.0265],[16.7304,10.0332],[16.7254,10.0386],[16.7219,10.0438],[16.7177,10.0485],[16.7115,10.0528],[16.6441,10.0859],[16.6362,10.0921],[16.633,10.0956],[16.6302,10.0996],[16.6279,10.1042],[16.6229,10.1262],[16.6207,10.1308],[16.61,10.141],[16.6078,10.1454],[16.6069,10.1512],[16.6089,10.1769],[16.6081,10.2026],[16.607,10.2082],[16.605,10.2131],[16.6021,10.2171],[16.5987,10.2205],[16.587,10.2298],[16.5838,10.2334],[16.581,10.2375],[16.5787,10.2421],[16.5759,10.2461],[16.5726,10.2498],[16.5681,10.2517],[16.5622,10.2508],[16.5007,10.2041],[16.4402,10.1929],[16.2194,10.1959],[16.1963,10.2119],[16.1895,10.2236],[16.1861,10.2409],[16.1816,10.2557],[16.1774,10.263],[16.173,10.2681],[16.1687,10.2709],[16.1532,10.2792],[16.1463,10.2842],[16.1352,10.2938],[16.1299,10.3026],[16.1265,10.315],[16.1085,10.446],[16.1392,10.7344],[16.1377,10.7388],[16.134,10.7465],[16.1007,10.7628],[16.0748,10.7673],[16.0633,10.7512],[16.0541,10.7545],[16.0012,10.7894],[15.9829,10.7878],[15.9449,10.7781],[15.9218,10.7758],[15.8833,10.7797],[15.8029,10.7993],[15.7651,10.8031],[15.7456,10.8112],[15.6859,10.872],[15.6654,10.8888],[15.6495,10.8966],[15.6323,10.8988],[15.6077,10.8987],[15.5915,10.9013],[15.5747,10.9081],[15.5596,10.9169],[15.5487,10.9259],[15.5328,10.953],[15.5245,10.9713],[15.5208,10.9843],[15.5193,11.0036],[15.5139,11.01],[15.5034,11.0113],[15.4867,11.0153],[15.471,11.023],[15.453,11.0352],[15.4383,11.0503],[15.4321,11.0669],[15.4321,11.1163],[15.422,11.124],[15.4131,11.1269],[15.4056,11.1305],[15.3706,11.1559],[15.3528,11.1661],[15.3429,11.1704],[15.2963,11.1813],[15.2432,11.186],[15.2369,11.1858],[15.2313,11.1845],[15.2266,11.1822],[15.2229,11.179],[15.2164,11.1715],[15.2126,11.1683],[15.2046,11.1626],[15.183,11.1415],[15.1506,11.1179],[15.1368,11.111],[15.1171,11.1032],[15.0288,11.0802],[15.0212,11.1825],[15.0283,11.2445],[15.0333,11.2603],[15.0564,11.2934],[15.0631,11.3099],[15.0623,11.32],[15.0578,11.3254],[15.0525,11.3298],[15.0494,11.3373],[15.0494,11.3487],[15.0543,11.3641],[15.0606,11.4161],[15.067,11.4356],[15.0761,11.4533],[15.1223,11.5032],[15.1356,11.5308],[15.1239,11.5632],[15.0958,11.5982],[15.0852,11.6159],[15.0694,11.6608],[15.0665,11.6806],[15.0683,11.7001],[15.0761,11.7215],[15.0798,11.7226],[15.0863,11.7222],[15.0931,11.7229],[15.0972,11.7277],[15.096,11.7341],[15.0853,11.744],[15.0836,11.7482],[15.0891,11.7576],[15.1054,11.7727],[15.1109,11.7829],[15.0863,11.8405],[15.0798,11.8512],[15.0628,11.8535],[15.051,11.8616],[15.0442,11.8773],[15.042,11.9024],[15.047,11.9102],[15.0566,11.9184],[15.0634,11.9273],[15.0594,11.9368],[15.0555,11.9425],[15.0506,11.9529],[15.0483,11.9628],[15.0525,11.9672],[15.0812,11.9717],[15.0768,11.9828],[15.0597,11.9973],[15.0494,12.0119],[15.0512,12.0242],[15.0537,12.0319],[15.0531,12.038],[15.0457,12.0461],[15.0406,12.0556],[15.069,12.0582],[15.0885,12.0615],[15.1047,12.0712],[15.1225,12.0906],[15.1253,12.1136],[15.1188,12.1346],[15.1075,12.1541],[15.0889,12.1679],[15.0743,12.1793],[15.05,12.1809],[15.0362,12.1745],[15.0216,12.1551],[15.0135,12.134],[15.0118,12.1086],[14.9938,12.1067],[14.9768,12.0941],[14.9648,12.0924]]]}},{"type":"Feature","properties":{"id":"TCD-5579","name":"Ennedi","nameBn":"ইন্নেডি অঞ্চল","type":"Préfecture","bounds":[20.0043,15.6813,23.9844,21.0209],"center":[22.1045,18.1286]},"geometry":{"type":"Polygon","coordinates":[[[20.8933,21.0209],[21.0169,20.96],[21.1403,20.899],[21.264,20.838],[21.3875,20.777],[21.511,20.716],[21.6345,20.655],[21.7581,20.594],[21.8815,20.5331],[22.0051,20.472],[22.1286,20.4111],[22.2521,20.3501],[22.3756,20.2891],[22.4991,20.2281],[22.6226,20.1671],[22.7461,20.1061],[22.8696,20.0451],[22.9931,19.9841],[23.1168,19.9232],[23.2402,19.8621],[23.3638,19.8012],[23.4873,19.7402],[23.6108,19.6791],[23.7343,19.6181],[23.8578,19.5572],[23.9813,19.4961],[23.9815,19.2638],[23.9817,19.0316],[23.9819,18.7993],[23.9821,18.567],[23.9822,18.3348],[23.9824,18.1025],[23.9828,17.8702],[23.9829,17.6379],[23.9831,17.4057],[23.9833,17.1734],[23.9835,16.9411],[23.9837,16.7088],[23.9838,16.4765],[23.984,16.2442],[23.9843,16.0119],[23.9844,15.7797],[23.9844,15.7219],[23.9844,15.7212],[23.9726,15.6911],[23.9455,15.6922],[23.8291,15.731],[23.7075,15.7489],[23.5927,15.749],[23.5271,15.7352],[23.3958,15.6883],[23.3206,15.6813],[23.1668,15.7129],[23.1192,15.7072],[23.1191,15.7075],[23.1181,15.7104],[23.0696,15.7848],[23.0662,15.7884],[23.0622,15.7915],[23.0575,15.794],[22.9976,15.8165],[22.9742,15.8212],[22.9663,15.8216],[22.9572,15.8209],[22.9438,15.8179],[22.936,15.8153],[22.9157,15.8061],[22.8949,15.7992],[22.8834,15.7973],[22.8755,15.7975],[22.8665,15.7986],[22.8531,15.8026],[22.8455,15.8058],[22.8395,15.809],[22.8346,15.8112],[22.8091,15.8146],[22.8035,15.8165],[22.7986,15.8187],[22.7785,15.8342],[22.774,15.837],[22.7675,15.8385],[22.7593,15.8384],[22.7466,15.8352],[22.7275,15.8283],[22.7193,15.8278],[22.6906,15.8302],[22.6691,15.8298],[22.6339,15.8243],[22.6035,15.8226],[22.592,15.8206],[22.5868,15.8189],[22.5731,15.8117],[22.5675,15.8101],[22.5608,15.8096],[22.5509,15.8124],[22.5445,15.8152],[22.5405,15.8193],[22.5383,15.8239],[22.5366,15.8289],[22.5342,15.8333],[22.5304,15.8367],[22.5258,15.8393],[22.5218,15.8424],[22.5191,15.8468],[22.5156,15.8568],[22.5134,15.8613],[22.51,15.8648],[22.5054,15.8667],[22.4978,15.8692],[22.494,15.8714],[22.4902,15.8743],[22.4868,15.8779],[22.4842,15.8821],[22.4786,15.898],[22.475,15.9049],[22.4707,15.9089],[22.4316,15.922],[22.4186,15.9239],[22.3967,15.9315],[22.3922,15.9342],[22.3881,15.9373],[22.381,15.9441],[22.3767,15.947],[22.3709,15.9484],[22.363,15.9487],[22.356,15.9482],[22.3477,15.9436],[22.3372,15.9366],[22.3326,15.9343],[22.3172,15.929],[22.3118,15.9276],[22.3042,15.9269],[22.2949,15.927],[22.2797,15.9292],[22.271,15.9314],[22.2589,15.9359],[22.2493,15.9407],[22.2089,15.9716],[22.1813,15.9984],[22.1795,15.9997],[22.1771,15.9998],[22.1733,15.9988],[22.1664,15.9942],[22.1543,15.9823],[22.1496,15.98],[22.1442,15.9789],[22.1182,15.986],[22.0927,15.9904],[22.0609,15.991],[22.0182,15.986],[21.991,15.9778],[21.9679,15.9648],[21.922,15.9457],[21.916,15.9445],[21.9085,15.9446],[21.8904,15.9494],[21.8446,15.9705],[21.7626,15.9982],[21.7575,15.9994],[21.7419,16.0007],[21.7318,15.9999],[21.6951,15.9921],[21.6433,15.976],[21.3888,15.9238],[21.3781,15.9206],[21.3193,15.889],[21.3126,15.8879],[21.3049,15.8879],[21.2934,15.8901],[21.1823,15.936],[21.1116,15.9801],[21.1022,15.9847],[21.0966,15.9852],[21.0915,15.9838],[21.0769,15.9752],[21.0532,15.955],[21.0353,15.945],[20.9768,15.9288],[20.9587,15.9187],[20.9506,15.9128],[20.9435,15.9057],[20.9406,15.9017],[20.9228,15.8695],[20.9104,15.8536],[20.8963,15.8394],[20.8329,15.7994],[20.6603,15.737],[20.6251,15.7177],[20.597,15.6972],[20.5874,15.6928],[20.5672,15.6855],[20.5584,15.6855],[20.5467,15.6873],[20.5244,15.6948],[20.5064,15.7031],[20.4971,15.7091],[20.4916,15.7109],[20.4835,15.7116],[20.637,15.8437],[20.548,16.0667],[20.3009,16.7587],[20.3997,17.1788],[20.4244,17.6237],[20.4244,17.9697],[20.1526,18.6864],[20.0043,19.2795],[20.8933,21.0209]]]}},{"type":"Feature","properties":{"id":"TCD-1474","name":"Guéra","nameBn":"গোয়েরা অঞ্চল","type":"Prefecture","bounds":[17.255,9.8667,20.1749,13.0556],"center":[18.0946,11.3122]},"geometry":{"type":"Polygon","coordinates":[[[17.2652,11.4932],[17.4592,11.6668],[17.6256,11.7151],[17.5237,11.9151],[17.5171,11.9328],[17.5173,11.9479],[17.5199,11.9623],[17.5674,12.1291],[17.5601,12.1556],[17.5454,12.2089],[17.5647,12.2363],[17.8259,12.4572],[17.8437,12.4642],[17.8602,12.4682],[17.9738,12.479],[17.9867,12.4824],[18.0002,12.4938],[18.0461,12.5498],[18.0753,12.5697],[18.4353,12.7638],[18.4554,12.7686],[18.4727,12.7706],[19.0814,12.7479],[19.0962,12.7487],[19.1126,12.7517],[19.1672,12.7765],[19.4709,12.9535],[19.7057,13.0556],[19.9903,12.9706],[20.1364,12.8605],[20.1415,12.8581],[20.1463,12.8588],[20.1555,12.862],[20.16,12.8627],[20.1638,12.8607],[20.1675,12.858],[20.1707,12.8544],[20.1732,12.8485],[20.1746,12.8407],[20.1731,12.8261],[20.1749,12.8043],[20.1734,12.7965],[20.1695,12.7879],[20.159,12.7756],[20.1514,12.7718],[20.1442,12.771],[20.1384,12.7725],[20.133,12.7733],[20.1277,12.7725],[20.1225,12.7679],[20.055,12.68],[20.0486,12.6685],[20.0485,12.6602],[20.0502,12.6545],[20.0561,12.6463],[20.0878,12.6151],[20.0933,12.6071],[20.0951,12.6031],[20.0958,12.5994],[20.094,12.5948],[20.0902,12.5893],[20.0748,12.5779],[20.059,12.5711],[20.0545,12.5686],[20.0506,12.5656],[20.0434,12.5589],[20.0369,12.5512],[20.012,12.5146],[19.975,12.4798],[19.9518,12.4456],[19.9445,12.4375],[19.9383,12.4321],[19.934,12.4295],[19.9301,12.4265],[19.9263,12.4231],[19.9201,12.4154],[19.9155,12.4076],[19.8855,12.3434],[19.8215,12.1632],[19.819,12.1433],[19.82,12.087],[19.642,12.0977],[19.4354,12.1519],[19.3896,12.1589],[19.2192,11.9994],[19.2879,11.8883],[19.2937,11.8729],[19.2912,11.8588],[19.2858,11.845],[19.1908,11.6737],[19.1756,11.6605],[19.162,11.6517],[19.0738,11.6189],[19.0614,11.6157],[19.0526,11.6167],[19.0461,11.6259],[19.0186,11.6932],[19.0122,11.7032],[19.0029,11.7069],[18.9961,11.7081],[18.8865,11.7064],[18.873,11.7025],[18.8676,11.6924],[18.8651,11.6798],[18.8463,11.3895],[18.8469,11.3804],[18.8488,11.3743],[18.8544,11.3649],[18.8561,11.3588],[18.8575,11.3504],[18.8604,11.3454],[18.8652,11.3425],[18.8844,11.3397],[18.8896,11.3377],[18.8937,11.3347],[18.8964,11.3306],[18.8986,11.3258],[18.9013,11.3217],[18.9054,11.3192],[18.9109,11.3181],[18.9231,11.317],[18.9283,11.3151],[18.9318,11.312],[18.9343,11.3076],[18.9385,11.2982],[18.9411,11.294],[18.9446,11.2906],[18.9492,11.288],[18.9542,11.2859],[18.9601,11.2845],[18.9701,11.2803],[18.9745,11.2777],[18.9897,11.2647],[19.0304,11.2402],[19.0345,11.2383],[19.053,11.2352],[19.0583,11.2334],[19.062,11.2301],[19.0647,11.2261],[19.067,11.2215],[19.0704,11.218],[19.075,11.2155],[19.0928,11.2114],[19.098,11.2097],[19.1115,11.2018],[19.1315,11.1867],[19.136,11.1842],[19.1416,11.1829],[19.1598,11.1823],[19.1657,11.1812],[19.1708,11.1793],[19.1747,11.1761],[19.1779,11.1726],[19.1817,11.1692],[19.1914,11.1647],[19.2079,11.1594],[19.2206,11.1512],[19.2259,11.1492],[19.2316,11.1477],[19.2502,11.1444],[19.2555,11.1426],[19.26,11.1399],[19.2639,11.137],[19.2735,11.1257],[19.2774,11.1226],[19.3154,11.1036],[19.3207,11.1021],[19.3264,11.1017],[19.3429,11.105],[19.3489,11.1052],[19.3548,11.1043],[19.3601,11.1026],[19.3644,11.0997],[19.3678,11.0961],[19.3709,11.092],[19.3814,11.0744],[19.3845,11.0704],[19.3882,11.0669],[19.3927,11.0642],[19.3977,11.0621],[19.4093,11.0593],[19.422,11.0582],[19.4279,11.059],[19.4441,11.0631],[19.4496,11.064],[19.4554,11.064],[19.4608,11.0626],[19.4655,11.0604],[19.4693,11.0571],[19.4796,11.0466],[19.4836,11.0435],[19.4881,11.0409],[19.4928,11.0392],[19.4976,11.0382],[19.5009,11.0385],[19.5098,11.0407],[19.5156,11.0411],[19.5213,11.041],[19.5264,11.0392],[19.5361,11.0346],[19.5414,11.0327],[19.5499,11.0271],[19.5536,11.0239],[19.5576,11.0211],[19.5626,11.0188],[19.5682,11.0172],[19.5804,11.0149],[19.586,11.0133],[19.5909,11.0109],[19.5947,11.0079],[19.6011,11.0005],[19.602,10.9999],[19.6113,10.9962],[19.6233,10.9936],[19.6285,10.9917],[19.633,10.989],[19.6365,10.9854],[19.6509,10.9653],[19.6573,10.952],[19.6616,10.9448],[19.666,10.9396],[19.6709,10.9373],[19.6768,10.936],[19.6829,10.9336],[19.6883,10.9299],[19.6929,10.9227],[19.6929,10.9177],[19.6903,10.914],[19.6743,10.9025],[19.6669,10.896],[19.6658,10.8782],[19.6771,10.7051],[19.6584,10.6185],[19.64,10.6044],[19.6143,10.5954],[19.6103,10.5912],[19.6098,10.5868],[19.6107,10.5824],[19.6079,10.576],[19.5997,10.5708],[19.5949,10.5661],[19.5909,10.5605],[19.5846,10.5448],[19.5801,10.5412],[19.5759,10.5409],[19.5727,10.544],[19.5693,10.5484],[19.5654,10.5518],[19.5578,10.5527],[19.555,10.5495],[19.5552,10.5454],[19.5564,10.5402],[19.5564,10.5344],[19.5337,10.4954],[19.528,10.493],[19.5212,10.4924],[19.5134,10.4926],[19.4889,10.4859],[19.4792,10.485],[19.4644,10.4824],[19.4569,10.4834],[19.4531,10.4867],[19.4532,10.4915],[19.4537,10.4959],[19.4532,10.4999],[19.4518,10.5008],[19.4492,10.5017],[19.4422,10.502],[19.436,10.4994],[19.4275,10.4938],[19.42,10.4908],[19.4102,10.488],[19.4026,10.4847],[19.3939,10.4782],[19.3853,10.4746],[19.3786,10.4691],[19.3623,10.4532],[19.3516,10.4397],[19.3474,10.432],[19.3368,10.4196],[19.3333,10.4121],[19.3325,10.4059],[19.3362,10.396],[19.3361,10.3901],[19.332,10.3872],[19.3254,10.3859],[19.321,10.3832],[19.3185,10.3794],[19.3184,10.3747],[19.319,10.3694],[19.319,10.3639],[19.3164,10.3574],[19.3118,10.3542],[19.3064,10.3529],[19.2935,10.3539],[19.2852,10.3528],[19.2816,10.3492],[19.2814,10.3451],[19.2842,10.3414],[19.2886,10.3386],[19.2924,10.3355],[19.2946,10.3314],[19.2945,10.3258],[19.2917,10.3196],[19.2901,10.3147],[19.2915,10.3109],[19.3,10.3048],[19.3027,10.2999],[19.3002,10.2975],[19.2951,10.2961],[19.2893,10.296],[19.283,10.294],[19.2813,10.2898],[19.2799,10.2835],[19.2755,10.2784],[19.2687,10.2735],[19.256,10.2663],[19.2498,10.2611],[19.245,10.2547],[19.2411,10.2478],[19.2361,10.2365],[19.2282,10.2282],[19.225,10.22],[19.2205,10.216],[19.2149,10.2135],[19.2076,10.2117],[19.1984,10.2074],[19.1936,10.203],[19.19,10.1982],[19.1727,10.1664],[19.1686,10.1495],[19.1641,10.1375],[19.1606,10.1363],[19.1579,10.1369],[19.155,10.1387],[19.1494,10.1384],[19.141,10.1354],[19.1312,10.1258],[19.1247,10.1223],[19.1199,10.122],[19.1152,10.1228],[19.112,10.1203],[19.109,10.1165],[19.105,10.1064],[19.0985,10.0952],[19.0926,10.0876],[19.0798,10.0678],[19.0642,10.049],[19.0495,10.0357],[19.0374,10.0266],[18.9989,10.007],[18.9436,10.0001],[18.8069,9.9987],[18.7953,9.9948],[18.7884,9.9844],[18.7664,9.8925],[18.7627,9.8845],[18.757,9.8818],[18.7292,9.8765],[18.7087,9.8684],[18.6977,9.8667],[18.6902,9.8673],[18.6781,9.8763],[18.6578,9.8973],[18.6535,9.9002],[18.6476,9.902],[18.6399,9.9028],[18.6291,9.902],[18.6216,9.9029],[18.6153,9.9042],[18.6058,9.9087],[18.6024,9.911],[18.6004,9.9131],[18.6002,9.9154],[18.6097,10.0017],[18.6097,10.0103],[18.6091,10.0159],[18.6071,10.0208],[18.6036,10.0244],[18.5992,10.027],[18.5885,10.0305],[18.5838,10.033],[18.5802,10.0362],[18.5777,10.0408],[18.5748,10.0512],[18.5727,10.0559],[18.5698,10.0599],[18.5568,10.0679],[18.5527,10.0709],[18.532,10.0919],[18.5276,10.0945],[18.5223,10.0963],[18.5164,10.0977],[18.511,10.0995],[18.5067,10.1021],[18.5008,10.1079],[18.4873,10.1308],[18.4806,10.1445],[18.4775,10.1483],[18.47,10.1547],[18.4632,10.1618],[18.4561,10.1752],[18.4531,10.1791],[18.4494,10.1822],[18.4455,10.1849],[18.3912,10.2003],[18.3816,10.2048],[18.3735,10.2106],[18.3667,10.2178],[18.355,10.2336],[18.3499,10.2364],[18.3433,10.2383],[18.3327,10.2391],[18.3119,10.2451],[18.2705,10.2465],[18.2648,10.2478],[18.2606,10.2506],[18.2564,10.2544],[18.2527,10.2593],[18.2323,10.2676],[18.2286,10.2707],[18.2258,10.2748],[18.2222,10.2848],[18.2185,10.2886],[18.2126,10.2907],[18.1929,10.2918],[18.187,10.2937],[18.18,10.301],[18.1757,10.3045],[18.1671,10.306],[18.1612,10.3082],[18.1568,10.3113],[18.155,10.3162],[18.1533,10.3277],[18.1519,10.3331],[18.1493,10.3376],[18.1451,10.3415],[18.1392,10.3442],[18.1305,10.3464],[18.1251,10.3449],[18.1209,10.3414],[18.1169,10.3374],[18.1113,10.3334],[18.1063,10.333],[18.1021,10.3351],[18.0955,10.3433],[18.0897,10.3467],[18.0695,10.3495],[18.0624,10.3515],[18.0567,10.354],[18.0518,10.3526],[18.0432,10.345],[18.0388,10.3447],[18.035,10.3468],[18.0308,10.35],[18.0255,10.3526],[18.0171,10.3538],[17.993,10.3611],[17.978,10.3636],[17.9723,10.3657],[17.9587,10.3732],[17.9488,10.3776],[17.9373,10.3801],[17.9313,10.3824],[17.9249,10.3861],[17.8411,10.4653],[17.8343,10.4705],[17.8272,10.4739],[17.5337,10.4637],[17.2958,10.5844],[17.3162,10.7477],[17.2958,10.9724],[17.255,11.2379],[17.2652,11.4932]]]}},{"type":"Feature","properties":{"id":"TCD-1464","name":"Hadjer-Lamis","nameBn":"হাজের লামিস অঞ্চল","type":"Prefecture","bounds":[14.481,11.4932,17.6256,13.4051],"center":[15.8235,12.7695]},"geometry":{"type":"Polygon","coordinates":[[[14.5607,12.7662],[14.5548,12.7669],[14.5511,12.7716],[14.549,12.7805],[14.549,12.8182],[14.531,12.8362],[14.5004,12.8591],[14.4901,12.8736],[14.4906,12.8863],[14.5061,12.9321],[14.5077,12.9524],[14.5047,12.969],[14.4963,12.9838],[14.4821,12.9988],[14.481,13.0005],[14.5009,13.0015],[14.9984,12.9998],[15.0072,13.001],[15.014,13.0033],[15.0175,13.0098],[15.0238,13.0334],[15.0378,13.0691],[15.043,13.0919],[15.0432,13.098],[15.0423,13.1036],[15.0241,13.1605],[15.0218,13.1651],[15.0187,13.1692],[15.0151,13.1728],[15.0072,13.179],[15.0041,13.183],[15.0026,13.1882],[15.0016,13.207],[14.9981,13.2243],[14.9942,13.2338],[14.9895,13.2429],[14.9881,13.2479],[14.9886,13.2532],[14.9912,13.2575],[14.9966,13.2597],[15.0043,13.2601],[15.0246,13.2539],[15.0404,13.2463],[15.0615,13.2388],[15.0736,13.2364],[15.0791,13.2347],[15.084,13.2325],[15.0882,13.2298],[15.0953,13.2266],[15.1052,13.2235],[15.1354,13.218],[15.1695,13.2061],[15.174,13.2037],[15.1778,13.2011],[15.1804,13.1972],[15.1823,13.1927],[15.1821,13.1817],[15.1826,13.1771],[15.1855,13.1738],[15.1897,13.1712],[15.2142,13.1599],[15.2181,13.1567],[15.2237,13.1486],[15.2274,13.1452],[15.2316,13.1424],[15.2355,13.1393],[15.2386,13.1354],[15.2459,13.1154],[15.2487,13.1111],[15.2516,13.1072],[15.2553,13.1039],[15.2595,13.1012],[15.2646,13.1005],[15.2699,13.102],[15.2757,13.1089],[15.2785,13.1152],[15.2805,13.1217],[15.2824,13.1341],[15.2839,13.1397],[15.2865,13.1437],[15.2901,13.1461],[15.2932,13.1474],[15.3013,13.1502],[15.3067,13.1507],[15.3117,13.1498],[15.3189,13.1421],[15.3227,13.1413],[15.328,13.1442],[15.3793,13.185],[15.3821,13.1889],[15.3835,13.1937],[15.3832,13.1988],[15.3782,13.2142],[15.3757,13.2185],[15.372,13.2218],[15.3667,13.2237],[15.3182,13.2331],[15.3134,13.2352],[15.3092,13.238],[15.3059,13.2411],[15.2195,13.3614],[15.2145,13.3724],[15.2191,13.3778],[15.2299,13.3814],[15.3568,13.4051],[15.3681,13.405],[15.3745,13.4002],[15.3784,13.3958],[15.4021,13.3566],[15.4142,13.3411],[15.4322,13.324],[15.4411,13.3187],[15.5601,13.2648],[15.7431,13.1821],[15.7762,13.1719],[15.8476,13.1688],[15.8717,13.1715],[15.8836,13.1879],[15.9653,13.122],[15.9702,13.1135],[15.9868,13.0515],[16.0,13.0476],[16.2469,13.052],[16.2567,13.0535],[16.2715,13.0584],[16.2913,13.0679],[16.3071,13.0732],[16.3148,13.0743],[16.3249,13.0744],[16.3617,13.0692],[16.3729,13.0661],[16.3967,13.0646],[16.4098,13.0618],[16.4242,13.055],[16.4349,13.0513],[16.441,13.0503],[16.4478,13.051],[16.4564,13.0552],[16.4618,13.059],[16.4727,13.0704],[16.4807,13.0763],[16.4894,13.0816],[16.7194,13.113],[16.731,13.1161],[16.74,13.1206],[16.7484,13.1261],[16.7635,13.1396],[16.7707,13.1432],[16.7807,13.147],[16.8012,13.1525],[16.8108,13.1569],[16.8187,13.1595],[16.8241,13.1598],[16.8388,13.1512],[16.8473,13.1473],[16.8719,13.143],[16.8801,13.1432],[16.8977,13.1498],[16.9089,13.1525],[16.9663,13.1605],[16.974,13.1629],[16.9799,13.1657],[16.9937,13.1796],[16.9973,13.1821],[17.0058,13.1823],[17.0597,13.1706],[17.1317,13.144],[17.0882,13.081],[17.0727,13.064],[17.0587,13.0538],[16.9698,12.9706],[16.9436,12.9334],[16.9413,12.9281],[16.9399,12.922],[16.9396,12.914],[16.9411,12.9084],[16.9436,12.9037],[16.947,12.9],[16.9782,12.8751],[17.0018,12.8614],[17.0322,12.8373],[17.0389,12.8299],[17.0819,12.7492],[17.0859,12.7397],[17.1022,12.6749],[17.1158,12.6391],[17.1223,12.6271],[17.1253,12.6231],[17.1287,12.6195],[17.1328,12.6164],[17.1373,12.6136],[17.1475,12.6097],[17.1522,12.6073],[17.156,12.6042],[17.1596,12.5979],[17.1686,12.5739],[17.1729,12.566],[17.1774,12.5604],[17.1856,12.5529],[17.1936,12.5424],[17.1972,12.5385],[17.2012,12.5355],[17.2062,12.5332],[17.2117,12.5318],[17.2181,12.5315],[17.2308,12.5326],[17.2373,12.5324],[17.2442,12.5301],[17.2507,12.5259],[17.2575,12.5155],[17.2595,12.5064],[17.2599,12.4938],[17.2853,12.3688],[17.2895,12.3547],[17.308,12.3316],[17.3115,12.3282],[17.3159,12.3256],[17.3405,12.3169],[17.3442,12.3142],[17.3477,12.3098],[17.3511,12.3037],[17.3575,12.2878],[17.3607,12.2829],[17.3705,12.2732],[17.3775,12.2634],[17.3806,12.2562],[17.3815,12.2487],[17.3803,12.2212],[17.382,12.2143],[17.3844,12.2091],[17.3982,12.195],[17.4021,12.1917],[17.4069,12.1894],[17.4124,12.1876],[17.4245,12.1855],[17.4366,12.1846],[17.4426,12.1849],[17.4484,12.186],[17.4589,12.1889],[17.4647,12.19],[17.4706,12.1901],[17.4762,12.1889],[17.4807,12.1866],[17.4887,12.1805],[17.4934,12.1786],[17.4983,12.1774],[17.5198,12.1752],[17.5255,12.1737],[17.5308,12.1718],[17.5393,12.1661],[17.5434,12.163],[17.5519,12.1586],[17.5601,12.1556],[17.5674,12.1291],[17.5199,11.9623],[17.5173,11.9479],[17.5171,11.9328],[17.5237,11.9151],[17.6256,11.7151],[17.4592,11.6668],[17.2652,11.4932],[17.1222,11.5647],[17.0609,11.6259],[16.9895,11.6872],[16.918,11.6974],[16.8363,11.6974],[16.7852,11.7383],[16.775,11.8812],[16.7239,11.9425],[16.6729,12.0038],[16.6729,12.1161],[16.6423,12.2284],[16.5197,12.2897],[16.0602,12.4633],[15.9785,12.3714],[15.8764,12.3408],[15.713,12.351],[15.5496,12.3101],[15.4986,12.2693],[15.4066,12.2795],[15.3658,12.3305],[15.3045,12.3408],[15.2637,12.2999],[15.1616,12.2795],[15.0697,12.2591],[14.9982,12.2591],[14.9049,12.2487],[14.9049,12.2487],[14.9063,12.318],[14.9083,12.3269],[14.8912,12.4027],[14.8775,12.4272],[14.8768,12.4316],[14.8785,12.4431],[14.8775,12.447],[14.8724,12.4504],[14.8659,12.4526],[14.8619,12.452],[14.8638,12.447],[14.8555,12.4545],[14.851,12.4552],[14.8496,12.457],[14.8502,12.4681],[14.852,12.4747],[14.8601,12.4901],[14.8638,12.4955],[14.8308,12.6182],[14.8192,12.6388],[14.7862,12.6312],[14.7688,12.6332],[14.7614,12.6494],[14.7587,12.6588],[14.7521,12.6689],[14.7433,12.6772],[14.7341,12.6804],[14.7288,12.6772],[14.7137,12.6525],[14.7021,12.669],[14.7168,12.7018],[14.7099,12.7182],[14.694,12.7237],[14.6645,12.716],[14.6481,12.7251],[14.6417,12.7309],[14.6243,12.7419],[14.6207,12.7479],[14.6203,12.7541],[14.6184,12.7592],[14.6106,12.7623],[14.604,12.7608],[14.5849,12.7464],[14.5753,12.7449],[14.5707,12.7504],[14.5694,12.7596],[14.5694,12.7694],[14.5607,12.7662]]]}},{"type":"Feature","properties":{"id":"TCD-1465","name":"Kanem","nameBn":"কানেম অঞ্চল","type":"Prefecture","bounds":[13.6081,13.1688,16.6714,16.9049],"center":[15.8001,15.2641]},"geometry":{"type":"Polygon","coordinates":[[[13.6081,14.5183],[13.6243,14.5213],[13.6579,14.5487],[13.6656,14.5669],[13.6667,14.5855],[13.6603,14.6237],[13.657,14.6297],[13.6463,14.6391],[13.6447,14.6442],[13.6483,14.6494],[13.6681,14.6629],[13.7,14.6977],[13.71,14.7051],[13.73,14.7096],[13.7492,14.7112],[13.7644,14.7191],[13.7732,14.7425],[13.772,14.7629],[13.7579,14.8055],[13.7539,14.8259],[13.7552,14.8472],[13.7605,14.8664],[13.7754,14.8974],[13.8081,14.9656],[13.8339,15.0196],[13.863,15.0591],[13.8928,15.0997],[13.9226,15.1405],[13.9526,15.1812],[13.9823,15.222],[14.0122,15.2627],[14.0421,15.3034],[14.0718,15.3442],[14.1017,15.3849],[14.1316,15.4255],[14.1614,15.4663],[14.1912,15.507],[14.2212,15.5477],[14.2509,15.5885],[14.2807,15.6293],[14.3107,15.6699],[14.3404,15.7107],[14.369,15.7496],[14.4235,15.8063],[14.4821,15.8673],[14.5208,15.9076],[14.5769,15.9658],[14.6331,16.0242],[14.6893,16.0825],[14.7454,16.1409],[14.8014,16.1992],[14.8574,16.2576],[14.9135,16.3159],[14.9697,16.3742],[15.0258,16.4325],[15.0818,16.4909],[15.1379,16.5493],[15.194,16.6076],[15.2502,16.6659],[15.3063,16.7242],[15.3624,16.7826],[15.4184,16.8409],[15.4524,16.8762],[15.4655,16.8947],[15.4685,16.9049],[15.4853,16.8981],[16.6714,16.3419],[16.4891,16.0374],[16.2644,15.2613],[16.1317,14.812],[16.1113,14.5771],[16.05,14.475],[15.7743,14.1482],[15.5905,14.0767],[15.6007,13.7539],[15.7162,13.7549],[15.722,13.757],[15.7261,13.76],[15.7485,13.7867],[15.7524,13.7895],[15.7582,13.7902],[15.7641,13.7896],[15.7755,13.7865],[15.7963,13.7787],[15.8198,13.7731],[15.8418,13.7658],[15.8473,13.7622],[15.8526,13.7569],[15.8574,13.7451],[15.8614,13.7303],[15.8653,13.7072],[15.865,13.7009],[15.8599,13.6882],[15.8416,13.6565],[15.84,13.6501],[15.8402,13.6426],[15.8507,13.609],[15.8534,13.5954],[15.8582,13.5812],[15.8605,13.5768],[15.8698,13.5653],[15.8909,13.5438],[15.8965,13.5355],[15.8984,13.5215],[15.8999,13.2505],[15.897,13.2268],[15.8836,13.1879],[15.8717,13.1715],[15.8476,13.1688],[15.7762,13.1719],[15.7431,13.1821],[15.5601,13.2648],[15.3758,13.752],[15.2133,13.7506],[14.9158,13.6788],[14.9076,13.6782],[14.8582,13.6875],[14.851,13.6876],[14.8396,13.6859],[14.8157,13.6683],[14.8052,13.6638],[14.7957,13.6712],[14.6438,13.9089],[14.616,13.9411],[14.5765,13.9747],[14.5651,13.9872],[14.4774,14.1045],[14.4702,14.111],[14.4641,14.1151],[14.4536,14.1188],[14.4421,14.1217],[14.3761,14.1283],[14.3677,14.1302],[14.3566,14.135],[14.347,14.1456],[14.3188,14.1865],[14.3074,14.1988],[14.2617,14.2132],[14.2483,14.224],[14.1902,14.2862],[14.1563,14.3035],[14.1494,14.3085],[14.1457,14.3139],[14.141,14.3287],[14.1342,14.3715],[14.1319,14.3783],[14.1271,14.3867],[14.1217,14.3902],[14.1153,14.3914],[14.1091,14.391],[14.1051,14.3935],[14.0873,14.4167],[14.0802,14.4213],[14.0737,14.424],[14.0614,14.4256],[14.0264,14.4266],[14.0174,14.4281],[14.0121,14.4311],[14.0081,14.4347],[13.9958,14.4523],[13.9505,14.4661],[13.7849,14.4764],[13.7778,14.4807],[13.7707,14.4884],[13.7607,14.5022],[13.7478,14.5129],[13.7356,14.5157],[13.7216,14.517],[13.6153,14.5165],[13.6081,14.5183]]]}},{"type":"Feature","properties":{"id":"TCD-1466","name":"Lac","nameBn":"লাক অঞ্চল","type":"Prefecture","bounds":[13.4492,12.9998,15.5601,14.5183],"center":[14.6744,13.431]},"geometry":{"type":"Polygon","coordinates":[[[14.0649,13.078],[13.8361,13.391],[13.6073,13.7041],[13.6002,13.736],[13.5929,13.7678],[13.5858,13.7997],[13.5786,13.8315],[13.5715,13.8634],[13.5643,13.8952],[13.5572,13.9272],[13.55,13.959],[13.5428,13.9909],[13.5357,14.0227],[13.5285,14.0545],[13.5213,14.0864],[13.5142,14.1182],[13.507,14.1501],[13.4997,14.182],[13.4927,14.2139],[13.4823,14.2598],[13.4683,14.3107],[13.4492,14.3801],[13.4495,14.439],[13.4823,14.4836],[13.5078,14.496],[13.5439,14.5106],[13.5844,14.5138],[13.6081,14.5183],[13.6153,14.5165],[13.7216,14.517],[13.7356,14.5157],[13.7478,14.5129],[13.7607,14.5022],[13.7707,14.4884],[13.7778,14.4807],[13.7849,14.4764],[13.9505,14.4661],[13.9958,14.4523],[14.0081,14.4347],[14.0121,14.4311],[14.0174,14.4281],[14.0264,14.4266],[14.0614,14.4256],[14.0737,14.424],[14.0802,14.4213],[14.0873,14.4167],[14.1051,14.3935],[14.1091,14.391],[14.1153,14.3914],[14.1217,14.3902],[14.1271,14.3867],[14.1319,14.3783],[14.1342,14.3715],[14.141,14.3287],[14.1457,14.3139],[14.1494,14.3085],[14.1563,14.3035],[14.1902,14.2862],[14.2483,14.224],[14.2617,14.2132],[14.3074,14.1988],[14.3188,14.1865],[14.347,14.1456],[14.3566,14.135],[14.3677,14.1302],[14.3761,14.1283],[14.4421,14.1217],[14.4536,14.1188],[14.4641,14.1151],[14.4702,14.111],[14.4774,14.1045],[14.5651,13.9872],[14.5765,13.9747],[14.616,13.9411],[14.6438,13.9089],[14.7957,13.6712],[14.8052,13.6638],[14.8157,13.6683],[14.8396,13.6859],[14.851,13.6876],[14.8582,13.6875],[14.9076,13.6782],[14.9158,13.6788],[15.2133,13.7506],[15.3758,13.752],[15.5601,13.2648],[15.4411,13.3187],[15.4322,13.324],[15.4142,13.3411],[15.4021,13.3566],[15.3784,13.3958],[15.3745,13.4002],[15.3681,13.405],[15.3568,13.4051],[15.2299,13.3814],[15.2191,13.3778],[15.2145,13.3724],[15.2195,13.3614],[15.3059,13.2411],[15.3092,13.238],[15.3134,13.2352],[15.3182,13.2331],[15.3667,13.2237],[15.372,13.2218],[15.3757,13.2185],[15.3782,13.2142],[15.3832,13.1988],[15.3835,13.1937],[15.3821,13.1889],[15.3793,13.185],[15.328,13.1442],[15.3227,13.1413],[15.3189,13.1421],[15.3117,13.1498],[15.3067,13.1507],[15.3013,13.1502],[15.2932,13.1474],[15.2901,13.1461],[15.2865,13.1437],[15.2839,13.1397],[15.2824,13.1341],[15.2805,13.1217],[15.2785,13.1152],[15.2757,13.1089],[15.2699,13.102],[15.2646,13.1005],[15.2595,13.1012],[15.2553,13.1039],[15.2516,13.1072],[15.2487,13.1111],[15.2459,13.1154],[15.2386,13.1354],[15.2355,13.1393],[15.2316,13.1424],[15.2274,13.1452],[15.2237,13.1486],[15.2181,13.1567],[15.2142,13.1599],[15.1897,13.1712],[15.1855,13.1738],[15.1826,13.1771],[15.1821,13.1817],[15.1823,13.1927],[15.1804,13.1972],[15.1778,13.2011],[15.174,13.2037],[15.1695,13.2061],[15.1354,13.218],[15.1052,13.2235],[15.0953,13.2266],[15.0882,13.2298],[15.084,13.2325],[15.0791,13.2347],[15.0736,13.2364],[15.0615,13.2388],[15.0404,13.2463],[15.0246,13.2539],[15.0043,13.2601],[14.9966,13.2597],[14.9912,13.2575],[14.9886,13.2532],[14.9881,13.2479],[14.9895,13.2429],[14.9942,13.2338],[14.9981,13.2243],[15.0016,13.207],[15.0026,13.1882],[15.0041,13.183],[15.0072,13.179],[15.0151,13.1728],[15.0187,13.1692],[15.0218,13.1651],[15.0241,13.1605],[15.0423,13.1036],[15.0432,13.098],[15.043,13.0919],[15.0378,13.0691],[15.0238,13.0334],[15.0175,13.0098],[15.014,13.0033],[15.0072,13.001],[14.9984,12.9998],[14.5009,13.0015],[14.481,13.0005],[14.4354,13.0703],[14.4182,13.0811],[14.0649,13.078]]]}},{"type":"Feature","properties":{"id":"TCD-1484","name":"Logone Occidental","nameBn":"লুুগোনে অক্সিডেন্টাল অঞ্চল","type":"Prefecture","bounds":[15.264,8.2576,16.5971,9.2387],"center":[15.9306,8.7704]},"geometry":{"type":"Polygon","coordinates":[[[16.3574,9.2387],[16.371,9.2376],[16.3791,9.2251],[16.4205,9.1808],[16.4332,9.1514],[16.434,9.1361],[16.4354,9.1276],[16.4401,9.1167],[16.4506,9.1022],[16.4537,9.0962],[16.4606,9.0695],[16.464,9.0615],[16.4674,9.0568],[16.4707,9.0534],[16.4897,9.0215],[16.5118,8.9975],[16.515,8.993],[16.5184,8.9835],[16.5208,8.9801],[16.5253,8.9794],[16.5384,8.9812],[16.5425,8.9801],[16.5457,8.973],[16.5471,8.9579],[16.5493,8.9522],[16.5547,8.9485],[16.5603,8.9475],[16.5656,8.9472],[16.5698,8.9453],[16.5841,8.9302],[16.5925,8.9175],[16.5962,8.9027],[16.5971,8.8811],[16.5135,8.7532],[16.4905,8.7324],[16.4537,8.7194],[16.4318,8.7146],[16.4096,8.7065],[16.3924,8.6938],[16.3798,8.6577],[16.365,8.6486],[16.2875,8.6404],[16.1452,8.5975],[16.0988,8.5607],[16.0216,8.5181],[16.0112,8.5146],[16.0041,8.511],[15.9801,8.4867],[15.8929,8.4388],[15.868,8.4135],[15.8579,8.3768],[15.8584,8.3726],[15.8574,8.3665],[15.8535,8.3599],[15.8186,8.319],[15.8136,8.3158],[15.8064,8.3137],[15.7904,8.3141],[15.7368,8.3233],[15.7282,8.3227],[15.7191,8.318],[15.6987,8.3114],[15.6946,8.3085],[15.6914,8.3049],[15.6797,8.2887],[15.6688,8.2788],[15.6647,8.2764],[15.6597,8.2748],[15.6412,8.2741],[15.6357,8.2728],[15.631,8.2707],[15.6225,8.2655],[15.6183,8.2635],[15.6141,8.262],[15.5765,8.2576],[15.5708,8.2582],[15.5657,8.2606],[15.5629,8.2666],[15.562,8.2761],[15.558,8.2784],[15.5501,8.2786],[15.5365,8.2777],[15.5301,8.2781],[15.5243,8.2799],[15.5198,8.2836],[15.5171,8.2907],[15.5165,8.2974],[15.5176,8.3036],[15.5216,8.3126],[15.5201,8.317],[15.5142,8.3218],[15.5013,8.3279],[15.4924,8.336],[15.4875,8.3423],[15.4817,8.3479],[15.4735,8.3519],[15.4552,8.3556],[15.4314,8.3551],[15.4198,8.361],[15.3484,8.4088],[15.3126,8.4243],[15.2732,8.4486],[15.271,8.4605],[15.266,8.4757],[15.2648,8.4812],[15.264,8.4927],[15.2649,8.5021],[15.3059,8.6718],[15.3095,8.6789],[15.3169,8.688],[15.3726,8.7415],[15.3754,8.7462],[15.3773,8.7524],[15.3762,8.7696],[15.3785,8.7918],[15.3781,8.798],[15.3768,8.8038],[15.3723,8.8195],[15.3711,8.8315],[15.3729,8.8643],[15.3771,8.8833],[15.4178,9.0043],[15.4282,9.0135],[15.4639,9.0267],[15.4805,9.013],[15.489,9.0077],[15.5092,8.9983],[15.5185,8.9949],[15.5303,8.9923],[15.5433,8.9911],[15.5697,8.9914],[15.5956,8.9942],[15.7553,9.0322],[15.7933,9.0254],[15.8181,9.0251],[15.8295,9.0284],[15.9781,9.1061],[16.0014,9.114],[16.0221,9.1173],[16.0335,9.1179],[16.0424,9.1171],[16.1414,9.0883],[16.147,9.0885],[16.1542,9.0917],[16.1623,9.0976],[16.1745,9.1118],[16.1884,9.137],[16.1972,9.149],[16.2042,9.1559],[16.2121,9.1607],[16.2492,9.1768],[16.2719,9.1841],[16.2941,9.189],[16.3043,9.1924],[16.3111,9.197],[16.3193,9.2039],[16.3482,9.2336],[16.3574,9.2387]]]}},{"type":"Feature","properties":{"id":"TCD-1485","name":"Logone Oriental","nameBn":"লুগোনে ওরিয়েন্টাল অঞ্চল","type":"Prefecture","bounds":[15.2107,7.4556,17.2495,9.1404],"center":[16.23,8.1256]},"geometry":{"type":"Polygon","coordinates":[[[17.2338,7.8108],[17.2207,7.7982],[17.2145,7.7868],[17.2111,7.7683],[17.2046,7.7638],[17.1964,7.7652],[17.1886,7.7641],[17.1706,7.7475],[17.1355,7.7051],[17.1163,7.6869],[17.1019,7.6777],[17.0955,7.6782],[17.0903,7.6838],[17.0791,7.6899],[17.0594,7.6965],[17.0456,7.6847],[17.0411,7.6755],[17.0421,7.667],[17.039,7.6625],[17.0083,7.6676],[16.9975,7.6667],[16.989,7.6608],[16.9819,7.6487],[16.9627,7.6507],[16.9196,7.6441],[16.8807,7.6329],[16.8655,7.6244],[16.8548,7.6115],[16.8472,7.5916],[16.8481,7.5847],[16.8524,7.5803],[16.8558,7.5754],[16.8539,7.5675],[16.8504,7.5659],[16.8396,7.5674],[16.8367,7.5675],[16.8151,7.5495],[16.8129,7.5477],[16.8055,7.5437],[16.7824,7.5411],[16.7686,7.5502],[16.7467,7.5866],[16.7098,7.6278],[16.6869,7.6458],[16.6632,7.6574],[16.6245,7.6687],[16.6142,7.6796],[16.6099,7.7016],[16.6118,7.7139],[16.6162,7.7239],[16.6181,7.7343],[16.6131,7.7482],[16.6052,7.7572],[16.5964,7.7611],[16.5868,7.7636],[16.5764,7.7678],[16.5602,7.7797],[16.5493,7.7947],[16.5449,7.813],[16.5502,7.8435],[16.5508,7.8527],[16.5501,7.8617],[16.5487,7.87],[16.5092,7.8583],[16.4917,7.8492],[16.4757,7.8358],[16.4694,7.8258],[16.4572,7.7996],[16.4509,7.7921],[16.4374,7.7884],[16.4272,7.7915],[16.4182,7.7959],[16.4074,7.7961],[16.3922,7.7836],[16.387,7.7626],[16.3871,7.6947],[16.383,7.6807],[16.3708,7.6725],[16.2828,7.6601],[16.2619,7.6519],[16.2273,7.6256],[16.2072,7.6135],[16.1856,7.6108],[16.1627,7.6111],[16.1288,7.5995],[16.0652,7.5912],[16.043,7.5839],[16.0263,7.5749],[16.0123,7.5603],[15.9904,7.5294],[15.9757,7.5152],[15.9431,7.4953],[15.9253,7.4882],[15.7939,7.458],[15.7583,7.4556],[15.72,7.4686],[15.6685,7.5163],[15.6248,7.5197],[15.5519,7.5099],[15.5156,7.5122],[15.481,7.5233],[15.522,7.5761],[15.549,7.6308],[15.5622,7.6902],[15.5629,7.7924],[15.5408,7.7968],[15.5094,7.804],[15.4879,7.805],[15.4407,7.8394],[15.4065,7.9216],[15.3453,8.136],[15.2107,8.4218],[15.2279,8.43],[15.2732,8.4486],[15.3126,8.4243],[15.3484,8.4088],[15.4198,8.361],[15.4314,8.3551],[15.4552,8.3556],[15.4735,8.3519],[15.4817,8.3479],[15.4875,8.3423],[15.4924,8.336],[15.5013,8.3279],[15.5142,8.3218],[15.5201,8.317],[15.5216,8.3126],[15.5176,8.3036],[15.5165,8.2974],[15.5171,8.2907],[15.5198,8.2836],[15.5243,8.2799],[15.5301,8.2781],[15.5365,8.2777],[15.5501,8.2786],[15.558,8.2784],[15.562,8.2761],[15.5629,8.2666],[15.5657,8.2606],[15.5708,8.2582],[15.5765,8.2576],[15.6141,8.262],[15.6183,8.2635],[15.6225,8.2655],[15.631,8.2707],[15.6357,8.2728],[15.6412,8.2741],[15.6597,8.2748],[15.6647,8.2764],[15.6688,8.2788],[15.6797,8.2887],[15.6914,8.3049],[15.6946,8.3085],[15.6987,8.3114],[15.7191,8.318],[15.7282,8.3227],[15.7368,8.3233],[15.7904,8.3141],[15.8064,8.3137],[15.8136,8.3158],[15.8186,8.319],[15.8535,8.3599],[15.8574,8.3665],[15.8584,8.3726],[15.8579,8.3768],[15.868,8.4135],[15.8929,8.4388],[15.9801,8.4867],[16.0041,8.511],[16.0112,8.5146],[16.0216,8.5181],[16.0988,8.5607],[16.1452,8.5975],[16.2875,8.6404],[16.365,8.6486],[16.3798,8.6577],[16.3924,8.6938],[16.4096,8.7065],[16.4318,8.7146],[16.4537,8.7194],[16.4905,8.7324],[16.5135,8.7532],[16.5971,8.8811],[16.5962,8.9027],[16.5925,8.9175],[16.5841,8.9302],[16.5698,8.9453],[16.5656,8.9472],[16.5603,8.9475],[16.5547,8.9485],[16.5493,8.9522],[16.5471,8.9579],[16.5457,8.973],[16.5425,8.9801],[16.5384,8.9812],[16.5253,8.9794],[16.5208,8.9801],[16.5184,8.9835],[16.515,8.993],[16.5118,8.9975],[16.4897,9.0215],[16.4707,9.0534],[16.4674,9.0568],[16.464,9.0615],[16.4606,9.0695],[16.4537,9.0962],[16.4506,9.1022],[16.4401,9.1167],[16.4354,9.1276],[16.453,9.1278],[16.5158,9.1404],[16.5437,9.1398],[16.5687,9.1361],[16.6132,9.1239],[16.6534,9.1077],[16.6672,9.1004],[16.72,9.0886],[16.7504,9.0768],[16.9191,9.0361],[16.945,9.0349],[16.999,9.0375],[17.1048,9.0698],[17.1239,9.0058],[17.1259,8.9959],[17.1174,8.7836],[17.1104,8.7609],[17.1022,8.7423],[17.048,8.6615],[17.0335,8.6327],[17.0358,8.6201],[17.0392,8.6116],[17.2495,8.2906],[17.2495,8.2846],[17.2465,8.2809],[17.242,8.2788],[17.2382,8.2758],[17.2351,8.272],[17.233,8.2669],[17.2303,8.2482],[17.2286,8.2426],[17.2262,8.2383],[17.2231,8.2344],[17.2193,8.2312],[17.2127,8.224],[17.2068,8.2159],[17.1975,8.1974],[17.1944,8.1936],[17.1831,8.1842],[17.18,8.1803],[17.1729,8.1663],[17.1703,8.162],[17.1667,8.1585],[17.1625,8.1559],[17.1573,8.1546],[17.1512,8.1547],[17.139,8.1565],[17.1326,8.1565],[17.1267,8.1559],[17.111,8.1513],[17.0929,8.1493],[17.0873,8.1472],[17.0831,8.1436],[17.0802,8.1368],[17.0814,8.1321],[17.0844,8.1281],[17.0876,8.1247],[17.0909,8.1204],[17.2336,7.8112],[17.2338,7.8108]]]}},{"type":"Feature","properties":{"id":"TCD-1488","name":"Mandoul","nameBn":"মান্ডোল অঞ্চল","type":"Prefecture","bounds":[17.0335,7.8108,18.1754,9.6438],"center":[17.5493,8.6783]},"geometry":{"type":"Polygon","coordinates":[[[18.1754,8.022],[18.0705,8.0192],[17.9772,7.9972],[17.8979,7.9675],[17.8588,7.9604],[17.8172,7.9621],[17.6798,7.9852],[17.6618,7.9863],[17.6399,7.985],[17.6207,7.9787],[17.6,7.9504],[17.5808,7.9406],[17.5598,7.9347],[17.5238,7.931],[17.5037,7.9262],[17.4872,7.9145],[17.4783,7.8918],[17.4664,7.8841],[17.4191,7.8982],[17.406,7.883],[17.3857,7.8705],[17.2509,7.8228],[17.2346,7.8116],[17.2338,7.8108],[17.2336,7.8112],[17.0909,8.1204],[17.0876,8.1247],[17.0844,8.1281],[17.0814,8.1321],[17.0802,8.1368],[17.0831,8.1436],[17.0873,8.1472],[17.0929,8.1493],[17.111,8.1513],[17.1267,8.1559],[17.1326,8.1565],[17.139,8.1565],[17.1512,8.1547],[17.1573,8.1546],[17.1625,8.1559],[17.1667,8.1585],[17.1703,8.162],[17.1729,8.1663],[17.18,8.1803],[17.1831,8.1842],[17.1944,8.1936],[17.1975,8.1974],[17.2068,8.2159],[17.2127,8.224],[17.2193,8.2312],[17.2231,8.2344],[17.2262,8.2383],[17.2286,8.2426],[17.2303,8.2482],[17.233,8.2669],[17.2351,8.272],[17.2382,8.2758],[17.242,8.2788],[17.2465,8.2809],[17.2495,8.2846],[17.2495,8.2906],[17.0392,8.6116],[17.0358,8.6201],[17.0335,8.6327],[17.048,8.6615],[17.1022,8.7423],[17.1104,8.7609],[17.1174,8.7836],[17.1259,8.9959],[17.1239,9.0058],[17.1048,9.0698],[17.1803,9.1469],[17.1856,9.1565],[17.1824,9.1641],[17.1728,9.1733],[17.0792,9.2424],[17.0687,9.2528],[17.0632,9.2634],[17.072,9.2755],[17.202,9.3773],[17.21,9.386],[17.2114,9.3952],[17.2108,9.4076],[17.2068,9.4348],[17.2069,9.4517],[17.2091,9.47],[17.2176,9.496],[17.2183,9.5073],[17.2169,9.5146],[17.2145,9.519],[17.2125,9.5304],[17.2108,9.5354],[17.2074,9.539],[17.1995,9.5448],[17.1976,9.5497],[17.1976,9.5554],[17.1989,9.5609],[17.2045,9.5682],[17.2135,9.5767],[17.2342,9.592],[17.2454,9.5981],[17.2546,9.6015],[17.301,9.5992],[17.3069,9.6001],[17.3337,9.6086],[17.3477,9.6171],[17.3539,9.62],[17.3603,9.6218],[17.366,9.6226],[17.3849,9.6216],[17.3959,9.6228],[17.4003,9.6239],[17.4029,9.625],[17.4281,9.6394],[17.4381,9.643],[17.4437,9.6438],[17.4498,9.6434],[17.4552,9.6419],[17.4597,9.6392],[17.4633,9.6358],[17.4664,9.6321],[17.4721,9.6241],[17.4752,9.6205],[17.479,9.6172],[17.4884,9.6123],[17.4979,9.6092],[17.5058,9.6075],[17.5161,9.6042],[17.5207,9.6018],[17.5246,9.5988],[17.5336,9.588],[17.5365,9.5871],[17.5793,9.5589],[17.6067,9.5163],[17.6249,9.4525],[17.7131,9.4555],[17.7344,9.4312],[17.7556,9.3917],[17.783,9.3278],[17.7952,9.2913],[17.8529,9.2731],[17.9289,9.2336],[17.9958,9.2001],[18.0779,9.1971],[18.1417,9.188],[18.1655,9.1601],[18.1537,9.1494],[18.1462,9.1451],[18.1419,9.1147],[18.1205,9.0762],[18.0915,9.0412],[18.0642,9.021],[18.0474,9.0188],[18.0335,9.021],[18.0225,9.0167],[18.0043,8.9995],[17.9897,9.0083],[17.9839,9.0166],[17.9778,9.0179],[17.9675,9.0074],[17.955,8.9012],[17.9594,8.8954],[17.9617,8.8912],[17.9612,8.8845],[17.9538,8.8789],[17.9475,8.8776],[17.9424,8.8682],[17.9375,8.8597],[17.9407,8.8497],[17.957,8.8418],[17.9926,8.8238],[18.0142,8.8037],[18.0229,8.7708],[18.0142,8.7413],[18.0073,8.684],[18.0125,8.6216],[18.0315,8.5765],[18.068,8.5522],[18.0888,8.521],[18.0905,8.4673],[18.1044,8.4239],[18.1287,8.3788],[18.1339,8.3389],[18.1304,8.2696],[18.1269,8.2141],[18.1425,8.1516],[18.1564,8.0805],[18.1754,8.022]]]}},{"type":"Feature","properties":{"id":"TCD-1486","name":"Mayo-Kebbi Est","nameBn":"মায়ো কেবি ইস্ট অঞ্চল","type":"Prefecture","bounds":[14.7228,9.1868,16.2463,11.186],"center":[15.4373,9.7163]},"geometry":{"type":"Polygon","coordinates":[[[15.383,9.9302],[15.4394,9.9317],[15.6638,9.9861],[15.6812,9.9913],[15.6379,10.03],[15.6028,10.041],[15.5361,10.0805],[15.4901,10.1201],[15.4907,10.1244],[15.4764,10.1327],[15.4392,10.1852],[15.3014,10.3117],[15.2906,10.329],[15.2843,10.3493],[15.2822,10.3746],[15.2784,10.3943],[15.2688,10.4063],[15.2556,10.417],[15.2412,10.4329],[15.2272,10.4701],[15.2183,10.4872],[15.1982,10.4965],[15.1933,10.5012],[15.1866,10.5059],[15.1761,10.508],[15.1647,10.5091],[15.1536,10.512],[15.1444,10.5163],[15.1382,10.5217],[15.1317,10.5407],[15.1323,10.5654],[15.1384,10.5897],[15.1485,10.6073],[15.1499,10.6231],[15.1423,10.6472],[15.0659,10.7931],[15.0631,10.8308],[15.0756,10.8735],[15.079,10.8981],[15.0727,10.9158],[15.0625,10.9307],[15.0352,10.9946],[15.0288,11.0802],[15.1171,11.1032],[15.1368,11.111],[15.1506,11.1179],[15.183,11.1415],[15.2046,11.1626],[15.2126,11.1683],[15.2164,11.1715],[15.2229,11.179],[15.2266,11.1822],[15.2313,11.1845],[15.2369,11.1858],[15.2432,11.186],[15.2963,11.1813],[15.3429,11.1704],[15.3528,11.1661],[15.3706,11.1559],[15.4056,11.1305],[15.4131,11.1269],[15.422,11.124],[15.4321,11.1163],[15.4321,11.0669],[15.4383,11.0503],[15.453,11.0352],[15.471,11.023],[15.4867,11.0153],[15.5034,11.0113],[15.5139,11.01],[15.5193,11.0036],[15.5208,10.9843],[15.5245,10.9713],[15.5328,10.953],[15.5487,10.9259],[15.5596,10.9169],[15.5747,10.9081],[15.5915,10.9013],[15.6077,10.8987],[15.6323,10.8988],[15.6495,10.8966],[15.6654,10.8888],[15.6859,10.872],[15.7456,10.8112],[15.7651,10.8031],[15.8029,10.7993],[15.8833,10.7797],[15.9218,10.7758],[15.9449,10.7781],[15.9829,10.7878],[16.0012,10.7894],[16.0541,10.7545],[16.0633,10.7512],[16.0748,10.7673],[16.1007,10.7628],[16.134,10.7465],[16.1377,10.7388],[16.1392,10.7344],[16.1085,10.446],[16.1265,10.315],[16.1299,10.3026],[16.1352,10.2938],[16.1463,10.2842],[16.1532,10.2792],[16.1687,10.2709],[16.173,10.2681],[16.1774,10.263],[16.1816,10.2557],[16.1861,10.2409],[16.1895,10.2236],[16.1963,10.2119],[16.2194,10.1959],[16.2286,10.1865],[16.2419,10.1652],[16.2439,10.1603],[16.2463,10.1497],[16.2413,10.0952],[16.2433,10.0716],[16.2346,10.0238],[16.2115,9.9552],[16.1665,9.8668],[16.1584,9.8557],[15.9739,9.6832],[15.9679,9.6825],[15.962,9.6884],[15.9122,9.7312],[15.8883,9.7404],[15.8545,9.7429],[15.8444,9.7452],[15.8307,9.7413],[15.7163,9.6041],[15.7084,9.5908],[15.7052,9.5783],[15.676,9.4997],[15.6742,9.4959],[15.6706,9.4915],[15.5981,9.4186],[15.5761,9.3902],[15.5691,9.3723],[15.5601,9.3595],[15.5539,9.3533],[15.5433,9.3481],[15.5396,9.3441],[15.5318,9.3336],[15.5239,9.3258],[15.5154,9.3137],[15.5039,9.2898],[15.5017,9.2866],[15.4761,9.2409],[15.4693,9.2338],[15.4619,9.2242],[15.4453,9.1955],[15.4383,9.1868],[15.3737,9.213],[15.2996,9.2448],[15.2201,9.2925],[15.1301,9.3666],[15.0896,9.3944],[15.0712,9.5279],[15.0227,9.5913],[15.0265,9.6416],[14.9948,9.6714],[14.9407,9.6957],[14.8904,9.6826],[14.7929,9.663],[14.7375,9.6658],[14.7228,9.7873],[14.7325,9.9238],[14.7726,9.9217],[14.8981,9.9605],[14.9441,9.9588],[15.0024,9.9451],[15.033,9.9429],[15.0612,9.9492],[15.0717,9.956],[15.0894,9.9722],[15.1007,9.9789],[15.1096,9.9815],[15.1555,9.9865],[15.2149,9.9841],[15.383,9.9302]]]}},{"type":"Feature","properties":{"id":"TCD-4858","name":"Mayo-Kebbi Ouest","nameBn":"মায়ো কেব্বি ওয়েস্ট অঞ্চল","type":"Prefecture","bounds":[13.9459,8.4218,15.4639,9.9953],"center":[14.7357,9.2618]},"geometry":{"type":"Polygon","coordinates":[[[14.4405,9.9953],[14.7325,9.9238],[14.7228,9.7873],[14.7375,9.6658],[14.7929,9.663],[14.8904,9.6826],[14.9407,9.6957],[14.9948,9.6714],[15.0265,9.6416],[15.0227,9.5913],[15.0712,9.5279],[15.0896,9.3944],[15.1301,9.3666],[15.2201,9.2925],[15.2996,9.2448],[15.3737,9.213],[15.4383,9.1868],[15.4378,9.1852],[15.4386,9.1841],[15.4422,9.1827],[15.4442,9.1787],[15.446,9.1738],[15.4513,9.1509],[15.4516,9.1423],[15.4492,9.1196],[15.4499,9.0675],[15.4524,9.05],[15.4639,9.0267],[15.4282,9.0135],[15.4178,9.0043],[15.3771,8.8833],[15.3729,8.8643],[15.3711,8.8315],[15.3723,8.8195],[15.3768,8.8038],[15.3781,8.798],[15.3785,8.7918],[15.3762,8.7696],[15.3773,8.7524],[15.3754,8.7462],[15.3726,8.7415],[15.3169,8.688],[15.3095,8.6789],[15.3059,8.6718],[15.2649,8.5021],[15.264,8.4927],[15.2648,8.4812],[15.266,8.4757],[15.271,8.4605],[15.2732,8.4486],[15.2279,8.43],[15.2107,8.4218],[15.1837,8.4791],[15.1685,8.4986],[15.1107,8.5551],[15.0686,8.6239],[15.0519,8.6438],[15.0313,8.6587],[15.0058,8.6666],[14.9685,8.6722],[14.9551,8.6762],[14.9515,8.6828],[14.9515,8.6921],[14.9491,8.7043],[14.9401,8.7296],[14.9344,8.739],[14.9273,8.7451],[14.9199,8.7477],[14.9133,8.7524],[14.9083,8.7648],[14.8994,8.7743],[14.8599,8.8033],[14.846,8.811],[14.8367,8.813],[14.828,8.8132],[14.8192,8.8116],[14.8099,8.8086],[14.7939,8.8136],[14.5717,8.991],[14.3495,9.1684],[14.3311,9.2002],[14.3213,9.2432],[14.0365,9.5688],[13.9476,9.6378],[13.9459,9.6526],[14.0067,9.7393],[14.0885,9.8096],[14.1198,9.852],[14.1684,9.9477],[14.1706,9.9578],[14.1712,9.9676],[14.1735,9.975],[14.1817,9.9782],[14.1963,9.9791],[14.4405,9.9953]]]}},{"type":"Feature","properties":{"id":"TCD-5583","name":"Moyen-Chari","nameBn":"মোয়েন চারি অঞ্চল","type":"Prefecture","bounds":[17.3295,8.022,19.9321,10.6185],"center":[18.4827,9.0852]},"geometry":{"type":"Polygon","coordinates":[[[19.9321,9.0633],[19.9287,9.0626],[19.9145,9.0693],[19.9022,9.0518],[19.8895,9.0464],[19.8055,9.0511],[19.7847,9.0488],[19.7584,9.042],[19.7468,9.0413],[19.7382,9.0394],[19.714,9.0291],[19.709,9.0246],[19.7,9.0206],[19.6564,9.0213],[19.6401,9.014],[19.6136,9.0317],[19.5831,9.0253],[19.5538,9.0133],[19.5308,9.014],[19.5213,9.0088],[19.5158,9.0095],[19.5118,9.0123],[19.5066,9.014],[19.4302,9.0129],[19.421,9.0174],[19.3826,9.0032],[19.3694,9.0004],[19.3522,9.0021],[19.3333,9.0066],[19.3163,9.0131],[19.3048,9.0208],[19.2955,9.0095],[19.2858,9.0128],[19.2752,9.022],[19.2632,9.0283],[19.2534,9.028],[19.2329,9.0223],[19.192,9.0202],[19.1796,9.0153],[19.1746,9.0038],[19.1688,9.0022],[19.1421,9.0087],[19.1336,9.0072],[19.1267,9.0072],[19.1006,9.0153],[19.0607,9.0042],[19.0219,8.9852],[18.9995,8.9696],[18.9848,8.9564],[18.9785,8.9495],[18.9759,8.942],[18.9719,8.9382],[18.9521,8.932],[18.9364,8.9234],[18.9286,8.9217],[18.9229,8.9182],[18.9207,8.9079],[18.9177,8.8988],[18.9106,8.8942],[18.9014,8.894],[18.8927,8.8979],[18.8697,8.8641],[18.8698,8.8494],[18.8865,8.8358],[18.903,8.8448],[18.9097,8.8353],[18.9125,8.8184],[18.9173,8.8051],[18.9291,8.7965],[19.0487,8.7457],[19.0578,8.7297],[19.0735,8.7205],[19.1039,8.698],[19.1241,8.6751],[19.0915,8.6529],[19.0817,8.6372],[19.0723,8.6319],[19.0613,8.6256],[19.0205,8.5456],[18.9205,8.4321],[18.9104,8.413],[18.9013,8.3886],[18.8875,8.371],[18.8549,8.3398],[18.813,8.2764],[18.7912,8.2574],[18.7738,8.2486],[18.7151,8.2287],[18.6726,8.2075],[18.6386,8.1776],[18.6186,8.1387],[18.6179,8.0901],[18.5893,8.0479],[18.5083,8.0307],[18.1754,8.022],[18.1564,8.0805],[18.1425,8.1516],[18.1269,8.2141],[18.1304,8.2696],[18.1339,8.3389],[18.1287,8.3788],[18.1044,8.4239],[18.0905,8.4673],[18.0888,8.521],[18.068,8.5522],[18.0315,8.5765],[18.0125,8.6216],[18.0073,8.684],[18.0142,8.7413],[18.0229,8.7708],[18.0142,8.8037],[17.9926,8.8238],[17.957,8.8418],[17.9407,8.8497],[17.9375,8.8597],[17.9424,8.8682],[17.9475,8.8776],[17.9538,8.8789],[17.9612,8.8845],[17.9617,8.8912],[17.9594,8.8954],[17.955,8.9012],[17.9675,9.0074],[17.9778,9.0179],[17.9839,9.0166],[17.9897,9.0083],[18.0043,8.9995],[18.0225,9.0167],[18.0335,9.021],[18.0474,9.0188],[18.0642,9.021],[18.0915,9.0412],[18.1205,9.0762],[18.1419,9.1147],[18.1462,9.1451],[18.1537,9.1494],[18.1655,9.1601],[18.1417,9.188],[18.0779,9.1971],[17.9958,9.2001],[17.9289,9.2336],[17.8529,9.2731],[17.7952,9.2913],[17.783,9.3278],[17.7556,9.3917],[17.7344,9.4312],[17.7131,9.4555],[17.6249,9.4525],[17.6067,9.5163],[17.5793,9.5589],[17.5365,9.5871],[17.5396,9.5918],[17.5592,9.6409],[17.561,9.6536],[17.5584,9.6632],[17.5438,9.684],[17.5227,9.7052],[17.4273,9.7748],[17.3534,9.8118],[17.3475,9.814],[17.3405,9.8155],[17.3295,9.8158],[17.5337,10.4637],[17.8272,10.4739],[17.8343,10.4705],[17.8411,10.4653],[17.9249,10.3861],[17.9313,10.3824],[17.9373,10.3801],[17.9488,10.3776],[17.9587,10.3732],[17.9723,10.3657],[17.978,10.3636],[17.993,10.3611],[18.0171,10.3538],[18.0255,10.3526],[18.0308,10.35],[18.035,10.3468],[18.0388,10.3447],[18.0432,10.345],[18.0518,10.3526],[18.0567,10.354],[18.0624,10.3515],[18.0695,10.3495],[18.0897,10.3467],[18.0955,10.3433],[18.1021,10.3351],[18.1063,10.333],[18.1113,10.3334],[18.1169,10.3374],[18.1209,10.3414],[18.1251,10.3449],[18.1305,10.3464],[18.1392,10.3442],[18.1451,10.3415],[18.1493,10.3376],[18.1519,10.3331],[18.1533,10.3277],[18.155,10.3162],[18.1568,10.3113],[18.1612,10.3082],[18.1671,10.306],[18.1757,10.3045],[18.18,10.301],[18.187,10.2937],[18.1929,10.2918],[18.2126,10.2907],[18.2185,10.2886],[18.2222,10.2848],[18.2258,10.2748],[18.2286,10.2707],[18.2323,10.2676],[18.2527,10.2593],[18.2564,10.2544],[18.2606,10.2506],[18.2648,10.2478],[18.2705,10.2465],[18.3119,10.2451],[18.3327,10.2391],[18.3433,10.2383],[18.3499,10.2364],[18.355,10.2336],[18.3667,10.2178],[18.3735,10.2106],[18.3816,10.2048],[18.3912,10.2003],[18.4455,10.1849],[18.4494,10.1822],[18.4531,10.1791],[18.4561,10.1752],[18.4632,10.1618],[18.47,10.1547],[18.4775,10.1483],[18.4806,10.1445],[18.4873,10.1308],[18.5008,10.1079],[18.5067,10.1021],[18.511,10.0995],[18.5164,10.0977],[18.5223,10.0963],[18.5276,10.0945],[18.532,10.0919],[18.5527,10.0709],[18.5568,10.0679],[18.5698,10.0599],[18.5727,10.0559],[18.5748,10.0512],[18.5777,10.0408],[18.5802,10.0362],[18.5838,10.033],[18.5885,10.0305],[18.5992,10.027],[18.6036,10.0244],[18.6071,10.0208],[18.6091,10.0159],[18.6097,10.0103],[18.6097,10.0017],[18.6002,9.9154],[18.6004,9.9131],[18.6024,9.911],[18.6058,9.9087],[18.6153,9.9042],[18.6216,9.9029],[18.6291,9.902],[18.6399,9.9028],[18.6476,9.902],[18.6535,9.9002],[18.6578,9.8973],[18.6781,9.8763],[18.6902,9.8673],[18.6977,9.8667],[18.7087,9.8684],[18.7292,9.8765],[18.757,9.8818],[18.7627,9.8845],[18.7664,9.8925],[18.7884,9.9844],[18.7953,9.9948],[18.8069,9.9987],[18.9436,10.0001],[18.9989,10.007],[19.0374,10.0266],[19.0495,10.0357],[19.0642,10.049],[19.0798,10.0678],[19.0926,10.0876],[19.0985,10.0952],[19.105,10.1064],[19.109,10.1165],[19.112,10.1203],[19.1152,10.1228],[19.1199,10.122],[19.1247,10.1223],[19.1312,10.1258],[19.141,10.1354],[19.1494,10.1384],[19.155,10.1387],[19.1579,10.1369],[19.1606,10.1363],[19.1641,10.1375],[19.1686,10.1495],[19.1727,10.1664],[19.19,10.1982],[19.1936,10.203],[19.1984,10.2074],[19.2076,10.2117],[19.2149,10.2135],[19.2205,10.216],[19.225,10.22],[19.2282,10.2282],[19.2361,10.2365],[19.2411,10.2478],[19.245,10.2547],[19.2498,10.2611],[19.256,10.2663],[19.2687,10.2735],[19.2755,10.2784],[19.2799,10.2835],[19.2813,10.2898],[19.283,10.294],[19.2893,10.296],[19.2951,10.2961],[19.3002,10.2975],[19.3027,10.2999],[19.3,10.3048],[19.2915,10.3109],[19.2901,10.3147],[19.2917,10.3196],[19.2945,10.3258],[19.2946,10.3314],[19.2924,10.3355],[19.2886,10.3386],[19.2842,10.3414],[19.2814,10.3451],[19.2816,10.3492],[19.2852,10.3528],[19.2935,10.3539],[19.3064,10.3529],[19.3118,10.3542],[19.3164,10.3574],[19.319,10.3639],[19.319,10.3694],[19.3184,10.3747],[19.3185,10.3794],[19.321,10.3832],[19.3254,10.3859],[19.332,10.3872],[19.3361,10.3901],[19.3362,10.396],[19.3325,10.4059],[19.3333,10.4121],[19.3368,10.4196],[19.3474,10.432],[19.3516,10.4397],[19.3623,10.4532],[19.3786,10.4691],[19.3853,10.4746],[19.3939,10.4782],[19.4026,10.4847],[19.4102,10.488],[19.42,10.4908],[19.4275,10.4938],[19.436,10.4994],[19.4422,10.502],[19.4492,10.5017],[19.4518,10.5008],[19.4532,10.4999],[19.4537,10.4959],[19.4532,10.4915],[19.4531,10.4867],[19.4569,10.4834],[19.4644,10.4824],[19.4792,10.485],[19.4889,10.4859],[19.5134,10.4926],[19.5212,10.4924],[19.528,10.493],[19.5337,10.4954],[19.5564,10.5344],[19.5564,10.5402],[19.5552,10.5454],[19.555,10.5495],[19.5578,10.5527],[19.5654,10.5518],[19.5693,10.5484],[19.5727,10.544],[19.5759,10.5409],[19.5801,10.5412],[19.5846,10.5448],[19.5909,10.5605],[19.5949,10.5661],[19.5997,10.5708],[19.6079,10.576],[19.6107,10.5824],[19.6098,10.5868],[19.6103,10.5912],[19.6143,10.5954],[19.64,10.6044],[19.6584,10.6185],[19.6059,10.3592],[19.6163,10.2923],[19.6287,10.2786],[19.6388,10.2517],[19.6414,10.237],[19.641,10.2252],[19.6379,10.2144],[19.6352,10.2076],[19.632,10.2024],[19.625,10.1956],[19.622,10.1915],[19.6197,10.1861],[19.6148,10.1725],[19.6143,10.1651],[19.6157,10.1558],[19.6138,10.1496],[19.6096,10.1444],[19.6034,10.138],[19.602,10.1313],[19.603,10.1242],[19.6053,10.1149],[19.6045,10.1087],[19.6016,10.1046],[19.584,10.0945],[19.5804,10.0912],[19.5769,10.0873],[19.5742,10.0822],[19.5721,10.0756],[19.5761,10.0645],[19.651,9.9281],[19.932,9.0636],[19.9321,9.0633]]]}},{"type":"Feature","properties":{"id":"TCD-1475","name":"Ouaddaï","nameBn":"উয়াডায় অঞ্চল","type":"Prefecture","bounds":[20.0001,12.6675,22.276,14.4707],"center":[21.1068,13.4714]},"geometry":{"type":"Polygon","coordinates":[[[22.1808,13.9206],[22.0994,13.8194],[22.075,13.7803],[22.0737,13.7714],[22.0971,13.7498],[22.1129,13.7298],[22.1163,13.7152],[22.1143,13.6997],[22.1143,13.6774],[22.1321,13.6387],[22.1959,13.5805],[22.2106,13.5417],[22.2112,13.4842],[22.2156,13.465],[22.2286,13.4411],[22.264,13.3992],[22.276,13.3763],[22.2676,13.3346],[22.2323,13.289],[22.14,13.1935],[22.1234,13.1822],[22.0161,13.1402],[21.9984,13.1306],[21.9641,13.0983],[21.9351,13.0592],[21.853,12.9057],[21.8278,12.8311],[21.8118,12.8],[21.8094,12.7937],[21.697,12.8309],[21.5745,12.882],[21.4826,12.8513],[21.3805,12.7901],[21.2886,12.6982],[21.2375,12.6777],[21.1967,12.688],[21.0945,12.6982],[20.9822,12.6675],[20.8495,12.7186],[20.8495,12.8105],[20.8392,12.882],[20.7575,12.8922],[20.6861,12.9126],[20.6759,13.0454],[20.5227,13.0454],[20.4104,13.0454],[20.2946,13.0923],[20.3009,13.1069],[20.3043,13.1183],[20.3048,13.2232],[20.2815,13.4027],[20.2832,13.5632],[20.2806,13.5722],[20.2449,13.6268],[20.237,13.6465],[20.2317,13.6698],[20.2385,13.8862],[20.235,13.8925],[20.2249,13.8993],[20.0001,14.0106],[20.0001,14.156],[20.1579,14.3263],[20.2137,14.371],[20.2294,14.3809],[20.234,14.3952],[20.2382,14.4012],[20.2415,14.4045],[20.266,14.4115],[20.2707,14.415],[20.2742,14.4193],[20.2812,14.4318],[20.288,14.4414],[20.2946,14.445],[20.3015,14.4468],[20.3198,14.4481],[20.326,14.4475],[20.3379,14.4448],[20.3433,14.4429],[20.3481,14.4407],[20.3529,14.4392],[20.3575,14.4394],[20.3622,14.4411],[20.3713,14.4456],[20.376,14.4473],[20.3813,14.4474],[20.4164,14.4393],[20.4289,14.4376],[20.435,14.4379],[20.4407,14.4389],[20.4873,14.4625],[20.4921,14.4641],[20.4968,14.4652],[20.5419,14.4707],[20.5515,14.4702],[20.5588,14.469],[20.7356,14.4117],[20.7399,14.4091],[20.7481,14.403],[20.7532,14.4003],[20.7748,14.394],[20.7803,14.3915],[20.7844,14.3886],[20.7993,14.3751],[20.8074,14.3691],[20.8156,14.3649],[20.8442,14.355],[20.8482,14.352],[20.8513,14.3482],[20.8538,14.3438],[20.8749,14.2967],[20.899,14.2648],[20.9581,14.2041],[20.9626,14.2008],[20.9689,14.1983],[20.9779,14.1962],[20.9896,14.1978],[20.9961,14.1975],[21.0003,14.1969],[21.0712,14.1489],[21.1682,14.1015],[21.2025,14.0928],[21.2213,14.0916],[21.2323,14.0934],[21.252,14.0993],[21.2614,14.1035],[21.2789,14.1137],[21.2871,14.1195],[21.3331,14.1427],[21.3618,14.148],[21.4217,14.1519],[21.4355,14.1515],[21.7023,14.1109],[22.0423,13.9995],[22.0846,13.9735],[22.0891,13.9687],[22.1136,13.9313],[22.1245,13.9205],[22.1377,13.9174],[22.1534,13.9174],[22.1802,13.9205],[22.1808,13.9206]]]}},{"type":"Feature","properties":{"id":"TCD-1489","name":"Salamat","nameBn":"সালামাত অঞ্চল","type":"Prefecture","bounds":[18.8463,9.0633,22.3647,12.1589],"center":[20.6054,10.5811]},"geometry":{"type":"Polygon","coordinates":[[[22.3647,10.9542],[22.3611,10.9536],[22.3394,10.9477],[22.3188,10.9394],[22.306,10.9326],[22.2872,10.916],[22.2765,10.9085],[22.2684,10.909],[22.253,10.9153],[22.2401,10.9059],[22.2294,10.892],[22.2006,10.8687],[22.1898,10.8373],[22.1764,10.8162],[22.1482,10.8308],[22.1324,10.8285],[22.0486,10.837],[22.0295,10.8287],[22.0183,10.8099],[22.0114,10.7893],[22.0049,10.7755],[22.0146,10.7546],[22.0039,10.7433],[21.9431,10.7283],[21.9256,10.7201],[21.895,10.6992],[21.8721,10.6776],[21.8684,10.6762],[21.8636,10.6679],[21.8528,10.6702],[21.8329,10.6799],[21.8226,10.6788],[21.8036,10.6737],[21.7954,10.6725],[21.7849,10.6693],[21.7788,10.6623],[21.7742,10.6552],[21.7684,10.652],[21.7534,10.6507],[21.7365,10.6462],[21.7226,10.6367],[21.7168,10.621],[21.7147,10.6014],[21.7055,10.5718],[21.7033,10.5524],[21.7055,10.532],[21.7147,10.4937],[21.7168,10.4773],[21.7205,10.468],[21.738,10.448],[21.7442,10.4391],[21.7444,10.4324],[21.7428,10.4258],[21.7436,10.419],[21.7511,10.4118],[21.7205,10.3608],[21.7168,10.3398],[21.7178,10.329],[21.7221,10.3142],[21.723,10.306],[21.7188,10.2966],[21.7089,10.2935],[21.6974,10.2924],[21.6889,10.2889],[21.677,10.2692],[21.6689,10.2492],[21.6563,10.2337],[21.6306,10.2274],[21.6253,10.2245],[21.5934,10.2145],[21.5897,10.2166],[21.5793,10.2123],[21.5667,10.2145],[21.5545,10.2187],[21.545,10.22],[21.5132,10.2005],[21.4854,10.1643],[21.4333,10.0461],[21.4069,10.0056],[21.3743,9.9731],[21.3395,9.9599],[21.3261,9.9628],[21.2851,9.9786],[21.2713,9.9872],[21.2569,9.9757],[21.2057,9.9168],[21.1984,9.903],[21.1954,9.8873],[21.1873,9.8851],[21.132,9.8494],[21.1217,9.8319],[21.1068,9.7955],[21.1059,9.7919],[21.1068,9.7781],[21.1052,9.774],[21.1016,9.7742],[21.097,9.7754],[21.0931,9.7743],[21.0803,9.7626],[21.0732,9.7576],[21.0658,9.7545],[21.0622,9.7562],[21.0529,9.7659],[21.0484,9.7682],[21.0427,9.7671],[21.0401,9.7648],[21.0391,9.7622],[21.0378,9.7607],[21.0323,9.758],[21.0256,9.7533],[21.0199,9.7479],[21.0174,9.7436],[21.0143,9.7245],[21.0001,9.6974],[20.9969,9.6822],[20.9961,9.6483],[20.99,9.6356],[20.9758,9.631],[20.9758,9.6242],[20.9801,9.6199],[20.9818,9.6168],[20.9831,9.6037],[20.9676,9.6106],[20.9623,9.6069],[20.9605,9.5981],[20.956,9.5894],[20.9343,9.5771],[20.9251,9.5696],[20.9212,9.559],[20.9127,9.5443],[20.8742,9.5025],[20.8638,9.4938],[20.8414,9.4844],[20.8343,9.4625],[20.8327,9.4373],[20.8261,9.4181],[20.8203,9.4162],[20.8139,9.4188],[20.8132,9.4191],[20.8067,9.4233],[20.802,9.4255],[20.7982,9.4234],[20.7924,9.414],[20.7883,9.4119],[20.7765,9.4078],[20.7711,9.3981],[20.7666,9.3866],[20.7579,9.3771],[20.7505,9.3845],[20.7409,9.3771],[20.6958,9.3635],[20.6549,9.343],[20.6679,9.302],[20.6167,9.302],[20.6097,9.3028],[20.5929,9.3082],[20.5923,9.3081],[20.5736,9.3091],[20.5723,9.3082],[20.5509,9.3203],[20.5418,9.3216],[20.5382,9.3119],[20.5373,9.2992],[20.5337,9.2896],[20.5264,9.2836],[20.5142,9.2815],[20.4961,9.2709],[20.5027,9.2474],[20.513,9.2239],[20.5072,9.2133],[20.4818,9.2047],[20.4676,9.1841],[20.4554,9.1593],[20.4352,9.1381],[20.4231,9.1432],[20.4124,9.1421],[20.4029,9.137],[20.3844,9.1236],[20.3783,9.1201],[20.3594,9.1164],[20.2768,9.1207],[20.257,9.1164],[20.2345,9.1346],[20.223,9.1419],[20.2126,9.145],[20.198,9.1405],[20.1695,9.1209],[20.1546,9.1164],[20.1376,9.1218],[20.1257,9.1338],[20.1171,9.1457],[20.1096,9.1512],[20.101,9.1481],[20.0996,9.1412],[20.1005,9.1341],[20.0994,9.1307],[20.0906,9.1311],[20.0769,9.1367],[20.0687,9.1381],[20.0605,9.1344],[20.0312,9.1102],[20.0284,9.1046],[20.0299,9.099],[20.0303,9.0939],[20.0243,9.0898],[20.0179,9.091],[20.0144,9.1063],[20.0069,9.1102],[20.0029,9.1085],[19.9995,9.1043],[19.9972,9.0986],[19.9963,9.0928],[19.993,9.0846],[19.9855,9.0832],[19.9765,9.0842],[19.969,9.0829],[19.9434,9.0659],[19.9321,9.0633],[19.932,9.0636],[19.651,9.9281],[19.5761,10.0645],[19.5721,10.0756],[19.5742,10.0822],[19.5769,10.0873],[19.5804,10.0912],[19.584,10.0945],[19.6016,10.1046],[19.6045,10.1087],[19.6053,10.1149],[19.603,10.1242],[19.602,10.1313],[19.6034,10.138],[19.6096,10.1444],[19.6138,10.1496],[19.6157,10.1558],[19.6143,10.1651],[19.6148,10.1725],[19.6197,10.1861],[19.622,10.1915],[19.625,10.1956],[19.632,10.2024],[19.6352,10.2076],[19.6379,10.2144],[19.641,10.2252],[19.6414,10.237],[19.6388,10.2517],[19.6287,10.2786],[19.6163,10.2923],[19.6059,10.3592],[19.6584,10.6185],[19.6771,10.7051],[19.6658,10.8782],[19.6669,10.896],[19.6743,10.9025],[19.6903,10.914],[19.6929,10.9177],[19.6929,10.9227],[19.6883,10.9299],[19.6829,10.9336],[19.6768,10.936],[19.6709,10.9373],[19.666,10.9396],[19.6616,10.9448],[19.6573,10.952],[19.6509,10.9653],[19.6365,10.9854],[19.633,10.989],[19.6285,10.9917],[19.6233,10.9936],[19.6113,10.9962],[19.602,10.9999],[19.6011,11.0005],[19.5947,11.0079],[19.5909,11.0109],[19.586,11.0133],[19.5804,11.0149],[19.5682,11.0172],[19.5626,11.0188],[19.5576,11.0211],[19.5536,11.0239],[19.5499,11.0271],[19.5414,11.0327],[19.5361,11.0346],[19.5264,11.0392],[19.5213,11.041],[19.5156,11.0411],[19.5098,11.0407],[19.5009,11.0385],[19.4976,11.0382],[19.4928,11.0392],[19.4881,11.0409],[19.4836,11.0435],[19.4796,11.0466],[19.4693,11.0571],[19.4655,11.0604],[19.4608,11.0626],[19.4554,11.064],[19.4496,11.064],[19.4441,11.0631],[19.4279,11.059],[19.422,11.0582],[19.4093,11.0593],[19.3977,11.0621],[19.3927,11.0642],[19.3882,11.0669],[19.3845,11.0704],[19.3814,11.0744],[19.3709,11.092],[19.3678,11.0961],[19.3644,11.0997],[19.3601,11.1026],[19.3548,11.1043],[19.3489,11.1052],[19.3429,11.105],[19.3264,11.1017],[19.3207,11.1021],[19.3154,11.1036],[19.2774,11.1226],[19.2735,11.1257],[19.2639,11.137],[19.26,11.1399],[19.2555,11.1426],[19.2502,11.1444],[19.2316,11.1477],[19.2259,11.1492],[19.2206,11.1512],[19.2079,11.1594],[19.1914,11.1647],[19.1817,11.1692],[19.1779,11.1726],[19.1747,11.1761],[19.1708,11.1793],[19.1657,11.1812],[19.1598,11.1823],[19.1416,11.1829],[19.136,11.1842],[19.1315,11.1867],[19.1115,11.2018],[19.098,11.2097],[19.0928,11.2114],[19.075,11.2155],[19.0704,11.218],[19.067,11.2215],[19.0647,11.2261],[19.062,11.2301],[19.0583,11.2334],[19.053,11.2352],[19.0345,11.2383],[19.0304,11.2402],[18.9897,11.2647],[18.9745,11.2777],[18.9701,11.2803],[18.9601,11.2845],[18.9542,11.2859],[18.9492,11.288],[18.9446,11.2906],[18.9411,11.294],[18.9385,11.2982],[18.9343,11.3076],[18.9318,11.312],[18.9283,11.3151],[18.9231,11.317],[18.9109,11.3181],[18.9054,11.3192],[18.9013,11.3217],[18.8986,11.3258],[18.8964,11.3306],[18.8937,11.3347],[18.8896,11.3377],[18.8844,11.3397],[18.8652,11.3425],[18.8604,11.3454],[18.8575,11.3504],[18.8561,11.3588],[18.8544,11.3649],[18.8488,11.3743],[18.8469,11.3804],[18.8463,11.3895],[18.8651,11.6798],[18.8676,11.6924],[18.873,11.7025],[18.8865,11.7064],[18.9961,11.7081],[19.0029,11.7069],[19.0122,11.7032],[19.0186,11.6932],[19.0461,11.6259],[19.0526,11.6167],[19.0614,11.6157],[19.0738,11.6189],[19.162,11.6517],[19.1756,11.6605],[19.1908,11.6737],[19.2858,11.845],[19.2912,11.8588],[19.2937,11.8729],[19.2879,11.8883],[19.2192,11.9994],[19.3896,12.1589],[19.4354,12.1519],[19.642,12.0977],[19.82,12.087],[19.8342,12.0623],[19.838,12.0484],[19.8442,11.9944],[19.8477,11.9838],[19.8526,11.9768],[19.8585,11.9749],[19.8675,11.9739],[19.8939,11.9755],[19.94,11.9739],[19.947,11.9747],[19.9518,11.9768],[19.954,11.9812],[19.9544,11.987],[19.9445,12.0434],[19.9445,12.0564],[19.946,12.0626],[19.9499,12.0678],[19.9602,12.0701],[20.2218,12.0783],[20.2505,12.0724],[20.2725,12.0647],[20.5211,11.8994],[21.0291,11.6496],[21.2614,11.5964],[21.8211,11.6981],[21.8387,11.6984],[21.8536,11.693],[21.8929,11.6704],[22.0461,11.6251],[22.068,11.6101],[22.0826,11.5948],[22.3642,10.9551],[22.3646,10.9545],[22.3647,10.9542]]]}},{"type":"Feature","properties":{"id":"TCD-5582","name":"Sila","nameBn":"সিলা অঞ্চল","type":"Prefecture","bounds":[19.819,10.9192,22.9565,13.0923],"center":[21.1347,12.2336]},"geometry":{"type":"Polygon","coordinates":[[[22.5558,10.979],[22.5347,10.9805],[22.5119,11.0008],[22.5028,10.9922],[22.4908,10.9932],[22.4763,10.998],[22.4605,11.0008],[22.4471,10.9983],[22.4376,10.9916],[22.4192,10.9707],[22.407,10.9631],[22.3918,10.9585],[22.3647,10.9542],[22.3646,10.9545],[22.3642,10.9551],[22.0826,11.5948],[22.068,11.6101],[22.0461,11.6251],[21.8929,11.6704],[21.8536,11.693],[21.8387,11.6984],[21.8211,11.6981],[21.2614,11.5964],[21.0291,11.6496],[20.5211,11.8994],[20.2725,12.0647],[20.2505,12.0724],[20.2218,12.0783],[19.9602,12.0701],[19.9499,12.0678],[19.946,12.0626],[19.9445,12.0564],[19.9445,12.0434],[19.9544,11.987],[19.954,11.9812],[19.9518,11.9768],[19.947,11.9747],[19.94,11.9739],[19.8939,11.9755],[19.8675,11.9739],[19.8585,11.9749],[19.8526,11.9768],[19.8477,11.9838],[19.8442,11.9944],[19.838,12.0484],[19.8342,12.0623],[19.82,12.087],[19.819,12.1433],[19.8215,12.1632],[19.8855,12.3434],[19.9155,12.4076],[19.9201,12.4154],[19.9263,12.4231],[19.9301,12.4265],[19.934,12.4295],[19.9383,12.4321],[19.9445,12.4375],[19.9518,12.4456],[19.975,12.4798],[20.012,12.5146],[20.0369,12.5512],[20.0434,12.5589],[20.0506,12.5656],[20.0545,12.5686],[20.059,12.5711],[20.0748,12.5779],[20.0902,12.5893],[20.094,12.5948],[20.0958,12.5994],[20.0951,12.6031],[20.0933,12.6071],[20.0878,12.6151],[20.0561,12.6463],[20.0502,12.6545],[20.0485,12.6602],[20.0486,12.6685],[20.055,12.68],[20.1225,12.7679],[20.1277,12.7725],[20.133,12.7733],[20.1384,12.7725],[20.1442,12.771],[20.1514,12.7718],[20.159,12.7756],[20.1695,12.7879],[20.1734,12.7965],[20.1749,12.8043],[20.1731,12.8261],[20.1746,12.8407],[20.1732,12.8485],[20.1707,12.8544],[20.1675,12.858],[20.1638,12.8607],[20.16,12.8627],[20.1555,12.862],[20.1463,12.8588],[20.1415,12.8581],[20.1364,12.8605],[19.9903,12.9706],[19.9823,12.9779],[19.9806,12.9827],[19.9876,12.986],[20.2454,13.0379],[20.2557,13.0412],[20.2604,13.0435],[20.268,13.0509],[20.2946,13.0923],[20.4104,13.0454],[20.5227,13.0454],[20.6759,13.0454],[20.6861,12.9126],[20.7575,12.8922],[20.8392,12.882],[20.8495,12.8105],[20.8495,12.7186],[20.9822,12.6675],[21.0945,12.6982],[21.1967,12.688],[21.2375,12.6777],[21.2886,12.6982],[21.3805,12.7901],[21.4826,12.8513],[21.5745,12.882],[21.697,12.8309],[21.8094,12.7937],[21.8137,12.7823],[21.8409,12.7489],[21.8801,12.6763],[21.9008,12.6564],[21.936,12.6395],[21.9772,12.6318],[22.0197,12.6314],[22.0587,12.6367],[22.1059,12.6504],[22.1441,12.6713],[22.1762,12.7015],[22.2049,12.7434],[22.3301,12.6615],[22.4325,12.6238],[22.4457,12.6111],[22.3959,12.4961],[22.3728,12.4631],[22.3749,12.4509],[22.408,12.3998],[22.4814,12.1767],[22.484,12.1647],[22.4848,12.1525],[22.4838,12.1403],[22.4581,12.0304],[22.4645,12.033],[22.4705,12.0361],[22.4814,12.0443],[22.5465,12.0644],[22.5855,12.0714],[22.5989,12.0632],[22.6073,12.0777],[22.6124,12.0728],[22.6135,12.0572],[22.6105,12.0396],[22.5929,11.9889],[22.5371,11.6809],[22.5417,11.633],[22.5618,11.586],[22.5923,11.5437],[22.6281,11.5098],[22.6625,11.4931],[22.743,11.4661],[22.7688,11.4423],[22.7716,11.4333],[22.7719,11.4032],[22.7818,11.3989],[22.877,11.4088],[22.9004,11.4082],[22.9148,11.3961],[22.9283,11.3252],[22.9537,11.2509],[22.9545,11.2378],[22.9565,11.2088],[22.952,11.191],[22.9352,11.1559],[22.929,11.1379],[22.9257,11.1181],[22.9251,11.098],[22.9224,11.0871],[22.9065,11.0699],[22.9002,11.0599],[22.8611,10.9192],[22.806,10.9245],[22.7451,10.9438],[22.7199,10.9647],[22.6827,10.9741],[22.6732,10.9751],[22.6383,10.9741],[22.6282,10.9761],[22.6091,10.9852],[22.6008,10.9878],[22.577,10.9851],[22.5558,10.979]]]}},{"type":"Feature","properties":{"id":"TCD-1487","name":"Tandjilé","nameBn":"তাঞ্জিলে অঞ্চল","type":"Prefecture","bounds":[15.4378,8.9911,17.561,10.2517],"center":[16.4994,9.6705]},"geometry":{"type":"Polygon","coordinates":[[[16.4354,9.1276],[16.434,9.1361],[16.4332,9.1514],[16.4205,9.1808],[16.3791,9.2251],[16.371,9.2376],[16.3574,9.2387],[16.3482,9.2336],[16.3193,9.2039],[16.3111,9.197],[16.3043,9.1924],[16.2941,9.189],[16.2719,9.1841],[16.2492,9.1768],[16.2121,9.1607],[16.2042,9.1559],[16.1972,9.149],[16.1884,9.137],[16.1745,9.1118],[16.1623,9.0976],[16.1542,9.0917],[16.147,9.0885],[16.1414,9.0883],[16.0424,9.1171],[16.0335,9.1179],[16.0221,9.1173],[16.0014,9.114],[15.9781,9.1061],[15.8295,9.0284],[15.8181,9.0251],[15.7933,9.0254],[15.7553,9.0322],[15.5956,8.9942],[15.5697,8.9914],[15.5433,8.9911],[15.5303,8.9923],[15.5185,8.9949],[15.5092,8.9983],[15.489,9.0077],[15.4805,9.013],[15.4639,9.0267],[15.4524,9.05],[15.4499,9.0675],[15.4492,9.1196],[15.4516,9.1423],[15.4513,9.1509],[15.446,9.1738],[15.4442,9.1787],[15.4422,9.1827],[15.4386,9.1841],[15.4378,9.1852],[15.4383,9.1868],[15.4453,9.1955],[15.4619,9.2242],[15.4693,9.2338],[15.4761,9.2409],[15.5017,9.2866],[15.5039,9.2898],[15.5154,9.3137],[15.5239,9.3258],[15.5318,9.3336],[15.5396,9.3441],[15.5433,9.3481],[15.5539,9.3533],[15.5601,9.3595],[15.5691,9.3723],[15.5761,9.3902],[15.5981,9.4186],[15.6706,9.4915],[15.6742,9.4959],[15.676,9.4997],[15.7052,9.5783],[15.7084,9.5908],[15.7163,9.6041],[15.8307,9.7413],[15.8444,9.7452],[15.8545,9.7429],[15.8883,9.7404],[15.9122,9.7312],[15.962,9.6884],[15.9679,9.6825],[15.9739,9.6832],[16.1584,9.8557],[16.1665,9.8668],[16.2115,9.9552],[16.2346,10.0238],[16.2433,10.0716],[16.2413,10.0952],[16.2463,10.1497],[16.2439,10.1603],[16.2419,10.1652],[16.2286,10.1865],[16.2194,10.1959],[16.4402,10.1929],[16.5007,10.2041],[16.5622,10.2508],[16.5681,10.2517],[16.5726,10.2498],[16.5759,10.2461],[16.5787,10.2421],[16.581,10.2375],[16.5838,10.2334],[16.587,10.2298],[16.5987,10.2205],[16.6021,10.2171],[16.605,10.2131],[16.607,10.2082],[16.6081,10.2026],[16.6089,10.1769],[16.6069,10.1512],[16.6078,10.1454],[16.61,10.141],[16.6207,10.1308],[16.6229,10.1262],[16.6279,10.1042],[16.6302,10.0996],[16.633,10.0956],[16.6362,10.0921],[16.6441,10.0859],[16.7115,10.0528],[16.7177,10.0485],[16.7219,10.0438],[16.7254,10.0386],[16.7304,10.0332],[16.7399,10.0265],[16.7472,10.0239],[16.7537,10.0236],[16.769,10.025],[16.7956,10.0224],[16.8043,10.019],[16.8216,10.0077],[16.8303,10.0044],[16.8501,10.0002],[16.8798,10.0001],[16.8828,9.9979],[16.8854,9.9948],[16.8908,9.9869],[16.8984,9.9805],[16.9117,9.9726],[16.9154,9.9694],[16.9225,9.9508],[16.9301,9.9419],[16.9369,9.9385],[16.9439,9.9372],[16.9942,9.9406],[16.9999,9.9416],[17.029,9.939],[17.0654,9.9315],[17.0833,9.926],[17.0937,9.9209],[17.096,9.9161],[17.1,9.9141],[17.1044,9.9144],[17.1163,9.9178],[17.1246,9.9185],[17.1301,9.917],[17.1348,9.9143],[17.1381,9.9107],[17.1508,9.8826],[17.1534,9.8783],[17.1562,9.8743],[17.1639,9.8681],[17.1992,9.8509],[17.2183,9.8391],[17.2276,9.8319],[17.2351,9.8294],[17.2416,9.8289],[17.2564,9.8307],[17.2698,9.8293],[17.2839,9.8247],[17.2979,9.8183],[17.307,9.8157],[17.3146,9.8148],[17.3295,9.8158],[17.3405,9.8155],[17.3475,9.814],[17.3534,9.8118],[17.4273,9.7748],[17.5227,9.7052],[17.5438,9.684],[17.5584,9.6632],[17.561,9.6536],[17.5592,9.6409],[17.5396,9.5918],[17.5365,9.5871],[17.5336,9.588],[17.5246,9.5988],[17.5207,9.6018],[17.5161,9.6042],[17.5058,9.6075],[17.4979,9.6092],[17.4884,9.6123],[17.479,9.6172],[17.4752,9.6205],[17.4721,9.6241],[17.4664,9.6321],[17.4633,9.6358],[17.4597,9.6392],[17.4552,9.6419],[17.4498,9.6434],[17.4437,9.6438],[17.4381,9.643],[17.4281,9.6394],[17.4029,9.625],[17.4003,9.6239],[17.3959,9.6228],[17.3849,9.6216],[17.366,9.6226],[17.3603,9.6218],[17.3539,9.62],[17.3477,9.6171],[17.3337,9.6086],[17.3069,9.6001],[17.301,9.5992],[17.2546,9.6015],[17.2454,9.5981],[17.2342,9.592],[17.2135,9.5767],[17.2045,9.5682],[17.1989,9.5609],[17.1976,9.5554],[17.1976,9.5497],[17.1995,9.5448],[17.2074,9.539],[17.2108,9.5354],[17.2125,9.5304],[17.2145,9.519],[17.2169,9.5146],[17.2183,9.5073],[17.2176,9.496],[17.2091,9.47],[17.2069,9.4517],[17.2068,9.4348],[17.2108,9.4076],[17.2114,9.3952],[17.21,9.386],[17.202,9.3773],[17.072,9.2755],[17.0632,9.2634],[17.0687,9.2528],[17.0792,9.2424],[17.1728,9.1733],[17.1824,9.1641],[17.1856,9.1565],[17.1803,9.1469],[17.1048,9.0698],[16.999,9.0375],[16.945,9.0349],[16.9191,9.0361],[16.7504,9.0768],[16.72,9.0886],[16.6672,9.1004],[16.6534,9.1077],[16.6132,9.1239],[16.5687,9.1361],[16.5437,9.1398],[16.5158,9.1404],[16.453,9.1278],[16.4354,9.1276]]]}},{"type":"Feature","properties":{"id":"TCD-5578","name":"Tibesti","nameBn":"তিবেস্টি অঞ্চল","type":"Préfecture","bounds":[14.9799,17.1245,18.9171,23.4447],"center":[16.6178,21.4716]},"geometry":{"type":"Polygon","coordinates":[[[15.9851,23.4447],[16.0762,23.3996],[16.1998,23.3387],[16.3232,23.2777],[16.4468,23.2167],[16.5703,23.1557],[16.6938,23.0947],[16.8173,23.0337],[16.9409,22.9727],[17.0643,22.9118],[17.1879,22.8508],[17.3114,22.7898],[17.4348,22.7288],[17.5584,22.6678],[17.6819,22.6068],[17.8055,22.5458],[17.929,22.4848],[18.0525,22.4239],[18.176,22.3628],[18.2996,22.3018],[18.423,22.2409],[18.5466,22.1798],[18.6701,22.1188],[18.7936,22.0579],[18.9171,21.9968],[18.7191,21.8498],[18.7438,21.6027],[18.7686,21.3555],[18.7438,21.1331],[18.5214,21.059],[18.1507,20.9354],[17.953,20.8365],[17.8294,20.713],[17.7058,20.6882],[17.4093,20.6882],[17.3598,20.4164],[16.8179,19.4622],[16.2714,18.4999],[15.4902,17.1245],[15.4943,17.1701],[15.4983,17.2157],[15.5023,17.2614],[15.5064,17.3071],[15.5105,17.3526],[15.5145,17.3983],[15.5186,17.4438],[15.5226,17.4895],[15.5266,17.5351],[15.5307,17.5807],[15.5347,17.6264],[15.5386,17.672],[15.5426,17.7177],[15.5468,17.7633],[15.5508,17.8089],[15.5548,17.8546],[15.5589,17.9001],[15.5629,17.9458],[15.5669,17.9914],[15.5677,18.0],[15.571,18.037],[15.575,18.0826],[15.579,18.1282],[15.5832,18.1739],[15.5872,18.2195],[15.5911,18.2651],[15.5952,18.3107],[15.5992,18.3563],[15.6032,18.402],[15.6072,18.4476],[15.6113,18.4932],[15.6153,18.5388],[15.6194,18.5845],[15.6235,18.6301],[15.6275,18.6757],[15.6315,18.7213],[15.6356,18.7669],[15.6396,18.8126],[15.6435,18.8582],[15.6476,18.9038],[15.6516,18.9494],[15.6557,18.9951],[15.6597,19.0406],[15.6638,19.0863],[15.6678,19.1319],[15.6718,19.1775],[15.6759,19.2232],[15.6799,19.2687],[15.6839,19.3144],[15.688,19.36],[15.6921,19.4056],[15.696,19.4512],[15.7001,19.4969],[15.7041,19.5425],[15.7081,19.5881],[15.7121,19.6338],[15.7162,19.6793],[15.7202,19.725],[15.7243,19.7706],[15.7284,19.8163],[15.7324,19.8618],[15.736,19.9035],[15.7672,19.982],[15.7823,20.008],[15.8223,20.077],[15.8623,20.146],[15.9024,20.2149],[15.9425,20.284],[15.963,20.3192],[15.9703,20.3363],[15.9682,20.3528],[15.954,20.3746],[15.9303,20.3993],[15.872,20.4602],[15.8138,20.5211],[15.7556,20.582],[15.6973,20.6429],[15.6695,20.6719],[15.5881,20.7328],[15.5702,20.7519],[15.5561,20.7737],[15.5442,20.799],[15.536,20.8441],[15.5443,20.8903],[15.569,20.9289],[15.6093,20.9507],[15.5928,20.9748],[15.5761,20.9993],[15.5593,21.0238],[15.5425,21.0483],[15.5258,21.0728],[15.5091,21.0973],[15.4922,21.1218],[15.4756,21.1463],[15.4588,21.1708],[15.442,21.1952],[15.4253,21.2198],[15.4085,21.2442],[15.3918,21.2687],[15.375,21.2932],[15.3583,21.3177],[15.3414,21.3422],[15.3248,21.3667],[15.301,21.4013],[15.2666,21.4407],[15.2475,21.4533],[15.2002,21.4765],[15.1845,21.4912],[15.1804,21.5073],[15.1801,21.5335],[15.1798,21.5532],[15.1788,21.6053],[15.1775,21.679],[15.1761,21.7634],[15.1746,21.8479],[15.1733,21.9216],[15.1724,21.9736],[15.172,21.9934],[15.1645,22.0337],[15.1563,22.0762],[15.1481,22.1187],[15.1361,22.1813],[15.1241,22.244],[15.1121,22.3066],[15.1,22.3693],[15.088,22.4319],[15.0759,22.4946],[15.064,22.5572],[15.0519,22.6199],[15.0399,22.6825],[15.028,22.7452],[15.0159,22.8078],[15.004,22.8704],[14.992,22.9331],[14.9799,22.9957],[14.9975,23.0038],[15.0552,23.03],[15.1129,23.0561],[15.1704,23.0823],[15.2281,23.1084],[15.2858,23.1345],[15.3435,23.1606],[15.4012,23.1868],[15.4588,23.2129],[15.5165,23.239],[15.5743,23.2652],[15.6319,23.2913],[15.6896,23.3175],[15.7472,23.3436],[15.8049,23.3698],[15.8625,23.3959],[15.9202,23.422],[15.9646,23.4422],[15.9851,23.4447]]]}},{"type":"Feature","properties":{"id":"TCD-4857","name":"Ville de N'Djamena","nameBn":"এনজামেনা","type":"Capital","bounds":[15.0118,12.0556,15.1253,12.1809],"center":[15.0579,12.1413]},"geometry":{"type":"Polygon","coordinates":[[[15.0406,12.0556],[15.0409,12.0676],[15.0446,12.0784],[15.0494,12.0846],[15.0304,12.1009],[15.0118,12.1086],[15.0135,12.134],[15.0216,12.1551],[15.0362,12.1745],[15.05,12.1809],[15.0743,12.1793],[15.0889,12.1679],[15.1075,12.1541],[15.1188,12.1346],[15.1253,12.1136],[15.1225,12.0906],[15.1047,12.0712],[15.0885,12.0615],[15.069,12.0582],[15.0406,12.0556]]]}},{"type":"Feature","properties":{"id":"TCD-1473","name":"Wadi Fira","nameBn":"ওয়াডি ফিরা অঞ্চল","type":"Prefecture","bounds":[20.0001,13.9174,23.1192,16.0007],"center":[21.5596,15.0457]},"geometry":{"type":"Polygon","coordinates":[[[23.1192,15.7072],[23.0946,15.7043],[23.0685,15.6867],[23.0045,15.6114],[22.9257,15.5639],[22.9067,15.5414],[22.8995,15.5102],[22.9068,15.4814],[22.9236,15.4556],[22.945,15.4331],[22.9665,15.4048],[22.9764,15.3736],[22.9784,15.3402],[22.9657,15.2239],[22.958,15.2016],[22.9133,15.1217],[22.9055,15.1126],[22.8716,15.0997],[22.8488,15.0875],[22.829,15.0716],[22.7389,14.9798],[22.7272,14.959],[22.722,14.9347],[22.721,14.9159],[22.7153,14.8994],[22.6955,14.8815],[22.6589,14.8574],[22.6508,14.8419],[22.6508,14.8162],[22.659,14.7613],[22.6646,14.7438],[22.6797,14.7118],[22.6814,14.7029],[22.6766,14.689],[22.6663,14.6817],[22.4654,14.6293],[22.4227,14.6091],[22.3823,14.5791],[22.3635,14.5435],[22.3864,14.5065],[22.4172,14.4841],[22.4249,14.4704],[22.4391,14.3629],[22.4424,14.3569],[22.4473,14.3516],[22.451,14.3458],[22.4499,14.3384],[22.4449,14.3334],[22.4313,14.3272],[22.427,14.323],[22.4181,14.3059],[22.4171,14.2981],[22.42,14.2862],[22.429,14.2646],[22.441,14.2499],[22.4577,14.2411],[22.5141,14.2315],[22.5319,14.2206],[22.5409,14.2012],[22.5477,14.169],[22.5464,14.1397],[22.5315,14.1226],[22.5082,14.1136],[22.4814,14.1085],[22.4587,14.0961],[22.4216,14.0621],[22.4023,14.0493],[22.2435,13.9754],[22.2147,13.9566],[22.1906,13.9328],[22.1808,13.9206],[22.1802,13.9205],[22.1534,13.9174],[22.1377,13.9174],[22.1245,13.9205],[22.1136,13.9313],[22.0891,13.9687],[22.0846,13.9735],[22.0423,13.9995],[21.7023,14.1109],[21.4355,14.1515],[21.4217,14.1519],[21.3618,14.148],[21.3331,14.1427],[21.2871,14.1195],[21.2789,14.1137],[21.2614,14.1035],[21.252,14.0993],[21.2323,14.0934],[21.2213,14.0916],[21.2025,14.0928],[21.1682,14.1015],[21.0712,14.1489],[21.0003,14.1969],[20.9961,14.1975],[20.9896,14.1978],[20.9779,14.1962],[20.9689,14.1983],[20.9626,14.2008],[20.9581,14.2041],[20.899,14.2648],[20.8749,14.2967],[20.8538,14.3438],[20.8513,14.3482],[20.8482,14.352],[20.8442,14.355],[20.8156,14.3649],[20.8074,14.3691],[20.7993,14.3751],[20.7844,14.3886],[20.7803,14.3915],[20.7748,14.394],[20.7532,14.4003],[20.7481,14.403],[20.7399,14.4091],[20.7356,14.4117],[20.5588,14.469],[20.5515,14.4702],[20.5419,14.4707],[20.4968,14.4652],[20.4921,14.4641],[20.4873,14.4625],[20.4407,14.4389],[20.435,14.4379],[20.4289,14.4376],[20.4164,14.4393],[20.3813,14.4474],[20.376,14.4473],[20.3713,14.4456],[20.3622,14.4411],[20.3575,14.4394],[20.3529,14.4392],[20.3481,14.4407],[20.3433,14.4429],[20.3379,14.4448],[20.326,14.4475],[20.3198,14.4481],[20.3015,14.4468],[20.2946,14.445],[20.288,14.4414],[20.2812,14.4318],[20.2742,14.4193],[20.2707,14.415],[20.266,14.4115],[20.2415,14.4045],[20.2382,14.4012],[20.234,14.3952],[20.2294,14.3809],[20.2137,14.371],[20.1579,14.3263],[20.0001,14.156],[20.0001,15.7838],[20.0803,15.7734],[20.1129,15.7641],[20.133,15.7534],[20.1828,15.7177],[20.2778,15.6737],[20.2918,15.669],[20.2983,15.6688],[20.3043,15.6695],[20.3531,15.6827],[20.3926,15.6999],[20.4835,15.7116],[20.4916,15.7109],[20.4971,15.7091],[20.5064,15.7031],[20.5244,15.6948],[20.5467,15.6873],[20.5584,15.6855],[20.5672,15.6855],[20.5874,15.6928],[20.597,15.6972],[20.6251,15.7177],[20.6603,15.737],[20.8329,15.7994],[20.8963,15.8394],[20.9104,15.8536],[20.9228,15.8695],[20.9406,15.9017],[20.9435,15.9057],[20.9506,15.9128],[20.9587,15.9187],[20.9768,15.9288],[21.0353,15.945],[21.0532,15.955],[21.0769,15.9752],[21.0915,15.9838],[21.0966,15.9852],[21.1022,15.9847],[21.1116,15.9801],[21.1823,15.936],[21.2934,15.8901],[21.3049,15.8879],[21.3126,15.8879],[21.3193,15.889],[21.3781,15.9206],[21.3888,15.9238],[21.6433,15.976],[21.6951,15.9921],[21.7318,15.9999],[21.7419,16.0007],[21.7575,15.9994],[21.7626,15.9982],[21.8446,15.9705],[21.8904,15.9494],[21.9085,15.9446],[21.916,15.9445],[21.922,15.9457],[21.9679,15.9648],[21.991,15.9778],[22.0182,15.986],[22.0609,15.991],[22.0927,15.9904],[22.1182,15.986],[22.1442,15.9789],[22.1496,15.98],[22.1543,15.9823],[22.1664,15.9942],[22.1733,15.9988],[22.1771,15.9998],[22.1795,15.9997],[22.1813,15.9984],[22.2089,15.9716],[22.2493,15.9407],[22.2589,15.9359],[22.271,15.9314],[22.2797,15.9292],[22.2949,15.927],[22.3042,15.9269],[22.3118,15.9276],[22.3172,15.929],[22.3326,15.9343],[22.3372,15.9366],[22.3477,15.9436],[22.356,15.9482],[22.363,15.9487],[22.3709,15.9484],[22.3767,15.947],[22.381,15.9441],[22.3881,15.9373],[22.3922,15.9342],[22.3967,15.9315],[22.4186,15.9239],[22.4316,15.922],[22.4707,15.9089],[22.475,15.9049],[22.4786,15.898],[22.4842,15.8821],[22.4868,15.8779],[22.4902,15.8743],[22.494,15.8714],[22.4978,15.8692],[22.5054,15.8667],[22.51,15.8648],[22.5134,15.8613],[22.5156,15.8568],[22.5191,15.8468],[22.5218,15.8424],[22.5258,15.8393],[22.5304,15.8367],[22.5342,15.8333],[22.5366,15.8289],[22.5383,15.8239],[22.5405,15.8193],[22.5445,15.8152],[22.5509,15.8124],[22.5608,15.8096],[22.5675,15.8101],[22.5731,15.8117],[22.5868,15.8189],[22.592,15.8206],[22.6035,15.8226],[22.6339,15.8243],[22.6691,15.8298],[22.6906,15.8302],[22.7193,15.8278],[22.7275,15.8283],[22.7466,15.8352],[22.7593,15.8384],[22.7675,15.8385],[22.774,15.837],[22.7785,15.8342],[22.7986,15.8187],[22.8035,15.8165],[22.8091,15.8146],[22.8346,15.8112],[22.8395,15.809],[22.8455,15.8058],[22.8531,15.8026],[22.8665,15.7986],[22.8755,15.7975],[22.8834,15.7973],[22.8949,15.7992],[22.9157,15.8061],[22.936,15.8153],[22.9438,15.8179],[22.9572,15.8209],[22.9663,15.8216],[22.9742,15.8212],[22.9976,15.8165],[23.0575,15.794],[23.0622,15.7915],[23.0662,15.7884],[23.0696,15.7848],[23.1181,15.7104],[23.1191,15.7075],[23.1192,15.7072]]]}}]}