{"type":"FeatureCollection","features":[{"type":"Feature","properties":{"id":"TJK-5491","name":"Dushanbe","nameBn":"দুশান্বে","type":"Independent City","bounds":[68.6893,38.4693,68.8612,38.6582],"center":[68.7695,38.5518]},"geometry":{"type":"Polygon","coordinates":[[[68.7645,38.6582],[68.773,38.6515],[68.7802,38.6363],[68.7905,38.622],[68.7972,38.6076],[68.8008,38.592],[68.8115,38.5924],[68.8102,38.5808],[68.8205,38.5763],[68.838,38.5732],[68.8438,38.5602],[68.8612,38.5571],[68.8492,38.5427],[68.8429,38.5297],[68.8133,38.5203],[68.7856,38.5006],[68.7878,38.4841],[68.786,38.4738],[68.7672,38.4702],[68.748,38.4693],[68.7296,38.4796],[68.7269,38.5015],[68.7283,38.5163],[68.718,38.5284],[68.7247,38.54],[68.7184,38.5517],[68.6956,38.5441],[68.6893,38.5499],[68.7153,38.5642],[68.7059,38.5821],[68.7095,38.5911],[68.7314,38.5964],[68.7578,38.6067],[68.7632,38.6184],[68.7592,38.6367],[68.761,38.6506],[68.7645,38.6582]]]}},{"type":"Feature","properties":{"id":"TJK-366","name":"Gorno-Badakhshan","nameBn":"গর্নো-বাদাখশন স্বায়ত্তশাসিত প্রদেশ","type":"Region","bounds":[70.2738,36.6786,75.1641,39.4674],"center":[72.7189,38.2492]},"geometry":{"type":"Polygon","coordinates":[[[73.5122,39.4674],[73.6043,39.4596],[73.6326,39.4483],[73.6319,39.4288],[73.6426,39.3718],[73.6438,39.3513],[73.6413,39.3353],[73.6101,39.2655],[73.6023,39.2358],[73.6078,39.2073],[73.6314,39.1751],[73.6738,39.1426],[73.683,39.1287],[73.6919,39.0945],[73.6982,39.0784],[73.7093,39.0655],[73.7687,39.0299],[73.8016,39.0014],[73.816,38.9938],[73.8261,38.9769],[73.8291,38.9602],[73.8239,38.9449],[73.8096,38.9327],[73.7879,38.9271],[73.7399,38.9269],[73.7172,38.9186],[73.7029,38.907],[73.689,38.8911],[73.6808,38.873],[73.6837,38.8549],[73.6958,38.8401],[73.7249,38.8146],[73.7359,38.8004],[73.739,38.7811],[73.7327,38.7372],[73.7364,38.7217],[73.7723,38.6746],[73.7791,38.6602],[73.7886,38.6186],[73.7974,38.6028],[73.8164,38.5866],[73.8336,38.578],[73.8697,38.5668],[73.8871,38.559],[73.9173,38.5371],[73.9329,38.5297],[74.0289,38.5272],[74.0455,38.5304],[74.0588,38.547],[74.0508,38.5627],[74.0381,38.5792],[74.0373,38.5985],[74.0449,38.6035],[74.0844,38.614],[74.0914,38.6204],[74.0929,38.6288],[74.0927,38.6377],[74.095,38.6458],[74.1091,38.6623],[74.1234,38.6695],[74.1404,38.6692],[74.202,38.6523],[74.2214,38.6497],[74.2438,38.6502],[74.3134,38.6692],[74.3342,38.667],[74.4766,38.6121],[74.6461,38.5611],[74.6643,38.549],[74.6796,38.5349],[74.6965,38.524],[74.7191,38.5215],[74.742,38.5231],[74.7603,38.52],[74.7763,38.5107],[74.7922,38.494],[74.7923,38.4939],[74.7923,38.4938],[74.8013,38.4828],[74.8085,38.4777],[74.8262,38.4696],[74.8329,38.4636],[74.8358,38.4552],[74.8371,38.4457],[74.8444,38.4172],[74.8441,38.3978],[74.8383,38.3794],[74.8267,38.3632],[74.7843,38.3257],[74.7748,38.3096],[74.7711,38.2915],[74.7713,38.1963],[74.7907,38.0814],[74.8099,38.0532],[74.8804,38.0217],[74.8928,37.994],[74.8888,37.9309],[74.8912,37.9043],[74.8908,37.8977],[74.894,37.8923],[74.9052,37.8869],[74.9137,37.8808],[74.9116,37.8738],[74.8946,37.8521],[74.8873,37.8489],[74.8832,37.8439],[74.8861,37.8306],[74.8912,37.823],[74.8984,37.8176],[74.9493,37.7953],[74.9614,37.7855],[74.9652,37.7675],[74.9618,37.7581],[74.9544,37.7477],[74.9386,37.7308],[74.9319,37.7216],[74.9288,37.7124],[74.9269,37.7036],[74.9236,37.6953],[74.9109,37.6802],[74.8971,37.6676],[74.8861,37.6535],[74.8822,37.6344],[74.8919,37.5992],[74.915,37.5707],[74.9452,37.5486],[75.0359,37.5064],[75.0534,37.4938],[75.104,37.4406],[75.1325,37.4185],[75.1641,37.4006],[75.1152,37.3878],[75.0918,37.3784],[75.0796,37.3612],[75.0771,37.3242],[75.0684,37.3121],[74.9754,37.2843],[74.9515,37.2813],[74.9329,37.2725],[74.9237,37.2552],[74.9127,37.239],[74.8923,37.2311],[74.8626,37.2446],[74.8169,37.3069],[74.7885,37.3312],[74.6604,37.394],[74.6314,37.3811],[74.5298,37.3758],[74.5212,37.3756],[74.5127,37.3772],[74.4766,37.3861],[74.4548,37.3936],[74.4359,37.3923],[74.4183,37.3892],[74.3894,37.3934],[74.3781,37.3938],[74.3682,37.3964],[74.3536,37.4159],[74.3438,37.421],[74.3324,37.4204],[74.3209,37.4139],[74.3156,37.4269],[74.3038,37.4002],[74.2794,37.3975],[74.2504,37.4037],[74.2239,37.4034],[74.2077,37.3899],[74.206,37.3557],[74.1876,37.3384],[74.1633,37.3301],[74.0522,37.3122],[73.9767,37.2903],[73.9556,37.2868],[73.8993,37.2655],[73.8564,37.2616],[73.8362,37.2567],[73.7982,37.2285],[73.784,37.2259],[73.7687,37.2289],[73.7461,37.2305],[73.7362,37.2277],[73.72,37.2175],[73.7092,37.217],[73.7024,37.2212],[73.688,37.2369],[73.6805,37.2425],[73.6599,37.2437],[73.6177,37.2332],[73.6016,37.2409],[73.5973,37.2618],[73.6099,37.2814],[73.631,37.296],[73.652,37.3021],[73.6904,37.3052],[73.705,37.311],[73.7222,37.3225],[73.7391,37.3383],[73.7457,37.3529],[73.7459,37.3949],[73.7471,37.4031],[73.7535,37.4284],[73.7178,37.4318],[73.6745,37.431],[73.605,37.4458],[73.4853,37.481],[73.4406,37.4799],[73.3784,37.4525],[73.3619,37.4564],[73.345,37.4645],[73.3212,37.467],[73.2963,37.4649],[73.2761,37.4595],[73.2603,37.45],[73.2115,37.4083],[73.2006,37.4042],[73.179,37.4107],[73.1702,37.4083],[73.1321,37.3844],[73.1164,37.3691],[73.0992,37.3399],[73.0878,37.3261],[73.0675,37.3151],[72.9956,37.3093],[72.9243,37.2748],[72.9022,37.2538],[72.8774,37.2469],[72.8305,37.2398],[72.7907,37.2203],[72.761,37.1875],[72.7144,37.11],[72.6727,37.0576],[72.6666,37.0383],[72.6577,37.0288],[72.5087,37.0111],[72.475,36.9975],[72.4059,37.0077],[72.361,37.0003],[72.2598,36.9673],[72.2203,36.9455],[72.2104,36.9366],[72.1959,36.919],[72.1868,36.9114],[72.1528,36.8957],[72.1267,36.8727],[71.8366,36.6992],[71.7976,36.6861],[71.7485,36.6786],[71.6999,36.6786],[71.653,36.687],[71.6111,36.7048],[71.5774,36.7333],[71.5639,36.7507],[71.5529,36.7696],[71.5453,36.79],[71.5385,36.8361],[71.5285,36.8561],[71.4717,36.93],[71.4631,36.9481],[71.46,36.9698],[71.46,37.0107],[71.4564,37.0225],[71.4392,37.0441],[71.4332,37.0547],[71.4311,37.067],[71.4332,37.1273],[71.441,37.1684],[71.4468,37.1836],[71.4538,37.1926],[71.4501,37.2167],[71.487,37.2671],[71.4879,37.295],[71.4939,37.3075],[71.4965,37.3285],[71.4947,37.3707],[71.4871,37.4091],[71.4902,37.4234],[71.5015,37.4458],[71.5112,37.4859],[71.4972,37.5665],[71.5015,37.6103],[71.5051,37.616],[71.5172,37.6292],[71.5221,37.6376],[71.5248,37.6477],[71.5295,37.6786],[71.5409,37.7097],[71.5425,37.7196],[71.5403,37.7305],[71.5312,37.7518],[71.5295,37.7611],[71.5378,37.779],[71.5747,37.798],[71.5903,37.8157],[71.5942,37.8338],[71.595,37.8575],[71.5934,37.8793],[71.5903,37.8914],[71.5977,37.8984],[71.5673,37.9281],[71.5371,37.9445],[71.5012,37.9462],[71.3792,37.9129],[71.361,37.902],[71.3412,37.8933],[71.3198,37.9006],[71.2818,37.925],[71.2712,37.9262],[71.2635,37.9244],[71.2583,37.9265],[71.2545,37.9393],[71.2558,37.9499],[71.2659,37.9725],[71.2726,37.998],[71.3024,38.0423],[71.316,38.0833],[71.3345,38.1117],[71.3409,38.1409],[71.3591,38.1841],[71.3645,38.2068],[71.3582,38.2513],[71.3344,38.2807],[71.3001,38.2987],[71.2177,38.3258],[71.1559,38.3762],[71.1174,38.3986],[71.0894,38.4099],[71.077,38.4122],[71.0649,38.4118],[71.0571,38.409],[71.0498,38.4087],[71.0395,38.4153],[71.033,38.4237],[71.0246,38.4419],[71.0186,38.4498],[71.0086,38.4586],[70.9982,38.4657],[70.9868,38.4709],[70.974,38.4737],[70.9507,38.4731],[70.9435,38.4659],[70.9468,38.4432],[70.9362,38.433],[70.9122,38.4377],[70.871,38.4532],[70.8593,38.4517],[70.8536,38.4474],[70.8498,38.4428],[70.843,38.4402],[70.8341,38.4406],[70.818,38.445],[70.8089,38.4464],[70.7773,38.4465],[70.7611,38.4435],[70.7542,38.4365],[70.7418,38.4194],[70.6833,38.4146],[70.6649,38.4054],[70.6649,38.3986],[70.6848,38.3867],[70.6767,38.3749],[70.6414,38.3542],[70.6321,38.3501],[70.6093,38.3512],[70.6,38.3471],[70.5958,38.3382],[70.5956,38.3278],[70.5967,38.3176],[70.5966,38.3092],[70.5831,38.2751],[70.573,38.2711],[70.5594,38.2682],[70.5472,38.2627],[70.5379,38.2381],[70.5085,38.1925],[70.4826,38.1374],[70.4703,38.1205],[70.4601,38.1122],[70.426,38.1006],[70.4154,38.0945],[70.3712,38.0583],[70.3263,38.0113],[70.318,38.0063],[70.2986,37.9981],[70.2983,37.9985],[70.2814,38.0159],[70.2749,38.0241],[70.2738,38.0355],[70.2847,38.0565],[70.3266,38.115],[70.339,38.1439],[70.3413,38.156],[70.3416,38.2117],[70.3393,38.2405],[70.3364,38.2563],[70.3362,38.2635],[70.3373,38.2724],[70.3449,38.2962],[70.3567,38.3194],[70.3586,38.3272],[70.359,38.3368],[70.3552,38.3538],[70.3516,38.3626],[70.3479,38.3692],[70.3405,38.3769],[70.3382,38.3846],[70.3382,38.3963],[70.3419,38.4183],[70.3556,38.442],[70.4241,38.4879],[70.4357,38.5011],[70.4391,38.5157],[70.4881,38.5493],[70.499,38.5588],[70.5049,38.5681],[70.5091,38.5806],[70.5169,38.5927],[70.531,38.604],[70.5635,38.6248],[70.5749,38.6347],[70.5935,38.6581],[70.5951,38.6712],[70.5906,38.683],[70.5795,38.6938],[70.5496,38.7114],[70.5451,38.7173],[70.5488,38.7213],[70.5752,38.7296],[70.5927,38.7376],[70.6478,38.7755],[70.6632,38.7834],[70.7038,38.7943],[70.7193,38.8003],[70.7327,38.804],[70.7451,38.8019],[70.758,38.789],[70.7682,38.7646],[70.7726,38.7602],[70.7814,38.7593],[70.8121,38.7627],[70.8438,38.7608],[70.8587,38.762],[70.87,38.7649],[70.9038,38.7846],[70.9527,38.8013],[70.9729,38.805],[70.9932,38.8062],[71.0064,38.8027],[71.0126,38.7966],[71.0118,38.7856],[71.0097,38.7764],[71.0104,38.7677],[71.0149,38.7583],[71.0469,38.7124],[71.0512,38.6988],[71.0472,38.6775],[71.0478,38.6669],[71.0468,38.6558],[71.0426,38.6444],[71.0333,38.6287],[71.0328,38.617],[71.0418,38.6066],[71.0717,38.5997],[71.1152,38.6012],[71.1507,38.6084],[71.1659,38.6101],[71.1782,38.6083],[71.1913,38.6012],[71.2024,38.5902],[71.2078,38.5749],[71.2106,38.5552],[71.2162,38.5409],[71.2255,38.5299],[71.253,38.5148],[71.2711,38.4942],[71.2778,38.489],[71.2843,38.4862],[71.2958,38.4867],[71.3115,38.491],[71.3372,38.5042],[71.3546,38.5113],[71.3722,38.5137],[71.3864,38.5102],[71.399,38.5032],[71.4095,38.4938],[71.422,38.4777],[71.4269,38.4751],[71.4308,38.4774],[71.4341,38.4836],[71.4376,38.4934],[71.4426,38.5008],[71.4576,38.5151],[71.4652,38.5196],[71.4792,38.5224],[71.5102,38.5215],[71.5186,38.5235],[71.527,38.529],[71.5309,38.5383],[71.5306,38.565],[71.5329,38.5741],[71.5387,38.5791],[71.5512,38.5833],[71.561,38.5878],[71.5681,38.5962],[71.5751,38.6088],[71.5796,38.6136],[71.5868,38.6198],[71.5976,38.6325],[71.6046,38.6375],[71.6142,38.6405],[71.6317,38.6414],[71.646,38.6396],[71.6615,38.6403],[71.6747,38.6424],[71.72,38.6541],[71.7269,38.6543],[71.7331,38.6526],[71.7422,38.6466],[71.7458,38.6451],[71.7508,38.646],[71.7567,38.6501],[71.764,38.66],[71.7699,38.6703],[71.7778,38.6759],[71.7934,38.6792],[71.8098,38.6842],[71.8214,38.6929],[71.8333,38.7037],[71.8474,38.7124],[71.8746,38.7192],[71.8903,38.7213],[71.9396,38.7233],[71.9559,38.728],[71.9742,38.736],[72.0028,38.7558],[72.0161,38.7676],[72.034,38.7904],[72.0627,38.8081],[72.0337,38.8329],[72.0232,38.8477],[72.011,38.871],[72.0074,38.8847],[72.0083,38.8986],[72.0122,38.9086],[72.0156,38.9302],[72.027,38.9567],[72.0579,38.9846],[72.1146,39.0275],[72.1227,39.0383],[72.1253,39.0472],[72.1233,39.0551],[72.1222,39.0666],[72.1247,39.0781],[72.1311,39.0859],[72.1417,39.0927],[72.1654,39.103],[72.1996,39.1135],[72.2134,39.12],[72.2205,39.1281],[72.224,39.1376],[72.2248,39.1668],[72.2287,39.1895],[72.2289,39.1892],[72.2403,39.1899],[72.2814,39.2597],[72.3042,39.3136],[72.3163,39.3288],[72.3341,39.3338],[72.3559,39.3361],[72.3932,39.3508],[72.4107,39.3513],[72.4436,39.3448],[72.4604,39.3441],[72.4767,39.3461],[72.5081,39.372],[72.519,39.3757],[72.5341,39.3723],[72.5594,39.3596],[72.5758,39.3593],[72.587,39.3649],[72.6061,39.3835],[72.6164,39.3904],[72.6337,39.3945],[72.6505,39.3938],[72.8353,39.3562],[72.8505,39.3567],[72.8937,39.3639],[72.9143,39.3627],[72.9768,39.3522],[72.9943,39.3478],[73.0093,39.3486],[73.0584,39.3688],[73.0711,39.3707],[73.0834,39.3678],[73.101,39.3612],[73.136,39.3535],[73.1679,39.3554],[73.2694,39.3826],[73.3264,39.3909],[73.3333,39.4011],[73.3355,39.4152],[73.3432,39.4307],[73.3676,39.4438],[73.4769,39.4648],[73.5122,39.4674]]]}},{"type":"Feature","properties":{"id":"TJK-367","name":"Khatlon","nameBn":"খাতলোন প্রদেশ","type":"Region","bounds":[67.772,36.9252,70.4391,38.7348],"center":[69.1055,37.8063]},"geometry":{"type":"Polygon","coordinates":[[[67.7805,37.1889],[67.7851,37.2036],[67.804,37.2334],[67.8154,37.2673],[67.8206,37.3033],[67.8172,37.3454],[67.7973,37.4244],[67.8012,37.4664],[67.8292,37.5279],[67.8719,37.5868],[67.9234,37.6388],[67.9773,37.6797],[68.0502,37.7604],[68.0796,37.8063],[68.1222,37.9083],[68.14,37.9227],[68.1711,37.9311],[68.2177,37.9361],[68.233,37.9398],[68.238,37.9427],[68.2385,37.9424],[68.2654,37.9259],[68.2756,37.9167],[68.2898,37.9066],[68.3146,37.9047],[68.391,37.9144],[68.4096,37.9182],[68.4136,37.9157],[68.4178,37.9123],[68.4203,37.9078],[68.4236,37.9042],[68.4291,37.9025],[68.435,37.9031],[68.4541,37.907],[68.4607,37.9102],[68.4659,37.9164],[68.4819,37.9625],[68.4918,37.983],[68.505,37.9975],[68.5362,38.0088],[68.541,38.0124],[68.5437,38.0194],[68.5461,38.0382],[68.5468,38.061],[68.5504,38.0792],[68.5492,38.0841],[68.544,38.0871],[68.5288,38.0909],[68.5223,38.0933],[68.5187,38.0971],[68.5188,38.1022],[68.5207,38.1074],[68.5365,38.1334],[68.5789,38.1878],[68.582,38.1943],[68.5842,38.2002],[68.5863,38.2122],[68.5868,38.224],[68.5853,38.2405],[68.5831,38.2507],[68.5702,38.2845],[68.5697,38.2895],[68.5719,38.295],[68.5758,38.3003],[68.591,38.3154],[68.6093,38.3282],[68.6166,38.3298],[68.6262,38.3297],[68.6627,38.3213],[68.6968,38.3167],[68.7044,38.3166],[68.7139,38.3178],[68.7273,38.3233],[68.7349,38.3276],[68.7404,38.3323],[68.7519,38.3454],[68.7564,38.3489],[68.7626,38.3511],[68.77,38.3525],[68.78,38.3531],[68.789,38.3508],[68.7955,38.3479],[68.8115,38.3278],[68.822,38.3268],[68.8596,38.3342],[68.8666,38.3364],[68.8736,38.3399],[68.8813,38.3479],[68.886,38.3542],[68.8987,38.3755],[68.9026,38.3798],[68.9068,38.3835],[68.9269,38.3929],[68.9943,38.4123],[69.1308,38.4187],[69.1771,38.4358],[69.1811,38.4365],[69.1872,38.4364],[69.1946,38.4352],[69.2024,38.4327],[69.2104,38.4284],[69.2157,38.4243],[69.22,38.4201],[69.2263,38.4125],[69.2289,38.4075],[69.23,38.4048],[69.2337,38.3862],[69.3153,38.3841],[69.3248,38.3804],[69.3347,38.3755],[69.3349,38.3703],[69.3327,38.3657],[69.3293,38.3615],[69.3195,38.3542],[69.3156,38.3492],[69.3143,38.3429],[69.3197,38.3319],[69.3256,38.3271],[69.3347,38.3242],[69.3456,38.3245],[69.3638,38.3233],[69.3738,38.3253],[69.3813,38.328],[69.392,38.3349],[69.4047,38.3467],[69.4249,38.3611],[69.4426,38.3766],[69.4489,38.3853],[69.453,38.3894],[69.4583,38.3929],[69.4628,38.3966],[69.4721,38.4094],[69.477,38.413],[69.4959,38.4214],[69.4997,38.4238],[69.5079,38.4309],[69.5115,38.4348],[69.5354,38.4479],[69.5618,38.4602],[69.6063,38.4932],[69.6159,38.5054],[69.7073,38.6119],[69.7132,38.6158],[69.7197,38.618],[69.7339,38.617],[69.7405,38.6156],[69.7464,38.6133],[69.7511,38.6101],[69.758,38.6021],[69.7608,38.5978],[69.7642,38.5938],[69.7704,38.5911],[69.7794,38.5904],[69.797,38.5947],[69.8062,38.5987],[69.8128,38.6032],[69.8495,38.6553],[69.9095,38.705],[69.919,38.7115],[69.9242,38.714],[69.9713,38.7277],[69.9869,38.7338],[70.0001,38.7348],[70.0188,38.7306],[70.033,38.7242],[70.0417,38.7172],[70.0491,38.7095],[70.0845,38.6823],[70.0969,38.6681],[70.1196,38.6496],[70.1454,38.6385],[70.1604,38.6318],[70.1675,38.6164],[70.1668,38.6037],[70.161,38.581],[70.1573,38.5572],[70.1601,38.5484],[70.164,38.5459],[70.1685,38.549],[70.197,38.576],[70.224,38.5967],[70.2291,38.5995],[70.2368,38.6018],[70.2472,38.6032],[70.2941,38.6021],[70.3533,38.6067],[70.3598,38.6044],[70.3648,38.6014],[70.3674,38.5981],[70.373,38.5931],[70.4135,38.5688],[70.4179,38.5653],[70.4213,38.5613],[70.4239,38.557],[70.4282,38.5476],[70.4332,38.531],[70.4391,38.5157],[70.4357,38.5011],[70.4241,38.4879],[70.3556,38.442],[70.3419,38.4183],[70.3382,38.3963],[70.3382,38.3846],[70.3405,38.3769],[70.3479,38.3692],[70.3516,38.3626],[70.3552,38.3538],[70.359,38.3368],[70.3586,38.3272],[70.3567,38.3194],[70.3449,38.2962],[70.3373,38.2724],[70.3362,38.2635],[70.3364,38.2563],[70.3393,38.2405],[70.3416,38.2117],[70.3413,38.156],[70.339,38.1439],[70.3266,38.115],[70.2847,38.0565],[70.2738,38.0355],[70.2749,38.0241],[70.2814,38.0159],[70.2983,37.9985],[70.2986,37.9981],[70.2938,37.9961],[70.2887,37.9908],[70.2838,37.9819],[70.2727,37.9782],[70.2609,37.9765],[70.2539,37.9734],[70.2504,37.9641],[70.2502,37.9556],[70.2537,37.9474],[70.2615,37.9393],[70.2381,37.9324],[70.2147,37.9293],[70.1922,37.9329],[70.1721,37.9461],[70.1605,37.9207],[70.1652,37.8899],[70.1792,37.8608],[70.196,37.8399],[70.2075,37.8356],[70.2403,37.8276],[70.2472,37.8192],[70.2499,37.8049],[70.2565,37.7918],[70.2656,37.7812],[70.2751,37.7742],[70.2696,37.7626],[70.2718,37.7487],[70.2819,37.7196],[70.2831,37.7048],[70.2805,37.696],[70.277,37.688],[70.2751,37.6755],[70.2626,37.6609],[70.2577,37.6581],[70.2536,37.6546],[70.2539,37.6466],[70.2552,37.6375],[70.2539,37.6308],[70.2483,37.6233],[70.2461,37.6213],[70.241,37.6171],[70.2377,37.6181],[70.2184,37.6174],[70.2165,37.6171],[70.2019,37.588],[70.1994,37.5793],[70.1927,37.576],[70.1579,37.5414],[70.1291,37.5323],[70.0991,37.5366],[70.0692,37.5452],[70.0417,37.5488],[70.048,37.5414],[70.0169,37.546],[70.0076,37.5488],[70.0042,37.5514],[69.9985,37.5556],[69.9947,37.5623],[69.9895,37.5673],[69.9766,37.5693],[69.9554,37.5755],[69.9445,37.5897],[69.9352,37.6057],[69.9188,37.6171],[69.8952,37.6182],[69.8533,37.6012],[69.8329,37.5967],[69.823,37.593],[69.8127,37.5858],[69.8022,37.5815],[69.7918,37.5861],[69.7845,37.5904],[69.7622,37.5958],[69.7543,37.5967],[69.7296,37.5941],[69.6873,37.5796],[69.665,37.5762],[69.5287,37.586],[69.5087,37.579],[69.4914,37.537],[69.4697,37.5201],[69.4254,37.4943],[69.4218,37.4895],[69.4156,37.4775],[69.4117,37.4725],[69.404,37.4669],[69.3896,37.4588],[69.3845,37.4533],[69.3784,37.4374],[69.3763,37.4189],[69.377,37.3807],[69.3789,37.3771],[69.3883,37.3751],[69.3912,37.3707],[69.3909,37.3653],[69.3885,37.3638],[69.3858,37.3631],[69.3845,37.3601],[69.3849,37.3509],[69.3864,37.3415],[69.3894,37.3329],[69.3946,37.3261],[69.4031,37.3112],[69.4097,37.2767],[69.4179,37.2677],[69.4099,37.2457],[69.4269,37.2395],[69.4452,37.2364],[69.4421,37.2236],[69.4077,37.1775],[69.3912,37.1647],[69.3508,37.1441],[69.3348,37.1291],[69.3239,37.121],[69.3121,37.1175],[69.3086,37.1169],[69.2856,37.1129],[69.2658,37.1054],[69.2457,37.1039],[69.151,37.155],[69.1457,37.157],[69.1236,37.1692],[69.1143,37.1775],[69.0964,37.213],[69.0784,37.2252],[69.0556,37.2371],[69.0358,37.2516],[69.021,37.288],[69.0055,37.3055],[68.9852,37.3204],[68.9654,37.3291],[68.8972,37.336],[68.8937,37.3372],[68.8879,37.3381],[68.8851,37.3348],[68.8903,37.3229],[68.8968,37.3165],[68.913,37.3068],[68.9176,37.3024],[68.9211,37.288],[68.9158,37.2791],[68.9047,37.2767],[68.8903,37.282],[68.877,37.2961],[68.868,37.3121],[68.8568,37.3249],[68.8358,37.3291],[68.8138,37.3234],[68.8102,37.3121],[68.822,37.282],[68.8246,37.2606],[68.8204,37.2509],[68.8085,37.2516],[68.7713,37.2707],[68.7596,37.2752],[68.7465,37.2762],[68.7259,37.2745],[68.6869,37.279],[68.6689,37.2783],[68.6575,37.2677],[68.6627,37.2637],[68.6655,37.2594],[68.6712,37.2472],[68.6486,37.2444],[68.6364,37.2299],[68.6308,37.2138],[68.6269,37.2063],[68.6088,37.2041],[68.5714,37.1947],[68.5515,37.1926],[68.5465,37.1882],[68.5327,37.169],[68.5239,37.1647],[68.5133,37.164],[68.4658,37.1554],[68.4037,37.1516],[68.418,37.1283],[68.4115,37.1134],[68.3919,37.1054],[68.3658,37.1032],[68.3461,37.1069],[68.3267,37.113],[68.3073,37.1142],[68.2883,37.1032],[68.2808,37.0867],[68.2816,37.0665],[68.2883,37.0244],[68.2778,37.0101],[68.2537,37.0102],[68.2126,37.0213],[68.1864,37.0183],[68.168,37.0061],[68.152,36.9928],[68.1334,36.9865],[68.1211,36.9803],[68.0549,36.9346],[68.0447,36.9292],[68.0327,36.9252],[68.0248,36.9255],[68.0202,36.9257],[68.0111,36.9309],[68.0061,36.9387],[68.002,36.9475],[67.9962,36.9558],[67.9618,36.9899],[67.9529,36.9962],[67.9293,37.0062],[67.9184,37.0138],[67.9025,37.0344],[67.892,37.052],[67.8781,37.0644],[67.8329,37.0731],[67.808,37.0832],[67.7853,37.0965],[67.7731,37.11],[67.772,37.125],[67.7805,37.1889]]]}},{"type":"Feature","properties":{"id":"TJK-369","name":"Leninabad","nameBn":"লেনিনাবাদ","type":"Region","bounds":[67.3427,38.8994,70.9795,41.04],"center":[69.1609,39.6335]},"geometry":{"type":"MultiPolygon","coordinates":[[[[70.5659,41.0184],[70.5934,41.0094],[70.6167,40.9935],[70.6305,40.9764],[70.6434,40.9523],[70.6451,40.9352],[70.6252,40.9387],[70.6084,40.9509],[70.5791,40.9809],[70.5625,40.9938],[70.5615,40.9946],[70.5498,41.0152],[70.5659,41.0184]]],[[[70.959,40.2384],[70.9795,40.2141],[70.9629,40.1897],[70.9293,40.1706],[70.8985,40.1626],[70.8452,40.1718],[70.8318,40.1682],[70.8249,40.1635],[70.8067,40.1562],[70.806,40.1577],[70.8027,40.1601],[70.7977,40.1619],[70.7921,40.1614],[70.7887,40.159],[70.7825,40.1526],[70.7435,40.1271],[70.7298,40.1207],[70.6659,40.1042],[70.6394,40.0849],[70.6347,40.0593],[70.636,40.0285],[70.6274,39.9939],[70.614,39.9758],[70.5966,39.962],[70.5766,39.9522],[70.5551,39.9462],[70.5126,39.9452],[70.5009,39.9406],[70.4942,39.9317],[70.486,39.9096],[70.4772,39.9009],[70.4556,39.9068],[70.448,39.92],[70.4509,39.9374],[70.4602,39.9561],[70.4732,39.9701],[70.4885,39.9785],[70.505,39.9851],[70.5209,39.9937],[70.5356,40.016],[70.5255,40.0337],[70.5021,40.046],[70.4772,40.052],[70.3976,40.0612],[70.3595,40.074],[70.3243,40.0775],[70.3063,40.0848],[70.2903,40.0982],[70.2778,40.1121],[70.2635,40.1243],[70.2415,40.1327],[70.2185,40.1341],[70.1688,40.1317],[70.1472,40.137],[70.0046,40.2088],[69.9696,40.2116],[69.5755,40.1036],[69.5588,40.1017],[69.543,40.1031],[69.5366,40.1079],[69.5261,40.1232],[69.518,40.1251],[69.5135,40.1207],[69.5092,40.1034],[69.5063,40.0969],[69.4857,40.0737],[69.4696,40.051],[69.4631,40.0254],[69.4712,39.9937],[69.4751,39.9877],[69.4773,39.9816],[69.4781,39.975],[69.4773,39.9682],[69.5004,39.9357],[69.5016,39.9225],[69.4054,39.8961],[69.3573,39.9595],[69.3278,39.9847],[69.314,39.9869],[69.3103,39.9848],[69.3101,39.9786],[69.3057,39.9686],[69.2864,39.9358],[69.2407,39.8289],[69.2296,39.7905],[69.2263,39.751],[69.2333,39.7327],[69.2484,39.7194],[69.2659,39.7078],[69.2801,39.6943],[69.2875,39.6778],[69.2912,39.6589],[69.2862,39.5397],[69.3003,39.5156],[69.3397,39.5281],[69.3459,39.5354],[69.3484,39.5432],[69.352,39.5496],[69.3616,39.5529],[69.3672,39.5499],[69.3915,39.5305],[69.4122,39.525],[69.4553,39.5305],[69.4773,39.5304],[69.4961,39.5326],[69.5144,39.5376],[69.5314,39.5456],[69.5649,39.5681],[69.5823,39.5736],[69.6694,39.5778],[69.7103,39.5741],[69.7498,39.5638],[69.7916,39.5454],[69.8304,39.5362],[69.9078,39.5485],[69.9486,39.5451],[69.9788,39.5344],[69.9871,39.5396],[70.0027,39.5569],[70.0197,39.5686],[70.0404,39.5736],[70.0623,39.5735],[70.0827,39.5698],[70.1163,39.5546],[70.1324,39.55],[70.149,39.5543],[70.1573,39.5639],[70.1852,39.6103],[70.2007,39.6195],[70.2103,39.6097],[70.2148,39.5911],[70.215,39.5741],[70.2044,39.5382],[70.206,39.5241],[70.2233,39.5191],[70.2411,39.5224],[70.3303,39.5731],[70.3432,39.5769],[70.3535,39.5759],[70.3743,39.571],[70.3843,39.5709],[70.3904,39.574],[70.3954,39.5795],[70.4015,39.5848],[70.4111,39.5875],[70.4276,39.5901],[70.46,39.5995],[70.4772,39.6012],[70.491,39.5969],[70.5135,39.5815],[70.5261,39.5756],[70.5436,39.5743],[70.5803,39.5795],[70.5978,39.5778],[70.6221,39.5635],[70.636,39.5425],[70.6556,39.4946],[70.6194,39.4733],[70.6034,39.4661],[70.5991,39.4623],[70.5957,39.4575],[70.5904,39.4463],[70.587,39.4416],[70.5783,39.4374],[70.5648,39.4341],[70.51,39.4281],[70.5047,39.4262],[70.5018,39.4221],[70.4956,39.41],[70.4911,39.4057],[70.485,39.402],[70.4726,39.4014],[70.3687,39.3776],[70.3281,39.3763],[70.3182,39.3778],[70.3134,39.3807],[70.3047,39.3877],[70.2996,39.3904],[70.2931,39.3915],[70.2858,39.3904],[70.2786,39.3875],[70.2709,39.38],[70.2636,39.3677],[70.26,39.3634],[70.2552,39.3602],[70.1491,39.3203],[70.1292,39.3087],[70.1245,39.3067],[70.1199,39.3067],[70.1166,39.3115],[70.1159,39.3171],[70.1155,39.3289],[70.1143,39.3341],[70.111,39.3381],[70.1058,39.3413],[70.0945,39.3418],[70.0794,39.3398],[70.0518,39.3313],[70.0395,39.3251],[70.0315,39.3193],[70.0274,39.3152],[70.022,39.3132],[70.0157,39.3132],[70.0074,39.3178],[70.004,39.3228],[70.0001,39.331],[69.99,39.3319],[69.8892,39.3211],[69.8809,39.3193],[69.8724,39.3134],[69.8673,39.3081],[69.8572,39.2936],[69.8461,39.2812],[69.8367,39.2747],[69.8265,39.2693],[69.8153,39.2651],[69.8082,39.2636],[69.7995,39.2633],[69.7853,39.2664],[69.7776,39.2699],[69.7715,39.2737],[69.7649,39.2818],[69.7568,39.2949],[69.7458,39.2946],[69.7363,39.2934],[69.6665,39.2616],[69.6705,39.252],[69.676,39.2463],[69.6887,39.2362],[69.692,39.2304],[69.6938,39.2225],[69.6889,39.1816],[69.6847,39.1705],[69.6813,39.1632],[69.6755,39.156],[69.6711,39.1516],[69.6483,39.1363],[69.6479,39.129],[69.6485,39.1248],[69.6497,39.1196],[69.6516,39.115],[69.6466,39.1097],[69.635,39.1045],[69.6008,39.0965],[69.5863,39.0909],[69.5764,39.0856],[69.5684,39.0776],[69.564,39.0743],[69.559,39.0721],[69.5532,39.0722],[69.5475,39.0763],[69.5442,39.0805],[69.5428,39.0858],[69.5437,39.0916],[69.5496,39.1096],[69.551,39.1218],[69.5503,39.133],[69.5475,39.1433],[69.5428,39.1524],[69.5358,39.1604],[69.5004,39.1858],[69.4967,39.1873],[69.486,39.1875],[69.4108,39.1798],[69.4029,39.1803],[69.3937,39.1791],[69.3842,39.1757],[69.371,39.1664],[69.3652,39.1587],[69.3616,39.1511],[69.3603,39.1446],[69.358,39.1084],[69.3541,39.103],[69.3469,39.0991],[69.3301,39.098],[69.2334,39.1007],[69.2166,39.0968],[69.1934,39.0892],[69.1205,39.0577],[69.1071,39.0499],[69.103,39.0459],[69.0961,39.0411],[69.0655,39.0304],[69.0337,39.0354],[69.0092,39.04],[69.005,39.0416],[68.9902,39.0445],[68.9842,39.0473],[68.921,39.06],[68.865,39.0638],[68.804,39.0602],[68.7923,39.0623],[68.7853,39.0659],[68.7827,39.0704],[68.7795,39.0744],[68.7745,39.0773],[68.7607,39.0755],[68.6658,39.0469],[68.5977,39.0498],[68.5901,39.0481],[68.5834,39.0436],[68.5777,39.0315],[68.5691,39.0045],[68.5671,39.0005],[68.5668,39.0],[68.5351,38.9827],[68.5207,38.9606],[68.5099,38.9511],[68.4748,38.9401],[68.4548,38.936],[68.4262,38.9371],[68.3901,38.9258],[68.3836,38.9231],[68.3744,38.9202],[68.3678,38.9196],[68.3596,38.9217],[68.3399,38.9294],[68.3327,38.9312],[68.3199,38.9306],[68.3038,38.9278],[68.2481,38.91],[68.2298,38.906],[68.1804,38.9049],[68.1535,38.8994],[68.1534,38.8994],[68.1347,38.921],[68.1009,38.9793],[68.0856,38.9938],[68.0854,38.9938],[68.0853,38.994],[68.0851,38.994],[68.0773,38.9955],[68.0691,38.9961],[68.0609,38.9955],[68.0531,38.994],[68.0364,38.9844],[68.0198,38.9797],[68.0034,38.9821],[67.988,38.9938],[67.9801,38.9974],[67.9633,39.0019],[67.9489,39.002],[67.9348,38.9991],[67.9215,38.9939],[67.9213,38.9939],[67.9213,38.9938],[67.9212,38.9938],[67.8452,38.9738],[67.8184,38.9734],[67.6905,38.9896],[67.6733,39.003],[67.6722,39.0038],[67.6722,39.004],[67.6672,39.0284],[67.6786,39.1059],[67.6767,39.1196],[67.6766,39.1198],[67.6676,39.1318],[67.6612,39.1334],[67.6445,39.1306],[67.6377,39.1315],[67.6321,39.1362],[67.6242,39.1474],[67.6198,39.1513],[67.5803,39.1636],[67.499,39.166],[67.3782,39.1995],[67.3501,39.2198],[67.35,39.2201],[67.3427,39.2596],[67.3444,39.2738],[67.3465,39.2808],[67.3512,39.2853],[67.3587,39.2904],[67.3606,39.2918],[67.3713,39.2945],[67.3803,39.2923],[67.3869,39.2942],[67.3944,39.3274],[67.4071,39.361],[67.4082,39.3979],[67.4148,39.4381],[67.4273,39.4766],[67.4365,39.4857],[67.4517,39.4872],[67.4774,39.4844],[67.4824,39.4853],[67.487,39.4872],[67.4912,39.4901],[67.4946,39.4937],[67.4876,39.538],[67.5074,39.5529],[67.5874,39.5627],[67.6804,39.6141],[67.7176,39.6234],[67.7645,39.6226],[68.1062,39.5541],[68.2559,39.5506],[68.3376,39.5279],[68.3866,39.5252],[68.4363,39.5288],[68.4977,39.5414],[68.5174,39.5484],[68.5173,39.5488],[68.5102,39.5614],[68.5067,39.5676],[68.5202,39.5825],[68.5629,39.6036],[68.587,39.6232],[68.6003,39.6429],[68.6058,39.6669],[68.6158,39.8281],[68.6262,39.8496],[68.6378,39.8489],[68.6403,39.8481],[68.6511,39.8447],[68.6851,39.868],[68.7015,39.8584],[68.7282,39.825],[68.7416,39.8196],[68.7483,39.8261],[68.7505,39.8361],[68.7506,39.8411],[68.7504,39.8425],[68.7575,39.8575],[68.7609,39.8591],[68.7714,39.8605],[68.7752,39.8625],[68.7874,39.8817],[68.7876,39.8958],[68.7652,39.9324],[68.7556,39.954],[68.752,39.9728],[68.7589,39.9806],[68.7798,39.9694],[68.8001,39.9351],[68.8154,39.8919],[68.8383,39.8646],[68.8808,39.8783],[68.8774,39.9006],[68.7894,39.994],[68.7844,40.004],[68.7829,40.0134],[68.785,40.0339],[68.7816,40.0415],[68.7638,40.0525],[68.7617,40.0615],[68.7747,40.0799],[68.7904,40.0702],[68.8131,40.0389],[68.8261,40.0421],[68.8615,40.0658],[68.8818,40.0708],[68.9545,40.0621],[68.9773,40.0649],[68.9854,40.0771],[68.987,40.0917],[68.9838,40.107],[68.9773,40.121],[68.9307,40.1468],[68.6965,40.1117],[68.6871,40.1103],[68.6517,40.1208],[68.607,40.1423],[68.5811,40.1642],[68.602,40.1754],[68.6427,40.1837],[68.6983,40.195],[68.7205,40.1965],[68.7785,40.1888],[68.8019,40.1911],[68.8367,40.2064],[68.8566,40.2127],[69.0192,40.2321],[69.042,40.2292],[69.0736,40.2169],[69.108,40.2036],[69.1979,40.183],[69.2477,40.1817],[69.2853,40.195],[69.2853,40.2186],[69.2125,40.2688],[69.2084,40.2983],[69.2346,40.3008],[69.2731,40.2896],[69.3053,40.2938],[69.3127,40.3428],[69.3063,40.365],[69.2955,40.3839],[69.2694,40.4198],[69.2597,40.4376],[69.2383,40.494],[69.2382,40.494],[69.198,40.5458],[69.1984,40.5665],[69.2343,40.5853],[69.295,40.5892],[69.3093,40.5958],[69.3135,40.6094],[69.3066,40.6625],[69.3072,40.6993],[69.3142,40.7293],[69.3296,40.7553],[69.3551,40.7804],[69.3693,40.7894],[69.3853,40.7961],[69.4178,40.8042],[69.4358,40.8027],[69.4492,40.7945],[69.4617,40.7843],[69.4773,40.777],[69.5092,40.7747],[69.5319,40.7586],[69.5708,40.7125],[69.5826,40.7044],[69.6078,40.6918],[69.6189,40.6817],[69.6372,40.6579],[69.6475,40.6474],[69.6601,40.6387],[69.6909,40.63],[69.7177,40.6363],[69.7416,40.6525],[69.7835,40.693],[69.8033,40.7056],[69.8253,40.714],[70.0097,40.758],[70.1042,40.8133],[70.208,40.8446],[70.2804,40.8777],[70.3359,40.927],[70.3635,41.0324],[70.4012,41.04],[70.4457,41.0259],[70.458,41.0157],[70.4772,40.9998],[70.4798,40.9965],[70.4829,40.9935],[70.5144,40.9726],[70.6969,40.8162],[70.7051,40.8074],[70.7032,40.7889],[70.6835,40.7945],[70.6487,40.8175],[70.6287,40.8159],[70.6193,40.8032],[70.6218,40.786],[70.6374,40.7706],[70.7289,40.7545],[70.7671,40.7376],[70.7585,40.7039],[70.7563,40.6956],[70.7562,40.6951],[70.7407,40.6877],[70.7372,40.6836],[70.7355,40.6789],[70.7321,40.675],[70.7157,40.6721],[70.7072,40.669],[70.6929,40.6604],[70.6779,40.6499],[70.6172,40.6119],[70.5821,40.5788],[70.5693,40.5704],[70.5542,40.565],[70.5394,40.5619],[70.5255,40.5571],[70.512,40.5468],[70.4879,40.5156],[70.4778,40.5055],[70.4682,40.5025],[70.3994,40.4902],[70.3696,40.4755],[70.3538,40.4561],[70.3554,40.4351],[70.357,40.4304],[70.3588,40.4277],[70.372,40.413],[70.3714,40.4133],[70.3736,40.4118],[70.3821,40.4039],[70.3849,40.3997],[70.3714,40.3649],[70.4212,40.348],[70.4422,40.3433],[70.4641,40.3448],[70.4829,40.3493],[70.5019,40.3508],[70.524,40.3437],[70.5506,40.3105],[70.5639,40.2642],[70.5818,40.2217],[70.6221,40.1996],[70.6643,40.1975],[70.7072,40.2002],[70.8497,40.2338],[70.9383,40.2399],[70.959,40.2384]]],[[[70.4837,39.8822],[70.4987,39.8819],[70.6199,39.8507],[70.655,39.8498],[70.6866,39.8609],[70.6989,39.8584],[70.7064,39.84],[70.7048,39.8221],[70.6945,39.8148],[70.6616,39.8098],[70.633,39.7985],[70.5816,39.7666],[70.5759,39.7701],[70.5473,39.8076],[70.5374,39.8173],[70.5035,39.8355],[70.4901,39.8502],[70.4826,39.8668],[70.4837,39.8822]]]]}},{"type":"Feature","properties":{"id":"TJK-368","name":"Tadzhikistan Territories","nameBn":"জেলা অফ রিপাবলিকান সাঅর্ডিনেশন","type":"Region","bounds":[68.0376,37.9025,72.2287,39.6121],"center":[70.1331,38.9773]},"geometry":{"type":"Polygon","coordinates":[[[71.4595,39.6121],[71.493,39.5962],[71.5097,39.585],[71.5109,39.5841],[71.5254,39.5692],[71.5314,39.5531],[71.526,39.5382],[71.5006,39.5092],[71.4921,39.4937],[71.5129,39.4588],[71.5543,39.4442],[71.6028,39.4423],[71.7046,39.459],[71.7244,39.4594],[71.7403,39.4483],[71.7492,39.4255],[71.7518,39.3997],[71.7481,39.3796],[71.7366,39.3646],[71.7232,39.354],[71.713,39.3415],[71.7109,39.321],[71.7183,39.3011],[71.7329,39.2851],[71.7512,39.2742],[71.7704,39.2695],[71.807,39.2728],[71.8435,39.285],[71.9423,39.339],[71.9592,39.3459],[71.9965,39.3519],[72.0315,39.3667],[72.0498,39.3689],[72.067,39.3585],[72.0781,39.3366],[72.0841,39.3112],[72.0858,39.2901],[72.0948,39.2751],[72.1155,39.2681],[72.1586,39.2626],[72.1671,39.2587],[72.1824,39.2493],[72.2033,39.2408],[72.2064,39.2346],[72.2065,39.2269],[72.2092,39.2173],[72.2186,39.2009],[72.2287,39.1895],[72.2248,39.1668],[72.224,39.1376],[72.2205,39.1281],[72.2134,39.12],[72.1996,39.1135],[72.1654,39.103],[72.1417,39.0927],[72.1311,39.0859],[72.1247,39.0781],[72.1222,39.0666],[72.1233,39.0551],[72.1253,39.0472],[72.1227,39.0383],[72.1146,39.0275],[72.0579,38.9846],[72.027,38.9567],[72.0156,38.9302],[72.0122,38.9086],[72.0083,38.8986],[72.0074,38.8847],[72.011,38.871],[72.0232,38.8477],[72.0337,38.8329],[72.0627,38.8081],[72.034,38.7904],[72.0161,38.7676],[72.0028,38.7558],[71.9742,38.736],[71.9559,38.728],[71.9396,38.7233],[71.8903,38.7213],[71.8746,38.7192],[71.8474,38.7124],[71.8333,38.7037],[71.8214,38.6929],[71.8098,38.6842],[71.7934,38.6792],[71.7778,38.6759],[71.7699,38.6703],[71.764,38.66],[71.7567,38.6501],[71.7508,38.646],[71.7458,38.6451],[71.7422,38.6466],[71.7331,38.6526],[71.7269,38.6543],[71.72,38.6541],[71.6747,38.6424],[71.6615,38.6403],[71.646,38.6396],[71.6317,38.6414],[71.6142,38.6405],[71.6046,38.6375],[71.5976,38.6325],[71.5868,38.6198],[71.5796,38.6136],[71.5751,38.6088],[71.5681,38.5962],[71.561,38.5878],[71.5512,38.5833],[71.5387,38.5791],[71.5329,38.5741],[71.5306,38.565],[71.5309,38.5383],[71.527,38.529],[71.5186,38.5235],[71.5102,38.5215],[71.4792,38.5224],[71.4652,38.5196],[71.4576,38.5151],[71.4426,38.5008],[71.4376,38.4934],[71.4341,38.4836],[71.4308,38.4774],[71.4269,38.4751],[71.422,38.4777],[71.4095,38.4938],[71.399,38.5032],[71.3864,38.5102],[71.3722,38.5137],[71.3546,38.5113],[71.3372,38.5042],[71.3115,38.491],[71.2958,38.4867],[71.2843,38.4862],[71.2778,38.489],[71.2711,38.4942],[71.253,38.5148],[71.2255,38.5299],[71.2162,38.5409],[71.2106,38.5552],[71.2078,38.5749],[71.2024,38.5902],[71.1913,38.6012],[71.1782,38.6083],[71.1659,38.6101],[71.1507,38.6084],[71.1152,38.6012],[71.0717,38.5997],[71.0418,38.6066],[71.0328,38.617],[71.0333,38.6287],[71.0426,38.6444],[71.0468,38.6558],[71.0478,38.6669],[71.0472,38.6775],[71.0512,38.6988],[71.0469,38.7124],[71.0149,38.7583],[71.0104,38.7677],[71.0097,38.7764],[71.0118,38.7856],[71.0126,38.7966],[71.0064,38.8027],[70.9932,38.8062],[70.9729,38.805],[70.9527,38.8013],[70.9038,38.7846],[70.87,38.7649],[70.8587,38.762],[70.8438,38.7608],[70.8121,38.7627],[70.7814,38.7593],[70.7726,38.7602],[70.7682,38.7646],[70.758,38.789],[70.7451,38.8019],[70.7327,38.804],[70.7193,38.8003],[70.7038,38.7943],[70.6632,38.7834],[70.6478,38.7755],[70.5927,38.7376],[70.5752,38.7296],[70.5488,38.7213],[70.5451,38.7173],[70.5496,38.7114],[70.5795,38.6938],[70.5906,38.683],[70.5951,38.6712],[70.5935,38.6581],[70.5749,38.6347],[70.5635,38.6248],[70.531,38.604],[70.5169,38.5927],[70.5091,38.5806],[70.5049,38.5681],[70.499,38.5588],[70.4881,38.5493],[70.4391,38.5157],[70.4332,38.531],[70.4282,38.5476],[70.4239,38.557],[70.4213,38.5613],[70.4179,38.5653],[70.4135,38.5688],[70.373,38.5931],[70.3674,38.5981],[70.3648,38.6014],[70.3598,38.6044],[70.3533,38.6067],[70.2941,38.6021],[70.2472,38.6032],[70.2368,38.6018],[70.2291,38.5995],[70.224,38.5967],[70.197,38.576],[70.1685,38.549],[70.164,38.5459],[70.1601,38.5484],[70.1573,38.5572],[70.161,38.581],[70.1668,38.6037],[70.1675,38.6164],[70.1604,38.6318],[70.1454,38.6385],[70.1196,38.6496],[70.0969,38.6681],[70.0845,38.6823],[70.0491,38.7095],[70.0417,38.7172],[70.033,38.7242],[70.0188,38.7306],[70.0001,38.7348],[69.9869,38.7338],[69.9713,38.7277],[69.9242,38.714],[69.919,38.7115],[69.9095,38.705],[69.8495,38.6553],[69.8128,38.6032],[69.8062,38.5987],[69.797,38.5947],[69.7794,38.5904],[69.7704,38.5911],[69.7642,38.5938],[69.7608,38.5978],[69.758,38.6021],[69.7511,38.6101],[69.7464,38.6133],[69.7405,38.6156],[69.7339,38.617],[69.7197,38.618],[69.7132,38.6158],[69.7073,38.6119],[69.6159,38.5054],[69.6063,38.4932],[69.5618,38.4602],[69.5354,38.4479],[69.5115,38.4348],[69.5079,38.4309],[69.4997,38.4238],[69.4959,38.4214],[69.477,38.413],[69.4721,38.4094],[69.4628,38.3966],[69.4583,38.3929],[69.453,38.3894],[69.4489,38.3853],[69.4426,38.3766],[69.4249,38.3611],[69.4047,38.3467],[69.392,38.3349],[69.3813,38.328],[69.3738,38.3253],[69.3638,38.3233],[69.3456,38.3245],[69.3347,38.3242],[69.3256,38.3271],[69.3197,38.3319],[69.3143,38.3429],[69.3156,38.3492],[69.3195,38.3542],[69.3293,38.3615],[69.3327,38.3657],[69.3349,38.3703],[69.3347,38.3755],[69.3248,38.3804],[69.3153,38.3841],[69.2337,38.3862],[69.23,38.4048],[69.2289,38.4075],[69.2263,38.4125],[69.22,38.4201],[69.2157,38.4243],[69.2104,38.4284],[69.2024,38.4327],[69.1946,38.4352],[69.1872,38.4364],[69.1811,38.4365],[69.1771,38.4358],[69.1308,38.4187],[68.9943,38.4123],[68.9269,38.3929],[68.9068,38.3835],[68.9026,38.3798],[68.8987,38.3755],[68.886,38.3542],[68.8813,38.3479],[68.8736,38.3399],[68.8666,38.3364],[68.8596,38.3342],[68.822,38.3268],[68.8115,38.3278],[68.7955,38.3479],[68.789,38.3508],[68.78,38.3531],[68.77,38.3525],[68.7626,38.3511],[68.7564,38.3489],[68.7519,38.3454],[68.7404,38.3323],[68.7349,38.3276],[68.7273,38.3233],[68.7139,38.3178],[68.7044,38.3166],[68.6968,38.3167],[68.6627,38.3213],[68.6262,38.3297],[68.6166,38.3298],[68.6093,38.3282],[68.591,38.3154],[68.5758,38.3003],[68.5719,38.295],[68.5697,38.2895],[68.5702,38.2845],[68.5831,38.2507],[68.5853,38.2405],[68.5868,38.224],[68.5863,38.2122],[68.5842,38.2002],[68.582,38.1943],[68.5789,38.1878],[68.5365,38.1334],[68.5207,38.1074],[68.5188,38.1022],[68.5187,38.0971],[68.5223,38.0933],[68.5288,38.0909],[68.544,38.0871],[68.5492,38.0841],[68.5504,38.0792],[68.5468,38.061],[68.5461,38.0382],[68.5437,38.0194],[68.541,38.0124],[68.5362,38.0088],[68.505,37.9975],[68.4918,37.983],[68.4819,37.9625],[68.4659,37.9164],[68.4607,37.9102],[68.4541,37.907],[68.435,37.9031],[68.4291,37.9025],[68.4236,37.9042],[68.4203,37.9078],[68.4178,37.9123],[68.4136,37.9157],[68.4096,37.9182],[68.391,37.9144],[68.3146,37.9047],[68.2898,37.9066],[68.2756,37.9167],[68.2654,37.9259],[68.2385,37.9424],[68.238,37.9427],[68.2487,37.949],[68.2562,37.9616],[68.2608,37.9768],[68.2683,37.9938],[68.2684,37.9939],[68.2685,37.994],[68.2685,37.9941],[68.2686,37.9942],[68.2806,38.0132],[68.3195,38.0602],[68.3443,38.1155],[68.3607,38.1741],[68.3562,38.2126],[68.332,38.243],[68.2527,38.2987],[68.2008,38.3217],[68.1837,38.3355],[68.1467,38.3887],[68.1076,38.4183],[68.098,38.4324],[68.0946,38.447],[68.0926,38.4788],[68.0869,38.494],[68.0626,38.5231],[68.0552,38.5363],[68.0525,38.5583],[68.0559,38.6157],[68.0537,38.6359],[68.0403,38.6734],[68.0376,38.6916],[68.0455,38.7067],[68.0708,38.7207],[68.0759,38.7269],[68.0767,38.7381],[68.0722,38.7474],[68.0663,38.7562],[68.0633,38.7663],[68.0667,38.788],[68.0779,38.7934],[68.0956,38.7929],[68.119,38.7967],[68.136,38.8045],[68.1513,38.8151],[68.1637,38.8286],[68.1726,38.8453],[68.1737,38.8673],[68.1637,38.8875],[68.1534,38.8994],[68.1535,38.8994],[68.1804,38.9049],[68.2298,38.906],[68.2481,38.91],[68.3038,38.9278],[68.3199,38.9306],[68.3327,38.9312],[68.3399,38.9294],[68.3596,38.9217],[68.3678,38.9196],[68.3744,38.9202],[68.3836,38.9231],[68.3901,38.9258],[68.4262,38.9371],[68.4548,38.936],[68.4748,38.9401],[68.5099,38.9511],[68.5207,38.9606],[68.5351,38.9827],[68.5668,39.0],[68.5671,39.0005],[68.5691,39.0045],[68.5777,39.0315],[68.5834,39.0436],[68.5901,39.0481],[68.5977,39.0498],[68.6658,39.0469],[68.7607,39.0755],[68.7745,39.0773],[68.7795,39.0744],[68.7827,39.0704],[68.7853,39.0659],[68.7923,39.0623],[68.804,39.0602],[68.865,39.0638],[68.921,39.06],[68.9842,39.0473],[68.9902,39.0445],[69.005,39.0416],[69.0092,39.04],[69.0337,39.0354],[69.0655,39.0304],[69.0961,39.0411],[69.103,39.0459],[69.1071,39.0499],[69.1205,39.0577],[69.1934,39.0892],[69.2166,39.0968],[69.2334,39.1007],[69.3301,39.098],[69.3469,39.0991],[69.3541,39.103],[69.358,39.1084],[69.3603,39.1446],[69.3616,39.1511],[69.3652,39.1587],[69.371,39.1664],[69.3842,39.1757],[69.3937,39.1791],[69.4029,39.1803],[69.4108,39.1798],[69.486,39.1875],[69.4967,39.1873],[69.5004,39.1858],[69.5358,39.1604],[69.5428,39.1524],[69.5475,39.1433],[69.5503,39.133],[69.551,39.1218],[69.5496,39.1096],[69.5437,39.0916],[69.5428,39.0858],[69.5442,39.0805],[69.5475,39.0763],[69.5532,39.0722],[69.559,39.0721],[69.564,39.0743],[69.5684,39.0776],[69.5764,39.0856],[69.5863,39.0909],[69.6008,39.0965],[69.635,39.1045],[69.6466,39.1097],[69.6516,39.115],[69.6497,39.1196],[69.6485,39.1248],[69.6479,39.129],[69.6483,39.1363],[69.6711,39.1516],[69.6755,39.156],[69.6813,39.1632],[69.6847,39.1705],[69.6889,39.1816],[69.6938,39.2225],[69.692,39.2304],[69.6887,39.2362],[69.676,39.2463],[69.6705,39.252],[69.6665,39.2616],[69.7363,39.2934],[69.7458,39.2946],[69.7568,39.2949],[69.7649,39.2818],[69.7715,39.2737],[69.7776,39.2699],[69.7853,39.2664],[69.7995,39.2633],[69.8082,39.2636],[69.8153,39.2651],[69.8265,39.2693],[69.8367,39.2747],[69.8461,39.2812],[69.8572,39.2936],[69.8673,39.3081],[69.8724,39.3134],[69.8809,39.3193],[69.8892,39.3211],[69.99,39.3319],[70.0001,39.331],[70.004,39.3228],[70.0074,39.3178],[70.0157,39.3132],[70.022,39.3132],[70.0274,39.3152],[70.0315,39.3193],[70.0395,39.3251],[70.0518,39.3313],[70.0794,39.3398],[70.0945,39.3418],[70.1058,39.3413],[70.111,39.3381],[70.1143,39.3341],[70.1155,39.3289],[70.1159,39.3171],[70.1166,39.3115],[70.1199,39.3067],[70.1245,39.3067],[70.1292,39.3087],[70.1491,39.3203],[70.2552,39.3602],[70.26,39.3634],[70.2636,39.3677],[70.2709,39.38],[70.2786,39.3875],[70.2858,39.3904],[70.2931,39.3915],[70.2996,39.3904],[70.3047,39.3877],[70.3134,39.3807],[70.3182,39.3778],[70.3281,39.3763],[70.3687,39.3776],[70.4726,39.4014],[70.485,39.402],[70.4911,39.4057],[70.4956,39.41],[70.5018,39.4221],[70.5047,39.4262],[70.51,39.4281],[70.5648,39.4341],[70.5783,39.4374],[70.587,39.4416],[70.5904,39.4463],[70.5957,39.4575],[70.5991,39.4623],[70.6034,39.4661],[70.6194,39.4733],[70.6556,39.4946],[70.6559,39.4939],[70.656,39.4937],[70.6667,39.4869],[70.6901,39.4792],[70.6997,39.4722],[70.7054,39.4585],[70.7031,39.4447],[70.6986,39.4314],[70.6981,39.419],[70.7133,39.3984],[70.7397,39.3862],[70.7701,39.3821],[70.7976,39.3853],[70.8281,39.3986],[70.8401,39.4014],[70.8553,39.4017],[70.8642,39.4006],[70.8722,39.403],[70.8845,39.4139],[70.9034,39.4209],[70.9252,39.4129],[70.9498,39.4007],[70.9771,39.3949],[71.0093,39.4076],[71.0276,39.4352],[71.0423,39.4679],[71.0629,39.4956],[71.0959,39.5124],[71.1374,39.5212],[71.18,39.523],[71.2369,39.5145],[71.2493,39.5144],[71.2601,39.5206],[71.292,39.549],[71.3059,39.5572],[71.3406,39.5717],[71.3479,39.5762],[71.3616,39.5876],[71.3685,39.5915],[71.3783,39.5942],[71.4067,39.5982],[71.4413,39.6107],[71.4595,39.6121]],[[68.8008,38.592],[68.7972,38.6076],[68.7905,38.622],[68.7802,38.6363],[68.773,38.6515],[68.7645,38.6582],[68.761,38.6506],[68.7592,38.6367],[68.7632,38.6184],[68.7578,38.6067],[68.7314,38.5964],[68.7095,38.5911],[68.7059,38.5821],[68.7153,38.5642],[68.6893,38.5499],[68.6956,38.5441],[68.7184,38.5517],[68.7247,38.54],[68.718,38.5284],[68.7283,38.5163],[68.7269,38.5015],[68.7296,38.4796],[68.748,38.4693],[68.7672,38.4702],[68.786,38.4738],[68.7878,38.4841],[68.7856,38.5006],[68.8133,38.5203],[68.8429,38.5297],[68.8492,38.5427],[68.8612,38.5571],[68.8438,38.5602],[68.838,38.5732],[68.8205,38.5763],[68.8102,38.5808],[68.8115,38.5924],[68.8008,38.592]]]}}]}