{"type":"FeatureCollection","features":[{"type":"Feature","properties":{"id":"TUN-104","name":"Ben Arous (Tunis Sud)","nameBn":"বেন আরুস গভর্নোরেট","type":"Governorate","bounds":[9.9714,36.4433,10.4168,36.8161],"center":[10.1941,36.6125]},"geometry":{"type":"Polygon","coordinates":[[[10.2539,36.7914],[10.257,36.7938],[10.2721,36.8161],[10.2936,36.7777],[10.3201,36.7488],[10.3553,36.7312],[10.403,36.7267],[10.4168,36.7296],[10.4154,36.7242],[10.3933,36.661],[10.3553,36.5999],[10.3533,36.5902],[10.3556,36.5828],[10.3593,36.559],[10.3412,36.4706],[10.3181,36.4686],[10.3089,36.4669],[10.2995,36.4639],[10.2624,36.4465],[10.2582,36.4437],[10.2526,36.4433],[10.2472,36.4452],[10.2393,36.4548],[10.2368,36.4608],[10.2358,36.4659],[10.2371,36.4695],[10.2379,36.4735],[10.2293,36.4831],[10.1384,36.5504],[10.1359,36.5546],[10.1084,36.571],[10.0683,36.5861],[10.0508,36.5909],[10.0391,36.5926],[10.0287,36.5888],[10.0201,36.5874],[10.0146,36.5884],[10.0084,36.591],[9.9978,36.5993],[9.9916,36.6054],[9.9714,36.6354],[9.9866,36.638],[10.0048,36.6487],[10.0547,36.6895],[10.0662,36.6869],[10.0763,36.6856],[10.0901,36.6854],[10.1123,36.6884],[10.1178,36.6911],[10.124,36.6955],[10.1388,36.7113],[10.1447,36.7153],[10.1525,36.7165],[10.1685,36.714],[10.1775,36.7137],[10.1891,36.7156],[10.1959,36.716],[10.2028,36.718],[10.2111,36.7222],[10.2245,36.7333],[10.238,36.7416],[10.2439,36.7512],[10.2561,36.7867],[10.2539,36.7914]]]}},{"type":"Feature","properties":{"id":"TUN-105","name":"Bizerte","nameBn":"বিজার্তে গভর্নোরেট","type":"Governorate","bounds":[9.0744,36.7244,10.2721,37.3452],"center":[9.6733,37.1109]},"geometry":{"type":"Polygon","coordinates":[[[9.0794,37.1668],[9.1592,37.1928],[9.1714,37.1988],[9.1924,37.2261],[9.2107,37.2338],[9.3425,37.2353],[9.3807,37.2475],[9.4051,37.2685],[9.4191,37.2758],[9.4326,37.2714],[9.4429,37.2665],[9.4539,37.2683],[9.4645,37.2724],[9.4939,37.2781],[9.5173,37.2867],[9.5386,37.298],[9.5527,37.3095],[9.5731,37.3002],[9.5915,37.3029],[9.6284,37.3231],[9.6493,37.3319],[9.6663,37.3354],[9.7103,37.3362],[9.7324,37.3433],[9.7446,37.3452],[9.7551,37.3399],[9.7632,37.3336],[9.7734,37.3305],[9.8589,37.3288],[9.8591,37.3259],[9.8612,37.3164],[9.8617,37.2712],[9.8307,37.2512],[9.7927,37.238],[9.7718,37.2133],[9.7751,37.2058],[9.7907,37.1784],[9.7957,37.1723],[9.8015,37.1691],[9.8078,37.155],[9.8159,37.1518],[9.8597,37.147],[9.8799,37.1501],[9.9021,37.1649],[9.9143,37.1783],[9.9253,37.1968],[9.925,37.2131],[9.8612,37.2338],[9.8516,37.2329],[9.8311,37.2277],[9.8196,37.2276],[9.8196,37.2338],[9.8439,37.2475],[9.8535,37.2495],[9.8596,37.2541],[9.8639,37.259],[9.8674,37.2617],[9.8825,37.2636],[9.9798,37.246],[9.9978,37.2475],[10.0513,37.2666],[10.0598,37.2648],[10.0759,37.2449],[10.1463,37.2365],[10.1787,37.2127],[10.2531,37.1914],[10.2721,37.1785],[10.2401,37.1718],[10.2253,37.1667],[10.2113,37.1587],[10.2058,37.1751],[10.178,37.178],[10.146,37.1712],[10.1281,37.1587],[10.1354,37.1423],[10.1616,37.1343],[10.1919,37.1332],[10.2113,37.1376],[10.2182,37.1289],[10.2118,37.1281],[10.164,37.115],[10.1117,37.1106],[10.1045,37.1076],[10.0974,37.1031],[10.0873,37.0931],[10.0811,37.0851],[10.0724,37.0758],[10.0692,37.0716],[10.0669,37.0679],[10.0602,37.0532],[10.0253,36.9956],[10.0174,36.986],[10.0012,36.9615],[9.9936,36.9446],[9.9917,36.9414],[9.9892,36.9381],[9.9858,36.9348],[9.9801,36.9318],[9.9716,36.9293],[9.9584,36.929],[9.9438,36.9301],[9.9368,36.9315],[9.8837,36.9514],[9.8646,36.956],[9.8445,36.958],[9.8079,36.9564],[9.8007,36.9535],[9.7914,36.9485],[9.7739,36.9358],[9.7604,36.9229],[9.7484,36.9057],[9.7419,36.9018],[9.7323,36.8981],[9.6797,36.8884],[9.5929,36.8568],[9.553,36.8293],[9.5422,36.8262],[9.5324,36.8216],[9.5233,36.8153],[9.4271,36.7337],[9.4178,36.7278],[9.4129,36.7258],[9.4083,36.7247],[9.4038,36.7244],[9.3996,36.7246],[9.3905,36.7261],[9.3859,36.7276],[9.3726,36.7347],[9.3672,36.7407],[9.361,36.7496],[9.3529,36.7684],[9.3507,36.7775],[9.3501,36.7837],[9.3558,36.7967],[9.3582,36.8007],[9.36,36.8049],[9.3622,36.8092],[9.3659,36.8178],[9.3678,36.8237],[9.3692,36.8306],[9.3698,36.8386],[9.3696,36.8426],[9.3675,36.8473],[9.3639,36.8522],[9.354,36.8591],[9.342,36.8653],[9.306,36.8746],[9.2966,36.8785],[9.2874,36.8836],[9.2542,36.9089],[9.2492,36.9145],[9.2441,36.9217],[9.2311,36.9506],[9.2067,36.9929],[9.1976,37.0177],[9.1937,37.0253],[9.1893,37.0305],[9.1836,37.0359],[9.171,37.0447],[9.1638,37.0484],[9.1575,37.0502],[9.0951,37.0492],[9.0906,37.05],[9.0858,37.0527],[9.0815,37.0569],[9.0773,37.0657],[9.0754,37.0716],[9.0744,37.0772],[9.0759,37.0912],[9.0816,37.1126],[9.0832,37.1279],[9.0809,37.1623],[9.0794,37.1668]]]}},{"type":"Feature","properties":{"id":"TUN-103","name":"Béja","nameBn":"বেজা","type":"Governorate","bounds":[8.896,36.355,9.8561,37.1668],"center":[9.376,36.5828]},"geometry":{"type":"Polygon","coordinates":[[[8.896,37.0189],[8.9037,37.0217],[8.9258,37.0389],[8.9569,37.0693],[8.9876,37.1168],[9.001,37.124],[9.0108,37.1278],[9.0387,37.1518],[9.0493,37.157],[9.0794,37.1668],[9.0809,37.1623],[9.0832,37.1279],[9.0816,37.1126],[9.0759,37.0912],[9.0744,37.0772],[9.0754,37.0716],[9.0773,37.0657],[9.0815,37.0569],[9.0858,37.0527],[9.0906,37.05],[9.0951,37.0492],[9.1575,37.0502],[9.1638,37.0484],[9.171,37.0447],[9.1836,37.0359],[9.1893,37.0305],[9.1937,37.0253],[9.1976,37.0177],[9.2067,36.9929],[9.2311,36.9506],[9.2441,36.9217],[9.2492,36.9145],[9.2542,36.9089],[9.2874,36.8836],[9.2966,36.8785],[9.306,36.8746],[9.342,36.8653],[9.354,36.8591],[9.3639,36.8522],[9.3675,36.8473],[9.3696,36.8426],[9.3698,36.8386],[9.3692,36.8306],[9.3678,36.8237],[9.3659,36.8178],[9.3622,36.8092],[9.36,36.8049],[9.3582,36.8007],[9.3558,36.7967],[9.3501,36.7837],[9.3507,36.7775],[9.3529,36.7684],[9.361,36.7496],[9.3672,36.7407],[9.3726,36.7347],[9.3859,36.7276],[9.3905,36.7261],[9.3996,36.7246],[9.4038,36.7244],[9.4083,36.7247],[9.4129,36.7258],[9.4178,36.7278],[9.4271,36.7337],[9.5233,36.8153],[9.5324,36.8216],[9.5422,36.8262],[9.553,36.8293],[9.6699,36.7414],[9.7267,36.7258],[9.7535,36.7239],[9.7593,36.7214],[9.7625,36.7183],[9.7642,36.7146],[9.7664,36.707],[9.7737,36.6909],[9.8065,36.6359],[9.8456,36.5892],[9.8561,36.5704],[9.797,36.5306],[9.7787,36.5146],[9.7746,36.5069],[9.7725,36.5013],[9.743,36.4671],[9.7308,36.4429],[9.6704,36.4375],[9.6483,36.4335],[9.6322,36.4281],[9.5889,36.4094],[9.5799,36.4064],[9.5715,36.405],[9.5661,36.4053],[9.5596,36.4067],[9.5507,36.4107],[9.5445,36.4146],[9.5223,36.4333],[9.5134,36.4382],[9.4999,36.444],[9.4904,36.4467],[9.478,36.4474],[9.4205,36.4443],[9.3906,36.44],[9.3816,36.4364],[9.3734,36.4311],[9.3698,36.4278],[9.3579,36.4145],[9.3181,36.3561],[9.3099,36.355],[9.2975,36.3569],[9.2455,36.3797],[9.2275,36.3899],[9.2212,36.3921],[9.2134,36.3934],[9.1999,36.3935],[9.1856,36.3918],[9.1277,36.3746],[9.1175,36.3731],[9.0933,36.3863],[9.0117,36.4492],[9.0304,36.4578],[9.0354,36.4607],[9.039,36.4642],[9.0408,36.4679],[9.0416,36.4713],[9.0425,36.5001],[9.0442,36.5095],[9.0459,36.5132],[9.0481,36.5168],[9.0547,36.5242],[9.0705,36.5385],[9.0737,36.5422],[9.0725,36.5537],[9.0666,36.5719],[9.0331,36.6444],[9.0253,36.6524],[9.0214,36.6581],[9.0185,36.665],[9.0166,36.6835],[9.023,36.7338],[9.0225,36.7383],[9.0208,36.7429],[9.0154,36.748],[9.0058,36.7541],[8.9951,36.7595],[8.9909,36.7611],[8.9336,36.7687],[8.9283,36.7703],[8.9229,36.773],[8.9179,36.7761],[8.9144,36.7801],[8.9128,36.7843],[8.915,36.7901],[8.9173,36.7945],[8.92,36.7986],[8.9218,36.8035],[8.9234,36.8092],[8.9238,36.8182],[8.9249,36.8235],[8.9269,36.8281],[8.9296,36.8317],[8.9334,36.8352],[8.9704,36.8598],[8.9743,36.8634],[8.9771,36.8671],[8.9761,36.8736],[8.9722,36.8819],[8.9533,36.9068],[8.9155,36.9417],[8.9127,36.9462],[8.9113,36.9511],[8.9139,36.9583],[8.9173,36.9613],[8.9212,36.9631],[8.9238,36.9636],[8.9423,36.9694],[8.9457,36.9715],[8.9392,36.9819],[8.8964,37.0187],[8.896,37.0189]]]}},{"type":"Feature","properties":{"id":"TUN-111","name":"Gabès","nameBn":"গ্যাবেজ গভর্নোরেট","type":"Governorate","bounds":[9.2593,33.2875,10.4602,34.2927],"center":[9.8599,33.7571]},"geometry":{"type":"Polygon","coordinates":[[[10.0101,34.1731],[10.0052,34.1706],[10.0147,34.1534],[10.0184,34.1335],[10.0182,34.0915],[10.0215,34.0733],[10.0361,34.0345],[10.0393,34.0161],[10.0488,33.9835],[10.0713,33.9462],[10.1631,33.8362],[10.1727,33.8281],[10.1869,33.8218],[10.3303,33.7028],[10.3677,33.6841],[10.4461,33.6554],[10.4602,33.6527],[10.4573,33.6509],[10.436,33.6376],[10.3736,33.5735],[10.3663,33.5643],[10.3624,33.5561],[10.3069,33.4824],[10.2855,33.4463],[10.2788,33.4402],[10.2729,33.4369],[10.2065,33.4205],[10.1744,33.4088],[10.0594,33.3287],[10.0484,33.3253],[9.9744,33.3116],[9.9445,33.3006],[9.9362,33.2987],[9.919,33.2984],[9.864,33.3024],[9.8457,33.2996],[9.8035,33.2884],[9.7942,33.2875],[9.7851,33.2877],[9.7588,33.2908],[9.7407,33.2912],[9.7003,33.3276],[9.6867,33.3429],[9.6469,33.4059],[9.6331,33.4217],[9.5544,33.4828],[9.551,33.4881],[9.549,33.494],[9.5493,33.5031],[9.5509,33.509],[9.553,33.5138],[9.5768,33.545],[9.579,33.5489],[9.5856,33.5634],[9.5878,33.5711],[9.5884,33.575],[9.587,33.5803],[9.5833,33.5865],[9.5748,33.5971],[9.5272,33.639],[9.522,33.6414],[9.5178,33.6423],[9.5134,33.642],[9.4999,33.6397],[9.495,33.6401],[9.4904,33.6409],[9.4857,33.6429],[9.4814,33.6457],[9.4775,33.6492],[9.4742,33.6526],[9.4606,33.6742],[9.4544,33.682],[9.4505,33.6857],[9.4418,33.6914],[9.4317,33.6961],[9.3872,33.7116],[9.3831,33.7139],[9.3793,33.7169],[9.376,33.7205],[9.3234,33.797],[9.2969,33.8445],[9.2808,33.8805],[9.2685,33.9177],[9.2604,33.9624],[9.2593,34.0051],[9.2652,34.0457],[9.2677,34.0526],[9.2723,34.0593],[9.2755,34.0626],[9.2794,34.0661],[9.2977,34.0796],[9.3354,34.1024],[9.3531,34.1171],[9.3558,34.1204],[9.3577,34.124],[9.3565,34.128],[9.3523,34.1326],[9.3063,34.1557],[9.3011,34.1597],[9.2839,34.175],[9.274,34.1878],[9.2678,34.2048],[9.3293,34.2271],[9.3501,34.2314],[9.4631,34.2198],[9.4733,34.22],[9.4809,34.2209],[9.5223,34.2397],[9.5406,34.2449],[9.5585,34.2523],[9.5884,34.2732],[9.6015,34.2801],[9.6415,34.2912],[9.6519,34.2925],[9.6598,34.2927],[9.6693,34.2893],[9.6892,34.2787],[9.6986,34.2722],[9.7025,34.2688],[9.7054,34.2651],[9.7102,34.2572],[9.7136,34.2487],[9.7256,34.233],[9.7343,34.2261],[9.7438,34.2218],[9.7607,34.2169],[9.7728,34.2148],[9.7773,34.2145],[9.7993,34.2158],[9.8168,34.2194],[9.8257,34.2202],[9.8423,34.2199],[9.8515,34.2175],[9.8586,34.2139],[9.8665,34.2056],[9.8789,34.1895],[9.8945,34.1772],[9.9129,34.166],[9.9306,34.1582],[9.9533,34.1554],[9.9613,34.1556],[9.9666,34.1569],[9.9705,34.1598],[9.9722,34.163],[9.9728,34.1666],[9.9725,34.1783],[9.973,34.183],[9.9747,34.1871],[9.979,34.1909],[9.9827,34.1913],[9.9854,34.191],[9.9888,34.1892],[10.0101,34.1731]]]}},{"type":"Feature","properties":{"id":"TUN-112","name":"Gafsa","nameBn":"গাফসা গভর্নোরেট","type":"Governorate","bounds":[8.0276,34.0909,9.5629,34.7506],"center":[8.7952,34.4233]},"geometry":{"type":"Polygon","coordinates":[[[8.1025,34.5364],[8.1437,34.5667],[8.1672,34.5786],[8.1752,34.5853],[8.1795,34.5922],[8.1866,34.6096],[8.1929,34.6177],[8.2288,34.6364],[8.2365,34.6477],[8.2106,34.6812],[8.2134,34.6967],[8.2252,34.7117],[8.2574,34.7397],[8.2587,34.7413],[8.2711,34.7404],[8.3079,34.7366],[8.3223,34.731],[8.3345,34.722],[8.3545,34.7129],[8.4638,34.6832],[8.4777,34.6748],[8.5471,34.6421],[8.5611,34.6377],[8.5696,34.6374],[8.573,34.6448],[8.5787,34.6631],[8.5803,34.6664],[8.5826,34.6698],[8.5911,34.6764],[8.6014,34.6818],[8.7036,34.7241],[8.7123,34.7265],[8.7573,34.7319],[8.7764,34.7378],[8.8059,34.7506],[8.9676,34.6977],[9.0638,34.697],[9.167,34.6811],[9.2285,34.6541],[9.2362,34.6516],[9.2426,34.6505],[9.2468,34.651],[9.2553,34.6536],[9.2694,34.6597],[9.2761,34.6618],[9.2856,34.6631],[9.2904,34.6613],[9.2932,34.6582],[9.2933,34.6542],[9.2924,34.65],[9.2686,34.5995],[9.2666,34.592],[9.266,34.5881],[9.2658,34.584],[9.2663,34.5787],[9.2683,34.5707],[9.2742,34.5577],[9.2781,34.5517],[9.2893,34.5392],[9.3102,34.5206],[9.3371,34.5017],[9.3464,34.4963],[9.3537,34.4929],[9.4167,34.4736],[9.4247,34.4693],[9.4333,34.4614],[9.448,34.4421],[9.4538,34.4363],[9.462,34.4295],[9.488,34.4126],[9.495,34.409],[9.542,34.3902],[9.5535,34.3837],[9.5605,34.3781],[9.5619,34.3743],[9.5629,34.3706],[9.5585,34.2523],[9.5406,34.2449],[9.5223,34.2397],[9.4809,34.2209],[9.4733,34.22],[9.4631,34.2198],[9.3501,34.2314],[9.3293,34.2271],[9.2678,34.2048],[9.1347,34.1871],[9.1192,34.1882],[9.1015,34.1931],[9.0927,34.1915],[9.0533,34.1791],[9.0311,34.1699],[9.0269,34.1664],[9.0235,34.1627],[9.0208,34.1588],[9.019,34.1551],[9.0177,34.1514],[9.0166,34.1442],[9.0162,34.1222],[9.0154,34.1185],[9.0134,34.1141],[9.0104,34.1105],[9.0069,34.1075],[9.0033,34.1058],[9.0002,34.1048],[8.9936,34.1045],[8.9311,34.11],[8.8925,34.1184],[8.8854,34.1184],[8.8765,34.117],[8.8411,34.104],[8.6692,34.0909],[8.6149,34.1003],[8.577,34.103],[8.3578,34.0921],[8.3531,34.0957],[8.3483,34.1022],[8.3393,34.1256],[8.3353,34.1397],[8.3328,34.1445],[8.3286,34.1497],[8.3154,34.161],[8.2985,34.1719],[8.2924,34.1747],[8.2172,34.1963],[8.1801,34.1992],[8.1756,34.2005],[8.171,34.203],[8.1665,34.2065],[8.1584,34.2164],[8.1463,34.2342],[8.1314,34.2521],[8.1228,34.2599],[8.1042,34.2742],[8.031,34.3145],[8.028,34.3188],[8.0276,34.3243],[8.0336,34.3348],[8.039,34.3418],[8.0744,34.3781],[8.0791,34.3813],[8.0836,34.3829],[8.0882,34.3839],[8.1362,34.389],[8.141,34.3909],[8.1439,34.3941],[8.1445,34.3986],[8.1397,34.4062],[8.1357,34.4105],[8.1007,34.439],[8.0985,34.4449],[8.0987,34.4526],[8.1149,34.5046],[8.1145,34.5142],[8.1067,34.5329],[8.1025,34.5364]]]}},{"type":"Feature","properties":{"id":"TUN-106","name":"Jendouba","nameBn":"জেন্দুবা গভর্নোরেট","type":"Governorate","bounds":[8.1679,36.3531,9.0737,37.0189],"center":[8.6206,36.6155]},"geometry":{"type":"Polygon","coordinates":[[[8.5201,36.7979],[8.5545,36.8036],[8.6238,36.8261],[8.6417,36.8364],[8.6426,36.8485],[8.6082,36.8907],[8.6048,36.901],[8.6057,36.913],[8.6025,36.9395],[8.6211,36.9458],[8.6921,36.9694],[8.7166,36.9731],[8.802,36.9731],[8.8244,36.9795],[8.8657,37.0076],[8.896,37.0189],[8.8964,37.0187],[8.9392,36.9819],[8.9457,36.9715],[8.9423,36.9694],[8.9238,36.9636],[8.9212,36.9631],[8.9173,36.9613],[8.9139,36.9583],[8.9113,36.9511],[8.9127,36.9462],[8.9155,36.9417],[8.9533,36.9068],[8.9722,36.8819],[8.9761,36.8736],[8.9771,36.8671],[8.9743,36.8634],[8.9704,36.8598],[8.9334,36.8352],[8.9296,36.8317],[8.9269,36.8281],[8.9249,36.8235],[8.9238,36.8182],[8.9234,36.8092],[8.9218,36.8035],[8.92,36.7986],[8.9173,36.7945],[8.915,36.7901],[8.9128,36.7843],[8.9144,36.7801],[8.9179,36.7761],[8.9229,36.773],[8.9283,36.7703],[8.9336,36.7687],[8.9909,36.7611],[8.9951,36.7595],[9.0058,36.7541],[9.0154,36.748],[9.0208,36.7429],[9.0225,36.7383],[9.023,36.7338],[9.0166,36.6835],[9.0185,36.665],[9.0214,36.6581],[9.0253,36.6524],[9.0331,36.6444],[9.0666,36.5719],[9.0725,36.5537],[9.0737,36.5422],[9.0705,36.5385],[9.0547,36.5242],[9.0481,36.5168],[9.0459,36.5132],[9.0442,36.5095],[9.0425,36.5001],[9.0416,36.4713],[9.0408,36.4679],[9.039,36.4642],[9.0354,36.4607],[9.0304,36.4578],[9.0117,36.4492],[8.9956,36.4529],[8.9789,36.4542],[8.9598,36.4513],[8.9173,36.4381],[8.8303,36.4143],[8.5914,36.4044],[8.5825,36.403],[8.5444,36.3916],[8.4543,36.3541],[8.4341,36.3531],[8.3717,36.3576],[8.3554,36.3561],[8.3581,36.3699],[8.3597,36.4112],[8.3577,36.4304],[8.3492,36.4488],[8.3338,36.4564],[8.3149,36.4606],[8.2956,36.4687],[8.2088,36.4778],[8.1679,36.4914],[8.1679,36.492],[8.1699,36.5258],[8.1935,36.549],[8.2223,36.5638],[8.2869,36.5834],[8.4079,36.6426],[8.4304,36.6626],[8.4532,36.6977],[8.4618,36.7328],[8.4416,36.7532],[8.4067,36.768],[8.4131,36.7839],[8.444,36.7962],[8.4827,36.8],[8.5201,36.7979]]]}},{"type":"Feature","properties":{"id":"TUN-118","name":"Kairouan","nameBn":"কাইরোউয়ান","type":"Governorate","bounds":[9.2722,35.014,10.3057,36.1331],"center":[9.7889,35.6154]},"geometry":{"type":"Polygon","coordinates":[[[10.2065,36.1331],[10.1736,36.084],[10.1739,36.0692],[10.2292,36.0455],[10.2344,36.0411],[10.2403,36.0343],[10.2492,36.0205],[10.2524,36.013],[10.2537,36.0063],[10.2445,35.9603],[10.2329,35.9236],[10.2262,35.9082],[10.2242,35.9048],[10.2135,35.8909],[10.1663,35.8425],[10.161,35.8347],[10.1595,35.831],[10.1596,35.8269],[10.1624,35.8198],[10.276,35.6328],[10.2857,35.6216],[10.2934,35.6089],[10.3057,35.5762],[10.2617,35.5643],[10.2425,35.5537],[10.236,35.5462],[10.2332,35.5412],[10.232,35.5365],[10.2326,35.5326],[10.2475,35.4995],[10.2482,35.4919],[10.2476,35.4845],[10.2431,35.4774],[10.2223,35.4562],[10.211,35.4411],[10.1801,35.3785],[10.1759,35.367],[10.1742,35.3591],[10.1753,35.3555],[10.1789,35.3479],[10.187,35.3341],[10.1901,35.3274],[10.1922,35.3201],[10.1947,35.3038],[10.195,35.2938],[10.1919,35.2661],[10.1919,35.2567],[10.1921,35.2546],[10.1927,35.2514],[10.1953,35.2448],[10.1998,35.2376],[10.2237,35.2092],[10.2276,35.2017],[10.2292,35.1979],[10.2304,35.1848],[10.2287,35.1465],[10.2039,35.1444],[10.1915,35.1403],[10.1702,35.1292],[10.1306,35.1003],[10.0783,35.0505],[10.0595,35.0264],[10.0516,35.014],[10.0327,35.0358],[10.0274,35.0442],[9.9922,35.1459],[9.9863,35.1536],[9.9802,35.1568],[9.9306,35.1423],[9.9262,35.1416],[9.9211,35.1418],[9.9163,35.1425],[9.8269,35.166],[9.7535,35.1779],[9.7253,35.1868],[9.7158,35.1912],[9.7079,35.1958],[9.6986,35.2039],[9.6949,35.2076],[9.6924,35.211],[9.684,35.2255],[9.6812,35.2289],[9.6195,35.2817],[9.6135,35.2839],[9.6077,35.2845],[9.603,35.2836],[9.5934,35.2831],[9.5827,35.2837],[9.565,35.2871],[9.5582,35.2901],[9.4829,35.3478],[9.4784,35.3526],[9.4756,35.3567],[9.4742,35.3601],[9.4736,35.3629],[9.4735,35.3661],[9.4798,35.3965],[9.484,35.4083],[9.489,35.4396],[9.4891,35.4431],[9.489,35.4465],[9.4815,35.4589],[9.4542,35.4879],[9.4527,35.4966],[9.4516,35.5],[9.4119,35.5621],[9.2775,35.6961],[9.2753,35.6997],[9.2734,35.7034],[9.2722,35.7075],[9.2737,35.7119],[9.278,35.7163],[9.2888,35.721],[9.2961,35.7222],[9.3028,35.722],[9.3724,35.7028],[9.385,35.7013],[9.3957,35.701],[9.4061,35.7019],[9.417,35.7048],[9.459,35.7266],[9.4776,35.7333],[9.5031,35.7377],[9.5065,35.7399],[9.5099,35.7438],[9.5104,35.7527],[9.5082,35.7578],[9.505,35.7618],[9.4984,35.7673],[9.4908,35.7751],[9.4849,35.7832],[9.4835,35.7858],[9.4823,35.7886],[9.4815,35.7918],[9.4806,35.7987],[9.4818,35.8067],[9.4964,35.8381],[9.4975,35.8421],[9.4986,35.8502],[9.4981,35.8591],[9.4967,35.8674],[9.4894,35.891],[9.4891,35.8947],[9.4891,35.899],[9.4966,35.9078],[9.5099,35.9205],[9.7281,36.0667],[9.7494,36.0604],[9.7587,36.0588],[9.779,36.0576],[9.8677,36.0679],[9.9031,36.0685],[9.9346,36.053],[9.9439,36.0497],[9.9835,36.0439],[9.9886,36.0421],[9.9976,36.0379],[10.0045,36.0333],[10.0315,36.0112],[10.0363,36.0091],[10.0425,36.0095],[10.0485,36.0127],[10.0563,36.023],[10.0597,36.0298],[10.0617,36.0356],[10.0683,36.0709],[10.071,36.0803],[10.0734,36.0834],[10.0765,36.0849],[10.0803,36.0816],[10.0873,36.0742],[10.0935,36.0736],[10.1013,36.0764],[10.1155,36.0879],[10.1218,36.0945],[10.1305,36.1077],[10.1471,36.1169],[10.2065,36.1331]]]}},{"type":"Feature","properties":{"id":"TUN-110","name":"Kassérine","nameBn":"কাস্যেরিন গভর্নোরেট","type":"Governorate","bounds":[8.2489,34.6374,9.327,35.7847],"center":[8.7877,35.2529]},"geometry":{"type":"Polygon","coordinates":[[[8.2587,34.7413],[8.2666,34.7503],[8.2693,34.7639],[8.2507,34.8647],[8.2489,34.902],[8.259,34.9407],[8.2829,34.994],[8.3005,35.0677],[8.3137,35.1031],[8.3609,35.1459],[8.4214,35.2221],[8.4313,35.2417],[8.3969,35.2637],[8.3552,35.2743],[8.3174,35.2895],[8.2944,35.3251],[8.2879,35.3661],[8.29,35.4026],[8.3009,35.4375],[8.3367,35.5084],[8.337,35.5379],[8.3272,35.6214],[8.3454,35.6237],[8.3751,35.6259],[8.388,35.6303],[8.4053,35.6434],[8.4408,35.6654],[8.4526,35.6707],[8.4613,35.6735],[8.4701,35.6731],[8.4749,35.6724],[8.4797,35.671],[8.5233,35.652],[8.5348,35.6493],[8.5811,35.6467],[8.6023,35.649],[8.6054,35.6517],[8.6106,35.6585],[8.6132,35.6654],[8.616,35.6785],[8.6202,35.7195],[8.6223,35.7279],[8.6256,35.7372],[8.6296,35.7455],[8.632,35.749],[8.6382,35.7548],[8.6478,35.7624],[8.6705,35.777],[8.6813,35.7822],[8.6895,35.7847],[8.6993,35.7841],[8.7809,35.7654],[8.9529,35.706],[9.0022,35.7034],[9.064,35.6315],[9.0829,35.6138],[9.0871,35.6127],[9.0914,35.6123],[9.0961,35.6127],[9.1006,35.6135],[9.1139,35.6181],[9.1186,35.6191],[9.1229,35.6195],[9.1271,35.6191],[9.1666,35.6043],[9.1762,35.5991],[9.1822,35.5944],[9.1941,35.5714],[9.2016,35.5616],[9.2072,35.5572],[9.2129,35.5547],[9.2381,35.5509],[9.2585,35.5428],[9.2947,35.5247],[9.3029,35.5195],[9.3107,35.5126],[9.3164,35.5056],[9.3231,35.4944],[9.3257,35.4876],[9.327,35.4807],[9.3246,35.4633],[9.3208,35.4491],[9.3169,35.443],[9.3115,35.4365],[9.3001,35.4262],[9.2866,35.4158],[9.252,35.3991],[9.2421,35.3929],[9.2334,35.3856],[9.2292,35.3804],[9.2255,35.3738],[9.2141,35.3463],[9.2107,35.3416],[9.2058,35.3363],[9.1903,35.3252],[9.1802,35.3201],[9.1751,35.315],[9.1693,35.3078],[9.1538,35.2763],[9.149,35.261],[9.1482,35.2572],[9.1481,35.2535],[9.1482,35.2496],[9.149,35.2462],[9.1502,35.243],[9.1516,35.2409],[9.1547,35.2381],[9.163,35.2332],[9.1666,35.2317],[9.2416,35.2124],[9.2523,35.2078],[9.2567,35.2051],[9.2601,35.2016],[9.2629,35.1976],[9.2644,35.1934],[9.2654,35.1891],[9.2649,35.1783],[9.2562,35.1363],[9.2557,35.1242],[9.257,35.1066],[9.259,35.0964],[9.2633,35.0862],[9.2717,35.0707],[9.2728,35.0675],[9.2733,35.0654],[9.2734,35.0624],[9.2731,35.0589],[9.2723,35.0555],[9.2711,35.052],[9.2668,35.0475],[9.2593,35.0417],[9.2334,35.0297],[9.183,35.0167],[9.1439,34.9999],[9.1419,34.9995],[9.1384,34.9992],[9.1302,35.0002],[9.1133,35.0041],[9.1076,35.0023],[9.1016,34.9978],[9.092,34.9866],[9.0846,34.9748],[9.0829,34.9712],[9.075,34.9569],[9.0688,34.9488],[9.036,34.9186],[9.0298,34.9106],[9.0269,34.9045],[9.028,34.9004],[9.0301,34.8966],[9.0331,34.8928],[9.0368,34.8893],[9.0408,34.8862],[9.0548,34.8799],[9.0584,34.8769],[9.0599,34.8736],[9.051,34.867],[8.8059,34.7506],[8.7764,34.7378],[8.7573,34.7319],[8.7123,34.7265],[8.7036,34.7241],[8.6014,34.6818],[8.5911,34.6764],[8.5826,34.6698],[8.5803,34.6664],[8.5787,34.6631],[8.573,34.6448],[8.5696,34.6374],[8.5611,34.6377],[8.5471,34.6421],[8.4777,34.6748],[8.4638,34.6832],[8.3545,34.7129],[8.3345,34.722],[8.3223,34.731],[8.3079,34.7366],[8.2711,34.7404],[8.2587,34.7413]]]}},{"type":"Feature","properties":{"id":"TUN-97","name":"Kebili","nameBn":"কেবিলি গভর্নোরেট","type":"Governorate","bounds":[7.7083,32.5264,9.9878,34.2048],"center":[8.8479,33.3621]},"geometry":{"type":"Polygon","coordinates":[[[8.0436,33.1018],[8.0226,33.103],[8.0022,33.1084],[7.9827,33.1168],[7.872,33.1841],[7.8355,33.1945],[7.7875,33.1983],[7.7507,33.2077],[7.725,33.2314],[7.7097,33.2782],[7.7083,33.4107],[7.725,33.4195],[7.9182,33.4994],[8.534,33.9141],[8.5887,33.9706],[8.6692,34.0909],[8.8411,34.104],[8.8765,34.117],[8.8854,34.1184],[8.8925,34.1184],[8.9311,34.11],[8.9936,34.1045],[9.0002,34.1048],[9.0033,34.1058],[9.0069,34.1075],[9.0104,34.1105],[9.0134,34.1141],[9.0154,34.1185],[9.0162,34.1222],[9.0166,34.1442],[9.0177,34.1514],[9.019,34.1551],[9.0208,34.1588],[9.0235,34.1627],[9.0269,34.1664],[9.0311,34.1699],[9.0533,34.1791],[9.0927,34.1915],[9.1015,34.1931],[9.1192,34.1882],[9.1347,34.1871],[9.2678,34.2048],[9.274,34.1878],[9.2839,34.175],[9.3011,34.1597],[9.3063,34.1557],[9.3523,34.1326],[9.3565,34.128],[9.3577,34.124],[9.3558,34.1204],[9.3531,34.1171],[9.3354,34.1024],[9.2977,34.0796],[9.2794,34.0661],[9.2755,34.0626],[9.2723,34.0593],[9.2677,34.0526],[9.2652,34.0457],[9.2593,34.0051],[9.2604,33.9624],[9.2685,33.9177],[9.2808,33.8805],[9.2969,33.8445],[9.3234,33.797],[9.376,33.7205],[9.3793,33.7169],[9.3831,33.7139],[9.3872,33.7116],[9.4317,33.6961],[9.4418,33.6914],[9.4505,33.6857],[9.4544,33.682],[9.4606,33.6742],[9.4742,33.6526],[9.4775,33.6492],[9.4814,33.6457],[9.4857,33.6429],[9.4904,33.6409],[9.495,33.6401],[9.4999,33.6397],[9.5134,33.642],[9.5178,33.6423],[9.522,33.6414],[9.5272,33.639],[9.5748,33.5971],[9.5833,33.5865],[9.587,33.5803],[9.5884,33.575],[9.5878,33.5711],[9.5856,33.5634],[9.579,33.5489],[9.5768,33.545],[9.553,33.5138],[9.5509,33.509],[9.5493,33.5031],[9.549,33.494],[9.551,33.4881],[9.5544,33.4828],[9.6331,33.4217],[9.6469,33.4059],[9.6867,33.3429],[9.7003,33.3276],[9.7407,33.2912],[9.7987,33.2397],[9.8176,33.2263],[9.8388,33.2199],[9.8563,33.2163],[9.8659,33.2159],[9.8746,33.2166],[9.8823,33.2161],[9.8926,33.2143],[9.9123,33.2086],[9.9208,33.2039],[9.9258,33.1997],[9.9269,33.1963],[9.9275,33.1927],[9.9276,33.117],[9.9262,33.1096],[9.9236,33.1025],[9.9095,33.0748],[9.9045,33.0604],[9.9047,33.0562],[9.9056,33.0503],[9.9093,33.0446],[9.9137,33.04],[9.919,33.036],[9.9595,33.0098],[9.9837,32.9881],[9.9878,32.9806],[9.9875,32.9752],[9.9835,32.9731],[9.9745,32.9701],[9.962,32.9673],[9.9579,32.9656],[9.9539,32.9632],[9.9509,32.9602],[9.9488,32.9567],[9.9473,32.9531],[9.9466,32.9491],[9.9475,32.931],[9.9519,32.8988],[9.9544,32.8915],[9.9618,32.8812],[9.9671,32.8726],[9.9685,32.8672],[9.968,32.8624],[9.9661,32.8586],[9.9545,32.8427],[9.9297,32.8174],[9.9269,32.8136],[9.9247,32.8097],[9.9218,32.7889],[9.92,32.7482],[9.9208,32.7396],[9.9224,32.7359],[9.9624,32.676],[9.9649,32.6712],[9.9678,32.6643],[9.9652,32.6605],[9.9613,32.6585],[9.9567,32.6582],[9.9522,32.6584],[9.947,32.6594],[9.936,32.663],[9.9112,32.6753],[9.8032,32.7486],[9.7715,32.7821],[9.7673,32.7855],[9.7585,32.7914],[9.7503,32.7956],[9.732,32.8012],[9.7166,32.804],[9.7043,32.8048],[9.6721,32.8025],[9.6457,32.7975],[9.6214,32.7905],[9.6007,32.7797],[9.5599,32.7504],[9.5493,32.7451],[9.5242,32.7354],[8.3511,32.5312],[8.3326,32.5264],[8.3313,32.5276],[8.3196,32.5606],[8.31,32.6639],[8.2964,32.8044],[8.2829,32.8364],[8.1814,32.9698],[8.0868,33.0943],[8.0645,33.1058],[8.0436,33.1018]]]}},{"type":"Feature","properties":{"id":"TUN-109","name":"Le Kef","nameBn":"কেফ গভর্নোরেট","type":"Governorate","bounds":[8.2414,35.6214,9.1502,36.4381],"center":[8.6957,36.0965]},"geometry":{"type":"Polygon","coordinates":[[[8.3272,35.6214],[8.3236,35.6522],[8.3066,35.6849],[8.2577,35.7503],[8.2458,35.7853],[8.2414,35.8277],[8.2472,35.9073],[8.2684,35.9699],[8.2724,35.9817],[8.2756,36.0368],[8.2967,36.1104],[8.308,36.127],[8.3171,36.1459],[8.3145,36.1639],[8.3071,36.1825],[8.3023,36.2023],[8.3071,36.2436],[8.3544,36.3509],[8.3554,36.3561],[8.3717,36.3576],[8.4341,36.3531],[8.4543,36.3541],[8.5444,36.3916],[8.5825,36.403],[8.5914,36.4044],[8.8303,36.4143],[8.9173,36.4381],[8.9637,36.381],[8.976,36.3603],[8.9772,36.3559],[8.9777,36.3484],[8.9763,36.3406],[8.9747,36.3368],[8.9699,36.3292],[8.9665,36.3253],[8.9636,36.3197],[8.9614,36.3128],[8.9606,36.2997],[8.9617,36.2927],[8.9637,36.2869],[8.974,36.273],[8.9999,36.2475],[9.0194,36.2214],[9.0236,36.2137],[9.0262,36.2074],[9.0275,36.1992],[9.0276,36.1848],[9.0255,36.1641],[9.0258,36.1568],[9.0276,36.1434],[9.0309,36.1363],[9.0348,36.1311],[9.0483,36.1235],[9.1096,36.0981],[9.117,36.0923],[9.1257,36.0837],[9.1414,36.0635],[9.1471,36.0533],[9.1502,36.0452],[9.1491,36.0275],[9.1437,36.0004],[9.1367,35.9783],[9.1313,35.9671],[9.1257,35.9596],[9.1018,35.9383],[9.0874,35.9204],[9.0835,35.9131],[9.0803,35.8981],[9.0776,35.8896],[9.0739,35.8814],[9.0713,35.8772],[9.068,35.8733],[9.0325,35.8489],[9.0289,35.8457],[9.0256,35.8409],[9.0242,35.8379],[9.023,35.8342],[9.0218,35.8258],[9.0218,35.7864],[9.0176,35.7491],[9.016,35.7417],[9.0022,35.7034],[8.9529,35.706],[8.7809,35.7654],[8.6993,35.7841],[8.6895,35.7847],[8.6813,35.7822],[8.6705,35.777],[8.6478,35.7624],[8.6382,35.7548],[8.632,35.749],[8.6296,35.7455],[8.6256,35.7372],[8.6223,35.7279],[8.6202,35.7195],[8.616,35.6785],[8.6132,35.6654],[8.6106,35.6585],[8.6054,35.6517],[8.6023,35.649],[8.5811,35.6467],[8.5348,35.6493],[8.5233,35.652],[8.4797,35.671],[8.4749,35.6724],[8.4701,35.6731],[8.4613,35.6735],[8.4526,35.6707],[8.4408,35.6654],[8.4053,35.6434],[8.388,35.6303],[8.3751,35.6259],[8.3454,35.6237],[8.3272,35.6214]]]}},{"type":"Feature","properties":{"id":"TUN-116","name":"Mahdia","nameBn":"মাহদিয়া গভর্নোরেট","type":"Governorate","bounds":[10.1742,35.0928,11.1608,35.5762],"center":[10.6621,35.3594]},"geometry":{"type":"Polygon","coordinates":[[[11.0139,35.5629],[11.0149,35.5552],[11.0239,35.5338],[11.0392,35.5185],[11.0851,35.5068],[11.0577,35.4867],[11.0507,35.4598],[11.0455,35.4348],[11.0494,35.3913],[11.0372,35.3708],[11.0422,35.3344],[11.0659,35.3033],[11.1013,35.2668],[11.1221,35.2536],[11.1471,35.244],[11.1608,35.2382],[11.1592,35.2188],[11.1314,35.218],[11.1116,35.2056],[11.0923,35.1739],[11.0629,35.1536],[11.0488,35.1312],[11.035,35.1071],[11.0159,35.0928],[11.0144,35.0929],[10.9673,35.1002],[10.953,35.1072],[10.9253,35.1464],[10.9146,35.1584],[10.9032,35.1691],[10.8962,35.1718],[10.8908,35.1715],[10.8871,35.1683],[10.8744,35.1539],[10.8686,35.1511],[10.8607,35.1494],[10.8466,35.1502],[10.839,35.1533],[10.8334,35.1573],[10.8281,35.1657],[10.8145,35.1959],[10.8107,35.2072],[10.8033,35.2426],[10.7996,35.2487],[10.7934,35.2574],[10.7814,35.2696],[10.775,35.2721],[10.7705,35.2713],[10.7549,35.2437],[10.7485,35.2358],[10.7446,35.232],[10.7402,35.2284],[10.7355,35.2252],[10.7255,35.2203],[10.7128,35.2211],[10.6238,35.2424],[10.6195,35.2419],[10.6155,35.2405],[10.6129,35.2378],[10.6107,35.2347],[10.6084,35.228],[10.6064,35.2244],[10.6036,35.2211],[10.5991,35.218],[10.5805,35.209],[10.5775,35.206],[10.5755,35.2026],[10.5747,35.1988],[10.5746,35.1951],[10.5754,35.1883],[10.5749,35.1861],[10.5738,35.1837],[10.5718,35.1805],[10.5684,35.1768],[10.5514,35.1635],[10.5317,35.1519],[10.4208,35.1086],[10.4068,35.1057],[10.3991,35.1054],[10.3933,35.106],[10.3851,35.1095],[10.357,35.1259],[10.3521,35.1281],[10.3438,35.1302],[10.2287,35.1465],[10.2304,35.1848],[10.2292,35.1979],[10.2276,35.2017],[10.2237,35.2092],[10.1998,35.2376],[10.1953,35.2448],[10.1927,35.2514],[10.1921,35.2546],[10.1919,35.2567],[10.1919,35.2661],[10.195,35.2938],[10.1947,35.3038],[10.1922,35.3201],[10.1901,35.3274],[10.187,35.3341],[10.1789,35.3479],[10.1753,35.3555],[10.1742,35.3591],[10.1759,35.367],[10.1801,35.3785],[10.211,35.4411],[10.2223,35.4562],[10.2431,35.4774],[10.2476,35.4845],[10.2482,35.4919],[10.2475,35.4995],[10.2326,35.5326],[10.232,35.5365],[10.2332,35.5412],[10.236,35.5462],[10.2425,35.5537],[10.2617,35.5643],[10.3057,35.5762],[10.2984,35.5525],[10.2971,35.5443],[10.2974,35.539],[10.2988,35.534],[10.3013,35.5292],[10.3049,35.5254],[10.3089,35.5219],[10.3325,35.5073],[10.3443,35.4956],[10.3497,35.4933],[10.3569,35.492],[10.3885,35.498],[10.3977,35.4976],[10.4329,35.4893],[10.4386,35.4871],[10.4434,35.4843],[10.4471,35.4805],[10.4499,35.4761],[10.452,35.4709],[10.4536,35.4524],[10.4551,35.4469],[10.4585,35.4429],[10.4632,35.4398],[10.5212,35.4187],[10.5272,35.4177],[10.5333,35.4183],[10.5389,35.4201],[10.5438,35.4247],[10.5485,35.4307],[10.5536,35.4421],[10.5567,35.4475],[10.5609,35.4525],[10.5854,35.4632],[10.5898,35.4688],[10.5919,35.4723],[10.6011,35.502],[10.7173,35.4705],[10.7857,35.4595],[10.8233,35.4581],[10.8334,35.4589],[10.8404,35.4605],[10.843,35.4634],[10.8514,35.4793],[10.8626,35.4936],[10.8708,35.5017],[10.8866,35.5141],[10.9084,35.5272],[10.931,35.5378],[11.0137,35.5628],[11.0139,35.5629]]]}},{"type":"Feature","properties":{"id":"TUN-102","name":"Manubah","nameBn":"মান্যুবা গভর্নোরেট","type":"Governorate","bounds":[9.553,36.5704,10.337,37.1289],"center":[9.9451,36.7903]},"geometry":{"type":"Polygon","coordinates":[[[10.2182,37.1289],[10.2271,37.1177],[10.2303,37.1081],[10.2244,37.0959],[10.2175,37.1103],[10.1743,37.0762],[10.1824,37.027],[10.2201,36.9766],[10.2659,36.9389],[10.3032,36.9244],[10.3137,36.9184],[10.337,36.8918],[10.3328,36.8895],[10.1921,36.8531],[10.0681,36.7985],[10.0257,36.7852],[10.0071,36.7772],[9.9979,36.772],[9.9973,36.7683],[9.9987,36.7651],[10.0009,36.7629],[10.0042,36.7607],[10.0119,36.7566],[10.0153,36.7542],[10.0167,36.7519],[10.0178,36.7475],[10.0183,36.7437],[10.0197,36.74],[10.0223,36.7365],[10.0259,36.7333],[10.0439,36.7229],[10.0522,36.7162],[10.0553,36.7126],[10.0573,36.7087],[10.058,36.704],[10.0578,36.7002],[10.0547,36.6895],[10.0048,36.6487],[9.9866,36.638],[9.9714,36.6354],[9.9672,36.6427],[9.9647,36.6455],[9.961,36.649],[9.9572,36.6507],[9.953,36.6514],[9.9489,36.6514],[9.9404,36.6495],[9.9351,36.6462],[9.9292,36.6409],[9.9128,36.6171],[9.8963,36.5856],[9.8865,36.5781],[9.8561,36.5704],[9.8456,36.5892],[9.8065,36.6359],[9.7737,36.6909],[9.7664,36.707],[9.7642,36.7146],[9.7625,36.7183],[9.7593,36.7214],[9.7535,36.7239],[9.7267,36.7258],[9.6699,36.7414],[9.553,36.8293],[9.5929,36.8568],[9.6797,36.8884],[9.7323,36.8981],[9.7419,36.9018],[9.7484,36.9057],[9.7604,36.9229],[9.7739,36.9358],[9.7914,36.9485],[9.8007,36.9535],[9.8079,36.9564],[9.8445,36.958],[9.8646,36.956],[9.8837,36.9514],[9.9368,36.9315],[9.9438,36.9301],[9.9584,36.929],[9.9716,36.9293],[9.9801,36.9318],[9.9858,36.9348],[9.9892,36.9381],[9.9917,36.9414],[9.9936,36.9446],[10.0012,36.9615],[10.0174,36.986],[10.0253,36.9956],[10.0602,37.0532],[10.0669,37.0679],[10.0692,37.0716],[10.0724,37.0758],[10.0811,37.0851],[10.0873,37.0931],[10.0974,37.1031],[10.1045,37.1076],[10.1117,37.1106],[10.164,37.115],[10.2118,37.1281],[10.2182,37.1289]]]}},{"type":"Feature","properties":{"id":"TUN-117","name":"Monastir","nameBn":"মোনাস্তির গভর্নোরেট","type":"Governorate","bounds":[10.4798,35.4581,11.055,35.7896],"center":[10.7538,35.6225]},"geometry":{"type":"Polygon","coordinates":[[[10.6913,35.7896],[10.6937,35.7878],[10.7131,35.7792],[10.7436,35.7697],[10.8037,35.7869],[10.8138,35.785],[10.8231,35.7805],[10.8414,35.7665],[10.8303,35.7532],[10.8245,35.7334],[10.8296,35.7131],[10.8412,35.6988],[10.8815,35.683],[10.9718,35.6541],[11.012,35.6579],[11.041,35.6377],[11.055,35.6145],[11.0171,35.6023],[11.012,35.579],[11.0139,35.5629],[11.0137,35.5628],[10.931,35.5378],[10.9084,35.5272],[10.8866,35.5141],[10.8708,35.5017],[10.8626,35.4936],[10.8514,35.4793],[10.843,35.4634],[10.8404,35.4605],[10.8334,35.4589],[10.8233,35.4581],[10.7857,35.4595],[10.7173,35.4705],[10.6011,35.502],[10.5921,35.5091],[10.5684,35.5166],[10.5623,35.5173],[10.557,35.5159],[10.553,35.5135],[10.5503,35.5101],[10.5489,35.5078],[10.5455,35.4985],[10.5432,35.4947],[10.5378,35.4872],[10.5313,35.484],[10.5235,35.4827],[10.5029,35.4847],[10.499,35.4855],[10.4942,35.4871],[10.4898,35.4897],[10.4858,35.4928],[10.4829,35.4963],[10.4802,35.5006],[10.4798,35.5019],[10.4798,35.5083],[10.4811,35.5193],[10.4836,35.5243],[10.488,35.5274],[10.5198,35.5389],[10.5286,35.544],[10.5324,35.5479],[10.5348,35.5526],[10.5345,35.5595],[10.5319,35.5642],[10.5224,35.5752],[10.5226,35.5794],[10.5254,35.5835],[10.5339,35.589],[10.5398,35.5915],[10.5452,35.593],[10.5676,35.5971],[10.6033,35.6073],[10.6194,35.6154],[10.6275,35.6209],[10.6325,35.6282],[10.6366,35.6388],[10.6428,35.6716],[10.6432,35.6788],[10.6396,35.7099],[10.6393,35.7285],[10.6397,35.733],[10.6494,35.7477],[10.6889,35.787],[10.6913,35.7896]]]}},{"type":"Feature","properties":{"id":"TUN-96","name":"Médenine","nameBn":"মেদেনিন গভর্নোরেট","type":"Governorate","bounds":[9.7407,32.2622,11.5641,33.8963],"center":[10.6522,33.4403]},"geometry":{"type":"MultiPolygon","coordinates":[[[[11.5261,32.4179],[11.5139,32.408],[11.444,32.3685],[11.1823,32.2622],[11.1828,32.2629],[11.2474,32.3657],[11.2642,32.3823],[11.2817,32.3957],[11.2999,32.407],[11.3195,32.417],[11.367,32.432],[11.3825,32.4386],[11.4186,32.4609],[11.4272,32.4684],[11.4339,32.4759],[11.4364,32.4801],[11.4376,32.4841],[11.4358,32.4883],[11.4313,32.4907],[11.4227,32.4911],[11.3943,32.4866],[11.3869,32.4871],[11.3797,32.4897],[11.3704,32.4942],[11.1073,32.6781],[11.104,32.6819],[11.1026,32.6859],[11.1026,32.6898],[11.1032,32.6937],[11.1128,32.7249],[11.1139,32.7373],[11.1101,32.8233],[11.1111,32.8318],[11.1128,32.839],[11.1258,32.8681],[11.1312,32.8844],[11.1344,32.9015],[11.1344,32.9084],[11.1338,32.9117],[11.1315,32.9186],[11.1293,32.9222],[11.1267,32.9257],[11.1214,32.9296],[11.1147,32.9334],[11.1026,32.9388],[11.0897,32.9462],[11.0474,32.9789],[11.0398,32.9863],[11.0337,32.9943],[11.0308,32.9997],[11.0176,33.0466],[11.0165,33.0488],[11.0144,33.0518],[11.0117,33.0549],[11.0072,33.0583],[11.0016,33.0616],[10.7249,33.1709],[10.703,33.1753],[10.657,33.1799],[10.6393,33.1846],[10.6298,33.189],[10.6202,33.1954],[10.6161,33.1991],[10.6132,33.2026],[10.6113,33.2061],[10.611,33.2098],[10.6124,33.2131],[10.6154,33.216],[10.6354,33.2219],[10.6382,33.225],[10.6394,33.2285],[10.6396,33.2322],[10.6408,33.2358],[10.6486,33.2461],[10.6506,33.2496],[10.6512,33.253],[10.6506,33.2564],[10.648,33.2597],[10.6382,33.2608],[10.5607,33.2529],[10.5257,33.2569],[10.517,33.2563],[10.5086,33.2541],[10.3333,33.1888],[10.3201,33.1815],[10.2517,33.1568],[10.2425,33.1517],[10.2358,33.1441],[10.231,33.1411],[10.2243,33.1393],[10.2121,33.1393],[10.1609,33.1477],[10.1426,33.1487],[10.1364,33.1472],[10.1292,33.1442],[10.1168,33.1369],[10.1101,33.1322],[10.1048,33.1277],[10.0841,33.1026],[10.0807,33.0995],[10.0765,33.097],[10.0425,33.0849],[10.0177,33.0792],[9.9959,33.0765],[9.9095,33.0748],[9.9236,33.1025],[9.9262,33.1096],[9.9276,33.117],[9.9275,33.1927],[9.9269,33.1963],[9.9258,33.1997],[9.9208,33.2039],[9.9123,33.2086],[9.8926,33.2143],[9.8823,33.2161],[9.8746,33.2166],[9.8659,33.2159],[9.8563,33.2163],[9.8388,33.2199],[9.8176,33.2263],[9.7987,33.2397],[9.7407,33.2912],[9.7588,33.2908],[9.7851,33.2877],[9.7942,33.2875],[9.8035,33.2884],[9.8457,33.2996],[9.864,33.3024],[9.919,33.2984],[9.9362,33.2987],[9.9445,33.3006],[9.9744,33.3116],[10.0484,33.3253],[10.0594,33.3287],[10.1744,33.4088],[10.2065,33.4205],[10.2729,33.4369],[10.2788,33.4402],[10.2855,33.4463],[10.3069,33.4824],[10.3624,33.5561],[10.3663,33.5643],[10.3736,33.5735],[10.436,33.6376],[10.4573,33.6509],[10.4602,33.6527],[10.4893,33.6471],[10.5584,33.6557],[10.6341,33.6736],[10.6976,33.7026],[10.7166,33.7069],[10.74,33.6716],[10.7369,33.6028],[10.7075,33.5817],[10.6914,33.5761],[10.679,33.5626],[10.6741,33.5456],[10.6799,33.5299],[10.7036,33.496],[10.7171,33.4835],[10.7381,33.478],[10.7805,33.4857],[10.8562,33.5243],[10.8923,33.5333],[10.9094,33.5396],[10.9251,33.5551],[10.9328,33.574],[10.9263,33.5913],[10.9092,33.6079],[10.9065,33.6164],[10.9362,33.6363],[10.9479,33.6295],[10.9606,33.6277],[10.9714,33.6319],[10.9779,33.6431],[10.9846,33.6431],[11.0007,33.6342],[11.0428,33.6179],[11.0603,33.6083],[11.0736,33.5945],[11.1082,33.5496],[11.1116,33.54],[11.1166,33.49],[11.0899,33.4541],[11.1108,33.393],[11.1021,33.3641],[11.1311,33.3715],[11.1509,33.3539],[11.1707,33.3318],[11.1939,33.321],[11.2178,33.3163],[11.2691,33.2943],[11.2937,33.2868],[11.2874,33.282],[11.2844,33.2808],[11.28,33.28],[11.1819,33.3068],[11.1336,33.3114],[11.1218,33.28],[11.1315,33.2681],[11.1477,33.2569],[11.1633,33.2426],[11.1702,33.221],[11.1795,33.2111],[11.2015,33.2112],[11.2454,33.2179],[11.2879,33.2101],[11.3722,33.1838],[11.4168,33.1838],[11.4331,33.1935],[11.4276,33.207],[11.4107,33.2189],[11.3928,33.2241],[11.3814,33.2307],[11.3674,33.2453],[11.3519,33.2589],[11.4424,33.2047],[11.4978,33.1827],[11.5046,33.1813],[11.5051,33.1812],[11.506,33.1364],[11.4774,33.0412],[11.4749,33.0258],[11.4744,32.9699],[11.4565,32.9021],[11.4638,32.7985],[11.4492,32.693],[11.4499,32.638],[11.4704,32.5993],[11.5374,32.5435],[11.5606,32.5076],[11.5641,32.4655],[11.5464,32.4343],[11.5261,32.4179]]],[[[10.9915,33.8417],[11.011,33.8316],[11.0311,33.8239],[11.0485,33.8148],[11.0603,33.8007],[10.994,33.7497],[10.9773,33.7431],[10.971,33.7387],[10.9665,33.7304],[10.9567,33.6977],[10.9505,33.6977],[10.9536,33.7242],[10.9567,33.7325],[10.9411,33.7282],[10.9285,33.6966],[10.9105,33.6739],[10.8937,33.6582],[10.8878,33.6401],[10.8711,33.6543],[10.8707,33.6718],[10.8769,33.6882],[10.859,33.7111],[10.8421,33.718],[10.8262,33.7298],[10.8089,33.7343],[10.7903,33.7186],[10.7819,33.7037],[10.7634,33.7002],[10.7402,33.7155],[10.7338,33.7307],[10.7278,33.7582],[10.7283,33.7846],[10.7476,33.8127],[10.7355,33.8538],[10.736,33.8848],[10.773,33.8963],[10.8543,33.8817],[10.8978,33.8793],[10.9299,33.8963],[10.9597,33.8661],[10.9915,33.8417]]]]}},{"type":"Feature","properties":{"id":"TUN-107","name":"Nabeul","nameBn":"নাবেউল গভর্নোরেট","type":"Governorate","bounds":[10.3393,36.3503,11.1362,37.0875],"center":[10.7319,36.6794]},"geometry":{"type":"Polygon","coordinates":[[[10.4168,36.7296],[10.437,36.7288],[10.4877,36.7497],[10.5187,36.7558],[10.5382,36.772],[10.546,36.7999],[10.5526,36.8229],[10.5669,36.8632],[10.585,36.8762],[10.6061,36.8797],[10.6526,36.8769],[10.6947,36.8835],[10.7335,36.8958],[10.7832,36.9244],[10.814,36.9504],[10.8231,36.9539],[10.8269,36.9632],[10.8301,36.9682],[10.8875,37.006],[10.8958,37.0141],[10.8984,37.0252],[10.8947,37.0322],[10.8929,37.0386],[10.9021,37.0488],[10.9237,37.057],[10.9741,37.0613],[11.0127,37.0848],[11.0334,37.0875],[11.051,37.0803],[11.0603,37.0625],[11.0589,37.0539],[11.0486,37.042],[11.0461,37.0314],[11.0483,37.0203],[11.0581,37.006],[11.0603,36.997],[11.064,36.9901],[11.0813,36.9694],[11.0877,36.9594],[11.0901,36.9496],[11.0918,36.9282],[11.0945,36.9184],[11.0991,36.9106],[11.106,36.9016],[11.1131,36.8942],[11.1184,36.8912],[11.1243,36.8857],[11.1362,36.8705],[11.1305,36.854],[11.1168,36.8384],[11.0767,36.8252],[11.0221,36.7883],[10.9925,36.7441],[10.9499,36.6939],[10.8795,36.5885],[10.8257,36.4798],[10.7999,36.4519],[10.7172,36.4346],[10.6204,36.3903],[10.5856,36.3981],[10.5509,36.3773],[10.5294,36.3503],[10.5242,36.3593],[10.5187,36.3686],[10.5169,36.3708],[10.5148,36.3725],[10.5116,36.3744],[10.5056,36.3746],[10.4982,36.3733],[10.4849,36.3683],[10.4776,36.3645],[10.4708,36.362],[10.4643,36.3619],[10.4539,36.3663],[10.4475,36.3703],[10.4273,36.3738],[10.3983,36.3697],[10.3655,36.3651],[10.3593,36.3658],[10.3561,36.3668],[10.3516,36.3689],[10.3477,36.372],[10.3445,36.3757],[10.342,36.3796],[10.3393,36.3999],[10.3412,36.4706],[10.3593,36.559],[10.3556,36.5828],[10.3533,36.5902],[10.3553,36.5999],[10.3933,36.661],[10.4154,36.7242],[10.4168,36.7296]]]}},{"type":"Feature","properties":{"id":"TUN-114","name":"Sfax","nameBn":"স্ফ্যাক্স গভর্নোরেট","type":"Governorate","bounds":[9.7136,34.1554,11.3048,35.2721],"center":[11.0329,34.6495]},"geometry":{"type":"MultiPolygon","coordinates":[[[[11.0159,35.0928],[11.0225,35.0645],[11.0181,35.0342],[10.9844,34.9994],[10.9459,34.9835],[10.9177,34.9574],[10.925,34.9341],[10.9165,34.9133],[10.9163,34.8736],[10.8755,34.8491],[10.8667,34.8413],[10.8604,34.8368],[10.8563,34.8309],[10.8674,34.811],[10.8714,34.7974],[10.8349,34.7834],[10.8113,34.7689],[10.779,34.7395],[10.7635,34.7134],[10.744,34.6987],[10.7347,34.6809],[10.7173,34.6647],[10.7012,34.656],[10.6343,34.6379],[10.6253,34.6332],[10.6214,34.6263],[10.6199,34.6159],[10.615,34.6036],[10.6074,34.5933],[10.6057,34.5737],[10.5988,34.5625],[10.597,34.5447],[10.5816,34.5327],[10.5594,34.5235],[10.466,34.5119],[10.4319,34.4963],[10.3787,34.4231],[10.3304,34.4126],[10.3205,34.4132],[10.3113,34.4168],[10.3001,34.4177],[10.2881,34.414],[10.282,34.4089],[10.278,34.4027],[10.2566,34.3791],[10.2472,34.3721],[10.2342,34.3693],[10.1868,34.352],[10.1667,34.3388],[10.1267,34.3256],[10.1022,34.3041],[10.0898,34.273],[10.054,34.2132],[10.0328,34.1847],[10.0188,34.1806],[10.0103,34.1732],[10.0101,34.1731],[9.9888,34.1892],[9.9854,34.191],[9.9827,34.1913],[9.979,34.1909],[9.9747,34.1871],[9.973,34.183],[9.9725,34.1783],[9.9728,34.1666],[9.9722,34.163],[9.9705,34.1598],[9.9666,34.1569],[9.9613,34.1556],[9.9533,34.1554],[9.9306,34.1582],[9.9129,34.166],[9.8945,34.1772],[9.8789,34.1895],[9.8665,34.2056],[9.8586,34.2139],[9.8515,34.2175],[9.8423,34.2199],[9.8257,34.2202],[9.8168,34.2194],[9.7993,34.2158],[9.7773,34.2145],[9.7728,34.2148],[9.7607,34.2169],[9.7438,34.2218],[9.7343,34.2261],[9.7256,34.233],[9.7136,34.2487],[9.7332,34.2404],[9.7415,34.2379],[9.7455,34.2373],[9.7495,34.2373],[9.7537,34.238],[9.7579,34.2394],[9.7613,34.2433],[9.763,34.2491],[9.7621,34.2597],[9.7607,34.2661],[9.7588,34.2717],[9.7518,34.2855],[9.7464,34.2933],[9.7397,34.3008],[9.7231,34.3128],[9.7195,34.316],[9.7175,34.3196],[9.7188,34.3242],[9.7225,34.3298],[9.7318,34.3394],[9.7444,34.349],[9.7723,34.3616],[9.832,34.3785],[9.8519,34.387],[9.8611,34.3925],[9.8985,34.4197],[9.905,34.4234],[9.9131,34.4266],[9.9176,34.4276],[9.9269,34.4285],[9.9494,34.428],[9.954,34.4287],[9.959,34.4303],[9.9634,34.4333],[9.9784,34.4477],[9.9874,34.4539],[10.0352,34.4744],[10.0394,34.4772],[10.0431,34.4805],[10.0462,34.484],[10.049,34.4887],[10.0519,34.4951],[10.0572,34.5122],[10.0607,34.5301],[10.0603,34.5343],[10.0594,34.5384],[10.0546,34.5435],[10.0502,34.5465],[9.9692,34.5802],[9.9477,34.5852],[9.8394,34.596],[9.836,34.5972],[9.8333,34.5996],[9.8314,34.6027],[9.8297,34.6063],[9.824,34.6265],[9.824,34.6366],[9.8265,34.6506],[9.8294,34.6591],[9.8363,34.674],[9.8589,34.7136],[9.9737,34.8698],[10.0516,35.014],[10.0595,35.0264],[10.0783,35.0505],[10.1306,35.1003],[10.1702,35.1292],[10.1915,35.1403],[10.2039,35.1444],[10.2287,35.1465],[10.3438,35.1302],[10.3521,35.1281],[10.357,35.1259],[10.3851,35.1095],[10.3933,35.106],[10.3991,35.1054],[10.4068,35.1057],[10.4208,35.1086],[10.5317,35.1519],[10.5514,35.1635],[10.5684,35.1768],[10.5718,35.1805],[10.5738,35.1837],[10.5749,35.1861],[10.5754,35.1883],[10.5746,35.1951],[10.5747,35.1988],[10.5755,35.2026],[10.5775,35.206],[10.5805,35.209],[10.5991,35.218],[10.6036,35.2211],[10.6064,35.2244],[10.6084,35.228],[10.6107,35.2347],[10.6129,35.2378],[10.6155,35.2405],[10.6195,35.2419],[10.6238,35.2424],[10.7128,35.2211],[10.7255,35.2203],[10.7355,35.2252],[10.7402,35.2284],[10.7446,35.232],[10.7485,35.2358],[10.7549,35.2437],[10.7705,35.2713],[10.775,35.2721],[10.7814,35.2696],[10.7934,35.2574],[10.7996,35.2487],[10.8033,35.2426],[10.8107,35.2072],[10.8145,35.1959],[10.8281,35.1657],[10.8334,35.1573],[10.839,35.1533],[10.8466,35.1502],[10.8607,35.1494],[10.8686,35.1511],[10.8744,35.1539],[10.8871,35.1683],[10.8908,35.1715],[10.8962,35.1718],[10.9032,35.1691],[10.9146,35.1584],[10.9253,35.1464],[10.953,35.1072],[10.9673,35.1002],[11.0144,35.0929],[11.0159,35.0928]]],[[[10.9641,34.6567],[10.9738,34.663],[10.9872,34.6718],[11.1013,34.671],[11.1108,34.6595],[11.0959,34.647],[11.0557,34.621],[11.0365,34.6243],[11.0166,34.6325],[10.9835,34.6459],[10.9641,34.6567]]],[[[11.2658,34.7734],[11.2748,34.7704],[11.2805,34.7629],[11.3048,34.7423],[11.297,34.7287],[11.1997,34.6947],[11.1491,34.6693],[11.1307,34.6633],[11.1223,34.6804],[11.1362,34.6939],[11.1527,34.7069],[11.1706,34.7286],[11.1731,34.7424],[11.1723,34.7488],[11.173,34.758],[11.1809,34.7618],[11.1831,34.7522],[11.1982,34.744],[11.2221,34.7476],[11.2243,34.7701],[11.2175,34.7816],[11.2253,34.7952],[11.2371,34.8042],[11.2453,34.815],[11.2543,34.8258],[11.2708,34.8179],[11.2995,34.8142],[11.3042,34.8053],[11.2781,34.7977],[11.2744,34.7917],[11.2682,34.7853],[11.2658,34.7734]]]]}},{"type":"Feature","properties":{"id":"TUN-113","name":"Sidi Bou Zid","nameBn":"সিদি বৌজিদ গভর্নোরেট","type":"Governorate","bounds":[8.8059,34.2373,10.0607,35.4933],"center":[9.4333,34.9757]},"geometry":{"type":"Polygon","coordinates":[[[9.3988,35.4933],[9.4542,35.4879],[9.4815,35.4589],[9.489,35.4465],[9.4891,35.4431],[9.489,35.4396],[9.484,35.4083],[9.4798,35.3965],[9.4735,35.3661],[9.4736,35.3629],[9.4742,35.3601],[9.4756,35.3567],[9.4784,35.3526],[9.4829,35.3478],[9.5582,35.2901],[9.565,35.2871],[9.5827,35.2837],[9.5934,35.2831],[9.603,35.2836],[9.6077,35.2845],[9.6135,35.2839],[9.6195,35.2817],[9.6812,35.2289],[9.684,35.2255],[9.6924,35.211],[9.6949,35.2076],[9.6986,35.2039],[9.7079,35.1958],[9.7158,35.1912],[9.7253,35.1868],[9.7535,35.1779],[9.8269,35.166],[9.9163,35.1425],[9.9211,35.1418],[9.9262,35.1416],[9.9306,35.1423],[9.9802,35.1568],[9.9863,35.1536],[9.9922,35.1459],[10.0274,35.0442],[10.0327,35.0358],[10.0516,35.014],[9.9737,34.8698],[9.8589,34.7136],[9.8363,34.674],[9.8294,34.6591],[9.8265,34.6506],[9.824,34.6366],[9.824,34.6265],[9.8297,34.6063],[9.8314,34.6027],[9.8333,34.5996],[9.836,34.5972],[9.8394,34.596],[9.9477,34.5852],[9.9692,34.5802],[10.0502,34.5465],[10.0546,34.5435],[10.0594,34.5384],[10.0603,34.5343],[10.0607,34.5301],[10.0572,34.5122],[10.0519,34.4951],[10.049,34.4887],[10.0462,34.484],[10.0431,34.4805],[10.0394,34.4772],[10.0352,34.4744],[9.9874,34.4539],[9.9784,34.4477],[9.9634,34.4333],[9.959,34.4303],[9.954,34.4287],[9.9494,34.428],[9.9269,34.4285],[9.9176,34.4276],[9.9131,34.4266],[9.905,34.4234],[9.8985,34.4197],[9.8611,34.3925],[9.8519,34.387],[9.832,34.3785],[9.7723,34.3616],[9.7444,34.349],[9.7318,34.3394],[9.7225,34.3298],[9.7188,34.3242],[9.7175,34.3196],[9.7195,34.316],[9.7231,34.3128],[9.7397,34.3008],[9.7464,34.2933],[9.7518,34.2855],[9.7588,34.2717],[9.7607,34.2661],[9.7621,34.2597],[9.763,34.2491],[9.7613,34.2433],[9.7579,34.2394],[9.7537,34.238],[9.7495,34.2373],[9.7455,34.2373],[9.7415,34.2379],[9.7332,34.2404],[9.7136,34.2487],[9.7102,34.2572],[9.7054,34.2651],[9.7025,34.2688],[9.6986,34.2722],[9.6892,34.2787],[9.6693,34.2893],[9.6598,34.2927],[9.6519,34.2925],[9.6415,34.2912],[9.6015,34.2801],[9.5884,34.2732],[9.5585,34.2523],[9.5629,34.3706],[9.5619,34.3743],[9.5605,34.3781],[9.5535,34.3837],[9.542,34.3902],[9.495,34.409],[9.488,34.4126],[9.462,34.4295],[9.4538,34.4363],[9.448,34.4421],[9.4333,34.4614],[9.4247,34.4693],[9.4167,34.4736],[9.3537,34.4929],[9.3464,34.4963],[9.3371,34.5017],[9.3102,34.5206],[9.2893,34.5392],[9.2781,34.5517],[9.2742,34.5577],[9.2683,34.5707],[9.2663,34.5787],[9.2658,34.584],[9.266,34.5881],[9.2666,34.592],[9.2686,34.5995],[9.2924,34.65],[9.2933,34.6542],[9.2932,34.6582],[9.2904,34.6613],[9.2856,34.6631],[9.2761,34.6618],[9.2694,34.6597],[9.2553,34.6536],[9.2468,34.651],[9.2426,34.6505],[9.2362,34.6516],[9.2285,34.6541],[9.167,34.6811],[9.0638,34.697],[8.9676,34.6977],[8.8059,34.7506],[9.051,34.867],[9.0599,34.8736],[9.0584,34.8769],[9.0548,34.8799],[9.0408,34.8862],[9.0368,34.8893],[9.0331,34.8928],[9.0301,34.8966],[9.028,34.9004],[9.0269,34.9045],[9.0298,34.9106],[9.036,34.9186],[9.0688,34.9488],[9.075,34.9569],[9.0829,34.9712],[9.0846,34.9748],[9.092,34.9866],[9.1016,34.9978],[9.1076,35.0023],[9.1133,35.0041],[9.1302,35.0002],[9.1384,34.9992],[9.1419,34.9995],[9.1439,34.9999],[9.183,35.0167],[9.2334,35.0297],[9.2593,35.0417],[9.2668,35.0475],[9.2711,35.052],[9.2723,35.0555],[9.2731,35.0589],[9.2734,35.0624],[9.2733,35.0654],[9.2728,35.0675],[9.2717,35.0707],[9.2633,35.0862],[9.259,35.0964],[9.257,35.1066],[9.2557,35.1242],[9.2562,35.1363],[9.2649,35.1783],[9.2654,35.1891],[9.2644,35.1934],[9.2629,35.1976],[9.2601,35.2016],[9.2567,35.2051],[9.2523,35.2078],[9.2416,35.2124],[9.1666,35.2317],[9.163,35.2332],[9.1547,35.2381],[9.1516,35.2409],[9.1502,35.243],[9.149,35.2462],[9.1482,35.2496],[9.1481,35.2535],[9.1482,35.2572],[9.149,35.261],[9.1538,35.2763],[9.1693,35.3078],[9.1751,35.315],[9.1802,35.3201],[9.1903,35.3252],[9.2058,35.3363],[9.2107,35.3416],[9.2141,35.3463],[9.2255,35.3738],[9.2292,35.3804],[9.2334,35.3856],[9.2421,35.3929],[9.252,35.3991],[9.2866,35.4158],[9.3001,35.4262],[9.3115,35.4365],[9.3169,35.443],[9.3208,35.4491],[9.3246,35.4633],[9.327,35.4807],[9.3799,35.4932],[9.3988,35.4933]]]}},{"type":"Feature","properties":{"id":"TUN-115","name":"Siliana","nameBn":"সিলিয়ানা গভর্নোরেট","type":"Governorate","bounds":[8.9173,35.4807,9.7576,36.4542],"center":[9.3375,35.5597]},"geometry":{"type":"Polygon","coordinates":[[[9.4542,35.4879],[9.3988,35.4933],[9.3799,35.4932],[9.327,35.4807],[9.3257,35.4876],[9.3231,35.4944],[9.3164,35.5056],[9.3107,35.5126],[9.3029,35.5195],[9.2947,35.5247],[9.2585,35.5428],[9.2381,35.5509],[9.2129,35.5547],[9.2072,35.5572],[9.2016,35.5616],[9.1941,35.5714],[9.1822,35.5944],[9.1762,35.5991],[9.1666,35.6043],[9.1271,35.6191],[9.1229,35.6195],[9.1186,35.6191],[9.1139,35.6181],[9.1006,35.6135],[9.0961,35.6127],[9.0914,35.6123],[9.0871,35.6127],[9.0829,35.6138],[9.064,35.6315],[9.0022,35.7034],[9.016,35.7417],[9.0176,35.7491],[9.0218,35.7864],[9.0218,35.8258],[9.023,35.8342],[9.0242,35.8379],[9.0256,35.8409],[9.0289,35.8457],[9.0325,35.8489],[9.068,35.8733],[9.0713,35.8772],[9.0739,35.8814],[9.0776,35.8896],[9.0803,35.8981],[9.0835,35.9131],[9.0874,35.9204],[9.1018,35.9383],[9.1257,35.9596],[9.1313,35.9671],[9.1367,35.9783],[9.1437,36.0004],[9.1491,36.0275],[9.1502,36.0452],[9.1471,36.0533],[9.1414,36.0635],[9.1257,36.0837],[9.117,36.0923],[9.1096,36.0981],[9.0483,36.1235],[9.0348,36.1311],[9.0309,36.1363],[9.0276,36.1434],[9.0258,36.1568],[9.0255,36.1641],[9.0276,36.1848],[9.0275,36.1992],[9.0262,36.2074],[9.0236,36.2137],[9.0194,36.2214],[8.9999,36.2475],[8.974,36.273],[8.9637,36.2869],[8.9617,36.2927],[8.9606,36.2997],[8.9614,36.3128],[8.9636,36.3197],[8.9665,36.3253],[8.9699,36.3292],[8.9747,36.3368],[8.9763,36.3406],[8.9777,36.3484],[8.9772,36.3559],[8.976,36.3603],[8.9637,36.381],[8.9173,36.4381],[8.9598,36.4513],[8.9789,36.4542],[8.9956,36.4529],[9.0117,36.4492],[9.0933,36.3863],[9.1175,36.3731],[9.1277,36.3746],[9.1856,36.3918],[9.1999,36.3935],[9.2134,36.3934],[9.2212,36.3921],[9.2275,36.3899],[9.2455,36.3797],[9.2975,36.3569],[9.3099,36.355],[9.3181,36.3561],[9.3579,36.4145],[9.3698,36.4278],[9.3734,36.4311],[9.3816,36.4364],[9.3906,36.44],[9.4205,36.4443],[9.478,36.4474],[9.4904,36.4467],[9.4999,36.444],[9.5134,36.4382],[9.5223,36.4333],[9.5445,36.4146],[9.5507,36.4107],[9.5596,36.4067],[9.5661,36.4053],[9.5715,36.405],[9.5799,36.4064],[9.5889,36.4094],[9.6322,36.4281],[9.6483,36.4335],[9.6704,36.4375],[9.7308,36.4429],[9.745,36.421],[9.7495,36.402],[9.7494,36.3953],[9.7484,36.3894],[9.7379,36.3636],[9.73,36.3519],[9.7164,36.3366],[9.6963,36.3173],[9.6768,36.3026],[9.6113,36.2696],[9.5867,36.2616],[9.5815,36.2588],[9.5737,36.2529],[9.5722,36.2482],[9.5734,36.2438],[9.5768,36.2398],[9.6135,36.2114],[9.6237,36.205],[9.6344,36.1999],[9.6795,36.1904],[9.7287,36.1755],[9.7384,36.1705],[9.7424,36.1677],[9.7467,36.161],[9.7506,36.151],[9.756,36.1292],[9.7573,36.1188],[9.7576,36.1112],[9.7549,36.1029],[9.7517,36.0951],[9.7464,36.0872],[9.7281,36.0667],[9.5099,35.9205],[9.4966,35.9078],[9.4891,35.899],[9.4891,35.8947],[9.4894,35.891],[9.4967,35.8674],[9.4981,35.8591],[9.4986,35.8502],[9.4975,35.8421],[9.4964,35.8381],[9.4818,35.8067],[9.4806,35.7987],[9.4815,35.7918],[9.4823,35.7886],[9.4835,35.7858],[9.4849,35.7832],[9.4908,35.7751],[9.4984,35.7673],[9.505,35.7618],[9.5082,35.7578],[9.5104,35.7527],[9.5099,35.7438],[9.5065,35.7399],[9.5031,35.7377],[9.4776,35.7333],[9.459,35.7266],[9.417,35.7048],[9.4061,35.7019],[9.3957,35.701],[9.385,35.7013],[9.3724,35.7028],[9.3028,35.722],[9.2961,35.7222],[9.2888,35.721],[9.278,35.7163],[9.2737,35.7119],[9.2722,35.7075],[9.2734,35.7034],[9.2753,35.6997],[9.2775,35.6961],[9.4119,35.5621],[9.4516,35.5],[9.4527,35.4966],[9.4542,35.4879]]]}},{"type":"Feature","properties":{"id":"TUN-119","name":"Sousse","nameBn":"সুস্যি গভর্নোরেট","type":"Governorate","bounds":[10.1595,35.4177,10.6913,36.3746],"center":[10.4255,35.9323]},"geometry":{"type":"Polygon","coordinates":[[[10.5294,36.3503],[10.5191,36.3375],[10.5048,36.2994],[10.4911,36.2581],[10.4793,36.217],[10.4769,36.1655],[10.4747,36.1125],[10.4795,36.0793],[10.4924,36.0453],[10.4998,36.0273],[10.5047,36.0209],[10.5091,36.0112],[10.5148,35.9891],[10.5186,35.98],[10.5405,35.9528],[10.5565,35.938],[10.5703,35.9316],[10.5823,35.9218],[10.6086,35.8559],[10.6221,35.8426],[10.6913,35.7896],[10.6889,35.787],[10.6494,35.7477],[10.6397,35.733],[10.6393,35.7285],[10.6396,35.7099],[10.6432,35.6788],[10.6428,35.6716],[10.6366,35.6388],[10.6325,35.6282],[10.6275,35.6209],[10.6194,35.6154],[10.6033,35.6073],[10.5676,35.5971],[10.5452,35.593],[10.5398,35.5915],[10.5339,35.589],[10.5254,35.5835],[10.5226,35.5794],[10.5224,35.5752],[10.5319,35.5642],[10.5345,35.5595],[10.5348,35.5526],[10.5324,35.5479],[10.5286,35.544],[10.5198,35.5389],[10.488,35.5274],[10.4836,35.5243],[10.4811,35.5193],[10.4798,35.5083],[10.4798,35.5019],[10.4802,35.5006],[10.4829,35.4963],[10.4858,35.4928],[10.4898,35.4897],[10.4942,35.4871],[10.499,35.4855],[10.5029,35.4847],[10.5235,35.4827],[10.5313,35.484],[10.5378,35.4872],[10.5432,35.4947],[10.5455,35.4985],[10.5489,35.5078],[10.5503,35.5101],[10.553,35.5135],[10.557,35.5159],[10.5623,35.5173],[10.5684,35.5166],[10.5921,35.5091],[10.6011,35.502],[10.5919,35.4723],[10.5898,35.4688],[10.5854,35.4632],[10.5609,35.4525],[10.5567,35.4475],[10.5536,35.4421],[10.5485,35.4307],[10.5438,35.4247],[10.5389,35.4201],[10.5333,35.4183],[10.5272,35.4177],[10.5212,35.4187],[10.4632,35.4398],[10.4585,35.4429],[10.4551,35.4469],[10.4536,35.4524],[10.452,35.4709],[10.4499,35.4761],[10.4471,35.4805],[10.4434,35.4843],[10.4386,35.4871],[10.4329,35.4893],[10.3977,35.4976],[10.3885,35.498],[10.3569,35.492],[10.3497,35.4933],[10.3443,35.4956],[10.3325,35.5073],[10.3089,35.5219],[10.3049,35.5254],[10.3013,35.5292],[10.2988,35.534],[10.2974,35.539],[10.2971,35.5443],[10.2984,35.5525],[10.3057,35.5762],[10.2934,35.6089],[10.2857,35.6216],[10.276,35.6328],[10.1624,35.8198],[10.1596,35.8269],[10.1595,35.831],[10.161,35.8347],[10.1663,35.8425],[10.2135,35.8909],[10.2242,35.9048],[10.2262,35.9082],[10.2329,35.9236],[10.2445,35.9603],[10.2537,36.0063],[10.2524,36.013],[10.2492,36.0205],[10.2403,36.0343],[10.2344,36.0411],[10.2292,36.0455],[10.1739,36.0692],[10.1736,36.084],[10.2065,36.1331],[10.2331,36.1423],[10.2425,36.1467],[10.2512,36.1519],[10.2548,36.1552],[10.2591,36.1613],[10.2631,36.1697],[10.2682,36.1862],[10.2696,36.1946],[10.2696,36.2013],[10.2648,36.2136],[10.2651,36.2176],[10.2676,36.2214],[10.2744,36.225],[10.2799,36.2267],[10.3518,36.2388],[10.3556,36.2423],[10.3573,36.2481],[10.3542,36.2587],[10.3496,36.265],[10.3448,36.2697],[10.3423,36.2734],[10.3429,36.2773],[10.3486,36.2824],[10.3623,36.291],[10.3662,36.3077],[10.3655,36.3651],[10.3983,36.3697],[10.4273,36.3738],[10.4475,36.3703],[10.4539,36.3663],[10.4643,36.3619],[10.4708,36.362],[10.4776,36.3645],[10.4849,36.3683],[10.4982,36.3733],[10.5056,36.3746],[10.5116,36.3744],[10.5148,36.3725],[10.5169,36.3708],[10.5187,36.3686],[10.5242,36.3593],[10.5294,36.3503]]]}},{"type":"Feature","properties":{"id":"TUN-98","name":"Tataouine","nameBn":"তাতাউইন গভর্নোরেট","type":"Governorate","bounds":[8.3326,30.2289,11.4376,33.2608],"center":[9.8851,32.154]},"geometry":{"type":"Polygon","coordinates":[[[11.1823,32.2622],[10.8732,32.1367],[10.8459,32.1118],[10.8056,32.0324],[10.7729,32.0045],[10.7366,31.9854],[10.7031,31.9622],[10.6836,31.957],[10.6653,31.9632],[10.6473,31.972],[10.6285,31.9741],[10.6059,31.9536],[10.5976,31.8735],[10.5846,31.8403],[10.5424,31.8066],[10.5255,31.7721],[10.5135,31.757],[10.4989,31.7443],[10.4825,31.7331],[10.4278,31.7146],[10.3154,31.7158],[10.264,31.6805],[10.1965,31.5786],[10.1326,31.5176],[10.1169,31.4944],[10.1062,31.4292],[10.1081,31.4118],[10.1827,31.2408],[10.2132,31.1354],[10.2448,31.0782],[10.2462,31.0596],[10.2406,31.0212],[10.245,30.9857],[10.2702,30.9156],[10.2697,30.8821],[10.2539,30.8418],[10.1922,30.7313],[10.1012,30.6417],[9.9956,30.4945],[9.8713,30.3552],[9.8458,30.3423],[9.7729,30.3381],[9.7435,30.3313],[9.5197,30.2289],[9.4914,30.339],[9.4631,30.449],[9.4348,30.5591],[9.4063,30.6691],[9.3779,30.7792],[9.3496,30.8892],[9.3213,30.9992],[9.293,31.1093],[9.2644,31.2193],[9.2362,31.3294],[9.2078,31.4394],[9.1795,31.5495],[9.1512,31.6596],[9.1227,31.7695],[9.0945,31.8796],[9.066,31.9897],[9.0633,32.0002],[9.045,32.0718],[9.0337,32.0908],[9.0199,32.1049],[8.8515,32.2082],[8.6423,32.3367],[8.4827,32.4348],[8.36,32.501],[8.3326,32.5264],[8.3511,32.5312],[9.5242,32.7354],[9.5493,32.7451],[9.5599,32.7504],[9.6007,32.7797],[9.6214,32.7905],[9.6457,32.7975],[9.6721,32.8025],[9.7043,32.8048],[9.7166,32.804],[9.732,32.8012],[9.7503,32.7956],[9.7585,32.7914],[9.7673,32.7855],[9.7715,32.7821],[9.8032,32.7486],[9.9112,32.6753],[9.936,32.663],[9.947,32.6594],[9.9522,32.6584],[9.9567,32.6582],[9.9613,32.6585],[9.9652,32.6605],[9.9678,32.6643],[9.9649,32.6712],[9.9624,32.676],[9.9224,32.7359],[9.9208,32.7396],[9.92,32.7482],[9.9218,32.7889],[9.9247,32.8097],[9.9269,32.8136],[9.9297,32.8174],[9.9545,32.8427],[9.9661,32.8586],[9.968,32.8624],[9.9685,32.8672],[9.9671,32.8726],[9.9618,32.8812],[9.9544,32.8915],[9.9519,32.8988],[9.9475,32.931],[9.9466,32.9491],[9.9473,32.9531],[9.9488,32.9567],[9.9509,32.9602],[9.9539,32.9632],[9.9579,32.9656],[9.962,32.9673],[9.9745,32.9701],[9.9835,32.9731],[9.9875,32.9752],[9.9878,32.9806],[9.9837,32.9881],[9.9595,33.0098],[9.919,33.036],[9.9137,33.04],[9.9093,33.0446],[9.9056,33.0503],[9.9047,33.0562],[9.9045,33.0604],[9.9095,33.0748],[9.9959,33.0765],[10.0177,33.0792],[10.0425,33.0849],[10.0765,33.097],[10.0807,33.0995],[10.0841,33.1026],[10.1048,33.1277],[10.1101,33.1322],[10.1168,33.1369],[10.1292,33.1442],[10.1364,33.1472],[10.1426,33.1487],[10.1609,33.1477],[10.2121,33.1393],[10.2243,33.1393],[10.231,33.1411],[10.2358,33.1441],[10.2425,33.1517],[10.2517,33.1568],[10.3201,33.1815],[10.3333,33.1888],[10.5086,33.2541],[10.517,33.2563],[10.5257,33.2569],[10.5607,33.2529],[10.6382,33.2608],[10.648,33.2597],[10.6506,33.2564],[10.6512,33.253],[10.6506,33.2496],[10.6486,33.2461],[10.6408,33.2358],[10.6396,33.2322],[10.6394,33.2285],[10.6382,33.225],[10.6354,33.2219],[10.6154,33.216],[10.6124,33.2131],[10.611,33.2098],[10.6113,33.2061],[10.6132,33.2026],[10.6161,33.1991],[10.6202,33.1954],[10.6298,33.189],[10.6393,33.1846],[10.657,33.1799],[10.703,33.1753],[10.7249,33.1709],[11.0016,33.0616],[11.0072,33.0583],[11.0117,33.0549],[11.0144,33.0518],[11.0165,33.0488],[11.0176,33.0466],[11.0308,32.9997],[11.0337,32.9943],[11.0398,32.9863],[11.0474,32.9789],[11.0897,32.9462],[11.1026,32.9388],[11.1147,32.9334],[11.1214,32.9296],[11.1267,32.9257],[11.1293,32.9222],[11.1315,32.9186],[11.1338,32.9117],[11.1344,32.9084],[11.1344,32.9015],[11.1312,32.8844],[11.1258,32.8681],[11.1128,32.839],[11.1111,32.8318],[11.1101,32.8233],[11.1139,32.7373],[11.1128,32.7249],[11.1032,32.6937],[11.1026,32.6898],[11.1026,32.6859],[11.104,32.6819],[11.1073,32.6781],[11.3704,32.4942],[11.3797,32.4897],[11.3869,32.4871],[11.3943,32.4866],[11.4227,32.4911],[11.4313,32.4907],[11.4358,32.4883],[11.4376,32.4841],[11.4364,32.4801],[11.4339,32.4759],[11.4272,32.4684],[11.4186,32.4609],[11.3825,32.4386],[11.367,32.432],[11.3195,32.417],[11.2999,32.407],[11.2817,32.3957],[11.2642,32.3823],[11.2474,32.3657],[11.1828,32.2629],[11.1823,32.2622]]]}},{"type":"Feature","properties":{"id":"TUN-101","name":"Tozeur","nameBn":"তোজেউর গভর্নোরেট","type":"Governorate","bounds":[7.4798,33.4107,8.6692,34.5364],"center":[8.0743,33.9476]},"geometry":{"type":"Polygon","coordinates":[[[7.7083,33.4107],[7.7082,33.4149],[7.6932,33.4541],[7.6166,33.566],[7.553,33.6587],[7.5444,33.6842],[7.5342,33.7362],[7.5055,33.7828],[7.4985,33.8],[7.4849,33.855],[7.4798,33.8939],[7.5006,33.9943],[7.5037,34.068],[7.5175,34.095],[7.5392,34.1138],[7.5796,34.1485],[7.6041,34.1755],[7.6315,34.1991],[7.6703,34.2153],[7.7339,34.2238],[7.7528,34.2321],[7.7653,34.2447],[7.7743,34.261],[7.8119,34.3793],[7.8315,34.4144],[7.8706,34.4379],[7.9573,34.4694],[7.9991,34.4942],[8.0941,34.5301],[8.1025,34.5364],[8.1067,34.5329],[8.1145,34.5142],[8.1149,34.5046],[8.0987,34.4526],[8.0985,34.4449],[8.1007,34.439],[8.1357,34.4105],[8.1397,34.4062],[8.1445,34.3986],[8.1439,34.3941],[8.141,34.3909],[8.1362,34.389],[8.0882,34.3839],[8.0836,34.3829],[8.0791,34.3813],[8.0744,34.3781],[8.039,34.3418],[8.0336,34.3348],[8.0276,34.3243],[8.028,34.3188],[8.031,34.3145],[8.1042,34.2742],[8.1228,34.2599],[8.1314,34.2521],[8.1463,34.2342],[8.1584,34.2164],[8.1665,34.2065],[8.171,34.203],[8.1756,34.2005],[8.1801,34.1992],[8.2172,34.1963],[8.2924,34.1747],[8.2985,34.1719],[8.3154,34.161],[8.3286,34.1497],[8.3328,34.1445],[8.3353,34.1397],[8.3393,34.1256],[8.3483,34.1022],[8.3531,34.0957],[8.3578,34.0921],[8.577,34.103],[8.6149,34.1003],[8.6692,34.0909],[8.5887,33.9706],[8.534,33.9141],[7.9182,33.4994],[7.725,33.4195],[7.7083,33.4107]]]}},{"type":"Feature","properties":{"id":"TUN-108","name":"Tunis","nameBn":"তিউনিস","type":"Governorate","bounds":[9.9973,36.6854,10.3472,36.8918],"center":[10.1724,36.7791]},"geometry":{"type":"Polygon","coordinates":[[[10.337,36.8918],[10.3472,36.8803],[10.342,36.8686],[10.319,36.8502],[10.3093,36.8298],[10.2988,36.8218],[10.2852,36.82],[10.2721,36.8291],[10.2796,36.8443],[10.2702,36.8485],[10.2529,36.8463],[10.2205,36.8378],[10.2107,36.8319],[10.1936,36.8123],[10.1885,36.7976],[10.2029,36.7926],[10.2342,36.7919],[10.2472,36.7863],[10.2539,36.7914],[10.2561,36.7867],[10.2439,36.7512],[10.238,36.7416],[10.2245,36.7333],[10.2111,36.7222],[10.2028,36.718],[10.1959,36.716],[10.1891,36.7156],[10.1775,36.7137],[10.1685,36.714],[10.1525,36.7165],[10.1447,36.7153],[10.1388,36.7113],[10.124,36.6955],[10.1178,36.6911],[10.1123,36.6884],[10.0901,36.6854],[10.0763,36.6856],[10.0662,36.6869],[10.0547,36.6895],[10.0578,36.7002],[10.058,36.704],[10.0573,36.7087],[10.0553,36.7126],[10.0522,36.7162],[10.0439,36.7229],[10.0259,36.7333],[10.0223,36.7365],[10.0197,36.74],[10.0183,36.7437],[10.0178,36.7475],[10.0167,36.7519],[10.0153,36.7542],[10.0119,36.7566],[10.0042,36.7607],[10.0009,36.7629],[9.9987,36.7651],[9.9973,36.7683],[9.9979,36.772],[10.0071,36.7772],[10.0257,36.7852],[10.0681,36.7985],[10.1921,36.8531],[10.3328,36.8895],[10.337,36.8918]]]}},{"type":"Feature","properties":{"id":"TUN-120","name":"Zaghouan","nameBn":"জাঘুয়ান গভর্নোরেট","type":"Governorate","bounds":[9.5722,36.0091,10.3662,36.6514],"center":[9.9692,36.3427]},"geometry":{"type":"Polygon","coordinates":[[[10.3412,36.4706],[10.3393,36.3999],[10.342,36.3796],[10.3445,36.3757],[10.3477,36.372],[10.3516,36.3689],[10.3561,36.3668],[10.3593,36.3658],[10.3655,36.3651],[10.3662,36.3077],[10.3623,36.291],[10.3486,36.2824],[10.3429,36.2773],[10.3423,36.2734],[10.3448,36.2697],[10.3496,36.265],[10.3542,36.2587],[10.3573,36.2481],[10.3556,36.2423],[10.3518,36.2388],[10.2799,36.2267],[10.2744,36.225],[10.2676,36.2214],[10.2651,36.2176],[10.2648,36.2136],[10.2696,36.2013],[10.2696,36.1946],[10.2682,36.1862],[10.2631,36.1697],[10.2591,36.1613],[10.2548,36.1552],[10.2512,36.1519],[10.2425,36.1467],[10.2331,36.1423],[10.2065,36.1331],[10.1471,36.1169],[10.1305,36.1077],[10.1218,36.0945],[10.1155,36.0879],[10.1013,36.0764],[10.0935,36.0736],[10.0873,36.0742],[10.0803,36.0816],[10.0765,36.0849],[10.0734,36.0834],[10.071,36.0803],[10.0683,36.0709],[10.0617,36.0356],[10.0597,36.0298],[10.0563,36.023],[10.0485,36.0127],[10.0425,36.0095],[10.0363,36.0091],[10.0315,36.0112],[10.0045,36.0333],[9.9976,36.0379],[9.9886,36.0421],[9.9835,36.0439],[9.9439,36.0497],[9.9346,36.053],[9.9031,36.0685],[9.8677,36.0679],[9.779,36.0576],[9.7587,36.0588],[9.7494,36.0604],[9.7281,36.0667],[9.7464,36.0872],[9.7517,36.0951],[9.7549,36.1029],[9.7576,36.1112],[9.7573,36.1188],[9.756,36.1292],[9.7506,36.151],[9.7467,36.161],[9.7424,36.1677],[9.7384,36.1705],[9.7287,36.1755],[9.6795,36.1904],[9.6344,36.1999],[9.6237,36.205],[9.6135,36.2114],[9.5768,36.2398],[9.5734,36.2438],[9.5722,36.2482],[9.5737,36.2529],[9.5815,36.2588],[9.5867,36.2616],[9.6113,36.2696],[9.6768,36.3026],[9.6963,36.3173],[9.7164,36.3366],[9.73,36.3519],[9.7379,36.3636],[9.7484,36.3894],[9.7494,36.3953],[9.7495,36.402],[9.745,36.421],[9.7308,36.4429],[9.743,36.4671],[9.7725,36.5013],[9.7746,36.5069],[9.7787,36.5146],[9.797,36.5306],[9.8561,36.5704],[9.8865,36.5781],[9.8963,36.5856],[9.9128,36.6171],[9.9292,36.6409],[9.9351,36.6462],[9.9404,36.6495],[9.9489,36.6514],[9.953,36.6514],[9.9572,36.6507],[9.961,36.649],[9.9647,36.6455],[9.9672,36.6427],[9.9714,36.6354],[9.9916,36.6054],[9.9978,36.5993],[10.0084,36.591],[10.0146,36.5884],[10.0201,36.5874],[10.0287,36.5888],[10.0391,36.5926],[10.0508,36.5909],[10.0683,36.5861],[10.1084,36.571],[10.1359,36.5546],[10.1384,36.5504],[10.2293,36.4831],[10.2379,36.4735],[10.2371,36.4695],[10.2358,36.4659],[10.2368,36.4608],[10.2393,36.4548],[10.2472,36.4452],[10.2526,36.4433],[10.2582,36.4437],[10.2624,36.4465],[10.2995,36.4639],[10.3089,36.4669],[10.3181,36.4686],[10.3412,36.4706]]]}}]}