{"type":"FeatureCollection","features":[{"type":"Feature","properties":{"id":"TWN-1169","name":"Changhua","nameBn":"চ্যাংহুয়া কাউন্টি","type":"County","bounds":[120.2439,23.7725,120.6841,24.2071],"center":[120.464,24.0016]},"geometry":{"type":"Polygon","coordinates":[[[120.2439,23.8385],[120.2468,23.8434],[120.2529,23.8681],[120.2575,23.8784],[120.2844,23.902],[120.2922,23.9119],[120.3025,23.9389],[120.3181,23.9658],[120.3401,24.0218],[120.3504,24.0381],[120.3618,24.0485],[120.3713,24.0543],[120.3796,24.058],[120.3855,24.0631],[120.3879,24.0733],[120.3923,24.0829],[120.4119,24.0969],[120.4164,24.1075],[120.4186,24.1425],[120.422,24.1522],[120.4323,24.1611],[120.4754,24.2071],[120.4976,24.2005],[120.5128,24.1884],[120.5229,24.1663],[120.5268,24.14],[120.5439,24.1211],[120.5891,24.109],[120.6055,24.0966],[120.6177,24.0792],[120.6253,24.0654],[120.6255,24.0517],[120.6302,24.04],[120.6464,24.0373],[120.6672,24.0249],[120.6672,24.0201],[120.6673,24.0076],[120.6511,24.0023],[120.6464,23.9921],[120.6486,23.9781],[120.6409,23.9624],[120.6347,23.9435],[120.6343,23.9238],[120.6299,23.9008],[120.6266,23.8542],[120.6343,23.8323],[120.6482,23.8207],[120.6629,23.8158],[120.6841,23.806],[120.6806,23.7937],[120.6659,23.7883],[120.6563,23.7805],[120.6474,23.7749],[120.6435,23.7725],[120.5979,23.7807],[120.5758,23.7805],[120.5296,23.8014],[120.4546,23.8091],[120.4105,23.8246],[120.3851,23.8309],[120.3565,23.8323],[120.2728,23.8232],[120.2439,23.8385]]]}},{"type":"Feature","properties":{"id":"TWN-1170","name":"Chiayi","nameBn":"চিয়ায়ি কাউন্টি","type":"County","bounds":[120.0077,23.2252,120.9622,23.6401],"center":[120.26,23.4465]},"geometry":{"type":"MultiPolygon","coordinates":[[[[120.1165,23.3179],[120.1312,23.3188],[120.1436,23.3239],[120.1489,23.3223],[120.1458,23.3333],[120.1373,23.3277],[120.1303,23.3293],[120.1209,23.3297],[120.1208,23.3413],[120.1301,23.361],[120.1442,23.3619],[120.1646,23.3617],[120.1506,23.3981],[120.1348,23.4263],[120.1421,23.439],[120.1421,23.4458],[120.1305,23.451],[120.1321,23.457],[120.1387,23.4643],[120.1421,23.4731],[120.1575,23.4915],[120.125,23.4896],[120.1243,23.52],[120.1278,23.5202],[120.1284,23.5206],[120.1685,23.5247],[120.2001,23.5084],[120.2231,23.5082],[120.2382,23.5191],[120.2446,23.5363],[120.2524,23.5466],[120.2727,23.5495],[120.2991,23.5694],[120.3161,23.5776],[120.3306,23.5909],[120.3926,23.6237],[120.4199,23.6305],[120.4678,23.6388],[120.4941,23.6401],[120.5141,23.6239],[120.5331,23.6035],[120.5811,23.5873],[120.5952,23.5892],[120.6268,23.5975],[120.6448,23.5859],[120.6539,23.5721],[120.6778,23.5743],[120.7225,23.5826],[120.7374,23.5871],[120.7374,23.5991],[120.7388,23.6165],[120.7407,23.6163],[120.7638,23.614],[120.7895,23.6049],[120.8052,23.6008],[120.8248,23.5911],[120.8234,23.5727],[120.812,23.5547],[120.8167,23.5379],[120.8269,23.5152],[120.8283,23.4949],[120.8324,23.4815],[120.8614,23.4768],[120.9587,23.4761],[120.9622,23.4754],[120.8918,23.4424],[120.8597,23.4189],[120.8461,23.3951],[120.83,23.3775],[120.8008,23.3624],[120.7704,23.3412],[120.7535,23.3226],[120.7068,23.2969],[120.6844,23.2949],[120.6584,23.2973],[120.6448,23.2849],[120.6441,23.2678],[120.6497,23.2519],[120.6534,23.2287],[120.6216,23.232],[120.6076,23.2359],[120.5885,23.2337],[120.5681,23.2252],[120.5538,23.2254],[120.5367,23.2376],[120.5307,23.2535],[120.5373,23.3031],[120.5336,23.3294],[120.4959,23.3647],[120.4893,23.3825],[120.4815,23.3972],[120.4662,23.4057],[120.4389,23.4139],[120.4066,23.4123],[120.3488,23.4023],[120.3192,23.3901],[120.2958,23.3742],[120.2781,23.3575],[120.2528,23.3395],[120.2309,23.3271],[120.2214,23.3097],[120.1977,23.3],[120.1702,23.3064],[120.1365,23.311],[120.1165,23.3179]],[[120.4546,23.4453],[120.4804,23.4548],[120.4976,23.4569],[120.509,23.4646],[120.4992,23.4883],[120.4899,23.5022],[120.4744,23.5098],[120.4531,23.5173],[120.4232,23.5148],[120.3878,23.5092],[120.3736,23.4949],[120.3769,23.4753],[120.4,23.4668],[120.4267,23.4511],[120.4546,23.4453]]],[[[120.0219,23.4516],[120.0749,23.5008],[120.1153,23.5479],[120.1248,23.5505],[120.0903,23.4994],[120.0734,23.4838],[120.0623,23.4713],[120.0479,23.4581],[120.0366,23.4508],[120.0195,23.4384],[120.0077,23.4326],[120.0219,23.4516]]]]}},{"type":"Feature","properties":{"id":"TWN-1171","name":"Chiayi City","nameBn":"সিয়াই শহর","type":"Provincial City","bounds":[120.3736,23.4453,120.509,23.5173],"center":[120.441,23.4822]},"geometry":{"type":"Polygon","coordinates":[[[120.4531,23.5173],[120.4744,23.5098],[120.4899,23.5022],[120.4992,23.4883],[120.509,23.4646],[120.4976,23.4569],[120.4804,23.4548],[120.4546,23.4453],[120.4267,23.4511],[120.4,23.4668],[120.3769,23.4753],[120.3736,23.4949],[120.3878,23.5092],[120.4232,23.5148],[120.4531,23.5173]]]}},{"type":"Feature","properties":{"id":"TWN-1162","name":"Hsinchu","nameBn":"হেসিনচু কাউন্টি","type":"County","bounds":[120.9146,24.4333,121.4123,24.9518],"center":[121.163,24.6748]},"geometry":{"type":"Polygon","coordinates":[[[120.9146,24.8534],[120.9149,24.8537],[120.9206,24.8614],[120.9229,24.8747],[120.926,24.8847],[120.9339,24.8946],[120.944,24.902],[120.9536,24.905],[120.9528,24.9092],[120.9553,24.9194],[120.9639,24.9404],[120.9717,24.9518],[120.9838,24.9479],[121.0356,24.9513],[121.0532,24.9405],[121.0684,24.9106],[121.0874,24.9039],[121.1039,24.8996],[121.1194,24.8928],[121.1455,24.8851],[121.1591,24.8708],[121.1548,24.8505],[121.1679,24.8377],[121.1928,24.8305],[121.2087,24.8201],[121.2206,24.8093],[121.2352,24.8068],[121.2498,24.8079],[121.2627,24.7958],[121.2726,24.7801],[121.2892,24.7727],[121.3022,24.7636],[121.3035,24.7462],[121.3095,24.7211],[121.3024,24.6944],[121.2848,24.6719],[121.287,24.6569],[121.3064,24.6433],[121.33,24.6304],[121.3511,24.6272],[121.3664,24.6172],[121.3941,24.6029],[121.4123,24.5954],[121.4034,24.573],[121.3983,24.5566],[121.4005,24.5414],[121.3862,24.5213],[121.333,24.4723],[121.3165,24.436],[121.3057,24.4386],[121.2655,24.4352],[121.2626,24.4333],[121.2601,24.4502],[121.2429,24.4772],[121.2303,24.4884],[121.2252,24.5037],[121.2062,24.5175],[121.1584,24.5064],[121.1403,24.5081],[121.1144,24.5066],[121.0852,24.4993],[121.0696,24.5027],[121.0731,24.5202],[121.0778,24.5363],[121.0742,24.55],[121.0705,24.56],[121.0742,24.5709],[121.0772,24.5828],[121.0785,24.5963],[121.0755,24.6145],[121.061,24.626],[121.0147,24.6459],[120.9918,24.6613],[120.9771,24.6768],[120.9602,24.715],[120.9697,24.7255],[120.9783,24.7451],[120.9914,24.76],[121.0136,24.7683],[121.0333,24.7713],[121.0422,24.776],[121.0459,24.7887],[121.0389,24.8013],[121.0242,24.8146],[121.0036,24.8245],[120.9462,24.841],[120.9146,24.8534]]]}},{"type":"Feature","properties":{"id":"TWN-1161","name":"Hsinchu City","nameBn":"সিনসো","type":"Provincial City","bounds":[120.8727,24.7104,121.0459,24.8534],"center":[120.959,24.7757]},"geometry":{"type":"Polygon","coordinates":[[[120.8727,24.7478],[120.877,24.7619],[120.8981,24.8012],[120.9064,24.8115],[120.9092,24.8169],[120.909,24.8227],[120.9065,24.8291],[120.9024,24.8368],[120.9081,24.8471],[120.9146,24.8534],[120.9462,24.841],[121.0036,24.8245],[121.0242,24.8146],[121.0389,24.8013],[121.0459,24.7887],[121.0422,24.776],[121.0333,24.7713],[121.0136,24.7683],[120.9914,24.76],[120.9783,24.7451],[120.9697,24.7255],[120.9602,24.715],[120.9595,24.7142],[120.942,24.7104],[120.9254,24.7164],[120.915,24.7295],[120.8989,24.7385],[120.8727,24.7478]]]}},{"type":"Feature","properties":{"id":"TWN-1172","name":"Hualien","nameBn":"হুয়ালিয়েন কাউন্টি","type":"County","bounds":[120.9887,23.1063,121.7727,24.3727],"center":[121.381,23.7743]},"geometry":{"type":"Polygon","coordinates":[[[121.7633,24.3258],[121.7659,24.3232],[121.7693,24.3181],[121.772,24.3129],[121.7727,24.3092],[121.7674,24.3009],[121.7453,24.2812],[121.7214,24.2512],[121.7039,24.2383],[121.6983,24.2315],[121.7009,24.2242],[121.6978,24.219],[121.6724,24.2015],[121.6629,24.1931],[121.6522,24.1722],[121.6413,24.1299],[121.613,24.0921],[121.6074,24.0769],[121.6082,24.0605],[121.615,24.0423],[121.6208,24.0346],[121.6257,24.031],[121.6289,24.0262],[121.6292,24.015],[121.625,24.0024],[121.6111,23.9825],[121.6082,23.9704],[121.6067,23.9481],[121.5945,23.8915],[121.5703,23.8321],[121.5398,23.6928],[121.5215,23.6587],[121.4795,23.4352],[121.4662,23.4387],[121.4253,23.4205],[121.4106,23.4015],[121.417,23.3775],[121.4193,23.3536],[121.4054,23.3296],[121.3926,23.3114],[121.3823,23.2882],[121.3732,23.2589],[121.3591,23.232],[121.3409,23.1857],[121.329,23.1646],[121.3294,23.1411],[121.3259,23.1194],[121.3013,23.1063],[121.27,23.1105],[121.2254,23.1442],[121.1905,23.2002],[121.169,23.2056],[121.145,23.2087],[121.126,23.2254],[121.1026,23.2353],[121.0731,23.2452],[121.0538,23.2736],[121.0496,23.2994],[121.0482,23.3081],[121.0377,23.3348],[121.0135,23.3527],[120.9924,23.3653],[120.9887,23.3792],[120.9939,23.3904],[121.0152,23.399],[121.0265,23.4164],[121.0193,23.4367],[121.0423,23.4486],[121.0539,23.4586],[121.0475,23.4802],[121.0533,23.4894],[121.0589,23.5036],[121.0786,23.517],[121.1067,23.5228],[121.1349,23.5236],[121.155,23.5401],[121.1602,23.5699],[121.1752,23.5878],[121.2043,23.5975],[121.2213,23.6085],[121.2275,23.6261],[121.2396,23.6702],[121.2443,23.6993],[121.2407,23.7243],[121.2361,23.7433],[121.2242,23.7573],[121.216,23.7713],[121.2376,23.8039],[121.2385,23.8169],[121.2481,23.8414],[121.2627,23.8709],[121.2744,23.9013],[121.2803,23.9359],[121.2827,23.9622],[121.2759,23.9778],[121.268,23.9894],[121.2771,24.0158],[121.2963,24.0529],[121.3268,24.0892],[121.3278,24.1024],[121.3221,24.1182],[121.3024,24.1299],[121.2915,24.1405],[121.2906,24.1751],[121.3046,24.1851],[121.3299,24.1928],[121.3496,24.2012],[121.3487,24.2137],[121.3435,24.2355],[121.3542,24.2424],[121.3588,24.2494],[121.3718,24.2556],[121.3834,24.2686],[121.3883,24.2865],[121.3998,24.3036],[121.4285,24.3201],[121.4374,24.3415],[121.4391,24.3559],[121.4567,24.3727],[121.4662,24.3657],[121.4909,24.3548],[121.5482,24.3416],[121.5796,24.3307],[121.6044,24.3306],[121.6232,24.3463],[121.632,24.367],[121.6465,24.37],[121.7169,24.3317],[121.7592,24.3259],[121.7633,24.3258]]]}},{"type":"Feature","properties":{"id":"TWN-1156","name":"Kaohsiung City","nameBn":"কোসিয়োং শহর","type":"Special Municipality","bounds":[120.1675,22.4829,121.0496,23.4754],"center":[120.609,23.0157]},"geometry":{"type":"Polygon","coordinates":[[[120.4119,22.4829],[120.4021,22.4868],[120.396,22.4865],[120.389,22.4841],[120.3809,22.4839],[120.3312,22.5197],[120.2852,22.5801],[120.3337,22.5259],[120.328,22.5517],[120.3199,22.5658],[120.3135,22.5771],[120.2933,22.5983],[120.259,22.6276],[120.2458,22.6425],[120.2396,22.6591],[120.2478,22.6752],[120.2521,22.6896],[120.2463,22.7099],[120.2362,22.7299],[120.2175,22.7567],[120.2,22.7925],[120.1961,22.8083],[120.1965,22.8186],[120.2022,22.8312],[120.2035,22.8397],[120.2013,22.8441],[120.1965,22.8475],[120.1914,22.852],[120.1892,22.8602],[120.1785,22.8773],[120.1755,22.8841],[120.1675,22.9319],[120.1909,22.9448],[120.1915,22.9433],[120.2065,22.9129],[120.2247,22.9044],[120.2843,22.8965],[120.3157,22.8996],[120.3477,22.8961],[120.3636,22.9013],[120.3771,22.9104],[120.4017,22.9195],[120.4257,22.935],[120.4347,22.9542],[120.4461,22.9726],[120.4662,22.9972],[120.4895,23.0197],[120.5141,23.0385],[120.5424,23.064],[120.567,23.0931],[120.6051,23.1526],[120.6448,23.2056],[120.6534,23.2287],[120.6497,23.2519],[120.6441,23.2678],[120.6448,23.2849],[120.6584,23.2973],[120.6844,23.2949],[120.7068,23.2969],[120.7535,23.3226],[120.7704,23.3412],[120.8008,23.3624],[120.83,23.3775],[120.8461,23.3951],[120.8597,23.4189],[120.8918,23.4424],[120.9622,23.4754],[120.9788,23.4718],[121.0009,23.4639],[121.0168,23.4437],[121.0193,23.4367],[121.0265,23.4164],[121.0152,23.399],[120.9939,23.3904],[120.9887,23.3792],[120.9924,23.3653],[121.0135,23.3527],[121.0377,23.3348],[121.0482,23.3081],[121.0496,23.2994],[120.9902,23.286],[120.9656,23.2717],[120.9505,23.2581],[120.9209,23.2405],[120.9176,23.2204],[120.9261,23.1996],[120.916,23.1824],[120.8878,23.1684],[120.8845,23.1444],[120.8928,23.1096],[120.8812,23.0636],[120.881,23.0243],[120.8647,23.0038],[120.8322,22.9784],[120.8234,22.9443],[120.8285,22.9158],[120.8399,22.8996],[120.8632,22.8773],[120.868,22.8599],[120.8533,22.8583],[120.8531,22.8583],[120.8333,22.8616],[120.8169,22.8608],[120.7845,22.8372],[120.7622,22.8566],[120.7334,22.8876],[120.7059,22.8814],[120.6807,22.8608],[120.6309,22.8839],[120.5952,22.8682],[120.571,22.8434],[120.5406,22.8335],[120.4728,22.8372],[120.4662,22.8203],[120.4612,22.795],[120.4513,22.7673],[120.4534,22.7427],[120.4529,22.7095],[120.4314,22.6351],[120.4308,22.61],[120.4414,22.5838],[120.4428,22.5549],[120.4119,22.4829]]]}},{"type":"Feature","properties":{"id":"TWN-1164","name":"Keelung City","nameBn":"কেলুং","type":"Provincial City","bounds":[121.6331,25.0576,121.7748,25.1695],"center":[121.704,25.1131]},"geometry":{"type":"Polygon","coordinates":[[[121.6893,25.1695],[121.6946,25.1661],[121.6975,25.1626],[121.7039,25.1569],[121.7185,25.152],[121.7613,25.1426],[121.7601,25.1015],[121.7608,25.091],[121.7748,25.0777],[121.7734,25.0692],[121.7638,25.0628],[121.7486,25.0576],[121.729,25.0599],[121.6888,25.0751],[121.6775,25.0824],[121.6635,25.0944],[121.6527,25.1064],[121.6461,25.1185],[121.6353,25.1312],[121.6331,25.1412],[121.6452,25.1486],[121.6725,25.1593],[121.6893,25.1695]]]}},{"type":"Feature","properties":{"id":"TWN-3415","name":"Kinmen","nameBn":"কোয়েময়","type":"County","bounds":[118.2796,24.3905,118.4674,24.528],"center":[118.368,24.454]},"geometry":{"type":"Polygon","coordinates":[[[118.3942,24.5227],[118.4226,24.528],[118.4496,24.5055],[118.4674,24.4618],[118.4634,24.4315],[118.4488,24.4155],[118.4229,24.4303],[118.4036,24.436],[118.3729,24.4332],[118.3458,24.4176],[118.331,24.3965],[118.3182,24.3905],[118.3032,24.397],[118.293,24.3976],[118.2839,24.4013],[118.2796,24.4084],[118.2811,24.411],[118.2894,24.4206],[118.292,24.425],[118.2927,24.4321],[118.2923,24.4406],[118.2896,24.4556],[118.283,24.47],[118.2821,24.4774],[118.2879,24.4805],[118.3167,24.4933],[118.3548,24.4706],[118.3814,24.4735],[118.3854,24.5038],[118.3942,24.5227]]]}},{"type":"Feature","properties":{"id":"TWN-1165","name":"Miaoli","nameBn":"মিয়াওলি কাউন্টি","type":"County","bounds":[120.6213,24.292,121.2626,24.7478],"center":[120.942,24.5253]},"geometry":{"type":"Polygon","coordinates":[[[120.6213,24.456],[120.6489,24.4839],[120.656,24.4979],[120.6594,24.5207],[120.6677,24.54],[120.6902,24.5761],[120.6963,24.5977],[120.7022,24.607],[120.7279,24.6139],[120.7351,24.6212],[120.7394,24.6304],[120.7446,24.6388],[120.7606,24.654],[120.7781,24.6657],[120.7993,24.6708],[120.8267,24.6661],[120.823,24.685],[120.8333,24.6978],[120.8475,24.7108],[120.8545,24.7307],[120.8577,24.737],[120.8713,24.7432],[120.8727,24.7478],[120.8989,24.7385],[120.915,24.7295],[120.9254,24.7164],[120.942,24.7104],[120.9595,24.7142],[120.9602,24.715],[120.9771,24.6768],[120.9918,24.6613],[121.0147,24.6459],[121.061,24.626],[121.0755,24.6145],[121.0785,24.5963],[121.0772,24.5828],[121.0742,24.5709],[121.0705,24.56],[121.0742,24.55],[121.0778,24.5363],[121.0731,24.5202],[121.0696,24.5027],[121.0852,24.4993],[121.1144,24.5066],[121.1403,24.5081],[121.1584,24.5064],[121.2062,24.5175],[121.2252,24.5037],[121.2303,24.4884],[121.2429,24.4772],[121.2601,24.4502],[121.2626,24.4333],[121.2484,24.4243],[121.2415,24.4049],[121.223,24.3978],[121.2028,24.3983],[121.1866,24.3879],[121.1693,24.3726],[121.147,24.3615],[121.1029,24.3295],[121.0767,24.3197],[121.0431,24.3033],[121.0224,24.3107],[121.0035,24.3299],[120.9805,24.3383],[120.943,24.3409],[120.9221,24.3295],[120.9187,24.304],[120.8989,24.2942],[120.8526,24.292],[120.8085,24.3152],[120.7837,24.3193],[120.7556,24.3317],[120.6983,24.3703],[120.6744,24.3893],[120.6564,24.4066],[120.6213,24.456]]]}},{"type":"Feature","properties":{"id":"TWN-1173","name":"Nantou","nameBn":"নান্তু কাউন্টি","type":"County","bounds":[120.6266,23.4367,121.3496,24.2435],"center":[120.988,23.7977]},"geometry":{"type":"Polygon","coordinates":[[[121.2748,24.2435],[121.2927,24.2398],[121.3435,24.2355],[121.3487,24.2137],[121.3496,24.2012],[121.3299,24.1928],[121.3046,24.1851],[121.2906,24.1751],[121.2915,24.1405],[121.3024,24.1299],[121.3221,24.1182],[121.3278,24.1024],[121.3268,24.0892],[121.2963,24.0529],[121.2771,24.0158],[121.268,23.9894],[121.2759,23.9778],[121.2827,23.9622],[121.2803,23.9359],[121.2744,23.9013],[121.2627,23.8709],[121.2481,23.8414],[121.2385,23.8169],[121.2376,23.8039],[121.216,23.7713],[121.2242,23.7573],[121.2361,23.7433],[121.2407,23.7243],[121.2443,23.6993],[121.2396,23.6702],[121.2275,23.6261],[121.2213,23.6085],[121.2043,23.5975],[121.1752,23.5878],[121.1602,23.5699],[121.155,23.5401],[121.1349,23.5236],[121.1067,23.5228],[121.0786,23.517],[121.0589,23.5036],[121.0533,23.4894],[121.0475,23.4802],[121.0539,23.4586],[121.0423,23.4486],[121.0193,23.4367],[121.0168,23.4437],[121.0009,23.4639],[120.9788,23.4718],[120.9622,23.4754],[120.9587,23.4761],[120.8614,23.4768],[120.8324,23.4815],[120.8283,23.4949],[120.8269,23.5152],[120.8167,23.5379],[120.812,23.5547],[120.8234,23.5727],[120.8248,23.5911],[120.8052,23.6008],[120.7895,23.6049],[120.7638,23.614],[120.7407,23.6163],[120.7308,23.6287],[120.6993,23.6256],[120.6735,23.6184],[120.6514,23.6272],[120.6363,23.6436],[120.6398,23.6636],[120.647,23.6816],[120.6431,23.7083],[120.647,23.7333],[120.6547,23.7496],[120.6474,23.7749],[120.6563,23.7805],[120.6659,23.7883],[120.6806,23.7937],[120.6841,23.806],[120.6629,23.8158],[120.6482,23.8207],[120.6343,23.8323],[120.6266,23.8542],[120.6299,23.9008],[120.6343,23.9238],[120.6347,23.9435],[120.6409,23.9624],[120.6486,23.9781],[120.6464,23.9921],[120.6511,24.0023],[120.6673,24.0076],[120.6672,24.0201],[120.6833,24.0196],[120.7517,24.0108],[120.7676,24.0131],[120.7866,24.0296],[120.8153,24.0796],[120.8294,24.109],[120.8537,24.1196],[120.8922,24.1145],[120.9151,24.1155],[120.937,24.1421],[120.9485,24.1487],[120.9826,24.1255],[120.9959,24.1287],[121.0058,24.1476],[121.0236,24.1612],[121.0488,24.1608],[121.0678,24.1674],[121.0979,24.1939],[121.1171,24.2038],[121.1339,24.2067],[121.1675,24.2228],[121.191,24.2236],[121.2148,24.2271],[121.257,24.2424],[121.2748,24.2435]]]}},{"type":"Feature","properties":{"id":"TWN-1167","name":"New Taipei City","nameBn":"নিউ তাইপে সিটি","type":"Special Municipality","bounds":[121.2874,24.6811,122.0054,25.2874],"center":[121.646,24.911]},"geometry":{"type":"Polygon","coordinates":[[[121.7613,25.1426],[121.8928,25.1137],[121.9051,25.1066],[121.8989,25.094],[121.8972,25.0839],[121.8999,25.066],[121.9092,25.036],[121.9192,25.022],[121.9273,25.0187],[121.9539,25.0224],[121.9675,25.0211],[121.9836,25.0172],[121.9977,25.0107],[122.0054,25.0019],[121.9723,24.9871],[121.9694,24.9909],[121.9567,24.9974],[121.9341,24.9932],[121.9022,24.9777],[121.8882,24.9693],[121.8458,24.9614],[121.8404,24.9512],[121.8499,24.939],[121.8437,24.9259],[121.8262,24.9158],[121.8129,24.9116],[121.7988,24.9048],[121.7864,24.8906],[121.7747,24.8733],[121.7555,24.8609],[121.7319,24.8542],[121.6807,24.8264],[121.6311,24.8081],[121.6166,24.8002],[121.5986,24.7864],[121.5913,24.7693],[121.5918,24.755],[121.5957,24.744],[121.5973,24.737],[121.5824,24.7275],[121.5571,24.7163],[121.5383,24.7043],[121.5239,24.693],[121.5053,24.6867],[121.4833,24.6811],[121.474,24.6999],[121.44,24.7291],[121.4347,24.7484],[121.4316,24.7663],[121.4435,24.7793],[121.4491,24.7973],[121.4171,24.8399],[121.3979,24.8468],[121.3697,24.8454],[121.3501,24.8553],[121.3553,24.8785],[121.3514,24.8962],[121.3311,24.9138],[121.3269,24.9313],[121.3311,24.9513],[121.3302,24.9726],[121.3443,24.9865],[121.3939,24.9998],[121.4067,25.0118],[121.4104,25.0262],[121.4086,25.0402],[121.3891,25.0659],[121.373,25.0736],[121.3575,25.0769],[121.3454,25.0869],[121.3274,25.0973],[121.3035,25.1078],[121.2874,25.1237],[121.3303,25.1307],[121.3483,25.1371],[121.3718,25.1548],[121.3788,25.1579],[121.3874,25.1593],[121.3989,25.1595],[121.4123,25.1555],[121.4194,25.1464],[121.4241,25.1369],[121.43,25.1316],[121.4432,25.1364],[121.4295,25.156],[121.4074,25.1762],[121.3958,25.1828],[121.3991,25.1921],[121.406,25.1973],[121.4133,25.2004],[121.4163,25.2036],[121.4242,25.2213],[121.4363,25.2414],[121.4613,25.2619],[121.4978,25.2788],[121.5397,25.2874],[121.5808,25.283],[121.5979,25.2714],[121.636,25.2228],[121.6497,25.1971],[121.6541,25.1988],[121.6644,25.2014],[121.6761,25.2026],[121.6844,25.2005],[121.6839,25.1975],[121.6799,25.193],[121.6761,25.1869],[121.6764,25.1794],[121.6805,25.175],[121.6893,25.1695],[121.6725,25.1593],[121.6452,25.1486],[121.6331,25.1412],[121.6353,25.1312],[121.6461,25.1185],[121.6527,25.1064],[121.6635,25.0944],[121.6775,25.0824],[121.6888,25.0751],[121.729,25.0599],[121.7486,25.0576],[121.7638,25.0628],[121.7734,25.0692],[121.7748,25.0777],[121.7608,25.091],[121.7601,25.1015],[121.7613,25.1426]],[[121.6028,24.9706],[121.6188,24.9766],[121.6477,25.0097],[121.6552,25.0244],[121.6411,25.0353],[121.6236,25.0442],[121.6229,25.0618],[121.6291,25.0845],[121.6229,25.0998],[121.6081,25.1117],[121.5987,25.1463],[121.5923,25.1585],[121.5864,25.1698],[121.5849,25.1817],[121.5869,25.1941],[121.5791,25.2015],[121.5645,25.2059],[121.5493,25.199],[121.5381,25.1905],[121.4967,25.1681],[121.4832,25.1544],[121.4751,25.1387],[121.4683,25.1304],[121.4622,25.1202],[121.4765,25.1056],[121.4985,25.0866],[121.503,25.0651],[121.497,25.0395],[121.5121,25.0163],[121.534,25.0007],[121.5485,24.9857],[121.5624,24.9745],[121.5807,24.9708],[121.6028,24.9706]]]}},{"type":"Feature","properties":{"id":"TWN-3414","name":"Penghu","nameBn":"পেঙ্ঘু","type":"County","bounds":[119.4424,23.5166,119.6707,23.6792],"center":[119.597,23.5724]},"geometry":{"type":"MultiPolygon","coordinates":[[[[119.648,23.6035],[119.6658,23.5733],[119.6707,23.5592],[119.6685,23.5488],[119.6611,23.5557],[119.6514,23.5616],[119.6406,23.5635],[119.6257,23.5558],[119.615,23.5546],[119.6097,23.5519],[119.6068,23.5468],[119.6027,23.5326],[119.6001,23.5284],[119.5824,23.5189],[119.564,23.5166],[119.5456,23.5231],[119.5271,23.54],[119.532,23.5488],[119.5422,23.5376],[119.5574,23.5346],[119.5737,23.5388],[119.5872,23.5488],[119.5779,23.552],[119.5706,23.5561],[119.5646,23.5617],[119.5593,23.5693],[119.5571,23.5661],[119.5571,23.565],[119.5564,23.5644],[119.5524,23.5625],[119.5515,23.5765],[119.5524,23.5904],[119.5593,23.5904],[119.5672,23.5885],[119.5955,23.6047],[119.6131,23.6103],[119.6084,23.5949],[119.6063,23.5904],[119.6216,23.5947],[119.6333,23.5935],[119.6419,23.5941],[119.648,23.6035]]],[[[119.4771,23.6035],[119.4894,23.6396],[119.5013,23.6504],[119.5173,23.6376],[119.5078,23.6324],[119.5012,23.6198],[119.4907,23.5904],[119.4902,23.5825],[119.4928,23.5758],[119.4917,23.571],[119.4802,23.5693],[119.4719,23.569],[119.4661,23.5681],[119.4612,23.566],[119.4566,23.5625],[119.4424,23.5625],[119.4448,23.5698],[119.4495,23.5741],[119.4566,23.5762],[119.4662,23.5768],[119.4745,23.5797],[119.4768,23.5868],[119.4771,23.6035]]],[[[119.5726,23.6277],[119.5693,23.6397],[119.5618,23.6498],[119.5453,23.6649],[119.5664,23.6792],[119.5789,23.6731],[119.5911,23.6635],[119.5962,23.6533],[119.5869,23.645],[119.5907,23.6328],[119.5851,23.6247],[119.5768,23.6225],[119.5726,23.6277]]]]}},{"type":"Feature","properties":{"id":"TWN-1158","name":"Pingtung","nameBn":"পিংটুং কাউন্টি","type":"County","bounds":[120.4119,21.9046,120.9106,22.8876],"center":[120.661,22.5344]},"geometry":{"type":"Polygon","coordinates":[[[120.876,22.2377],[120.8792,22.0558],[120.8733,22.03],[120.8636,22.0089],[120.8508,22.0002],[120.8357,21.9872],[120.8362,21.9577],[120.8416,21.9255],[120.8403,21.9046],[120.8231,21.9286],[120.7974,21.9468],[120.7674,21.9593],[120.7373,21.9661],[120.7361,21.9428],[120.7273,21.9345],[120.7144,21.9375],[120.7004,21.9484],[120.6996,21.9567],[120.7044,21.9814],[120.6834,22.0139],[120.6817,22.0225],[120.6819,22.0296],[120.6834,22.0412],[120.6834,22.079],[120.6856,22.0902],[120.6948,22.1026],[120.697,22.1132],[120.6213,22.2951],[120.615,22.305],[120.5939,22.3292],[120.5773,22.3638],[120.5697,22.3738],[120.5387,22.3964],[120.5264,22.403],[120.5222,22.4043],[120.5181,22.407],[120.5144,22.4201],[120.512,22.4247],[120.4953,22.4348],[120.4572,22.4516],[120.44,22.4626],[120.4217,22.4774],[120.4133,22.4823],[120.4119,22.4829],[120.4428,22.5549],[120.4414,22.5838],[120.4308,22.61],[120.4314,22.6351],[120.4529,22.7095],[120.4534,22.7427],[120.4513,22.7673],[120.4612,22.795],[120.4662,22.8203],[120.4728,22.8372],[120.5406,22.8335],[120.571,22.8434],[120.5952,22.8682],[120.6309,22.8839],[120.6807,22.8608],[120.7059,22.8814],[120.7334,22.8876],[120.7622,22.8566],[120.7845,22.8372],[120.8169,22.8608],[120.8333,22.8616],[120.8531,22.8583],[120.8533,22.8583],[120.8663,22.8351],[120.8692,22.8182],[120.8895,22.8136],[120.9106,22.8008],[120.9,22.7525],[120.8994,22.7343],[120.8918,22.7169],[120.8548,22.7024],[120.8366,22.6929],[120.8074,22.6871],[120.787,22.6714],[120.7779,22.6483],[120.7638,22.6251],[120.7522,22.5989],[120.7491,22.5472],[120.7539,22.5243],[120.7615,22.503],[120.7655,22.478],[120.7655,22.4591],[120.7754,22.4416],[120.7932,22.4219],[120.7837,22.4085],[120.7634,22.3973],[120.7556,22.3837],[120.7535,22.3676],[120.7638,22.3539],[120.7768,22.3481],[120.7886,22.3324],[120.7882,22.3124],[120.7903,22.2911],[120.8027,22.2702],[120.82,22.2531],[120.8589,22.2365],[120.876,22.2377]]]}},{"type":"Feature","properties":{"id":"TWN-1174","name":"Taichung City","nameBn":"তাইচুং শহর","type":"Special Municipality","bounds":[120.4754,24.0108,121.4567,24.456],"center":[120.966,24.238]},"geometry":{"type":"Polygon","coordinates":[[[120.4754,24.2071],[120.4778,24.2097],[120.4806,24.2211],[120.4932,24.2307],[120.5016,24.2529],[120.512,24.2956],[120.5474,24.3515],[120.5581,24.3859],[120.5708,24.4049],[120.6213,24.456],[120.6564,24.4066],[120.6744,24.3893],[120.6983,24.3703],[120.7556,24.3317],[120.7837,24.3193],[120.8085,24.3152],[120.8526,24.292],[120.8989,24.2942],[120.9187,24.304],[120.9221,24.3295],[120.943,24.3409],[120.9805,24.3383],[121.0035,24.3299],[121.0224,24.3107],[121.0431,24.3033],[121.0767,24.3197],[121.1029,24.3295],[121.147,24.3615],[121.1693,24.3726],[121.1866,24.3879],[121.2028,24.3983],[121.223,24.3978],[121.2415,24.4049],[121.2484,24.4243],[121.2626,24.4333],[121.2655,24.4352],[121.3057,24.4386],[121.3165,24.436],[121.3304,24.4326],[121.3278,24.4133],[121.3333,24.4004],[121.352,24.3967],[121.3687,24.3879],[121.3829,24.3791],[121.3977,24.3812],[121.4159,24.389],[121.4345,24.389],[121.4567,24.3727],[121.4391,24.3559],[121.4374,24.3415],[121.4285,24.3201],[121.3998,24.3036],[121.3883,24.2865],[121.3834,24.2686],[121.3718,24.2556],[121.3588,24.2494],[121.3542,24.2424],[121.3435,24.2355],[121.2927,24.2398],[121.2748,24.2435],[121.257,24.2424],[121.2148,24.2271],[121.191,24.2236],[121.1675,24.2228],[121.1339,24.2067],[121.1171,24.2038],[121.0979,24.1939],[121.0678,24.1674],[121.0488,24.1608],[121.0236,24.1612],[121.0058,24.1476],[120.9959,24.1287],[120.9826,24.1255],[120.9485,24.1487],[120.937,24.1421],[120.9151,24.1155],[120.8922,24.1145],[120.8537,24.1196],[120.8294,24.109],[120.8153,24.0796],[120.7866,24.0296],[120.7676,24.0131],[120.7517,24.0108],[120.6833,24.0196],[120.6672,24.0201],[120.6672,24.0249],[120.6464,24.0373],[120.6302,24.04],[120.6255,24.0517],[120.6253,24.0654],[120.6177,24.0792],[120.6055,24.0966],[120.5891,24.109],[120.5439,24.1211],[120.5268,24.14],[120.5229,24.1663],[120.5128,24.1884],[120.4976,24.2005],[120.4754,24.2071]]]}},{"type":"Feature","properties":{"id":"TWN-1160","name":"Tainan City","nameBn":"তাইনান","type":"Special Municipality","bounds":[120.0524,22.8961,120.6534,23.4139],"center":[120.182,23.0464]},"geometry":{"type":"Polygon","coordinates":[[[120.1675,22.9319],[120.1638,22.9538],[120.1569,22.9665],[120.1421,22.9803],[120.1602,22.9921],[120.1703,23.0134],[120.1662,23.0317],[120.1421,23.0349],[120.1375,23.0284],[120.1335,23.0165],[120.1267,23.0071],[120.1141,23.0076],[120.1091,23.0154],[120.111,23.04],[120.1079,23.0486],[120.0925,23.0548],[120.0838,23.0476],[120.0767,23.0374],[120.0663,23.0349],[120.0552,23.0437],[120.0524,23.0558],[120.0549,23.0678],[120.0594,23.0759],[120.0706,23.0812],[120.0847,23.083],[120.0964,23.0864],[120.1004,23.097],[120.095,23.1025],[120.0594,23.1107],[120.0594,23.1175],[120.0892,23.1177],[120.0863,23.1269],[120.0701,23.1398],[120.0594,23.151],[120.062,23.165],[120.0715,23.17],[120.0819,23.1732],[120.0869,23.182],[120.0838,23.1957],[120.0786,23.207],[120.0822,23.2173],[120.0874,23.2303],[120.0961,23.2395],[120.0942,23.2475],[120.096,23.2554],[120.1089,23.2867],[120.1149,23.2927],[120.1247,23.295],[120.1105,23.3037],[120.1165,23.3179],[120.1365,23.311],[120.1702,23.3064],[120.1977,23.3],[120.2214,23.3097],[120.2309,23.3271],[120.2528,23.3395],[120.2781,23.3575],[120.2958,23.3742],[120.3192,23.3901],[120.3488,23.4023],[120.4066,23.4123],[120.4389,23.4139],[120.4662,23.4057],[120.4815,23.3972],[120.4893,23.3825],[120.4959,23.3647],[120.5336,23.3294],[120.5373,23.3031],[120.5307,23.2535],[120.5367,23.2376],[120.5538,23.2254],[120.5681,23.2252],[120.5885,23.2337],[120.6076,23.2359],[120.6216,23.232],[120.6534,23.2287],[120.6448,23.2056],[120.6051,23.1526],[120.567,23.0931],[120.5424,23.064],[120.5141,23.0385],[120.4895,23.0197],[120.4662,22.9972],[120.4461,22.9726],[120.4347,22.9542],[120.4257,22.935],[120.4017,22.9195],[120.3771,22.9104],[120.3636,22.9013],[120.3477,22.8961],[120.3157,22.8996],[120.2843,22.8965],[120.2247,22.9044],[120.2065,22.9129],[120.1915,22.9433],[120.1909,22.9448],[120.1675,22.9319]]]}},{"type":"Feature","properties":{"id":"TWN-1166","name":"Taipei City","nameBn":"তাইপে","type":"Special Municipality","bounds":[121.4622,24.9706,121.6552,25.2059],"center":[121.559,25.0904]},"geometry":{"type":"Polygon","coordinates":[[[121.5645,25.2059],[121.5791,25.2015],[121.5869,25.1941],[121.5849,25.1817],[121.5864,25.1698],[121.5923,25.1585],[121.5987,25.1463],[121.6081,25.1117],[121.6229,25.0998],[121.6291,25.0845],[121.6229,25.0618],[121.6236,25.0442],[121.6411,25.0353],[121.6552,25.0244],[121.6477,25.0097],[121.6188,24.9766],[121.6028,24.9706],[121.5807,24.9708],[121.5624,24.9745],[121.5485,24.9857],[121.534,25.0007],[121.5121,25.0163],[121.497,25.0395],[121.503,25.0651],[121.4985,25.0866],[121.4765,25.1056],[121.4622,25.1202],[121.4683,25.1304],[121.4751,25.1387],[121.4832,25.1544],[121.4967,25.1681],[121.5381,25.1905],[121.5493,25.199],[121.5645,25.2059]]]}},{"type":"Feature","properties":{"id":"TWN-1177","name":"Taitung","nameBn":"টাইটুং কাউন্টি","type":"County","bounds":[120.7491,22.0078,121.5889,23.4387],"center":[121.54,22.0499]},"geometry":{"type":"MultiPolygon","coordinates":[[[[121.4795,23.4352],[121.4622,23.343],[121.4536,23.326],[121.4268,23.2931],[121.4168,23.2761],[121.4089,23.2546],[121.4033,23.2147],[121.4038,23.1793],[121.4001,23.1455],[121.3816,23.1107],[121.3737,23.1032],[121.3555,23.091],[121.3474,23.0833],[121.3434,23.0754],[121.3371,23.0551],[121.3189,23.0255],[121.3076,22.9798],[121.2996,22.9592],[121.2605,22.9073],[121.2556,22.8978],[121.2028,22.8565],[121.1903,22.8432],[121.1885,22.8339],[121.1909,22.812],[121.1903,22.8022],[121.1856,22.791],[121.1774,22.7786],[121.1594,22.7575],[121.1414,22.7418],[121.0803,22.7041],[121.0391,22.6624],[121.0291,22.6575],[121.021,22.6479],[121.0011,22.6008],[120.9912,22.5831],[120.9606,22.5478],[120.9483,22.5268],[120.9411,22.4836],[120.9229,22.4247],[120.8866,22.366],[120.8814,22.3459],[120.875,22.2893],[120.876,22.2377],[120.8589,22.2365],[120.82,22.2531],[120.8027,22.2702],[120.7903,22.2911],[120.7882,22.3124],[120.7886,22.3324],[120.7768,22.3481],[120.7638,22.3539],[120.7535,22.3676],[120.7556,22.3837],[120.7634,22.3973],[120.7837,22.4085],[120.7932,22.4219],[120.7754,22.4416],[120.7655,22.4591],[120.7655,22.478],[120.7615,22.503],[120.7539,22.5243],[120.7491,22.5472],[120.7522,22.5989],[120.7638,22.6251],[120.7779,22.6483],[120.787,22.6714],[120.8074,22.6871],[120.8366,22.6929],[120.8548,22.7024],[120.8918,22.7169],[120.8994,22.7343],[120.9,22.7525],[120.9106,22.8008],[120.8895,22.8136],[120.8692,22.8182],[120.8663,22.8351],[120.8533,22.8583],[120.868,22.8599],[120.8632,22.8773],[120.8399,22.8996],[120.8285,22.9158],[120.8234,22.9443],[120.8322,22.9784],[120.8647,23.0038],[120.881,23.0243],[120.8812,23.0636],[120.8928,23.1096],[120.8845,23.1444],[120.8878,23.1684],[120.916,23.1824],[120.9261,23.1996],[120.9176,23.2204],[120.9209,23.2405],[120.9505,23.2581],[120.9656,23.2717],[120.9902,23.286],[121.0496,23.2994],[121.0538,23.2736],[121.0731,23.2452],[121.1026,23.2353],[121.126,23.2254],[121.145,23.2087],[121.169,23.2056],[121.1905,23.2002],[121.2254,23.1442],[121.27,23.1105],[121.3013,23.1063],[121.3259,23.1194],[121.3294,23.1411],[121.329,23.1646],[121.3409,23.1857],[121.3591,23.232],[121.3732,23.2589],[121.3823,23.2882],[121.3926,23.3114],[121.4054,23.3296],[121.4193,23.3536],[121.417,23.3775],[121.4106,23.4015],[121.4253,23.4205],[121.4662,23.4387],[121.4795,23.4352]]],[[[121.5635,22.0446],[121.5811,22.0322],[121.5889,22.0235],[121.5877,22.0139],[121.5669,22.0078],[121.5389,22.0182],[121.5132,22.0351],[121.4983,22.048],[121.5028,22.0576],[121.5026,22.0666],[121.4988,22.0748],[121.492,22.0822],[121.5666,22.0822],[121.5666,22.076],[121.5646,22.0722],[121.5614,22.0637],[121.5601,22.0535],[121.5635,22.0446]]],[[[121.4607,22.659],[121.4554,22.6738],[121.4575,22.6759],[121.4958,22.6785],[121.5,22.6763],[121.5028,22.6695],[121.4998,22.6557],[121.4963,22.6501],[121.495,22.6442],[121.4963,22.6385],[121.4961,22.6347],[121.4932,22.6354],[121.4866,22.6354],[121.4832,22.6361],[121.4815,22.6381],[121.4714,22.6418],[121.4607,22.659]]]]}},{"type":"Feature","properties":{"id":"TWN-1168","name":"Taoyuan","nameBn":"তাওউয়ান শহর","type":"County","bounds":[120.9717,24.5954,121.4833,25.1237],"center":[121.227,24.961]},"geometry":{"type":"Polygon","coordinates":[[[120.9717,24.9518],[121.0055,25.0007],[121.032,25.0292],[121.0593,25.0502],[121.1294,25.0711],[121.1458,25.0804],[121.1598,25.0916],[121.1769,25.1],[121.2109,25.1112],[121.2874,25.1237],[121.3035,25.1078],[121.3274,25.0973],[121.3454,25.0869],[121.3575,25.0769],[121.373,25.0736],[121.3891,25.0659],[121.4086,25.0402],[121.4104,25.0262],[121.4067,25.0118],[121.3939,24.9998],[121.3443,24.9865],[121.3302,24.9726],[121.3311,24.9513],[121.3269,24.9313],[121.3311,24.9138],[121.3514,24.8962],[121.3553,24.8785],[121.3501,24.8553],[121.3697,24.8454],[121.3979,24.8468],[121.4171,24.8399],[121.4491,24.7973],[121.4435,24.7793],[121.4316,24.7663],[121.4347,24.7484],[121.44,24.7291],[121.474,24.6999],[121.4833,24.6811],[121.4716,24.6781],[121.4512,24.6646],[121.4631,24.6216],[121.4545,24.6084],[121.4415,24.604],[121.4292,24.6062],[121.4143,24.6007],[121.4123,24.5954],[121.3941,24.6029],[121.3664,24.6172],[121.3511,24.6272],[121.33,24.6304],[121.3064,24.6433],[121.287,24.6569],[121.2848,24.6719],[121.3024,24.6944],[121.3095,24.7211],[121.3035,24.7462],[121.3022,24.7636],[121.2892,24.7727],[121.2726,24.7801],[121.2627,24.7958],[121.2498,24.8079],[121.2352,24.8068],[121.2206,24.8093],[121.2087,24.8201],[121.1928,24.8305],[121.1679,24.8377],[121.1548,24.8505],[121.1591,24.8708],[121.1455,24.8851],[121.1194,24.8928],[121.1039,24.8996],[121.0874,24.9039],[121.0684,24.9106],[121.0532,24.9405],[121.0356,24.9513],[120.9838,24.9479],[120.9717,24.9518]]]}},{"type":"Feature","properties":{"id":"TWN-1163","name":"Yilan","nameBn":"ইলান কাউন্টি","type":"County","bounds":[121.3165,24.3258,121.9723,24.9974],"center":[121.644,24.5913]},"geometry":{"type":"Polygon","coordinates":[[[121.9723,24.9871],[121.9268,24.9666],[121.9058,24.9501],[121.8347,24.8715],[121.8235,24.8549],[121.8146,24.8317],[121.8088,24.8052],[121.8068,24.7788],[121.8078,24.7531],[121.8203,24.6997],[121.8196,24.686],[121.8142,24.6723],[121.815,24.6444],[121.828,24.6228],[121.8527,24.6089],[121.8818,24.604],[121.8818,24.5978],[121.8695,24.5989],[121.8578,24.5978],[121.8479,24.5949],[121.8408,24.5903],[121.8508,24.573],[121.856,24.5505],[121.8528,24.531],[121.8301,24.5192],[121.8284,24.5107],[121.8313,24.5004],[121.8377,24.491],[121.84,24.4813],[121.8304,24.4731],[121.8068,24.4606],[121.78,24.4327],[121.7791,24.4218],[121.7808,24.3976],[121.7764,24.3883],[121.7715,24.3806],[121.7684,24.3694],[121.7664,24.3474],[121.7643,24.3417],[121.7605,24.3371],[121.7586,24.3323],[121.7625,24.3266],[121.7633,24.3258],[121.7592,24.3259],[121.7169,24.3317],[121.6465,24.37],[121.632,24.367],[121.6232,24.3463],[121.6044,24.3306],[121.5796,24.3307],[121.5482,24.3416],[121.4909,24.3548],[121.4662,24.3657],[121.4567,24.3727],[121.4345,24.389],[121.4159,24.389],[121.3977,24.3812],[121.3829,24.3791],[121.3687,24.3879],[121.352,24.3967],[121.3333,24.4004],[121.3278,24.4133],[121.3304,24.4326],[121.3165,24.436],[121.333,24.4723],[121.3862,24.5213],[121.4005,24.5414],[121.3983,24.5566],[121.4034,24.573],[121.4123,24.5954],[121.4143,24.6007],[121.4292,24.6062],[121.4415,24.604],[121.4545,24.6084],[121.4631,24.6216],[121.4512,24.6646],[121.4716,24.6781],[121.4833,24.6811],[121.5053,24.6867],[121.5239,24.693],[121.5383,24.7043],[121.5571,24.7163],[121.5824,24.7275],[121.5973,24.737],[121.5957,24.744],[121.5918,24.755],[121.5913,24.7693],[121.5986,24.7864],[121.6166,24.8002],[121.6311,24.8081],[121.6807,24.8264],[121.7319,24.8542],[121.7555,24.8609],[121.7747,24.8733],[121.7864,24.8906],[121.7988,24.9048],[121.8129,24.9116],[121.8262,24.9158],[121.8437,24.9259],[121.8499,24.939],[121.8404,24.9512],[121.8458,24.9614],[121.8882,24.9693],[121.9022,24.9777],[121.9341,24.9932],[121.9567,24.9974],[121.9694,24.9909],[121.9723,24.9871]]]}},{"type":"Feature","properties":{"id":"TWN-1176","name":"Yunlin","nameBn":"ইউনলিন কাউন্টি","type":"County","bounds":[120.1243,23.5082,120.7407,23.8385],"center":[120.427,23.7253]},"geometry":{"type":"Polygon","coordinates":[[[120.1243,23.52],[120.1417,23.5379],[120.1409,23.5953],[120.1436,23.638],[120.1542,23.6722],[120.1708,23.6989],[120.1755,23.7338],[120.1844,23.7644],[120.1892,23.7748],[120.2127,23.8032],[120.2166,23.8126],[120.2195,23.8179],[120.2407,23.8328],[120.2439,23.8385],[120.2728,23.8232],[120.3565,23.8323],[120.3851,23.8309],[120.4105,23.8246],[120.4546,23.8091],[120.5296,23.8014],[120.5758,23.7805],[120.5979,23.7807],[120.6435,23.7725],[120.6474,23.7749],[120.6547,23.7496],[120.647,23.7333],[120.6431,23.7083],[120.647,23.6816],[120.6398,23.6636],[120.6363,23.6436],[120.6514,23.6272],[120.6735,23.6184],[120.6993,23.6256],[120.7308,23.6287],[120.7407,23.6163],[120.7388,23.6165],[120.7374,23.5991],[120.7374,23.5871],[120.7225,23.5826],[120.6778,23.5743],[120.6539,23.5721],[120.6448,23.5859],[120.6268,23.5975],[120.5952,23.5892],[120.5811,23.5873],[120.5331,23.6035],[120.5141,23.6239],[120.4941,23.6401],[120.4678,23.6388],[120.4199,23.6305],[120.3926,23.6237],[120.3306,23.5909],[120.3161,23.5776],[120.2991,23.5694],[120.2727,23.5495],[120.2524,23.5466],[120.2446,23.5363],[120.2382,23.5191],[120.2231,23.5082],[120.2001,23.5084],[120.1685,23.5247],[120.1284,23.5206],[120.1278,23.5202],[120.1243,23.52]]]}}]}