{"type":"FeatureCollection","features":[{"type":"Feature","properties":{"id":"VCT-5063","name":"Charlotte","nameBn":"চার্লট প্যারিশ","type":"Parish","bounds":[-61.2002,13.1978,-61.1239,13.38],"center":[-61.1475,13.2825]},"geometry":{"type":"Polygon","coordinates":[[[-61.1713,13.38],[-61.1512,13.3768],[-61.144,13.3741],[-61.14,13.3674],[-61.1338,13.3528],[-61.1239,13.3083],[-61.1244,13.247],[-61.1355,13.1978],[-61.1477,13.2026],[-61.1628,13.2052],[-61.1746,13.2032],[-61.1877,13.2124],[-61.1928,13.2167],[-61.2002,13.2229],[-61.1989,13.2393],[-61.1949,13.2491],[-61.1877,13.2629],[-61.1746,13.2603],[-61.172,13.2734],[-61.1707,13.2924],[-61.172,13.3088],[-61.1726,13.3226],[-61.1694,13.3409],[-61.1608,13.3422],[-61.1615,13.3553],[-61.1713,13.3593],[-61.1713,13.38]]]}},{"type":"Feature","properties":{"id":"VCT-5064","name":"Grenadines","nameBn":"গ্রেনাডিয়ান্স","type":"Parish","bounds":[-61.4598,12.5852,-61.175,13.0512],"center":[-61.229,13.0161]},"geometry":{"type":"MultiPolygon","coordinates":[[[[-61.194,13.0369],[-61.2083,13.0233],[-61.2264,12.9931],[-61.2424,12.9822],[-61.235,12.9822],[-61.2424,12.9748],[-61.2475,12.9821],[-61.2555,12.9867],[-61.2656,12.9887],[-61.2772,12.9885],[-61.2772,12.9959],[-61.2623,12.9914],[-61.2396,12.9958],[-61.2396,13.0039],[-61.2462,13.0112],[-61.2493,13.0163],[-61.241,13.0242],[-61.2131,13.0418],[-61.2015,13.0512],[-61.2001,13.0473],[-61.1996,13.0437],[-61.1982,13.0402],[-61.194,13.0369]]],[[[-61.4414,12.6079],[-61.4294,12.6005],[-61.4266,12.5919],[-61.4327,12.5878],[-61.4432,12.5852],[-61.4559,12.5861],[-61.4598,12.5915],[-61.4557,12.5966],[-61.4547,12.6008],[-61.4568,12.6044],[-61.4556,12.6071],[-61.4483,12.6099],[-61.4414,12.6079]]],[[[-61.3194,12.7338],[-61.3163,12.73],[-61.3144,12.7209],[-61.3197,12.7139],[-61.3255,12.7082],[-61.3284,12.6994],[-61.3339,12.6936],[-61.3441,12.6931],[-61.3531,12.6965],[-61.3507,12.6995],[-61.3393,12.702],[-61.334,12.7086],[-61.3358,12.7174],[-61.3354,12.7272],[-61.3263,12.7331],[-61.3194,12.7338]]],[[[-61.1918,12.8682],[-61.1832,12.8835],[-61.175,12.8818],[-61.1836,12.862],[-61.1876,12.8564],[-61.1908,12.8559],[-61.1918,12.8682]]]]}},{"type":"Feature","properties":{"id":"VCT-5065","name":"Saint Andrew","nameBn":"সেন্ট অ্যান্ড্রু প্যারিশ","type":"Parish","bounds":[-61.2714,13.1634,-61.1928,13.2393],"center":[-61.2287,13.1977]},"geometry":{"type":"Polygon","coordinates":[[[-61.2379,13.1634],[-61.2714,13.1865],[-61.2585,13.2],[-61.2382,13.2144],[-61.2198,13.2341],[-61.212,13.2373],[-61.1989,13.2393],[-61.2002,13.2229],[-61.1928,13.2167],[-61.1989,13.2046],[-61.2211,13.1803],[-61.2379,13.1634]]]}},{"type":"Feature","properties":{"id":"VCT-5066","name":"Saint David","nameBn":"সেন্ট ডেভিড প্যারিশ","type":"Parish","bounds":[-61.2704,13.2553,-61.1608,13.3808],"center":[-61.204,13.3142]},"geometry":{"type":"Polygon","coordinates":[[[-61.2684,13.2659],[-61.2629,13.2764],[-61.2655,13.2802],[-61.2704,13.2901],[-61.2434,13.2944],[-61.2318,13.317],[-61.225,13.3458],[-61.212,13.3689],[-61.1991,13.377],[-61.1871,13.3804],[-61.1764,13.3808],[-61.1713,13.38],[-61.1713,13.3593],[-61.1615,13.3553],[-61.1608,13.3422],[-61.1694,13.3409],[-61.1726,13.3226],[-61.172,13.3088],[-61.1707,13.2924],[-61.172,13.2734],[-61.1746,13.2603],[-61.1877,13.2629],[-61.2008,13.276],[-61.2146,13.2642],[-61.2279,13.2553],[-61.25,13.2603],[-61.2684,13.2659]]]}},{"type":"Feature","properties":{"id":"VCT-5067","name":"Saint George","nameBn":"সেন্ট জর্জ প্যারিশ","type":"Parish","bounds":[-61.2379,13.1325,-61.1355,13.2167],"center":[-61.1899,13.1695]},"geometry":{"type":"Polygon","coordinates":[[[-61.1355,13.1978],[-61.138,13.1869],[-61.1673,13.1461],[-61.1852,13.1325],[-61.2102,13.1442],[-61.2379,13.1634],[-61.2211,13.1803],[-61.1989,13.2046],[-61.1928,13.2167],[-61.1877,13.2124],[-61.1746,13.2032],[-61.1628,13.2052],[-61.1477,13.2026],[-61.1355,13.1978]]]}},{"type":"Feature","properties":{"id":"VCT-5068","name":"Saint Patrick","nameBn":"সেন্ট প্যাট্রিক প্যারিশ","type":"Parish","bounds":[-61.2794,13.1865,-61.1877,13.276],"center":[-61.2534,13.2313]},"geometry":{"type":"Polygon","coordinates":[[[-61.2714,13.1865],[-61.2794,13.2159],[-61.2767,13.2499],[-61.2684,13.2659],[-61.25,13.2603],[-61.2279,13.2553],[-61.2146,13.2642],[-61.2008,13.276],[-61.1877,13.2629],[-61.1949,13.2491],[-61.1989,13.2393],[-61.212,13.2373],[-61.2198,13.2341],[-61.2382,13.2144],[-61.2585,13.2],[-61.2714,13.1865]]]}}]}