{"type":"FeatureCollection","features":[{"type":"Feature","properties":{"id":"WSM-4985","name":"A'ana","nameBn":"এ'আনা","type":null,"bounds":[-172.0556,-14.007,-171.8441,-13.8054],"center":[-171.919,-13.9005]},"geometry":{"type":"MultiPolygon","coordinates":[[[[-171.9926,-13.8282],[-171.9652,-13.8185],[-171.8802,-13.8054],[-171.8579,-13.8063],[-171.8532,-13.873],[-171.8441,-13.9073],[-171.8479,-13.9437],[-171.8715,-13.9416],[-171.8757,-14.0047],[-171.8935,-14.007],[-171.9111,-14.0064],[-171.9266,-14.0012],[-171.941,-13.9904],[-171.9619,-13.9581],[-171.9724,-13.9462],[-171.982,-13.9494],[-171.9888,-13.9494],[-172.0063,-13.925],[-172.018,-13.9179],[-172.0406,-13.9152],[-171.9722,-13.873],[-171.9926,-13.8282]]],[[[-172.0556,-13.8619],[-172.0441,-13.8464],[-172.028,-13.8407],[-172.018,-13.8638],[-172.0317,-13.8707],[-172.0556,-13.8619]]]]}},{"type":"Feature","properties":{"id":"WSM-4986","name":"Aiga-i-le-Tai","nameBn":"আইগা-ই-লে-তাই","type":null,"bounds":[-172.0637,-13.9152,-171.9722,-13.8282],"center":[-172.039,-13.8904]},"geometry":{"type":"Polygon","coordinates":[[[-172.028,-13.8407],[-171.9926,-13.8282],[-171.9722,-13.873],[-172.0406,-13.9152],[-172.061,-13.9062],[-172.0637,-13.885],[-172.0556,-13.8619],[-172.0317,-13.8707],[-172.018,-13.8638],[-172.028,-13.8407]]]}},{"type":"Feature","properties":{"id":"WSM-4987","name":"Atua","nameBn":"আতুয়া","type":null,"bounds":[-171.6656,-14.0528,-171.4377,-13.8713],"center":[-171.592,-14.0212]},"geometry":{"type":"Polygon","coordinates":[[[-171.5676,-13.8967],[-171.5574,-13.9152],[-171.5591,-13.9254],[-171.5854,-13.9279],[-171.5923,-13.9691],[-171.558,-13.9828],[-171.5191,-13.976],[-171.4847,-13.992],[-171.4693,-13.9694],[-171.4377,-14.0061],[-171.4482,-14.0375],[-171.4453,-14.0414],[-171.4407,-14.0519],[-171.4662,-14.0528],[-171.5369,-14.0457],[-171.5792,-14.0495],[-171.5988,-14.0478],[-171.6195,-14.0375],[-171.6358,-14.0462],[-171.6524,-14.0452],[-171.6656,-13.9302],[-171.6502,-13.8713],[-171.6069,-13.8762],[-171.5852,-13.8839],[-171.5992,-13.9073],[-171.5877,-13.9096],[-171.5676,-13.8967]]]}},{"type":"Feature","properties":{"id":"WSM-4989","name":"Fa'asaleleaga","nameBn":"ফা'আসালেলিগা","type":null,"bounds":[-172.311,-13.801,-172.1756,-13.5584],"center":[-172.243,-13.6516]},"geometry":{"type":"Polygon","coordinates":[[[-172.2228,-13.5584],[-172.2219,-13.5626],[-172.2236,-13.5739],[-172.2228,-13.5783],[-172.2175,-13.5828],[-172.2053,-13.5877],[-172.201,-13.5925],[-172.1976,-13.6031],[-172.1957,-13.6139],[-172.1949,-13.6369],[-172.1903,-13.656],[-172.1814,-13.6677],[-172.1756,-13.6803],[-172.1806,-13.7024],[-172.1907,-13.718],[-172.2021,-13.7302],[-172.2115,-13.7446],[-172.2153,-13.7677],[-172.2124,-13.7906],[-172.213,-13.801],[-172.2354,-13.7723],[-172.2537,-13.7562],[-172.311,-13.6395],[-172.2972,-13.5617],[-172.2228,-13.5584]]]}},{"type":"Feature","properties":{"id":"WSM-4990","name":"Gaga'emauga","nameBn":"গাগা'এমগা","type":null,"bounds":[-172.4142,-14.0047,-171.7914,-13.4628],"center":[-171.861,-13.9658]},"geometry":{"type":"MultiPolygon","coordinates":[[[[-172.3662,-13.4628],[-172.3444,-13.463],[-172.3224,-13.4669],[-172.3008,-13.4765],[-172.2805,-13.4936],[-172.2228,-13.5584],[-172.2972,-13.5617],[-172.311,-13.6395],[-172.3474,-13.6386],[-172.391,-13.6375],[-172.4142,-13.6369],[-172.3662,-13.4628]]],[[[-171.8149,-13.8116],[-171.7923,-13.8165],[-171.7914,-13.8707],[-171.812,-13.8661],[-171.8149,-13.8116]]],[[[-171.8541,-14.0019],[-171.8757,-14.0047],[-171.8715,-13.9416],[-171.8479,-13.9437],[-171.8541,-14.0019]]]]}},{"type":"Feature","properties":{"id":"WSM-4991","name":"Gaga'ifomauga","nameBn":"গাগা ইফোমাউগা","type":null,"bounds":[-172.639,-13.6369,-172.3662,-13.4628],"center":[-172.467,-13.5461]},"geometry":{"type":"Polygon","coordinates":[[[-172.639,-13.5221],[-172.6153,-13.5094],[-172.604,-13.5064],[-172.5819,-13.5045],[-172.5692,-13.5014],[-172.5422,-13.4879],[-172.5306,-13.484],[-172.4519,-13.484],[-172.4315,-13.4809],[-172.3892,-13.467],[-172.3662,-13.4628],[-172.4142,-13.6369],[-172.5787,-13.6326],[-172.6318,-13.5999],[-172.639,-13.5221]]]}},{"type":"Feature","properties":{"id":"WSM-4994","name":"Palauli","nameBn":"পালাউলি","type":null,"bounds":[-172.609,-13.8054,-172.213,-13.6326],"center":[-172.454,-13.7195]},"geometry":{"type":"MultiPolygon","coordinates":[[[[-172.3545,-13.784],[-172.3686,-13.789],[-172.5232,-13.8054],[-172.5329,-13.7986],[-172.5432,-13.7853],[-172.5511,-13.7775],[-172.5674,-13.7688],[-172.5751,-13.7628],[-172.5785,-13.754],[-172.5806,-13.7448],[-172.59,-13.7248],[-172.5921,-13.7127],[-172.5971,-13.7006],[-172.609,-13.693],[-172.5787,-13.6326],[-172.4142,-13.6369],[-172.391,-13.6375],[-172.3545,-13.784]]],[[[-172.213,-13.801],[-172.2191,-13.8054],[-172.2428,-13.8051],[-172.2532,-13.8029],[-172.2638,-13.798],[-172.2795,-13.7848],[-172.2877,-13.775],[-172.2976,-13.7698],[-172.3184,-13.7713],[-172.3474,-13.6386],[-172.311,-13.6395],[-172.2537,-13.7562],[-172.2354,-13.7723],[-172.213,-13.801]]]]}},{"type":"Feature","properties":{"id":"WSM-4993","name":"Satupa'itea","nameBn":"সাতুোপাইতিয়া","type":null,"bounds":[-172.7035,-13.784,-172.3184,-13.5846],"center":[-172.635,-13.6365]},"geometry":{"type":"MultiPolygon","coordinates":[[[[-172.609,-13.693],[-172.6225,-13.6878],[-172.633,-13.6819],[-172.6545,-13.6492],[-172.6675,-13.6339],[-172.6933,-13.6241],[-172.7035,-13.6166],[-172.6566,-13.5846],[-172.6318,-13.5999],[-172.5787,-13.6326],[-172.609,-13.693]]],[[[-172.3184,-13.7713],[-172.3545,-13.784],[-172.391,-13.6375],[-172.3474,-13.6386],[-172.3184,-13.7713]]]]}},{"type":"Feature","properties":{"id":"WSM-4984","name":"Tuamasaga","nameBn":"তুয়ামাসাগা","type":null,"bounds":[-171.8579,-14.0519,-171.6502,-13.8063],"center":[-171.752,-13.9415]},"geometry":{"type":"Polygon","coordinates":[[[-171.7923,-13.8165],[-171.6502,-13.8713],[-171.6656,-13.9302],[-171.6524,-14.0452],[-171.684,-14.0375],[-171.7001,-14.039],[-171.743,-14.0519],[-171.7533,-14.0515],[-171.762,-14.0488],[-171.7681,-14.0432],[-171.7703,-14.0348],[-171.7745,-14.0263],[-171.7844,-14.0222],[-171.8044,-14.0178],[-171.8222,-14.0085],[-171.838,-14.0032],[-171.8541,-14.0019],[-171.8479,-13.9437],[-171.8441,-13.9073],[-171.8532,-13.873],[-171.8579,-13.8063],[-171.8345,-13.8074],[-171.8149,-13.8116],[-171.812,-13.8661],[-171.7914,-13.8707],[-171.7923,-13.8165]]]}},{"type":"Feature","properties":{"id":"WSM-4988","name":"Va'a-o-Fonoti","nameBn":"ভেআঁ-ও-ফনোটি","type":null,"bounds":[-171.5992,-13.992,-171.4693,-13.8839],"center":[-171.549,-13.9633]},"geometry":{"type":"MultiPolygon","coordinates":[[[[-171.5852,-13.8839],[-171.5676,-13.8967],[-171.5877,-13.9096],[-171.5992,-13.9073],[-171.5852,-13.8839]]],[[[-171.5591,-13.9254],[-171.5657,-13.9314],[-171.57,-13.9382],[-171.5643,-13.9494],[-171.5195,-13.9448],[-171.4693,-13.9694],[-171.4847,-13.992],[-171.5191,-13.976],[-171.558,-13.9828],[-171.5923,-13.9691],[-171.5854,-13.9279],[-171.5591,-13.9254]]]]}},{"type":"Feature","properties":{"id":"WSM-4992","name":"Vaisigano","nameBn":"ভাইসিগানু","type":null,"bounds":[-172.7826,-13.6166,-172.6318,-13.5105],"center":[-172.701,-13.5561]},"geometry":{"type":"Polygon","coordinates":[[[-172.7035,-13.6166],[-172.7187,-13.6028],[-172.7219,-13.5978],[-172.723,-13.5873],[-172.7256,-13.582],[-172.7313,-13.5789],[-172.7445,-13.58],[-172.7497,-13.5783],[-172.7612,-13.565],[-172.7765,-13.5421],[-172.7826,-13.5203],[-172.7665,-13.5105],[-172.7324,-13.5105],[-172.6951,-13.5242],[-172.6612,-13.5252],[-172.639,-13.5221],[-172.6318,-13.5999],[-172.6566,-13.5846],[-172.7035,-13.6166]]]}}]}