{"type":"FeatureCollection","features":[{"type":"Feature","properties":{"id":"NPL","name":"Nepal","nameBn":"নেপাল","continent":"Asia"},"geometry":{"type":"Polygon","coordinates":[[[88.11,27.871],[88.15,27.843],[88.154,27.799],[88.147,27.749],[88.106,27.642],[88.068,27.567],[88.024,27.409],[87.984,27.134],[87.993,27.086],[88.111,26.928],[88.157,26.807],[88.162,26.725],[88.112,26.586],[88.055,26.43],[88.027,26.395],[87.995,26.382],[87.849,26.437],[87.749,26.429],[87.633,26.399],[87.513,26.405],[87.414,26.423],[87.287,26.36],[87.167,26.394],[87.09,26.433],[87.038,26.542],[87.016,26.555],[86.763,26.442],[86.701,26.435],[86.544,26.496],[86.414,26.556],[86.366,26.574],[86.242,26.598],[86.129,26.612],[86.007,26.649],[85.856,26.6],[85.795,26.604],[85.737,26.64],[85.707,26.713],[85.7,26.782],[85.648,26.829],[85.568,26.84],[85.456,26.797],[85.293,26.741],[85.24,26.75],[85.192,26.767],[85.174,26.782],[85.152,26.847],[85.125,26.861],[85.087,26.863],[85.02,26.879],[84.937,26.927],[84.685,27.041],[84.654,27.092],[84.655,27.204],[84.641,27.25],[84.61,27.299],[84.481,27.348],[84.23,27.428],[84.091,27.491],[84.025,27.462],[83.897,27.435],[83.829,27.378],[83.747,27.396],[83.552,27.456],[83.447,27.465],[83.384,27.445],[83.369,27.41],[83.29,27.371],[83.214,27.402],[83.064,27.445],[82.933,27.468],[82.733,27.519],[82.711,27.597],[82.677,27.673],[82.63,27.687],[82.451,27.672],[82.288,27.757],[82.112,27.865],[82.037,27.901],[81.988,27.914],[81.945,27.899],[81.897,27.874],[81.853,27.867],[81.757,27.914],[81.636,27.98],[81.486,28.062],[81.311,28.176],[81.239,28.241],[81.206,28.289],[81.169,28.335],[81.017,28.41],[80.896,28.469],[80.751,28.54],[80.726,28.554],[80.671,28.596],[80.587,28.65],[80.518,28.665],[80.496,28.636],[80.479,28.605],[80.419,28.612],[80.325,28.666],[80.227,28.723],[80.15,28.776],[80.071,28.83],[80.052,28.87],[80.085,28.994],[80.13,29.1],[80.17,29.124],[80.233,29.195],[80.256,29.318],[80.255,29.423],[80.317,29.572],[80.402,29.73],[80.549,29.9],[80.613,29.956],[80.684,29.994],[80.82,30.119],[80.848,30.14],[80.908,30.172],[80.966,30.18],[81.01,30.165],[81.056,30.099],[81.11,30.037],[81.177,30.04],[81.255,30.093],[81.417,30.338],[81.642,30.387],[81.855,30.362],[82.043,30.327],[82.099,30.245],[82.135,30.159],[82.159,30.115],[82.221,30.064],[82.487,29.942],[82.641,29.831],[82.854,29.683],[83.014,29.618],[83.155,29.613],[83.235,29.555],[83.355,29.439],[83.457,29.306],[83.583,29.184],[83.671,29.188],[83.79,29.227],[83.936,29.279],[84.022,29.254],[84.101,29.22],[84.128,29.156],[84.176,29.036],[84.229,28.912],[84.312,28.868],[84.411,28.804],[84.465,28.753],[84.651,28.66],[84.677,28.622],[84.714,28.596],[84.759,28.579],[84.797,28.56],[84.855,28.554],[85.069,28.61],[85.126,28.603],[85.159,28.592],[85.16,28.572],[85.121,28.484],[85.089,28.372],[85.122,28.316],[85.212,28.293],[85.411,28.276],[85.678,28.277],[85.759,28.221],[85.84,28.135],[85.922,27.99],[85.954,27.928],[85.995,27.91],[86.064,27.935],[86.075,27.995],[86.079,28.084],[86.137,28.114],[86.174,28.092],[86.218,28.022],[86.329,27.96],[86.409,27.929],[86.485,27.94],[86.517,27.964],[86.554,28.085],[86.614,28.103],[86.691,28.095],[86.72,28.071],[86.75,28.022],[86.842,27.999],[86.934,27.968],[87.02,27.929],[87.141,27.838],[87.291,27.822],[87.464,27.824],[87.555,27.822],[87.623,27.815],[87.683,27.821],[87.861,27.886],[87.933,27.891],[88.023,27.883],[88.11,27.871]]]}},{"type":"Feature","properties":{"id":"IND","name":"India","nameBn":"ভারত","continent":"Asia"},"geometry":{"type":"MultiPolygon","coordinates":[[[[68.165,23.857],[68.234,23.901],[68.283,23.928],[68.381,23.951],[68.489,23.967],[68.587,23.967],[68.724,23.965],[68.728,24.266],[68.74,24.292],[68.759,24.307],[68.781,24.314],[68.8,24.309],[68.828,24.264],[68.863,24.267],[68.901,24.292],[68.985,24.273],[69.052,24.286],[69.12,24.269],[69.235,24.268],[69.443,24.275],[69.559,24.273],[69.634,24.225],[69.716,24.173],[69.805,24.165],[69.934,24.171],[70.021,24.192],[70.065,24.241],[70.098,24.288],[70.289,24.356],[70.489,24.412],[70.547,24.418],[70.565,24.386],[70.556,24.331],[70.579,24.279],[70.659,24.246],[70.716,24.238],[70.767,24.245],[70.805,24.262],[70.886,24.344],[70.928,24.362],[70.983,24.361],[71.044,24.4],[71.045,24.43],[71.006,24.444],[70.973,24.487],[70.979,24.522],[70.97,24.572],[70.976,24.619],[71.002,24.654],[71.048,24.688],[71.021,24.758],[70.951,24.892],[70.878,25.063],[70.8,25.206],[70.703,25.331],[70.652,25.423],[70.657,25.626],[70.648,25.667],[70.615,25.692],[70.57,25.706],[70.506,25.685],[70.449,25.681],[70.325,25.686],[70.265,25.707],[70.1,25.91],[70.079,25.99],[70.078,26.072],[70.133,26.215],[70.149,26.348],[70.157,26.471],[70.148,26.506],[70.115,26.548],[70.059,26.579],[69.911,26.586],[69.736,26.627],[69.601,26.699],[69.507,26.743],[69.481,26.771],[69.47,26.804],[69.495,26.954],[69.537,27.123],[69.568,27.175],[69.622,27.228],[69.661,27.265],[69.725,27.313],[69.896,27.474],[70.05,27.695],[70.145,27.849],[70.194,27.895],[70.244,27.934],[70.318,27.982],[70.404,28.025],[70.489,28.023],[70.569,27.984],[70.629,27.937],[70.649,27.835],[70.692,27.769],[70.737,27.729],[70.798,27.71],[70.875,27.714],[71.185,27.832],[71.29,27.855],[71.543,27.87],[71.717,27.915],[71.87,27.962],[71.889,28.047],[71.948,28.177],[72.129,28.346],[72.179,28.422],[72.234,28.566],[72.292,28.697],[72.342,28.752],[72.626,28.896],[72.903,29.029],[72.949,29.089],[73.128,29.364],[73.231,29.551],[73.258,29.611],[73.317,29.773],[73.382,29.934],[73.467,29.972],[73.658,30.033],[73.809,30.093],[73.887,30.162],[73.933,30.222],[73.925,30.282],[73.883,30.352],[73.892,30.394],[73.899,30.435],[74.009,30.52],[74.216,30.769],[74.339,30.894],[74.38,30.893],[74.51,30.96],[74.633,31.035],[74.626,31.069],[74.61,31.113],[74.54,31.133],[74.518,31.186],[74.535,31.261],[74.594,31.465],[74.582,31.524],[74.51,31.713],[74.526,31.765],[74.556,31.819],[74.636,31.89],[74.739,31.949],[75.071,32.089],[75.139,32.105],[75.254,32.14],[75.325,32.215],[75.333,32.279],[75.303,32.319],[75.234,32.372],[75.104,32.42],[74.987,32.462],[74.789,32.458],[74.686,32.494],[74.658,32.519],[74.643,32.608],[74.663,32.758],[74.632,32.771],[74.588,32.753],[74.483,32.771],[74.355,32.769],[74.305,32.81],[74.33,32.861],[74.323,32.928],[74.304,32.992],[74.284,33.005],[74.222,33.02],[74.126,33.075],[74.049,33.143],[74.004,33.189],[73.99,33.221],[73.994,33.242],[74.05,33.301],[74.118,33.384],[74.143,33.455],[74.15,33.507],[74.131,33.545],[74.07,33.592],[74.004,33.632],[73.978,33.668],[73.976,33.721],[74.001,33.788],[74.078,33.839],[74.216,33.887],[74.251,33.946],[74.246,33.99],[74.209,34.003],[74.113,34.004],[73.95,34.019],[73.922,34.043],[73.904,34.076],[73.904,34.108],[73.938,34.145],[73.979,34.191],[73.972,34.237],[73.925,34.288],[73.81,34.325],[73.795,34.378],[73.812,34.422],[73.85,34.485],[73.883,34.529],[73.961,34.653],[74.056,34.681],[74.172,34.721],[74.3,34.765],[74.498,34.732],[74.594,34.716],[74.789,34.678],[74.952,34.646],[75.118,34.637],[75.188,34.639],[75.264,34.601],[75.453,34.537],[75.606,34.503],[75.709,34.503],[75.862,34.56],[75.938,34.613],[76.041,34.67],[76.172,34.668],[76.457,34.756],[76.51,34.741],[76.594,34.736],[76.696,34.787],[76.749,34.848],[76.758,34.878],[76.783,34.9],[76.892,34.939],[77.001,34.992],[77.031,35.062],[77.049,35.11],[77.169,35.172],[77.293,35.236],[77.423,35.303],[77.572,35.379],[77.697,35.443],[77.799,35.496],[77.803,35.493],[77.811,35.485],[77.852,35.461],[77.895,35.449],[77.946,35.472],[78.009,35.49],[78.043,35.48],[78.047,35.449],[78.009,35.307],[78.012,35.251],[78.076,35.135],[78.158,34.946],[78.236,34.77],[78.282,34.654],[78.327,34.606],[78.516,34.558],[78.671,34.518],[78.763,34.453],[78.865,34.39],[78.936,34.352],[78.97,34.303],[78.977,34.258],[78.971,34.228],[78.932,34.189],[78.753,34.088],[78.732,34.056],[78.727,34.013],[78.762,33.888],[78.784,33.809],[78.79,33.65],[78.802,33.5],[78.865,33.431],[78.917,33.387],[78.948,33.347],[79.013,33.291],[79.067,33.25],[79.112,33.226],[79.135,33.172],[79.122,33.108],[79.103,33.053],[79.109,33.023],[79.146,33.001],[79.202,32.946],[79.21,32.865],[79.206,32.809],[79.228,32.759],[79.234,32.703],[79.217,32.564],[79.219,32.508],[79.219,32.501],[79.17,32.497],[79.127,32.476],[79.067,32.388],[78.998,32.365],[78.919,32.358],[78.838,32.412],[78.771,32.468],[78.754,32.499],[78.737,32.558],[78.701,32.597],[78.632,32.579],[78.526,32.571],[78.412,32.558],[78.392,32.545],[78.39,32.52],[78.417,32.467],[78.441,32.397],[78.455,32.3],[78.486,32.236],[78.496,32.216],[78.678,32.023],[78.726,31.984],[78.735,31.958],[78.72,31.888],[78.687,31.806],[78.693,31.74],[78.754,31.668],[78.803,31.618],[78.755,31.55],[78.727,31.472],[78.759,31.437],[78.744,31.324],[78.758,31.302],[78.792,31.294],[78.845,31.302],[78.9,31.331],[78.946,31.337],[78.974,31.329],[79.011,31.414],[79.044,31.426],[79.107,31.403],[79.233,31.242],[79.339,31.106],[79.37,31.08],[79.388,31.064],[79.493,30.994],[79.565,30.949],[79.664,30.965],[79.795,30.968],[79.872,30.925],[79.917,30.894],[79.919,30.89],[79.925,30.889],[80.081,30.782],[80.149,30.79],[80.194,30.759],[80.207,30.684],[80.186,30.605],[80.191,30.568],[80.261,30.561],[80.41,30.509],[80.541,30.464],[80.609,30.449],[80.682,30.415],[80.747,30.36],[80.874,30.291],[80.985,30.237],[81.01,30.165],[80.966,30.18],[80.908,30.172],[80.848,30.14],[80.82,30.119],[80.684,29.994],[80.613,29.956],[80.549,29.9],[80.402,29.73],[80.317,29.572],[80.255,29.423],[80.256,29.318],[80.233,29.195],[80.17,29.124],[80.13,29.1],[80.085,28.994],[80.052,28.87],[80.071,28.83],[80.15,28.776],[80.227,28.723],[80.325,28.666],[80.419,28.612],[80.479,28.605],[80.496,28.636],[80.518,28.665],[80.587,28.65],[80.671,28.596],[80.726,28.554],[80.751,28.54],[80.896,28.469],[81.017,28.41],[81.169,28.335],[81.206,28.289],[81.239,28.241],[81.311,28.176],[81.486,28.062],[81.636,27.98],[81.757,27.914],[81.853,27.867],[81.897,27.874],[81.945,27.899],[81.988,27.914],[82.037,27.901],[82.112,27.865],[82.288,27.757],[82.451,27.672],[82.63,27.687],[82.677,27.673],[82.711,27.597],[82.733,27.519],[82.933,27.468],[83.064,27.445],[83.214,27.402],[83.29,27.371],[83.369,27.41],[83.384,27.445],[83.447,27.465],[83.552,27.456],[83.747,27.396],[83.829,27.378],[83.897,27.435],[84.025,27.462],[84.091,27.491],[84.23,27.428],[84.481,27.348],[84.61,27.299],[84.641,27.25],[84.655,27.204],[84.654,27.092],[84.685,27.041],[84.937,26.927],[85.02,26.879],[85.087,26.863],[85.125,26.861],[85.152,26.847],[85.174,26.782],[85.192,26.767],[85.24,26.75],[85.293,26.741],[85.456,26.797],[85.568,26.84],[85.648,26.829],[85.7,26.782],[85.707,26.713],[85.737,26.64],[85.795,26.604],[85.856,26.6],[86.007,26.649],[86.129,26.612],[86.242,26.598],[86.366,26.574],[86.414,26.556],[86.544,26.496],[86.701,26.435],[86.763,26.442],[87.016,26.555],[87.038,26.542],[87.09,26.433],[87.167,26.394],[87.287,26.36],[87.414,26.423],[87.513,26.405],[87.633,26.399],[87.749,26.429],[87.849,26.437],[87.995,26.382],[88.027,26.395],[88.055,26.43],[88.112,26.586],[88.162,26.725],[88.157,26.807],[88.111,26.928],[87.993,27.086],[87.984,27.134],[88.024,27.409],[88.068,27.567],[88.106,27.642],[88.147,27.749],[88.154,27.799],[88.15,27.843],[88.11,27.871],[88.099,27.905],[88.109,27.933],[88.141,27.949],[88.275,27.969],[88.426,28.012],[88.486,28.034],[88.532,28.057],[88.578,28.093],[88.621,28.092],[88.756,28.04],[88.804,28.007],[88.829,27.907],[88.849,27.869],[88.83,27.767],[88.749,27.522],[88.765,27.43],[88.833,27.363],[88.891,27.316],[88.882,27.297],[88.76,27.218],[88.739,27.176],[88.766,27.134],[88.814,27.099],[88.835,27.066],[88.858,26.961],[88.919,26.932],[89.041,26.865],[89.148,26.816],[89.332,26.849],[89.384,26.827],[89.475,26.803],[89.545,26.796],[89.586,26.779],[89.609,26.762],[89.606,26.741],[89.61,26.719],[89.711,26.714],[89.764,26.702],[89.943,26.724],[90.123,26.755],[90.206,26.848],[90.242,26.854],[90.346,26.89],[90.448,26.851],[90.56,26.797],[90.62,26.78],[90.74,26.772],[90.856,26.778],[91.134,26.803],[91.287,26.79],[91.427,26.867],[91.456,26.867],[91.518,26.807],[91.672,26.802],[91.754,26.831],[91.842,26.853],[91.899,26.86],[91.944,26.861],[91.998,26.855],[92.05,26.875],[92.073,26.915],[92.068,26.975],[92.031,27.041],[91.999,27.079],[91.992,27.1],[92.003,27.147],[92.031,27.214],[92.083,27.291],[92.045,27.365],[91.991,27.45],[91.951,27.458],[91.851,27.439],[91.743,27.443],[91.658,27.494],[91.595,27.558],[91.579,27.611],[91.598,27.677],[91.626,27.737],[91.632,27.76],[91.713,27.76],[91.825,27.746],[91.909,27.73],[91.978,27.73],[92.101,27.808],[92.158,27.812],[92.222,27.827],[92.25,27.842],[92.27,27.83],[92.341,27.821],[92.415,27.825],[92.481,27.846],[92.547,27.879],[92.664,27.949],[92.688,27.989],[92.688,28.026],[92.666,28.05],[92.643,28.062],[92.653,28.093],[92.702,28.147],[92.882,28.228],[93.035,28.328],[93.119,28.402],[93.158,28.493],[93.207,28.591],[93.252,28.629],[93.361,28.654],[93.665,28.69],[93.761,28.73],[93.902,28.803],[93.974,28.861],[94.013,28.908],[94.018,28.96],[94.112,28.976],[94.193,29.06],[94.293,29.145],[94.468,29.216],[94.623,29.312],[94.677,29.297],[94.733,29.252],[94.763,29.201],[94.769,29.176],[94.967,29.144],[94.999,29.149],[95.145,29.104],[95.279,29.05],[95.353,29.036],[95.389,29.037],[95.42,29.054],[95.457,29.102],[95.494,29.137],[95.517,29.151],[95.516,29.206],[95.71,29.314],[95.885,29.391],[96.035,29.447],[96.08,29.424],[96.129,29.381],[96.195,29.272],[96.235,29.246],[96.337,29.261],[96.356,29.249],[96.34,29.21],[96.271,29.161],[96.181,29.118],[96.122,29.082],[96.141,28.963],[96.137,28.923],[96.162,28.91],[96.347,29.027],[96.436,29.051],[96.467,29.022],[96.477,28.959],[96.55,28.83],[96.581,28.764],[96.396,28.607],[96.327,28.525],[96.33,28.497],[96.326,28.469],[96.279,28.428],[96.281,28.412],[96.32,28.387],[96.366,28.367],[96.389,28.368],[96.428,28.406],[96.603,28.46],[96.653,28.45],[96.776,28.367],[96.833,28.362],[96.981,28.338],[97.075,28.369],[97.145,28.34],[97.289,28.237],[97.322,28.218],[97.31,28.155],[97.303,28.086],[97.339,28.031],[97.344,27.982],[97.335,27.938],[97.306,27.907],[97.226,27.89],[97.158,27.837],[97.05,27.76],[96.963,27.698],[96.9,27.644],[96.877,27.587],[96.884,27.515],[96.902,27.44],[97.104,27.163],[97.102,27.115],[97.038,27.102],[96.953,27.133],[96.88,27.178],[96.798,27.296],[96.732,27.331],[96.666,27.339],[96.274,27.278],[96.191,27.261],[96.061,27.217],[95.971,27.128],[95.905,27.047],[95.837,27.014],[95.738,26.95],[95.464,26.756],[95.305,26.672],[95.201,26.641],[95.129,26.597],[95.089,26.525],[95.06,26.474],[95.051,26.347],[95.069,26.191],[95.108,26.091],[95.129,26.07],[95.132,26.041],[95.093,25.987],[95.041,25.941],[95.015,25.913],[94.992,25.77],[94.946,25.7],[94.861,25.597],[94.786,25.519],[94.668,25.459],[94.623,25.41],[94.58,25.32],[94.554,25.243],[94.553,25.216],[94.567,25.192],[94.616,25.165],[94.675,25.139],[94.704,25.098],[94.708,25.049],[94.663,24.931],[94.584,24.767],[94.493,24.638],[94.399,24.514],[94.377,24.474],[94.293,24.322],[94.22,24.113],[94.17,23.973],[94.128,23.876],[94.075,23.872],[94.011,23.903],[93.855,23.944],[93.756,23.977],[93.683,24.007],[93.633,24.005],[93.564,23.986],[93.494,23.973],[93.452,23.987],[93.356,24.074],[93.326,24.064],[93.307,24.022],[93.373,23.774],[93.415,23.682],[93.408,23.528],[93.391,23.339],[93.366,23.133],[93.349,23.085],[93.308,23.03],[93.254,23.015],[93.204,23.037],[93.164,23.032],[93.151,22.997],[93.162,22.908],[93.114,22.806],[93.079,22.718],[93.088,22.633],[93.105,22.547],[93.162,22.36],[93.162,22.292],[93.151,22.231],[93.121,22.205],[93.071,22.209],[93.043,22.184],[93.022,22.146],[92.965,22.004],[92.909,21.989],[92.854,22.01],[92.771,22.105],[92.721,22.132],[92.689,22.131],[92.675,22.106],[92.653,22.049],[92.63,22.011],[92.575,21.978],[92.561,22.048],[92.532,22.41],[92.51,22.526],[92.491,22.685],[92.464,22.734],[92.43,22.822],[92.393,22.897],[92.362,22.929],[92.341,23.07],[92.334,23.242],[92.334,23.324],[92.289,23.492],[92.246,23.684],[92.187,23.676],[92.152,23.722],[92.127,23.721],[92.044,23.678],[91.979,23.692],[91.93,23.686],[91.929,23.598],[91.938,23.505],[91.919,23.471],[91.79,23.361],[91.754,23.287],[91.758,23.21],[91.774,23.106],[91.751,23.054],[91.695,23.005],[91.62,22.98],[91.554,22.992],[91.511,23.034],[91.471,23.141],[91.436,23.2],[91.399,23.214],[91.371,23.198],[91.367,23.13],[91.369,23.075],[91.359,23.068],[91.339,23.077],[91.315,23.104],[91.254,23.374],[91.166,23.581],[91.16,23.661],[91.192,23.763],[91.232,23.92],[91.336,24.019],[91.35,24.06],[91.367,24.094],[91.393,24.1],[91.526,24.091],[91.571,24.107],[91.611,24.153],[91.669,24.19],[91.727,24.205],[91.772,24.211],[91.846,24.175],[91.877,24.195],[91.899,24.261],[91.931,24.326],[91.952,24.357],[92.001,24.371],[92.064,24.374],[92.085,24.386],[92.102,24.408],[92.117,24.494],[92.198,24.686],[92.227,24.771],[92.231,24.786],[92.228,24.881],[92.251,24.895],[92.385,24.849],[92.443,24.849],[92.475,24.869],[92.485,24.903],[92.468,24.944],[92.373,25.015],[92.205,25.111],[92.05,25.169],[91.763,25.161],[91.48,25.142],[91.397,25.152],[91.293,25.178],[91.038,25.174],[90.73,25.159],[90.613,25.168],[90.555,25.167],[90.439,25.158],[90.25,25.185],[90.12,25.22],[90.004,25.258],[89.866,25.293],[89.833,25.293],[89.814,25.305],[89.801,25.336],[89.796,25.376],[89.825,25.56],[89.8,25.84],[89.823,25.941],[89.71,26.171],[89.671,26.214],[89.619,26.216],[89.586,26.186],[89.573,26.132],[89.591,26.072],[89.55,26.005],[89.467,25.984],[89.37,26.006],[89.289,26.038],[89.186,26.106],[89.108,26.202],[89.102,26.308],[89.067,26.377],[89.019,26.41],[88.983,26.42],[88.952,26.412],[88.924,26.375],[88.948,26.338],[88.982,26.286],[88.97,26.251],[88.941,26.245],[88.896,26.26],[88.828,26.252],[88.762,26.279],[88.722,26.282],[88.683,26.292],[88.681,26.353],[88.62,26.431],[88.518,26.518],[88.418,26.572],[88.37,26.564],[88.346,26.505],[88.351,26.483],[88.386,26.472],[88.437,26.437],[88.448,26.401],[88.44,26.369],[88.378,26.312],[88.334,26.258],[88.235,26.178],[88.151,26.087],[88.129,26.018],[88.097,25.956],[88.085,25.888],[88.107,25.841],[88.147,25.811],[88.253,25.79],[88.363,25.698],[88.452,25.574],[88.502,25.537],[88.593,25.495],[88.769,25.49],[88.795,25.456],[88.82,25.366],[88.855,25.334],[88.944,25.291],[88.952,25.259],[88.93,25.223],[88.89,25.194],[88.817,25.176],[88.748,25.169],[88.678,25.18],[88.574,25.188],[88.456,25.188],[88.373,24.962],[88.313,24.882],[88.279,24.882],[88.189,24.921],[88.15,24.915],[88.045,24.713],[88.03,24.664],[88.023,24.628],[88.079,24.55],[88.146,24.486],[88.225,24.461],[88.287,24.48],[88.338,24.454],[88.397,24.389],[88.499,24.347],[88.642,24.326],[88.724,24.275],[88.734,24.231],[88.727,24.186],[88.714,24.07],[88.7,24.003],[88.623,23.826],[88.567,23.674],[88.596,23.602],[88.616,23.573],[88.636,23.55],[88.698,23.493],[88.741,23.437],[88.704,23.293],[88.724,23.255],[88.808,23.23],[88.897,23.21],[88.928,23.187],[88.851,23.041],[88.867,22.939],[88.9,22.844],[88.923,22.688],[88.927,22.671],[88.921,22.632],[88.971,22.511],[89.05,22.275],[89.056,22.186],[89.051,22.093],[89.028,21.937],[88.949,21.938],[89.02,21.834],[89.042,21.759],[89.052,21.654],[88.967,21.641],[88.907,21.653],[88.858,21.745],[88.834,21.661],[88.745,21.584],[88.713,21.622],[88.695,21.662],[88.691,21.733],[88.74,22.005],[88.73,22.036],[88.708,22.056],[88.66,22.067],[88.642,22.122],[88.567,21.832],[88.6,21.714],[88.585,21.66],[88.446,21.614],[88.305,21.723],[88.287,21.758],[88.279,21.697],[88.254,21.622],[88.122,21.636],[88.057,21.694],[88.099,21.794],[88.181,22.033],[88.196,22.14],[88.087,22.218],[87.994,22.266],[87.941,22.374],[87.962,22.255],[88.011,22.213],[88.083,22.183],[88.159,22.122],[88.104,22.047],[88.051,22.001],[87.948,21.825],[87.824,21.727],[87.678,21.654],[87.201,21.545],[87.101,21.501],[86.954,21.365],[86.86,21.237],[86.842,21.106],[86.896,20.966],[86.939,20.745],[86.975,20.7],[86.925,20.62],[86.836,20.534],[86.763,20.419],[86.769,20.356],[86.75,20.313],[86.499,20.172],[86.446,20.089],[86.377,20.007],[86.294,20.054],[86.245,20.053],[86.312,19.988],[86.303,19.945],[86.279,19.919],[86.216,19.896],[85.853,19.792],[85.575,19.693],[85.497,19.697],[85.511,19.727],[85.56,19.753],[85.555,19.867],[85.504,19.888],[85.46,19.896],[85.249,19.758],[85.163,19.621],[85.181,19.595],[85.229,19.601],[85.371,19.679],[85.437,19.657],[85.442,19.627],[85.226,19.508],[84.771,19.125],[84.75,19.05],[84.691,18.965],[84.609,18.884],[84.463,18.69],[84.182,18.401],[84.104,18.293],[83.654,18.07],[83.572,18.004],[83.388,17.787],[83.198,17.609],[82.977,17.462],[82.593,17.274],[82.36,17.096],[82.287,16.978],[82.282,16.936],[82.307,16.879],[82.35,16.825],[82.36,16.783],[82.339,16.707],[82.327,16.664],[82.259,16.56],[82.142,16.485],[81.762,16.329],[81.712,16.334],[81.402,16.365],[81.286,16.337],[81.239,16.264],[81.132,15.962],[81.03,15.881],[80.993,15.809],[80.979,15.758],[80.918,15.76],[80.865,15.782],[80.826,15.766],[80.782,15.867],[80.708,15.888],[80.647,15.895],[80.385,15.793],[80.293,15.711],[80.101,15.324],[80.053,15.074],[80.099,14.798],[80.165,14.578],[80.179,14.478],[80.17,14.349],[80.136,14.287],[80.112,14.212],[80.144,14.059],[80.224,13.858],[80.244,13.773],[80.246,13.686],[80.307,13.485],[80.266,13.521],[80.233,13.606],[80.156,13.714],[80.062,13.606],[80.114,13.529],[80.29,13.437],[80.342,13.361],[80.229,12.69],[80.143,12.452],[80.037,12.296],[79.982,12.235],[79.858,11.989],[79.771,11.69],[79.754,11.575],[79.793,11.447],[79.749,11.371],[79.693,11.313],[79.799,11.339],[79.835,11.269],[79.849,11.197],[79.85,10.769],[79.838,10.323],[79.757,10.304],[79.667,10.3],[79.589,10.312],[79.532,10.33],[79.391,10.306],[79.315,10.257],[79.254,10.175],[79.258,10.035],[78.996,9.683],[78.94,9.566],[78.919,9.453],[78.953,9.394],[79.02,9.333],[79.107,9.309],[79.275,9.285],[79.356,9.252],[79.411,9.192],[79.213,9.256],[78.98,9.269],[78.421,9.105],[78.275,8.99],[78.192,8.891],[78.136,8.663],[78.126,8.511],[78.06,8.385],[77.77,8.19],[77.587,8.13],[77.518,8.078],[77.301,8.145],[77.066,8.316],[76.967,8.407],[76.617,8.847],[76.553,8.903],[76.483,9.091],[76.472,9.161],[76.452,9.189],[76.419,9.208],[76.403,9.237],[76.325,9.452],[76.292,9.676],[76.242,9.927],[76.285,9.91],[76.343,9.827],[76.372,9.707],[76.376,9.54],[76.42,9.52],[76.459,9.536],[76.346,9.922],[76.249,10.018],[76.223,10.024],[76.196,10.086],[76.193,10.164],[76.201,10.201],[76.123,10.327],[76.096,10.402],[75.923,10.784],[75.845,11.058],[75.724,11.362],[75.646,11.468],[75.525,11.703],[75.423,11.812],[75.315,11.958],[75.23,12.023],[75.197,12.058],[74.946,12.565],[74.868,12.845],[74.803,12.977],[74.771,13.077],[74.682,13.507],[74.682,13.584],[74.671,13.668],[74.608,13.85],[74.499,14.046],[74.467,14.169],[74.467,14.217],[74.397,14.407],[74.382,14.495],[74.335,14.575],[74.28,14.65],[74.223,14.709],[74.089,14.902],[74.041,14.949],[73.949,15.075],[73.884,15.306],[73.801,15.397],[73.932,15.397],[73.852,15.482],[73.814,15.539],[73.772,15.573],[73.833,15.659],[73.733,15.657],[73.68,15.709],[73.608,15.871],[73.476,16.054],[73.454,16.152],[73.338,16.46],[73.239,17.199],[73.149,17.527],[73.156,17.622],[73.047,17.907],[72.994,18.098],[72.972,18.259],[72.943,18.366],[72.917,18.576],[72.875,18.643],[72.871,18.683],[72.899,18.779],[72.977,18.927],[73.006,19.021],[72.972,19.153],[72.901,19.015],[72.835,18.976],[72.803,19.079],[72.803,19.219],[72.795,19.252],[72.812,19.299],[72.987,19.277],[72.788,19.363],[72.764,19.413],[72.756,19.451],[72.799,19.52],[72.727,19.578],[72.697,19.757],[72.676,19.798],[72.668,19.831],[72.709,20.078],[72.881,20.563],[72.894,20.673],[72.879,20.829],[72.841,20.952],[72.824,21.084],[72.814,21.117],[72.752,21.129],[72.692,21.178],[72.624,21.372],[72.687,21.436],[72.735,21.471],[72.668,21.456],[72.613,21.462],[72.718,21.551],[72.811,21.62],[73.022,21.7],[73.112,21.75],[72.979,21.705],[72.84,21.687],[72.543,21.697],[72.592,21.878],[72.644,21.938],[72.7,21.972],[72.617,21.962],[72.522,21.976],[72.553,22.16],[72.628,22.2],[72.709,22.207],[72.809,22.233],[72.702,22.264],[72.59,22.278],[72.456,22.248],[72.333,22.27],[72.183,22.27],[72.243,22.245],[72.306,22.189],[72.274,22.09],[72.244,22.028],[72.162,21.985],[72.094,21.92],[72.076,21.863],[72.037,21.823],[72.103,21.795],[72.171,21.774],[72.21,21.728],[72.257,21.661],[72.254,21.531],[72.077,21.224],[72.015,21.156],[71.571,20.971],[71.396,20.87],[71.025,20.739],[70.88,20.715],[70.719,20.74],[70.485,20.84],[70.127,21.095],[70.034,21.179],[69.748,21.506],[69.542,21.679],[69.385,21.84],[69.192,21.992],[69.009,22.197],[68.97,22.29],[68.983,22.385],[69.052,22.437],[69.131,22.416],[69.194,22.336],[69.239,22.3],[69.277,22.285],[69.549,22.408],[69.655,22.404],[69.728,22.465],[69.819,22.452],[70.006,22.548],[70.084,22.554],[70.177,22.573],[70.328,22.816],[70.44,22.97],[70.513,23.002],[70.509,23.04],[70.489,23.09],[70.435,23.077],[70.396,23.03],[70.368,22.973],[70.339,22.94],[70.251,22.971],[70.192,22.966],[70.118,22.947],[69.85,22.856],[69.74,22.775],[69.665,22.759],[69.236,22.849],[68.817,23.054],[68.641,23.19],[68.529,23.364],[68.417,23.571],[68.454,23.629],[68.627,23.754],[68.777,23.852],[68.642,23.808],[68.497,23.748],[68.425,23.706],[68.343,23.617],[68.235,23.597],[68.192,23.729],[68.165,23.857]]],[[[93.89,6.831],[93.829,6.749],[93.709,7.001],[93.658,7.016],[93.656,7.136],[93.684,7.184],[93.822,7.237],[93.859,7.207],[93.93,6.973],[93.89,6.831]]],[[[93.734,7.356],[93.638,7.262],[93.597,7.319],[93.614,7.358],[93.655,7.38],[93.692,7.411],[93.734,7.356]]],[[[93.141,8.25],[93.171,8.212],[93.115,8.219],[93.064,8.275],[93.078,8.328],[93.097,8.349],[93.141,8.25]]],[[[93.443,7.878],[93.365,7.877],[93.342,7.919],[93.309,7.964],[93.334,8.007],[93.375,8.018],[93.434,7.948],[93.447,7.899],[93.443,7.878]]],[[[93.537,8.057],[93.49,8.019],[93.478,8.024],[93.472,8.053],[93.47,8.073],[93.461,8.109],[93.456,8.172],[93.494,8.225],[93.532,8.214],[93.512,8.16],[93.537,8.057]]],[[[92.787,9.137],[92.744,9.131],[92.717,9.165],[92.713,9.205],[92.739,9.231],[92.762,9.244],[92.786,9.241],[92.809,9.173],[92.787,9.137]]],[[[92.503,10.555],[92.473,10.521],[92.37,10.547],[92.377,10.651],[92.353,10.751],[92.371,10.794],[92.448,10.866],[92.51,10.897],[92.554,10.8],[92.574,10.704],[92.503,10.555]]],[[[92.693,11.381],[92.645,11.361],[92.596,11.386],[92.634,11.427],[92.64,11.509],[92.69,11.463],[92.687,11.411],[92.693,11.381]]],[[[92.723,11.536],[92.701,11.513],[92.668,11.539],[92.576,11.718],[92.56,11.833],[92.534,11.873],[92.567,11.931],[92.608,11.95],[92.632,12.014],[92.641,12.112],[92.676,12.192],[92.695,12.215],[92.769,12.216],[92.788,12.226],[92.778,12.303],[92.734,12.336],[92.719,12.357],[92.721,12.541],[92.732,12.616],[92.759,12.669],[92.74,12.78],[92.753,12.821],[92.807,12.879],[92.831,13.003],[92.809,13.04],[92.86,13.231],[92.857,13.358],[92.925,13.486],[93.029,13.544],[93.062,13.545],[93.067,13.436],[93.077,13.401],[93.016,13.336],[93.074,13.252],[93.066,13.222],[93.043,13.155],[93.005,13.089],[92.951,13.063],[92.91,12.975],[92.886,12.942],[92.965,12.85],[92.99,12.539],[92.933,12.453],[92.864,12.436],[92.879,12.228],[92.867,12.181],[92.799,12.079],[92.786,12.035],[92.748,11.993],[92.764,11.94],[92.797,11.918],[92.798,11.875],[92.767,11.765],[92.765,11.639],[92.723,11.536]]],[[[93.017,12.037],[93.062,11.899],[92.982,11.959],[92.955,12.002],[92.996,12.032],[93.017,12.037]]],[[[92.718,12.865],[92.686,12.8],[92.68,12.939],[92.694,12.957],[92.711,12.962],[92.731,12.949],[92.718,12.865]]],[[[72.78,11.202],[72.773,11.196],[72.772,11.214],[72.782,11.243],[72.793,11.263],[72.796,11.26],[72.793,11.242],[72.788,11.216],[72.78,11.202]]],[[[73.067,8.269],[73.053,8.257],[73.039,8.252],[73.029,8.254],[73.023,8.266],[73.026,8.275],[73.039,8.265],[73.056,8.275],[73.075,8.306],[73.079,8.317],[73.084,8.311],[73.08,8.293],[73.067,8.269]]]]}},{"type":"Feature","properties":{"id":"CHN","name":"People's Republic of China","nameBn":"গণচীন","continent":"Asia"},"geometry":{"type":"MultiPolygon","coordinates":[[[[118.183,24.496],[118.15,24.436],[118.091,24.446],[118.089,24.489],[118.077,24.501],[118.093,24.541],[118.104,24.552],[118.171,24.519],[118.183,24.496]]],[[[121.863,31.492],[121.78,31.464],[121.52,31.55],[121.336,31.644],[121.227,31.758],[121.211,31.805],[121.339,31.797],[121.464,31.756],[121.492,31.694],[121.542,31.674],[121.577,31.637],[121.808,31.552],[121.844,31.526],[121.863,31.492]]],[[[122.296,29.963],[122.282,29.944],[122.158,30.001],[122.024,30.013],[121.978,30.064],[121.969,30.143],[122.111,30.14],[122.284,30.068],[122.322,30.031],[122.296,29.963]]],[[[122.173,29.679],[122.169,29.66],[122.084,29.725],[122.043,29.736],[122.062,29.773],[122.12,29.782],[122.165,29.701],[122.173,29.679]]],[[[122.404,29.892],[122.394,29.846],[122.368,29.853],[122.332,29.935],[122.351,29.955],[122.402,29.95],[122.404,29.892]]],[[[119.821,25.457],[119.747,25.411],[119.7,25.433],[119.699,25.495],[119.723,25.551],[119.696,25.591],[119.723,25.639],[119.778,25.653],[119.797,25.623],[119.829,25.607],[119.838,25.591],[119.839,25.56],[119.809,25.508],[119.832,25.48],[119.821,25.457]]],[[[110.385,21.093],[110.422,21.059],[110.522,21.083],[110.54,21.039],[110.539,21.018],[110.504,20.968],[110.422,21.007],[110.34,20.998],[110.281,21.001],[110.265,21.025],[110.31,21.075],[110.385,21.093]]],[[[121.251,28.086],[121.164,28.063],[121.132,28.063],[121.134,28.135],[121.205,28.204],[121.234,28.181],[121.251,28.145],[121.251,28.086]]],[[[113.555,22.804],[113.564,22.758],[113.486,22.828],[113.463,22.832],[113.426,22.859],[113.404,22.903],[113.465,22.905],[113.521,22.852],[113.555,22.804]]],[[[112.79,21.602],[112.771,21.582],[112.742,21.618],[112.733,21.67],[112.713,21.698],[112.761,21.733],[112.782,21.772],[112.839,21.765],[112.863,21.753],[112.813,21.712],[112.801,21.695],[112.79,21.602]]],[[[112.644,21.64],[112.546,21.619],[112.525,21.623],[112.559,21.675],[112.648,21.71],[112.644,21.64]]],[[[107.973,21.508],[107.908,21.56],[107.802,21.645],[107.759,21.655],[107.641,21.614],[107.471,21.598],[107.433,21.642],[107.351,21.609],[107.272,21.711],[107.179,21.717],[107.062,21.794],[107.02,21.835],[107.006,21.893],[106.971,21.924],[106.925,21.92],[106.875,21.951],[106.794,21.982],[106.729,22],[106.698,21.986],[106.664,21.979],[106.658,22.018],[106.66,22.136],[106.654,22.241],[106.637,22.289],[106.593,22.325],[106.554,22.342],[106.536,22.395],[106.55,22.501],[106.582,22.573],[106.633,22.586],[106.702,22.638],[106.736,22.711],[106.78,22.779],[106.624,22.874],[106.542,22.908],[106.451,22.894],[106.338,22.863],[106.279,22.857],[106.249,22.869],[106.184,22.955],[106.148,22.97],[106.068,22.976],[106.001,22.975],[105.962,22.937],[105.903,22.925],[105.843,22.923],[105.782,22.969],[105.691,23.03],[105.548,23.073],[105.531,23.122],[105.495,23.181],[105.44,23.235],[105.35,23.308],[105.275,23.345],[105.239,23.322],[105.189,23.281],[104.996,23.194],[104.91,23.161],[104.865,23.136],[104.827,23.1],[104.815,23.011],[104.796,22.911],[104.74,22.86],[104.687,22.822],[104.632,22.818],[104.578,22.82],[104.527,22.804],[104.372,22.704],[104.298,22.712],[104.238,22.769],[104.213,22.809],[104.143,22.8],[104.054,22.752],[104.013,22.666],[103.991,22.586],[103.971,22.55],[103.942,22.54],[103.915,22.538],[103.637,22.77],[103.62,22.782],[103.571,22.734],[103.525,22.612],[103.493,22.588],[103.471,22.597],[103.356,22.755],[103.327,22.77],[103.301,22.764],[103.266,22.714],[103.193,22.639],[103.138,22.593],[103.136,22.542],[103.076,22.498],[103.005,22.453],[102.982,22.448],[102.935,22.466],[102.874,22.525],[102.83,22.587],[102.721,22.648],[102.599,22.7],[102.517,22.741],[102.471,22.751],[102.428,22.733],[102.406,22.708],[102.376,22.647],[102.302,22.546],[102.237,22.466],[102.176,22.415],[102.127,22.379],[102.092,22.412],[102.024,22.439],[101.945,22.439],[101.842,22.388],[101.76,22.49],[101.739,22.495],[101.708,22.487],[101.671,22.462],[101.646,22.405],[101.62,22.327],[101.568,22.276],[101.525,22.254],[101.537,22.21],[101.562,22.162],[101.56,22.121],[101.576,22.055],[101.603,21.99],[101.7,21.882],[101.737,21.827],[101.744,21.778],[101.747,21.606],[101.743,21.534],[101.724,21.395],[101.723,21.315],[101.763,21.279],[101.802,21.236],[101.801,21.213],[101.783,21.204],[101.728,21.156],[101.705,21.15],[101.669,21.17],[101.622,21.184],[101.584,21.204],[101.542,21.234],[101.444,21.231],[101.281,21.184],[101.248,21.197],[101.224,21.224],[101.212,21.278],[101.22,21.342],[101.206,21.383],[101.175,21.408],[101.197,21.522],[101.139,21.567],[101.147,21.582],[101.128,21.705],[101.131,21.736],[101.121,21.746],[101.08,21.756],[101.019,21.736],[100.835,21.655],[100.677,21.505],[100.605,21.472],[100.531,21.458],[100.446,21.484],[100.351,21.501],[100.215,21.463],[100.148,21.481],[100.117,21.511],[100.089,21.558],[100.106,21.617],[100.096,21.661],[100.041,21.683],[99.978,21.702],[99.941,21.759],[99.926,21.821],[99.94,21.902],[99.948,21.988],[99.918,22.028],[99.825,22.05],[99.593,22.089],[99.389,22.111],[99.303,22.101],[99.233,22.11],[99.193,22.126],[99.173,22.153],[99.172,22.192],[99.205,22.283],[99.243,22.37],[99.338,22.498],[99.343,22.587],[99.338,22.689],[99.385,22.825],[99.467,22.927],[99.507,22.959],[99.497,23.005],[99.465,23.046],[99.418,23.069],[99.341,23.096],[99.22,23.103],[99.055,23.131],[98.864,23.191],[98.886,23.307],[98.883,23.38],[98.859,23.44],[98.82,23.483],[98.798,23.52],[98.832,23.624],[98.788,23.738],[98.735,23.783],[98.681,23.842],[98.677,23.905],[98.702,23.964],[98.834,24.091],[98.835,24.121],[98.802,24.119],[98.764,24.116],[98.583,24.07],[98.564,24.099],[98.499,24.116],[98.367,24.119],[98.213,24.111],[98.017,24.065],[97.838,23.986],[97.756,23.932],[97.686,23.898],[97.63,23.887],[97.565,23.911],[97.568,23.988],[97.691,24.131],[97.708,24.229],[97.671,24.313],[97.667,24.38],[97.624,24.423],[97.563,24.444],[97.531,24.492],[97.529,24.631],[97.583,24.775],[97.671,24.82],[97.724,24.842],[97.738,24.87],[97.711,24.97],[97.715,25.034],[97.767,25.158],[97.82,25.252],[97.918,25.236],[97.962,25.259],[98.011,25.293],[98.064,25.349],[98.1,25.416],[98.143,25.571],[98.173,25.595],[98.297,25.569],[98.334,25.587],[98.402,25.678],[98.466,25.789],[98.558,25.823],[98.625,25.827],[98.656,25.864],[98.655,25.918],[98.591,26.004],[98.564,26.072],[98.572,26.114],[98.663,26.139],[98.686,26.189],[98.672,26.299],[98.709,26.43],[98.732,26.583],[98.739,26.698],[98.738,26.786],[98.729,26.877],[98.717,27.045],[98.675,27.191],[98.682,27.245],[98.677,27.422],[98.651,27.572],[98.6,27.599],[98.504,27.648],[98.453,27.657],[98.409,27.639],[98.392,27.587],[98.35,27.538],[98.299,27.55],[98.274,27.599],[98.241,27.663],[98.13,27.968],[98.118,28.055],[98.099,28.142],[98.062,28.186],[98.022,28.212],[97.934,28.314],[97.888,28.356],[97.865,28.364],[97.817,28.356],[97.769,28.356],[97.73,28.407],[97.695,28.469],[97.659,28.5],[97.599,28.517],[97.538,28.51],[97.502,28.456],[97.478,28.426],[97.431,28.354],[97.356,28.254],[97.322,28.218],[97.289,28.237],[97.145,28.34],[97.075,28.369],[96.981,28.338],[96.833,28.362],[96.776,28.367],[96.653,28.45],[96.603,28.46],[96.428,28.406],[96.389,28.368],[96.366,28.367],[96.32,28.387],[96.281,28.412],[96.279,28.428],[96.326,28.469],[96.33,28.497],[96.327,28.525],[96.396,28.607],[96.581,28.764],[96.55,28.83],[96.477,28.959],[96.467,29.022],[96.436,29.051],[96.347,29.027],[96.162,28.91],[96.137,28.923],[96.141,28.963],[96.122,29.082],[96.181,29.118],[96.271,29.161],[96.34,29.21],[96.356,29.249],[96.337,29.261],[96.235,29.246],[96.195,29.272],[96.129,29.381],[96.08,29.424],[96.035,29.447],[95.885,29.391],[95.71,29.314],[95.516,29.206],[95.517,29.151],[95.494,29.137],[95.457,29.102],[95.42,29.054],[95.389,29.037],[95.353,29.036],[95.279,29.05],[95.145,29.104],[94.999,29.149],[94.967,29.144],[94.769,29.176],[94.763,29.201],[94.733,29.252],[94.677,29.297],[94.623,29.312],[94.468,29.216],[94.293,29.145],[94.193,29.06],[94.112,28.976],[94.018,28.96],[94.013,28.908],[93.974,28.861],[93.902,28.803],[93.761,28.73],[93.665,28.69],[93.361,28.654],[93.252,28.629],[93.207,28.591],[93.158,28.493],[93.119,28.402],[93.035,28.328],[92.882,28.228],[92.702,28.147],[92.653,28.093],[92.643,28.062],[92.666,28.05],[92.688,28.026],[92.688,27.989],[92.664,27.949],[92.547,27.879],[92.481,27.846],[92.415,27.825],[92.341,27.821],[92.27,27.83],[92.25,27.842],[92.222,27.827],[92.158,27.812],[92.101,27.808],[91.978,27.73],[91.909,27.73],[91.825,27.746],[91.713,27.76],[91.632,27.76],[91.629,27.801],[91.642,27.923],[91.606,27.952],[91.493,27.982],[91.368,28.022],[91.307,28.064],[91.273,28.078],[91.226,28.071],[91.15,28.027],[91.078,27.974],[91.021,27.97],[90.963,27.995],[90.907,28.027],[90.716,28.072],[90.63,28.079],[90.477,28.071],[90.353,28.08],[90.333,28.094],[90.334,28.119],[90.352,28.168],[90.363,28.217],[90.348,28.244],[90.221,28.278],[90.104,28.302],[89.981,28.311],[89.898,28.294],[89.817,28.256],[89.75,28.188],[89.653,28.158],[89.537,28.107],[89.481,28.06],[89.396,27.958],[89.273,27.833],[89.16,27.711],[89.102,27.593],[89.025,27.518],[88.948,27.464],[88.891,27.316],[88.833,27.363],[88.765,27.43],[88.749,27.522],[88.83,27.767],[88.849,27.869],[88.829,27.907],[88.804,28.007],[88.756,28.04],[88.621,28.092],[88.578,28.093],[88.532,28.057],[88.486,28.034],[88.426,28.012],[88.275,27.969],[88.141,27.949],[88.109,27.933],[88.099,27.905],[88.11,27.871],[88.023,27.883],[87.933,27.891],[87.861,27.886],[87.683,27.821],[87.623,27.815],[87.555,27.822],[87.464,27.824],[87.291,27.822],[87.141,27.838],[87.02,27.929],[86.934,27.968],[86.842,27.999],[86.75,28.022],[86.72,28.071],[86.691,28.095],[86.614,28.103],[86.554,28.085],[86.517,27.964],[86.485,27.94],[86.409,27.929],[86.329,27.96],[86.218,28.022],[86.174,28.092],[86.137,28.114],[86.079,28.084],[86.075,27.995],[86.064,27.935],[85.995,27.91],[85.954,27.928],[85.922,27.99],[85.84,28.135],[85.759,28.221],[85.678,28.277],[85.411,28.276],[85.212,28.293],[85.122,28.316],[85.089,28.372],[85.121,28.484],[85.16,28.572],[85.159,28.592],[85.126,28.603],[85.069,28.61],[84.855,28.554],[84.797,28.56],[84.759,28.579],[84.714,28.596],[84.677,28.622],[84.651,28.66],[84.465,28.753],[84.411,28.804],[84.312,28.868],[84.229,28.912],[84.176,29.036],[84.128,29.156],[84.101,29.22],[84.022,29.254],[83.936,29.279],[83.79,29.227],[83.671,29.188],[83.583,29.184],[83.457,29.306],[83.355,29.439],[83.235,29.555],[83.155,29.613],[83.014,29.618],[82.854,29.683],[82.641,29.831],[82.487,29.942],[82.221,30.064],[82.159,30.115],[82.135,30.159],[82.099,30.245],[82.043,30.327],[81.855,30.362],[81.642,30.387],[81.417,30.338],[81.255,30.093],[81.177,30.04],[81.11,30.037],[81.056,30.099],[81.01,30.165],[80.985,30.237],[80.874,30.291],[80.747,30.36],[80.682,30.415],[80.609,30.449],[80.541,30.464],[80.41,30.509],[80.261,30.561],[80.191,30.568],[80.186,30.605],[80.207,30.684],[80.194,30.759],[80.149,30.79],[80.081,30.782],[79.925,30.889],[79.919,30.89],[79.917,30.894],[79.872,30.925],[79.795,30.968],[79.664,30.965],[79.565,30.949],[79.493,30.994],[79.388,31.064],[79.37,31.08],[79.339,31.106],[79.233,31.242],[79.107,31.403],[79.044,31.426],[79.011,31.414],[78.974,31.329],[78.946,31.337],[78.9,31.331],[78.845,31.302],[78.792,31.294],[78.758,31.302],[78.744,31.324],[78.759,31.437],[78.727,31.472],[78.755,31.55],[78.803,31.618],[78.754,31.668],[78.693,31.74],[78.687,31.806],[78.72,31.888],[78.735,31.958],[78.726,31.984],[78.678,32.023],[78.496,32.216],[78.486,32.236],[78.455,32.3],[78.441,32.397],[78.417,32.467],[78.39,32.52],[78.392,32.545],[78.412,32.558],[78.526,32.571],[78.632,32.579],[78.701,32.597],[78.737,32.558],[78.754,32.499],[78.771,32.468],[78.838,32.412],[78.919,32.358],[78.998,32.365],[79.067,32.388],[79.127,32.476],[79.17,32.497],[79.219,32.501],[79.219,32.508],[79.217,32.564],[79.234,32.703],[79.228,32.759],[79.206,32.809],[79.21,32.865],[79.202,32.946],[79.146,33.001],[79.109,33.023],[79.103,33.053],[79.122,33.108],[79.135,33.172],[79.112,33.226],[79.067,33.25],[79.013,33.291],[78.948,33.347],[78.917,33.387],[78.865,33.431],[78.802,33.5],[78.79,33.65],[78.784,33.809],[78.762,33.888],[78.727,34.013],[78.732,34.056],[78.753,34.088],[78.932,34.189],[78.971,34.228],[78.977,34.258],[78.97,34.303],[78.936,34.352],[78.865,34.39],[78.763,34.453],[78.671,34.518],[78.516,34.558],[78.327,34.606],[78.282,34.654],[78.236,34.77],[78.158,34.946],[78.076,35.135],[78.012,35.251],[78.009,35.307],[78.047,35.449],[78.043,35.48],[78.009,35.49],[77.946,35.472],[77.895,35.449],[77.852,35.461],[77.811,35.485],[77.803,35.493],[77.799,35.496],[77.724,35.481],[77.573,35.472],[77.52,35.473],[77.446,35.476],[77.295,35.508],[77.09,35.552],[76.879,35.613],[76.767,35.662],[76.728,35.679],[76.632,35.729],[76.563,35.773],[76.551,35.887],[76.502,35.878],[76.386,35.837],[76.252,35.811],[76.178,35.811],[76.148,35.829],[76.103,35.949],[76.071,35.983],[76.01,35.996],[75.945,36.018],[75.912,36.049],[75.905,36.088],[75.934,36.134],[75.969,36.169],[75.974,36.382],[75.952,36.458],[75.933,36.522],[75.885,36.601],[75.84,36.65],[75.772,36.695],[75.667,36.742],[75.574,36.759],[75.46,36.725],[75.424,36.738],[75.377,36.884],[75.347,36.913],[75.145,36.973],[75.054,36.987],[74.949,36.968],[74.889,36.952],[74.841,36.979],[74.766,37.013],[74.692,37.036],[74.601,37.037],[74.541,37.022],[74.526,37.031],[74.498,37.057],[74.376,37.137],[74.372,37.158],[74.559,37.237],[74.669,37.267],[74.727,37.291],[74.739,37.286],[74.767,37.249],[74.84,37.225],[74.891,37.232],[74.918,37.25],[75.008,37.294],[75.079,37.344],[75.119,37.386],[75.097,37.451],[74.986,37.53],[74.916,37.573],[74.894,37.601],[74.912,37.687],[74.938,37.773],[74.921,37.805],[74.9,37.833],[74.891,37.926],[74.842,38.038],[74.79,38.104],[74.775,38.192],[74.772,38.275],[74.836,38.404],[74.812,38.46],[74.745,38.51],[74.514,38.6],[74.277,38.66],[74.187,38.658],[74.131,38.661],[74.065,38.608],[74.026,38.54],[73.97,38.534],[73.869,38.563],[73.802,38.607],[73.754,38.699],[73.717,38.817],[73.696,38.854],[73.707,38.886],[73.73,38.915],[73.795,38.941],[73.805,38.969],[73.796,39.002],[73.744,39.045],[73.69,39.105],[73.607,39.229],[73.623,39.298],[73.636,39.397],[73.632,39.449],[73.716,39.462],[73.823,39.489],[73.873,39.533],[73.907,39.579],[73.915,39.606],[73.883,39.715],[73.84,39.763],[73.835,39.8],[73.856,39.829],[73.885,39.878],[73.939,39.979],[73.992,40.043],[74.021,40.059],[74.085,40.074],[74.243,40.092],[74.412,40.137],[74.613,40.272],[74.68,40.311],[74.768,40.33],[74.83,40.329],[74.842,40.345],[74.801,40.429],[74.811,40.459],[74.835,40.483],[74.866,40.494],[75.004,40.45],[75.111,40.454],[75.241,40.48],[75.521,40.628],[75.556,40.625],[75.583,40.605],[75.617,40.517],[75.656,40.329],[75.677,40.306],[75.872,40.303],[76.004,40.371],[76.062,40.388],[76.157,40.376],[76.206,40.408],[76.258,40.431],[76.319,40.352],[76.396,40.39],[76.48,40.45],[76.521,40.511],[76.578,40.578],[76.622,40.662],[76.64,40.742],[76.661,40.78],[76.708,40.818],[76.824,40.982],[76.908,41.024],[76.987,41.039],[77.182,41.011],[77.284,41.014],[77.582,40.993],[77.719,41.024],[77.815,41.056],[77.956,41.051],[78.123,41.076],[78.346,41.281],[78.349,41.325],[78.362,41.372],[78.443,41.418],[78.543,41.46],[78.743,41.56],[79.148,41.719],[79.294,41.783],[79.354,41.781],[79.504,41.821],[79.766,41.899],[79.84,41.996],[79.91,42.015],[80.216,42.032],[80.235,42.043],[80.246,42.06],[80.229,42.13],[80.209,42.19],[80.233,42.208],[80.259,42.235],[80.255,42.274],[80.206,42.399],[80.179,42.518],[80.162,42.626],[80.165,42.666],[80.202,42.734],[80.25,42.797],[80.424,42.856],[80.539,42.873],[80.544,42.912],[80.451,42.936],[80.383,42.974],[80.371,42.996],[80.375,43.02],[80.39,43.043],[80.507,43.086],[80.617,43.128],[80.751,43.102],[80.778,43.119],[80.786,43.162],[80.757,43.204],[80.73,43.274],[80.668,43.31],[80.665,43.353],[80.704,43.427],[80.651,43.564],[80.593,43.685],[80.496,43.892],[80.432,43.952],[80.396,44.047],[80.355,44.097],[80.359,44.171],[80.365,44.223],[80.355,44.327],[80.336,44.438],[80.355,44.552],[80.391,44.627],[80.381,44.655],[80.401,44.677],[80.455,44.684],[80.482,44.715],[80.455,44.746],[80.361,44.77],[80.255,44.808],[80.128,44.804],[79.997,44.797],[79.932,44.825],[79.875,44.861],[79.872,44.884],[79.95,44.944],[80.059,45.006],[80.228,45.034],[80.415,45.075],[80.509,45.105],[80.635,45.127],[80.78,45.136],[80.853,45.129],[81.04,45.169],[81.335,45.246],[81.602,45.311],[81.692,45.349],[81.759,45.311],[81.79,45.226],[81.867,45.182],[81.945,45.161],[81.989,45.162],[82.123,45.195],[82.267,45.219],[82.323,45.206],[82.397,45.162],[82.479,45.124],[82.521,45.125],[82.559,45.155],[82.597,45.216],[82.621,45.293],[82.626,45.374],[82.612,45.424],[82.583,45.443],[82.452,45.472],[82.327,45.52],[82.312,45.564],[82.315,45.595],[82.348,45.672],[82.43,45.812],[82.512,46.006],[82.555,46.159],[82.692,46.387],[82.8,46.624],[82.975,46.966],[83.004,47.033],[83.02,47.141],[83.029,47.186],[83.09,47.209],[83.193,47.187],[83.444,47.109],[83.634,47.043],[83.714,47.021],[83.833,46.998],[84.016,46.971],[84.122,46.979],[84.215,46.995],[84.339,46.996],[84.532,46.976],[84.592,46.975],[84.667,46.972],[84.72,46.939],[84.746,46.864],[84.786,46.831],[84.858,46.843],[85.012,46.909],[85.111,46.961],[85.233,47.036],[85.355,47.047],[85.485,47.064],[85.53,47.101],[85.577,47.188],[85.657,47.255],[85.67,47.338],[85.642,47.397],[85.587,47.494],[85.588,47.558],[85.562,47.746],[85.526,47.916],[85.562,48.052],[85.626,48.204],[85.652,48.251],[85.692,48.312],[85.749,48.385],[85.83,48.408],[86.056,48.424],[86.266,48.455],[86.373,48.486],[86.483,48.505],[86.549,48.529],[86.664,48.636],[86.718,48.697],[86.758,48.861],[86.729,48.939],[86.753,49.009],[86.808,49.05],[86.886,49.091],[86.938,49.098],[87.049,49.11],[87.23,49.106],[87.323,49.086],[87.417,49.077],[87.476,49.091],[87.516,49.122],[87.577,49.132],[87.668,49.147],[87.763,49.166],[87.814,49.162],[87.825,49.116],[87.816,49.08],[87.835,49.032],[87.872,49],[87.86,48.966],[87.807,48.946],[87.755,48.919],[87.743,48.882],[87.809,48.836],[87.832,48.792],[87.942,48.765],[88.028,48.736],[88.06,48.707],[88.05,48.675],[88.011,48.64],[87.972,48.603],[87.967,48.581],[87.98,48.555],[88.063,48.538],[88.158,48.509],[88.31,48.472],[88.414,48.403],[88.517,48.384],[88.567,48.317],[88.576,48.22],[88.682,48.171],[88.838,48.102],[88.918,48.089],[88.971,48.05],[89.048,48.003],[89.116,47.988],[89.196,47.981],[89.33,48.025],[89.479,48.029],[89.561,48.004],[89.638,47.909],[89.693,47.879],[89.726,47.852],[89.778,47.827],[89.831,47.823],[89.91,47.844],[89.959,47.886],[90.028,47.878],[90.054,47.85],[90.067,47.804],[90.103,47.745],[90.191,47.702],[90.313,47.676],[90.331,47.655],[90.347,47.597],[90.381,47.557],[90.425,47.504],[90.467,47.408],[90.476,47.329],[90.496,47.285],[90.553,47.214],[90.643,47.1],[90.716,47.004],[90.799,46.985],[90.87,46.954],[90.911,46.883],[90.986,46.749],[90.998,46.661],[91.004,46.596],[91.029,46.566],[91.034,46.529],[90.971,46.388],[90.918,46.324],[90.912,46.271],[90.948,46.177],[90.997,46.105],[91.002,46.036],[90.96,45.985],[90.887,45.922],[90.852,45.885],[90.796,45.854],[90.71,45.731],[90.671,45.595],[90.662,45.525],[90.694,45.475],[90.75,45.419],[90.763,45.371],[90.853,45.263],[90.877,45.196],[90.914,45.194],[90.954,45.216],[91.05,45.217],[91.138,45.194],[91.222,45.145],[91.312,45.118],[91.441,45.125],[91.51,45.098],[91.584,45.077],[91.738,45.069],[91.853,45.069],[92.03,45.069],[92.173,45.035],[92.424,45.009],[92.579,45.011],[92.788,45.036],[92.916,45.02],[93.294,44.983],[93.516,44.944],[93.656,44.901],[93.755,44.832],[93.868,44.724],[93.958,44.675],[94.199,44.645],[94.365,44.519],[94.494,44.473],[94.712,44.351],[94.866,44.303],[95.05,44.259],[95.35,44.278],[95.367,44.262],[95.344,44.195],[95.326,44.105],[95.326,44.039],[95.356,44.006],[95.471,43.986],[95.526,43.954],[95.567,43.892],[95.591,43.854],[95.687,43.664],[95.842,43.384],[95.86,43.276],[95.912,43.206],[96.08,43.096],[96.168,43.015],[96.3,42.929],[96.342,42.849],[96.352,42.747],[96.385,42.72],[96.625,42.744],[96.833,42.76],[97.206,42.79],[97.719,42.736],[98.248,42.685],[98.716,42.639],[98.947,42.616],[99.468,42.568],[99.757,42.629],[99.984,42.677],[100.086,42.671],[100.519,42.617],[100.773,42.588],[101.092,42.551],[101.314,42.538],[101.495,42.539],[101.579,42.524],[101.66,42.5],[101.714,42.466],[101.88,42.292],[101.973,42.216],[102.157,42.158],[102.575,42.092],[102.807,42.052],[103.073,42.006],[103.248,41.937],[103.45,41.856],[103.711,41.751],[103.997,41.797],[104.305,41.846],[104.498,41.877],[104.498,41.659],[104.774,41.641],[104.86,41.644],[104.982,41.596],[105.051,41.616],[105.115,41.663],[105.197,41.738],[105.314,41.771],[105.517,41.855],[105.566,41.875],[105.868,41.994],[106.317,42.141],[106.519,42.212],[106.579,42.227],[106.693,42.264],[106.77,42.289],[106.906,42.309],[107.091,42.322],[107.292,42.349],[107.749,42.401],[107.806,42.406],[108.062,42.427],[108.171,42.447],[108.334,42.437],[108.546,42.429],[108.687,42.416],[108.875,42.426],[109.132,42.441],[109.34,42.438],[109.443,42.456],[109.596,42.511],[109.698,42.554],[109.859,42.606],[110.058,42.661],[110.197,42.71],[110.289,42.743],[110.4,42.774],[110.43,42.814],[110.462,42.844],[110.521,42.895],[110.628,42.991],[110.709,43.074],[110.749,43.111],[110.84,43.194],[110.913,43.257],[111.007,43.341],[111.087,43.369],[111.187,43.392],[111.451,43.475],[111.504,43.493],[111.547,43.496],[111.641,43.563],[111.72,43.621],[111.771,43.665],[111.878,43.68],[111.933,43.711],[111.943,43.752],[111.932,43.815],[111.88,43.879],[111.837,43.935],[111.684,44.041],[111.603,44.107],[111.52,44.192],[111.486,44.272],[111.43,44.322],[111.402,44.367],[111.411,44.419],[111.489,44.512],[111.515,44.57],[111.547,44.673],[111.621,44.827],[111.681,44.899],[111.751,44.97],[111.898,45.064],[112.033,45.082],[112.113,45.063],[112.292,45.063],[112.411,45.058],[112.499,45.011],[112.597,44.918],[112.707,44.883],[113.049,44.81],[113.196,44.795],[113.301,44.792],[113.456,44.767],[113.508,44.762],[113.587,44.746],[113.653,44.763],[113.752,44.826],[113.877,44.896],[113.931,44.912],[114.03,44.943],[114.08,44.971],[114.167,45.05],[114.281,45.111],[114.419,45.203],[114.487,45.272],[114.502,45.316],[114.517,45.365],[114.56,45.39],[114.644,45.413],[114.739,45.42],[114.919,45.378],[115.163,45.39],[115.217,45.396],[115.439,45.42],[115.539,45.44],[115.681,45.458],[115.789,45.535],[115.934,45.626],[116.04,45.677],[116.11,45.687],[116.198,45.739],[116.241,45.796],[116.229,45.846],[116.213,45.887],[116.265,45.963],[116.358,46.097],[116.445,46.159],[116.517,46.209],[116.563,46.29],[116.619,46.313],[116.689,46.322],[116.787,46.377],[116.859,46.388],[116.979,46.362],[117.156,46.355],[117.269,46.352],[117.333,46.362],[117.357,46.391],[117.356,46.437],[117.392,46.538],[117.406,46.571],[117.438,46.586],[117.547,46.588],[117.621,46.552],[117.671,46.522],[117.741,46.518],[117.813,46.538],[117.91,46.619],[118.071,46.667],[118.157,46.679],[118.309,46.717],[118.404,46.703],[118.58,46.692],[118.649,46.702],[118.723,46.692],[118.79,46.747],[118.844,46.76],[118.957,46.735],[119.029,46.692],[119.162,46.639],[119.332,46.614],[119.474,46.627],[119.62,46.604],[119.707,46.606],[119.747,46.627],[119.867,46.672],[119.896,46.733],[119.884,46.791],[119.898,46.858],[119.863,46.907],[119.788,46.979],[119.76,47.027],[119.757,47.09],[119.711,47.15],[119.6,47.222],[119.527,47.256],[119.377,47.381],[119.326,47.41],[119.309,47.431],[119.291,47.473],[119.235,47.493],[119.162,47.525],[119.123,47.558],[119.097,47.616],[119.082,47.654],[119.018,47.685],[118.953,47.703],[118.88,47.725],[118.76,47.758],[118.691,47.822],[118.568,47.943],[118.498,47.984],[118.24,48],[118.147,48.029],[118.042,48.019],[117.979,48],[117.84,48],[117.768,47.988],[117.677,47.908],[117.555,47.805],[117.455,47.741],[117.384,47.676],[117.351,47.652],[117.286,47.666],[117.197,47.74],[117.07,47.806],[116.952,47.837],[116.901,47.853],[116.761,47.87],[116.652,47.865],[116.513,47.84],[116.378,47.844],[116.317,47.86],[116.231,47.858],[116.075,47.79],[115.994,47.711],[115.898,47.687],[115.812,47.738],[115.712,47.799],[115.616,47.875],[115.558,47.945],[115.525,48.131],[115.639,48.186],[115.786,48.248],[115.797,48.346],[115.792,48.456],[115.821,48.577],[115.954,48.689],[116.025,48.782],[116.034,48.84],[116.098,48.936],[116.16,49.037],[116.243,49.17],[116.402,49.406],[116.59,49.685],[116.683,49.824],[116.889,49.738],[117.022,49.693],[117.246,49.625],[117.477,49.609],[117.698,49.536],[117.813,49.514],[117.873,49.513],[118.187,49.693],[118.452,49.844],[118.756,49.963],[118.979,49.979],[119.147,50.013],[119.26,50.066],[119.326,50.155],[119.346,50.279],[119.302,50.354],[119.192,50.38],[119.164,50.406],[119.217,50.433],[119.256,50.484],[119.281,50.561],[119.344,50.634],[119.446,50.703],[119.502,50.779],[119.512,50.863],[119.573,50.947],[119.685,51.03],[119.746,51.108],[119.757,51.179],[119.813,51.267],[119.967,51.422],[120.067,51.601],[120.237,51.723],[120.511,51.849],[120.681,51.973],[120.75,52.097],[120.745,52.205],[120.665,52.3],[120.65,52.396],[120.699,52.494],[120.656,52.567],[120.521,52.615],[120.36,52.627],[120.173,52.602],[120.068,52.633],[120.044,52.718],[120.095,52.787],[120.218,52.84],[120.421,52.968],[120.704,53.172],[120.985,53.285],[121.405,53.317],[121.744,53.384],[122.089,53.451],[122.338,53.485],[122.38,53.462],[122.516,53.457],[122.745,53.469],[122.958,53.498],[123.154,53.545],[123.31,53.556],[123.424,53.531],[123.489,53.529],[123.535,53.526],[123.56,53.527],[123.608,53.547],[123.741,53.511],[123.995,53.406],[124.154,53.359],[124.22,53.37],[124.291,53.341],[124.369,53.271],[124.466,53.23],[124.64,53.211],[124.812,53.134],[124.882,53.13],[124.907,53.173],[124.971,53.197],[125.075,53.204],[125.226,53.166],[125.422,53.084],[125.546,53.048],[125.596,53.057],[125.649,53.042],[125.692,53.004],[125.695,52.956],[125.681,52.931],[125.728,52.891],[125.783,52.891],[125.872,52.872],[125.942,52.801],[126.004,52.768],[126.048,52.739],[126.056,52.716],[126.06,52.692],[126.047,52.673],[126.023,52.643],[126.016,52.61],[126.046,52.573],[126.157,52.547],[126.194,52.519],[126.203,52.484],[126.238,52.445],[126.313,52.4],[126.342,52.362],[126.324,52.332],[126.346,52.306],[126.383,52.287],[126.392,52.215],[126.395,52.173],[126.456,52.126],[126.468,52.031],[126.511,51.926],[126.654,51.781],[126.701,51.703],[126.689,51.61],[126.709,51.566],[126.775,51.545],[126.805,51.506],[126.802,51.448],[126.827,51.412],[126.848,51.374],[126.834,51.315],[126.854,51.261],[126.888,51.23],[126.912,51.172],[126.925,51.1],[127.02,50.986],[127.198,50.829],[127.307,50.708],[127.347,50.621],[127.347,50.55],[127.308,50.494],[127.306,50.454],[127.341,50.428],[127.351,50.394],[127.337,50.35],[127.395,50.299],[127.59,50.209],[127.512,50.072],[127.492,49.975],[127.502,49.873],[127.551,49.802],[127.637,49.76],[127.69,49.717],[127.711,49.672],[127.814,49.622],[128,49.569],[128.237,49.559],[128.527,49.594],[128.704,49.6],[128.769,49.577],[128.791,49.542],[128.77,49.495],[128.819,49.464],[128.938,49.449],[129.02,49.419],[129.065,49.375],[129.12,49.362],[129.185,49.381],[129.248,49.379],[129.31,49.354],[129.35,49.362],[129.385,49.389],[129.441,49.389],[129.498,49.389],[129.534,49.323],[129.591,49.287],[129.671,49.279],[129.793,49.199],[130.037,48.972],[130.196,48.892],[130.355,48.866],[130.553,48.861],[130.617,48.773],[130.566,48.68],[130.552,48.602],[130.597,48.575],[130.659,48.483],[130.747,48.43],[130.763,48.388],[130.804,48.342],[130.787,48.255],[130.712,48.128],[130.733,48.019],[130.849,47.929],[130.915,47.843],[130.933,47.76],[130.962,47.709],[131.003,47.691],[131.122,47.698],[131.319,47.728],[131.464,47.723],[131.557,47.682],[131.785,47.681],[132.15,47.718],[132.38,47.729],[132.476,47.715],[132.562,47.769],[132.637,47.89],[132.707,47.947],[132.773,47.94],[132.877,47.979],[133.02,48.064],[133.144,48.106],[133.301,48.102],[133.468,48.097],[133.573,48.133],[133.672,48.208],[133.842,48.274],[134.206,48.36],[134.293,48.373],[134.335,48.369],[134.456,48.355],[134.564,48.322],[134.665,48.254],[134.681,48.21],[134.669,48.153],[134.647,48.12],[134.605,48.083],[134.566,48.023],[134.591,47.975],[134.65,47.874],[134.699,47.801],[134.752,47.715],[134.728,47.684],[134.696,47.625],[134.596,47.524],[134.542,47.485],[134.483,47.447],[134.383,47.438],[134.339,47.429],[134.291,47.414],[134.26,47.378],[134.225,47.353],[134.168,47.302],[134.163,47.259],[134.189,47.194],[134.202,47.128],[134.137,47.069],[134.086,46.978],[134.071,46.951],[134.046,46.882],[134.039,46.858],[134.023,46.713],[133.958,46.614],[133.867,46.499],[133.887,46.431],[133.903,46.367],[133.88,46.336],[133.875,46.309],[133.861,46.248],[133.833,46.224],[133.75,46.186],[133.701,46.14],[133.711,46.07],[133.686,46.009],[133.648,45.955],[133.608,45.92],[133.551,45.898],[133.513,45.879],[133.485,45.81],[133.476,45.758],[133.449,45.705],[133.466,45.651],[133.436,45.605],[133.355,45.572],[133.31,45.553],[133.267,45.545],[133.186,45.495],[133.113,45.321],[133.097,45.22],[133.113,45.131],[133.012,45.075],[132.936,45.03],[132.889,45.046],[132.839,45.061],[132.723,45.081],[132.666,45.094],[132.549,45.123],[132.363,45.16],[132.181,45.203],[132.067,45.226],[131.978,45.244],[131.909,45.274],[131.852,45.327],[131.795,45.305],[131.742,45.243],[131.654,45.205],[131.614,45.137],[131.579,45.084],[131.488,45.013],[131.447,44.984],[131.268,44.936],[131.228,44.92],[131.082,44.91],[131.033,44.889],[130.982,44.844],[130.968,44.8],[131.004,44.753],[131.061,44.66],[131.087,44.596],[131.126,44.469],[131.255,44.072],[131.213,44.003],[131.174,43.705],[131.184,43.651],[131.18,43.567],[131.182,43.506],[131.209,43.49],[131.244,43.469],[131.262,43.433],[131.257,43.378],[131.239,43.338],[131.212,43.258],[131.176,43.142],[131.136,43.098],[131.109,43.062],[131.086,43.038],[131.083,42.956],[131.069,42.902],[131.006,42.883],[130.943,42.852],[130.869,42.863],[130.803,42.857],[130.722,42.836],[130.577,42.812],[130.493,42.779],[130.453,42.755],[130.425,42.727],[130.42,42.7],[130.439,42.686],[130.521,42.674],[130.577,42.623],[130.584,42.567],[130.527,42.535],[130.498,42.571],[130.45,42.582],[130.361,42.631],[130.296,42.685],[130.247,42.745],[130.249,42.873],[130.24,42.892],[130.151,42.918],[130.125,42.956],[130.083,42.974],[130.022,42.963],[129.977,42.975],[129.941,42.996],[129.898,42.998],[129.861,42.965],[129.842,42.894],[129.779,42.777],[129.773,42.705],[129.746,42.604],[129.72,42.475],[129.698,42.448],[129.628,42.444],[129.604,42.436],[129.568,42.392],[129.524,42.385],[129.485,42.41],[129.424,42.436],[129.366,42.439],[129.314,42.414],[129.253,42.358],[129.218,42.313],[129.205,42.271],[129.196,42.218],[129.134,42.169],[129.077,42.142],[128.961,42.069],[128.923,42.038],[128.84,42.038],[128.749,42.041],[128.627,42.021],[128.427,42.011],[128.308,42.026],[128.16,42.012],[128.045,41.987],[128.029,41.952],[128.033,41.898],[128.056,41.864],[128.084,41.841],[128.132,41.769],[128.182,41.7],[128.258,41.655],[128.289,41.607],[128.291,41.563],[128.255,41.507],[128.2,41.433],[128.149,41.388],[128.111,41.389],[128.053,41.416],[128.013,41.449],[127.919,41.461],[127.688,41.44],[127.572,41.455],[127.517,41.482],[127.42,41.484],[127.271,41.52],[127.18,41.531],[127.137,41.555],[127.128,41.607],[127.085,41.644],[127.061,41.687],[127.007,41.742],[126.955,41.769],[126.904,41.781],[126.847,41.748],[126.788,41.718],[126.743,41.725],[126.722,41.717],[126.697,41.692],[126.601,41.641],[126.578,41.594],[126.54,41.496],[126.514,41.394],[126.49,41.358],[126.451,41.352],[126.412,41.321],[126.329,41.226],[126.254,41.138],[126.145,41.078],[126.093,41.024],[126.067,40.974],[125.989,40.905],[125.875,40.892],[125.784,40.872],[125.728,40.867],[125.688,40.839],[125.659,40.796],[125.645,40.779],[125.594,40.779],[125.543,40.743],[125.417,40.66],[125.314,40.645],[125.186,40.589],[125.073,40.547],[125.026,40.524],[125.013,40.498],[124.997,40.465],[124.942,40.458],[124.889,40.46],[124.772,40.384],[124.712,40.319],[124.481,40.182],[124.387,40.104],[124.362,40.004],[124.35,40.012],[124.267,39.924],[124.106,39.841],[123.76,39.822],[123.651,39.882],[123.611,39.841],[123.581,39.786],[123.49,39.768],[123.348,39.763],[123.269,39.727],[123.227,39.687],[123.032,39.674],[122.961,39.62],[122.84,39.601],[122.335,39.366],[122.225,39.267],[122.121,39.152],[122.048,39.094],[121.982,39.053],[121.923,39.037],[121.864,38.996],[121.805,38.991],[121.745,39.01],[121.677,39.003],[121.633,38.955],[121.67,38.892],[121.65,38.865],[121.517,38.831],[121.32,38.808],[121.236,38.767],[121.207,38.744],[121.164,38.732],[121.122,38.813],[121.107,38.921],[121.188,38.947],[121.263,38.96],[121.68,39.109],[121.628,39.22],[121.665,39.269],[121.758,39.348],[121.818,39.387],[121.785,39.401],[121.513,39.375],[121.356,39.377],[121.275,39.385],[121.3,39.452],[121.286,39.519],[121.267,39.545],[121.406,39.621],[121.47,39.64],[121.518,39.639],[121.514,39.685],[121.474,39.755],[121.517,39.845],[121.801,39.951],[121.869,40.046],[121.983,40.136],[122.191,40.358],[122.203,40.396],[122.264,40.5],[122.275,40.542],[122.179,40.603],[122.14,40.688],[121.859,40.842],[121.835,40.974],[121.809,40.969],[121.766,40.876],[121.729,40.846],[121.599,40.843],[121.537,40.878],[121.175,40.901],[121.086,40.842],[121.003,40.749],[120.922,40.683],[120.841,40.649],[120.771,40.589],[120.479,40.231],[120.369,40.204],[119.85,39.987],[119.591,39.903],[119.391,39.752],[119.322,39.662],[119.261,39.561],[119.225,39.408],[119.04,39.222],[118.977,39.183],[118.912,39.166],[118.826,39.172],[118.752,39.16],[118.626,39.177],[118.472,39.118],[118.298,39.067],[118.148,39.195],[118.041,39.227],[117.866,39.191],[117.785,39.134],[117.617,38.853],[117.554,38.691],[117.558,38.625],[117.656,38.424],[117.767,38.312],[118.015,38.183],[118.543,38.095],[118.667,38.126],[118.8,38.127],[118.94,38.043],[119.028,37.904],[119.036,37.809],[119.038,37.777],[119.07,37.749],[119.089,37.701],[119.033,37.661],[118.991,37.641],[118.955,37.494],[118.953,37.331],[118.998,37.277],[119.112,37.201],[119.287,37.138],[119.45,37.125],[119.761,37.155],[119.888,37.253],[119.88,37.296],[119.883,37.351],[120.156,37.495],[120.312,37.623],[120.287,37.656],[120.257,37.679],[120.285,37.692],[120.37,37.701],[120.75,37.834],[121.049,37.725],[121.22,37.6],[121.388,37.579],[121.505,37.515],[121.64,37.46],[121.816,37.457],[121.965,37.445],[122.01,37.496],[122.057,37.529],[122.11,37.522],[122.169,37.456],[122.338,37.405],[122.493,37.408],[122.602,37.426],[122.667,37.403],[122.573,37.318],[122.587,37.181],[122.516,37.138],[122.447,37.068],[122.487,37.022],[122.523,37.003],[122.52,36.947],[122.457,36.915],[122.341,36.832],[122.274,36.834],[122.242,36.85],[122.22,36.88],[122.203,36.927],[122.162,36.959],[122.05,36.971],[121.933,36.959],[121.67,36.836],[121.413,36.738],[121.144,36.66],[121.054,36.611],[120.99,36.598],[120.879,36.635],[120.811,36.633],[120.797,36.607],[120.883,36.539],[120.905,36.485],[120.896,36.444],[120.847,36.426],[120.776,36.456],[120.712,36.413],[120.682,36.341],[120.681,36.168],[120.638,36.13],[120.519,36.109],[120.393,36.054],[120.348,36.079],[120.33,36.11],[120.343,36.189],[120.328,36.228],[120.27,36.226],[120.183,36.202],[120.117,36.15],[120.094,36.119],[120.181,36.017],[120.265,36.007],[120.285,35.984],[120.219,35.935],[120.055,35.861],[120.027,35.799],[119.979,35.74],[119.912,35.693],[119.866,35.644],[119.811,35.618],[119.72,35.589],[119.608,35.47],[119.526,35.359],[119.43,35.301],[119.353,35.114],[119.216,35.012],[119.165,34.849],[119.201,34.748],[119.351,34.749],[119.427,34.714],[119.583,34.582],[119.77,34.496],[119.964,34.448],[120.201,34.326],[120.267,34.274],[120.323,34.169],[120.426,33.866],[120.5,33.716],[120.505,33.638],[120.616,33.491],[120.734,33.237],[120.871,33.017],[120.897,32.843],[120.853,32.764],[120.853,32.661],[120.99,32.567],[121.293,32.457],[121.342,32.425],[121.401,32.372],[121.404,32.206],[121.451,32.153],[121.491,32.121],[121.674,32.051],[121.751,31.993],[121.832,31.9],[121.856,31.816],[121.866,31.704],[121.764,31.7],[121.681,31.712],[121.352,31.859],[121.266,31.863],[121.146,31.842],[120.974,31.869],[120.792,32.032],[120.661,32.081],[120.52,32.106],[120.184,31.966],[120.099,31.976],[120.074,31.96],[120.036,31.936],[120.192,31.906],[120.347,31.952],[120.497,32.02],[120.716,31.984],[120.752,31.923],[120.788,31.82],[120.938,31.75],[121.055,31.719],[121.205,31.628],[121.351,31.485],[121.661,31.32],[121.786,31.163],[121.834,31.062],[121.878,30.917],[121.769,30.87],[121.675,30.864],[121.528,30.841],[121.419,30.79],[121.31,30.7],[120.998,30.558],[120.938,30.47],[120.897,30.393],[120.821,30.355],[120.63,30.391],[120.45,30.388],[120.246,30.284],[120.195,30.241],[120.229,30.25],[120.261,30.263],[120.353,30.247],[120.495,30.303],[120.633,30.133],[120.904,30.161],[121.159,30.302],[121.258,30.304],[121.341,30.282],[121.433,30.227],[121.678,29.979],[121.812,29.952],[121.944,29.894],[122.017,29.888],[122.083,29.87],[121.906,29.78],[121.677,29.584],[121.575,29.537],[121.506,29.485],[121.69,29.511],[121.822,29.605],[121.888,29.628],[121.941,29.606],[121.968,29.491],[121.918,29.135],[121.854,29.129],[121.791,29.226],[121.717,29.256],[121.656,29.236],[121.534,29.237],[121.487,29.193],[121.448,29.131],[121.521,29.118],[121.665,29.011],[121.68,28.953],[121.641,28.916],[121.54,28.932],[121.662,28.851],[121.63,28.768],[121.59,28.735],[121.519,28.714],[121.475,28.641],[121.538,28.521],[121.602,28.367],[121.61,28.292],[121.51,28.324],[121.355,28.23],[121.272,28.222],[121.217,28.346],[121.146,28.327],[121.098,28.291],[121.035,28.157],[120.959,28.037],[120.892,28.004],[120.813,28.013],[120.748,28.01],[120.763,27.977],[120.833,27.938],[120.833,27.891],[120.685,27.745],[120.661,27.688],[120.665,27.639],[120.588,27.581],[120.629,27.482],[120.608,27.412],[120.54,27.318],[120.469,27.256],[120.385,27.156],[120.279,27.097],[120.139,26.886],[120.097,26.781],[120.087,26.672],[120.043,26.634],[119.968,26.586],[119.882,26.61],[119.879,26.683],[119.842,26.689],[119.821,26.737],[119.815,26.798],[119.824,26.846],[119.789,26.831],[119.767,26.775],[119.71,26.729],[119.652,26.747],[119.588,26.785],[119.59,26.73],[119.624,26.676],[119.638,26.621],[119.726,26.609],[119.785,26.547],[119.831,26.45],[119.84,26.414],[119.876,26.371],[119.881,26.334],[119.797,26.3],[119.693,26.236],[119.567,26.127],[119.463,26.055],[119.37,26.054],[119.313,26.063],[119.232,26.104],[119.139,26.122],[119.264,25.975],[119.332,25.949],[119.418,25.954],[119.501,26.009],[119.619,26.004],[119.648,25.919],[119.617,25.823],[119.553,25.699],[119.539,25.591],[119.619,25.437],[119.622,25.391],[119.593,25.368],[119.499,25.409],[119.422,25.46],[119.344,25.446],[119.263,25.468],[119.18,25.45],[119.146,25.414],[119.169,25.356],[119.244,25.307],[119.286,25.232],[119.236,25.206],[119.025,25.223],[118.978,25.209],[118.914,25.127],[118.956,25.005],[118.909,24.929],[118.822,24.911],[118.708,24.85],[118.637,24.836],[118.64,24.809],[118.692,24.782],[118.719,24.746],[118.657,24.621],[118.56,24.58],[118.412,24.601],[118.295,24.573],[118.195,24.626],[118.087,24.627],[118.014,24.56],[118.006,24.482],[117.935,24.474],[117.897,24.48],[117.843,24.474],[117.848,24.432],[117.879,24.396],[118.024,24.38],[118.051,24.327],[118.056,24.246],[117.904,24.106],[117.839,24.012],[117.742,24.015],[117.668,23.939],[117.628,23.837],[117.579,23.857],[117.466,23.841],[117.433,23.792],[117.46,23.771],[117.462,23.736],[117.417,23.621],[117.368,23.589],[117.347,23.636],[117.331,23.709],[117.291,23.714],[117.225,23.647],[117.148,23.599],[117.083,23.579],[117.033,23.623],[116.911,23.647],[116.861,23.453],[116.76,23.383],[116.712,23.36],[116.629,23.354],[116.682,23.327],[116.699,23.278],[116.669,23.228],[116.586,23.218],[116.538,23.18],[116.52,23.007],[116.471,22.946],[116.346,22.941],[116.252,22.981],[116.222,22.95],[116.206,22.919],[116.157,22.887],[116.063,22.879],[115.852,22.802],[115.756,22.824],[115.64,22.853],[115.561,22.825],[115.535,22.765],[115.498,22.719],[115.383,22.719],[115.29,22.776],[115.196,22.817],[115.092,22.782],[115.012,22.709],[114.914,22.685],[114.896,22.64],[114.854,22.617],[114.75,22.626],[114.711,22.739],[114.652,22.755],[114.593,22.698],[114.572,22.654],[114.544,22.621],[114.554,22.529],[114.496,22.527],[114.42,22.583],[114.341,22.593],[114.266,22.541],[114.228,22.554],[114.188,22.565],[114.123,22.565],[114.098,22.551],[114.05,22.543],[114.018,22.514],[114.015,22.512],[113.931,22.531],[113.828,22.607],[113.754,22.734],[113.661,22.802],[113.62,22.861],[113.603,22.969],[113.586,23.02],[113.592,23.077],[113.621,23.127],[113.52,23.102],[113.445,23.055],[113.46,22.996],[113.442,22.941],[113.331,22.912],[113.338,22.889],[113.345,22.865],[113.432,22.789],[113.45,22.726],[113.485,22.692],[113.553,22.594],[113.551,22.404],[113.589,22.35],[113.576,22.297],[113.549,22.225],[113.547,22.224],[113.527,22.246],[113.494,22.242],[113.481,22.217],[113.479,22.196],[113.473,22.194],[113.416,22.178],[113.367,22.165],[113.328,22.145],[113.266,22.089],[113.149,22.075],[113.089,22.208],[113.008,22.119],[112.984,21.938],[112.954,21.907],[112.904,21.881],[112.809,21.945],[112.725,21.902],[112.661,21.859],[112.634,21.82],[112.586,21.777],[112.495,21.818],[112.421,21.881],[112.439,21.927],[112.429,21.958],[112.396,21.981],[112.36,21.978],[112.377,21.917],[112.39,21.801],[112.356,21.768],[112.305,21.742],[112.193,21.763],[112.117,21.806],[112.025,21.843],[111.944,21.85],[111.926,21.776],[111.873,21.717],[111.825,21.71],[111.776,21.719],[111.712,21.655],[111.682,21.608],[111.603,21.559],[111.392,21.535],[111.319,21.486],[111.221,21.494],[111.144,21.482],[111.101,21.485],[111.061,21.511],[111.017,21.512],[110.997,21.43],[110.878,21.396],[110.771,21.387],[110.652,21.279],[110.567,21.214],[110.504,21.207],[110.458,21.231],[110.435,21.327],[110.411,21.338],[110.397,21.248],[110.375,21.172],[110.331,21.131],[110.194,21.038],[110.154,20.945],[110.18,20.859],[110.365,20.838],[110.388,20.791],[110.371,20.752],[110.326,20.72],[110.313,20.672],[110.512,20.518],[110.518,20.46],[110.487,20.427],[110.45,20.355],[110.345,20.295],[110.123,20.264],[109.938,20.295],[109.883,20.364],[109.886,20.413],[109.932,20.399],[109.984,20.403],[109.968,20.448],[109.946,20.474],[109.861,20.514],[109.792,20.622],[109.805,20.711],[109.767,20.781],[109.726,20.839],[109.685,20.874],[109.663,20.917],[109.704,21.053],[109.681,21.132],[109.76,21.228],[109.78,21.337],[109.921,21.376],[109.931,21.481],[109.83,21.484],[109.759,21.56],[109.743,21.528],[109.687,21.525],[109.594,21.672],[109.566,21.691],[109.521,21.693],[109.544,21.538],[109.436,21.479],[109.347,21.454],[109.22,21.443],[109.149,21.426],[109.082,21.44],[109.098,21.487],[109.133,21.544],[109.102,21.59],[109.031,21.627],[108.922,21.624],[108.846,21.634],[108.772,21.63],[108.744,21.651],[108.675,21.725],[108.616,21.77],[108.589,21.816],[108.616,21.869],[108.594,21.901],[108.48,21.905],[108.481,21.829],[108.493,21.739],[108.526,21.671],[108.502,21.633],[108.444,21.607],[108.383,21.679],[108.355,21.697],[108.325,21.694],[108.302,21.622],[108.246,21.558],[108.146,21.565],[108.067,21.526],[107.973,21.508]]],[[[110.889,19.992],[110.938,19.948],[110.971,19.883],[110.998,19.765],[111.014,19.655],[110.913,19.586],[110.822,19.558],[110.641,19.291],[110.603,19.207],[110.572,19.172],[110.563,19.135],[110.566,19.099],[110.519,18.97],[110.478,18.813],[110.451,18.748],[110.4,18.698],[110.334,18.673],[110.291,18.67],[110.252,18.656],[110.156,18.57],[110.049,18.505],[110.066,18.476],[110.067,18.448],[110.02,18.416],[109.968,18.422],[109.816,18.397],[109.76,18.348],[109.703,18.259],[109.681,18.247],[109.59,18.226],[109.519,18.218],[109.4,18.281],[109.341,18.3],[109.183,18.325],[109.03,18.368],[108.922,18.416],[108.702,18.535],[108.676,18.75],[108.638,18.866],[108.636,18.908],[108.65,19.265],[108.666,19.304],[108.694,19.338],[108.791,19.418],[108.903,19.481],[109.063,19.614],[109.179,19.674],[109.277,19.761],[109.22,19.757],[109.177,19.768],[109.219,19.843],[109.263,19.883],[109.315,19.904],[109.418,19.889],[109.514,19.904],[109.584,19.97],[109.651,19.984],[109.906,19.963],[110.083,19.993],[110.172,20.054],[110.213,20.056],[110.344,20.039],[110.392,19.976],[110.388,20.018],[110.394,20.059],[110.418,20.055],[110.588,19.976],[110.589,20.072],[110.598,20.098],[110.652,20.138],[110.679,20.137],[110.745,20.059],[110.809,20.014],[110.889,19.992]]]]}},{"type":"Feature","properties":{"id":"MMR","name":"Myanmar","nameBn":"মিয়ানমার","continent":"Asia"},"geometry":{"type":"MultiPolygon","coordinates":[[[[100.122,20.317],[100.004,20.38],[99.954,20.415],[99.89,20.424],[99.825,20.384],[99.773,20.341],[99.72,20.325],[99.639,20.32],[99.532,20.343],[99.459,20.363],[99.448,20.352],[99.487,20.261],[99.502,20.188],[99.486,20.15],[99.452,20.118],[99.399,20.093],[99.338,20.079],[99.284,20.08],[99.197,20.115],[99.131,20.117],[99.074,20.099],[99.04,20.074],[99.021,20.042],[98.987,19.861],[98.958,19.805],[98.917,19.773],[98.876,19.77],[98.82,19.778],[98.761,19.771],[98.494,19.701],[98.455,19.694],[98.371,19.689],[98.294,19.687],[98.239,19.691],[98.111,19.762],[98.049,19.77],[98.015,19.75],[97.991,19.654],[97.916,19.593],[97.817,19.46],[97.794,19.266],[97.804,19.13],[97.714,18.996],[97.706,18.932],[97.754,18.621],[97.746,18.588],[97.728,18.572],[97.672,18.561],[97.577,18.529],[97.515,18.498],[97.485,18.494],[97.397,18.518],[97.374,18.518],[97.381,18.494],[97.451,18.36],[97.524,18.296],[97.599,18.303],[97.632,18.29],[97.622,18.258],[97.652,18.174],[97.72,18.037],[97.74,17.935],[97.699,17.834],[97.706,17.797],[97.729,17.776],[97.793,17.681],[97.929,17.533],[98.063,17.373],[98.175,17.24],[98.257,17.148],[98.439,16.976],[98.471,16.895],[98.478,16.732],[98.523,16.638],[98.565,16.571],[98.594,16.515],[98.661,16.33],[98.689,16.305],[98.835,16.418],[98.869,16.394],[98.888,16.352],[98.888,16.298],[98.866,16.237],[98.818,16.181],[98.592,16.051],[98.574,15.939],[98.558,15.769],[98.554,15.56],[98.565,15.404],[98.557,15.368],[98.537,15.351],[98.452,15.357],[98.329,15.279],[98.286,15.272],[98.232,15.241],[98.191,15.204],[98.178,15.147],[98.202,14.976],[98.246,14.815],[98.332,14.696],[98.4,14.603],[98.495,14.473],[98.57,14.36],[98.721,14.236],[98.934,14.05],[99.015,13.947],[99.086,13.823],[99.137,13.717],[99.156,13.576],[99.172,13.497],[99.176,13.233],[99.137,13.173],[99.107,13.104],[99.124,13.031],[99.174,12.961],[99.174,12.882],[99.22,12.74],[99.297,12.653],[99.372,12.594],[99.405,12.548],[99.394,12.474],[99.416,12.395],[99.432,12.309],[99.463,12.19],[99.523,12.09],[99.615,11.781],[99.612,11.75],[99.573,11.687],[99.515,11.631],[99.478,11.613],[99.443,11.554],[99.359,11.389],[99.19,11.105],[99.025,10.92],[98.887,10.788],[98.787,10.708],[98.757,10.661],[98.757,10.624],[98.775,10.557],[98.768,10.431],[98.747,10.351],[98.718,10.266],[98.703,10.19],[98.658,10.179],[98.563,10.035],[98.521,10.107],[98.497,10.183],[98.523,10.353],[98.465,10.676],[98.501,10.719],[98.536,10.741],[98.599,10.864],[98.676,10.987],[98.683,11.133],[98.745,11.24],[98.73,11.33],[98.733,11.435],[98.746,11.521],[98.741,11.592],[98.791,11.665],[98.876,11.72],[98.84,11.739],[98.805,11.779],[98.694,11.718],[98.636,11.738],[98.625,11.801],[98.639,11.869],[98.645,11.91],[98.689,11.957],[98.686,12.047],[98.664,12.127],[98.696,12.225],[98.631,12.225],[98.6,12.245],[98.619,12.3],[98.679,12.348],[98.624,12.441],[98.665,12.54],[98.663,12.662],[98.636,12.771],[98.637,12.848],[98.595,12.986],[98.576,13.162],[98.487,13.293],[98.421,13.484],[98.245,13.733],[98.248,13.84],[98.239,13.934],[98.2,13.98],[98.15,13.648],[98.111,13.713],[98.098,13.898],[98.073,13.986],[98.1,14.162],[97.998,14.335],[97.977,14.461],[97.91,14.653],[97.929,14.696],[98.019,14.653],[97.937,14.764],[97.869,14.739],[97.812,14.859],[97.8,15.185],[97.744,15.307],[97.774,15.431],[97.71,15.876],[97.584,16.02],[97.609,16.144],[97.641,16.254],[97.634,16.458],[97.665,16.52],[97.726,16.569],[97.668,16.552],[97.62,16.537],[97.505,16.525],[97.376,16.523],[97.331,16.672],[97.267,16.743],[97.212,16.893],[97.178,17.062],[97.2,17.095],[97.1,17.165],[97.075,17.207],[96.97,17.317],[96.851,17.401],[96.878,17.342],[96.91,17.305],[96.851,17.203],[96.909,17.031],[96.858,16.921],[96.811,16.778],[96.765,16.71],[96.622,16.564],[96.507,16.514],[96.431,16.505],[96.364,16.521],[96.282,16.596],[96.262,16.659],[96.249,16.765],[96.22,16.781],[96.189,16.768],[96.238,16.631],[96.237,16.567],[96.324,16.444],[96.293,16.41],[96.135,16.343],[96.081,16.353],[96.043,16.34],[96.032,16.285],[96.012,16.254],[95.763,16.169],[95.711,16.073],[95.679,15.977],[95.556,15.838],[95.39,15.723],[95.348,15.729],[95.301,15.756],[95.308,15.88],[95.365,15.985],[95.347,16.098],[95.333,16.033],[95.226,15.877],[95.177,15.826],[95.078,15.839],[94.943,15.818],[94.891,15.979],[94.892,16.038],[94.882,16.088],[94.898,16.141],[94.893,16.183],[94.86,16.102],[94.848,16.033],[94.798,15.971],[94.662,15.904],[94.656,15.989],[94.651,16.065],[94.681,16.133],[94.677,16.242],[94.72,16.399],[94.717,16.452],[94.703,16.512],[94.679,16.426],[94.665,16.336],[94.638,16.309],[94.588,16.289],[94.496,16.186],[94.442,16.094],[94.299,16.008],[94.224,16.016],[94.214,16.127],[94.271,16.517],[94.327,16.572],[94.353,16.64],[94.4,16.868],[94.452,16.954],[94.473,17.135],[94.494,17.167],[94.564,17.309],[94.589,17.569],[94.56,17.699],[94.494,17.825],[94.431,18.202],[94.266,18.507],[94.252,18.609],[94.171,18.732],[94.246,18.741],[94.091,18.849],[94.07,18.893],[94.039,19.146],[94.045,19.287],[94.022,19.269],[94.002,19.182],[93.941,19.146],[93.968,18.995],[93.961,18.958],[93.929,18.9],[93.8,18.961],[93.705,19.027],[93.598,19.188],[93.493,19.369],[93.531,19.398],[93.579,19.401],[93.728,19.267],[93.825,19.238],[93.886,19.272],[93.962,19.329],[93.998,19.441],[93.961,19.482],[93.888,19.504],[93.84,19.534],[93.77,19.61],[93.761,19.648],[93.74,19.697],[93.669,19.732],[93.612,19.776],[93.66,19.854],[93.707,19.912],[93.582,19.91],[93.439,20.009],[93.41,20.038],[93.362,20.058],[93.25,20.07],[93.157,20.041],[93.199,19.898],[93.191,19.851],[93.129,19.858],[93.002,20.075],[93.04,20.13],[93.096,20.181],[93.068,20.189],[93.015,20.185],[93.067,20.378],[93.035,20.406],[93.019,20.346],[92.991,20.288],[92.882,20.152],[92.828,20.178],[92.791,20.211],[92.844,20.283],[92.872,20.302],[92.891,20.34],[92.851,20.415],[92.787,20.469],[92.736,20.563],[92.709,20.564],[92.733,20.453],[92.723,20.296],[92.608,20.47],[92.378,20.718],[92.324,20.792],[92.312,20.864],[92.286,20.932],[92.268,21.005],[92.264,21.061],[92.215,21.113],[92.192,21.202],[92.18,21.293],[92.208,21.358],[92.28,21.428],[92.331,21.44],[92.373,21.409],[92.472,21.363],[92.539,21.32],[92.569,21.263],[92.6,21.27],[92.632,21.306],[92.625,21.351],[92.593,21.467],[92.584,21.609],[92.583,21.94],[92.575,21.978],[92.63,22.011],[92.653,22.049],[92.675,22.106],[92.689,22.131],[92.721,22.132],[92.771,22.105],[92.854,22.01],[92.909,21.989],[92.965,22.004],[93.022,22.146],[93.043,22.184],[93.071,22.209],[93.121,22.205],[93.151,22.231],[93.162,22.292],[93.162,22.36],[93.105,22.547],[93.088,22.633],[93.079,22.718],[93.114,22.806],[93.162,22.908],[93.151,22.997],[93.164,23.032],[93.204,23.037],[93.254,23.015],[93.308,23.03],[93.349,23.085],[93.366,23.133],[93.391,23.339],[93.408,23.528],[93.415,23.682],[93.373,23.774],[93.307,24.022],[93.326,24.064],[93.356,24.074],[93.452,23.987],[93.494,23.973],[93.564,23.986],[93.633,24.005],[93.683,24.007],[93.756,23.977],[93.855,23.944],[94.011,23.903],[94.075,23.872],[94.128,23.876],[94.17,23.973],[94.22,24.113],[94.293,24.322],[94.377,24.474],[94.399,24.514],[94.493,24.638],[94.584,24.767],[94.663,24.931],[94.708,25.049],[94.704,25.098],[94.675,25.139],[94.616,25.165],[94.567,25.192],[94.553,25.216],[94.554,25.243],[94.58,25.32],[94.623,25.41],[94.668,25.459],[94.786,25.519],[94.861,25.597],[94.946,25.7],[94.992,25.77],[95.015,25.913],[95.041,25.941],[95.093,25.987],[95.132,26.041],[95.129,26.07],[95.108,26.091],[95.069,26.191],[95.051,26.347],[95.06,26.474],[95.089,26.525],[95.129,26.597],[95.201,26.641],[95.305,26.672],[95.464,26.756],[95.738,26.95],[95.837,27.014],[95.905,27.047],[95.971,27.128],[96.061,27.217],[96.191,27.261],[96.274,27.278],[96.666,27.339],[96.732,27.331],[96.798,27.296],[96.88,27.178],[96.953,27.133],[97.038,27.102],[97.102,27.115],[97.104,27.163],[96.902,27.44],[96.884,27.515],[96.877,27.587],[96.9,27.644],[96.963,27.698],[97.05,27.76],[97.158,27.837],[97.226,27.89],[97.306,27.907],[97.335,27.938],[97.344,27.982],[97.339,28.031],[97.303,28.086],[97.31,28.155],[97.322,28.218],[97.356,28.254],[97.431,28.354],[97.478,28.426],[97.502,28.456],[97.538,28.51],[97.599,28.517],[97.659,28.5],[97.695,28.469],[97.73,28.407],[97.769,28.356],[97.817,28.356],[97.865,28.364],[97.888,28.356],[97.934,28.314],[98.022,28.212],[98.062,28.186],[98.099,28.142],[98.118,28.055],[98.13,27.968],[98.241,27.663],[98.274,27.599],[98.299,27.55],[98.35,27.538],[98.392,27.587],[98.409,27.639],[98.453,27.657],[98.504,27.648],[98.6,27.599],[98.651,27.572],[98.677,27.422],[98.682,27.245],[98.675,27.191],[98.717,27.045],[98.729,26.877],[98.738,26.786],[98.739,26.698],[98.732,26.583],[98.709,26.43],[98.672,26.299],[98.686,26.189],[98.663,26.139],[98.572,26.114],[98.564,26.072],[98.591,26.004],[98.655,25.918],[98.656,25.864],[98.625,25.827],[98.558,25.823],[98.466,25.789],[98.402,25.678],[98.334,25.587],[98.297,25.569],[98.173,25.595],[98.143,25.571],[98.1,25.416],[98.064,25.349],[98.011,25.293],[97.962,25.259],[97.918,25.236],[97.82,25.252],[97.767,25.158],[97.715,25.034],[97.711,24.97],[97.738,24.87],[97.724,24.842],[97.671,24.82],[97.583,24.775],[97.529,24.631],[97.531,24.492],[97.563,24.444],[97.624,24.423],[97.667,24.38],[97.671,24.313],[97.708,24.229],[97.691,24.131],[97.568,23.988],[97.565,23.911],[97.63,23.887],[97.686,23.898],[97.756,23.932],[97.838,23.986],[98.017,24.065],[98.213,24.111],[98.367,24.119],[98.499,24.116],[98.564,24.099],[98.583,24.07],[98.764,24.116],[98.802,24.119],[98.835,24.121],[98.834,24.091],[98.702,23.964],[98.677,23.905],[98.681,23.842],[98.735,23.783],[98.788,23.738],[98.832,23.624],[98.798,23.52],[98.82,23.483],[98.859,23.44],[98.883,23.38],[98.886,23.307],[98.864,23.191],[99.055,23.131],[99.22,23.103],[99.341,23.096],[99.418,23.069],[99.465,23.046],[99.497,23.005],[99.507,22.959],[99.467,22.927],[99.385,22.825],[99.338,22.689],[99.343,22.587],[99.338,22.498],[99.243,22.37],[99.205,22.283],[99.172,22.192],[99.173,22.153],[99.193,22.126],[99.233,22.11],[99.303,22.101],[99.389,22.111],[99.593,22.089],[99.825,22.05],[99.918,22.028],[99.948,21.988],[99.94,21.902],[99.926,21.821],[99.941,21.759],[99.978,21.702],[100.041,21.683],[100.096,21.661],[100.106,21.617],[100.089,21.558],[100.117,21.511],[100.148,21.481],[100.215,21.463],[100.351,21.501],[100.446,21.484],[100.531,21.458],[100.605,21.472],[100.677,21.505],[100.835,21.655],[101.019,21.736],[101.08,21.756],[101.121,21.746],[101.131,21.736],[101.128,21.705],[101.147,21.582],[101.139,21.567],[101.08,21.469],[100.928,21.366],[100.82,21.314],[100.757,21.313],[100.703,21.251],[100.659,21.13],[100.614,21.059],[100.567,21.038],[100.536,20.992],[100.522,20.922],[100.549,20.884],[100.618,20.879],[100.623,20.86],[100.565,20.825],[100.493,20.813],[100.407,20.823],[100.326,20.796],[100.249,20.73],[100.184,20.589],[100.13,20.372],[100.122,20.317]]],[[[98.21,10.953],[98.293,10.78],[98.284,10.753],[98.271,10.74],[98.252,10.744],[98.218,10.838],[98.155,10.898],[98.08,10.887],[98.143,10.963],[98.167,10.98],[98.21,10.953]]],[[[98.183,9.933],[98.134,9.875],[98.118,9.878],[98.14,9.975],[98.221,10.045],[98.292,10.051],[98.283,10.008],[98.231,9.954],[98.183,9.933]]],[[[98.222,11.478],[98.216,11.456],[98.209,11.457],[98.187,11.472],[98.201,11.567],[98.239,11.645],[98.278,11.758],[98.3,11.783],[98.308,11.723],[98.284,11.594],[98.263,11.524],[98.222,11.478]]],[[[98.516,11.905],[98.474,11.899],[98.454,12.061],[98.466,12.084],[98.525,12.005],[98.61,11.957],[98.576,11.925],[98.516,11.905]]],[[[98.554,11.745],[98.528,11.539],[98.465,11.567],[98.435,11.567],[98.397,11.684],[98.4,11.715],[98.376,11.792],[98.524,11.805],[98.554,11.745]]],[[[98.414,12.598],[98.436,12.571],[98.468,12.571],[98.459,12.474],[98.381,12.354],[98.334,12.336],[98.314,12.336],[98.331,12.511],[98.303,12.612],[98.312,12.678],[98.396,12.647],[98.414,12.598]]],[[[98.137,12.15],[98.125,12.145],[98.108,12.148],[98.075,12.164],[98.037,12.232],[98.057,12.28],[98.071,12.292],[98.105,12.288],[98.122,12.279],[98.128,12.261],[98.118,12.223],[98.12,12.191],[98.137,12.15]]],[[[94.477,15.946],[94.412,15.848],[94.388,15.994],[94.494,16.075],[94.546,16.153],[94.601,16.206],[94.619,16.141],[94.566,16.019],[94.477,15.946]]],[[[97.575,16.253],[97.537,16.24],[97.48,16.306],[97.469,16.461],[97.516,16.497],[97.542,16.505],[97.579,16.486],[97.593,16.461],[97.6,16.43],[97.589,16.397],[97.575,16.253]]],[[[93.691,18.684],[93.674,18.676],[93.57,18.76],[93.487,18.868],[93.618,18.889],[93.745,18.866],[93.746,18.808],[93.718,18.716],[93.691,18.684]]],[[[93.492,19.893],[93.513,19.755],[93.445,19.806],[93.42,19.878],[93.413,19.95],[93.492,19.893]]],[[[93.715,19.558],[93.829,19.475],[93.875,19.481],[93.946,19.429],[93.947,19.408],[93.934,19.365],[93.902,19.332],[93.815,19.299],[93.756,19.326],[93.732,19.416],[93.662,19.459],[93.644,19.495],[93.688,19.544],[93.715,19.558]]],[[[98.542,10.962],[98.519,10.959],[98.498,10.964],[98.477,10.98],[98.527,11.087],[98.542,10.962]]],[[[98.075,11.692],[98.084,11.637],[98.021,11.696],[98.01,11.86],[98.06,11.757],[98.081,11.733],[98.075,11.692]]],[[[98.066,12.39],[98.06,12.354],[98.002,12.279],[97.952,12.322],[97.939,12.346],[97.99,12.394],[98.045,12.387],[98.06,12.398],[98.066,12.39]]],[[[98.315,13.099],[98.309,12.935],[98.259,13.014],[98.251,13.104],[98.255,13.189],[98.265,13.202],[98.269,13.189],[98.299,13.152],[98.315,13.099]]],[[[94.805,15.819],[94.784,15.794],[94.743,15.812],[94.733,15.823],[94.828,15.933],[94.838,15.892],[94.805,15.819]]],[[[93.01,19.924],[93.023,19.829],[92.975,19.868],[92.913,20],[92.915,20.086],[92.96,20.046],[93.01,19.924]]]]}},{"type":"Feature","properties":{"id":"BTN","name":"Bhutan","nameBn":"ভুটান","continent":"Asia"},"geometry":{"type":"Polygon","coordinates":[[[91.632,27.76],[91.626,27.737],[91.598,27.677],[91.579,27.611],[91.595,27.558],[91.658,27.494],[91.743,27.443],[91.851,27.439],[91.951,27.458],[91.991,27.45],[92.045,27.365],[92.083,27.291],[92.031,27.214],[92.003,27.147],[91.992,27.1],[91.999,27.079],[92.031,27.041],[92.068,26.975],[92.073,26.915],[92.05,26.875],[91.998,26.855],[91.944,26.861],[91.899,26.86],[91.842,26.853],[91.754,26.831],[91.672,26.802],[91.518,26.807],[91.456,26.867],[91.427,26.867],[91.287,26.79],[91.134,26.803],[90.856,26.778],[90.74,26.772],[90.62,26.78],[90.56,26.797],[90.448,26.851],[90.346,26.89],[90.242,26.854],[90.206,26.848],[90.123,26.755],[89.943,26.724],[89.764,26.702],[89.711,26.714],[89.61,26.719],[89.606,26.741],[89.609,26.762],[89.586,26.779],[89.545,26.796],[89.475,26.803],[89.384,26.827],[89.332,26.849],[89.148,26.816],[89.041,26.865],[88.919,26.932],[88.858,26.961],[88.835,27.066],[88.814,27.099],[88.766,27.134],[88.739,27.176],[88.76,27.218],[88.882,27.297],[88.891,27.316],[88.948,27.464],[89.025,27.518],[89.102,27.593],[89.16,27.711],[89.273,27.833],[89.396,27.958],[89.481,28.06],[89.537,28.107],[89.653,28.158],[89.75,28.188],[89.817,28.256],[89.898,28.294],[89.981,28.311],[90.104,28.302],[90.221,28.278],[90.348,28.244],[90.363,28.217],[90.352,28.168],[90.334,28.119],[90.333,28.094],[90.353,28.08],[90.477,28.071],[90.63,28.079],[90.716,28.072],[90.907,28.027],[90.963,27.995],[91.021,27.97],[91.078,27.974],[91.15,28.027],[91.226,28.071],[91.273,28.078],[91.307,28.064],[91.368,28.022],[91.493,27.982],[91.606,27.952],[91.642,27.923],[91.629,27.801],[91.632,27.76]]]}},{"type":"Feature","properties":{"id":"BGD","name":"Bangladesh","nameBn":"বাংলাদেশ","continent":"Asia"},"geometry":{"type":"MultiPolygon","coordinates":[[[[89.051,22.093],[89.056,22.186],[89.05,22.275],[88.971,22.511],[88.921,22.632],[88.927,22.671],[88.923,22.688],[88.9,22.844],[88.867,22.939],[88.851,23.041],[88.928,23.187],[88.897,23.21],[88.808,23.23],[88.724,23.255],[88.704,23.293],[88.741,23.437],[88.698,23.493],[88.636,23.55],[88.616,23.573],[88.596,23.602],[88.567,23.674],[88.623,23.826],[88.7,24.003],[88.714,24.07],[88.727,24.186],[88.734,24.231],[88.724,24.275],[88.642,24.326],[88.499,24.347],[88.397,24.389],[88.338,24.454],[88.287,24.48],[88.225,24.461],[88.146,24.486],[88.079,24.55],[88.023,24.628],[88.03,24.664],[88.045,24.713],[88.15,24.915],[88.189,24.921],[88.279,24.882],[88.313,24.882],[88.373,24.962],[88.456,25.188],[88.574,25.188],[88.678,25.18],[88.748,25.169],[88.817,25.176],[88.89,25.194],[88.93,25.223],[88.952,25.259],[88.944,25.291],[88.855,25.334],[88.82,25.366],[88.795,25.456],[88.769,25.49],[88.593,25.495],[88.502,25.537],[88.452,25.574],[88.363,25.698],[88.253,25.79],[88.147,25.811],[88.107,25.841],[88.085,25.888],[88.097,25.956],[88.129,26.018],[88.151,26.087],[88.235,26.178],[88.334,26.258],[88.378,26.312],[88.44,26.369],[88.448,26.401],[88.437,26.437],[88.386,26.472],[88.351,26.483],[88.346,26.505],[88.37,26.564],[88.418,26.572],[88.518,26.518],[88.62,26.431],[88.681,26.353],[88.683,26.292],[88.722,26.282],[88.762,26.279],[88.828,26.252],[88.896,26.26],[88.941,26.245],[88.97,26.251],[88.982,26.286],[88.948,26.338],[88.924,26.375],[88.952,26.412],[88.983,26.42],[89.019,26.41],[89.067,26.377],[89.102,26.308],[89.108,26.202],[89.186,26.106],[89.289,26.038],[89.37,26.006],[89.467,25.984],[89.55,26.005],[89.591,26.072],[89.573,26.132],[89.586,26.186],[89.619,26.216],[89.671,26.214],[89.71,26.171],[89.823,25.941],[89.8,25.84],[89.825,25.56],[89.796,25.376],[89.801,25.336],[89.814,25.305],[89.833,25.293],[89.866,25.293],[90.004,25.258],[90.12,25.22],[90.25,25.185],[90.439,25.158],[90.555,25.167],[90.613,25.168],[90.73,25.159],[91.038,25.174],[91.293,25.178],[91.397,25.152],[91.48,25.142],[91.763,25.161],[92.05,25.169],[92.205,25.111],[92.373,25.015],[92.468,24.944],[92.485,24.903],[92.475,24.869],[92.443,24.849],[92.385,24.849],[92.251,24.895],[92.228,24.881],[92.231,24.786],[92.227,24.771],[92.198,24.686],[92.117,24.494],[92.102,24.408],[92.085,24.386],[92.064,24.374],[92.001,24.371],[91.952,24.357],[91.931,24.326],[91.899,24.261],[91.877,24.195],[91.846,24.175],[91.772,24.211],[91.727,24.205],[91.669,24.19],[91.611,24.153],[91.571,24.107],[91.526,24.091],[91.393,24.1],[91.367,24.094],[91.35,24.06],[91.336,24.019],[91.232,23.92],[91.192,23.763],[91.16,23.661],[91.166,23.581],[91.254,23.374],[91.315,23.104],[91.339,23.077],[91.359,23.068],[91.369,23.075],[91.367,23.13],[91.371,23.198],[91.399,23.214],[91.436,23.2],[91.471,23.141],[91.511,23.034],[91.554,22.992],[91.62,22.98],[91.695,23.005],[91.751,23.054],[91.774,23.106],[91.758,23.21],[91.754,23.287],[91.79,23.361],[91.919,23.471],[91.938,23.505],[91.929,23.598],[91.93,23.686],[91.979,23.692],[92.044,23.678],[92.127,23.721],[92.152,23.722],[92.187,23.676],[92.246,23.684],[92.289,23.492],[92.334,23.324],[92.334,23.242],[92.341,23.07],[92.362,22.929],[92.393,22.897],[92.43,22.822],[92.464,22.734],[92.491,22.685],[92.51,22.526],[92.532,22.41],[92.561,22.048],[92.575,21.978],[92.583,21.94],[92.584,21.609],[92.593,21.467],[92.625,21.351],[92.632,21.306],[92.6,21.27],[92.569,21.263],[92.539,21.32],[92.472,21.363],[92.373,21.409],[92.331,21.44],[92.28,21.428],[92.208,21.358],[92.18,21.293],[92.192,21.202],[92.215,21.113],[92.264,21.061],[92.268,21.005],[92.286,20.932],[92.312,20.864],[92.324,20.792],[92.308,20.79],[92.248,20.884],[92.195,20.984],[92.056,21.175],[92.011,21.516],[92.008,21.685],[91.913,21.883],[91.85,22.157],[91.825,22.229],[91.858,22.317],[91.863,22.35],[91.845,22.343],[91.797,22.297],[91.734,22.407],[91.693,22.505],[91.53,22.708],[91.482,22.797],[91.48,22.885],[91.41,22.797],[91.314,22.735],[91.216,22.642],[91.151,22.614],[90.946,22.597],[90.827,22.721],[90.656,23.025],[90.634,23.094],[90.656,23.273],[90.616,23.442],[90.616,23.532],[90.604,23.591],[90.573,23.578],[90.562,23.537],[90.568,23.474],[90.556,23.422],[90.408,23.432],[90.269,23.456],[90.392,23.367],[90.523,23.346],[90.591,23.266],[90.599,23.204],[90.595,23.134],[90.528,23.085],[90.466,23.054],[90.478,22.987],[90.552,22.905],[90.462,22.882],[90.437,22.828],[90.435,22.752],[90.481,22.685],[90.498,22.635],[90.487,22.589],[90.532,22.539],[90.596,22.436],[90.616,22.362],[90.589,22.258],[90.553,22.218],[90.494,22.179],[90.356,22.048],[90.288,21.899],[90.231,21.83],[90.159,21.817],[90.131,21.847],[90.071,21.887],[90.07,21.96],[90.088,22.017],[90.21,22.157],[90.143,22.138],[90.069,22.098],[89.954,22.023],[89.918,22.116],[89.894,22.203],[89.894,22.308],[89.985,22.466],[89.882,22.388],[89.853,22.289],[89.866,22.173],[89.853,22.091],[89.812,21.983],[89.757,21.919],[89.668,21.878],[89.628,21.814],[89.569,21.767],[89.567,21.861],[89.547,21.984],[89.483,22.276],[89.469,22.213],[89.503,22.032],[89.501,21.914],[89.452,21.821],[89.354,21.721],[89.279,21.707],[89.234,21.722],[89.167,21.784],[89.094,21.873],[89.082,22.015],[89.051,22.093]]],[[[91.151,22.175],[91.045,22.105],[91.079,22.52],[91.158,22.365],[91.178,22.283],[91.151,22.175]]],[[[91.557,22.382],[91.51,22.353],[91.467,22.378],[91.411,22.476],[91.439,22.599],[91.456,22.617],[91.484,22.577],[91.523,22.491],[91.548,22.425],[91.557,22.382]]],[[[90.778,22.089],[90.604,22.054],[90.515,22.065],[90.68,22.327],[90.675,22.445],[90.649,22.541],[90.565,22.618],[90.56,22.673],[90.523,22.748],[90.503,22.835],[90.596,22.864],[90.672,22.813],[90.683,22.785],[90.699,22.714],[90.737,22.639],[90.868,22.485],[90.866,22.391],[90.83,22.16],[90.778,22.089]]],[[[91.874,21.832],[91.838,21.75],[91.82,21.81],[91.835,21.885],[91.851,21.927],[91.861,21.927],[91.883,21.884],[91.874,21.832]]],[[[91.949,21.508],[91.889,21.503],[91.859,21.533],[91.873,21.574],[91.857,21.709],[91.908,21.723],[91.934,21.722],[91.949,21.683],[91.962,21.61],[91.949,21.508]]],[[[90.642,22.963],[90.66,22.92],[90.604,22.946],[90.562,22.975],[90.536,23.015],[90.58,23.035],[90.642,22.963]]]]}}]}
