{"type":"FeatureCollection","features":[{"type":"Feature","properties":{"id":"ARE-349","name":"Abu Dhabi","nameBn":"আবুধাবি আমিরাত","type":"Emirate","bounds":[51.5693,22.6209,55.9979,25.2494],"center":[54.0817,23.5238]},"geometry":{"type":"MultiPolygon","coordinates":[[[[55.7999,24.6932],[55.8149,24.6627],[55.8182,24.6434],[55.7902,24.6199],[55.784,24.5863],[55.77,24.5724],[55.7598,24.5585],[55.7612,24.5374],[55.7737,24.4952],[55.7714,24.4411],[55.7746,24.4259],[55.781,24.4189],[55.8011,24.4065],[55.8086,24.3976],[55.8109,24.3892],[55.8074,24.3408],[55.801,24.3263],[55.7621,24.263],[55.7541,24.2455],[55.7557,24.2303],[55.7677,24.2249],[55.8303,24.2123],[55.8472,24.2114],[55.9032,24.2322],[55.9332,24.2207],[55.949,24.1848],[55.9607,24.1424],[55.9979,24.0813],[55.9868,24.0654],[55.9235,24.0511],[55.8071,24.0075],[55.7885,24.0096],[55.7624,24.0281],[55.7444,24.0253],[55.728,24.0196],[55.7126,24.0192],[55.68,24.0243],[55.6469,24.025],[55.6183,24.0201],[55.5911,24.01],[55.5617,23.9952],[55.5423,23.9854],[55.4998,23.9706],[55.4568,23.9632],[55.4528,23.9486],[55.4616,23.9306],[55.4783,23.9166],[55.5146,23.8966],[55.5306,23.8747],[55.5351,23.8459],[55.5383,23.77],[55.5341,23.7568],[55.4874,23.6933],[55.4783,23.6764],[55.4453,23.5523],[55.4315,23.5329],[55.3942,23.4953],[55.394,23.4952],[55.3753,23.4693],[55.3641,23.436],[55.3432,23.3363],[55.3211,23.2751],[55.2259,23.1213],[55.1948,23.0251],[55.1913,22.9955],[55.1913,22.9954],[55.1976,22.8495],[55.1868,22.7036],[55.1204,22.6234],[55.1053,22.6209],[54.9686,22.6377],[54.8294,22.6549],[54.6903,22.672],[54.5513,22.689],[54.4124,22.7062],[54.2733,22.7233],[54.1343,22.7403],[53.9953,22.7574],[53.8561,22.7746],[53.7171,22.7917],[53.5781,22.8088],[53.4389,22.8259],[53.2999,22.843],[53.1609,22.8601],[53.0218,22.8771],[52.8828,22.8942],[52.7438,22.9113],[52.5831,22.9311],[52.5585,22.9386],[52.5385,22.9548],[52.4848,23.0183],[52.4326,23.0804],[52.3805,23.1424],[52.3283,23.2045],[52.2763,23.2664],[52.2241,23.3284],[52.172,23.3905],[52.1198,23.4525],[52.0677,23.5145],[52.0155,23.5765],[51.9634,23.6386],[51.9112,23.7005],[51.859,23.7625],[51.8068,23.8245],[51.7548,23.8866],[51.7026,23.9486],[51.6505,24.0106],[51.5935,24.0783],[51.5785,24.1018],[51.5732,24.1278],[51.5752,24.1919],[51.5755,24.2177],[51.5693,24.2562],[51.5907,24.2844],[51.5916,24.3286],[51.574,24.3644],[51.5938,24.3849],[51.6024,24.3679],[51.6238,24.3393],[51.6279,24.3197],[51.6279,24.262],[51.6345,24.2269],[51.6487,24.2186],[51.6629,24.2328],[51.6726,24.2781],[51.6794,24.2658],[51.6893,24.2347],[51.696,24.2244],[51.7007,24.2219],[51.7098,24.2211],[51.7183,24.2231],[51.7236,24.2278],[51.7249,24.2326],[51.7209,24.2347],[51.7401,24.2775],[51.7588,24.2905],[51.7795,24.262],[51.7822,24.2404],[51.772,24.1763],[51.7734,24.1532],[51.7857,24.1037],[51.7868,24.093],[51.7857,24.0593],[51.7878,24.0486],[51.7971,24.0282],[51.7992,24.0184],[51.8094,24.0007],[51.8333,23.9949],[51.8818,23.9939],[51.8936,23.9904],[51.9025,23.9857],[51.9197,23.9704],[51.9287,23.9647],[51.9364,23.9647],[51.9391,23.9692],[51.9334,23.9771],[51.9314,23.988],[51.9529,23.9909],[52.01,23.9879],[52.0169,23.9897],[52.0239,23.9879],[52.0364,23.9771],[52.0674,23.9634],[52.0757,23.9638],[52.1179,23.9709],[52.1356,23.9665],[52.1455,23.972],[52.1555,23.9665],[52.1711,23.9734],[52.1882,23.9743],[52.2063,23.9731],[52.2244,23.974],[52.241,23.9796],[52.2791,24.0014],[52.2959,24.0037],[52.3278,24.0039],[52.3411,24.0075],[52.3526,24.0163],[52.3648,24.0279],[52.3781,24.038],[52.3923,24.0423],[52.4089,24.0452],[52.4281,24.0526],[52.4442,24.0627],[52.4509,24.0733],[52.4566,24.0847],[52.487,24.0966],[52.5018,24.1075],[52.515,24.1198],[52.5325,24.1318],[52.5501,24.1411],[52.5637,24.1447],[52.5746,24.1521],[52.5776,24.169],[52.578,24.1874],[52.5807,24.1994],[52.6003,24.2095],[52.6184,24.2037],[52.6341,24.1899],[52.6701,24.1447],[52.6813,24.1408],[52.6854,24.1435],[52.6887,24.1486],[52.6974,24.1522],[52.7201,24.1515],[52.761,24.1406],[52.7827,24.1379],[52.7954,24.1399],[52.8169,24.1493],[52.8276,24.1522],[52.8392,24.152],[52.8478,24.1496],[52.8547,24.1467],[52.862,24.1447],[52.9471,24.1379],[52.9567,24.1396],[52.9922,24.1522],[52.9969,24.1559],[52.9983,24.1614],[52.9998,24.1657],[53.0059,24.1658],[53.011,24.1628],[53.0148,24.1584],[53.0176,24.1544],[53.0195,24.1522],[53.0488,24.13],[53.0672,24.1219],[53.1072,24.1379],[53.1277,24.1307],[53.1465,24.1213],[53.1634,24.1248],[53.1497,24.1322],[53.1458,24.1417],[53.1454,24.1531],[53.1424,24.1658],[53.1653,24.1703],[53.1916,24.1594],[53.2156,24.1415],[53.2318,24.1248],[53.2456,24.1042],[53.2538,24.0988],[53.3091,24.0958],[53.437,24.1198],[53.4458,24.1198],[53.4546,24.1144],[53.4683,24.1003],[53.4788,24.0937],[53.493,24.0906],[53.5078,24.0915],[53.5193,24.0969],[53.5374,24.0843],[53.5482,24.0788],[53.5574,24.0764],[53.5615,24.0726],[53.5744,24.0544],[53.5813,24.0485],[53.5896,24.0471],[53.6011,24.0472],[53.6121,24.049],[53.6292,24.057],[53.6394,24.0548],[53.6489,24.0504],[53.657,24.0485],[53.6878,24.0621],[53.6946,24.0665],[53.7028,24.0705],[53.7124,24.0688],[53.7224,24.0651],[53.7321,24.0627],[53.8538,24.062],[53.8789,24.0648],[53.8898,24.0733],[53.9512,24.1037],[54.0143,24.1133],[54.0342,24.1227],[54.0552,24.1264],[54.0816,24.1379],[54.1121,24.1418],[54.1226,24.1447],[54.1354,24.152],[54.1537,24.1653],[54.1701,24.1811],[54.1771,24.1962],[54.187,24.2036],[54.2528,24.2211],[54.3059,24.2568],[54.315,24.2582],[54.323,24.2707],[54.342,24.2698],[54.3826,24.2546],[54.3901,24.2659],[54.4273,24.2921],[54.446,24.3161],[54.4856,24.3883],[54.48,24.4134],[54.4832,24.4251],[54.4993,24.4327],[54.49,24.4384],[54.4856,24.4395],[54.4856,24.447],[54.5012,24.4456],[54.5257,24.4352],[54.5403,24.4327],[54.5339,24.4453],[54.5169,24.4624],[54.5134,24.4743],[54.5283,24.468],[54.5443,24.4636],[54.5586,24.4577],[54.5681,24.447],[54.5744,24.447],[54.5713,24.4733],[54.5525,24.4816],[54.5261,24.4829],[54.4993,24.4879],[54.4407,24.5239],[54.4173,24.529],[54.4173,24.5351],[54.4294,24.5383],[54.4417,24.5457],[54.4519,24.5565],[54.4536,24.5502],[54.457,24.5419],[54.4651,24.5351],[54.4624,24.5454],[54.4658,24.5543],[54.4788,24.5699],[54.4856,24.5699],[54.4935,24.5423],[54.5129,24.5153],[54.5374,24.4984],[54.5613,24.5016],[54.5552,24.5046],[54.5403,24.5159],[54.5518,24.5153],[54.5733,24.509],[54.5818,24.5084],[54.5851,24.5119],[54.5938,24.5258],[54.5989,24.529],[54.6364,24.5978],[54.6198,24.6043],[54.6122,24.6132],[54.6159,24.6212],[54.633,24.6245],[54.6434,24.6306],[54.6463,24.6442],[54.6521,24.6584],[54.6706,24.6661],[54.6706,24.6723],[54.6619,24.6781],[54.6577,24.6884],[54.6548,24.701],[54.6502,24.7139],[54.6555,24.7211],[54.6483,24.7253],[54.6405,24.7326],[54.6433,24.7487],[54.6525,24.758],[54.6917,24.7822],[54.6965,24.7889],[54.7013,24.7983],[54.707,24.8039],[54.7378,24.7909],[54.7394,24.7896],[54.7542,24.7924],[54.7686,24.8015],[54.7736,24.8148],[54.76,24.8306],[54.8688,24.8887],[54.9177,24.9209],[54.9481,24.9464],[54.9681,24.9586],[54.9928,24.966],[54.995,24.9667],[54.9994,24.968],[55.0033,24.9691],[55.0059,24.9699],[55.0147,24.9597],[55.1379,24.6369],[55.1481,24.6175],[55.1604,24.603],[55.1799,24.5974],[55.2005,24.5951],[55.4124,24.6028],[55.4402,24.6083],[55.4704,24.6185],[55.5377,24.6539],[55.6479,24.6952],[55.6709,24.709],[55.7489,24.6908],[55.7898,24.691],[55.7999,24.6932]]],[[[53.657,24.1584],[53.6395,24.1605],[53.6282,24.1642],[53.6278,24.1719],[53.6433,24.1863],[53.6546,24.1926],[53.6561,24.1934],[53.6561,24.1935],[53.6807,24.2019],[53.6912,24.2067],[53.7102,24.2223],[53.7158,24.2257],[53.7228,24.2299],[53.7271,24.2311],[53.7389,24.2347],[53.7483,24.2344],[53.7629,24.2287],[53.7651,24.2283],[53.7703,24.2272],[53.7771,24.2299],[53.801,24.2477],[53.8286,24.2584],[53.8396,24.2644],[53.8482,24.2751],[53.8535,24.2627],[53.8523,24.2598],[53.8482,24.2546],[53.8584,24.2392],[53.863,24.2347],[53.8886,24.22],[53.8923,24.2178],[53.9266,24.2114],[53.9339,24.2086],[53.9546,24.201],[53.9649,24.1726],[53.951,24.1497],[53.9204,24.1398],[53.8846,24.1412],[53.855,24.1522],[53.8571,24.1614],[53.8494,24.1742],[53.8374,24.1774],[53.827,24.1584],[53.8345,24.1522],[53.8073,24.136],[53.7747,24.1301],[53.7415,24.1335],[53.7116,24.1447],[53.6943,24.1536],[53.6942,24.1536],[53.6843,24.1567],[53.657,24.1584]]],[[[54.1908,24.2272],[54.1808,24.2451],[54.1594,24.2538],[54.1341,24.2604],[54.1126,24.2717],[54.1016,24.2977],[54.1016,24.2978],[54.1152,24.3185],[54.137,24.3269],[54.1421,24.3227],[54.1504,24.316],[54.1759,24.2901],[54.1883,24.2775],[54.1989,24.2531],[54.1988,24.2531],[54.1908,24.2272]]],[[[52.5745,24.3439],[52.5872,24.3605],[52.6111,24.3732],[52.6345,24.3666],[52.6454,24.3507],[52.6509,24.3249],[52.6488,24.3095],[52.6272,24.2836],[52.6087,24.2683],[52.5922,24.2534],[52.5791,24.2663],[52.5681,24.2831],[52.5561,24.3069],[52.5582,24.3268],[52.5745,24.3439]]],[[[53.3228,24.2627],[53.3087,24.2786],[53.2945,24.2797],[53.276,24.2887],[53.2661,24.2738],[53.228,24.2789],[53.2138,24.2809],[53.1927,24.277],[53.1891,24.2759],[53.1865,24.2759],[53.1841,24.2812],[53.1846,24.287],[53.1877,24.2943],[53.1913,24.3004],[53.1943,24.303],[53.2318,24.2956],[53.2419,24.2978],[53.2676,24.3083],[53.2727,24.3126],[53.2781,24.3161],[53.311,24.3282],[53.3296,24.3361],[53.3383,24.3361],[53.3481,24.3202],[53.3578,24.3152],[53.3667,24.3192],[53.3689,24.3301],[53.3677,24.3409],[53.3616,24.3508],[53.3991,24.4014],[53.4168,24.4128],[53.4177,24.4071],[53.4221,24.3972],[53.4236,24.3917],[53.4468,24.38],[53.447,24.3798],[53.4404,24.3413],[53.4276,24.3288],[53.3883,24.3121],[53.3698,24.3012],[53.3458,24.2983],[53.3316,24.2885],[53.3315,24.2775],[53.3228,24.2627]]],[[[54.3826,24.4395],[54.3348,24.4532],[54.3348,24.4689],[54.3753,24.5036],[54.3894,24.5227],[54.3963,24.5227],[54.3894,24.5016],[54.3967,24.4835],[54.4143,24.4706],[54.4514,24.4532],[54.4697,24.4365],[54.4706,24.425],[54.4567,24.4208],[54.4304,24.4252],[54.3826,24.4395]]],[[[54.2664,24.2945],[54.2573,24.2877],[54.2478,24.2832],[54.2393,24.2812],[54.2283,24.2814],[54.2222,24.2845],[54.2051,24.3029],[54.1924,24.3111],[54.1831,24.315],[54.1795,24.3214],[54.1846,24.3371],[54.1919,24.3462],[54.2038,24.3537],[54.218,24.358],[54.2324,24.3576],[54.2412,24.3408],[54.2512,24.3266],[54.2734,24.3029],[54.2664,24.2945]]],[[[54.3259,24.373],[54.3353,24.364],[54.3361,24.3503],[54.3254,24.3213],[54.3089,24.3139],[54.2816,24.3575],[54.2791,24.3644],[54.2861,24.3655],[54.2972,24.3629],[54.3069,24.3572],[54.3114,24.3553],[54.3127,24.3598],[54.3099,24.3652],[54.2952,24.3752],[54.292,24.3845],[54.3049,24.3859],[54.3259,24.373]]],[[[52.3097,24.5395],[52.3326,24.5254],[52.3392,24.5016],[52.3262,24.4806],[52.3142,24.4757],[52.2997,24.4829],[52.2944,24.489],[52.2896,24.4916],[52.2832,24.497],[52.2823,24.5104],[52.291,24.5214],[52.2986,24.5333],[52.3097,24.5395]]],[[[52.0047,24.2528],[52.0166,24.2576],[52.0254,24.2457],[52.0247,24.2419],[52.0229,24.2388],[52.0247,24.2348],[52.0179,24.2204],[52.0079,24.2108],[52.0045,24.2138],[51.9978,24.2164],[51.9943,24.2192],[51.9986,24.2263],[51.9986,24.237],[52.0047,24.2528]]],[[[51.7241,24.6074],[51.7354,24.5995],[51.7395,24.5907],[51.7376,24.5845],[51.7372,24.5816],[51.7329,24.5729],[51.7302,24.5652],[51.7251,24.569],[51.724,24.5826],[51.7265,24.5887],[51.7227,24.587],[51.7223,24.5905],[51.7222,24.5946],[51.7214,24.5933],[51.7199,24.5932],[51.7184,24.5935],[51.7188,24.5918],[51.7177,24.5916],[51.7188,24.5878],[51.7128,24.5926],[51.7117,24.6022],[51.7197,24.6077],[51.7241,24.6074]]],[[[53.0608,24.8935],[53.0794,24.891],[53.0831,24.8739],[53.0794,24.8535],[53.0729,24.859],[53.0715,24.8638],[53.0632,24.8733],[53.0582,24.8863],[53.0608,24.8935]]],[[[54.2111,25.2494],[54.2311,25.2435],[54.2398,25.2086],[54.227,25.2142],[54.2143,25.2142],[54.1979,25.232],[54.2111,25.2494]]]]}},{"type":"Feature","properties":{"id":"ARE-346","name":"Ajman","nameBn":"আজমান এমিরাত","type":"Emirate","bounds":[55.4245,25.282,56.007,25.4602],"center":[55.5411,25.3971]},"geometry":{"type":"MultiPolygon","coordinates":[[[[55.4245,25.3945],[55.439,25.4128],[55.4452,25.4128],[55.4496,25.4006],[55.4553,25.3999],[55.4612,25.4074],[55.4657,25.4196],[55.4725,25.4128],[55.4861,25.4499],[55.4921,25.4602],[55.4922,25.4601],[55.4931,25.4596],[55.5049,25.4521],[55.5208,25.449],[55.5309,25.4446],[55.546,25.4357],[55.5573,25.4317],[55.6175,25.4218],[55.6279,25.418],[55.6322,25.4132],[55.6191,25.3797],[55.6098,25.3651],[55.6042,25.3609],[55.5975,25.3596],[55.5129,25.3638],[55.478,25.3708],[55.4478,25.3806],[55.4251,25.3943],[55.4246,25.3945],[55.4245,25.3945]]],[[[55.9831,25.3318],[55.9971,25.3256],[56.0002,25.3239],[56.0028,25.3218],[56.0048,25.319],[56.0062,25.3156],[56.007,25.3117],[56.0027,25.3013],[55.9773,25.282],[55.9648,25.3065],[55.9654,25.3123],[55.967,25.3192],[55.9714,25.3238],[55.9752,25.3268],[55.9831,25.3318]]]]}},{"type":"Feature","properties":{"id":"ARE-350","name":"Dubay","nameBn":"দুবাই আমিরাত","type":"Emirate","bounds":[55.0059,24.5951,56.1714,25.3071],"center":[55.3436,24.9508]},"geometry":{"type":"MultiPolygon","coordinates":[[[[56.1714,24.8241],[56.1712,24.824],[56.1548,24.7867],[56.1333,24.7628],[56.1273,24.7457],[56.1183,24.7354],[56.0991,24.7305],[56.078,24.7298],[56.0763,24.73],[56.0763,24.7302],[56.0771,24.7381],[56.0759,24.7517],[56.0824,24.7716],[56.1057,24.8204],[56.1709,24.824],[56.1714,24.8241]]],[[[55.018,24.9765],[55.0222,24.9788],[55.05,24.9934],[55.0446,25.0139],[55.0776,25.0203],[55.0823,25.0168],[55.1569,25.0967],[55.259,25.2153],[55.2642,25.2312],[55.2634,25.2449],[55.2824,25.2607],[55.2983,25.2585],[55.3133,25.2389],[55.3184,25.2253],[55.3142,25.2121],[55.3011,25.1937],[55.3289,25.2015],[55.3342,25.2192],[55.3265,25.2412],[55.3064,25.2751],[55.3037,25.283],[55.3093,25.2917],[55.3248,25.3071],[55.3249,25.307],[55.3267,25.3056],[55.3779,25.2927],[55.4065,25.2943],[55.4397,25.3051],[55.4488,25.3068],[55.4547,25.302],[55.4654,25.2877],[55.4738,25.2807],[55.5063,25.2638],[55.514,25.2587],[55.5219,25.252],[55.5294,25.2439],[55.6008,25.2003],[55.6167,25.1851],[55.6287,25.1644],[55.6577,25.0548],[55.658,25.0483],[55.6562,25.0422],[55.6521,25.0359],[55.6467,25.0304],[55.6341,25.0203],[55.6291,25.0153],[55.6257,25.0111],[55.62,25.0004],[55.62,25.0003],[55.6195,24.9993],[55.6274,24.9764],[55.6448,24.9438],[55.6562,24.9156],[55.6597,24.9029],[55.6611,24.8954],[55.6608,24.8719],[55.6644,24.8424],[55.676,24.8006],[55.681,24.7693],[55.6813,24.7523],[55.6804,24.7392],[55.6785,24.7282],[55.6763,24.7205],[55.6709,24.709],[55.6479,24.6952],[55.5377,24.6539],[55.4704,24.6185],[55.4402,24.6083],[55.4124,24.6028],[55.2005,24.5951],[55.1799,24.5974],[55.1604,24.603],[55.1481,24.6175],[55.1379,24.6369],[55.0147,24.9597],[55.0059,24.9699],[55.0108,24.9726],[55.014,24.9744],[55.0158,24.9753],[55.018,24.9765]]]]}},{"type":"Feature","properties":{"id":"ARE-341","name":"Fujayrah","nameBn":"ফুজায়রা","type":"Emirate","bounds":[55.9657,24.8719,56.3836,25.658],"center":[56.2221,25.4752]},"geometry":{"type":"MultiPolygon","coordinates":[[[[56.2358,25.2112],[56.2522,25.2176],[56.2818,25.2369],[56.2931,25.2458],[56.3164,25.2534],[56.3444,25.2665],[56.3491,25.294],[56.3563,25.303],[56.3817,25.3209],[56.383,25.3213],[56.3836,25.3135],[56.3827,25.3022],[56.3784,25.2826],[56.3753,25.2528],[56.366,25.2092],[56.3622,25.0683],[56.3567,25.0692],[56.3037,25.0802],[56.295,25.0804],[56.2855,25.0784],[56.2851,25.0742],[56.2868,25.0703],[56.2902,25.065],[56.2934,25.0581],[56.2959,25.05],[56.2976,25.0358],[56.2993,25.0297],[56.3026,25.0245],[56.3058,25.0205],[56.3068,25.0138],[56.3057,25.0048],[56.3017,24.9916],[56.2962,24.9839],[56.2903,24.9792],[56.2823,24.9514],[56.2705,24.9392],[56.2537,24.977],[56.1823,25.0464],[56.1763,25.0507],[56.164,25.0534],[56.1597,25.0674],[56.1566,25.0739],[56.1538,25.0819],[56.1525,25.0906],[56.1535,25.1026],[56.1651,25.1659],[56.1654,25.1769],[56.1647,25.1882],[56.1595,25.209],[56.1601,25.2159],[56.1661,25.2197],[56.1943,25.2222],[56.2067,25.2267],[56.2076,25.2208],[56.22,25.2153],[56.2358,25.2112]]],[[[56.2606,25.3311],[56.2336,25.3125],[56.2056,25.3079],[56.1972,25.3115],[56.1961,25.314],[56.1963,25.3171],[56.198,25.3202],[56.1989,25.323],[56.1978,25.3252],[56.1947,25.3269],[56.1626,25.3348],[56.1586,25.3351],[56.1508,25.3325],[56.1429,25.3273],[56.1294,25.3143],[56.1286,25.3095],[56.1313,25.3074],[56.1381,25.3082],[56.1432,25.3078],[56.1471,25.3062],[56.1522,25.3003],[56.1541,25.2987],[56.1572,25.2974],[56.1603,25.2968],[56.164,25.2965],[56.1775,25.2973],[56.1786,25.2968],[56.1794,25.2962],[56.1799,25.2953],[56.1795,25.294],[56.1749,25.2858],[56.1695,25.2807],[56.1622,25.2748],[56.1462,25.2647],[56.142,25.2574],[56.1404,25.2508],[56.1415,25.2453],[56.1415,25.2402],[56.1397,25.236],[56.1366,25.2329],[56.131,25.2296],[56.1283,25.2268],[56.1255,25.2224],[56.1193,25.2194],[56.1088,25.2182],[56.0788,25.2238],[56.0694,25.224],[56.0598,25.2208],[56.0511,25.2187],[56.0388,25.219],[56.0236,25.2231],[55.9862,25.2253],[55.9889,25.2464],[55.9887,25.252],[55.9773,25.282],[56.0027,25.3013],[56.007,25.3117],[56.0062,25.3156],[56.0048,25.319],[56.0028,25.3218],[56.0002,25.3239],[55.9971,25.3256],[55.9831,25.3318],[56.0013,25.3809],[56.0089,25.3752],[56.0127,25.3707],[56.0168,25.3649],[56.0219,25.3598],[56.0284,25.3564],[56.0773,25.3431],[56.0878,25.3419],[56.0968,25.3434],[56.1046,25.3472],[56.1108,25.3523],[56.1178,25.3601],[56.1231,25.3618],[56.1288,25.3616],[56.1335,25.3646],[56.1366,25.3723],[56.1348,25.3928],[56.1302,25.3993],[56.1231,25.402],[56.1152,25.4003],[56.1085,25.4002],[56.1031,25.4016],[56.0993,25.404],[56.0977,25.4069],[56.0968,25.4101],[56.0957,25.4123],[56.0943,25.4142],[56.0932,25.4155],[56.0917,25.4175],[56.0925,25.4198],[56.0953,25.4236],[56.1195,25.4481],[56.1254,25.4571],[56.1279,25.4658],[56.1257,25.4739],[56.1224,25.4798],[56.1094,25.4959],[56.105,25.4999],[56.1047,25.5002],[56.1044,25.5004],[56.1034,25.5009],[56.1004,25.5019],[56.0959,25.5021],[56.0919,25.5013],[56.0898,25.5006],[56.0889,25.5002],[56.0756,25.4909],[56.07,25.4884],[56.0636,25.487],[56.0422,25.488],[56.0117,25.4853],[56.0081,25.4857],[56.0013,25.4884],[55.9983,25.4893],[55.9887,25.491],[55.9848,25.4928],[55.9826,25.4956],[55.9817,25.4996],[55.9792,25.5158],[55.971,25.5484],[55.971,25.5561],[55.9657,25.5767],[55.9662,25.5842],[55.9697,25.5909],[55.9778,25.5967],[55.9882,25.598],[55.9961,25.5969],[56.0023,25.5967],[56.011,25.5989],[56.0222,25.6047],[56.0465,25.6286],[56.0587,25.6373],[56.0641,25.6404],[56.0688,25.6418],[56.0748,25.6395],[56.0835,25.6385],[56.0973,25.6391],[56.139,25.6496],[56.1525,25.658],[56.1564,25.6559],[56.1799,25.6521],[56.1888,25.6454],[56.1988,25.6253],[56.2058,25.6178],[56.2215,25.6138],[56.2375,25.6166],[56.2791,25.6274],[56.3003,25.6162],[56.3233,25.6078],[56.34,25.6046],[56.348,25.5931],[56.37,25.5257],[56.3638,25.4333],[56.365,25.4232],[56.3603,25.4212],[56.32,25.3876],[56.2827,25.3672],[56.2725,25.3592],[56.2668,25.3483],[56.2639,25.3383],[56.2606,25.3311]]],[[[56.3143,24.912],[56.3136,24.9051],[56.3083,24.8952],[56.2803,24.877],[56.2747,24.8719],[56.2745,24.8723],[56.2702,24.8832],[56.2529,24.8948],[56.2593,24.9151],[56.2756,24.914],[56.3066,24.9085],[56.3141,24.9119],[56.3143,24.912]]]]}},{"type":"Feature","properties":{"id":"ARE-344","name":"Neutral Zone","nameBn":"নিউট্রাল জোন","type":"Emirate","bounds":[56.2705,24.9085,56.3161,24.9514],"center":[56.2932,24.925]},"geometry":{"type":"Polygon","coordinates":[[[56.3161,24.9299],[56.3143,24.912],[56.3141,24.9119],[56.3066,24.9085],[56.2756,24.914],[56.2717,24.9298],[56.2705,24.9392],[56.2823,24.9514],[56.2969,24.9351],[56.3102,24.9303],[56.3159,24.9299],[56.3161,24.9299]]]}},{"type":"Feature","properties":{"id":"ARE-347","name":"Neutral Zone","nameBn":"নিউট্রাল জোন","type":"Emirate","bounds":[55.9576,24.73,56.1057,24.8861],"center":[56.0315,24.8164]},"geometry":{"type":"Polygon","coordinates":[[[56.0293,24.8612],[56.0253,24.8826],[56.0509,24.8662],[56.1057,24.8204],[56.0824,24.7716],[56.0759,24.7517],[56.0771,24.7381],[56.0763,24.7302],[56.0763,24.73],[56.0621,24.7318],[56.0315,24.7541],[56.0021,24.823],[55.9648,24.8539],[55.9576,24.8687],[55.9609,24.8812],[55.9784,24.8861],[55.9924,24.883],[56.0053,24.877],[56.0293,24.8612]]]}},{"type":"Feature","properties":{"id":"ARE-338","name":"Ras Al Khaymah","nameBn":"রাস আল-খাইমাহ","type":"Emirate","bounds":[55.746,24.8204,56.2747,26.0748],"center":[55.9791,25.6964]},"geometry":{"type":"MultiPolygon","coordinates":[[[[56.2336,25.3125],[56.2357,25.2963],[56.2389,25.2862],[56.2449,25.278],[56.2351,25.2675],[56.2084,25.2554],[56.2061,25.2306],[56.2067,25.2267],[56.1943,25.2222],[56.1661,25.2197],[56.1601,25.2159],[56.1595,25.209],[56.1647,25.1882],[56.1654,25.1769],[56.1651,25.1659],[56.1535,25.1026],[56.1525,25.0906],[56.1538,25.0819],[56.1566,25.0739],[56.1597,25.0674],[56.164,25.0534],[56.1527,25.0474],[56.1516,25.0425],[56.1522,25.0358],[56.1718,25.0067],[56.1851,24.979],[56.1892,24.9666],[56.1895,24.9586],[56.1864,24.9525],[56.1826,24.9428],[56.1811,24.9225],[56.1862,24.9115],[56.1946,24.9039],[56.2042,24.9006],[56.2529,24.8948],[56.2702,24.8832],[56.2745,24.8723],[56.2747,24.8719],[56.2417,24.8424],[56.2237,24.8345],[56.1863,24.8302],[56.1714,24.8241],[56.1709,24.824],[56.1057,24.8204],[56.0509,24.8662],[56.0253,24.8826],[56.017,24.9266],[56.0056,24.9562],[55.9784,24.9718],[55.9759,24.9721],[55.9759,24.9723],[55.9767,24.982],[55.9707,25.0032],[55.9535,25.0336],[55.9501,25.0436],[55.9485,25.0589],[55.9485,25.0711],[55.9507,25.0841],[55.9727,25.1327],[55.9786,25.1412],[55.9787,25.1453],[55.975,25.1525],[55.9699,25.1595],[55.957,25.1721],[55.9532,25.1775],[55.9521,25.1823],[55.9519,25.187],[55.9609,25.201],[55.9755,25.2111],[55.9862,25.2253],[56.0236,25.2231],[56.0388,25.219],[56.0511,25.2187],[56.0598,25.2208],[56.0694,25.224],[56.0788,25.2238],[56.1088,25.2182],[56.1193,25.2194],[56.1255,25.2224],[56.1283,25.2268],[56.131,25.2296],[56.1366,25.2329],[56.1397,25.236],[56.1415,25.2402],[56.1415,25.2453],[56.1404,25.2508],[56.142,25.2574],[56.1462,25.2647],[56.1622,25.2748],[56.1695,25.2807],[56.1749,25.2858],[56.1795,25.294],[56.1799,25.2953],[56.1794,25.2962],[56.1786,25.2968],[56.1775,25.2973],[56.164,25.2965],[56.1603,25.2968],[56.1572,25.2974],[56.1541,25.2987],[56.1522,25.3003],[56.1471,25.3062],[56.1432,25.3078],[56.1381,25.3082],[56.1313,25.3074],[56.1286,25.3095],[56.1294,25.3143],[56.1429,25.3273],[56.1508,25.3325],[56.1586,25.3351],[56.1626,25.3348],[56.1947,25.3269],[56.1978,25.3252],[56.1989,25.323],[56.198,25.3202],[56.1963,25.3171],[56.1961,25.314],[56.1972,25.3115],[56.2056,25.3079],[56.2336,25.3125]]],[[[56.1513,26.0748],[56.1627,26.0736],[56.1784,26.035],[56.1835,26.0145],[56.1813,25.9962],[56.1747,25.9665],[56.1706,25.8768],[56.1638,25.8625],[56.1445,25.8379],[56.1397,25.823],[56.1441,25.8059],[56.1674,25.7777],[56.172,25.7653],[56.1649,25.7522],[56.152,25.7431],[56.1412,25.7327],[56.1404,25.7155],[56.1451,25.6708],[56.1508,25.6588],[56.1525,25.658],[56.139,25.6496],[56.0973,25.6391],[56.0835,25.6385],[56.0748,25.6395],[56.0688,25.6418],[56.0641,25.6404],[56.0587,25.6373],[56.0465,25.6286],[56.0222,25.6047],[56.011,25.5989],[56.0023,25.5967],[55.9961,25.5969],[55.9882,25.598],[55.9778,25.5967],[55.9697,25.5909],[55.9662,25.5842],[55.9657,25.5767],[55.971,25.5561],[55.971,25.5484],[55.9792,25.5158],[55.9817,25.4996],[55.9826,25.4956],[55.9848,25.4928],[55.9887,25.491],[55.9983,25.4893],[56.0013,25.4884],[56.0081,25.4857],[56.0117,25.4853],[56.0422,25.488],[56.0636,25.487],[56.07,25.4884],[56.0756,25.4909],[56.0889,25.5002],[56.0898,25.5006],[56.0919,25.5013],[56.0959,25.5021],[56.1004,25.5019],[56.1034,25.5009],[56.1044,25.5004],[56.1047,25.5002],[56.105,25.4999],[56.1094,25.4959],[56.1224,25.4798],[56.1257,25.4739],[56.1279,25.4658],[56.1254,25.4571],[56.1195,25.4481],[56.0953,25.4236],[56.0925,25.4198],[56.0917,25.4175],[56.0932,25.4155],[56.0943,25.4142],[56.0957,25.4123],[56.0968,25.4101],[56.0977,25.4069],[56.0993,25.404],[56.1031,25.4016],[56.1085,25.4002],[56.1152,25.4003],[56.1231,25.402],[56.1302,25.3993],[56.1348,25.3928],[56.1366,25.3723],[56.1335,25.3646],[56.1288,25.3616],[56.1231,25.3618],[56.1178,25.3601],[56.1108,25.3523],[56.1046,25.3472],[56.0968,25.3434],[56.0878,25.3419],[56.0773,25.3431],[56.0284,25.3564],[56.0219,25.3598],[56.0168,25.3649],[56.0127,25.3707],[56.0089,25.3752],[56.0013,25.3809],[55.9798,25.3896],[55.9733,25.3887],[55.9657,25.3846],[55.9623,25.3753],[55.9578,25.3524],[55.9443,25.3259],[55.9281,25.3476],[55.9069,25.3713],[55.8805,25.3937],[55.8793,25.402],[55.8832,25.4097],[55.8881,25.4174],[55.8886,25.4274],[55.8821,25.4365],[55.8445,25.4735],[55.8376,25.4859],[55.8346,25.4956],[55.8341,25.499],[55.8346,25.5087],[55.8331,25.5245],[55.8289,25.5455],[55.802,25.6262],[55.7966,25.634],[55.7891,25.6375],[55.7792,25.6399],[55.7715,25.641],[55.7472,25.6612],[55.7461,25.6622],[55.746,25.6623],[55.7595,25.6797],[55.7705,25.6872],[55.7796,25.6884],[55.7922,25.692],[55.8035,25.6974],[55.8084,25.7042],[55.8128,25.7065],[55.8425,25.7138],[55.8781,25.7401],[55.9325,25.8026],[55.9597,25.8237],[55.9538,25.8146],[55.9474,25.7941],[55.9372,25.7767],[55.9413,25.7707],[55.9485,25.7689],[55.9523,25.7721],[55.9544,25.7871],[55.9637,25.8154],[55.966,25.8342],[55.9723,25.8428],[56.0144,25.8789],[56.0232,25.8892],[56.0308,25.9009],[56.0369,25.9151],[56.041,25.9335],[56.0342,25.9335],[56.0306,25.9243],[56.0247,25.9164],[56.0169,25.9105],[56.0076,25.9069],[56.0337,25.9464],[56.0553,25.9888],[56.0733,26.0523],[56.0774,26.061],[56.1006,26.0629],[56.1513,26.0748]]]]}},{"type":"Feature","properties":{"id":"ARE-348","name":"Sharjah","nameBn":"শারজাহ আমিরাত","type":"Emirate","bounds":[55.3248,24.6908,56.3833,25.5133],"center":[55.7788,25.172]},"geometry":{"type":"MultiPolygon","coordinates":[[[[56.3491,25.294],[56.3094,25.3013],[56.2907,25.3275],[56.2606,25.3311],[56.2639,25.3383],[56.2668,25.3483],[56.2725,25.3592],[56.2827,25.3672],[56.32,25.3876],[56.3603,25.4212],[56.365,25.4232],[56.3683,25.3963],[56.367,25.3889],[56.3592,25.3764],[56.3602,25.3673],[56.37,25.3513],[56.3747,25.3412],[56.3792,25.3346],[56.3825,25.3269],[56.383,25.3213],[56.3817,25.3209],[56.3563,25.303],[56.3491,25.294]]],[[[56.3833,24.9782],[56.329,24.9727],[56.3245,24.9679],[56.3193,24.9625],[56.3161,24.9299],[56.3159,24.9299],[56.3102,24.9303],[56.2969,24.9351],[56.2823,24.9514],[56.2903,24.9792],[56.2962,24.9839],[56.3017,24.9916],[56.3057,25.0048],[56.3068,25.0138],[56.3058,25.0205],[56.3026,25.0245],[56.2993,25.0297],[56.2976,25.0358],[56.2959,25.05],[56.2934,25.0581],[56.2902,25.065],[56.2868,25.0703],[56.2851,25.0742],[56.2855,25.0784],[56.295,25.0804],[56.3037,25.0802],[56.3567,25.0692],[56.3622,25.0683],[56.362,25.0573],[56.3833,24.9782]]],[[[55.9759,24.9721],[55.9354,24.9777],[55.897,24.9686],[55.8622,24.9485],[55.8578,24.9449],[55.8294,24.9212],[55.7991,24.8861],[55.7887,24.8552],[55.797,24.7784],[55.797,24.7595],[55.7927,24.7223],[55.7948,24.7039],[55.7999,24.6932],[55.7898,24.691],[55.7489,24.6908],[55.6709,24.709],[55.6763,24.7205],[55.6785,24.7282],[55.6804,24.7392],[55.6813,24.7523],[55.681,24.7693],[55.676,24.8006],[55.6644,24.8424],[55.6608,24.8719],[55.6611,24.8954],[55.6597,24.9029],[55.6562,24.9156],[55.6448,24.9438],[55.6274,24.9764],[55.6195,24.9993],[55.62,25.0003],[55.62,25.0004],[55.6257,25.0111],[55.6291,25.0153],[55.6341,25.0203],[55.6467,25.0304],[55.6521,25.0359],[55.6562,25.0422],[55.658,25.0483],[55.6577,25.0548],[55.6287,25.1644],[55.6167,25.1851],[55.6008,25.2003],[55.5294,25.2439],[55.5219,25.252],[55.514,25.2587],[55.5063,25.2638],[55.4738,25.2807],[55.4654,25.2877],[55.4547,25.302],[55.4488,25.3068],[55.4397,25.3051],[55.4065,25.2943],[55.3779,25.2927],[55.3267,25.3056],[55.3249,25.307],[55.3248,25.3071],[55.3394,25.3214],[55.3482,25.3248],[55.3633,25.324],[55.3587,25.3366],[55.3594,25.3486],[55.3655,25.3586],[55.377,25.365],[55.3871,25.3571],[55.4072,25.3727],[55.4245,25.3945],[55.4246,25.3945],[55.4251,25.3943],[55.4478,25.3806],[55.478,25.3708],[55.5129,25.3638],[55.5975,25.3596],[55.6042,25.3609],[55.6098,25.3651],[55.6191,25.3797],[55.6322,25.4132],[55.6279,25.418],[55.6175,25.4218],[55.5573,25.4317],[55.546,25.4357],[55.5309,25.4446],[55.5208,25.449],[55.5049,25.4521],[55.4931,25.4596],[55.4922,25.4601],[55.4921,25.4602],[55.4956,25.4661],[55.5066,25.4748],[55.4942,25.4808],[55.5005,25.493],[55.5134,25.5089],[55.5152,25.5133],[55.5153,25.5132],[55.5182,25.512],[55.5837,25.4752],[55.6136,25.4518],[55.6259,25.4444],[55.6963,25.4184],[55.7151,25.4064],[55.7615,25.3689],[55.7741,25.3559],[55.782,25.3441],[55.7885,25.318],[55.7987,25.2967],[55.8067,25.2861],[55.8133,25.2811],[55.8228,25.2778],[55.8354,25.277],[55.8496,25.2775],[55.8633,25.2802],[55.8709,25.2829],[55.8823,25.2883],[55.8968,25.2923],[55.9043,25.2951],[55.9097,25.2991],[55.9128,25.3048],[55.9137,25.3123],[55.9125,25.3211],[55.9102,25.3296],[55.9054,25.3422],[55.9069,25.3457],[55.9098,25.3479],[55.9281,25.3476],[55.9443,25.3259],[55.9578,25.3524],[55.9623,25.3753],[55.9657,25.3846],[55.9733,25.3887],[55.9798,25.3896],[56.0013,25.3809],[55.9831,25.3318],[55.9752,25.3268],[55.9714,25.3238],[55.967,25.3192],[55.9654,25.3123],[55.9648,25.3065],[55.9773,25.282],[55.9887,25.252],[55.9889,25.2464],[55.9862,25.2253],[55.9755,25.2111],[55.9609,25.201],[55.9519,25.187],[55.9521,25.1823],[55.9532,25.1775],[55.957,25.1721],[55.9699,25.1595],[55.975,25.1525],[55.9787,25.1453],[55.9786,25.1412],[55.9727,25.1327],[55.9507,25.0841],[55.9485,25.0711],[55.9485,25.0589],[55.9501,25.0436],[55.9535,25.0336],[55.9707,25.0032],[55.9767,24.982],[55.9759,24.9723],[55.9759,24.9721]]],[[[56.2738,25.2813],[56.2883,25.2719],[56.283,25.2555],[56.263,25.2492],[56.2596,25.276],[56.2651,25.2812],[56.2738,25.2813]]],[[[56.164,25.0534],[56.1763,25.0507],[56.1823,25.0464],[56.2537,24.977],[56.2705,24.9392],[56.2717,24.9298],[56.2756,24.914],[56.2593,24.9151],[56.2529,24.8948],[56.2042,24.9006],[56.1946,24.9039],[56.1862,24.9115],[56.1811,24.9225],[56.1826,24.9428],[56.1864,24.9525],[56.1895,24.9586],[56.1892,24.9666],[56.1851,24.979],[56.1718,25.0067],[56.1522,25.0358],[56.1516,25.0425],[56.1527,25.0474],[56.164,25.0534]]]]}},{"type":"Feature","properties":{"id":"ARE-339","name":"Umm Al Qaywayn","nameBn":"উম্মুল কুয়াইন","type":"Emirate","bounds":[55.5152,25.277,55.9281,25.6623],"center":[55.7217,25.5218]},"geometry":{"type":"Polygon","coordinates":[[[55.5152,25.5133],[55.5203,25.5257],[55.5247,25.5426],[55.5357,25.5624],[55.551,25.5786],[55.5681,25.5847],[55.5596,25.5683],[55.5486,25.5549],[55.5422,25.5425],[55.5482,25.5295],[55.5637,25.5237],[55.5833,25.5268],[55.6052,25.5329],[55.6263,25.5363],[55.6326,25.5442],[55.6481,25.5832],[55.6569,25.5977],[55.6834,25.6235],[55.6995,25.6347],[55.7339,25.6468],[55.746,25.6623],[55.7461,25.6622],[55.7472,25.6612],[55.7715,25.641],[55.7792,25.6399],[55.7891,25.6375],[55.7966,25.634],[55.802,25.6262],[55.8289,25.5455],[55.8331,25.5245],[55.8346,25.5087],[55.8341,25.499],[55.8346,25.4956],[55.8376,25.4859],[55.8445,25.4735],[55.8821,25.4365],[55.8886,25.4274],[55.8881,25.4174],[55.8832,25.4097],[55.8793,25.402],[55.8805,25.3937],[55.9069,25.3713],[55.9281,25.3476],[55.9098,25.3479],[55.9069,25.3457],[55.9054,25.3422],[55.9102,25.3296],[55.9125,25.3211],[55.9137,25.3123],[55.9128,25.3048],[55.9097,25.2991],[55.9043,25.2951],[55.8968,25.2923],[55.8823,25.2883],[55.8709,25.2829],[55.8633,25.2802],[55.8496,25.2775],[55.8354,25.277],[55.8228,25.2778],[55.8133,25.2811],[55.8067,25.2861],[55.7987,25.2967],[55.7885,25.318],[55.782,25.3441],[55.7741,25.3559],[55.7615,25.3689],[55.7151,25.4064],[55.6963,25.4184],[55.6259,25.4444],[55.6136,25.4518],[55.5837,25.4752],[55.5182,25.512],[55.5153,25.5132],[55.5152,25.5133]]]}}]}