{"type":"FeatureCollection","features":[{"type":"Feature","properties":{"id":"ATG-5091","name":"Barbuda","nameBn":"বারবুডা","type":"Dependency","bounds":[-61.8738,17.5456,-61.7278,17.7277],"center":[-61.792,17.6155]},"geometry":{"type":"Polygon","coordinates":[[[-61.8389,17.5933],[-61.8518,17.5866],[-61.8573,17.601],[-61.8594,17.6418],[-61.8639,17.6601],[-61.8697,17.6755],[-61.8738,17.6911],[-61.873,17.7106],[-61.8694,17.7073],[-61.8678,17.7041],[-61.8662,17.6964],[-61.8601,17.6842],[-61.8442,17.666],[-61.8389,17.6554],[-61.8392,17.6414],[-61.8432,17.6296],[-61.8432,17.6202],[-61.8315,17.6138],[-61.8265,17.6325],[-61.825,17.6579],[-61.8312,17.6805],[-61.8492,17.6901],[-61.8564,17.7011],[-61.8517,17.7203],[-61.8378,17.7277],[-61.8179,17.7032],[-61.8246,17.6994],[-61.8315,17.6964],[-61.8182,17.6918],[-61.7973,17.6988],[-61.7843,17.6964],[-61.7682,17.6846],[-61.7543,17.6688],[-61.7433,17.6514],[-61.7359,17.6349],[-61.7287,17.605],[-61.7278,17.5884],[-61.7296,17.5728],[-61.7364,17.554],[-61.7433,17.5506],[-61.7536,17.5515],[-61.7707,17.5456],[-61.777,17.5634],[-61.7947,17.5761],[-61.8389,17.5933]]]}},{"type":"Feature","properties":{"id":"ATG-5092","name":"Redonda","nameBn":"রেডোন্ডা","type":"Dependency","bounds":[-62.3483,16.932,-62.3429,16.9409],"center":[-62.3467,16.9335]},"geometry":{"type":"Polygon","coordinates":[[[-62.3456,16.9391],[-62.3446,16.9404],[-62.3431,16.9409],[-62.3429,16.9384],[-62.3431,16.9351],[-62.3445,16.9325],[-62.3471,16.932],[-62.3483,16.9337],[-62.3473,16.9374],[-62.3456,16.9391]]]}},{"type":"Feature","properties":{"id":"ATG-5093","name":"Saint George","nameBn":"সেন্ট জর্জ প্যারিশ","type":"Parish","bounds":[-61.8058,17.0714,-61.7558,17.1649],"center":[-61.7804,17.1084]},"geometry":{"type":"Polygon","coordinates":[[[-61.7934,17.1649],[-61.7807,17.1472],[-61.773,17.1265],[-61.7564,17.1142],[-61.762,17.1082],[-61.7569,17.1],[-61.7558,17.0898],[-61.7671,17.0857],[-61.7742,17.0714],[-61.7814,17.0745],[-61.7956,17.0837],[-61.7936,17.0949],[-61.7967,17.1163],[-61.8048,17.1235],[-61.8058,17.1439],[-61.7916,17.1449],[-61.7934,17.1649]]]}},{"type":"Feature","properties":{"id":"ATG-5098","name":"Saint John","nameBn":"সেন্ট জন","type":"Parish","bounds":[-61.8942,17.0429,-61.7742,17.1688],"center":[-61.8237,17.1101]},"geometry":{"type":"Polygon","coordinates":[[[-61.8662,17.0869],[-61.8734,17.0895],[-61.8942,17.1005],[-61.8831,17.1105],[-61.8654,17.1178],[-61.8424,17.1244],[-61.8505,17.1376],[-61.8488,17.1495],[-61.8397,17.1599],[-61.8253,17.1688],[-61.7934,17.1649],[-61.7916,17.1449],[-61.8058,17.1439],[-61.8048,17.1235],[-61.7967,17.1163],[-61.7936,17.0949],[-61.7956,17.0837],[-61.7814,17.0745],[-61.7742,17.0714],[-61.7742,17.0602],[-61.7844,17.0622],[-61.8069,17.0561],[-61.815,17.048],[-61.8201,17.0592],[-61.8354,17.0429],[-61.8314,17.0684],[-61.8263,17.0796],[-61.8273,17.0827],[-61.8446,17.0867],[-61.8538,17.0949],[-61.8662,17.0869]]]}},{"type":"Feature","properties":{"id":"ATG-5097","name":"Saint Mary","nameBn":"সেন্ট ম্যারি পারিশ","type":"Parish","bounds":[-61.8904,17.0048,-61.8041,17.0949],"center":[-61.857,17.0368]},"geometry":{"type":"Polygon","coordinates":[[[-61.8041,17.0073],[-61.8179,17.005],[-61.8387,17.0048],[-61.8517,17.0076],[-61.8837,17.0263],[-61.8904,17.0354],[-61.8836,17.049],[-61.8792,17.0605],[-61.8828,17.0702],[-61.8824,17.0788],[-61.8662,17.0869],[-61.8538,17.0949],[-61.8446,17.0867],[-61.8273,17.0827],[-61.8263,17.0796],[-61.8314,17.0684],[-61.8354,17.0429],[-61.8201,17.0592],[-61.815,17.048],[-61.8079,17.0347],[-61.8109,17.0235],[-61.8041,17.0073]]]}},{"type":"Feature","properties":{"id":"ATG-5096","name":"Saint Paul","nameBn":"সেন্ট পল পাারিশ","type":"Parish","bounds":[-61.815,16.9892,-61.7262,17.0643],"center":[-61.7671,17.0352]},"geometry":{"type":"Polygon","coordinates":[[[-61.7262,17.0385],[-61.734,17.0349],[-61.7344,17.0258],[-61.7296,17.0012],[-61.7371,16.9892],[-61.7535,16.9968],[-61.7698,17.011],[-61.7768,17.0185],[-61.7836,17.0169],[-61.8041,17.0073],[-61.8109,17.0235],[-61.8079,17.0347],[-61.815,17.048],[-61.8069,17.0561],[-61.7844,17.0622],[-61.7742,17.0602],[-61.7487,17.0602],[-61.7334,17.0643],[-61.7262,17.0385]]]}},{"type":"Feature","properties":{"id":"ATG-5094","name":"Saint Peter","nameBn":"সেন্ট পিটার পারিশ","type":"Parish","bounds":[-61.7742,17.0602,-61.7086,17.1415],"center":[-61.7404,17.0935]},"geometry":{"type":"Polygon","coordinates":[[[-61.7564,17.1142],[-61.7554,17.123],[-61.7528,17.1289],[-61.7433,17.1415],[-61.7376,17.133],[-61.7298,17.128],[-61.7201,17.1264],[-61.7086,17.1278],[-61.7135,17.1225],[-61.7163,17.1188],[-61.7205,17.1161],[-61.7296,17.1142],[-61.7251,17.0998],[-61.7148,17.0931],[-61.7283,17.0837],[-61.7334,17.0643],[-61.7487,17.0602],[-61.7742,17.0602],[-61.7742,17.0714],[-61.7671,17.0857],[-61.7558,17.0898],[-61.7569,17.1],[-61.762,17.1082],[-61.7564,17.1142]]]}},{"type":"Feature","properties":{"id":"ATG-5095","name":"Saint Philip","nameBn":"সেন্ট ফিলিপ পারিস","type":"Parish","bounds":[-61.7334,17.0278,-61.6676,17.1005],"center":[-61.7021,17.0601]},"geometry":{"type":"Polygon","coordinates":[[[-61.7148,17.0931],[-61.7017,17.0935],[-61.6881,17.1005],[-61.6807,17.1005],[-61.6755,17.0956],[-61.6721,17.0906],[-61.6676,17.0794],[-61.6744,17.0799],[-61.6881,17.0789],[-61.6949,17.0794],[-61.6857,17.0683],[-61.6771,17.0629],[-61.6722,17.0576],[-61.6744,17.0459],[-61.6857,17.0286],[-61.697,17.0278],[-61.7099,17.0342],[-61.7262,17.0385],[-61.7334,17.0643],[-61.7283,17.0837],[-61.7148,17.0931]]]}}]}