{"type":"FeatureCollection","features":[{"type":"Feature","properties":{"id":"AZE-1690","name":"Abşeron","nameBn":"আবশেরন জেলা","type":"District","bounds":[48.8506,39.953,49.8883,40.6368],"center":[49.3694,40.3278]},"geometry":{"type":"MultiPolygon","coordinates":[[[[49.0757,40.1497],[49.0391,40.1522],[49.0044,40.1599],[48.9753,40.1893],[48.947,40.2218],[48.9182,40.2465],[48.887,40.2689],[48.8597,40.2916],[48.8506,40.3285],[48.8851,40.3178],[48.9171,40.3011],[48.9363,40.2915],[48.954,40.307],[48.9761,40.324],[48.9978,40.3413],[49.026,40.3636],[49.0603,40.3722],[49.0802,40.3879],[49.0955,40.41],[49.1241,40.4228],[49.1556,40.4272],[49.186,40.4375],[49.2145,40.455],[49.2421,40.4763],[49.2631,40.5056],[49.3367,40.5075],[49.4013,40.5298],[49.4057,40.5485],[49.4101,40.5675],[49.4217,40.5801],[49.435,40.5921],[49.4627,40.6107],[49.4827,40.6368],[49.5214,40.6173],[49.5556,40.5868],[49.5717,40.5645],[49.589,40.5438],[49.6397,40.54],[49.6904,40.5534],[49.7096,40.537],[49.7326,40.5334],[49.7505,40.5397],[49.7691,40.5443],[49.811,40.5345],[49.8534,40.5238],[49.8883,40.5132],[49.8693,40.497],[49.8239,40.4877],[49.7781,40.4799],[49.7544,40.4712],[49.7304,40.4654],[49.7084,40.471],[49.6855,40.476],[49.655,40.4751],[49.6253,40.471],[49.5435,40.4691],[49.5175,40.4467],[49.4932,40.4276],[49.4508,40.4226],[49.4193,40.3981],[49.4203,40.3476],[49.4296,40.2924],[49.4256,40.2366],[49.3963,40.1929],[49.3794,40.1803],[49.3719,40.1633],[49.373,40.1466],[49.3662,40.1277],[49.3486,40.1087],[49.3366,40.0867],[49.3412,40.0658],[49.3444,40.0455],[49.3288,40.0263],[49.3117,40.0074],[49.3044,39.9804],[49.2919,39.953],[49.2736,39.9732],[49.2536,39.9915],[49.2451,40.0081],[49.243,40.0277],[49.2214,40.0562],[49.2014,40.0859],[49.1934,40.1194],[49.1691,40.1445],[49.1232,40.1503],[49.0757,40.1497]]],[[[49.6445,40.3682],[49.6223,40.3722],[49.6143,40.3908],[49.5994,40.4078],[49.5968,40.4109],[49.6286,40.4259],[49.6699,40.4276],[49.6913,40.4026],[49.7022,40.388],[49.6904,40.3782],[49.6682,40.3701],[49.6445,40.3682]]]]}},{"type":"Feature","properties":{"id":"AZE-1695","name":"Astara","nameBn":"আস্তারা জেলা","type":"District","bounds":[48.5356,38.3926,48.8743,38.6025],"center":[48.7049,38.4938]},"geometry":{"type":"Polygon","coordinates":[[[48.613,38.3956],[48.6079,38.396],[48.5759,38.4204],[48.5486,38.4563],[48.5356,38.4692],[48.547,38.4945],[48.5617,38.5153],[48.569,38.5386],[48.587,38.5524],[48.6084,38.5614],[48.6319,38.5671],[48.6542,38.5645],[48.6763,38.5714],[48.6981,38.5817],[48.788,38.5854],[48.8685,38.6025],[48.8743,38.4342],[48.8743,38.4341],[48.8097,38.4446],[48.7777,38.4448],[48.7553,38.4352],[48.7356,38.4196],[48.7103,38.4071],[48.6832,38.398],[48.6591,38.3926],[48.613,38.3956]]]}},{"type":"Feature","properties":{"id":"AZE-1722","name":"Ağcabədi","nameBn":"আগজাবাদি জেলা","type":"District","bounds":[47.0724,39.708,47.7566,40.2537],"center":[47.4145,39.971]},"geometry":{"type":"Polygon","coordinates":[[[47.1294,40.0507],[47.1326,40.0514],[47.1389,40.053],[47.1666,40.0721],[47.1367,40.0918],[47.1407,40.1146],[47.1877,40.1379],[47.2289,40.1698],[47.227,40.1856],[47.253,40.1693],[47.2823,40.1534],[47.3156,40.1619],[47.3997,40.2046],[47.4843,40.2537],[47.4858,40.2505],[47.491,40.2477],[47.4967,40.2416],[47.5172,40.2081],[47.5412,40.178],[47.5438,40.1727],[47.5592,40.1768],[47.576,40.1878],[47.5955,40.1967],[47.6196,40.1945],[47.628,40.1889],[47.6339,40.1771],[47.6401,40.1727],[47.6519,40.1722],[47.6607,40.1764],[47.6696,40.1788],[47.6817,40.1727],[47.7125,40.2026],[47.7241,40.2032],[47.7288,40.1765],[47.7359,40.1635],[47.7523,40.1598],[47.7566,40.1595],[47.7138,40.0851],[47.6912,40.0471],[47.6812,39.9987],[47.6702,39.9518],[47.6549,39.9162],[47.6258,39.8926],[47.5922,39.8853],[47.5601,39.8749],[47.5361,39.8734],[47.512,39.8749],[47.5004,39.8687],[47.4937,39.8582],[47.4633,39.8485],[47.4462,39.8266],[47.4533,39.8103],[47.4589,39.7973],[47.4457,39.7905],[47.4325,39.7819],[47.4466,39.7622],[47.4659,39.7383],[47.3883,39.7239],[47.3115,39.708],[47.3394,39.7502],[47.3242,39.7888],[47.3113,39.7951],[47.2747,39.813],[47.2578,39.842],[47.249,39.857],[47.2569,39.8607],[47.2643,39.8655],[47.2857,39.9005],[47.263,39.9295],[47.219,39.9244],[47.1766,39.912],[47.1759,39.9121],[47.0945,39.9256],[47.0724,39.9747],[47.0852,39.9809],[47.0977,39.9886],[47.1002,40.0164],[47.1018,40.0439],[47.1294,40.0507]]]}},{"type":"Feature","properties":{"id":"AZE-1691","name":"Ağdam","nameBn":"আগডাম জেলা","type":"District","bounds":[46.6979,39.7953,47.2857,40.2218],"center":[46.9918,40.0455]},"geometry":{"type":"Polygon","coordinates":[[[46.7334,39.9983],[46.6979,40.0182],[46.719,40.0274],[46.727,40.0309],[46.7616,40.033],[46.7661,40.0691],[46.7806,40.096],[46.8064,40.1166],[46.8141,40.1507],[46.8237,40.1541],[46.83,40.1563],[46.8681,40.1696],[46.9309,40.1933],[46.9252,40.209],[46.9251,40.2092],[46.9322,40.2218],[46.933,40.2216],[46.9449,40.2183],[46.9557,40.2104],[46.9806,40.2068],[47.0038,40.2141],[47.0227,40.196],[47.0319,40.1702],[47.0582,40.164],[47.0687,40.165],[47.07,40.1652],[47.0863,40.1669],[47.1572,40.1713],[47.2289,40.1698],[47.1877,40.1379],[47.1407,40.1146],[47.1367,40.0918],[47.1666,40.0721],[47.1389,40.053],[47.1326,40.0514],[47.1294,40.0507],[47.1018,40.0439],[47.1002,40.0164],[47.0977,39.9886],[47.0852,39.9809],[47.0724,39.9747],[47.0945,39.9256],[47.1759,39.9121],[47.1766,39.912],[47.219,39.9244],[47.263,39.9295],[47.2857,39.9005],[47.2643,39.8655],[47.2569,39.8607],[47.249,39.857],[47.234,39.86],[47.2168,39.8634],[47.1912,39.8612],[47.1851,39.8607],[47.1814,39.8567],[47.1813,39.8567],[47.1751,39.8503],[47.1696,39.8445],[47.1564,39.8287],[47.0996,39.8392],[47.045,39.8673],[47.0037,39.883],[46.9604,39.8751],[46.9496,39.8462],[46.9298,39.8221],[46.8907,39.8103],[46.8527,39.7953],[46.8706,39.8235],[46.8724,39.8264],[46.8918,39.8522],[46.8946,39.856],[46.9149,39.8768],[46.9236,39.9037],[46.8826,39.9184],[46.8668,39.93],[46.8476,39.9439],[46.8414,39.9549],[46.8226,39.9884],[46.7743,40.0073],[46.7334,39.9983]]]}},{"type":"Feature","properties":{"id":"AZE-1692","name":"Ağdaş","nameBn":"আগডাস জেলা","type":"District","bounds":[47.2077,40.2984,47.6187,40.7889],"center":[47.4132,40.568]},"geometry":{"type":"Polygon","coordinates":[[[47.523,40.3907],[47.5094,40.3637],[47.4943,40.3382],[47.4622,40.3111],[47.4428,40.2984],[47.4363,40.3068],[47.4259,40.3157],[47.421,40.314],[47.4216,40.3247],[47.4238,40.3343],[47.4278,40.3432],[47.434,40.3515],[47.4225,40.3639],[47.3849,40.3594],[47.3657,40.3652],[47.3862,40.3876],[47.3783,40.3986],[47.3241,40.4136],[47.3323,40.4212],[47.3529,40.433],[47.3589,40.4409],[47.3608,40.4567],[47.3532,40.4589],[47.3419,40.4554],[47.3299,40.4537],[47.3145,40.4539],[47.3108,40.4562],[47.3113,40.466],[47.3077,40.4682],[47.3044,40.4714],[47.299,40.4784],[47.291,40.4855],[47.2797,40.4887],[47.2723,40.4967],[47.2783,40.5146],[47.281,40.5332],[47.2633,40.5433],[47.2557,40.5404],[47.2462,40.5332],[47.232,40.5191],[47.2222,40.5146],[47.2186,40.5239],[47.2201,40.5368],[47.2286,40.5477],[47.2169,40.5573],[47.2088,40.5621],[47.2077,40.5626],[47.2237,40.5769],[47.2338,40.6079],[47.221,40.6381],[47.2218,40.6742],[47.2349,40.7079],[47.2487,40.7481],[47.2628,40.7889],[47.3044,40.7824],[47.3455,40.7745],[47.3705,40.7662],[47.3949,40.7661],[47.4028,40.7698],[47.4127,40.7733],[47.4305,40.7692],[47.448,40.7625],[47.4861,40.7557],[47.5256,40.7615],[47.5292,40.7178],[47.5317,40.674],[47.556,40.6539],[47.5886,40.6395],[47.6051,40.6246],[47.6187,40.6098],[47.6144,40.5985],[47.6024,40.5887],[47.5901,40.5587],[47.5864,40.5254],[47.5477,40.5348],[47.5099,40.5316],[47.4804,40.5166],[47.4724,40.4805],[47.4655,40.451],[47.4799,40.4258],[47.5079,40.4137],[47.523,40.3907]]]}},{"type":"Feature","properties":{"id":"AZE-1676","name":"Ağstafa","nameBn":"আগস্তাপা জেলা","type":"District","bounds":[45.0978,40.9484,45.7703,41.4529],"center":[45.4341,41.1896]},"geometry":{"type":"Polygon","coordinates":[[[45.4428,40.9484],[45.4287,40.9512],[45.4164,40.9613],[45.4252,40.9937],[45.4191,41.0173],[45.3915,41.0151],[45.3819,41.0114],[45.3819,41.0118],[45.3799,41.0194],[45.3774,41.0538],[45.3704,41.0878],[45.3672,41.1015],[45.3674,41.1158],[45.3731,41.1222],[45.3792,41.1296],[45.3762,41.1373],[45.3728,41.1456],[45.3988,41.2091],[45.3942,41.2334],[45.3922,41.2456],[45.3887,41.2465],[45.2759,41.2565],[45.2523,41.2649],[45.2119,41.2858],[45.1683,41.2936],[45.1487,41.3024],[45.1022,41.3366],[45.0984,41.3433],[45.0978,41.3499],[45.2496,41.4445],[45.2817,41.4529],[45.3144,41.4516],[45.3331,41.4444],[45.3812,41.4256],[45.3968,41.4233],[45.4169,41.4246],[45.45,41.4322],[45.4648,41.4302],[45.4793,41.4177],[45.5118,41.3946],[45.6556,41.3524],[45.7207,41.3424],[45.7441,41.3354],[45.7453,41.3292],[45.731,41.3233],[45.7081,41.3171],[45.6859,41.2962],[45.7097,41.2677],[45.7511,41.241],[45.7703,41.2321],[45.74,41.2195],[45.7007,41.205],[45.674,41.187],[45.655,41.1629],[45.5981,41.1635],[45.5669,41.1459],[45.5792,41.1167],[45.5918,41.0879],[45.5806,41.053],[45.5507,41.0291],[45.5202,41.0221],[45.4905,41.0159],[45.4731,40.9983],[45.4539,40.9782],[45.4429,40.9485],[45.4428,40.9484]]]}},{"type":"Feature","properties":{"id":"AZE-1693","name":"Ağsu","nameBn":"আগসো জেলা","type":"District","bounds":[48.0796,40.2784,48.6521,40.7939],"center":[48.3659,40.5091]},"geometry":{"type":"Polygon","coordinates":[[[48.4737,40.3313],[48.453,40.3089],[48.4401,40.2784],[48.4059,40.3002],[48.3838,40.3339],[48.3556,40.3448],[48.3259,40.3529],[48.3247,40.3904],[48.322,40.43],[48.2827,40.4446],[48.2382,40.442],[48.2088,40.4231],[48.1809,40.4055],[48.1592,40.4214],[48.1421,40.4338],[48.1069,40.4288],[48.0796,40.4482],[48.0884,40.4911],[48.1084,40.5323],[48.1273,40.5227],[48.1458,40.5335],[48.1493,40.5477],[48.1532,40.5629],[48.1706,40.5785],[48.1908,40.5908],[48.2161,40.602],[48.2395,40.6146],[48.2445,40.6244],[48.2532,40.6331],[48.2698,40.6396],[48.2866,40.6455],[48.3517,40.6693],[48.4113,40.7032],[48.442,40.7446],[48.4612,40.7939],[48.4702,40.7803],[48.477,40.7668],[48.508,40.7429],[48.5269,40.7116],[48.5166,40.6929],[48.5037,40.6742],[48.5047,40.667],[48.5045,40.6568],[48.4978,40.6484],[48.4898,40.6401],[48.4464,40.6088],[48.4355,40.5671],[48.4637,40.5394],[48.5017,40.5274],[48.5364,40.5266],[48.5711,40.5257],[48.5927,40.517],[48.6132,40.5053],[48.6353,40.4972],[48.6521,40.4869],[48.6367,40.4722],[48.616,40.4644],[48.5652,40.4473],[48.5215,40.4205],[48.5179,40.3965],[48.515,40.3722],[48.4955,40.3513],[48.4737,40.3313]]]}},{"type":"Feature","properties":{"id":"AZE-2420","name":"Babək","nameBn":"বাবেক জেলা","type":"District","bounds":[45.1144,38.9685,45.5605,39.5929],"center":[45.3373,39.1871]},"geometry":{"type":"Polygon","coordinates":[[[45.2662,39.5929],[45.2911,39.5659],[45.3029,39.5451],[45.313,39.5338],[45.3275,39.5293],[45.3749,39.5259],[45.3924,39.5188],[45.4239,39.4938],[45.4135,39.4829],[45.3814,39.4621],[45.3571,39.4335],[45.3724,39.4247],[45.3941,39.4181],[45.4028,39.3972],[45.4135,39.3755],[45.4584,39.3585],[45.5042,39.3406],[45.5157,39.3298],[45.5254,39.3194],[45.5251,39.3077],[45.5235,39.2997],[45.5325,39.286],[45.5495,39.2882],[45.5605,39.2603],[45.5309,39.245],[45.4685,39.2442],[45.4054,39.2407],[45.3501,39.243],[45.3115,39.2197],[45.3806,39.1803],[45.4676,39.1878],[45.4994,39.1788],[45.5275,39.163],[45.5245,39.1269],[45.5059,39.096],[45.5247,39.0631],[45.5508,39.0327],[45.5448,39.019],[45.5312,39.006],[45.5339,38.984],[45.5355,38.9686],[45.5356,38.9685],[45.5308,38.9693],[45.5103,38.9787],[45.4945,38.9819],[45.4826,38.9844],[45.4598,38.9931],[45.4386,39.0042],[45.4271,39.0149],[45.4253,39.0256],[45.4282,39.0341],[45.4323,39.0425],[45.4345,39.0528],[45.4297,39.0595],[45.4058,39.0679],[45.3964,39.0733],[45.3913,39.0817],[45.3835,39.1032],[45.3793,39.1112],[45.3699,39.119],[45.3606,39.1232],[45.3519,39.1283],[45.3453,39.1384],[45.3539,39.1532],[45.3482,39.1639],[45.3349,39.1704],[45.3209,39.1726],[45.3111,39.1763],[45.3113,39.1848],[45.3139,39.1942],[45.3111,39.2005],[45.3017,39.2014],[45.2926,39.1986],[45.2857,39.1949],[45.2831,39.1931],[45.1789,39.2198],[45.1527,39.2135],[45.1463,39.2287],[45.1358,39.2785],[45.1289,39.2893],[45.1204,39.2989],[45.1144,39.3094],[45.1149,39.3096],[45.137,39.3021],[45.1591,39.297],[45.1853,39.3032],[45.2112,39.3127],[45.2315,39.323],[45.2356,39.3453],[45.2285,39.3576],[45.222,39.3692],[45.2273,39.3805],[45.2338,39.3905],[45.2261,39.4184],[45.2111,39.4447],[45.2052,39.4711],[45.2123,39.4981],[45.2225,39.529],[45.2351,39.5591],[45.2584,39.5864],[45.2661,39.5928],[45.2662,39.5929]]]}},{"type":"Feature","properties":{"id":"AZE-1689","name":"Bakı","nameBn":"বাকু","type":"Municipality","bounds":[49.2919,39.6666,50.6257,40.5875],"center":[50.0435,40.4447]},"geometry":{"type":"MultiPolygon","coordinates":[[[[49.7097,40.586],[49.7238,40.5808],[49.7739,40.5756],[49.8167,40.5654],[49.8403,40.5638],[49.8587,40.5666],[49.9142,40.5843],[49.9382,40.5875],[50.052,40.5843],[50.0604,40.5779],[50.0648,40.571],[50.068,40.5637],[50.0725,40.557],[50.0903,40.5402],[50.1094,40.5271],[50.1296,40.5185],[50.2201,40.5036],[50.2376,40.4962],[50.2485,40.4812],[50.2608,40.4581],[50.2759,40.4366],[50.2957,40.4272],[50.3174,40.4212],[50.3359,40.406],[50.3506,40.3859],[50.3605,40.3652],[50.3708,40.2826],[50.3777,40.2744],[50.386,40.2557],[50.3911,40.235],[50.3879,40.2211],[50.3687,40.2497],[50.3479,40.2744],[50.3231,40.2966],[50.2737,40.3273],[50.2526,40.3363],[50.23,40.3428],[50.1853,40.3475],[50.1477,40.3569],[50.1277,40.359],[50.1165,40.358],[50.1029,40.3534],[50.0936,40.3515],[50.0552,40.3515],[50.0376,40.3458],[50.0038,40.3242],[49.9837,40.3242],[49.9766,40.329],[49.9637,40.3448],[49.9558,40.3515],[49.9453,40.3547],[49.9196,40.3581],[49.8934,40.369],[49.8735,40.3606],[49.8403,40.3378],[49.8472,40.3142],[49.819,40.2921],[49.7783,40.2758],[49.7119,40.2644],[49.6537,40.2384],[49.5772,40.2167],[49.5593,40.2067],[49.5208,40.1742],[49.5036,40.1649],[49.4925,40.154],[49.4904,40.1324],[49.4959,40.1052],[49.4966,40.0945],[49.4426,40.0784],[49.4326,40.063],[49.4351,40.0428],[49.4487,40.0225],[49.4577,40.015],[49.4719,40.0065],[49.4797,39.999],[49.4839,39.9887],[49.4783,39.9823],[49.4683,39.9774],[49.4507,39.9648],[49.4429,39.9619],[49.4354,39.9577],[49.4282,39.9475],[49.4237,39.9355],[49.4231,39.9265],[49.4282,39.9064],[49.4397,39.885],[49.4431,39.8734],[49.4385,39.8618],[49.4297,39.8543],[49.422,39.8494],[49.4165,39.8437],[49.4146,39.8342],[49.4164,39.8286],[49.4197,39.8233],[49.4224,39.8173],[49.4214,39.8102],[49.4172,39.8059],[49.4009,39.7966],[49.3948,39.7825],[49.3952,39.7762],[49.4009,39.7693],[49.3963,39.7562],[49.402,39.7425],[49.4248,39.7181],[49.4236,39.7095],[49.4098,39.7014],[49.384,39.6901],[49.3587,39.6666],[49.3488,39.6968],[49.3446,39.7304],[49.3424,39.7736],[49.3568,39.8121],[49.3558,39.838],[49.3515,39.8631],[49.3378,39.879],[49.3229,39.8941],[49.3098,39.9257],[49.2919,39.953],[49.3044,39.9804],[49.3117,40.0074],[49.3288,40.0263],[49.3444,40.0455],[49.3412,40.0658],[49.3366,40.0867],[49.3486,40.1087],[49.3662,40.1277],[49.373,40.1466],[49.3719,40.1633],[49.3794,40.1803],[49.3963,40.1929],[49.4256,40.2366],[49.4296,40.2924],[49.4203,40.3476],[49.4193,40.3981],[49.4508,40.4226],[49.4932,40.4276],[49.5175,40.4467],[49.5435,40.4691],[49.6253,40.471],[49.655,40.4751],[49.6855,40.476],[49.7084,40.471],[49.7304,40.4654],[49.7544,40.4712],[49.7781,40.4799],[49.8239,40.4877],[49.8693,40.497],[49.8883,40.5132],[49.8534,40.5238],[49.811,40.5345],[49.7691,40.5443],[49.7505,40.5397],[49.7326,40.5334],[49.7096,40.537],[49.6904,40.5534],[49.6988,40.5647],[49.7068,40.5763],[49.7097,40.586]],[[49.5968,40.4109],[49.5994,40.4078],[49.6143,40.3908],[49.6223,40.3722],[49.6445,40.3682],[49.6682,40.3701],[49.6904,40.3782],[49.7022,40.388],[49.6913,40.4026],[49.6699,40.4276],[49.6286,40.4259],[49.5968,40.4109]]],[[[50.6189,40.3],[50.6001,40.3037],[50.5876,40.3006],[50.5728,40.31],[50.563,40.3249],[50.5653,40.3378],[50.5783,40.33],[50.5879,40.3323],[50.5967,40.3375],[50.6069,40.3378],[50.6213,40.3261],[50.6257,40.3104],[50.6189,40.3]]],[[[50.3884,40.4017],[50.3735,40.3991],[50.3537,40.3999],[50.3587,40.4242],[50.326,40.4581],[50.3264,40.4819],[50.3386,40.4769],[50.3537,40.4807],[50.3605,40.4744],[50.3628,40.4536],[50.3726,40.4426],[50.385,40.434],[50.3953,40.4204],[50.3963,40.4085],[50.3884,40.4017]]]]}},{"type":"Feature","properties":{"id":"AZE-1723","name":"Balakən","nameBn":"বালাকান জেলা","type":"District","bounds":[46.1795,41.5547,46.7164,41.8904],"center":[46.4478,41.7393]},"geometry":{"type":"Polygon","coordinates":[[[46.4309,41.8904],[46.4523,41.8862],[46.4793,41.887],[46.5255,41.8823],[46.5435,41.8743],[46.5491,41.8554],[46.5443,41.8148],[46.5499,41.7978],[46.5676,41.7867],[46.5866,41.7868],[46.604,41.7952],[46.6365,41.8165],[46.6571,41.822],[46.6975,41.8282],[46.7096,41.8351],[46.7164,41.8125],[46.7023,41.7778],[46.6686,41.7507],[46.6297,41.7301],[46.5986,41.7153],[46.5692,41.6979],[46.5531,41.6698],[46.5412,41.6391],[46.518,41.6164],[46.4885,41.6011],[46.4535,41.5924],[46.4191,41.5866],[46.3922,41.572],[46.3648,41.5566],[46.3342,41.5547],[46.304,41.5672],[46.2799,41.5712],[46.2784,41.5784],[46.2562,41.6103],[46.2539,41.6159],[46.24,41.6155],[46.2334,41.608],[46.2285,41.5987],[46.2197,41.5933],[46.1928,41.6102],[46.18,41.6552],[46.1795,41.7059],[46.189,41.7401],[46.2083,41.7555],[46.2301,41.7573],[46.2769,41.7493],[46.2978,41.7508],[46.3137,41.7567],[46.3283,41.7664],[46.3713,41.8057],[46.3928,41.8317],[46.4309,41.8904]]]}},{"type":"Feature","properties":{"id":"AZE-1697","name":"Beyləqan","nameBn":"বেলাগান জেলা","type":"District","bounds":[47.4325,39.5714,47.8897,40.1595],"center":[47.6611,39.7591]},"geometry":{"type":"Polygon","coordinates":[[[47.7882,39.6577],[47.7453,39.6238],[47.625,39.5714],[47.625,39.5719],[47.6249,39.6122],[47.5615,39.6533],[47.5396,39.6803],[47.5155,39.702],[47.4822,39.7088],[47.4659,39.7383],[47.4466,39.7622],[47.4325,39.7819],[47.4457,39.7905],[47.4589,39.7973],[47.4533,39.8103],[47.4462,39.8266],[47.4633,39.8485],[47.4937,39.8582],[47.5004,39.8687],[47.512,39.8749],[47.5361,39.8734],[47.5601,39.8749],[47.5922,39.8853],[47.6258,39.8926],[47.6549,39.9162],[47.6702,39.9518],[47.6812,39.9987],[47.6912,40.0471],[47.7138,40.0851],[47.7566,40.1595],[47.7706,40.1586],[47.7834,40.1535],[47.7844,40.1414],[47.7897,40.1163],[47.791,40.114],[47.7487,40.084],[47.7848,40.055],[47.8175,40.0257],[47.8155,39.9867],[47.7762,39.9648],[47.7562,39.956],[47.7418,39.9411],[47.7534,39.9256],[47.7723,39.9157],[47.7551,39.88],[47.7488,39.8509],[47.7864,39.8361],[47.8192,39.8129],[47.8547,39.7901],[47.8897,39.77],[47.8828,39.7394],[47.8404,39.7202],[47.7975,39.6907],[47.7884,39.6584],[47.7882,39.6577]]]}},{"type":"Feature","properties":{"id":"AZE-1698","name":"Biləsuvar","nameBn":"বিলাসোবার জেলা","type":"District","bounds":[47.9577,39.3007,48.7786,39.7164],"center":[48.3681,39.4604]},"geometry":{"type":"Polygon","coordinates":[[[48.3284,39.3763],[48.3389,39.3789],[48.3167,39.4152],[48.2886,39.445],[48.2201,39.494],[48.052,39.6501],[47.9907,39.6943],[47.9714,39.7046],[47.9577,39.7073],[47.9577,39.7074],[47.9588,39.7164],[48.0194,39.7125],[48.0899,39.672],[48.155,39.622],[48.2725,39.5665],[48.3794,39.6217],[48.4342,39.662],[48.4908,39.6353],[48.5408,39.6148],[48.5821,39.6517],[48.6256,39.646],[48.6688,39.6315],[48.7177,39.6182],[48.767,39.6057],[48.7455,39.5541],[48.7403,39.5024],[48.7603,39.4832],[48.7786,39.4621],[48.7734,39.4357],[48.7638,39.4088],[48.7386,39.4084],[48.7142,39.4131],[48.6982,39.4198],[48.6816,39.4196],[48.6701,39.4079],[48.6616,39.3937],[48.6462,39.3829],[48.6432,39.3687],[48.641,39.3249],[48.6103,39.3024],[48.5774,39.3181],[48.5665,39.3538],[48.5437,39.3822],[48.5085,39.3822],[48.4783,39.3541],[48.4435,39.3314],[48.4228,39.3295],[48.404,39.3219],[48.3924,39.3103],[48.378,39.3007],[48.3417,39.3163],[48.3386,39.3639],[48.3284,39.3763]]]}},{"type":"Feature","properties":{"id":"AZE-1696","name":"Bərdə","nameBn":"বারদা জেলা","type":"District","bounds":[46.9693,40.1534,47.524,40.5626],"center":[47.2467,40.3534]},"geometry":{"type":"Polygon","coordinates":[[[47.2289,40.1698],[47.1572,40.1713],[47.0863,40.1669],[47.0819,40.1859],[47.0756,40.2043],[47.0732,40.2386],[47.0757,40.273],[47.0777,40.3017],[47.0485,40.3098],[47.0248,40.3264],[47.0074,40.3508],[46.9933,40.3587],[46.9824,40.3692],[46.9757,40.3923],[46.9693,40.4157],[47.0178,40.4716],[47.0798,40.4787],[47.1383,40.4859],[47.173,40.544],[47.201,40.5566],[47.2077,40.5626],[47.2088,40.5621],[47.2169,40.5573],[47.2286,40.5477],[47.2201,40.5368],[47.2186,40.5239],[47.2222,40.5146],[47.232,40.5191],[47.2462,40.5332],[47.2557,40.5404],[47.2633,40.5433],[47.281,40.5332],[47.2783,40.5146],[47.2723,40.4967],[47.2797,40.4887],[47.291,40.4855],[47.299,40.4784],[47.3044,40.4714],[47.3077,40.4682],[47.3113,40.466],[47.3108,40.4562],[47.3145,40.4539],[47.3299,40.4537],[47.3419,40.4554],[47.3532,40.4589],[47.3608,40.4567],[47.3589,40.4409],[47.3529,40.433],[47.3323,40.4212],[47.3241,40.4136],[47.3783,40.3986],[47.3862,40.3876],[47.3657,40.3652],[47.3849,40.3594],[47.4225,40.3639],[47.434,40.3515],[47.4278,40.3432],[47.4238,40.3343],[47.4216,40.3247],[47.421,40.314],[47.4259,40.3157],[47.4363,40.3068],[47.4428,40.2984],[47.445,40.2956],[47.4448,40.29],[47.524,40.2826],[47.5161,40.2743],[47.4975,40.2682],[47.4892,40.2621],[47.4841,40.254],[47.4843,40.2537],[47.3997,40.2046],[47.3156,40.1619],[47.2823,40.1534],[47.253,40.1693],[47.227,40.1856],[47.2289,40.1698]]]}},{"type":"Feature","properties":{"id":"AZE-2421","name":"Culfa","nameBn":"জুলফা জেলা","type":"District","bounds":[45.4676,38.9391,45.9018,39.3591],"center":[45.6847,39.136]},"geometry":{"type":"Polygon","coordinates":[[[45.7644,39.3591],[45.767,39.3544],[45.8237,39.3431],[45.8443,39.3301],[45.8633,39.314],[45.8872,39.2997],[45.9018,39.2941],[45.8786,39.2706],[45.8585,39.2523],[45.8375,39.235],[45.831,39.2193],[45.8264,39.2018],[45.8199,39.1823],[45.8107,39.1636],[45.7929,39.1339],[45.7755,39.104],[45.7546,39.0832],[45.7331,39.0626],[45.7274,39.046],[45.7237,39.0279],[45.7189,39.0184],[45.7213,39.0082],[45.7571,38.9883],[45.7868,38.9646],[45.7685,38.9394],[45.7682,38.9392],[45.7681,38.9391],[45.7169,38.9548],[45.6278,38.9555],[45.5708,38.9664],[45.5431,38.9671],[45.5356,38.9685],[45.5355,38.9686],[45.5339,38.984],[45.5312,39.006],[45.5448,39.019],[45.5508,39.0327],[45.5247,39.0631],[45.5059,39.096],[45.5245,39.1269],[45.5275,39.163],[45.4994,39.1788],[45.4676,39.1878],[45.5101,39.2087],[45.5309,39.245],[45.5605,39.2603],[45.5495,39.2882],[45.5923,39.3073],[45.6362,39.3206],[45.665,39.3328],[45.6877,39.3143],[45.7125,39.3104],[45.7335,39.3308],[45.7627,39.3582],[45.7641,39.359],[45.7644,39.3591]]]}},{"type":"Feature","properties":{"id":"AZE-1699","name":"Cəbrayıl","nameBn":"জাব্রাইল জেলা","type":"District","bounds":[46.7035,39.1589,47.2613,39.4774],"center":[46.9823,39.2768]},"geometry":{"type":"Polygon","coordinates":[[[47.0136,39.187],[46.9538,39.1607],[46.9416,39.1589],[46.9266,39.1621],[46.8987,39.1717],[46.883,39.1714],[46.8664,39.1654],[46.8663,39.1658],[46.8573,39.1933],[46.8229,39.228],[46.79,39.2464],[46.7557,39.2622],[46.7402,39.2905],[46.7368,39.3235],[46.7177,39.3458],[46.7035,39.3676],[46.7099,39.3986],[46.7335,39.4163],[46.7634,39.4072],[46.767,39.4061],[46.773,39.4043],[46.81,39.4014],[46.8169,39.4186],[46.8218,39.431],[46.8231,39.4344],[46.8151,39.4511],[46.8078,39.4663],[46.8294,39.4774],[46.8313,39.4764],[46.8544,39.4645],[46.8701,39.4599],[46.8857,39.4553],[46.8925,39.444],[46.891,39.4302],[46.9202,39.4107],[46.954,39.3963],[46.9666,39.3779],[46.9918,39.3812],[47.009,39.3935],[47.0287,39.3955],[47.044,39.3962],[47.0448,39.4091],[47.0407,39.4191],[47.0322,39.4402],[47.038,39.4472],[47.0534,39.466],[47.0895,39.4522],[47.1241,39.4363],[47.1432,39.4087],[47.1634,39.3849],[47.1907,39.3881],[47.2195,39.3931],[47.25,39.3782],[47.261,39.3667],[47.2613,39.3664],[47.2497,39.3613],[47.1501,39.3311],[47.1022,39.3084],[47.0925,39.2998],[47.0891,39.2899],[47.0529,39.2449],[47.0361,39.207],[47.0309,39.1996],[47.0205,39.19],[47.0136,39.187]]]}},{"type":"Feature","properties":{"id":"AZE-1700","name":"Cəlilabad","nameBn":"জালিলা বাদ জেলা","type":"District","bounds":[48.1043,38.9857,48.7638,39.4198],"center":[48.4338,39.1757]},"geometry":{"type":"Polygon","coordinates":[[[48.3016,39.0179],[48.3063,39.0315],[48.3068,39.0454],[48.3015,39.058],[48.2713,39.1083],[48.2563,39.1198],[48.1991,39.1382],[48.1422,39.1812],[48.1178,39.208],[48.1043,39.2348],[48.1062,39.2692],[48.1246,39.2976],[48.1535,39.319],[48.1872,39.3326],[48.2499,39.3424],[48.3025,39.3699],[48.3284,39.3763],[48.3386,39.3639],[48.3417,39.3163],[48.378,39.3007],[48.3924,39.3103],[48.404,39.3219],[48.4228,39.3295],[48.4435,39.3314],[48.4783,39.3541],[48.5085,39.3822],[48.5437,39.3822],[48.5665,39.3538],[48.5774,39.3181],[48.6103,39.3024],[48.641,39.3249],[48.6432,39.3687],[48.6462,39.3829],[48.6616,39.3937],[48.6701,39.4079],[48.6816,39.4196],[48.6982,39.4198],[48.7142,39.4131],[48.7386,39.4084],[48.7638,39.4088],[48.7381,39.3832],[48.7157,39.355],[48.708,39.3169],[48.7157,39.2786],[48.7515,39.2154],[48.7405,39.1472],[48.7205,39.154],[48.6995,39.1535],[48.6981,39.1375],[48.6888,39.1302],[48.6698,39.1348],[48.6509,39.131],[48.6501,39.1078],[48.666,39.0852],[48.6426,39.0719],[48.6142,39.0637],[48.5861,39.0487],[48.5637,39.0263],[48.5277,38.9961],[48.4778,38.9857],[48.45,39.0126],[48.4157,39.03],[48.3919,39.0262],[48.3684,39.0201],[48.3016,39.0179]]]}},{"type":"Feature","properties":{"id":"AZE-1677","name":"Daşkəsən","nameBn":"ডাসকাসান জেলা","type":"District","bounds":[45.8192,40.2604,46.2264,40.6667],"center":[46.0228,40.4837]},"geometry":{"type":"Polygon","coordinates":[[[45.8817,40.2604],[45.8617,40.2613],[45.8192,40.2971],[45.8277,40.3149],[45.8282,40.33],[45.8379,40.3411],[45.8452,40.3617],[45.8458,40.3861],[45.8568,40.406],[45.848,40.4259],[45.8348,40.4424],[45.823,40.4599],[45.8404,40.5237],[45.9117,40.5572],[45.952,40.5981],[45.9919,40.6419],[46.031,40.6667],[46.079,40.6472],[46.116,40.6288],[46.1515,40.6083],[46.1793,40.5955],[46.2024,40.5808],[46.1696,40.5423],[46.1334,40.5012],[46.1593,40.4707],[46.1931,40.4483],[46.2264,40.4294],[46.2259,40.3993],[46.18,40.3605],[46.1558,40.3075],[46.0858,40.3022],[46.0166,40.3064],[45.9537,40.3151],[45.8974,40.2983],[45.8886,40.2623],[45.8885,40.262],[45.8817,40.2604]]]}},{"type":"Feature","properties":{"id":"AZE-1701","name":"Dəvəçi","nameBn":"সাব্রান জেলা","type":"District","bounds":[48.6428,40.8551,49.1716,41.3649],"center":[48.9074,41.1969]},"geometry":{"type":"Polygon","coordinates":[[[49.0787,41.3574],[49.1089,41.3098],[49.1234,41.2937],[49.1359,41.275],[49.1419,41.2532],[49.1543,41.1664],[49.1607,41.1481],[49.1716,41.1404],[49.1581,41.1385],[49.1184,41.1626],[49.0801,41.1862],[49.0484,41.1788],[49.0168,41.1688],[48.9451,41.1687],[48.912,41.134],[48.93,41.1],[48.9308,41.0621],[48.9206,41.0451],[48.9063,41.0314],[48.8857,41.0288],[48.8668,41.026],[48.8379,41.0105],[48.8232,40.9841],[48.8316,40.9385],[48.8446,40.8925],[48.8117,40.8767],[48.7819,40.8551],[48.7314,40.8762],[48.6801,40.8951],[48.6836,40.9395],[48.6784,40.9772],[48.6634,41.0015],[48.6826,41.0235],[48.7082,41.0383],[48.7213,41.0639],[48.6852,41.0999],[48.6428,41.1321],[48.6693,41.1804],[48.7213,41.2151],[48.7347,41.2272],[48.7472,41.2398],[48.747,41.2543],[48.7335,41.2667],[48.7328,41.3073],[48.7441,41.3485],[48.7768,41.3513],[48.8085,41.3619],[48.8399,41.3535],[48.8746,41.3517],[48.92,41.3649],[48.9671,41.3616],[49.0192,41.3547],[49.0729,41.356],[49.0787,41.3574]]]}},{"type":"Feature","properties":{"id":"AZE-1702","name":"Füzuli","nameBn":"ফিজুলি জেলা","type":"District","bounds":[47.0191,39.3664,47.625,39.7383],"center":[47.322,39.5574]},"geometry":{"type":"Polygon","coordinates":[[[47.625,39.5714],[47.607,39.5636],[47.5541,39.522],[47.5412,39.5152],[47.5187,39.5132],[47.4488,39.4947],[47.4069,39.4768],[47.3742,39.4556],[47.3245,39.406],[47.3244,39.4059],[47.2914,39.3796],[47.2613,39.3664],[47.261,39.3667],[47.25,39.3782],[47.2195,39.3931],[47.1907,39.3881],[47.1634,39.3849],[47.1432,39.4087],[47.1241,39.4363],[47.0895,39.4522],[47.0534,39.466],[47.0584,39.4746],[47.061,39.4789],[47.0609,39.49],[47.0688,39.4911],[47.08,39.4927],[47.0974,39.4968],[47.0929,39.5161],[47.0918,39.5198],[47.0867,39.536],[47.0953,39.5479],[47.1051,39.5584],[47.0974,39.5806],[47.0679,39.5711],[47.0478,39.5578],[47.0253,39.5558],[47.0191,39.5726],[47.0327,39.5848],[47.0355,39.5873],[47.0766,39.5945],[47.0889,39.6066],[47.099,39.6166],[47.0667,39.6134],[47.0295,39.6193],[47.0468,39.642],[47.0536,39.6424],[47.0927,39.6448],[47.1159,39.6519],[47.138,39.6617],[47.1552,39.6766],[47.1742,39.6846],[47.204,39.6886],[47.2347,39.6947],[47.2556,39.6978],[47.2559,39.6979],[47.2736,39.7005],[47.3115,39.708],[47.3883,39.7239],[47.4659,39.7383],[47.4822,39.7088],[47.5155,39.702],[47.5396,39.6803],[47.5615,39.6533],[47.6249,39.6122],[47.625,39.5719],[47.625,39.5714]]]}},{"type":"Feature","properties":{"id":"AZE-1681","name":"Goranboy","nameBn":"গোরানবয় জেলা","type":"District","bounds":[46.3178,40.263,46.9621,40.966],"center":[46.645,40.5463]},"geometry":{"type":"Polygon","coordinates":[[[46.7577,40.4029],[46.752,40.403],[46.722,40.4038],[46.6725,40.387],[46.6243,40.364],[46.5867,40.3529],[46.5752,40.3495],[46.5689,40.3477],[46.555,40.3337],[46.5409,40.3195],[46.5345,40.3131],[46.4293,40.263],[46.3569,40.2715],[46.3563,40.2716],[46.3178,40.2762],[46.3187,40.3455],[46.3487,40.4024],[46.3716,40.4237],[46.3909,40.4479],[46.4236,40.4776],[46.4601,40.5036],[46.4829,40.5231],[46.5049,40.5433],[46.5109,40.5609],[46.4959,40.5743],[46.498,40.6337],[46.4707,40.6818],[46.4884,40.7279],[46.5284,40.7563],[46.5462,40.7703],[46.5413,40.7911],[46.5499,40.8052],[46.5697,40.8139],[46.6212,40.8506],[46.6717,40.889],[46.715,40.9278],[46.7597,40.966],[46.7506,40.9261],[46.7538,40.8867],[46.757,40.8444],[46.7487,40.804],[46.7312,40.7653],[46.7544,40.7362],[46.7946,40.7316],[46.828,40.7141],[46.8029,40.6834],[46.7723,40.6511],[46.7903,40.6291],[46.8304,40.6478],[46.8646,40.6454],[46.8902,40.6237],[46.8886,40.5809],[46.8943,40.5374],[46.923,40.5305],[46.9538,40.5337],[46.9621,40.5246],[46.9578,40.5093],[46.947,40.488],[46.924,40.48],[46.9001,40.4626],[46.8777,40.4459],[46.8579,40.4361],[46.8386,40.4252],[46.8183,40.4133],[46.8085,40.409],[46.7967,40.4037],[46.7595,40.4028],[46.7577,40.4029]],[[46.8214,40.4956],[46.8304,40.4959],[46.8396,40.5011],[46.8409,40.5064],[46.8405,40.5107],[46.8352,40.5151],[46.8272,40.5202],[46.8212,40.516],[46.8159,40.5106],[46.8116,40.5066],[46.8149,40.5004],[46.8214,40.4956]]]}},{"type":"Feature","properties":{"id":"AZE-1703","name":"Göyçay","nameBn":"গয়চা","type":"District","bounds":[47.5864,40.4417,48.048,40.675],"center":[47.8172,40.569]},"geometry":{"type":"Polygon","coordinates":[[[48.0272,40.5129],[48.0349,40.4599],[47.9926,40.4417],[47.9667,40.4497],[47.9406,40.4474],[47.9016,40.4514],[47.8647,40.4645],[47.8309,40.478],[47.7971,40.4913],[47.7769,40.4924],[47.7603,40.4818],[47.7403,40.4739],[47.7164,40.4818],[47.6918,40.497],[47.6657,40.5082],[47.6444,40.5027],[47.6244,40.4973],[47.6032,40.5101],[47.5864,40.5254],[47.5901,40.5587],[47.6024,40.5887],[47.6144,40.5985],[47.6187,40.6098],[47.6051,40.6246],[47.5886,40.6395],[47.6253,40.6552],[47.6641,40.6621],[47.6997,40.663],[47.7325,40.675],[47.767,40.6677],[47.8009,40.6588],[47.8266,40.6522],[47.8515,40.6538],[47.9019,40.6497],[47.9527,40.637],[48.0057,40.6262],[48.048,40.599],[48.0234,40.5532],[48.0272,40.5129]]]}},{"type":"Feature","properties":{"id":"AZE-1678","name":"Gədəbəy","nameBn":"গেডাবে","type":"District","bounds":[45.3735,40.2971,45.9126,40.8232],"center":[45.6429,40.492]},"geometry":{"type":"Polygon","coordinates":[[[45.3736,40.6513],[45.3736,40.6753],[45.3988,40.7089],[45.4379,40.7334],[45.4783,40.7482],[45.4849,40.7372],[45.4902,40.7044],[45.5197,40.6899],[45.5568,40.6891],[45.5878,40.6791],[45.6082,40.6578],[45.6055,40.6305],[45.6287,40.6188],[45.6526,40.604],[45.6776,40.5949],[45.7018,40.6146],[45.7094,40.6452],[45.7144,40.692],[45.7137,40.7356],[45.7098,40.7795],[45.7226,40.8232],[45.7411,40.8048],[45.7595,40.7879],[45.7719,40.7714],[45.7784,40.751],[45.8096,40.7112],[45.8522,40.6845],[45.8897,40.657],[45.9126,40.6261],[45.9088,40.604],[45.9117,40.5802],[45.9049,40.5685],[45.9117,40.5572],[45.8404,40.5237],[45.823,40.4599],[45.8348,40.4424],[45.848,40.4259],[45.8568,40.406],[45.8458,40.3861],[45.8452,40.3617],[45.8379,40.3411],[45.8282,40.33],[45.8277,40.3149],[45.8192,40.2971],[45.8184,40.2978],[45.5854,40.3987],[45.5262,40.441],[45.4938,40.4937],[45.4854,40.5053],[45.4647,40.5157],[45.4554,40.5236],[45.4508,40.5344],[45.4486,40.5565],[45.4446,40.5664],[45.4272,40.5829],[45.407,40.5951],[45.3878,40.6095],[45.3735,40.6327],[45.3736,40.6513]],[[45.5137,40.602],[45.5472,40.6216],[45.5607,40.6476],[45.5347,40.6589],[45.5202,40.6604],[45.5056,40.6602],[45.4918,40.6571],[45.4793,40.6502],[45.4734,40.6403],[45.4713,40.6299],[45.4733,40.6194],[45.4793,40.6098],[45.5137,40.602]]]}},{"type":"Feature","properties":{"id":"AZE-1679","name":"Gəncə","nameBn":"গাঞ্জা","type":"Municipality","bounds":[46.2984,40.6226,46.4118,40.7246],"center":[46.3206,40.6864]},"geometry":{"type":"Polygon","coordinates":[[[46.3459,40.6226],[46.3076,40.6264],[46.2984,40.6575],[46.306,40.6736],[46.3133,40.6889],[46.3244,40.7008],[46.3344,40.713],[46.3407,40.7246],[46.3915,40.7238],[46.4118,40.6854],[46.3831,40.6494],[46.3459,40.6226]]]}},{"type":"Feature","properties":{"id":"AZE-1694","name":"Hajigabul","nameBn":"হাজিগাবোল জেলা","type":"District","bounds":[48.4401,39.8121,49.3568,40.3447],"center":[48.8984,40.1106]},"geometry":{"type":"Polygon","coordinates":[[[48.8506,40.3285],[48.8597,40.2916],[48.887,40.2689],[48.9182,40.2465],[48.947,40.2218],[48.9753,40.1893],[49.0044,40.1599],[49.0391,40.1522],[49.0757,40.1497],[49.1232,40.1503],[49.1691,40.1445],[49.1934,40.1194],[49.2014,40.0859],[49.2214,40.0562],[49.243,40.0277],[49.2451,40.0081],[49.2536,39.9915],[49.2736,39.9732],[49.2919,39.953],[49.3098,39.9257],[49.3229,39.8941],[49.3378,39.879],[49.3515,39.8631],[49.3558,39.838],[49.3568,39.8121],[49.3267,39.8304],[49.2974,39.8493],[49.2828,39.8655],[49.2647,39.8766],[49.2402,39.872],[49.2143,39.8664],[49.1976,39.8697],[49.1805,39.872],[49.13,39.8753],[49.0786,39.8817],[49.0392,39.8982],[49.0008,39.9186],[48.9649,39.917],[48.9315,39.9139],[48.9468,39.9263],[48.9599,39.9384],[48.9606,39.9572],[48.9615,39.968],[48.957,39.9766],[48.9475,39.9811],[48.9362,39.9798],[48.9098,39.9804],[48.8879,39.9852],[48.8734,39.9816],[48.8392,40.0027],[48.8194,40.0078],[48.7623,40.0151],[48.7504,40.0194],[48.7428,40.0332],[48.7242,40.0381],[48.7015,40.0413],[48.6758,40.052],[48.6715,40.0511],[48.6688,40.0522],[48.6679,40.0604],[48.6685,40.071],[48.6677,40.0758],[48.6648,40.0778],[48.6612,40.0959],[48.663,40.1087],[48.6409,40.118],[48.551,40.1368],[48.4575,40.1378],[48.466,40.1793],[48.4634,40.219],[48.4585,40.2532],[48.4401,40.2784],[48.453,40.3089],[48.4737,40.3313],[48.514,40.3238],[48.5535,40.3151],[48.5945,40.2966],[48.6375,40.281],[48.6718,40.268],[48.7047,40.2806],[48.7337,40.3059],[48.7469,40.3447],[48.7957,40.3242],[48.8506,40.3285]]]}},{"type":"Feature","properties":{"id":"AZE-5567","name":"Kangarli","nameBn":"কাঙ্গারলি জেলা","type":"District","bounds":[45.0512,39.297,45.2662,39.5997],"center":[45.1447,39.4039]},"geometry":{"type":"Polygon","coordinates":[[[45.26,39.5997],[45.2662,39.5929],[45.2661,39.5928],[45.2584,39.5864],[45.2351,39.5591],[45.2225,39.529],[45.2123,39.4981],[45.2052,39.4711],[45.2111,39.4447],[45.2261,39.4184],[45.2338,39.3905],[45.2273,39.3805],[45.222,39.3692],[45.2285,39.3576],[45.2356,39.3453],[45.2315,39.323],[45.2112,39.3127],[45.1853,39.3032],[45.1591,39.297],[45.137,39.3021],[45.1149,39.3096],[45.1144,39.3094],[45.096,39.3411],[45.088,39.3507],[45.0787,39.3548],[45.0686,39.3642],[45.0605,39.3746],[45.0572,39.3817],[45.0517,39.3868],[45.0512,39.3871],[45.0955,39.4121],[45.1283,39.453],[45.1463,39.512],[45.1679,39.5655],[45.2048,39.5723],[45.2332,39.5927],[45.26,39.5997]]]}},{"type":"Feature","properties":{"id":"AZE-1706","name":"Kürdəmir","nameBn":"কুরদামির জেলা","type":"District","bounds":[47.8512,40.0309,48.466,40.5323],"center":[48.1586,40.2443]},"geometry":{"type":"Polygon","coordinates":[[[48.4401,40.2784],[48.4585,40.2532],[48.4634,40.219],[48.466,40.1793],[48.4575,40.1378],[48.425,40.1239],[48.3982,40.1035],[48.3662,40.0892],[48.3404,40.0698],[48.3323,40.0563],[48.3172,40.0398],[48.3123,40.0458],[48.3042,40.0499],[48.2958,40.0496],[48.2891,40.0474],[48.284,40.0448],[48.2803,40.0437],[48.268,40.0333],[48.26,40.0309],[48.2532,40.0473],[48.2457,40.0544],[48.2366,40.0602],[48.2291,40.0635],[48.2116,40.0654],[48.1931,40.0624],[48.1608,40.0499],[48.1622,40.0634],[48.1577,40.0675],[48.1497,40.068],[48.1403,40.0709],[48.0866,40.0966],[48.0789,40.1082],[48.0728,40.1361],[48.0573,40.1352],[48.0372,40.1218],[48.0168,40.1119],[48.0068,40.115],[47.9949,40.1224],[47.9828,40.1271],[47.9721,40.1225],[47.9686,40.114],[47.968,40.1028],[47.969,40.0812],[47.9636,40.0763],[47.9516,40.0781],[47.9349,40.0846],[47.9304,40.0857],[47.9205,40.0903],[47.9144,40.0908],[47.9088,40.0883],[47.8999,40.0797],[47.8933,40.0778],[47.887,40.081],[47.8705,40.0951],[47.8629,40.0983],[47.8528,40.1003],[47.8512,40.1009],[47.8762,40.1147],[47.9053,40.1254],[47.9281,40.1444],[47.9443,40.1671],[47.933,40.2388],[47.9343,40.3132],[47.9596,40.3339],[47.9785,40.3607],[47.9875,40.4002],[47.9926,40.4417],[48.0349,40.4599],[48.0272,40.5129],[48.0682,40.5205],[48.1084,40.5323],[48.0884,40.4911],[48.0796,40.4482],[48.1069,40.4288],[48.1421,40.4338],[48.1592,40.4214],[48.1809,40.4055],[48.2088,40.4231],[48.2382,40.442],[48.2827,40.4446],[48.322,40.43],[48.3247,40.3904],[48.3259,40.3529],[48.3556,40.3448],[48.3838,40.3339],[48.4059,40.3002],[48.4401,40.2784]]]}},{"type":"Feature","properties":{"id":"AZE-1682","name":"Kəlbəcər","nameBn":"কালবাজার জেলা","type":"District","bounds":[45.5763,39.7961,46.7616,40.3151],"center":[46.1688,40.0966]},"geometry":{"type":"Polygon","coordinates":[[[45.8039,40.0045],[45.8738,40.0098],[45.8872,40.0184],[45.894,40.0291],[45.9058,40.0751],[45.9095,40.0827],[45.9317,40.0976],[45.9508,40.1172],[45.963,40.1417],[45.9811,40.206],[45.9818,40.2119],[45.9811,40.2178],[45.9792,40.2236],[45.9536,40.2496],[45.9392,40.2603],[45.9246,40.2662],[45.9027,40.2651],[45.8885,40.262],[45.8886,40.2623],[45.8974,40.2983],[45.9537,40.3151],[46.0166,40.3064],[46.0858,40.3022],[46.1558,40.3075],[46.234,40.2857],[46.3178,40.2762],[46.3563,40.2716],[46.3569,40.2715],[46.4293,40.263],[46.5345,40.3131],[46.5307,40.2954],[46.5239,40.2789],[46.5138,40.2728],[46.504,40.2659],[46.4994,40.2295],[46.5103,40.1938],[46.5192,40.161],[46.5323,40.1334],[46.5553,40.1392],[46.5771,40.1525],[46.637,40.1479],[46.6872,40.1115],[46.7127,40.0959],[46.7253,40.0757],[46.7325,40.063],[46.738,40.0533],[46.7616,40.033],[46.727,40.0309],[46.719,40.0274],[46.6979,40.0182],[46.6567,40.0125],[46.6202,39.9977],[46.5982,39.9726],[46.5671,39.9588],[46.5401,39.9739],[46.5095,39.9855],[46.4817,39.9723],[46.4583,39.9615],[46.451,39.9581],[46.4089,39.944],[46.3667,39.932],[46.322,39.9267],[46.2788,39.9123],[46.2088,39.8938],[46.1362,39.8857],[46.1013,39.8774],[46.067,39.8743],[46.042,39.8958],[46.0162,39.912],[45.9963,39.8877],[45.9775,39.8545],[45.941,39.8292],[45.9022,39.8076],[45.8833,39.7962],[45.8832,39.7961],[45.8619,39.8045],[45.8168,39.8392],[45.8091,39.8512],[45.7644,39.9221],[45.7428,39.9405],[45.7154,39.9509],[45.6111,39.9592],[45.5794,39.9702],[45.5776,39.984],[45.5763,39.9939],[45.6396,40.0254],[45.8039,40.0045]]]}},{"type":"Feature","properties":{"id":"AZE-1735","name":"Lankaran","nameBn":"লঙ্কারান","type":"District","bounds":[45.8832,39.4387,46.7356,39.9581],"center":[46.3095,39.7717]},"geometry":{"type":"Polygon","coordinates":[[[46.2065,39.5879],[46.1842,39.5932],[46.1696,39.6041],[46.1461,39.6385],[46.1317,39.6522],[46.1145,39.6596],[46.0765,39.6681],[46.0451,39.6876],[46.0066,39.7479],[45.9792,39.7685],[45.9161,39.7832],[45.8832,39.7961],[45.8833,39.7962],[45.9022,39.8076],[45.941,39.8292],[45.9775,39.8545],[45.9963,39.8877],[46.0162,39.912],[46.042,39.8958],[46.067,39.8743],[46.1013,39.8774],[46.1362,39.8857],[46.2088,39.8938],[46.2788,39.9123],[46.322,39.9267],[46.3667,39.932],[46.4089,39.944],[46.451,39.9581],[46.4371,39.9282],[46.4451,39.9024],[46.468,39.8908],[46.4886,39.8757],[46.5232,39.8203],[46.5403,39.7577],[46.5507,39.7265],[46.5544,39.7069],[46.5566,39.6953],[46.5512,39.6869],[46.5401,39.6698],[46.5266,39.6423],[46.5306,39.6156],[46.5527,39.6091],[46.5721,39.6018],[46.5894,39.59],[46.6309,39.5938],[46.6381,39.6031],[46.6616,39.6336],[46.6618,39.6338],[46.689,39.641],[46.7165,39.6388],[46.7306,39.6171],[46.734,39.598],[46.7356,39.5888],[46.6907,39.5831],[46.674,39.5684],[46.664,39.5596],[46.6813,39.545],[46.6838,39.5341],[46.6866,39.5222],[46.6873,39.5193],[46.6684,39.4982],[46.6407,39.4835],[46.6013,39.4621],[46.5623,39.4387],[46.5169,39.4429],[46.479,39.4618],[46.4793,39.4619],[46.4914,39.4664],[46.4982,39.4738],[46.4986,39.4831],[46.4917,39.4937],[46.492,39.5102],[46.5037,39.5185],[46.5183,39.5254],[46.5273,39.5382],[46.5243,39.5546],[46.512,39.5676],[46.4954,39.5759],[46.4793,39.5787],[46.4162,39.574],[46.3964,39.5767],[46.3814,39.585],[46.3579,39.6097],[46.3437,39.6186],[46.3095,39.6205],[46.2412,39.5935],[46.2065,39.5879]]]}},{"type":"Feature","properties":{"id":"AZE-1707","name":"Lankaran","nameBn":"লাংকারান","type":"District","bounds":[48.5656,38.5817,49.2343,39.2701],"center":[48.7309,38.7168]},"geometry":{"type":"MultiPolygon","coordinates":[[[[49.2343,39.1564],[49.2297,39.1387],[49.2156,39.1063],[49.2108,39.0908],[49.2079,39.0554],[49.2033,39.0341],[49.1939,39.0163],[49.1188,38.9753],[49.0793,38.9633],[49.0515,38.981],[49.0547,38.9927],[49.0544,39.0008],[49.0558,39.0075],[49.0652,39.0151],[49.1101,39.022],[49.1255,39.0281],[49.1387,39.0434],[49.1468,39.0634],[49.1477,39.0834],[49.1364,39.1023],[49.1164,39.1103],[49.0686,39.1114],[49.0686,39.1203],[49.0628,39.1613],[49.0589,39.1728],[49.0412,39.1844],[49.0222,39.1882],[48.9795,39.1871],[48.9676,39.1838],[48.9618,39.1758],[48.9579,39.1657],[48.9496,39.1513],[48.9487,39.1462],[48.9491,39.1353],[48.947,39.1275],[48.9421,39.1254],[48.9373,39.1254],[48.9348,39.1244],[48.933,39.0777],[48.9364,39.0531],[48.9526,39.0316],[48.9486,39.0072],[48.9217,38.9355],[48.9182,38.9289],[48.912,38.9504],[48.8967,38.9826],[48.8932,39.0094],[48.8934,39.0326],[48.8706,39.0502],[48.8472,39.0664],[48.8461,39.0993],[48.8544,39.1316],[48.8892,39.1672],[48.9285,39.2002],[48.9736,39.2399],[49.0236,39.2701],[49.0529,39.2504],[49.0726,39.218],[49.1036,39.2019],[49.1385,39.1939],[49.1775,39.1786],[49.2186,39.1706],[49.2343,39.1564]]],[[[48.8963,38.8907],[48.8679,38.8638],[48.8318,38.8712],[48.8325,38.8356],[48.8347,38.8193],[48.8392,38.8035],[48.8471,38.788],[48.8263,38.778],[48.8263,38.763],[48.8263,38.747],[48.829,38.7337],[48.834,38.7267],[48.8474,38.7315],[48.8634,38.7479],[48.8685,38.6025],[48.788,38.5854],[48.6981,38.5817],[48.7183,38.6056],[48.7304,38.6298],[48.7131,38.6459],[48.6927,38.6571],[48.6907,38.6741],[48.6936,38.6928],[48.6807,38.7143],[48.6653,38.7355],[48.6216,38.7585],[48.5774,38.7813],[48.5656,38.825],[48.5934,38.8672],[48.626,38.8449],[48.661,38.8284],[48.6996,38.8346],[48.7354,38.8527],[48.7673,38.8648],[48.7968,38.8787],[48.8099,38.8905],[48.825,38.898],[48.8642,38.8975],[48.8963,38.8907]]]]}},{"type":"Feature","properties":{"id":"AZE-5562","name":"Lankaran","nameBn":"লঙ্কারান","type":"Municipality","bounds":[48.8263,38.7267,48.8634,38.788],"center":[48.8421,38.7585]},"geometry":{"type":"Polygon","coordinates":[[[48.8471,38.788],[48.8631,38.7567],[48.8634,38.7479],[48.8474,38.7315],[48.834,38.7267],[48.829,38.7337],[48.8263,38.747],[48.8263,38.763],[48.8263,38.778],[48.8471,38.788]]]}},{"type":"Feature","properties":{"id":"AZE-1709","name":"Lerik","nameBn":"লেরিক জেলা","type":"District","bounds":[48.2256,38.4692,48.7304,38.9399],"center":[48.4779,38.7139]},"geometry":{"type":"Polygon","coordinates":[[[48.3411,38.5996],[48.3103,38.6002],[48.2922,38.6136],[48.2765,38.6318],[48.228,38.6622],[48.2262,38.6791],[48.2303,38.6986],[48.2256,38.7132],[48.2486,38.7222],[48.2623,38.7387],[48.2757,38.7515],[48.2806,38.7732],[48.2898,38.7926],[48.3069,38.8106],[48.3257,38.8256],[48.348,38.8364],[48.3682,38.8498],[48.46,38.8922],[48.5476,38.9399],[48.5808,38.9087],[48.5934,38.8672],[48.5656,38.825],[48.5774,38.7813],[48.6216,38.7585],[48.6653,38.7355],[48.6807,38.7143],[48.6936,38.6928],[48.6907,38.6741],[48.6927,38.6571],[48.7131,38.6459],[48.7304,38.6298],[48.7183,38.6056],[48.6981,38.5817],[48.6763,38.5714],[48.6542,38.5645],[48.6319,38.5671],[48.6084,38.5614],[48.587,38.5524],[48.569,38.5386],[48.5617,38.5153],[48.547,38.4945],[48.5356,38.4692],[48.5108,38.4938],[48.4959,38.5103],[48.4791,38.5248],[48.4627,38.5449],[48.4466,38.5564],[48.4337,38.57],[48.4267,38.5965],[48.4153,38.6181],[48.3918,38.6181],[48.3411,38.5996]]]}},{"type":"Feature","properties":{"id":"AZE-1708","name":"Masallı","nameBn":"মাসালি জেলা","type":"District","bounds":[48.4778,38.8284,48.9182,39.154],"center":[48.698,38.9858]},"geometry":{"type":"Polygon","coordinates":[[[48.9182,38.9289],[48.8987,38.8931],[48.8963,38.8907],[48.8642,38.8975],[48.825,38.898],[48.8099,38.8905],[48.7968,38.8787],[48.7673,38.8648],[48.7354,38.8527],[48.6996,38.8346],[48.661,38.8284],[48.626,38.8449],[48.5934,38.8672],[48.5808,38.9087],[48.5476,38.9399],[48.4965,38.9458],[48.4778,38.9857],[48.5277,38.9961],[48.5637,39.0263],[48.5861,39.0487],[48.6142,39.0637],[48.6426,39.0719],[48.666,39.0852],[48.6501,39.1078],[48.6509,39.131],[48.6698,39.1348],[48.6888,39.1302],[48.6981,39.1375],[48.6995,39.1535],[48.7205,39.154],[48.7405,39.1472],[48.7938,39.1285],[48.8544,39.1316],[48.8461,39.0993],[48.8472,39.0664],[48.8706,39.0502],[48.8934,39.0326],[48.8932,39.0094],[48.8967,38.9826],[48.912,38.9504],[48.9182,38.9289]]]}},{"type":"Feature","properties":{"id":"AZE-1683","name":"Mingəçevir","nameBn":"মিঙ্গাচেভির","type":"Municipality","bounds":[46.9206,40.7253,47.0487,40.7805],"center":[46.9846,40.7508]},"geometry":{"type":"Polygon","coordinates":[[[46.9519,40.7805],[46.9894,40.7698],[47.0094,40.7754],[47.0286,40.775],[47.0394,40.7642],[47.0487,40.7503],[46.9679,40.7253],[46.9206,40.768],[46.9519,40.7805]]]}},{"type":"Feature","properties":{"id":"AZE-5561","name":"Naftalan","nameBn":"নাফতালান","type":"Municipality","bounds":[46.8116,40.4956,46.8409,40.5202],"center":[46.8275,40.5077]},"geometry":{"type":"Polygon","coordinates":[[[46.8272,40.5202],[46.8352,40.5151],[46.8405,40.5107],[46.8409,40.5064],[46.8396,40.5011],[46.8304,40.4959],[46.8214,40.4956],[46.8149,40.5004],[46.8116,40.5066],[46.8159,40.5106],[46.8212,40.516],[46.8272,40.5202]]]}},{"type":"Feature","properties":{"id":"AZE-2422","name":"Naxçıvan","nameBn":"নাখচিভান","type":"Municipality","bounds":[45.3115,39.1803,45.5309,39.245],"center":[45.4212,39.2127]},"geometry":{"type":"Polygon","coordinates":[[[45.5309,39.245],[45.5101,39.2087],[45.4676,39.1878],[45.3806,39.1803],[45.3115,39.2197],[45.3501,39.243],[45.4054,39.2407],[45.4685,39.2442],[45.5309,39.245]]]}},{"type":"Feature","properties":{"id":"AZE-1710","name":"Neftçala","nameBn":"নেফকালা জেলা","type":"District","bounds":[48.708,39.1285,49.4089,39.5482],"center":[49.0585,39.3924]},"geometry":{"type":"Polygon","coordinates":[[[49.2854,39.5083],[49.2858,39.4952],[49.2957,39.4767],[49.3888,39.4108],[49.4009,39.3994],[49.4089,39.3864],[49.4081,39.382],[49.4036,39.3785],[49.3973,39.3452],[49.3987,39.3351],[49.4071,39.3237],[49.3948,39.3287],[49.3856,39.3349],[49.3787,39.3425],[49.3731,39.351],[49.3669,39.351],[49.3706,39.3362],[49.3791,39.3198],[49.3914,39.3055],[49.4071,39.2969],[49.4071,39.2895],[49.3845,39.2937],[49.3704,39.3059],[49.3577,39.3201],[49.3064,39.3465],[49.2731,39.3366],[49.2473,39.3107],[49.2371,39.279],[49.2378,39.1695],[49.2343,39.1564],[49.2186,39.1706],[49.1775,39.1786],[49.1385,39.1939],[49.1036,39.2019],[49.0726,39.218],[49.0529,39.2504],[49.0236,39.2701],[48.9736,39.2399],[48.9285,39.2002],[48.8892,39.1672],[48.8544,39.1316],[48.7938,39.1285],[48.7405,39.1472],[48.7515,39.2154],[48.7157,39.2786],[48.708,39.3169],[48.7157,39.355],[48.7381,39.3832],[48.7638,39.4088],[48.8096,39.3824],[48.8543,39.3546],[48.8916,39.349],[48.9272,39.3701],[48.946,39.3737],[48.9564,39.386],[48.9508,39.4092],[48.9477,39.434],[48.9717,39.4679],[48.9761,39.4703],[48.9863,39.4762],[48.9896,39.4822],[49.0178,39.503],[49.0242,39.5189],[49.0279,39.5296],[49.0527,39.5482],[49.0861,39.521],[49.1208,39.4885],[49.1431,39.48],[49.1666,39.4767],[49.1848,39.4795],[49.2024,39.489],[49.241,39.4987],[49.2795,39.5076],[49.2854,39.5083]]]}},{"type":"Feature","properties":{"id":"AZE-2418","name":"Ordubad","nameBn":"ওরডোবাড জেলা","type":"District","bounds":[45.7189,38.8627,46.1359,39.2941],"center":[45.9272,39.0972]},"geometry":{"type":"Polygon","coordinates":[[[45.9018,39.2941],[45.9588,39.2724],[45.9792,39.2573],[45.9858,39.2494],[45.9881,39.2419],[45.986,39.2347],[45.9792,39.2279],[45.9551,39.2032],[45.949,39.1778],[45.9581,39.1515],[45.9792,39.1244],[46.0052,39.0954],[46.0255,39.0638],[46.0776,38.9505],[46.1359,38.8637],[46.1261,38.8627],[46.068,38.8741],[46.0018,38.8975],[45.7911,38.9321],[45.7681,38.9391],[45.7682,38.9392],[45.7685,38.9394],[45.7868,38.9646],[45.7571,38.9883],[45.7213,39.0082],[45.7189,39.0184],[45.7237,39.0279],[45.7274,39.046],[45.7331,39.0626],[45.7546,39.0832],[45.7755,39.104],[45.7929,39.1339],[45.8107,39.1636],[45.8199,39.1823],[45.8264,39.2018],[45.831,39.2193],[45.8375,39.235],[45.8585,39.2523],[45.8786,39.2706],[45.9018,39.2941]]]}},{"type":"Feature","properties":{"id":"AZE-1725","name":"Oğuz","nameBn":"ওঘুয জেলা","type":"District","bounds":[47.2702,40.7956,47.7004,41.2618],"center":[47.4853,41.04]},"geometry":{"type":"Polygon","coordinates":[[[47.3673,41.2618],[47.3756,41.2594],[47.4791,41.252],[47.501,41.2463],[47.5292,41.2166],[47.5473,41.2057],[47.5678,41.2055],[47.6032,41.2233],[47.6225,41.2291],[47.6425,41.2273],[47.6949,41.2071],[47.6932,41.195],[47.6923,41.1692],[47.697,41.1572],[47.7004,41.1456],[47.6915,41.1223],[47.6838,41.0967],[47.6555,41.0495],[47.6244,41.0067],[47.6285,40.9832],[47.6248,40.9589],[47.608,40.9369],[47.5915,40.9147],[47.5712,40.8567],[47.5698,40.7956],[47.4736,40.8343],[47.3845,40.8861],[47.3676,40.9008],[47.3545,40.9187],[47.3492,40.9401],[47.343,40.958],[47.3288,40.9589],[47.3145,40.9551],[47.3053,40.9644],[47.3092,40.9781],[47.2869,40.997],[47.2702,41.0204],[47.2824,41.0608],[47.3042,41.098],[47.3253,41.1327],[47.3465,41.1673],[47.3586,41.2212],[47.3673,41.2618]]]}},{"type":"Feature","properties":{"id":"AZE-1726","name":"Qax","nameBn":"কাহ জেলা","type":"District","bounds":[46.6155,40.9109,47.1792,41.5699],"center":[46.7976,41.375]},"geometry":{"type":"Polygon","coordinates":[[[47.1075,41.5699],[47.1256,41.5663],[47.1414,41.5524],[47.1487,41.5351],[47.1522,41.5181],[47.1593,41.5035],[47.177,41.4935],[47.1792,41.4917],[47.1766,41.4872],[47.1662,41.4469],[47.1427,41.4151],[47.0604,41.3727],[46.9709,41.3428],[46.9301,41.3293],[46.8915,41.3106],[46.8749,41.2952],[46.8655,41.2771],[46.8525,41.2629],[46.8342,41.2518],[46.8131,41.2143],[46.8068,41.1665],[46.8125,41.1275],[46.8577,41.1095],[46.927,41.0247],[46.93,40.9109],[46.8456,40.946],[46.7597,40.966],[46.755,40.9925],[46.7405,41.0154],[46.7345,41.0445],[46.7303,41.0724],[46.6904,41.0905],[46.6448,41.0918],[46.6155,41.1087],[46.6211,41.1146],[46.6295,41.1467],[46.6348,41.1811],[46.6445,41.208],[46.6504,41.2142],[46.6636,41.2235],[46.6695,41.2299],[46.6716,41.2365],[46.6727,41.254],[46.6746,41.2617],[46.6834,41.2695],[46.6917,41.2685],[46.6948,41.2698],[46.6885,41.2844],[46.6571,41.3206],[46.6378,41.337],[46.631,41.3455],[46.6298,41.3461],[46.6375,41.3742],[46.6814,41.4166],[46.714,41.4707],[46.7469,41.5108],[46.7983,41.5235],[46.8647,41.5207],[46.9292,41.5053],[46.9885,41.5151],[47.0283,41.5571],[47.0691,41.5613],[47.0883,41.567],[47.1075,41.5699]]]}},{"type":"Feature","properties":{"id":"AZE-1684","name":"Qazax","nameBn":"কোয়াজাক জেলা","type":"District","bounds":[44.9607,40.968,45.3988,41.3499],"center":[45.2004,41.0778]},"geometry":{"type":"MultiPolygon","coordinates":[[[[44.9795,41.082],[45.0189,41.0749],[45.03,41.0463],[45.0157,41.0232],[44.9795,41.0326],[44.9669,41.0448],[44.9607,41.0599],[44.964,41.0738],[44.9795,41.082]]],[[[45.1667,41.1078],[45.201,41.1267],[45.1998,41.1427],[45.1868,41.1569],[45.1344,41.1879],[45.1173,41.1921],[45.052,41.1921],[45.0349,41.1977],[45.0293,41.2101],[45.0394,41.2312],[45.0024,41.2905],[45.0978,41.3499],[45.0984,41.3433],[45.1022,41.3366],[45.1487,41.3024],[45.1683,41.2936],[45.2119,41.2858],[45.2523,41.2649],[45.2759,41.2565],[45.3887,41.2465],[45.3922,41.2456],[45.3942,41.2334],[45.3988,41.2091],[45.3728,41.1456],[45.3762,41.1373],[45.3792,41.1296],[45.3731,41.1222],[45.3674,41.1158],[45.3672,41.1015],[45.3704,41.0878],[45.3774,41.0538],[45.3799,41.0194],[45.3819,41.0118],[45.3819,41.0114],[45.3354,40.9938],[45.3126,40.9966],[45.2687,41.0103],[45.2216,41.0144],[45.2052,41.0249],[45.1897,41.0375],[45.1692,41.0472],[45.1366,41.0729],[45.12,41.0796],[45.1171,41.0614],[45.111,41.0495],[45.0917,41.051],[45.07,41.0621],[45.0572,41.0788],[45.0678,41.1109],[45.1667,41.1078]]],[[[45.1877,40.9984],[45.1918,40.9978],[45.2205,40.9791],[45.2099,40.968],[45.1868,40.9708],[45.1772,40.9938],[45.1803,40.9964],[45.1838,40.9979],[45.1877,40.9984]]]]}},{"type":"Feature","properties":{"id":"AZE-1711","name":"Qobustan","nameBn":"গোবুস্তান জেলা","type":"District","bounds":[48.6616,40.2915,49.2631,40.7617],"center":[48.9623,40.4977]},"geometry":{"type":"Polygon","coordinates":[[[48.7957,40.3242],[48.7469,40.3447],[48.7069,40.3413],[48.6679,40.3402],[48.6616,40.3554],[48.6898,40.3674],[48.7076,40.3791],[48.7132,40.3994],[48.7249,40.4171],[48.7365,40.4347],[48.7428,40.4514],[48.7305,40.4655],[48.726,40.48],[48.7277,40.4975],[48.7239,40.519],[48.7167,40.5397],[48.7165,40.5584],[48.7122,40.5751],[48.6969,40.5845],[48.6877,40.5973],[48.7026,40.6165],[48.7206,40.6353],[48.7167,40.6791],[48.7295,40.7211],[48.7668,40.7433],[48.8081,40.7617],[48.8659,40.7486],[48.9195,40.7179],[48.9432,40.701],[48.9646,40.6798],[49.0036,40.6475],[49.0474,40.6226],[49.1012,40.6084],[49.1442,40.5745],[49.1979,40.532],[49.2631,40.5056],[49.2421,40.4763],[49.2145,40.455],[49.186,40.4375],[49.1556,40.4272],[49.1241,40.4228],[49.0955,40.41],[49.0802,40.3879],[49.0603,40.3722],[49.026,40.3636],[48.9978,40.3413],[48.9761,40.324],[48.954,40.307],[48.9363,40.2915],[48.9171,40.3011],[48.8851,40.3178],[48.8506,40.3285],[48.7957,40.3242]]]}},{"type":"Feature","properties":{"id":"AZE-1728","name":"Quba","nameBn":"কোবা জেলা","type":"District","bounds":[47.9265,40.8951,48.7472,41.4835],"center":[48.3368,41.1847]},"geometry":{"type":"Polygon","coordinates":[[[48.6801,40.8951],[48.6131,40.91],[48.5483,40.9309],[48.4701,40.9479],[48.3892,40.9485],[48.3304,40.9882],[48.2548,40.9923],[48.2004,41.0115],[48.147,41.035],[48.119,41.047],[48.0906,41.0561],[48.0607,41.0581],[48.0311,41.0631],[47.952,41.0982],[47.9265,41.1577],[48.1202,41.2692],[48.3181,41.3737],[48.3862,41.4166],[48.4602,41.4451],[48.5196,41.4592],[48.5755,41.4835],[48.5962,41.4535],[48.6219,41.4239],[48.6397,41.3959],[48.6584,41.3685],[48.6755,41.3506],[48.7006,41.3552],[48.7243,41.3615],[48.7441,41.3485],[48.7328,41.3073],[48.7335,41.2667],[48.747,41.2543],[48.7472,41.2398],[48.7347,41.2272],[48.7213,41.2151],[48.6693,41.1804],[48.6428,41.1321],[48.6852,41.0999],[48.7213,41.0639],[48.7082,41.0383],[48.6826,41.0235],[48.6634,41.0015],[48.6784,40.9772],[48.6836,40.9395],[48.6801,40.8951]]]}},{"type":"Feature","properties":{"id":"AZE-1736","name":"Qubadli","nameBn":"কাুবাডলি জেলা","type":"District","bounds":[46.3609,39.1286,46.8229,39.4851],"center":[46.5917,39.3434]},"geometry":{"type":"Polygon","coordinates":[[[46.5991,39.2225],[46.5979,39.2251],[46.5911,39.2311],[46.5845,39.2358],[46.5418,39.2591],[46.5177,39.2788],[46.5079,39.2936],[46.5027,39.3095],[46.4953,39.324],[46.4793,39.3342],[46.4074,39.3591],[46.3746,39.3788],[46.3609,39.4103],[46.374,39.436],[46.4057,39.4512],[46.479,39.4618],[46.5169,39.4429],[46.5623,39.4387],[46.6013,39.4621],[46.6407,39.4835],[46.6653,39.4797],[46.6895,39.4769],[46.7106,39.4808],[46.7316,39.4851],[46.7489,39.4753],[46.7558,39.4666],[46.7611,39.46],[46.7579,39.4522],[46.7513,39.4363],[46.7335,39.4163],[46.7099,39.3986],[46.7035,39.3676],[46.7177,39.3458],[46.7368,39.3235],[46.7402,39.2905],[46.7557,39.2622],[46.79,39.2464],[46.8229,39.228],[46.7824,39.2105],[46.7433,39.1908],[46.71,39.1611],[46.6812,39.1286],[46.6405,39.1477],[46.6296,39.22],[46.5991,39.2225]]]}},{"type":"Feature","properties":{"id":"AZE-1729","name":"Qusar","nameBn":"কোসার জেলা","type":"District","bounds":[47.8135,41.1577,48.5755,41.7227],"center":[48.1944,41.4005]},"geometry":{"type":"Polygon","coordinates":[[[47.9792,41.3524],[48.0016,41.3621],[48.0346,41.4336],[48.0535,41.4613],[48.0866,41.4766],[48.2018,41.4935],[48.2313,41.5055],[48.2837,41.5395],[48.3702,41.5802],[48.393,41.5989],[48.4133,41.6276],[48.4554,41.7144],[48.4622,41.721],[48.4879,41.7227],[48.5143,41.7009],[48.4916,41.6481],[48.5096,41.5996],[48.5367,41.5979],[48.5613,41.5927],[48.5609,41.5729],[48.5445,41.5552],[48.5633,41.5251],[48.5755,41.4835],[48.5196,41.4592],[48.4602,41.4451],[48.3862,41.4166],[48.3181,41.3737],[48.1202,41.2692],[47.9265,41.1577],[47.8895,41.1624],[47.8529,41.1687],[47.821,41.1847],[47.8135,41.1974],[47.8287,41.1984],[47.8711,41.2082],[47.8946,41.2193],[47.8989,41.2291],[47.8938,41.2419],[47.8893,41.2624],[47.8921,41.2833],[47.9014,41.293],[47.9148,41.3002],[47.9295,41.3136],[47.9379,41.3317],[47.9427,41.3474],[47.9532,41.3558],[47.9792,41.3524]]]}},{"type":"Feature","properties":{"id":"AZE-1724","name":"Qəbələ","nameBn":"কাবালা জেলা","type":"District","bounds":[47.5256,40.6395,48.0311,41.2071],"center":[47.7784,40.9578]},"geometry":{"type":"Polygon","coordinates":[[[47.7437,41.1927],[47.8135,41.1974],[47.821,41.1847],[47.8529,41.1687],[47.8895,41.1624],[47.9265,41.1577],[47.952,41.0982],[48.0311,41.0631],[48.0154,41.0494],[48.0042,41.0324],[47.999,41.0139],[47.9908,40.998],[47.9771,41.0004],[47.9629,41.0017],[47.9542,40.9912],[47.9488,40.979],[47.9591,40.9462],[47.9834,40.9148],[47.9801,40.8837],[47.951,40.8651],[47.936,40.863],[47.923,40.8592],[47.9197,40.8371],[47.9188,40.8141],[47.8801,40.7907],[47.8347,40.7751],[47.8054,40.7562],[47.7848,40.727],[47.7593,40.7004],[47.7325,40.675],[47.6997,40.663],[47.6641,40.6621],[47.6253,40.6552],[47.5886,40.6395],[47.556,40.6539],[47.5317,40.674],[47.5292,40.7178],[47.5256,40.7615],[47.5608,40.7693],[47.5698,40.7956],[47.5712,40.8567],[47.5915,40.9147],[47.608,40.9369],[47.6248,40.9589],[47.6285,40.9832],[47.6244,41.0067],[47.6555,41.0495],[47.6838,41.0967],[47.6915,41.1223],[47.7004,41.1456],[47.697,41.1572],[47.6923,41.1692],[47.6932,41.195],[47.6949,41.2071],[47.7246,41.1957],[47.7437,41.1927]]]}},{"type":"Feature","properties":{"id":"AZE-1713","name":"Saatlı","nameBn":"সাটলি জেলা","type":"District","bounds":[48.2147,39.6148,48.7036,39.9999],"center":[48.4591,39.7892]},"geometry":{"type":"Polygon","coordinates":[[[48.4093,39.9999],[48.4333,39.9913],[48.4542,39.9774],[48.4474,39.9637],[48.4402,39.9482],[48.45,39.9336],[48.4654,39.9246],[48.4784,39.9237],[48.4883,39.9322],[48.5099,39.9422],[48.5349,39.941],[48.578,39.9228],[48.6193,39.9015],[48.6616,39.8868],[48.6936,39.8549],[48.6932,39.8353],[48.6868,39.8172],[48.6907,39.7916],[48.7036,39.7693],[48.7036,39.7347],[48.679,39.7053],[48.6331,39.688],[48.5844,39.6803],[48.5552,39.6613],[48.5821,39.6517],[48.5408,39.6148],[48.4908,39.6353],[48.4342,39.662],[48.3794,39.6217],[48.3557,39.6429],[48.3403,39.6665],[48.34,39.6889],[48.3414,39.7113],[48.3466,39.7233],[48.3487,39.7367],[48.3013,39.7695],[48.241,39.7855],[48.2243,39.8051],[48.2147,39.8285],[48.2231,39.855],[48.2396,39.8788],[48.2526,39.9004],[48.2482,39.9232],[48.2357,39.9343],[48.2259,39.9459],[48.236,39.9632],[48.2496,39.9797],[48.2665,39.9591],[48.2876,39.9611],[48.314,39.9717],[48.3403,39.9833],[48.3743,39.9956],[48.4093,39.9999]]]}},{"type":"Feature","properties":{"id":"AZE-1714","name":"Sabirabad","nameBn":"সাবিরাবাদ জেলা","type":"District","bounds":[48.2496,39.5921,48.9932,40.1378],"center":[48.8122,39.8179]},"geometry":{"type":"Polygon","coordinates":[[[48.4575,40.1378],[48.551,40.1368],[48.6409,40.118],[48.663,40.1087],[48.6612,40.0959],[48.6648,40.0778],[48.6677,40.0758],[48.6685,40.071],[48.6679,40.0604],[48.6688,40.0522],[48.6715,40.0511],[48.6758,40.052],[48.7015,40.0413],[48.7242,40.0381],[48.7428,40.0332],[48.7504,40.0194],[48.7623,40.0151],[48.8194,40.0078],[48.8392,40.0027],[48.8734,39.9816],[48.8703,39.952],[48.87,39.9382],[48.8773,39.9249],[48.8843,39.9179],[48.8967,39.9132],[48.9032,39.9109],[48.9096,39.9057],[48.9097,39.9022],[48.9257,39.8795],[48.937,39.8672],[48.9416,39.8581],[48.9422,39.8517],[48.9411,39.8326],[48.9416,39.8245],[48.9448,39.8165],[48.9531,39.8056],[48.9553,39.7966],[48.9522,39.79],[48.946,39.7824],[48.942,39.7742],[48.9454,39.7659],[48.9766,39.7432],[48.9917,39.7289],[48.9932,39.7181],[48.9823,39.7038],[48.9686,39.6762],[48.9553,39.6663],[48.9366,39.6609],[48.9159,39.644],[48.8856,39.6317],[48.8898,39.609],[48.885,39.5921],[48.8625,39.6],[48.8384,39.6111],[48.8023,39.6079],[48.767,39.6057],[48.7177,39.6182],[48.6688,39.6315],[48.6256,39.646],[48.5821,39.6517],[48.5552,39.6613],[48.5844,39.6803],[48.6331,39.688],[48.679,39.7053],[48.7036,39.7347],[48.7036,39.7693],[48.6907,39.7916],[48.6868,39.8172],[48.6932,39.8353],[48.6936,39.8549],[48.6616,39.8868],[48.6193,39.9015],[48.578,39.9228],[48.5349,39.941],[48.5099,39.9422],[48.4883,39.9322],[48.4784,39.9237],[48.4654,39.9246],[48.45,39.9336],[48.4402,39.9482],[48.4474,39.9637],[48.4542,39.9774],[48.4333,39.9913],[48.4093,39.9999],[48.3743,39.9956],[48.3403,39.9833],[48.314,39.9717],[48.2876,39.9611],[48.2665,39.9591],[48.2496,39.9797],[48.2695,39.9947],[48.2908,40.0075],[48.3104,40.0116],[48.3227,40.0186],[48.3246,40.0306],[48.3172,40.0398],[48.3323,40.0563],[48.3404,40.0698],[48.3662,40.0892],[48.3982,40.1035],[48.425,40.1239],[48.4575,40.1378]]]}},{"type":"Feature","properties":{"id":"AZE-1715","name":"Salyan","nameBn":"সালিয়ান জেলা","type":"District","bounds":[48.7403,39.349,49.3587,39.9186],"center":[49.0495,39.7198]},"geometry":{"type":"Polygon","coordinates":[[[49.3587,39.6666],[49.3372,39.6464],[49.318,39.6214],[49.319,39.6042],[49.3074,39.5876],[49.2971,39.5656],[49.2892,39.5424],[49.2849,39.5222],[49.2854,39.5083],[49.2795,39.5076],[49.241,39.4987],[49.2024,39.489],[49.1848,39.4795],[49.1666,39.4767],[49.1431,39.48],[49.1208,39.4885],[49.0861,39.521],[49.0527,39.5482],[49.0279,39.5296],[49.0242,39.5189],[49.0178,39.503],[48.9896,39.4822],[48.9863,39.4762],[48.9761,39.4703],[48.9717,39.4679],[48.9477,39.434],[48.9508,39.4092],[48.9564,39.386],[48.946,39.3737],[48.9272,39.3701],[48.8916,39.349],[48.8543,39.3546],[48.8096,39.3824],[48.7638,39.4088],[48.7734,39.4357],[48.7786,39.4621],[48.7603,39.4832],[48.7403,39.5024],[48.7455,39.5541],[48.767,39.6057],[48.8023,39.6079],[48.8384,39.6111],[48.8625,39.6],[48.885,39.5921],[48.8898,39.609],[48.8856,39.6317],[48.9159,39.644],[48.9366,39.6609],[48.9553,39.6663],[48.9686,39.6762],[48.9823,39.7038],[48.9932,39.7181],[48.9917,39.7289],[48.9766,39.7432],[48.9454,39.7659],[48.942,39.7742],[48.946,39.7824],[48.9522,39.79],[48.9553,39.7966],[48.9531,39.8056],[48.9448,39.8165],[48.9416,39.8245],[48.9411,39.8326],[48.9422,39.8517],[48.9416,39.8581],[48.937,39.8672],[48.9257,39.8795],[48.9097,39.9022],[48.9096,39.9057],[48.9171,39.9034],[48.9315,39.9139],[48.9649,39.917],[49.0008,39.9186],[49.0392,39.8982],[49.0786,39.8817],[49.13,39.8753],[49.1805,39.872],[49.1976,39.8697],[49.2143,39.8664],[49.2402,39.872],[49.2647,39.8766],[49.2828,39.8655],[49.2974,39.8493],[49.3267,39.8304],[49.3568,39.8121],[49.3424,39.7736],[49.3446,39.7304],[49.3488,39.6968],[49.3587,39.6666]]]}},{"type":"Feature","properties":{"id":"AZE-1686","name":"Samux","nameBn":"সামোক জেলা","type":"District","bounds":[46.0876,40.6818,46.7597,41.2002],"center":[46.4234,40.8795]},"geometry":{"type":"Polygon","coordinates":[[[46.5821,41.0917],[46.6018,41.094],[46.6155,41.1087],[46.6448,41.0918],[46.6904,41.0905],[46.7303,41.0724],[46.7345,41.0445],[46.7405,41.0154],[46.755,40.9925],[46.7597,40.966],[46.715,40.9278],[46.6717,40.889],[46.6212,40.8506],[46.5697,40.8139],[46.5499,40.8052],[46.5413,40.7911],[46.5462,40.7703],[46.5284,40.7563],[46.4884,40.7279],[46.4707,40.6818],[46.4118,40.6854],[46.3915,40.7238],[46.3407,40.7246],[46.3072,40.7833],[46.2773,40.8329],[46.2598,40.8678],[46.2697,40.9036],[46.2778,40.9208],[46.2828,40.9391],[46.2902,40.9624],[46.3052,40.9819],[46.3104,41.0173],[46.2876,41.051],[46.247,41.094],[46.2047,41.1367],[46.1485,41.1574],[46.0929,41.181],[46.0876,41.1837],[46.1131,41.196],[46.1354,41.1999],[46.2106,41.2002],[46.2286,41.1954],[46.2444,41.1837],[46.2734,41.1563],[46.3323,41.1159],[46.3531,41.1065],[46.4126,41.0919],[46.429,41.081],[46.457,41.0524],[46.4749,41.0441],[46.4968,41.0448],[46.5056,41.0553],[46.5111,41.071],[46.5224,41.087],[46.5435,41.097],[46.5631,41.0956],[46.5821,41.0917]]]}},{"type":"Feature","properties":{"id":"AZE-5563","name":"Shirvan","nameBn":"শিরভান","type":"Municipality","bounds":[48.87,39.9034,48.9615,39.9852],"center":[48.9257,39.9474]},"geometry":{"type":"Polygon","coordinates":[[[48.9096,39.9057],[48.9032,39.9109],[48.8967,39.9132],[48.8843,39.9179],[48.8773,39.9249],[48.87,39.9382],[48.8703,39.952],[48.8734,39.9816],[48.8879,39.9852],[48.9098,39.9804],[48.9362,39.9798],[48.9475,39.9811],[48.957,39.9766],[48.9615,39.968],[48.9606,39.9572],[48.9599,39.9384],[48.9468,39.9263],[48.9315,39.9139],[48.9171,39.9034],[48.9096,39.9057]]]}},{"type":"Feature","properties":{"id":"AZE-1712","name":"Siyəzən","nameBn":"সিজান জেলা","type":"District","bounds":[48.8232,40.8692,49.3714,41.1862],"center":[49.0973,41.0414]},"geometry":{"type":"Polygon","coordinates":[[[49.1716,41.1404],[49.1785,41.1289],[49.1955,41.0573],[49.2432,40.9972],[49.3631,40.8942],[49.3714,40.8847],[49.3671,40.8833],[49.3271,40.8841],[49.2886,40.8789],[49.2416,40.8692],[49.1926,40.8725],[49.1504,40.884],[49.1105,40.9033],[49.0823,40.9115],[49.0574,40.9247],[49.0504,40.9618],[49.0283,40.9762],[49.0065,40.9706],[48.9908,40.9572],[48.9861,40.941],[48.9794,40.9264],[48.9469,40.9118],[48.9108,40.9032],[48.8782,40.894],[48.8446,40.8925],[48.8316,40.9385],[48.8232,40.9841],[48.8379,41.0105],[48.8668,41.026],[48.8857,41.0288],[48.9063,41.0314],[48.9206,41.0451],[48.9308,41.0621],[48.93,41.1],[48.912,41.134],[48.9451,41.1687],[49.0168,41.1688],[49.0484,41.1788],[49.0801,41.1862],[49.1184,41.1626],[49.1581,41.1385],[49.1716,41.1404]]]}},{"type":"Feature","properties":{"id":"AZE-4838","name":"Stepanakert","nameBn":"স্টেপানাকেট","type":"District","bounds":[46.7411,39.8001,46.805,39.8634],"center":[46.7662,39.8285]},"geometry":{"type":"Polygon","coordinates":[[[46.7798,39.8634],[46.7863,39.8614],[46.7973,39.8569],[46.805,39.8453],[46.8011,39.8375],[46.7927,39.8369],[46.7882,39.8272],[46.7785,39.8085],[46.7598,39.8001],[46.7437,39.8085],[46.7411,39.8317],[46.7579,39.8504],[46.7727,39.8601],[46.7798,39.8634]]]}},{"type":"Feature","properties":{"id":"AZE-1717","name":"Sumqayıt","nameBn":"সুমকায়িত","type":"Municipality","bounds":[49.4827,40.54,49.7097,40.6629],"center":[49.5962,40.5841]},"geometry":{"type":"Polygon","coordinates":[[[49.5319,40.6629],[49.5389,40.654],[49.5567,40.6412],[49.5762,40.63],[49.5896,40.6252],[49.6331,40.6232],[49.6526,40.6192],[49.6685,40.6122],[49.7041,40.5881],[49.7097,40.586],[49.7068,40.5763],[49.6988,40.5647],[49.6904,40.5534],[49.6397,40.54],[49.589,40.5438],[49.5717,40.5645],[49.5556,40.5868],[49.5214,40.6173],[49.4827,40.6368],[49.4914,40.6568],[49.5255,40.66],[49.5319,40.6629]]]}},{"type":"Feature","properties":{"id":"AZE-2415","name":"Sədərək","nameBn":"সাদারাক জেলা","type":"District","bounds":[44.7746,39.6305,44.9534,39.736],"center":[44.8638,39.699]},"geometry":{"type":"Polygon","coordinates":[[[44.8931,39.7184],[44.9272,39.7247],[44.9532,39.736],[44.9534,39.73],[44.9316,39.7098],[44.8927,39.7005],[44.8511,39.6696],[44.824,39.6305],[44.8096,39.637],[44.807,39.6399],[44.7957,39.6524],[44.7843,39.6902],[44.7746,39.7028],[44.8029,39.7124],[44.8493,39.7189],[44.8931,39.7184]]]}},{"type":"Feature","properties":{"id":"AZE-1687","name":"Tovuz","nameBn":"তুভোজ জেলা","type":"District","bounds":[45.4428,40.5949,46.2047,41.2321],"center":[45.8238,41.0669]},"geometry":{"type":"Polygon","coordinates":[[[45.4783,40.7482],[45.5559,40.7766],[45.5822,40.7994],[45.601,40.8406],[45.5992,40.8627],[45.5818,40.8697],[45.5582,40.8709],[45.5379,40.8759],[45.5221,40.8882],[45.4793,40.9299],[45.4528,40.9464],[45.4428,40.9484],[45.4429,40.9485],[45.4539,40.9782],[45.4731,40.9983],[45.4905,41.0159],[45.5202,41.0221],[45.5507,41.0291],[45.5806,41.053],[45.5918,41.0879],[45.5792,41.1167],[45.5669,41.1459],[45.5981,41.1635],[45.655,41.1629],[45.674,41.187],[45.7007,41.205],[45.74,41.2195],[45.7703,41.2321],[45.8207,41.2088],[45.9692,41.1683],[46.0174,41.1638],[46.0416,41.1654],[46.0614,41.1709],[46.0876,41.1837],[46.0929,41.181],[46.1485,41.1574],[46.2047,41.1367],[46.1732,41.0966],[46.1323,41.0636],[46.1214,41.0524],[46.1103,41.0412],[46.1012,41.0261],[46.0942,41.012],[46.0452,41.0034],[45.9943,41.0081],[45.9447,41.0129],[45.897,41.0057],[45.8818,40.9777],[45.863,40.9478],[45.8305,40.9293],[45.7974,40.9117],[45.7696,40.8931],[45.7394,40.8783],[45.7218,40.8541],[45.7226,40.8232],[45.7098,40.7795],[45.7137,40.7356],[45.7144,40.692],[45.7094,40.6452],[45.7018,40.6146],[45.6776,40.5949],[45.6526,40.604],[45.6287,40.6188],[45.6055,40.6305],[45.6082,40.6578],[45.5878,40.6791],[45.5568,40.6891],[45.5197,40.6899],[45.4902,40.7044],[45.4849,40.7372],[45.4783,40.7482]]]}},{"type":"Feature","properties":{"id":"AZE-1738","name":"Tərtər","nameBn":"তারতার জেলা","type":"District","bounds":[46.4994,40.033,47.0863,40.48],"center":[46.7929,40.2547]},"geometry":{"type":"Polygon","coordinates":[[[47.0863,40.1669],[47.07,40.1652],[47.0687,40.165],[47.0582,40.164],[47.0319,40.1702],[47.0227,40.196],[47.0038,40.2141],[46.9806,40.2068],[46.9557,40.2104],[46.9449,40.2183],[46.933,40.2216],[46.9322,40.2218],[46.9251,40.2092],[46.9252,40.209],[46.9309,40.1933],[46.8681,40.1696],[46.83,40.1563],[46.8237,40.1541],[46.8141,40.1507],[46.8064,40.1166],[46.7806,40.096],[46.7661,40.0691],[46.7616,40.033],[46.738,40.0533],[46.7325,40.063],[46.7253,40.0757],[46.7127,40.0959],[46.6872,40.1115],[46.637,40.1479],[46.5771,40.1525],[46.5553,40.1392],[46.5323,40.1334],[46.5192,40.161],[46.5103,40.1938],[46.4994,40.2295],[46.504,40.2659],[46.5138,40.2728],[46.5239,40.2789],[46.5307,40.2954],[46.5345,40.3131],[46.5409,40.3195],[46.555,40.3337],[46.5689,40.3477],[46.5752,40.3495],[46.5867,40.3529],[46.6243,40.364],[46.6725,40.387],[46.722,40.4038],[46.752,40.403],[46.7577,40.4029],[46.7595,40.4028],[46.7967,40.4037],[46.8085,40.409],[46.8183,40.4133],[46.8386,40.4252],[46.8579,40.4361],[46.8777,40.4459],[46.9001,40.4626],[46.924,40.48],[46.9315,40.4646],[46.9365,40.448],[46.9515,40.4308],[46.9693,40.4157],[46.9757,40.3923],[46.9824,40.3692],[46.9933,40.3587],[47.0074,40.3508],[47.0248,40.3264],[47.0485,40.3098],[47.0777,40.3017],[47.0757,40.273],[47.0732,40.2386],[47.0756,40.2043],[47.0819,40.1859],[47.0863,40.1669]]]}},{"type":"Feature","properties":{"id":"AZE-1718","name":"Ucar","nameBn":"উজার জেলা","type":"District","bounds":[47.4655,40.2922,47.9926,40.5348],"center":[47.729,40.3925]},"geometry":{"type":"Polygon","coordinates":[[[47.9926,40.4417],[47.9875,40.4002],[47.9785,40.3607],[47.9596,40.3339],[47.9343,40.3132],[47.8775,40.3103],[47.822,40.3034],[47.7696,40.3086],[47.7194,40.3071],[47.6951,40.2949],[47.6698,40.2922],[47.6539,40.3086],[47.6375,40.3277],[47.5812,40.3609],[47.523,40.3907],[47.5079,40.4137],[47.4799,40.4258],[47.4655,40.451],[47.4724,40.4805],[47.4804,40.5166],[47.5099,40.5316],[47.5477,40.5348],[47.5864,40.5254],[47.6032,40.5101],[47.6244,40.4973],[47.6444,40.5027],[47.6657,40.5082],[47.6918,40.497],[47.7164,40.4818],[47.7403,40.4739],[47.7603,40.4818],[47.7769,40.4924],[47.7971,40.4913],[47.8309,40.478],[47.8647,40.4645],[47.9016,40.4514],[47.9406,40.4474],[47.9667,40.4497],[47.9926,40.4417]]]}},{"type":"Feature","properties":{"id":"AZE-1680","name":"Xanlar","nameBn":"জ্যানলার","type":"District","bounds":[46.079,40.2762,46.5109,40.8329],"center":[46.295,40.4627]},"geometry":{"type":"Polygon","coordinates":[[[46.4707,40.6818],[46.498,40.6337],[46.4959,40.5743],[46.5109,40.5609],[46.5049,40.5433],[46.4829,40.5231],[46.4601,40.5036],[46.4236,40.4776],[46.3909,40.4479],[46.3716,40.4237],[46.3487,40.4024],[46.3187,40.3455],[46.3178,40.2762],[46.234,40.2857],[46.1558,40.3075],[46.18,40.3605],[46.2259,40.3993],[46.2264,40.4294],[46.1931,40.4483],[46.1593,40.4707],[46.1334,40.5012],[46.1696,40.5423],[46.2024,40.5808],[46.1793,40.5955],[46.1515,40.6083],[46.116,40.6288],[46.079,40.6472],[46.1156,40.6669],[46.1562,40.6742],[46.1888,40.6737],[46.2158,40.6889],[46.2212,40.7062],[46.2242,40.7239],[46.2324,40.7384],[46.2402,40.7529],[46.2428,40.7725],[46.2467,40.7915],[46.2612,40.8123],[46.2773,40.8329],[46.3072,40.7833],[46.3407,40.7246],[46.3344,40.713],[46.3244,40.7008],[46.3133,40.6889],[46.306,40.6736],[46.2984,40.6575],[46.3076,40.6264],[46.3459,40.6226],[46.3831,40.6494],[46.4118,40.6854],[46.4707,40.6818]]]}},{"type":"Feature","properties":{"id":"AZE-1730","name":"Xaçmaz","nameBn":"কাকহাময জেলা","type":"District","bounds":[48.4622,41.3485,49.0787,41.8453],"center":[48.7701,41.5198]},"geometry":{"type":"Polygon","coordinates":[[[48.4622,41.721],[48.5307,41.7874],[48.5789,41.8453],[48.5894,41.8384],[48.6201,41.8244],[48.6554,41.8006],[48.7437,41.7089],[48.7778,41.683],[48.7918,41.6674],[48.7976,41.6431],[48.8659,41.5854],[48.9041,41.5234],[48.9243,41.5178],[48.9412,41.5046],[48.9539,41.4891],[48.9622,41.4761],[48.9854,41.4505],[48.9894,41.4445],[48.9945,41.4404],[49.0192,41.4348],[49.0276,41.4312],[49.0425,41.4144],[49.0786,41.3575],[49.0787,41.3574],[49.0729,41.356],[49.0192,41.3547],[48.9671,41.3616],[48.92,41.3649],[48.8746,41.3517],[48.8399,41.3535],[48.8085,41.3619],[48.7768,41.3513],[48.7441,41.3485],[48.7243,41.3615],[48.7006,41.3552],[48.6755,41.3506],[48.6584,41.3685],[48.6397,41.3959],[48.6219,41.4239],[48.5962,41.4535],[48.5755,41.4835],[48.5633,41.5251],[48.5445,41.5552],[48.5609,41.5729],[48.5613,41.5927],[48.5367,41.5979],[48.5096,41.5996],[48.4916,41.6481],[48.5143,41.7009],[48.4879,41.7227],[48.4622,41.721]]]}},{"type":"Feature","properties":{"id":"AZE-1719","name":"Xizı","nameBn":"জিজো","type":"District","bounds":[48.7691,40.5056,49.5388,40.9762],"center":[49.154,40.7249]},"geometry":{"type":"Polygon","coordinates":[[[49.3714,40.8847],[49.3731,40.8828],[49.382,40.8666],[49.4032,40.8527],[49.4487,40.8313],[49.471,40.8358],[49.4899,40.8231],[49.5078,40.8062],[49.5278,40.7978],[49.5388,40.7881],[49.5344,40.7662],[49.5169,40.7289],[49.511,40.7095],[49.5095,40.699],[49.5108,40.6879],[49.5149,40.6816],[49.5283,40.6688],[49.5313,40.6637],[49.5319,40.6629],[49.5255,40.66],[49.4914,40.6568],[49.4827,40.6368],[49.4627,40.6107],[49.435,40.5921],[49.4217,40.5801],[49.4101,40.5675],[49.4057,40.5485],[49.4013,40.5298],[49.3367,40.5075],[49.2631,40.5056],[49.1979,40.532],[49.1442,40.5745],[49.1012,40.6084],[49.0474,40.6226],[49.0036,40.6475],[48.9646,40.6798],[48.9432,40.701],[48.9195,40.7179],[48.8659,40.7486],[48.8081,40.7617],[48.7691,40.8046],[48.7819,40.8551],[48.8117,40.8767],[48.8446,40.8925],[48.8782,40.894],[48.9108,40.9032],[48.9469,40.9118],[48.9794,40.9264],[48.9861,40.941],[48.9908,40.9572],[49.0065,40.9706],[49.0283,40.9762],[49.0504,40.9618],[49.0574,40.9247],[49.0823,40.9115],[49.1105,40.9033],[49.1504,40.884],[49.1926,40.8725],[49.2416,40.8692],[49.2886,40.8789],[49.3271,40.8841],[49.3671,40.8833],[49.3714,40.8847]]]}},{"type":"Feature","properties":{"id":"AZE-1739","name":"Xocalı","nameBn":"খুজালি জেলা","type":"District","bounds":[46.4371,39.6269,46.9236,40.0182],"center":[46.6804,39.8925]},"geometry":{"type":"Polygon","coordinates":[[[46.741,39.7718],[46.715,39.7769],[46.6695,39.7827],[46.6271,39.7787],[46.6067,39.7706],[46.5858,39.7628],[46.5679,39.7609],[46.5631,39.7604],[46.5403,39.7577],[46.5232,39.8203],[46.4886,39.8757],[46.468,39.8908],[46.4451,39.9024],[46.4371,39.9282],[46.451,39.9581],[46.4583,39.9615],[46.4817,39.9723],[46.5095,39.9855],[46.5401,39.9739],[46.5671,39.9588],[46.5982,39.9726],[46.6202,39.9977],[46.6567,40.0125],[46.6979,40.0182],[46.7334,39.9983],[46.7743,40.0073],[46.8226,39.9884],[46.8414,39.9549],[46.8476,39.9439],[46.8668,39.93],[46.8826,39.9184],[46.9236,39.9037],[46.9149,39.8768],[46.8946,39.856],[46.8918,39.8522],[46.8724,39.8264],[46.8706,39.8235],[46.8527,39.7953],[46.8405,39.7816],[46.8316,39.7682],[46.8435,39.7495],[46.8615,39.7347],[46.894,39.7072],[46.9061,39.6684],[46.8752,39.6456],[46.8411,39.6269],[46.8148,39.6379],[46.7894,39.6555],[46.7902,39.6742],[46.7896,39.6938],[46.7875,39.7224],[46.7769,39.7568],[46.7584,39.7684],[46.741,39.7718]],[[46.7598,39.8001],[46.7785,39.8085],[46.7882,39.8272],[46.7927,39.8369],[46.8011,39.8375],[46.805,39.8453],[46.7973,39.8569],[46.7863,39.8614],[46.7798,39.8634],[46.7727,39.8601],[46.7579,39.8504],[46.7411,39.8317],[46.7437,39.8085],[46.7598,39.8001]]]}},{"type":"Feature","properties":{"id":"AZE-1734","name":"Xocavənd","nameBn":"জুকাব্যান্ড","type":"District","bounds":[46.6407,39.3779,47.3394,39.883],"center":[46.99,39.6307]},"geometry":{"type":"Polygon","coordinates":[[[46.8411,39.6269],[46.8752,39.6456],[46.9061,39.6684],[46.894,39.7072],[46.8615,39.7347],[46.8435,39.7495],[46.8316,39.7682],[46.8405,39.7816],[46.8527,39.7953],[46.8907,39.8103],[46.9298,39.8221],[46.9496,39.8462],[46.9604,39.8751],[47.0037,39.883],[47.045,39.8673],[47.0996,39.8392],[47.1564,39.8287],[47.1696,39.8445],[47.1751,39.8503],[47.1813,39.8567],[47.1814,39.8567],[47.1851,39.8607],[47.1912,39.8612],[47.2168,39.8634],[47.234,39.86],[47.249,39.857],[47.2578,39.842],[47.2747,39.813],[47.3113,39.7951],[47.3242,39.7888],[47.3394,39.7502],[47.3115,39.708],[47.2736,39.7005],[47.2559,39.6979],[47.2556,39.6978],[47.2347,39.6947],[47.204,39.6886],[47.1742,39.6846],[47.1552,39.6766],[47.138,39.6617],[47.1159,39.6519],[47.0927,39.6448],[47.0536,39.6424],[47.0468,39.642],[47.0295,39.6193],[47.0667,39.6134],[47.099,39.6166],[47.0889,39.6066],[47.0766,39.5945],[47.0355,39.5873],[47.0327,39.5848],[47.0191,39.5726],[47.0253,39.5558],[47.0478,39.5578],[47.0679,39.5711],[47.0974,39.5806],[47.1051,39.5584],[47.0953,39.5479],[47.0867,39.536],[47.0918,39.5198],[47.0929,39.5161],[47.0974,39.4968],[47.08,39.4927],[47.0688,39.4911],[47.0609,39.49],[47.061,39.4789],[47.0584,39.4746],[47.0534,39.466],[47.038,39.4472],[47.0322,39.4402],[47.0407,39.4191],[47.0448,39.4091],[47.044,39.3962],[47.0287,39.3955],[47.009,39.3935],[46.9918,39.3812],[46.9666,39.3779],[46.954,39.3963],[46.9202,39.4107],[46.891,39.4302],[46.8925,39.444],[46.8857,39.4553],[46.8701,39.4599],[46.8544,39.4645],[46.8313,39.4764],[46.8294,39.4774],[46.8078,39.4663],[46.8151,39.4511],[46.8231,39.4344],[46.8218,39.431],[46.8169,39.4186],[46.81,39.4014],[46.773,39.4043],[46.767,39.4061],[46.7634,39.4072],[46.7335,39.4163],[46.7513,39.4363],[46.7579,39.4522],[46.7611,39.46],[46.7558,39.4666],[46.7489,39.4753],[46.7316,39.4851],[46.7106,39.4808],[46.6895,39.4769],[46.6653,39.4797],[46.6407,39.4835],[46.6684,39.4982],[46.6873,39.5193],[46.6866,39.5222],[46.6838,39.5341],[46.6813,39.545],[46.664,39.5596],[46.674,39.5684],[46.6907,39.5831],[46.7356,39.5888],[46.7406,39.5949],[46.7446,39.5997],[46.7629,39.622],[46.7894,39.6555],[46.8148,39.6379],[46.8411,39.6269]]]}},{"type":"Feature","properties":{"id":"AZE-1720","name":"Yardımlı","nameBn":"ইয়ার্ডিমলি জেলা","type":"District","bounds":[47.9907,38.7132,48.5476,39.03],"center":[48.269,38.866]},"geometry":{"type":"Polygon","coordinates":[[[48.2256,38.7132],[48.223,38.7215],[48.2104,38.7298],[48.078,38.7809],[48.013,38.8216],[47.9931,38.8501],[47.9907,38.8912],[48.0,38.9026],[48.0524,38.9279],[48.0553,38.9344],[48.0551,38.9419],[48.0585,38.9484],[48.2432,38.9739],[48.2844,38.9938],[48.2845,38.994],[48.2846,38.994],[48.2937,39.0046],[48.3014,39.0175],[48.3016,39.0179],[48.3684,39.0201],[48.3919,39.0262],[48.4157,39.03],[48.45,39.0126],[48.4778,38.9857],[48.4965,38.9458],[48.5476,38.9399],[48.46,38.8922],[48.3682,38.8498],[48.348,38.8364],[48.3257,38.8256],[48.3069,38.8106],[48.2898,38.7926],[48.2806,38.7732],[48.2757,38.7515],[48.2623,38.7387],[48.2486,38.7222],[48.2256,38.7132]]]}},{"type":"Feature","properties":{"id":"AZE-5566","name":"Yevlakh","nameBn":"ইয়েভলখ","type":"Municipality","bounds":[47.0931,40.5698,47.1943,40.6402],"center":[47.1503,40.6019]},"geometry":{"type":"Polygon","coordinates":[[[47.1782,40.6402],[47.1895,40.6392],[47.1943,40.6361],[47.1921,40.6232],[47.1874,40.6136],[47.1825,40.6057],[47.1801,40.5986],[47.1807,40.5865],[47.1832,40.58],[47.1735,40.5698],[47.1391,40.5713],[47.1074,40.5856],[47.0931,40.6182],[47.1108,40.6393],[47.1565,40.6395],[47.1782,40.6402]]]}},{"type":"Feature","properties":{"id":"AZE-1688","name":"Yevlakh Rayon","nameBn":"ইয়েভ্লাক জেলা","type":"District","bounds":[46.7312,40.4157,47.2628,40.966],"center":[46.9101,40.6958]},"geometry":{"type":"Polygon","coordinates":[[[46.9693,40.4157],[46.9515,40.4308],[46.9365,40.448],[46.9315,40.4646],[46.924,40.48],[46.947,40.488],[46.9578,40.5093],[46.9621,40.5246],[46.9538,40.5337],[46.923,40.5305],[46.8943,40.5374],[46.8886,40.5809],[46.8902,40.6237],[46.8646,40.6454],[46.8304,40.6478],[46.7903,40.6291],[46.7723,40.6511],[46.8029,40.6834],[46.828,40.7141],[46.7946,40.7316],[46.7544,40.7362],[46.7312,40.7653],[46.7487,40.804],[46.757,40.8444],[46.7538,40.8867],[46.7506,40.9261],[46.7597,40.966],[46.8456,40.946],[46.93,40.9109],[47.0208,40.8759],[47.1105,40.8378],[47.1868,40.8139],[47.2628,40.7889],[47.2487,40.7481],[47.2349,40.7079],[47.2218,40.6742],[47.221,40.6381],[47.2338,40.6079],[47.2237,40.5769],[47.2077,40.5626],[47.201,40.5566],[47.173,40.544],[47.1383,40.4859],[47.0798,40.4787],[47.0178,40.4716],[46.9693,40.4157]],[[46.9894,40.7698],[46.9519,40.7805],[46.9206,40.768],[46.9679,40.7253],[47.0487,40.7503],[47.0394,40.7642],[47.0286,40.775],[47.0094,40.7754],[46.9894,40.7698]],[[47.1735,40.5698],[47.1832,40.58],[47.1807,40.5865],[47.1801,40.5986],[47.1825,40.6057],[47.1874,40.6136],[47.1921,40.6232],[47.1943,40.6361],[47.1895,40.6392],[47.1782,40.6402],[47.1565,40.6395],[47.1108,40.6393],[47.0931,40.6182],[47.1074,40.5856],[47.1391,40.5713],[47.1735,40.5698]]]}},{"type":"Feature","properties":{"id":"AZE-1731","name":"Zaqatala","nameBn":"জাকাতালা জেলা","type":"District","bounds":[46.2799,41.345,47.0283,41.8514],"center":[46.654,41.5666]},"geometry":{"type":"Polygon","coordinates":[[[46.7324,41.8514],[46.7408,41.8512],[46.745,41.8401],[46.754,41.8009],[46.7594,41.7873],[46.7691,41.7757],[46.8348,41.7302],[46.8519,41.7223],[46.8645,41.7197],[46.8906,41.7171],[46.9022,41.7128],[46.9069,41.7069],[46.9123,41.6886],[46.916,41.6809],[46.9295,41.6672],[46.9792,41.6355],[47.0039,41.6054],[47.0126,41.5755],[47.027,41.5569],[47.0283,41.5571],[46.9885,41.5151],[46.9292,41.5053],[46.8647,41.5207],[46.7983,41.5235],[46.7469,41.5108],[46.714,41.4707],[46.6814,41.4166],[46.6375,41.3742],[46.6298,41.3461],[46.6229,41.3496],[46.6074,41.345],[46.5916,41.3729],[46.5425,41.395],[46.4451,41.4259],[46.3983,41.4587],[46.3779,41.4625],[46.3662,41.4666],[46.3139,41.4937],[46.2967,41.5104],[46.2879,41.5321],[46.2799,41.5712],[46.304,41.5672],[46.3342,41.5547],[46.3648,41.5566],[46.3922,41.572],[46.4191,41.5866],[46.4535,41.5924],[46.4885,41.6011],[46.518,41.6164],[46.5412,41.6391],[46.5531,41.6698],[46.5692,41.6979],[46.5986,41.7153],[46.6297,41.7301],[46.6686,41.7507],[46.7023,41.7778],[46.7164,41.8125],[46.7096,41.8351],[46.7156,41.8385],[46.7324,41.8514]]]}},{"type":"Feature","properties":{"id":"AZE-1740","name":"Zəngilan","nameBn":"জাংগিলান জেলা","type":"District","bounds":[46.3953,38.8822,46.8664,39.228],"center":[46.6305,39.0904]},"geometry":{"type":"Polygon","coordinates":[[[46.5141,39.1844],[46.5264,39.1858],[46.5728,39.2115],[46.5938,39.2121],[46.6026,39.2155],[46.5991,39.2225],[46.6296,39.22],[46.6405,39.1477],[46.6812,39.1286],[46.71,39.1611],[46.7433,39.1908],[46.7824,39.2105],[46.8229,39.228],[46.8573,39.1933],[46.8663,39.1658],[46.8664,39.1654],[46.8662,39.1654],[46.851,39.1555],[46.8374,39.1432],[46.8117,39.1085],[46.806,39.1024],[46.7981,39.0974],[46.7815,39.0904],[46.7738,39.0854],[46.7616,39.0706],[46.7448,39.0403],[46.7284,39.028],[46.6704,39.0049],[46.6522,38.9929],[46.6388,38.9795],[46.6107,38.934],[46.5992,38.9197],[46.5854,38.9077],[46.5698,38.8977],[46.5537,38.8898],[46.5321,38.883],[46.514,38.8822],[46.4793,38.9394],[46.4751,38.9511],[46.4741,38.9632],[46.4758,38.9756],[46.4793,38.9878],[46.4808,38.9906],[46.4815,38.9938],[46.4946,39.0255],[46.4975,39.0535],[46.4919,39.0819],[46.4793,39.1148],[46.4551,39.1299],[46.4218,39.1446],[46.3963,39.1644],[46.3953,39.1952],[46.4183,39.2119],[46.4534,39.2084],[46.5141,39.1844]]]}},{"type":"Feature","properties":{"id":"AZE-1721","name":"Zərdab","nameBn":"জারডাব জেলা","type":"District","bounds":[47.4428,40.0967,47.9443,40.3907],"center":[47.6936,40.2395]},"geometry":{"type":"Polygon","coordinates":[[[47.9343,40.3132],[47.933,40.2388],[47.9443,40.1671],[47.9281,40.1444],[47.9053,40.1254],[47.8762,40.1147],[47.8512,40.1009],[47.842,40.1039],[47.8314,40.1055],[47.8216,40.1014],[47.8014,40.0967],[47.791,40.114],[47.7897,40.1163],[47.7844,40.1414],[47.7834,40.1535],[47.7706,40.1586],[47.7566,40.1595],[47.7523,40.1598],[47.7359,40.1635],[47.7288,40.1765],[47.7241,40.2032],[47.7125,40.2026],[47.6817,40.1727],[47.6696,40.1788],[47.6607,40.1764],[47.6519,40.1722],[47.6401,40.1727],[47.6339,40.1771],[47.628,40.1889],[47.6196,40.1945],[47.5955,40.1967],[47.576,40.1878],[47.5592,40.1768],[47.5438,40.1727],[47.5412,40.178],[47.5172,40.2081],[47.4967,40.2416],[47.491,40.2477],[47.4858,40.2505],[47.4843,40.2537],[47.4841,40.254],[47.4892,40.2621],[47.4975,40.2682],[47.5161,40.2743],[47.524,40.2826],[47.4448,40.29],[47.445,40.2956],[47.4428,40.2984],[47.4622,40.3111],[47.4943,40.3382],[47.5094,40.3637],[47.523,40.3907],[47.5812,40.3609],[47.6375,40.3277],[47.6539,40.3086],[47.6698,40.2922],[47.6951,40.2949],[47.7194,40.3071],[47.7696,40.3086],[47.822,40.3034],[47.8775,40.3103],[47.9343,40.3132]]]}},{"type":"Feature","properties":{"id":"AZE-1704","name":"İmişli","nameBn":"ইমিশি জেলা","type":"District","bounds":[47.7418,39.5665,48.3794,40.1361],"center":[48.0606,39.9121]},"geometry":{"type":"Polygon","coordinates":[[[47.9577,39.7073],[47.9573,39.7073],[47.9457,39.694],[47.9352,39.6865],[47.9229,39.6841],[47.8469,39.6853],[47.8231,39.6803],[47.8038,39.6699],[47.7882,39.6577],[47.7884,39.6584],[47.7975,39.6907],[47.8404,39.7202],[47.8828,39.7394],[47.8897,39.77],[47.8547,39.7901],[47.8192,39.8129],[47.7864,39.8361],[47.7488,39.8509],[47.7551,39.88],[47.7723,39.9157],[47.7534,39.9256],[47.7418,39.9411],[47.7562,39.956],[47.7762,39.9648],[47.8155,39.9867],[47.8175,40.0257],[47.7848,40.055],[47.7487,40.084],[47.791,40.114],[47.8014,40.0967],[47.8216,40.1014],[47.8314,40.1055],[47.842,40.1039],[47.8512,40.1009],[47.8528,40.1003],[47.8629,40.0983],[47.8705,40.0951],[47.887,40.081],[47.8933,40.0778],[47.8999,40.0797],[47.9088,40.0883],[47.9144,40.0908],[47.9205,40.0903],[47.9304,40.0857],[47.9349,40.0846],[47.9516,40.0781],[47.9636,40.0763],[47.969,40.0812],[47.968,40.1028],[47.9686,40.114],[47.9721,40.1225],[47.9828,40.1271],[47.9949,40.1224],[48.0068,40.115],[48.0168,40.1119],[48.0372,40.1218],[48.0573,40.1352],[48.0728,40.1361],[48.0789,40.1082],[48.0866,40.0966],[48.1403,40.0709],[48.1497,40.068],[48.1577,40.0675],[48.1622,40.0634],[48.1608,40.0499],[48.1931,40.0624],[48.2116,40.0654],[48.2291,40.0635],[48.2366,40.0602],[48.2457,40.0544],[48.2532,40.0473],[48.26,40.0309],[48.268,40.0333],[48.2803,40.0437],[48.284,40.0448],[48.2891,40.0474],[48.2958,40.0496],[48.3042,40.0499],[48.3123,40.0458],[48.3172,40.0398],[48.3246,40.0306],[48.3227,40.0186],[48.3104,40.0116],[48.2908,40.0075],[48.2695,39.9947],[48.2496,39.9797],[48.236,39.9632],[48.2259,39.9459],[48.2357,39.9343],[48.2482,39.9232],[48.2526,39.9004],[48.2396,39.8788],[48.2231,39.855],[48.2147,39.8285],[48.2243,39.8051],[48.241,39.7855],[48.3013,39.7695],[48.3487,39.7367],[48.3466,39.7233],[48.3414,39.7113],[48.34,39.6889],[48.3403,39.6665],[48.3557,39.6429],[48.3794,39.6217],[48.2725,39.5665],[48.155,39.622],[48.0899,39.672],[48.0194,39.7125],[47.9588,39.7164],[47.9577,39.7074],[47.9577,39.7073]]]}},{"type":"Feature","properties":{"id":"AZE-1705","name":"İsmayıllı","nameBn":"ইসমাইলি জেলা","type":"District","bounds":[47.7325,40.5129,48.4926,41.0631],"center":[48.1125,40.7896]},"geometry":{"type":"Polygon","coordinates":[[[48.1084,40.5323],[48.0682,40.5205],[48.0272,40.5129],[48.0234,40.5532],[48.048,40.599],[48.0057,40.6262],[47.9527,40.637],[47.9019,40.6497],[47.8515,40.6538],[47.8266,40.6522],[47.8009,40.6588],[47.767,40.6677],[47.7325,40.675],[47.7593,40.7004],[47.7848,40.727],[47.8054,40.7562],[47.8347,40.7751],[47.8801,40.7907],[47.9188,40.8141],[47.9197,40.8371],[47.923,40.8592],[47.936,40.863],[47.951,40.8651],[47.9801,40.8837],[47.9834,40.9148],[47.9591,40.9462],[47.9488,40.979],[47.9542,40.9912],[47.9629,41.0017],[47.9771,41.0004],[47.9908,40.998],[47.999,41.0139],[48.0042,41.0324],[48.0154,41.0494],[48.0311,41.0631],[48.0607,41.0581],[48.0906,41.0561],[48.119,41.047],[48.147,41.035],[48.2004,41.0115],[48.2548,40.9923],[48.3304,40.9882],[48.3892,40.9485],[48.4334,40.9097],[48.4861,40.8816],[48.4926,40.8372],[48.4612,40.7939],[48.442,40.7446],[48.4113,40.7032],[48.3517,40.6693],[48.2866,40.6455],[48.2698,40.6396],[48.2532,40.6331],[48.2445,40.6244],[48.2395,40.6146],[48.2161,40.602],[48.1908,40.5908],[48.1706,40.5785],[48.1532,40.5629],[48.1493,40.5477],[48.1458,40.5335],[48.1273,40.5227],[48.1084,40.5323]]]}},{"type":"Feature","properties":{"id":"AZE-2423","name":"Şahbuz","nameBn":"শাহবাজ জেলা","type":"District","bounds":[45.3571,39.286,45.8031,39.5698],"center":[45.5799,39.4227]},"geometry":{"type":"Polygon","coordinates":[[[45.4239,39.4938],[45.4241,39.4937],[45.4348,39.4889],[45.4461,39.4875],[45.4575,39.4893],[45.4686,39.4937],[45.4793,39.4972],[45.5597,39.5368],[45.5864,39.5454],[45.7091,39.5684],[45.7147,39.5695],[45.7379,39.5698],[45.7655,39.5616],[45.7881,39.549],[45.7971,39.5363],[45.7973,39.5194],[45.794,39.494],[45.794,39.4939],[45.8031,39.4482],[45.7986,39.4324],[45.765,39.3895],[45.7586,39.3695],[45.7644,39.3591],[45.7641,39.359],[45.7627,39.3582],[45.7335,39.3308],[45.7125,39.3104],[45.6877,39.3143],[45.665,39.3328],[45.6362,39.3206],[45.5923,39.3073],[45.5495,39.2882],[45.5325,39.286],[45.5235,39.2997],[45.5251,39.3077],[45.5254,39.3194],[45.5157,39.3298],[45.5042,39.3406],[45.4584,39.3585],[45.4135,39.3755],[45.4028,39.3972],[45.3941,39.4181],[45.3724,39.4247],[45.3571,39.4335],[45.3814,39.4621],[45.4135,39.4829],[45.4239,39.4938]]]}},{"type":"Feature","properties":{"id":"AZE-1716","name":"Şamaxı","nameBn":"শামাখি","type":"District","bounds":[48.3892,40.268,48.8081,40.9485],"center":[48.5986,40.3768]},"geometry":{"type":"Polygon","coordinates":[[[48.7469,40.3447],[48.7337,40.3059],[48.7047,40.2806],[48.6718,40.268],[48.6375,40.281],[48.5945,40.2966],[48.5535,40.3151],[48.514,40.3238],[48.4737,40.3313],[48.4955,40.3513],[48.515,40.3722],[48.5179,40.3965],[48.5215,40.4205],[48.5652,40.4473],[48.616,40.4644],[48.6367,40.4722],[48.6521,40.4869],[48.6353,40.4972],[48.6132,40.5053],[48.5927,40.517],[48.5711,40.5257],[48.5364,40.5266],[48.5017,40.5274],[48.4637,40.5394],[48.4355,40.5671],[48.4464,40.6088],[48.4898,40.6401],[48.4978,40.6484],[48.5045,40.6568],[48.5047,40.667],[48.5037,40.6742],[48.5166,40.6929],[48.5269,40.7116],[48.508,40.7429],[48.477,40.7668],[48.4702,40.7803],[48.4612,40.7939],[48.4926,40.8372],[48.4861,40.8816],[48.4334,40.9097],[48.3892,40.9485],[48.4701,40.9479],[48.5483,40.9309],[48.6131,40.91],[48.6801,40.8951],[48.7314,40.8762],[48.7819,40.8551],[48.7691,40.8046],[48.8081,40.7617],[48.7668,40.7433],[48.7295,40.7211],[48.7167,40.6791],[48.7206,40.6353],[48.7026,40.6165],[48.6877,40.5973],[48.6969,40.5845],[48.7122,40.5751],[48.7165,40.5584],[48.7167,40.5397],[48.7239,40.519],[48.7277,40.4975],[48.726,40.48],[48.7305,40.4655],[48.7428,40.4514],[48.7365,40.4347],[48.7249,40.4171],[48.7132,40.3994],[48.7076,40.3791],[48.6898,40.3674],[48.6616,40.3554],[48.6679,40.3402],[48.7069,40.3413],[48.7469,40.3447]]]}},{"type":"Feature","properties":{"id":"AZE-1737","name":"Şuşa","nameBn":"সুসা","type":"District","bounds":[46.5266,39.5888,46.7902,39.7827],"center":[46.658,39.7027]},"geometry":{"type":"Polygon","coordinates":[[[46.6695,39.7827],[46.715,39.7769],[46.741,39.7718],[46.733,39.7615],[46.7341,39.751],[46.7436,39.7451],[46.7595,39.7457],[46.7669,39.752],[46.7769,39.7568],[46.7875,39.7224],[46.7896,39.6938],[46.7902,39.6742],[46.7894,39.6555],[46.7629,39.622],[46.7446,39.5997],[46.7406,39.5949],[46.7356,39.5888],[46.734,39.598],[46.7306,39.6171],[46.7165,39.6388],[46.689,39.641],[46.6618,39.6338],[46.6616,39.6336],[46.6381,39.6031],[46.6309,39.5938],[46.5894,39.59],[46.5721,39.6018],[46.5527,39.6091],[46.5306,39.6156],[46.5266,39.6423],[46.5401,39.6698],[46.5512,39.6869],[46.5566,39.6953],[46.5544,39.7069],[46.5507,39.7265],[46.5403,39.7577],[46.5631,39.7604],[46.5679,39.7609],[46.5858,39.7628],[46.6067,39.7706],[46.6271,39.7787],[46.6695,39.7827]]]}},{"type":"Feature","properties":{"id":"AZE-5565","name":"Şuşa","nameBn":"সুশা জেলা","type":"Municipality","bounds":[46.733,39.7451,46.7769,39.7718],"center":[46.7523,39.7618]},"geometry":{"type":"Polygon","coordinates":[[[46.741,39.7718],[46.7584,39.7684],[46.7769,39.7568],[46.7669,39.752],[46.7595,39.7457],[46.7436,39.7451],[46.7341,39.751],[46.733,39.7615],[46.741,39.7718]]]}},{"type":"Feature","properties":{"id":"AZE-1727","name":"Şəki","nameBn":"শেকি","type":"District","bounds":[46.8068,40.7557,47.5698,41.4917],"center":[47.1565,41.0486]},"geometry":{"type":"Polygon","coordinates":[[[47.1792,41.4917],[47.1871,41.4856],[47.1918,41.4767],[47.1951,41.467],[47.2005,41.4569],[47.2315,41.4275],[47.2391,41.4157],[47.2428,41.3913],[47.2409,41.3389],[47.2508,41.316],[47.2684,41.3028],[47.3445,41.2682],[47.3673,41.2618],[47.3586,41.2212],[47.3465,41.1673],[47.3253,41.1327],[47.3042,41.098],[47.2824,41.0608],[47.2702,41.0204],[47.2869,40.997],[47.3092,40.9781],[47.3053,40.9644],[47.3145,40.9551],[47.3288,40.9589],[47.343,40.958],[47.3492,40.9401],[47.3545,40.9187],[47.3676,40.9008],[47.3845,40.8861],[47.4736,40.8343],[47.5698,40.7956],[47.5608,40.7693],[47.5256,40.7615],[47.4861,40.7557],[47.448,40.7625],[47.4305,40.7692],[47.4127,40.7733],[47.4028,40.7698],[47.3949,40.7661],[47.3705,40.7662],[47.3455,40.7745],[47.3044,40.7824],[47.2628,40.7889],[47.1868,40.8139],[47.1105,40.8378],[47.0208,40.8759],[46.93,40.9109],[46.927,41.0247],[46.8577,41.1095],[46.8125,41.1275],[46.8068,41.1665],[46.8131,41.2143],[46.8342,41.2518],[46.8525,41.2629],[46.8655,41.2771],[46.8749,41.2952],[46.8915,41.3106],[46.9301,41.3293],[46.9709,41.3428],[47.0604,41.3727],[47.1427,41.4151],[47.1662,41.4469],[47.1766,41.4872],[47.1792,41.4917]],[[47.1889,41.1555],[47.2033,41.1611],[47.2194,41.1877],[47.2165,41.2079],[47.196,41.2347],[47.1841,41.2415],[47.1729,41.235],[47.166,41.2189],[47.1592,41.2001],[47.1502,41.1794],[47.148,41.164],[47.1889,41.1555]]]}},{"type":"Feature","properties":{"id":"AZE-5564","name":"Şəki","nameBn":"শাকি","type":"Municipality","bounds":[47.148,41.1555,47.2194,41.2415],"center":[47.1885,41.1882]},"geometry":{"type":"Polygon","coordinates":[[[47.1841,41.2415],[47.196,41.2347],[47.2165,41.2079],[47.2194,41.1877],[47.2033,41.1611],[47.1889,41.1555],[47.148,41.164],[47.1502,41.1794],[47.1592,41.2001],[47.166,41.2189],[47.1729,41.235],[47.1841,41.2415]]]}},{"type":"Feature","properties":{"id":"AZE-1685","name":"Şəmkir","nameBn":"শামকির জেলা","type":"District","bounds":[45.7218,40.5572,46.3104,41.1367],"center":[46.0161,40.8317]},"geometry":{"type":"Polygon","coordinates":[[[46.2773,40.8329],[46.2612,40.8123],[46.2467,40.7915],[46.2428,40.7725],[46.2402,40.7529],[46.2324,40.7384],[46.2242,40.7239],[46.2212,40.7062],[46.2158,40.6889],[46.1888,40.6737],[46.1562,40.6742],[46.1156,40.6669],[46.079,40.6472],[46.031,40.6667],[45.9919,40.6419],[45.952,40.5981],[45.9117,40.5572],[45.9049,40.5685],[45.9117,40.5802],[45.9088,40.604],[45.9126,40.6261],[45.8897,40.657],[45.8522,40.6845],[45.8096,40.7112],[45.7784,40.751],[45.7719,40.7714],[45.7595,40.7879],[45.7411,40.8048],[45.7226,40.8232],[45.7218,40.8541],[45.7394,40.8783],[45.7696,40.8931],[45.7974,40.9117],[45.8305,40.9293],[45.863,40.9478],[45.8818,40.9777],[45.897,41.0057],[45.9447,41.0129],[45.9943,41.0081],[46.0452,41.0034],[46.0942,41.012],[46.1012,41.0261],[46.1103,41.0412],[46.1214,41.0524],[46.1323,41.0636],[46.1732,41.0966],[46.2047,41.1367],[46.247,41.094],[46.2876,41.051],[46.3104,41.0173],[46.3052,40.9819],[46.2902,40.9624],[46.2828,40.9391],[46.2778,40.9208],[46.2697,40.9036],[46.2598,40.8678],[46.2773,40.8329]]]}},{"type":"Feature","properties":{"id":"AZE-2419","name":"Şərur","nameBn":"শারুর","type":"District","bounds":[44.824,39.3871,45.1679,39.7704],"center":[45.0172,39.5929]},"geometry":{"type":"Polygon","coordinates":[[[45.0335,39.7704],[45.0675,39.7572],[45.075,39.7498],[45.1413,39.6844],[45.1515,39.6677],[45.1559,39.6492],[45.1542,39.6259],[45.1444,39.5898],[45.1483,39.5753],[45.1679,39.5655],[45.1463,39.512],[45.1283,39.453],[45.0955,39.4121],[45.0512,39.3871],[45.0156,39.406],[45.0121,39.4095],[45.0099,39.414],[45.0064,39.418],[44.9986,39.4196],[44.9877,39.4194],[44.9825,39.4202],[44.957,39.4345],[44.9533,39.4416],[44.9616,39.4538],[44.9407,39.4681],[44.9284,39.4882],[44.8984,39.5844],[44.8864,39.606],[44.8654,39.6176],[44.8693,39.6205],[44.8723,39.6251],[44.8492,39.6256],[44.8278,39.6288],[44.824,39.6305],[44.8511,39.6696],[44.8927,39.7005],[44.9316,39.7098],[44.9534,39.73],[44.9532,39.736],[44.9591,39.7385],[44.996,39.7605],[45.0335,39.7704]]]}}]}