{"type":"FeatureCollection","features":[{"type":"Feature","properties":{"id":"BDI-2636","name":"Bubanza","nameBn":"বুবাঞ্জা প্রদেশ","type":"Province","bounds":[29.2141,-3.3111,29.5587,-2.911],"center":[29.3862,-3.1045]},"geometry":{"type":"Polygon","coordinates":[[[29.2361,-3.2707],[29.2409,-3.2663],[29.2238,-3.2527],[29.2169,-3.2331],[29.2141,-3.1665],[29.2175,-3.1462],[29.225,-3.1294],[29.2378,-3.1222],[29.2423,-3.1108],[29.2415,-3.1042],[29.2869,-3.1028],[29.3167,-3.0724],[29.3084,-3.0522],[29.2954,-3.0359],[29.2892,-3.0214],[29.2943,-3.0126],[29.3569,-2.9869],[29.3718,-2.9509],[29.4047,-2.9508],[29.414,-2.9593],[29.4375,-2.9418],[29.4707,-2.9341],[29.4949,-2.911],[29.5202,-2.9455],[29.5341,-3.0061],[29.5442,-3.0244],[29.5564,-3.0568],[29.5587,-3.0908],[29.5484,-3.112],[29.5456,-3.1349],[29.5586,-3.1603],[29.5555,-3.188],[29.5417,-3.2112],[29.5341,-3.2386],[29.54,-3.2458],[29.543,-3.2543],[29.5352,-3.2688],[29.5231,-3.28],[29.4939,-3.2602],[29.4532,-3.2623],[29.4338,-3.2668],[29.4159,-3.2609],[29.3978,-3.2572],[29.3788,-3.2588],[29.3522,-3.2647],[29.3274,-3.2757],[29.2939,-3.3111],[29.2591,-3.2995],[29.2361,-3.2707]]]}},{"type":"Feature","properties":{"id":"BDI-3364","name":"Bujumbura Mairie","nameBn":"বুজুম্বুরা মাইরি প্রদেশ","type":"Province","bounds":[29.2119,-3.5725,29.4124,-3.3096],"center":[29.3689,-3.3986]},"geometry":{"type":"Polygon","coordinates":[[[29.2239,-3.5711],[29.2119,-3.4068],[29.2669,-3.3729],[29.3162,-3.3425],[29.3337,-3.3265],[29.3518,-3.3132],[29.3748,-3.3096],[29.3907,-3.3104],[29.4076,-3.3249],[29.4124,-3.343],[29.4112,-3.3697],[29.4055,-3.3934],[29.3971,-3.4213],[29.3886,-3.4527],[29.3825,-3.4926],[29.3777,-3.5253],[29.3596,-3.5458],[29.3438,-3.5604],[29.3075,-3.5725],[29.2239,-3.5711]]]}},{"type":"Feature","properties":{"id":"BDI-4854","name":"Bujumbura Rural","nameBn":"বুজাম্বুরা রুরাল প্রদেশ","type":"Province","bounds":[29.2067,-3.7295,29.6042,-3.2572],"center":[29.4237,-3.6184]},"geometry":{"type":"Polygon","coordinates":[[[29.2119,-3.4068],[29.2067,-3.3345],[29.2087,-3.3053],[29.2131,-3.2919],[29.2361,-3.2707],[29.2591,-3.2995],[29.2939,-3.3111],[29.3274,-3.2757],[29.3522,-3.2647],[29.3788,-3.2588],[29.3978,-3.2572],[29.4159,-3.2609],[29.4338,-3.2668],[29.4532,-3.2623],[29.4939,-3.2602],[29.5231,-3.28],[29.5381,-3.3237],[29.5372,-3.3438],[29.5473,-3.3625],[29.5553,-3.3841],[29.5654,-3.4021],[29.5717,-3.3948],[29.5826,-3.3874],[29.5925,-3.3991],[29.5907,-3.4174],[29.6042,-3.4637],[29.5919,-3.4999],[29.5928,-3.5241],[29.584,-3.5463],[29.5644,-3.5555],[29.546,-3.5666],[29.5322,-3.5929],[29.5084,-3.6591],[29.5023,-3.6696],[29.4994,-3.6814],[29.4999,-3.694],[29.4986,-3.7064],[29.4883,-3.717],[29.4724,-3.7165],[29.45,-3.7195],[29.4286,-3.7267],[29.3101,-3.7295],[29.2419,-3.7138],[29.2171,-3.7093],[29.2233,-3.667],[29.2252,-3.5886],[29.2239,-3.5711],[29.3075,-3.5725],[29.3438,-3.5604],[29.3596,-3.5458],[29.3777,-3.5253],[29.3825,-3.4926],[29.3886,-3.4527],[29.3971,-3.4213],[29.4055,-3.3934],[29.4112,-3.3697],[29.4124,-3.343],[29.4076,-3.3249],[29.3907,-3.3104],[29.3748,-3.3096],[29.3518,-3.3132],[29.3337,-3.3265],[29.3162,-3.3425],[29.2669,-3.3729],[29.2119,-3.4068]]]}},{"type":"Feature","properties":{"id":"BDI-2637","name":"Bururi","nameBn":"বুরুরি প্রদেশ","type":"Province","bounds":[29.2066,-4.189,29.9283,-3.5463],"center":[29.5672,-3.8515]},"geometry":{"type":"Polygon","coordinates":[[[29.3672,-4.189],[29.3395,-4.0932],[29.2777,-3.989],[29.2398,-3.948],[29.2246,-3.9265],[29.215,-3.8999],[29.2066,-3.7819],[29.2171,-3.7093],[29.2419,-3.7138],[29.3101,-3.7295],[29.4286,-3.7267],[29.45,-3.7195],[29.4724,-3.7165],[29.4883,-3.717],[29.4986,-3.7064],[29.4999,-3.694],[29.4994,-3.6814],[29.5023,-3.6696],[29.5084,-3.6591],[29.5322,-3.5929],[29.546,-3.5666],[29.5644,-3.5555],[29.584,-3.5463],[29.6002,-3.5762],[29.6426,-3.6297],[29.6688,-3.6462],[29.6758,-3.6737],[29.675,-3.7159],[29.7022,-3.6817],[29.7063,-3.6675],[29.7169,-3.6544],[29.7261,-3.6403],[29.7549,-3.6431],[29.7819,-3.6503],[29.7834,-3.6725],[29.7776,-3.6952],[29.7662,-3.7697],[29.7672,-3.7814],[29.762,-3.7913],[29.7556,-3.8015],[29.7727,-3.8195],[29.7996,-3.8026],[29.8198,-3.7781],[29.8327,-3.7416],[29.8415,-3.7275],[29.8681,-3.7637],[29.8536,-3.7886],[29.8861,-3.802],[29.9128,-3.8028],[29.9283,-3.8204],[29.9076,-3.8374],[29.9096,-3.8566],[29.9206,-3.872],[29.9277,-3.894],[29.8945,-3.9355],[29.8994,-3.9601],[29.8926,-3.983],[29.8902,-4.0299],[29.8816,-4.0595],[29.8676,-4.0699],[29.8512,-4.0779],[29.8365,-4.0702],[29.8295,-4.0462],[29.8301,-4.0073],[29.8176,-3.9752],[29.8189,-3.957],[29.8173,-3.9427],[29.8035,-3.9501],[29.7993,-3.9729],[29.7812,-4.0196],[29.7435,-4.0533],[29.7067,-4.0638],[29.6753,-4.0849],[29.6401,-4.1241],[29.5922,-4.1464],[29.5661,-4.1489],[29.5319,-4.1777],[29.3799,-4.1878],[29.3672,-4.189]]]}},{"type":"Feature","properties":{"id":"BDI-2632","name":"Cankuzo","nameBn":"কানকুজো প্রদেশ","type":"Province","bounds":[30.2889,-3.3831,30.834,-2.899],"center":[30.5612,-3.111]},"geometry":{"type":"Polygon","coordinates":[[[30.4883,-2.9432],[30.4885,-2.9435],[30.4933,-2.9413],[30.5131,-2.914],[30.5249,-2.9042],[30.5389,-2.899],[30.547,-2.9003],[30.612,-2.9392],[30.6252,-2.9448],[30.6295,-2.9477],[30.6321,-2.9538],[30.6349,-2.9701],[30.6376,-2.9744],[30.6509,-2.9773],[30.6614,-2.9748],[30.6713,-2.9708],[30.6837,-2.97],[30.696,-2.9745],[30.7189,-2.9895],[30.7321,-2.9935],[30.7554,-2.9914],[30.8021,-2.9784],[30.8255,-2.9786],[30.8188,-2.9905],[30.8158,-2.9958],[30.7849,-3.0315],[30.7783,-3.0474],[30.7832,-3.0621],[30.8078,-3.0852],[30.8177,-3.0991],[30.8178,-3.1044],[30.8131,-3.1177],[30.8123,-3.1235],[30.8158,-3.131],[30.8288,-3.1405],[30.8329,-3.1477],[30.834,-3.1603],[30.8322,-3.1728],[30.8235,-3.1967],[30.8094,-3.2168],[30.8099,-3.2241],[30.8143,-3.2419],[30.8148,-3.2477],[30.7998,-3.2746],[30.7757,-3.291],[30.7479,-3.2941],[30.7215,-3.281],[30.7184,-3.2929],[30.712,-3.3019],[30.7022,-3.3073],[30.6899,-3.3089],[30.6626,-3.3192],[30.6405,-3.3329],[30.6217,-3.3504],[30.6033,-3.3726],[30.6103,-3.3764],[30.61,-3.3764],[30.5924,-3.3831],[30.5911,-3.3606],[30.5849,-3.3348],[30.5773,-3.3235],[30.5666,-3.3152],[30.5562,-3.311],[30.5468,-3.3051],[30.5394,-3.2977],[30.5292,-3.2935],[30.5167,-3.2987],[30.5063,-3.3058],[30.4786,-3.2994],[30.4564,-3.2814],[30.4544,-3.268],[30.4553,-3.2541],[30.4492,-3.2418],[30.44,-3.2312],[30.4255,-3.2246],[30.409,-3.2233],[30.3929,-3.2172],[30.3794,-3.2068],[30.3672,-3.2009],[30.3442,-3.2055],[30.336,-3.2011],[30.327,-3.1976],[30.2889,-3.1852],[30.3303,-3.1495],[30.3381,-3.1451],[30.3516,-3.1409],[30.3582,-3.1358],[30.3697,-3.1089],[30.3712,-3.1079],[30.3765,-3.0693],[30.3841,-3.0576],[30.4103,-3.0505],[30.4132,-3.0432],[30.4122,-3.0222],[30.4154,-3.0109],[30.4225,-3.0069],[30.4295,-3.0038],[30.4345,-2.9883],[30.4394,-2.9828],[30.4469,-2.979],[30.4563,-2.9776],[30.4617,-2.9727],[30.4773,-2.9501],[30.4879,-2.9434],[30.4883,-2.9432]]]}},{"type":"Feature","properties":{"id":"BDI-2638","name":"Cibitoke","nameBn":"চিবিটক প্রদেশ","type":"Province","bounds":[28.9869,-3.1042,29.4949,-2.5946],"center":[29.2407,-2.8674]},"geometry":{"type":"Polygon","coordinates":[[[29.1134,-2.5946],[29.1297,-2.597],[29.1904,-2.6235],[29.2128,-2.6303],[29.255,-2.6355],[29.2761,-2.6406],[29.2944,-2.6511],[29.3066,-2.6601],[29.3073,-2.6648],[29.306,-2.6766],[29.3095,-2.6901],[29.3097,-2.691],[29.3314,-2.7114],[29.3375,-2.7238],[29.3353,-2.7352],[29.3215,-2.7521],[29.3181,-2.7626],[29.3204,-2.7741],[29.3297,-2.7949],[29.3309,-2.8074],[29.3397,-2.8264],[29.3643,-2.8242],[29.4074,-2.8055],[29.4254,-2.8034],[29.4447,-2.807],[29.4625,-2.823],[29.4651,-2.8512],[29.4776,-2.8817],[29.4949,-2.911],[29.4707,-2.9341],[29.4375,-2.9418],[29.414,-2.9593],[29.4047,-2.9508],[29.3718,-2.9509],[29.3569,-2.9869],[29.2943,-3.0126],[29.2892,-3.0214],[29.2954,-3.0359],[29.3084,-3.0522],[29.3167,-3.0724],[29.2869,-3.1028],[29.2415,-3.1042],[29.2346,-3.0466],[29.2254,-3.0318],[29.2115,-3.0212],[29.1945,-3.0146],[29.176,-3.0125],[29.1568,-3.0048],[29.1482,-2.9869],[29.1442,-2.9663],[29.1384,-2.9504],[29.1234,-2.9402],[29.1051,-2.9341],[29.0898,-2.9261],[29.0833,-2.9101],[29.0817,-2.8939],[29.0776,-2.884],[29.0627,-2.8622],[29.0535,-2.8354],[29.0491,-2.8275],[29.0341,-2.8209],[29.0131,-2.8189],[28.9949,-2.8136],[28.9869,-2.7968],[28.9888,-2.7755],[28.9955,-2.7584],[29.0082,-2.7475],[29.0286,-2.7449],[29.0154,-2.7207],[29.0326,-2.6207],[29.0553,-2.5984],[29.1134,-2.5946]]]}},{"type":"Feature","properties":{"id":"BDI-2639","name":"Gitega","nameBn":"গিটেগা প্রদেশ","type":"Province","bounds":[29.7261,-3.832,30.1058,-3.0585],"center":[29.9159,-3.4898]},"geometry":{"type":"Polygon","coordinates":[[[29.878,-3.0585],[29.8877,-3.0601],[29.9044,-3.068],[29.9076,-3.0869],[29.8983,-3.1284],[29.8911,-3.1494],[29.8913,-3.1595],[29.8983,-3.17],[29.9114,-3.1774],[29.9178,-3.1717],[29.9221,-3.1617],[29.929,-3.1563],[29.9518,-3.1568],[29.9607,-3.1604],[29.9734,-3.1905],[29.9855,-3.204],[30.0014,-3.2162],[30.0153,-3.2318],[30.0211,-3.2556],[30.0206,-3.2688],[30.0184,-3.2785],[30.0132,-3.287],[30.0041,-3.2969],[29.9834,-3.3311],[29.9802,-3.3345],[29.9861,-3.3546],[30.003,-3.37],[30.0205,-3.3753],[30.0286,-3.3652],[30.0312,-3.354],[30.0381,-3.3466],[30.0629,-3.3866],[30.0654,-3.4014],[30.0745,-3.4127],[30.0823,-3.4248],[30.0738,-3.4809],[30.0743,-3.5075],[30.0817,-3.5204],[30.0935,-3.5567],[30.1039,-3.5794],[30.1058,-3.6075],[30.1035,-3.6359],[30.0994,-3.6634],[30.0813,-3.6864],[30.0484,-3.7034],[30.0151,-3.7163],[30.0027,-3.7348],[30.0002,-3.7573],[29.9553,-3.8028],[29.955,-3.8179],[29.9516,-3.832],[29.939,-3.8312],[29.9283,-3.8204],[29.9128,-3.8028],[29.8861,-3.802],[29.8536,-3.7886],[29.8681,-3.7637],[29.8415,-3.7275],[29.8327,-3.7416],[29.8198,-3.7781],[29.7996,-3.8026],[29.7727,-3.8195],[29.7556,-3.8015],[29.762,-3.7913],[29.7672,-3.7814],[29.7662,-3.7697],[29.7776,-3.6952],[29.7834,-3.6725],[29.7819,-3.6503],[29.7549,-3.6431],[29.7261,-3.6403],[29.7622,-3.6144],[29.809,-3.62],[29.8062,-3.5996],[29.798,-3.58],[29.7854,-3.5601],[29.7699,-3.5444],[29.8248,-3.5106],[29.8691,-3.4764],[29.8738,-3.4565],[29.8745,-3.4366],[29.8787,-3.4197],[29.8872,-3.4035],[29.8731,-3.375],[29.8434,-3.3561],[29.8386,-3.3147],[29.7971,-3.2898],[29.8228,-3.2546],[29.8658,-3.2331],[29.8494,-3.2254],[29.8346,-3.2142],[29.8258,-3.1952],[29.8147,-3.1793],[29.8301,-3.1744],[29.8407,-3.162],[29.8332,-3.1079],[29.878,-3.0585]]]}},{"type":"Feature","properties":{"id":"BDI-2633","name":"Karuzi","nameBn":"কারুজি প্রদেশ","type":"Province","bounds":[29.8911,-3.3753,30.3381,-2.898],"center":[30.1146,-3.1444]},"geometry":{"type":"Polygon","coordinates":[[[29.9076,-3.0869],[29.9475,-3.0772],[29.9557,-3.0592],[29.9762,-3.0484],[29.9933,-3.0318],[30.0149,-2.9976],[30.0543,-2.9805],[30.0926,-2.9791],[30.1577,-2.934],[30.1868,-2.898],[30.2301,-2.9063],[30.2714,-2.9249],[30.2881,-2.9604],[30.2884,-3.0003],[30.2733,-3.0415],[30.2524,-3.0804],[30.2473,-3.0948],[30.2438,-3.1094],[30.2517,-3.1191],[30.2726,-3.1346],[30.2828,-3.1397],[30.2952,-3.1369],[30.3079,-3.1328],[30.3216,-3.1368],[30.3313,-3.1409],[30.3381,-3.1451],[30.3303,-3.1495],[30.2889,-3.1852],[30.2758,-3.2045],[30.1761,-3.3037],[30.1564,-3.3174],[30.1359,-3.3228],[30.0901,-3.3277],[30.0803,-3.3314],[30.0758,-3.3359],[30.0709,-3.3396],[30.0478,-3.3425],[30.0381,-3.3466],[30.0312,-3.354],[30.0286,-3.3652],[30.0205,-3.3753],[30.003,-3.37],[29.9861,-3.3546],[29.9802,-3.3345],[29.9834,-3.3311],[30.0041,-3.2969],[30.0132,-3.287],[30.0184,-3.2785],[30.0206,-3.2688],[30.0211,-3.2556],[30.0153,-3.2318],[30.0014,-3.2162],[29.9855,-3.204],[29.9734,-3.1905],[29.9607,-3.1604],[29.9518,-3.1568],[29.929,-3.1563],[29.9221,-3.1617],[29.9178,-3.1717],[29.9114,-3.1774],[29.8983,-3.17],[29.8913,-3.1595],[29.8911,-3.1494],[29.8983,-3.1284],[29.9076,-3.0869]]]}},{"type":"Feature","properties":{"id":"BDI-2640","name":"Kayanza","nameBn":"কানজা প্রদেশ","type":"Province","bounds":[29.4447,-3.2003,29.878,-2.7877],"center":[29.6613,-3.025]},"geometry":{"type":"Polygon","coordinates":[[[29.6193,-2.7877],[29.6264,-2.7881],[29.6371,-2.7916],[29.6371,-2.7917],[29.637,-2.7978],[29.6418,-2.8423],[29.605,-2.8692],[29.6171,-2.8754],[29.6283,-2.8722],[29.6496,-2.8921],[29.6616,-2.8903],[29.6732,-2.89],[29.684,-2.8975],[29.7206,-2.9067],[29.741,-2.8969],[29.7608,-2.896],[29.7817,-2.9052],[29.7926,-2.9391],[29.802,-2.9848],[29.8381,-2.9891],[29.8522,-2.9984],[29.8676,-3.0028],[29.8779,-3.01],[29.8743,-3.0233],[29.8733,-3.0413],[29.878,-3.0585],[29.8332,-3.1079],[29.8407,-3.162],[29.8301,-3.1744],[29.8147,-3.1793],[29.7909,-3.1857],[29.7666,-3.1897],[29.7548,-3.1971],[29.7399,-3.2003],[29.7218,-3.1906],[29.7117,-3.1725],[29.7133,-3.1574],[29.7074,-3.1469],[29.6821,-3.1572],[29.6596,-3.1599],[29.6572,-3.1189],[29.6446,-3.1099],[29.6293,-3.1147],[29.619,-3.109],[29.6096,-3.0979],[29.5852,-3.0974],[29.5587,-3.0908],[29.5564,-3.0568],[29.5442,-3.0244],[29.5341,-3.0061],[29.5202,-2.9455],[29.4949,-2.911],[29.4776,-2.8817],[29.4651,-2.8512],[29.4625,-2.823],[29.4447,-2.807],[29.4809,-2.8137],[29.5041,-2.8269],[29.5231,-2.8204],[29.5418,-2.8086],[29.5638,-2.8057],[29.5741,-2.8061],[29.582,-2.803],[29.5895,-2.7984],[29.6193,-2.7877]]]}},{"type":"Feature","properties":{"id":"BDI-2643","name":"Kirundo","nameBn":"কিরুন্ডো প্রদেশ","type":"Province","bounds":[29.9037,-2.781,30.4262,-2.3166],"center":[30.1647,-2.5641]},"geometry":{"type":"Polygon","coordinates":[[[30.2627,-2.3584],[30.2789,-2.3576],[30.298,-2.3537],[30.3168,-2.3476],[30.3312,-2.3403],[30.344,-2.3284],[30.3486,-2.3224],[30.3706,-2.3392],[30.3807,-2.3773],[30.3883,-2.3856],[30.394,-2.3976],[30.3949,-2.4123],[30.4008,-2.4246],[30.4156,-2.4385],[30.4256,-2.4568],[30.4112,-2.499],[30.4189,-2.5158],[30.4262,-2.5362],[30.4233,-2.5572],[30.4156,-2.5765],[30.3956,-2.5877],[30.3741,-2.5902],[30.3632,-2.605],[30.3518,-2.6176],[30.28,-2.6809],[30.2738,-2.6772],[30.2659,-2.6747],[30.2559,-2.6785],[30.2338,-2.6911],[30.2132,-2.7063],[30.1868,-2.7114],[30.1644,-2.7207],[30.1494,-2.7387],[30.1432,-2.7602],[30.1181,-2.7736],[30.0781,-2.781],[30.0426,-2.7341],[30.0221,-2.7167],[30.0084,-2.6915],[29.9785,-2.6546],[29.9299,-2.6416],[29.9037,-2.6379],[29.9079,-2.5354],[29.9296,-2.4598],[29.9224,-2.383],[29.9289,-2.3318],[29.9288,-2.3225],[29.9317,-2.3169],[29.9419,-2.3166],[29.9499,-2.3211],[29.9568,-2.327],[29.9585,-2.3285],[29.9761,-2.3437],[29.9839,-2.3448],[29.9923,-2.344],[30.0019,-2.3443],[30.0133,-2.3483],[30.0255,-2.3577],[30.0565,-2.3944],[30.073,-2.4088],[30.0939,-2.4226],[30.1168,-2.4315],[30.1391,-2.4308],[30.1562,-2.419],[30.2013,-2.3624],[30.2034,-2.3554],[30.2039,-2.346],[30.2075,-2.3392],[30.2191,-2.3404],[30.2503,-2.3556],[30.2627,-2.3584]]]}},{"type":"Feature","properties":{"id":"BDI-2641","name":"Makamba","nameBn":"মাকাম্বা প্রদেশ","type":"Province","bounds":[29.3672,-4.4633,30.1759,-3.9427],"center":[29.771,-4.2162]},"geometry":{"type":"Polygon","coordinates":[[[30.1759,-4.04],[30.1732,-4.0463],[30.1498,-4.0868],[30.1196,-4.1235],[30.0515,-4.1802],[30.0411,-4.195],[30.0156,-4.256],[30.003,-4.2719],[29.9808,-4.2844],[29.9707,-4.2926],[29.9363,-4.312],[29.9005,-4.3456],[29.8474,-4.3705],[29.8386,-4.3735],[29.8218,-4.3707],[29.811,-4.3653],[29.8003,-4.3639],[29.7841,-4.3738],[29.7823,-4.3774],[29.7802,-4.3937],[29.775,-4.4023],[29.758,-4.4102],[29.7517,-4.4161],[29.7479,-4.4303],[29.7474,-4.4432],[29.7444,-4.4545],[29.7328,-4.4633],[29.7283,-4.4616],[29.6875,-4.4584],[29.6383,-4.4468],[29.4042,-4.4498],[29.3728,-4.2082],[29.3672,-4.189],[29.3799,-4.1878],[29.5319,-4.1777],[29.5661,-4.1489],[29.5922,-4.1464],[29.6401,-4.1241],[29.6753,-4.0849],[29.7067,-4.0638],[29.7435,-4.0533],[29.7812,-4.0196],[29.7993,-3.9729],[29.8035,-3.9501],[29.8173,-3.9427],[29.8189,-3.957],[29.8176,-3.9752],[29.8301,-4.0073],[29.8295,-4.0462],[29.8365,-4.0702],[29.8512,-4.0779],[29.8676,-4.0699],[29.8816,-4.0595],[29.8916,-4.0793],[29.9102,-4.0896],[29.9282,-4.1023],[29.9531,-4.1355],[29.9694,-4.1246],[29.9953,-4.0923],[30.0406,-4.0662],[30.1255,-4.0628],[30.1536,-4.0479],[30.1669,-4.0376],[30.1753,-4.0399],[30.1759,-4.04]]]}},{"type":"Feature","properties":{"id":"BDI-3365","name":"Muramvya","nameBn":"মুরাম্ভিয়া প্রদেশ","type":"Province","bounds":[29.5231,-3.4021,29.8658,-3.0908],"center":[29.668,-3.2533]},"geometry":{"type":"Polygon","coordinates":[[[29.5587,-3.0908],[29.5852,-3.0974],[29.6096,-3.0979],[29.619,-3.109],[29.6293,-3.1147],[29.6446,-3.1099],[29.6572,-3.1189],[29.6596,-3.1599],[29.6821,-3.1572],[29.7074,-3.1469],[29.7133,-3.1574],[29.7117,-3.1725],[29.7218,-3.1906],[29.7399,-3.2003],[29.7548,-3.1971],[29.7666,-3.1897],[29.7909,-3.1857],[29.8147,-3.1793],[29.8258,-3.1952],[29.8346,-3.2142],[29.8494,-3.2254],[29.8658,-3.2331],[29.8228,-3.2546],[29.7971,-3.2898],[29.8386,-3.3147],[29.8434,-3.3561],[29.8192,-3.366],[29.7461,-3.3795],[29.7067,-3.3787],[29.6772,-3.3846],[29.6639,-3.3918],[29.6577,-3.3977],[29.6493,-3.3986],[29.6437,-3.3896],[29.629,-3.3817],[29.6088,-3.3873],[29.5925,-3.3991],[29.5826,-3.3874],[29.5717,-3.3948],[29.5654,-3.4021],[29.5553,-3.3841],[29.5473,-3.3625],[29.5372,-3.3438],[29.5381,-3.3237],[29.5231,-3.28],[29.5352,-3.2688],[29.543,-3.2543],[29.54,-3.2458],[29.5341,-3.2386],[29.5417,-3.2112],[29.5555,-3.188],[29.5586,-3.1603],[29.5456,-3.1349],[29.5484,-3.112],[29.5587,-3.0908]]]}},{"type":"Feature","properties":{"id":"BDI-2644","name":"Muyinga","nameBn":"মুইজিং প্রদেশ","type":"Province","bounds":[30.0781,-3.1451,30.5546,-2.3031],"center":[30.3161,-2.8921]},"geometry":{"type":"Polygon","coordinates":[[[30.3786,-2.3031],[30.3834,-2.3055],[30.4151,-2.3131],[30.4185,-2.3118],[30.4232,-2.3173],[30.4284,-2.3314],[30.4341,-2.3392],[30.4885,-2.3838],[30.5217,-2.3994],[30.5546,-2.4006],[30.5215,-2.4423],[30.5081,-2.4635],[30.4702,-2.5558],[30.462,-2.5875],[30.4577,-2.598],[30.448,-2.6105],[30.4242,-2.6332],[30.416,-2.6456],[30.4121,-2.6702],[30.4232,-2.6809],[30.4427,-2.6811],[30.4638,-2.6742],[30.4996,-2.6579],[30.5226,-2.6494],[30.5161,-2.6683],[30.4586,-2.7287],[30.4505,-2.7418],[30.4473,-2.7573],[30.4469,-2.7827],[30.4251,-2.8122],[30.4136,-2.8344],[30.4158,-2.8517],[30.4408,-2.884],[30.456,-2.8983],[30.4742,-2.9032],[30.4696,-2.9142],[30.4754,-2.9221],[30.4841,-2.9307],[30.4883,-2.9432],[30.4879,-2.9434],[30.4773,-2.9501],[30.4617,-2.9727],[30.4563,-2.9776],[30.4469,-2.979],[30.4394,-2.9828],[30.4345,-2.9883],[30.4295,-3.0038],[30.4225,-3.0069],[30.4154,-3.0109],[30.4122,-3.0222],[30.4132,-3.0432],[30.4103,-3.0505],[30.3841,-3.0576],[30.3765,-3.0693],[30.3712,-3.1079],[30.3697,-3.1089],[30.3582,-3.1358],[30.3516,-3.1409],[30.3381,-3.1451],[30.3313,-3.1409],[30.3216,-3.1368],[30.3079,-3.1328],[30.2952,-3.1369],[30.2828,-3.1397],[30.2726,-3.1346],[30.2517,-3.1191],[30.2438,-3.1094],[30.2473,-3.0948],[30.2524,-3.0804],[30.2733,-3.0415],[30.2884,-3.0003],[30.2881,-2.9604],[30.2714,-2.9249],[30.2301,-2.9063],[30.1868,-2.898],[30.1858,-2.8837],[30.187,-2.8696],[30.1726,-2.8694],[30.1597,-2.8622],[30.1428,-2.86],[30.1285,-2.875],[30.1056,-2.8951],[30.0824,-2.8831],[30.1045,-2.8516],[30.1191,-2.8203],[30.103,-2.7938],[30.0781,-2.781],[30.1181,-2.7736],[30.1432,-2.7602],[30.1494,-2.7387],[30.1644,-2.7207],[30.1868,-2.7114],[30.2132,-2.7063],[30.2338,-2.6911],[30.2559,-2.6785],[30.2659,-2.6747],[30.2738,-2.6772],[30.28,-2.6809],[30.3518,-2.6176],[30.3632,-2.605],[30.3741,-2.5902],[30.3956,-2.5877],[30.4156,-2.5765],[30.4233,-2.5572],[30.4262,-2.5362],[30.4189,-2.5158],[30.4112,-2.499],[30.4256,-2.4568],[30.4156,-2.4385],[30.4008,-2.4246],[30.3949,-2.4123],[30.394,-2.3976],[30.3883,-2.3856],[30.3807,-2.3773],[30.3706,-2.3392],[30.3486,-2.3224],[30.3528,-2.3169],[30.3625,-2.3078],[30.3786,-2.3031]]]}},{"type":"Feature","properties":{"id":"BDI-5588","name":"Mwaro","nameBn":"ম্বারো প্রদেশ","type":"Province","bounds":[29.584,-3.7159,29.8872,-3.3561],"center":[29.6943,-3.5179]},"geometry":{"type":"Polygon","coordinates":[[[29.8434,-3.3561],[29.8731,-3.375],[29.8872,-3.4035],[29.8787,-3.4197],[29.8745,-3.4366],[29.8738,-3.4565],[29.8691,-3.4764],[29.8248,-3.5106],[29.7699,-3.5444],[29.7854,-3.5601],[29.798,-3.58],[29.8062,-3.5996],[29.809,-3.62],[29.7622,-3.6144],[29.7261,-3.6403],[29.7169,-3.6544],[29.7063,-3.6675],[29.7022,-3.6817],[29.675,-3.7159],[29.6758,-3.6737],[29.6688,-3.6462],[29.6426,-3.6297],[29.6002,-3.5762],[29.584,-3.5463],[29.5928,-3.5241],[29.5919,-3.4999],[29.6042,-3.4637],[29.5907,-3.4174],[29.5925,-3.3991],[29.6088,-3.3873],[29.629,-3.3817],[29.6437,-3.3896],[29.6493,-3.3986],[29.6577,-3.3977],[29.6639,-3.3918],[29.6772,-3.3846],[29.7067,-3.3787],[29.7461,-3.3795],[29.8192,-3.366],[29.8434,-3.3561]]]}},{"type":"Feature","properties":{"id":"BDI-2642","name":"Ngozi","nameBn":"গোজি প্রদেশ","type":"Province","bounds":[29.605,-3.0869,30.187,-2.6379],"center":[29.896,-2.869]},"geometry":{"type":"Polygon","coordinates":[[[29.8034,-2.7673],[29.8236,-2.7635],[29.8424,-2.7524],[29.8629,-2.7317],[29.8762,-2.7136],[29.8884,-2.6929],[29.8979,-2.6711],[29.9033,-2.6491],[29.9037,-2.6379],[29.9299,-2.6416],[29.9785,-2.6546],[30.0084,-2.6915],[30.0221,-2.7167],[30.0426,-2.7341],[30.0781,-2.781],[30.103,-2.7938],[30.1191,-2.8203],[30.1045,-2.8516],[30.0824,-2.8831],[30.1056,-2.8951],[30.1285,-2.875],[30.1428,-2.86],[30.1597,-2.8622],[30.1726,-2.8694],[30.187,-2.8696],[30.1858,-2.8837],[30.1868,-2.898],[30.1577,-2.934],[30.0926,-2.9791],[30.0543,-2.9805],[30.0149,-2.9976],[29.9933,-3.0318],[29.9762,-3.0484],[29.9557,-3.0592],[29.9475,-3.0772],[29.9076,-3.0869],[29.9044,-3.068],[29.8877,-3.0601],[29.878,-3.0585],[29.8733,-3.0413],[29.8743,-3.0233],[29.8779,-3.01],[29.8676,-3.0028],[29.8522,-2.9984],[29.8381,-2.9891],[29.802,-2.9848],[29.7926,-2.9391],[29.7817,-2.9052],[29.7608,-2.896],[29.741,-2.8969],[29.7206,-2.9067],[29.684,-2.8975],[29.6732,-2.89],[29.6616,-2.8903],[29.6496,-2.8921],[29.6283,-2.8722],[29.6171,-2.8754],[29.605,-2.8692],[29.6418,-2.8423],[29.637,-2.7978],[29.6371,-2.7917],[29.6371,-2.7916],[29.6787,-2.8054],[29.6975,-2.8083],[29.7199,-2.8055],[29.7296,-2.7996],[29.734,-2.7903],[29.7373,-2.7693],[29.7447,-2.76],[29.7562,-2.7599],[29.7785,-2.7666],[29.8034,-2.7673]]]}},{"type":"Feature","properties":{"id":"BDI-2634","name":"Rutana","nameBn":"রুটানা প্রদেশ","type":"Province","bounds":[29.8816,-4.1355,30.385,-3.6359],"center":[30.1331,-3.8482]},"geometry":{"type":"Polygon","coordinates":[[[30.3731,-3.7043],[30.372,-3.7229],[30.3762,-3.7398],[30.3819,-3.7552],[30.385,-3.7708],[30.3816,-3.7883],[30.337,-3.7738],[30.3117,-3.7899],[30.2733,-3.8562],[30.2208,-3.91],[30.2088,-3.9305],[30.1914,-4.0025],[30.1759,-4.04],[30.1753,-4.0399],[30.1669,-4.0376],[30.1536,-4.0479],[30.1255,-4.0628],[30.0406,-4.0662],[29.9953,-4.0923],[29.9694,-4.1246],[29.9531,-4.1355],[29.9282,-4.1023],[29.9102,-4.0896],[29.8916,-4.0793],[29.8816,-4.0595],[29.8902,-4.0299],[29.8926,-3.983],[29.8994,-3.9601],[29.8945,-3.9355],[29.9277,-3.894],[29.9206,-3.872],[29.9096,-3.8566],[29.9076,-3.8374],[29.9283,-3.8204],[29.939,-3.8312],[29.9516,-3.832],[29.955,-3.8179],[29.9553,-3.8028],[30.0002,-3.7573],[30.0027,-3.7348],[30.0151,-3.7163],[30.0484,-3.7034],[30.0813,-3.6864],[30.0994,-3.6634],[30.1035,-3.6359],[30.1275,-3.636],[30.15,-3.6428],[30.1615,-3.6588],[30.1735,-3.6701],[30.2282,-3.6386],[30.2879,-3.6606],[30.3117,-3.6741],[30.3382,-3.6819],[30.3618,-3.704],[30.3725,-3.7043],[30.3731,-3.7043]]]}},{"type":"Feature","properties":{"id":"BDI-2635","name":"Ruyigi","nameBn":"রুইগি প্রদেশ","type":"Province","bounds":[30.0381,-3.7043,30.6404,-3.1852],"center":[30.3391,-3.4427]},"geometry":{"type":"Polygon","coordinates":[[[30.6103,-3.3764],[30.6404,-3.3928],[30.6391,-3.4195],[30.6129,-3.4449],[30.566,-3.4667],[30.5529,-3.4822],[30.545,-3.4891],[30.5381,-3.4916],[30.5115,-3.4977],[30.51,-3.5002],[30.5082,-3.5089],[30.5072,-3.5111],[30.488,-3.5126],[30.4875,-3.5107],[30.4856,-3.5105],[30.4689,-3.513],[30.4663,-3.5161],[30.4626,-3.5279],[30.4601,-3.5319],[30.4323,-3.5519],[30.4269,-3.5639],[30.4292,-3.5839],[30.4289,-3.6022],[30.4214,-3.6208],[30.3801,-3.6856],[30.3731,-3.7036],[30.3731,-3.7043],[30.3725,-3.7043],[30.3618,-3.704],[30.3382,-3.6819],[30.3117,-3.6741],[30.2879,-3.6606],[30.2282,-3.6386],[30.1735,-3.6701],[30.1615,-3.6588],[30.15,-3.6428],[30.1275,-3.636],[30.1035,-3.6359],[30.1058,-3.6075],[30.1039,-3.5794],[30.0935,-3.5567],[30.0817,-3.5204],[30.0743,-3.5075],[30.0738,-3.4809],[30.0823,-3.4248],[30.0745,-3.4127],[30.0654,-3.4014],[30.0629,-3.3866],[30.0381,-3.3466],[30.0478,-3.3425],[30.0709,-3.3396],[30.0758,-3.3359],[30.0803,-3.3314],[30.0901,-3.3277],[30.1359,-3.3228],[30.1564,-3.3174],[30.1761,-3.3037],[30.2758,-3.2045],[30.2889,-3.1852],[30.327,-3.1976],[30.336,-3.2011],[30.3442,-3.2055],[30.3672,-3.2009],[30.3794,-3.2068],[30.3929,-3.2172],[30.409,-3.2233],[30.4255,-3.2246],[30.44,-3.2312],[30.4492,-3.2418],[30.4553,-3.2541],[30.4544,-3.268],[30.4564,-3.2814],[30.4786,-3.2994],[30.5063,-3.3058],[30.5167,-3.2987],[30.5292,-3.2935],[30.5394,-3.2977],[30.5468,-3.3051],[30.5562,-3.311],[30.5666,-3.3152],[30.5773,-3.3235],[30.5849,-3.3348],[30.5911,-3.3606],[30.5924,-3.3831],[30.61,-3.3764],[30.6103,-3.3764]]]}}]}