{"type":"FeatureCollection","features":[{"type":"Feature","properties":{"id":"BHS-5036","name":"Acklins","nameBn":"এক্লিংস","type":"District","bounds":[-74.2782,22.1715,-73.4687,22.7333],"center":[-74.0024,22.3745]},"geometry":{"type":"MultiPolygon","coordinates":[[[[-73.4687,22.5877],[-73.4752,22.5862],[-73.5174,22.5982],[-73.5361,22.6035],[-73.5564,22.6065],[-73.5589,22.6117],[-73.541,22.614],[-73.5239,22.6162],[-73.5012,22.6109],[-73.4785,22.6012],[-73.4687,22.5877]]],[[[-73.9957,22.6575],[-74.0021,22.664],[-74.0162,22.6849],[-73.9831,22.676],[-73.9753,22.6718],[-73.9719,22.6829],[-73.9645,22.6915],[-73.9556,22.6954],[-73.9473,22.6923],[-73.9413,22.6965],[-73.9385,22.6979],[-73.9343,22.6985],[-73.9343,22.706],[-73.9425,22.7081],[-73.9459,22.7102],[-73.9486,22.7138],[-73.9547,22.7202],[-73.9031,22.7197],[-73.8785,22.7233],[-73.8517,22.7333],[-73.8507,22.7294],[-73.8502,22.7262],[-73.8488,22.7231],[-73.8449,22.7202],[-73.8685,22.6815],[-73.8797,22.6718],[-73.8802,22.6819],[-73.8837,22.6898],[-73.8902,22.6955],[-73.8995,22.6985],[-73.8961,22.6849],[-73.8878,22.6718],[-73.8769,22.6655],[-73.8654,22.6718],[-73.8586,22.6572],[-73.8495,22.5825],[-73.844,22.5671],[-73.8312,22.5414],[-73.8484,22.5376],[-73.8556,22.5207],[-73.8591,22.4987],[-73.8654,22.48],[-73.8752,22.4685],[-73.8896,22.455],[-73.9048,22.4438],[-73.9169,22.439],[-73.9284,22.4301],[-73.9616,22.3702],[-74.0138,22.3301],[-74.023,22.3258],[-74.0336,22.325],[-74.0944,22.3019],[-74.1194,22.2969],[-74.1347,22.2839],[-74.1597,22.2466],[-74.1677,22.2384],[-74.1942,22.2169],[-74.2043,22.2125],[-74.2269,22.2092],[-74.2447,22.2004],[-74.277,22.1715],[-74.2782,22.1806],[-74.277,22.2159],[-74.2725,22.2257],[-74.262,22.2285],[-74.2225,22.2255],[-74.2141,22.2292],[-74.1839,22.2541],[-74.1831,22.2605],[-74.1937,22.2678],[-74.1937,22.2739],[-74.1741,22.2855],[-74.1671,22.2882],[-74.1729,22.2899],[-74.1775,22.2917],[-74.1805,22.2953],[-74.1813,22.3019],[-74.1612,22.3092],[-74.1318,22.3259],[-74.1087,22.3292],[-74.1033,22.3324],[-74.0924,22.3465],[-74.0792,22.3552],[-74.0802,22.3677],[-74.0841,22.3815],[-74.0839,22.3906],[-74.0654,22.3975],[-74.0381,22.4002],[-74.0133,22.4058],[-74.0026,22.4217],[-73.9984,22.4459],[-73.9869,22.4575],[-73.9694,22.4622],[-73.9473,22.4658],[-73.9077,22.4794],[-73.8802,22.5029],[-73.8708,22.5353],[-73.8859,22.5756],[-73.9134,22.5945],[-73.9845,22.5956],[-74.0162,22.6103],[-74.0312,22.6237],[-74.0295,22.6274],[-74.0174,22.6455],[-74.0109,22.6513],[-74.0036,22.6551],[-73.9957,22.6575]]],[[[-73.6182,22.6013],[-73.606,22.6095],[-73.5938,22.602],[-73.6076,22.5773],[-73.6255,22.5743],[-73.6182,22.6013]]]]}},{"type":"Feature","properties":{"id":"BHS-5018","name":"Berry Islands","nameBn":"বেরি দ্বীপপুঞ্জ","type":"District","bounds":[-77.9067,25.4079,-77.8192,25.7895],"center":[-77.8527,25.7591]},"geometry":{"type":"MultiPolygon","coordinates":[[[[-77.8192,25.7076],[-77.8315,25.7087],[-77.8441,25.7221],[-77.8601,25.7485],[-77.8805,25.769],[-77.8873,25.7814],[-77.8807,25.7895],[-77.868,25.7874],[-77.8583,25.7773],[-77.8209,25.7166],[-77.8192,25.7076]]],[[[-77.8641,25.4079],[-77.8795,25.4079],[-77.8884,25.4088],[-77.9067,25.4091],[-77.9059,25.411],[-77.9,25.4155],[-77.8924,25.4187],[-77.8863,25.4192],[-77.8748,25.4183],[-77.8591,25.4193],[-77.8473,25.4258],[-77.8396,25.435],[-77.8368,25.4345],[-77.8422,25.4232],[-77.852,25.4127],[-77.8641,25.4079]]]]}},{"type":"Feature","properties":{"id":"BHS-5039","name":"Bimini","nameBn":"বিমিনি","type":"District","bounds":[-79.5944,23.494,-79.2432,25.7747],"center":[-79.2811,25.7074]},"geometry":{"type":"MultiPolygon","coordinates":[[[[-79.514,23.4957],[-79.5176,23.494],[-79.5366,23.5065],[-79.5384,23.5102],[-79.514,23.4957]]],[[[-79.5633,23.5467],[-79.5529,23.5338],[-79.5546,23.5331],[-79.5944,23.5747],[-79.5887,23.5714],[-79.5633,23.5467]]],[[[-79.2687,25.5386],[-79.2665,25.5378],[-79.2621,25.5281],[-79.2643,25.5288],[-79.2687,25.5386]]],[[[-79.2889,25.5591],[-79.2884,25.563],[-79.2794,25.5517],[-79.2799,25.5478],[-79.2889,25.5591]]],[[[-79.2501,25.7747],[-79.2461,25.7639],[-79.2432,25.7429],[-79.2459,25.7346],[-79.248,25.739],[-79.2546,25.736],[-79.267,25.7325],[-79.2687,25.7416],[-79.2617,25.7567],[-79.2655,25.7616],[-79.279,25.75],[-79.2862,25.7415],[-79.2916,25.7338],[-79.2939,25.7207],[-79.2833,25.7128],[-79.2681,25.7071],[-79.258,25.699],[-79.2618,25.6938],[-79.2892,25.6977],[-79.3006,25.6979],[-79.3043,25.7023],[-79.3013,25.7169],[-79.2938,25.736],[-79.2803,25.7572],[-79.2611,25.7719],[-79.2501,25.7747]]]]}},{"type":"Feature","properties":{"id":"BHS-5023","name":"Black Point","nameBn":"ব্ল্যাক পয়েন্ট","type":"District","bounds":[-76.7951,23.974,-76.319,24.553],"center":[-76.3623,24.072]},"geometry":{"type":"MultiPolygon","coordinates":[[[[-76.3252,23.974],[-76.3402,23.9882],[-76.3586,24.0237],[-76.375,24.0466],[-76.3873,24.0764],[-76.3976,24.0925],[-76.4015,24.1029],[-76.4015,24.1174],[-76.3768,24.1014],[-76.319,23.9802],[-76.3252,23.974]]],[[[-76.463,24.2136],[-76.4818,24.2138],[-76.4932,24.2188],[-76.5353,24.2684],[-76.5446,24.283],[-76.5449,24.2956],[-76.5295,24.2874],[-76.5204,24.275],[-76.5134,24.2609],[-76.5039,24.2477],[-76.4921,24.2392],[-76.4813,24.2343],[-76.4717,24.2276],[-76.463,24.2136]]],[[[-76.7743,24.5386],[-76.7731,24.5317],[-76.7726,24.5191],[-76.7789,24.5144],[-76.7893,24.5185],[-76.7951,24.5314],[-76.7924,24.5491],[-76.7847,24.553],[-76.7775,24.5438],[-76.7743,24.5386]]]]}},{"type":"Feature","properties":{"id":"BHS-5030","name":"Cat Island","nameBn":"ক্যাট আইল্যান্ড","type":"District","bounds":[-75.7576,24.1257,-75.2904,24.7019],"center":[-75.3894,24.2583]},"geometry":{"type":"Polygon","coordinates":[[[-75.3147,24.2174],[-75.307,24.2025],[-75.2904,24.1447],[-75.3358,24.1585],[-75.3564,24.1601],[-75.3799,24.1584],[-75.4251,24.15],[-75.4409,24.142],[-75.4584,24.1279],[-75.4831,24.1257],[-75.5099,24.1421],[-75.5213,24.1626],[-75.4996,24.1726],[-75.4849,24.1762],[-75.4636,24.1856],[-75.4439,24.1987],[-75.4339,24.2136],[-75.4147,24.2131],[-75.4058,24.2403],[-75.4101,24.2729],[-75.4307,24.2887],[-75.46,24.2946],[-75.4806,24.3094],[-75.534,24.3892],[-75.5419,24.4175],[-75.5611,24.4434],[-75.5655,24.4569],[-75.5715,24.4888],[-75.5885,24.5126],[-75.6144,24.5266],[-75.6474,24.529],[-75.6435,24.5395],[-75.6426,24.5515],[-75.6442,24.5642],[-75.6474,24.5761],[-75.6527,24.5884],[-75.6578,24.5929],[-75.6647,24.596],[-75.7089,24.6313],[-75.7411,24.6461],[-75.7498,24.6518],[-75.7566,24.6603],[-75.7576,24.6679],[-75.753,24.676],[-75.7322,24.6986],[-75.7239,24.7019],[-75.7089,24.7002],[-75.7022,24.6957],[-75.6754,24.6723],[-75.6493,24.6631],[-75.6373,24.657],[-75.6263,24.645],[-75.6186,24.5812],[-75.6126,24.5624],[-75.6029,24.5519],[-75.5868,24.5385],[-75.572,24.5227],[-75.56,24.4914],[-75.5322,24.4449],[-75.4761,24.3706],[-75.4581,24.3573],[-75.419,24.3378],[-75.4004,24.3235],[-75.3756,24.2759],[-75.3696,24.2683],[-75.3585,24.2614],[-75.3147,24.2174]]]}},{"type":"Feature","properties":{"id":"BHS-5015","name":"Central Abaco","nameBn":"সেন্ট্রারাাল আবাকু","type":"District","bounds":[-77.3754,26.2851,-77.0172,26.7091],"center":[-77.1179,26.4215]},"geometry":{"type":"MultiPolygon","coordinates":[[[[-77.2306,26.2851],[-77.2334,26.298],[-77.2504,26.3131],[-77.2186,26.3553],[-77.2199,26.3649],[-77.2286,26.3769],[-77.2301,26.4475],[-77.2154,26.4477],[-77.2046,26.4533],[-77.1962,26.4629],[-77.1892,26.4748],[-77.1881,26.4798],[-77.1892,26.499],[-77.1864,26.5059],[-77.1802,26.5101],[-77.173,26.5128],[-77.1681,26.5158],[-77.1579,26.5314],[-77.1536,26.5495],[-77.1607,26.5642],[-77.1962,26.5727],[-77.2196,26.5824],[-77.3122,26.5947],[-77.3297,26.6046],[-77.341,26.6215],[-77.353,26.6461],[-77.3485,26.6522],[-77.3473,26.6603],[-77.3501,26.669],[-77.3614,26.6823],[-77.3666,26.693],[-77.3701,26.6979],[-77.3754,26.6995],[-77.328,26.7091],[-77.3071,26.6964],[-77.2837,26.6897],[-77.2506,26.6877],[-77.2591,26.6767],[-77.2726,26.673],[-77.3052,26.674],[-77.2906,26.647],[-77.2699,26.6251],[-77.2439,26.6105],[-77.1828,26.6003],[-77.1553,26.5881],[-77.1072,26.5567],[-77.0705,26.5385],[-77.0588,26.5294],[-77.0498,26.5163],[-77.0423,26.498],[-77.0421,26.4818],[-77.0554,26.4748],[-77.0586,26.4678],[-77.0588,26.4232],[-77.0554,26.4069],[-77.0463,26.3963],[-77.0329,26.3899],[-77.0172,26.386],[-77.03,26.3627],[-77.0316,26.3553],[-77.2306,26.2851]]],[[[-77.2443,26.4785],[-77.2376,26.4741],[-77.2361,26.4704],[-77.2366,26.4694],[-77.2384,26.4702],[-77.2421,26.4706],[-77.243,26.4691],[-77.2407,26.4674],[-77.2405,26.4666],[-77.2425,26.4662],[-77.2435,26.4544],[-77.241,26.4428],[-77.2467,26.4387],[-77.2506,26.4382],[-77.2545,26.4381],[-77.2633,26.4422],[-77.2674,26.4533],[-77.2723,26.4607],[-77.2782,26.4658],[-77.2767,26.47],[-77.2724,26.4695],[-77.2676,26.4726],[-77.2618,26.4779],[-77.2538,26.48],[-77.2443,26.4785]]]]}},{"type":"Feature","properties":{"id":"BHS-5020","name":"Central Andros","nameBn":"সেন্ট্রারাল এন্ড্রোস","type":"District","bounds":[-78.1409,24.1522,-77.6824,24.649],"center":[-77.9355,24.4757]},"geometry":{"type":"MultiPolygon","coordinates":[[[[-77.8807,24.1863],[-77.8937,24.1776],[-77.9446,24.1542],[-77.9626,24.1522],[-77.9691,24.1596],[-77.9742,24.1728],[-77.9762,24.1868],[-77.9734,24.1962],[-77.9642,24.1972],[-77.9517,24.194],[-77.9406,24.1936],[-77.9359,24.2031],[-77.9259,24.2064],[-77.871,24.2409],[-77.8663,24.2427],[-77.85,24.2515],[-77.8397,24.2546],[-77.7987,24.2546],[-77.8024,24.2445],[-77.8084,24.2394],[-77.826,24.2347],[-77.8342,24.2346],[-77.8385,24.2379],[-77.8436,24.2397],[-77.8539,24.2347],[-77.8608,24.2252],[-77.8705,24.1979],[-77.8807,24.1863]]],[[[-77.9216,24.262],[-77.9364,24.2615],[-77.9426,24.2531],[-77.9419,24.2405],[-77.9359,24.2272],[-77.9503,24.2305],[-77.9756,24.2271],[-77.9905,24.2272],[-78.0013,24.2314],[-78.0129,24.2397],[-78.0169,24.2484],[-78.0048,24.2546],[-77.9787,24.2592],[-77.9529,24.2705],[-77.9322,24.2757],[-77.9216,24.262]]],[[[-77.7677,24.3266],[-77.7869,24.3146],[-77.7998,24.3173],[-77.8044,24.3272],[-77.7987,24.3371],[-77.7767,24.3472],[-77.758,24.3594],[-77.7392,24.3671],[-77.7192,24.3717],[-77.7031,24.3706],[-77.6962,24.3671],[-77.6881,24.3608],[-77.6824,24.3528],[-77.6826,24.3439],[-77.6903,24.3384],[-77.7006,24.3415],[-77.7113,24.3475],[-77.7198,24.3508],[-77.7375,24.3497],[-77.748,24.3459],[-77.7677,24.3266]]],[[[-77.7418,24.6347],[-77.7478,24.6211],[-77.7536,24.602],[-77.7455,24.5776],[-77.7235,24.5351],[-77.7187,24.4998],[-77.7279,24.4742],[-77.7511,24.4585],[-77.7887,24.4532],[-77.8041,24.4488],[-77.8146,24.4387],[-77.8233,24.4273],[-77.8335,24.4191],[-77.8638,24.4154],[-77.8717,24.4068],[-77.8601,24.3849],[-77.8721,24.3738],[-77.9086,24.3508],[-77.9266,24.3458],[-77.9614,24.3455],[-77.9734,24.3405],[-78.0128,24.3142],[-78.0178,24.3061],[-78.0158,24.2973],[-78.0124,24.2893],[-78.0117,24.2819],[-78.0178,24.2751],[-78.0275,24.2729],[-78.037,24.2759],[-78.0455,24.282],[-78.0519,24.2887],[-78.0633,24.3162],[-78.0697,24.3504],[-78.0801,24.3795],[-78.1034,24.3917],[-78.1341,24.404],[-78.1409,24.4335],[-78.1344,24.5016],[-78.0998,24.5476],[-78.0718,24.5965],[-78.0299,24.6175],[-77.9424,24.6385],[-77.8341,24.649],[-77.7418,24.6347]]],[[[-77.8692,24.3468],[-77.8398,24.3501],[-77.8328,24.3496],[-77.837,24.3422],[-77.8486,24.3276],[-77.8673,24.3195],[-77.8837,24.3273],[-77.8836,24.3411],[-77.8692,24.3468]]]]}},{"type":"Feature","properties":{"id":"BHS-5028","name":"Central Eleuthera","nameBn":"সেন্ট্রাল এলিউথেরা","type":"District","bounds":[-76.3326,24.9814,-76.1129,25.2996],"center":[-76.176,25.1588]},"geometry":{"type":"Polygon","coordinates":[[[-76.314,25.2996],[-76.2842,25.2619],[-76.2237,25.2081],[-76.1613,25.1657],[-76.1313,25.1478],[-76.1183,25.1339],[-76.1129,25.1149],[-76.1213,25.0301],[-76.1256,25.0141],[-76.1266,25.0053],[-76.1306,24.9949],[-76.1398,24.9885],[-76.1493,24.9845],[-76.1544,24.9814],[-76.1703,24.9889],[-76.1593,24.9982],[-76.1544,25.0053],[-76.1467,25.0624],[-76.147,25.0838],[-76.1649,25.1298],[-76.1964,25.1543],[-76.2323,25.171],[-76.2637,25.1937],[-76.3326,25.2853],[-76.314,25.2996]]]}},{"type":"Feature","properties":{"id":"BHS-5010","name":"City of Freeport","nameBn":"ফ্রিপোর্ট","type":"District","bounds":[-78.6567,26.5049,-78.5981,26.5462],"center":[-78.6252,26.5339]},"geometry":{"type":"Polygon","coordinates":[[[-78.5981,26.5314],[-78.6076,26.5257],[-78.629,26.5161],[-78.6464,26.5049],[-78.6567,26.5207],[-78.6359,26.5462],[-78.6128,26.5462],[-78.5981,26.5314]]]}},{"type":"Feature","properties":{"id":"BHS-5035","name":"Crooked Island and Long Cay","nameBn":"ক্রুকেড আইল্যান্ড","type":"District","bounds":[-74.3856,22.5414,-73.6662,23.1038],"center":[-74.2405,22.7472]},"geometry":{"type":"MultiPolygon","coordinates":[[[[-74.2838,22.6718],[-74.2889,22.6437],[-74.3175,22.6025],[-74.3547,22.5633],[-74.3856,22.5414],[-74.3767,22.5844],[-74.3476,22.6129],[-74.312,22.6383],[-74.2838,22.6718]]],[[[-74.2869,22.7333],[-74.352,22.8227],[-74.3482,22.8259],[-74.3466,22.8292],[-74.3459,22.8326],[-74.3446,22.8362],[-74.3336,22.8369],[-74.3169,22.8422],[-74.3104,22.8432],[-74.2985,22.84],[-74.2701,22.8227],[-74.2601,22.8202],[-74.2384,22.8184],[-74.2285,22.8158],[-74.2006,22.7947],[-74.1975,22.7861],[-74.1964,22.7685],[-74.1937,22.7612],[-74.1902,22.7602],[-74.178,22.7617],[-74.1739,22.7612],[-74.1718,22.7582],[-74.1671,22.7469],[-74.1475,22.7407],[-74.1116,22.7383],[-74.0907,22.7333],[-74.0981,22.7469],[-74.0759,22.7419],[-74.0162,22.7202],[-74.0907,22.6575],[-74.0941,22.6657],[-74.0946,22.6679],[-74.105,22.6718],[-74.1041,22.6883],[-74.1224,22.6852],[-74.1484,22.6778],[-74.2223,22.6956],[-74.2326,22.7035],[-74.2489,22.7202],[-74.2545,22.7085],[-74.2664,22.6986],[-74.2783,22.6932],[-74.2838,22.6954],[-74.278,22.717],[-74.2781,22.7284],[-74.2869,22.7333]]],[[[-73.6662,23.0895],[-73.7552,23.073],[-73.7974,23.0738],[-73.817,23.1038],[-73.7419,23.097],[-73.6857,23.1025],[-73.6662,23.097],[-73.6662,23.0895]]]]}},{"type":"Feature","properties":{"id":"BHS-5012","name":"East Grand Bahama","nameBn":"ইস্ট গ্র্যান্ড বাহামা","type":"District","bounds":[-78.4744,26.5639,-77.8346,26.7764],"center":[-78.215,26.6596]},"geometry":{"type":"MultiPolygon","coordinates":[[[[-78.4744,26.7128],[-78.4378,26.6998],[-78.4171,26.7047],[-78.371,26.6945],[-78.32,26.6865],[-78.2871,26.6855],[-78.2736,26.7036],[-78.2529,26.7129],[-78.2217,26.7003],[-78.2026,26.6972],[-78.1671,26.7104],[-78.1189,26.7043],[-78.0872,26.7131],[-78.0554,26.726],[-78.0351,26.7286],[-77.9717,26.7296],[-77.9563,26.7354],[-77.9468,26.7466],[-77.9401,26.7595],[-77.9311,26.7705],[-77.9154,26.7764],[-77.9131,26.7579],[-77.9181,26.7375],[-77.9208,26.7169],[-77.9029,26.6816],[-77.9022,26.6624],[-77.9106,26.6463],[-77.9291,26.6392],[-77.9363,26.6418],[-77.9532,26.6549],[-77.9626,26.6597],[-77.9754,26.6618],[-78.0408,26.6584],[-78.1003,26.6461],[-78.2377,26.6213],[-78.2934,26.6213],[-78.4112,26.5942],[-78.4459,26.6612],[-78.4744,26.7128]]],[[[-77.8538,26.6008],[-77.8485,26.6055],[-77.8375,26.6135],[-77.8346,26.6105],[-77.8436,26.6007],[-77.8471,26.5949],[-77.8472,26.5905],[-77.8519,26.5833],[-77.8556,26.5727],[-77.8619,26.5641],[-77.8684,26.5639],[-77.8705,26.5667],[-77.8729,26.5705],[-77.8866,26.5856],[-77.8911,26.5941],[-77.8931,26.6026],[-77.8878,26.6066],[-77.8576,26.6118],[-77.8531,26.607],[-77.8624,26.5966],[-77.8645,26.5937],[-77.8571,26.5978],[-77.8538,26.6008]]]]}},{"type":"Feature","properties":{"id":"BHS-5024","name":"Exuma","nameBn":"এক্সুমা","type":"District","bounds":[-76.0372,23.4049,-75.5238,23.686],"center":[-75.9069,23.5855]},"geometry":{"type":"MultiPolygon","coordinates":[[[[-75.6536,23.4595],[-75.62,23.4571],[-75.577,23.4459],[-75.5398,23.4277],[-75.5238,23.4049],[-75.5598,23.4156],[-75.6019,23.4234],[-75.6373,23.4355],[-75.6536,23.4595]]],[[[-75.7982,23.5386],[-75.7825,23.5076],[-75.7449,23.4827],[-75.661,23.4526],[-75.6754,23.4385],[-75.6982,23.4443],[-75.743,23.4669],[-75.7938,23.4705],[-75.8127,23.4796],[-75.8044,23.5004],[-75.823,23.5124],[-75.8419,23.5285],[-75.8592,23.5375],[-75.8734,23.5284],[-75.9081,23.5624],[-75.9455,23.588],[-75.9877,23.6008],[-76.0372,23.5966],[-76.0372,23.6035],[-76.0077,23.6118],[-76.003,23.614],[-76.005,23.623],[-76.0116,23.632],[-76.0106,23.6376],[-76.0211,23.6441],[-76.0294,23.6557],[-76.0315,23.6685],[-76.0235,23.6792],[-76.0112,23.6769],[-76.0026,23.6802],[-75.9961,23.6846],[-75.99,23.686],[-75.9822,23.6827],[-75.977,23.6774],[-75.9683,23.6649],[-75.9572,23.6549],[-75.945,23.6488],[-75.9293,23.6458],[-75.9081,23.645],[-75.9114,23.6408],[-75.9132,23.6375],[-75.9159,23.6347],[-75.9217,23.6314],[-75.8563,23.5673],[-75.8089,23.542],[-75.7982,23.5386]]]]}},{"type":"Feature","properties":{"id":"BHS-5026","name":"Harbour Island","nameBn":"হারবার আইল্যান্ড","type":"District","bounds":[-76.7874,25.5396,-76.7459,25.5513],"center":[-76.7641,25.5443]},"geometry":{"type":"Polygon","coordinates":[[[-76.7702,25.5513],[-76.7584,25.549],[-76.7459,25.545],[-76.7498,25.5396],[-76.7608,25.5403],[-76.7874,25.5419],[-76.7812,25.5482],[-76.7702,25.5513]]]}},{"type":"Feature","properties":{"id":"BHS-5038","name":"Inagua","nameBn":"ইনাগোয়া","type":"District","bounds":[-73.7032,20.9124,-72.9104,21.562],"center":[-73.3607,21.06]},"geometry":{"type":"MultiPolygon","coordinates":[[[[-72.9996,21.4517],[-73.0337,21.4359],[-73.0437,21.4261],[-73.053,21.4249],[-73.0549,21.4354],[-73.0522,21.4478],[-73.0593,21.467],[-73.0724,21.4863],[-73.0762,21.5068],[-73.0662,21.5141],[-73.0428,21.5214],[-73.024,21.5322],[-73.0066,21.5521],[-72.9915,21.562],[-72.9822,21.5565],[-72.97,21.5419],[-72.9595,21.5331],[-72.9396,21.5231],[-72.9197,21.5148],[-72.9104,21.5049],[-72.9146,21.4851],[-72.9334,21.4735],[-72.9708,21.4694],[-72.9882,21.4541],[-72.9996,21.4517]]],[[[-73.6471,21.0616],[-73.6452,21.0805],[-73.6569,21.094],[-73.6679,21.105],[-73.6678,21.1152],[-73.6334,21.0997],[-73.6131,21.1069],[-73.5959,21.1126],[-73.5841,21.1213],[-73.5529,21.1302],[-73.5458,21.1497],[-73.5237,21.1683],[-73.5146,21.1869],[-73.4926,21.1821],[-73.4728,21.1927],[-73.4436,21.1929],[-73.4333,21.1933],[-73.4232,21.1979],[-73.4129,21.2051],[-73.3982,21.2248],[-73.3899,21.2333],[-73.3862,21.229],[-73.3798,21.2082],[-73.3639,21.1903],[-73.3438,21.1654],[-73.3179,21.1541],[-73.2552,21.1351],[-73.2331,21.148],[-73.211,21.1581],[-73.161,21.1699],[-73.1377,21.1977],[-73.1174,21.2367],[-73.0682,21.3099],[-73.053,21.3293],[-73.0338,21.3404],[-73.0122,21.332],[-73.0046,21.3144],[-73.0057,21.2914],[-73.0255,21.1846],[-73.0339,21.1567],[-73.0976,21.0814],[-73.1298,20.9937],[-73.1512,20.9821],[-73.2256,20.9525],[-73.2689,20.9587],[-73.2816,20.9551],[-73.2911,20.9506],[-73.3105,20.9376],[-73.3173,20.9376],[-73.3173,20.9451],[-73.3107,20.9505],[-73.3254,20.9613],[-73.3469,20.9638],[-73.399,20.9358],[-73.4334,20.9376],[-73.4926,20.9245],[-73.5368,20.9412],[-73.6008,20.9465],[-73.6152,20.9446],[-73.6314,20.9367],[-73.6356,20.9293],[-73.6415,20.9203],[-73.6451,20.9124],[-73.6516,20.9138],[-73.6634,20.9211],[-73.6761,20.9352],[-73.679,20.946],[-73.6814,20.9632],[-73.6823,20.9858],[-73.7,21.0143],[-73.7032,21.0198],[-73.6999,21.0269],[-73.6701,21.0298],[-73.6533,21.0399],[-73.6471,21.0616]]]]}},{"type":"Feature","properties":{"id":"BHS-5033","name":"Long Island","nameBn":"লং আইল্যান্ড","type":"District","bounds":[-75.3526,22.8599,-74.832,23.686],"center":[-74.9132,23.037]},"geometry":{"type":"Polygon","coordinates":[[[-74.8591,22.9803],[-74.847,22.9701],[-74.8384,22.9444],[-74.8334,22.9141],[-74.832,22.8749],[-74.834,22.8643],[-74.84,22.8599],[-74.8523,22.8636],[-74.8581,22.8706],[-74.8653,22.9045],[-74.869,22.9022],[-74.879,22.8978],[-74.8855,22.9238],[-74.9141,22.9709],[-74.9244,23.0117],[-74.9339,23.0257],[-74.9676,23.0639],[-74.978,23.0729],[-74.9905,23.0786],[-75.1049,23.0996],[-75.1298,23.114],[-75.1426,23.1237],[-75.214,23.1655],[-75.2296,23.1715],[-75.2267,23.1812],[-75.222,23.1901],[-75.2158,23.1982],[-75.2079,23.2062],[-75.2017,23.2062],[-75.1917,23.1918],[-75.1636,23.179],[-75.1533,23.1652],[-75.1791,23.1686],[-75.1874,23.1715],[-75.1806,23.1599],[-75.1703,23.15],[-75.1583,23.1442],[-75.1465,23.1448],[-75.1343,23.1373],[-75.1152,23.1224],[-75.1061,23.1175],[-75.0948,23.115],[-75.0787,23.1137],[-75.0685,23.1166],[-75.0751,23.1274],[-75.1322,23.186],[-75.1396,23.2028],[-75.1359,23.2298],[-75.1274,23.2493],[-75.1183,23.2651],[-75.1129,23.2813],[-75.1138,23.3051],[-75.1204,23.3319],[-75.1317,23.3558],[-75.1465,23.3708],[-75.1501,23.3662],[-75.1608,23.357],[-75.159,23.3806],[-75.1969,23.4101],[-75.1949,23.4321],[-75.2084,23.4352],[-75.2206,23.4398],[-75.2269,23.4473],[-75.2222,23.4595],[-75.2425,23.4743],[-75.2501,23.4902],[-75.2563,23.5351],[-75.2768,23.583],[-75.2865,23.5876],[-75.293,23.5854],[-75.3002,23.5805],[-75.3116,23.5768],[-75.3048,23.6249],[-75.3105,23.6394],[-75.3314,23.624],[-75.322,23.6372],[-75.3179,23.6415],[-75.3116,23.645],[-75.3241,23.6487],[-75.3323,23.6415],[-75.3403,23.6308],[-75.3526,23.624],[-75.3526,23.6314],[-75.3424,23.6414],[-75.3346,23.6531],[-75.3304,23.6677],[-75.3314,23.686],[-75.3253,23.6845],[-75.3203,23.6816],[-75.3158,23.6775],[-75.3116,23.6723],[-75.2529,23.583],[-75.2393,23.5751],[-75.2213,23.5561],[-75.2046,23.5334],[-75.1949,23.5141],[-75.1827,23.4464],[-75.1707,23.4291],[-75.1532,23.4112],[-75.0941,23.3053],[-75.0956,23.295],[-75.0877,23.2858],[-75.0851,23.2641],[-75.085,23.2199],[-75.0769,23.1717],[-75.06,23.1417],[-75.0316,23.1234],[-74.9464,23.0937],[-74.9097,23.0673],[-74.8448,23.0001],[-74.8491,22.995],[-74.8546,22.9853],[-74.8591,22.9803]]]}},{"type":"Feature","properties":{"id":"BHS-5021","name":"Mangrove Cay","nameBn":"ম্যানগ্রোভ কে","type":"District","bounds":[-77.942,23.9802,-77.6312,24.303],"center":[-77.8018,24.0806]},"geometry":{"type":"Polygon","coordinates":[[[-77.8226,23.9802],[-77.8372,23.9848],[-77.8378,23.9959],[-77.8335,24.0096],[-77.8335,24.0218],[-77.8448,24.0334],[-77.8586,24.041],[-77.8665,24.0476],[-77.8601,24.056],[-77.8601,24.0627],[-77.8796,24.074],[-77.942,24.0969],[-77.9361,24.1045],[-77.9291,24.1112],[-77.9147,24.1025],[-77.9091,24.1053],[-77.9083,24.1126],[-77.9086,24.1174],[-77.9079,24.1268],[-77.9108,24.1313],[-77.911,24.1358],[-77.9023,24.1447],[-77.8922,24.1496],[-77.8651,24.1579],[-77.8539,24.1658],[-77.8499,24.1743],[-77.8434,24.1989],[-77.8397,24.2067],[-77.8054,24.2089],[-77.7925,24.2136],[-77.7824,24.2216],[-77.7789,24.2279],[-77.7767,24.2356],[-77.7707,24.2477],[-77.7557,24.2593],[-77.7144,24.2751],[-77.7031,24.2887],[-77.6752,24.303],[-77.6658,24.2895],[-77.6585,24.2735],[-77.6502,24.2602],[-77.6379,24.2546],[-77.6312,24.2491],[-77.6407,24.2373],[-77.7025,24.1903],[-77.727,24.1778],[-77.7577,24.1726],[-77.7577,24.1658],[-77.74,24.1645],[-77.7325,24.1571],[-77.7369,24.1486],[-77.7546,24.1447],[-77.7585,24.1408],[-77.7481,24.1318],[-77.7235,24.1174],[-77.7077,24.1237],[-77.7023,24.1127],[-77.7048,24.0947],[-77.7213,24.0662],[-77.7246,24.0533],[-77.7298,24.0426],[-77.744,24.0355],[-77.7816,24.0083],[-77.8226,23.9802]]]}},{"type":"Feature","properties":{"id":"BHS-5037","name":"Mayaguana","nameBn":"মায়াগুয়ানা","type":"District","bounds":[-73.166,22.2882,-72.7462,22.4595],"center":[-73.0295,22.3849]},"geometry":{"type":"Polygon","coordinates":[[[-73.1392,22.3633],[-73.1564,22.3677],[-73.166,22.3742],[-73.1637,22.3837],[-73.1454,22.3969],[-73.1511,22.404],[-73.1515,22.4086],[-73.1454,22.4186],[-73.1407,22.4315],[-73.1424,22.4423],[-73.1422,22.4514],[-73.1317,22.4595],[-73.1146,22.4385],[-73.1061,22.4335],[-73.0908,22.4316],[-73.0909,22.4337],[-73.0851,22.4382],[-73.0771,22.4429],[-73.0702,22.4453],[-73.0631,22.4447],[-73.0482,22.4401],[-73.0399,22.439],[-73.0152,22.4305],[-72.9637,22.3976],[-72.9399,22.3969],[-72.9448,22.4025],[-72.9536,22.4186],[-72.9203,22.4029],[-72.9036,22.3991],[-72.8928,22.4043],[-72.8771,22.393],[-72.8617,22.3869],[-72.8437,22.3843],[-72.8205,22.3838],[-72.8138,22.381],[-72.806,22.3743],[-72.7928,22.3596],[-72.7833,22.3532],[-72.7637,22.3532],[-72.755,22.3497],[-72.7462,22.3313],[-72.7509,22.3112],[-72.7638,22.2949],[-72.7794,22.2882],[-72.7972,22.2936],[-72.8437,22.336],[-72.864,22.3499],[-72.88,22.3582],[-72.8976,22.3622],[-72.9229,22.3633],[-72.9342,22.3621],[-72.9491,22.357],[-72.957,22.3559],[-72.9688,22.3581],[-72.9753,22.363],[-72.9805,22.3679],[-72.9884,22.3702],[-73.0099,22.366],[-73.0495,22.3466],[-73.0737,22.3422],[-73.0843,22.3444],[-73.091,22.3491],[-73.0959,22.3537],[-73.1013,22.3559],[-73.1392,22.3633]]]}},{"type":"Feature","properties":{"id":"BHS-5017","name":"Moore's Island","nameBn":"মুর'স আইল্যান্ড","type":"District","bounds":[-77.5796,26.2687,-77.538,26.3376],"center":[-77.5526,26.2973]},"geometry":{"type":"Polygon","coordinates":[[[-77.538,26.3066],[-77.5423,26.299],[-77.5727,26.2687],[-77.567,26.291],[-77.5722,26.3049],[-77.5793,26.318],[-77.5796,26.3376],[-77.5704,26.3327],[-77.5436,26.3125],[-77.538,26.3066]]]}},{"type":"Feature","properties":{"id":"BHS-5009","name":"New Providence","nameBn":"নিউ প্রভিডেন্স","type":"Capital","bounds":[-77.5619,24.987,-77.2638,25.0841],"center":[-77.4356,25.0149]},"geometry":{"type":"Polygon","coordinates":[[[-77.48,24.9914],[-77.4951,24.9993],[-77.5145,25.0012],[-77.5329,25.0007],[-77.5455,25.0019],[-77.5619,25.0189],[-77.551,25.038],[-77.5272,25.0544],[-77.5045,25.0633],[-77.4899,25.0656],[-77.456,25.077],[-77.4408,25.0785],[-77.3981,25.077],[-77.3556,25.0841],[-77.34,25.0838],[-77.3261,25.0793],[-77.3021,25.0661],[-77.2638,25.0581],[-77.2747,25.0461],[-77.3795,25.0015],[-77.4037,25.0021],[-77.4356,25.0149],[-77.4414,25.0065],[-77.4529,24.9946],[-77.4668,24.987],[-77.48,24.9914]]]}},{"type":"Feature","properties":{"id":"BHS-5014","name":"North Abaco","nameBn":"উত্তর অ্যাবাকো","type":"District","bounds":[-77.9626,26.6877,-77.328,26.9284],"center":[-77.6354,26.8873]},"geometry":{"type":"Polygon","coordinates":[[[-77.3754,26.6995],[-77.38,26.6957],[-77.3849,26.6903],[-77.3909,26.6877],[-77.4112,26.6894],[-77.427,26.6951],[-77.434,26.7055],[-77.4281,26.7212],[-77.4447,26.7551],[-77.4902,26.8233],[-77.5175,26.8522],[-77.5344,26.8632],[-77.5562,26.8706],[-77.5785,26.8712],[-77.597,26.862],[-77.6143,26.8565],[-77.6381,26.8599],[-77.6968,26.8773],[-77.715,26.8794],[-77.7546,26.8795],[-77.7664,26.8828],[-77.7947,26.8997],[-77.8124,26.9068],[-77.8307,26.9094],[-77.9098,26.904],[-77.9415,26.8935],[-77.9626,26.8931],[-77.9596,26.897],[-77.9567,26.8984],[-77.9495,26.8999],[-77.9134,26.921],[-77.8682,26.9284],[-77.7745,26.9272],[-77.6824,26.9084],[-77.6298,26.9042],[-77.6068,26.9204],[-77.5536,26.898],[-77.5113,26.8695],[-77.328,26.7091],[-77.3754,26.6995]]]}},{"type":"Feature","properties":{"id":"BHS-5019","name":"North Andros","nameBn":"উত্তর আন্ড্রস","type":"District","bounds":[-78.443,24.4606,-77.7362,25.2067],"center":[-77.9976,24.8276]},"geometry":{"type":"Polygon","coordinates":[[[-78.1344,24.5016],[-78.1525,24.4888],[-78.1648,24.4754],[-78.18,24.4649],[-78.2065,24.4606],[-78.2264,24.4655],[-78.3516,24.5305],[-78.4115,24.581],[-78.4305,24.6018],[-78.443,24.6245],[-78.4296,24.6275],[-78.4088,24.6362],[-78.3898,24.6467],[-78.3815,24.6555],[-78.3784,24.6694],[-78.3711,24.6682],[-78.3618,24.6614],[-78.3536,24.6592],[-78.3428,24.6654],[-78.3351,24.6728],[-78.3333,24.6821],[-78.3406,24.6934],[-78.3275,24.7106],[-78.3114,24.7101],[-78.2979,24.6968],[-78.2921,24.676],[-78.2933,24.6588],[-78.297,24.6438],[-78.3035,24.6303],[-78.3126,24.6177],[-78.3301,24.6064],[-78.3331,24.604],[-78.3311,24.5941],[-78.3263,24.5854],[-78.319,24.5817],[-78.2921,24.5974],[-78.2773,24.6013],[-78.2691,24.6092],[-78.2716,24.6313],[-78.2522,24.6228],[-78.252,24.6048],[-78.2572,24.5838],[-78.2543,24.5661],[-78.2377,24.5569],[-78.2283,24.5695],[-78.2259,24.5915],[-78.2307,24.6108],[-78.2211,24.6069],[-78.2107,24.6013],[-78.2017,24.5988],[-78.1965,24.604],[-78.1971,24.6184],[-78.2045,24.6283],[-78.2146,24.6363],[-78.2233,24.645],[-78.2245,24.6509],[-78.2222,24.6661],[-78.2233,24.6723],[-78.2294,24.6798],[-78.245,24.6929],[-78.2511,24.7002],[-78.2551,24.7142],[-78.2579,24.7299],[-78.264,24.7393],[-78.2785,24.7344],[-78.2679,24.7261],[-78.2642,24.7105],[-78.2648,24.6723],[-78.2742,24.6829],[-78.2806,24.6992],[-78.2884,24.7142],[-78.3024,24.7207],[-78.3041,24.7282],[-78.3011,24.7453],[-78.2921,24.7753],[-78.2768,24.79],[-78.255,24.8065],[-78.2396,24.8264],[-78.2437,24.851],[-78.2342,24.8571],[-78.2081,24.8618],[-78.2027,24.8678],[-78.1997,24.8804],[-78.186,24.9048],[-78.1829,24.9187],[-78.1739,24.9196],[-78.1775,24.9274],[-78.1855,24.9379],[-78.1897,24.9467],[-78.1876,24.9546],[-78.1822,24.9685],[-78.1745,24.9817],[-78.1655,24.9876],[-78.1577,25.0002],[-78.1599,25.0283],[-78.1693,25.0732],[-78.18,25.1049],[-78.2009,25.1464],[-78.2143,25.1846],[-78.2027,25.2067],[-78.1859,25.2059],[-78.1496,25.1995],[-78.1344,25.1937],[-78.1222,25.1832],[-78.1153,25.172],[-78.107,25.1631],[-78.0904,25.1595],[-78.0752,25.1654],[-78.0605,25.1763],[-78.0452,25.1831],[-78.028,25.1763],[-78.0152,25.1678],[-78.0012,25.161],[-77.9877,25.1522],[-77.9769,25.1384],[-77.9918,25.1228],[-77.9943,25.1052],[-77.9864,25.0888],[-77.97,25.077],[-77.9825,25.0375],[-77.9866,25.0129],[-77.9806,25.0019],[-77.9623,24.9993],[-77.9473,24.9912],[-77.9342,24.9762],[-77.8734,24.8386],[-77.8292,24.7782],[-77.8126,24.7619],[-77.7956,24.7548],[-77.7835,24.7482],[-77.7465,24.7145],[-77.7372,24.7002],[-77.7362,24.6822],[-77.7378,24.6577],[-77.7418,24.6347],[-77.8341,24.649],[-77.9424,24.6385],[-78.0299,24.6175],[-78.0718,24.5965],[-78.0998,24.5476],[-78.1344,24.5016]]]}},{"type":"Feature","properties":{"id":"BHS-5027","name":"North Eleuthera","nameBn":"নর্থ এলিউথেরা","type":"District","bounds":[-76.7845,25.2853,-76.314,25.564],"center":[-76.59,25.4383]},"geometry":{"type":"Polygon","coordinates":[[[-76.3326,25.2853],[-76.3463,25.3035],[-76.3716,25.3225],[-76.4095,25.3352],[-76.4896,25.3513],[-76.5308,25.3704],[-76.5912,25.4226],[-76.6305,25.4333],[-76.6523,25.4354],[-76.6937,25.4448],[-76.7128,25.4469],[-76.7343,25.4418],[-76.7694,25.4241],[-76.7845,25.4264],[-76.7595,25.45],[-76.7455,25.4892],[-76.7298,25.5636],[-76.7367,25.5636],[-76.7023,25.564],[-76.6868,25.5621],[-76.6752,25.5568],[-76.6861,25.5413],[-76.691,25.5259],[-76.6913,25.5089],[-76.6889,25.4879],[-76.6732,25.5067],[-76.662,25.4973],[-76.653,25.478],[-76.6439,25.4674],[-76.6246,25.4625],[-76.4976,25.3735],[-76.4609,25.3546],[-76.4145,25.3445],[-76.3683,25.3427],[-76.3516,25.3386],[-76.3358,25.3271],[-76.314,25.2996],[-76.3326,25.2853]]]}},{"type":"Feature","properties":{"id":"BHS-5034","name":"Ragged Island","nameBn":"রাগেড আইল্যান্ড","type":"District","bounds":[-75.8236,22.175,-75.7147,22.3884],"center":[-75.7413,22.2296]},"geometry":{"type":"MultiPolygon","coordinates":[[[[-75.7221,22.2026],[-75.7182,22.1958],[-75.7147,22.1829],[-75.7219,22.1754],[-75.7344,22.175],[-75.7427,22.1833],[-75.7485,22.1967],[-75.7497,22.2045],[-75.745,22.2058],[-75.7391,22.2039],[-75.733,22.1998],[-75.734,22.206],[-75.7395,22.2228],[-75.7362,22.2248],[-75.7314,22.2182],[-75.7221,22.2026]]],[[[-75.746,22.236],[-75.7497,22.2348],[-75.7534,22.2374],[-75.7519,22.2633],[-75.7475,22.2615],[-75.7449,22.2447],[-75.746,22.236]]],[[[-75.8117,22.3716],[-75.8079,22.3657],[-75.8026,22.3532],[-75.8055,22.3476],[-75.8131,22.3563],[-75.8202,22.3713],[-75.8236,22.3857],[-75.8196,22.3884],[-75.8136,22.3779],[-75.8117,22.3716]]]]}},{"type":"Feature","properties":{"id":"BHS-5032","name":"Rum Cay","nameBn":"রাম কে","type":"District","bounds":[-75.1236,23.6508,-74.7772,23.8469],"center":[-74.8408,23.6787]},"geometry":{"type":"MultiPolygon","coordinates":[[[[-74.9001,23.7065],[-74.8497,23.7201],[-74.8124,23.7197],[-74.7996,23.7145],[-74.7772,23.6997],[-74.7873,23.6841],[-74.7937,23.6713],[-74.8038,23.664],[-74.8249,23.6649],[-74.8249,23.6587],[-74.8187,23.6511],[-74.8367,23.6508],[-74.8607,23.6579],[-74.8728,23.6723],[-74.8909,23.6647],[-74.9239,23.6645],[-74.9416,23.6587],[-74.9454,23.6816],[-74.9386,23.6943],[-74.9231,23.7012],[-74.9001,23.7065]]],[[[-75.109,23.8469],[-75.1061,23.8424],[-75.1058,23.8314],[-75.1107,23.8187],[-75.1174,23.8151],[-75.1236,23.831],[-75.1173,23.8454],[-75.109,23.8469]]]]}},{"type":"Feature","properties":{"id":"BHS-5031","name":"San Salvador","nameBn":"সান সালভাদর আইল্যান্ড","type":"District","bounds":[-74.5581,23.9536,-74.4271,24.1439],"center":[-74.4785,24.0513]},"geometry":{"type":"Polygon","coordinates":[[[-74.4687,24.0218],[-74.4769,24.01],[-74.4913,23.9692],[-74.4923,23.9604],[-74.5581,23.9536],[-74.5581,23.9604],[-74.5411,23.98],[-74.5297,24.0111],[-74.5255,24.0457],[-74.5301,24.0764],[-74.5297,24.1004],[-74.5187,24.1149],[-74.5013,24.1238],[-74.4818,24.131],[-74.4762,24.1352],[-74.4708,24.1407],[-74.4648,24.1439],[-74.4582,24.1413],[-74.4432,24.1167],[-74.4408,24.1142],[-74.4388,24.1038],[-74.4297,24.0898],[-74.4271,24.0832],[-74.4277,24.0742],[-74.4332,24.0544],[-74.4346,24.0454],[-74.4755,23.9802],[-74.4785,23.9917],[-74.4767,24.0016],[-74.4687,24.0218]]]}},{"type":"Feature","properties":{"id":"BHS-5016","name":"South Abaco","nameBn":"দক্ষিন অ্যাবাকো","type":"District","bounds":[-77.4083,25.8851,-77.0148,26.3553],"center":[-77.2421,26.0179]},"geometry":{"type":"Polygon","coordinates":[[[-77.0316,26.3553],[-77.0293,26.3444],[-77.0244,26.3376],[-77.0194,26.3327],[-77.0172,26.3276],[-77.0161,26.3195],[-77.0148,26.3157],[-77.0165,26.3117],[-77.0247,26.3035],[-77.0327,26.2974],[-77.041,26.2938],[-77.0588,26.2904],[-77.0568,26.2947],[-77.052,26.3096],[-77.0845,26.3061],[-77.1153,26.2904],[-77.1426,26.2683],[-77.1649,26.2454],[-77.1744,26.2207],[-77.1832,26.1443],[-77.1817,26.1253],[-77.1922,26.069],[-77.1872,25.9885],[-77.1907,25.9163],[-77.2267,25.8851],[-77.253,25.8976],[-77.2762,25.926],[-77.2927,25.9573],[-77.299,25.9779],[-77.3151,25.991],[-77.3882,26.0054],[-77.4083,26.0297],[-77.3921,26.0299],[-77.3739,26.0355],[-77.3591,26.0459],[-77.3479,26.0706],[-77.3356,26.0737],[-77.321,26.0752],[-77.3089,26.0806],[-77.2724,26.1183],[-77.2489,26.1361],[-77.2233,26.1458],[-77.2298,26.154],[-77.2338,26.1623],[-77.2358,26.1717],[-77.2363,26.1837],[-77.2403,26.1906],[-77.2488,26.1965],[-77.2564,26.2039],[-77.258,26.2147],[-77.2518,26.226],[-77.2425,26.2345],[-77.2339,26.244],[-77.2301,26.2587],[-77.2306,26.2851],[-77.0316,26.3553]]]}},{"type":"Feature","properties":{"id":"BHS-5022","name":"South Andros","nameBn":"দক্ষিন আন্ড্রস","type":"District","bounds":[-77.8288,23.7202,-77.5165,24.2211],"center":[-77.6043,23.7822]},"geometry":{"type":"Polygon","coordinates":[[[-77.744,24.0355],[-77.7255,24.0307],[-77.7096,24.0437],[-77.6785,24.1018],[-77.6577,24.1235],[-77.6479,24.1379],[-77.6439,24.1575],[-77.6427,24.1828],[-77.6392,24.2065],[-77.6273,24.2211],[-77.6075,24.2182],[-77.5926,24.1982],[-77.5805,24.1732],[-77.5693,24.1553],[-77.5566,24.1411],[-77.5495,24.1259],[-77.5462,24.1083],[-77.5443,24.0753],[-77.5392,24.0541],[-77.538,24.0454],[-77.5392,24.0339],[-77.5443,24.0147],[-77.5455,24.0044],[-77.5422,23.9988],[-77.5282,23.9799],[-77.525,23.9704],[-77.5282,23.9586],[-77.5352,23.9506],[-77.5422,23.9456],[-77.5455,23.9427],[-77.5558,23.9383],[-77.5775,23.9378],[-77.5971,23.9304],[-77.6007,23.9051],[-77.5657,23.928],[-77.545,23.9366],[-77.525,23.9331],[-77.5165,23.9188],[-77.5226,23.881],[-77.5175,23.8642],[-77.5346,23.8286],[-77.5479,23.8223],[-77.5727,23.8294],[-77.5694,23.8168],[-77.5513,23.8031],[-77.5455,23.7884],[-77.5469,23.775],[-77.5526,23.7602],[-77.5598,23.7477],[-77.5659,23.7407],[-77.5973,23.7306],[-77.6212,23.7401],[-77.643,23.7549],[-77.6683,23.7611],[-77.6511,23.7419],[-77.6514,23.7331],[-77.6609,23.7202],[-77.6683,23.7202],[-77.6849,23.7414],[-77.7146,23.7487],[-77.7782,23.7468],[-77.744,23.7611],[-77.7491,23.7783],[-77.7277,23.7777],[-77.6752,23.7611],[-77.6691,23.7792],[-77.6589,23.7921],[-77.645,23.8015],[-77.5913,23.8249],[-77.5762,23.8358],[-77.5762,23.8471],[-77.5941,23.8535],[-77.6116,23.8441],[-77.6286,23.8303],[-77.6448,23.8232],[-77.7031,23.7884],[-77.6992,23.7856],[-77.6963,23.7822],[-77.7202,23.7848],[-77.7443,23.8164],[-77.7646,23.8232],[-77.6988,23.8451],[-77.6656,23.8635],[-77.6609,23.8847],[-77.6752,23.8705],[-77.6948,23.8647],[-77.7478,23.8642],[-77.7621,23.8616],[-77.7742,23.8568],[-77.7859,23.8537],[-77.7987,23.8567],[-77.8068,23.8647],[-77.8129,23.8767],[-77.8275,23.9439],[-77.8288,23.9692],[-77.8226,23.9802],[-77.7816,24.0083],[-77.744,24.0355]]]}},{"type":"Feature","properties":{"id":"BHS-5029","name":"South Eleuthera","nameBn":"সাউথ এলিয়টেরা","type":"District","bounds":[-76.3363,24.645,-76.137,24.9889],"center":[-76.1967,24.7344]},"geometry":{"type":"Polygon","coordinates":[[[-76.1544,24.9814],[-76.1579,24.9621],[-76.1536,24.9443],[-76.1409,24.9187],[-76.137,24.9022],[-76.1409,24.8544],[-76.1461,24.8342],[-76.1697,24.7998],[-76.175,24.7859],[-76.1775,24.7158],[-76.174,24.6773],[-76.1613,24.645],[-76.1945,24.6584],[-76.2118,24.6903],[-76.2226,24.727],[-76.2364,24.7548],[-76.253,24.7658],[-76.2967,24.7821],[-76.3153,24.7927],[-76.3363,24.8149],[-76.3337,24.8242],[-76.3175,24.8253],[-76.2194,24.81],[-76.2128,24.8127],[-76.2081,24.8192],[-76.204,24.8269],[-76.1988,24.8337],[-76.1824,24.8488],[-76.1776,24.8577],[-76.175,24.8715],[-76.1758,24.8945],[-76.1839,24.8893],[-76.1954,24.8733],[-76.206,24.8641],[-76.212,24.8754],[-76.2109,24.901],[-76.2023,24.9467],[-76.1966,24.9634],[-76.1938,24.9674],[-76.188,24.9739],[-76.1703,24.9889],[-76.1544,24.9814]]]}},{"type":"Feature","properties":{"id":"BHS-5025","name":"Spanish Wells","nameBn":"স্প্যানিশ ওয়েলস","type":"District","bounds":[-76.8728,25.5066,-76.8094,25.5325],"center":[-76.8334,25.5237]},"geometry":{"type":"Polygon","coordinates":[[[-76.829,25.5317],[-76.818,25.5325],[-76.8094,25.5294],[-76.8109,25.5239],[-76.829,25.5168],[-76.8485,25.5168],[-76.8611,25.5082],[-76.8721,25.5066],[-76.8728,25.5145],[-76.8572,25.5239],[-76.8446,25.5262],[-76.829,25.5317]]]}},{"type":"Feature","properties":{"id":"BHS-5011","name":"West Grand Bahama","nameBn":"পশ্চিম গ্রান্ড বাহামা","type":"District","bounds":[-78.9979,26.4919,-78.4112,26.8105],"center":[-78.9085,26.6389]},"geometry":{"type":"Polygon","coordinates":[[[-78.4112,26.5942],[-78.5034,26.5731],[-78.5215,26.5704],[-78.5402,26.565],[-78.5705,26.5416],[-78.5901,26.5362],[-78.5981,26.5314],[-78.6128,26.5462],[-78.6359,26.5462],[-78.6567,26.5207],[-78.6464,26.5049],[-78.6558,26.4978],[-78.6767,26.4961],[-78.6861,26.4919],[-78.727,26.4954],[-78.7668,26.5081],[-78.7911,26.5297],[-78.8346,26.5537],[-78.9396,26.6508],[-78.9873,26.6862],[-78.9979,26.7013],[-78.9871,26.7015],[-78.9784,26.6994],[-78.9709,26.6949],[-78.9643,26.6877],[-78.8358,26.6146],[-78.8061,26.5778],[-78.7862,26.5811],[-78.7704,26.5833],[-78.7382,26.5708],[-78.7143,26.5705],[-78.6917,26.58],[-78.6713,26.5929],[-78.6575,26.5986],[-78.6458,26.6051],[-78.638,26.6097],[-78.6343,26.6178],[-78.6216,26.627],[-78.619,26.6395],[-78.6044,26.6505],[-78.5922,26.673],[-78.5736,26.6842],[-78.5759,26.6948],[-78.6,26.7082],[-78.6416,26.715],[-78.6347,26.728],[-78.6074,26.7559],[-78.6016,26.7683],[-78.5938,26.8105],[-78.5748,26.7983],[-78.5572,26.7786],[-78.5443,26.757],[-78.5392,26.7392],[-78.5203,26.729],[-78.4744,26.7128],[-78.4459,26.6612],[-78.4112,26.5942]]]}}]}