{"type":"FeatureCollection","features":[{"type":"Feature","properties":{"id":"BIH-4802","name":"Banja Luka","nameBn":"বাঞ্জা লুকা","type":null,"bounds":[16.2631,44.0674,17.9211,45.2845],"center":[17.2619,44.8146]},"geometry":{"type":"Polygon","coordinates":[[[16.9244,45.2845],[16.9326,45.2788],[16.9407,45.2578],[16.9421,45.2498],[16.9415,45.2412],[16.9473,45.2357],[16.968,45.2373],[16.9653,45.2442],[16.9612,45.2509],[16.9759,45.2472],[16.9881,45.2365],[16.9987,45.2314],[17.0083,45.2442],[17.012,45.2365],[17.0136,45.2306],[17.0125,45.2245],[17.0083,45.2162],[17.0144,45.2198],[17.0302,45.227],[17.0363,45.2305],[17.0557,45.2004],[17.0984,45.1777],[17.1246,45.1691],[17.1871,45.1486],[17.1978,45.153],[17.2455,45.1554],[17.2497,45.1599],[17.269,45.1895],[17.3078,45.1714],[17.3265,45.1659],[17.3594,45.1507],[17.3686,45.1451],[17.3824,45.1396],[17.4008,45.141],[17.4341,45.1486],[17.4362,45.1519],[17.4388,45.1581],[17.4433,45.1621],[17.4512,45.1585],[17.4569,45.1518],[17.4581,45.1461],[17.455,45.1406],[17.4478,45.1343],[17.4604,45.1313],[17.4723,45.1328],[17.4962,45.1417],[17.487,45.1209],[17.4819,45.1144],[17.4893,45.1163],[17.5395,45.121],[17.5614,45.1194],[17.5724,45.1204],[17.5931,45.1296],[17.63,45.1573],[17.6516,45.1654],[17.6847,45.164],[17.7145,45.152],[17.7414,45.1333],[17.7657,45.111],[17.7399,45.0723],[17.7425,45.024],[17.7632,44.9791],[17.7628,44.9293],[17.7332,44.9092],[17.7222,44.8751],[17.7233,44.816],[17.756,44.7533],[17.7799,44.7194],[17.817,44.7059],[17.8883,44.7198],[17.8525,44.6675],[17.8353,44.639],[17.8353,44.6161],[17.8568,44.5874],[17.8911,44.5631],[17.9154,44.546],[17.9211,44.5188],[17.9211,44.4945],[17.9169,44.4701],[17.8925,44.4501],[17.8568,44.4301],[17.8153,44.4129],[17.7652,44.3929],[17.7328,44.3753],[17.7308,44.3743],[17.688,44.3757],[17.6007,44.3643],[17.5377,44.3643],[17.502,44.3657],[17.4848,44.3814],[17.4648,44.3943],[17.439,44.4258],[17.4076,44.4415],[17.3718,44.443],[17.3246,44.443],[17.2674,44.4451],[17.2402,44.4523],[17.2273,44.4608],[17.1758,44.4623],[17.1514,44.458],[17.1443,44.4294],[17.1486,44.3693],[17.1529,44.3249],[17.1687,44.2906],[17.1858,44.2577],[17.2102,44.2305],[17.2631,44.1819],[17.2731,44.1432],[17.2674,44.1146],[17.2588,44.0917],[17.249,44.0679],[17.2488,44.0674],[17.1558,44.0788],[17.1286,44.0831],[17.1143,44.096],[17.1128,44.1275],[17.1071,44.1533],[17.0843,44.1575],[17.0613,44.169],[17.0456,44.1905],[17.0155,44.199],[16.9684,44.2191],[16.9168,44.2391],[16.8768,44.2605],[16.8539,44.2763],[16.8353,44.2777],[16.7995,44.2863],[16.7809,44.3106],[16.7681,44.3292],[16.7566,44.3421],[16.7409,44.345],[16.7166,44.345],[16.6894,44.3607],[16.6279,44.3907],[16.585,44.4165],[16.5563,44.4365],[16.5257,44.4553],[16.512,44.4637],[16.5034,44.4808],[16.5077,44.5009],[16.5277,44.5023],[16.5664,44.5023],[16.6264,44.4895],[16.6965,44.4709],[16.7537,44.4551],[16.8096,44.458],[16.8525,44.4594],[16.8611,44.4766],[16.8711,44.4966],[16.8811,44.5138],[16.8825,44.571],[16.8825,44.6211],[16.8782,44.6625],[16.8697,44.674],[16.8439,44.6726],[16.8382,44.684],[16.8382,44.7012],[16.8382,44.7412],[16.8282,44.767],[16.7895,44.8056],[16.7452,44.8371],[16.7037,44.8557],[16.6508,44.8657],[16.6136,44.8714],[16.5592,44.8771],[16.5005,44.88],[16.4691,44.8829],[16.399,44.8857],[16.3332,44.89],[16.3017,44.8972],[16.273,44.9215],[16.2631,44.9372],[16.2631,44.9544],[16.2788,44.973],[16.326,44.9844],[16.3489,44.9916],[16.3546,45.0016],[16.3552,45.0095],[16.3494,45.0162],[16.346,45.02],[16.357,45.0486],[16.3773,45.0756],[16.382,45.0837],[16.384,45.0954],[16.382,45.102],[16.3818,45.1076],[16.3892,45.1168],[16.3985,45.1214],[16.4248,45.1273],[16.4355,45.1329],[16.4492,45.1481],[16.4819,45.1995],[16.5289,45.2223],[16.587,45.2209],[16.7863,45.1788],[16.8117,45.1812],[16.8242,45.1891],[16.8258,45.1964],[16.8251,45.205],[16.8307,45.217],[16.8408,45.224],[16.8519,45.2274],[16.8617,45.2322],[16.8673,45.2434],[16.8754,45.247],[16.8858,45.2552],[16.894,45.2635],[16.897,45.2681],[16.9244,45.2845]]]}},{"type":"Feature","properties":{"id":"BIH-4804","name":"Bijeljina","nameBn":"বিজেলজিনা","type":null,"bounds":[18.7294,44.5383,19.3766,44.9275],"center":[19.1471,44.7513]},"geometry":{"type":"Polygon","coordinates":[[[18.9749,44.8628],[19.005,44.8633],[19.0158,44.8656],[19.0478,44.8727],[19.0684,44.8748],[19.0846,44.879],[19.1743,44.9254],[19.1869,44.9275],[19.1932,44.9215],[19.1969,44.9132],[19.2019,44.9084],[19.2119,44.9084],[19.2296,44.9137],[19.2395,44.9151],[19.2838,44.9084],[19.293,44.9094],[19.3013,44.9124],[19.3102,44.9124],[19.3302,44.8987],[19.3401,44.8962],[19.3503,44.897],[19.353,44.8981],[19.3532,44.899],[19.357,44.8959],[19.3628,44.8911],[19.3687,44.8871],[19.3728,44.8814],[19.3757,44.8731],[19.3766,44.863],[19.3731,44.8603],[19.3678,44.8593],[19.3637,44.8546],[19.3284,44.734],[19.318,44.7155],[19.3084,44.7051],[19.2883,44.693],[19.2776,44.6849],[19.2701,44.6756],[19.2557,44.6456],[19.2087,44.5884],[19.2041,44.5851],[19.1933,44.5806],[19.1883,44.576],[19.1863,44.5693],[19.1873,44.5533],[19.1853,44.5462],[19.1796,44.5383],[19.1684,44.5548],[19.1472,44.575],[19.1153,44.591],[19.0993,44.5942],[19.0749,44.5878],[19.0472,44.574],[19.0311,44.5675],[19.0299,44.6175],[19.0227,44.6332],[18.9869,44.639],[18.9512,44.6332],[18.9383,44.6175],[18.9197,44.586],[18.8911,44.5502],[18.8682,44.5417],[18.8482,44.5417],[18.8324,44.5517],[18.7781,44.5975],[18.7395,44.6247],[18.7294,44.6447],[18.7309,44.6675],[18.7423,44.679],[18.7709,44.6919],[18.7981,44.7048],[18.8053,44.7276],[18.8038,44.7448],[18.8213,44.7608],[18.8365,44.7687],[18.8863,44.7716],[18.9094,44.784],[18.9222,44.811],[18.9375,44.8283],[18.9601,44.8357],[18.9754,44.8435],[18.9749,44.8628]]]}},{"type":"Feature","properties":{"id":"BIH-2891","name":"Bosnian Podrinje","nameBn":"বসনিয় পোডরিনি ক্যান্টন","type":"Canton","bounds":[18.5826,43.576,19.0571,43.7706],"center":[18.8198,43.6774]},"geometry":{"type":"Polygon","coordinates":[[[18.6088,43.6837],[18.6121,43.6819],[18.6364,43.679],[18.6736,43.6776],[18.6922,43.6904],[18.7094,43.7148],[18.7194,43.7477],[18.7395,43.7663],[18.7838,43.7706],[18.8782,43.7691],[18.9254,43.7634],[18.9497,43.742],[18.9726,43.7248],[18.9955,43.7248],[19.0284,43.7176],[19.0456,43.7019],[19.0571,43.6733],[19.0513,43.659],[19.0199,43.6547],[18.9955,43.6361],[18.9626,43.6175],[18.9183,43.6032],[18.8854,43.5917],[18.8453,43.5875],[18.7924,43.5817],[18.7609,43.576],[18.6937,43.5832],[18.6493,43.5989],[18.585,43.6361],[18.583,43.6367],[18.5826,43.6451],[18.5858,43.6572],[18.5939,43.6718],[18.606,43.6815],[18.6088,43.6837]]]}},{"type":"Feature","properties":{"id":"BIH-4803","name":"Brčko Distrikt","nameBn":"বাক্কু জেলা","type":null,"bounds":[18.748,44.7448,18.9754,44.8922],"center":[18.854,44.8305]},"geometry":{"type":"Polygon","coordinates":[[[18.8421,44.8762],[18.8587,44.8685],[18.8896,44.8612],[18.9749,44.8628],[18.9754,44.8435],[18.9601,44.8357],[18.9375,44.8283],[18.9222,44.811],[18.9094,44.784],[18.8863,44.7716],[18.8365,44.7687],[18.8213,44.7608],[18.8038,44.7448],[18.7752,44.7463],[18.7681,44.7634],[18.7624,44.8035],[18.748,44.845],[18.7691,44.8922],[18.7799,44.8861],[18.7845,44.8723],[18.7814,44.8523],[18.7814,44.8415],[18.806,44.8415],[18.8352,44.86],[18.8403,44.8728],[18.8421,44.8762]]]}},{"type":"Feature","properties":{"id":"BIH-2226","name":"Central Bosnia","nameBn":"সেন্ট্রাল বসনিয়া ক্যান্টোন","type":"Canton","bounds":[17.1443,43.7703,18.165,44.4623],"center":[17.6547,44.1028]},"geometry":{"type":"Polygon","coordinates":[[[17.249,44.0679],[17.2588,44.0917],[17.2674,44.1146],[17.2731,44.1432],[17.2631,44.1819],[17.2102,44.2305],[17.1858,44.2577],[17.1687,44.2906],[17.1529,44.3249],[17.1486,44.3693],[17.1443,44.4294],[17.1514,44.458],[17.1758,44.4623],[17.2273,44.4608],[17.2402,44.4523],[17.2674,44.4451],[17.3246,44.443],[17.3718,44.443],[17.4076,44.4415],[17.439,44.4258],[17.4648,44.3943],[17.4848,44.3814],[17.502,44.3657],[17.5377,44.3643],[17.6007,44.3643],[17.688,44.3757],[17.7308,44.3743],[17.7328,44.3753],[17.7417,44.3605],[17.7525,44.3376],[17.7719,44.323],[17.7925,44.3049],[17.7961,44.2868],[17.7913,44.2444],[17.7937,44.1924],[17.8058,44.1682],[17.8397,44.1452],[17.8651,44.1271],[17.8941,44.1307],[17.911,44.1283],[17.911,44.1138],[17.9195,44.0908],[17.9256,44.0751],[17.9449,44.0666],[17.9618,44.0666],[17.9727,44.0666],[17.9848,44.0569],[17.9896,44.0352],[17.9969,44.0049],[18.0126,44.0049],[18.0417,44.0062],[18.0501,44.0001],[18.0526,43.9856],[18.0501,43.9759],[18.061,43.965],[18.061,43.9554],[18.0731,43.9554],[18.0816,43.9554],[18.09,43.9481],[18.1142,43.919],[18.1227,43.9045],[18.1348,43.9045],[18.1465,43.9066],[18.1554,43.8997],[18.1638,43.8683],[18.165,43.8513],[18.1602,43.8416],[18.1469,43.8319],[18.1251,43.8259],[18.0937,43.809],[18.0622,43.8005],[18.0235,43.7981],[18.0114,43.7872],[18.0066,43.7751],[18.0068,43.7749],[18.0069,43.7747],[17.9788,43.7703],[17.9472,43.7757],[17.9437,43.7763],[17.9158,43.7981],[17.911,43.8071],[17.9001,43.8271],[17.8966,43.8307],[17.8905,43.8368],[17.8602,43.8392],[17.8119,43.8392],[17.7804,43.8332],[17.7627,43.8222],[17.7551,43.8175],[17.7163,43.8139],[17.6825,43.8223],[17.6425,43.8393],[17.5967,43.8477],[17.5713,43.8441],[17.5507,43.8393],[17.5251,43.8369],[17.4975,43.8489],[17.4769,43.8575],[17.4593,43.8605],[17.4593,43.8604],[17.4592,43.8604],[17.4537,43.8758],[17.4259,43.9076],[17.3981,43.9089],[17.3729,43.9102],[17.3558,43.9221],[17.3386,43.9367],[17.328,43.9447],[17.3226,43.9658],[17.3134,43.9738],[17.3108,43.9777],[17.2988,43.9936],[17.2975,44.0068],[17.2909,44.0174],[17.2724,44.032],[17.2552,44.0545],[17.249,44.0679]]]}},{"type":"Feature","properties":{"id":"BIH-4801","name":"Doboj","nameBn":"দোবোজ","type":null,"bounds":[17.7222,44.5739,18.7691,45.1494],"center":[18.0675,44.9307]},"geometry":{"type":"Polygon","coordinates":[[[17.7657,45.111],[17.7975,45.082],[17.8156,45.0702],[17.8357,45.0644],[17.8457,45.0653],[17.8752,45.074],[17.9026,45.0778],[17.9112,45.0811],[17.9277,45.092],[17.9885,45.1438],[18.0035,45.1493],[18.0191,45.1494],[18.035,45.1433],[18.0903,45.108],[18.1124,45.1006],[18.1318,45.0979],[18.1437,45.0977],[18.1437,45.0973],[18.1454,45.0919],[18.1608,45.0643],[18.1731,45.0505],[18.1915,45.0489],[18.21,45.0382],[18.2315,45.0213],[18.2561,44.9905],[18.2776,44.9875],[18.3098,44.9875],[18.3313,44.9875],[18.3359,44.9967],[18.3436,45.009],[18.3513,45.0228],[18.379,45.0305],[18.4128,45.0397],[18.4373,45.0489],[18.4435,45.072],[18.4518,45.085],[18.4661,45.074],[18.4817,45.0669],[18.4803,45.0551],[18.4834,45.0228],[18.4972,45.0121],[18.528,44.9859],[18.5679,44.9644],[18.6078,44.9537],[18.6508,44.9537],[18.6938,44.9368],[18.7199,44.9183],[18.723,44.8968],[18.743,44.8938],[18.7691,44.8922],[18.748,44.845],[18.7094,44.865],[18.6493,44.8764],[18.5935,44.8793],[18.5578,44.8678],[18.5334,44.8636],[18.5063,44.865],[18.4948,44.875],[18.4948,44.8864],[18.4948,44.9093],[18.4605,44.9165],[18.3975,44.9186],[18.3732,44.9115],[18.3474,44.8986],[18.3332,44.8729],[18.3117,44.8285],[18.2874,44.8013],[18.2473,44.7942],[18.1686,44.7942],[18.1258,44.7913],[18.0857,44.787],[18.0785,44.7699],[18.0785,44.7412],[18.0942,44.7284],[18.1357,44.7126],[18.1801,44.6997],[18.2216,44.6869],[18.2716,44.674],[18.3131,44.664],[18.3575,44.654],[18.3846,44.6311],[18.3904,44.6053],[18.3847,44.5824],[18.3332,44.5739],[18.2874,44.5753],[18.2872,44.5753],[18.2101,44.5753],[18.1644,44.5767],[18.1372,44.5796],[18.1171,44.6039],[18.0828,44.6568],[18.0499,44.6969],[18.0156,44.7198],[17.9741,44.7241],[17.9226,44.7269],[17.8883,44.7198],[17.817,44.7059],[17.7799,44.7194],[17.756,44.7533],[17.7233,44.816],[17.7222,44.8751],[17.7332,44.9092],[17.7628,44.9293],[17.7632,44.9791],[17.7425,45.024],[17.7399,45.0723],[17.7657,45.111]]]}},{"type":"Feature","properties":{"id":"BIH-4807","name":"Foča","nameBn":"ফোকা","type":null,"bounds":[18.3487,43.2332,19.5074,43.9524],"center":[18.7352,43.4443]},"geometry":{"type":"Polygon","coordinates":[[[19.055,43.5067],[19.0381,43.511],[19.025,43.523],[19.0143,43.5378],[19.0002,43.5479],[18.9775,43.5462],[18.9627,43.5383],[18.9389,43.5189],[18.9205,43.5122],[18.911,43.5073],[18.9051,43.4991],[18.9056,43.4906],[18.9153,43.4854],[18.9307,43.4823],[18.9379,43.4789],[18.9512,43.4638],[18.9507,43.4573],[18.9464,43.4491],[18.9463,43.4439],[18.9683,43.4481],[18.9753,43.4443],[19.0099,43.411],[19.0396,43.3507],[19.0697,43.3088],[19.0625,43.3044],[19.0363,43.3033],[19.0247,43.2987],[19.0225,43.2965],[19.0172,43.2912],[19.0109,43.2823],[19.0029,43.2739],[18.9925,43.2671],[18.9895,43.272],[18.9889,43.2729],[18.9686,43.2922],[18.9595,43.3035],[18.9571,43.3118],[18.9579,43.319],[18.9573,43.3259],[18.9503,43.3331],[18.9234,43.3468],[18.8991,43.3519],[18.8396,43.3478],[18.8212,43.3414],[18.8246,43.3374],[18.8303,43.3282],[18.8335,43.3242],[18.8072,43.318],[18.6795,43.2495],[18.6643,43.2332],[18.6326,43.2485],[18.588,43.2687],[18.5069,43.3215],[18.4501,43.3134],[18.4095,43.3336],[18.3771,43.3215],[18.3487,43.3458],[18.3649,43.3904],[18.3561,43.4381],[18.3904,43.4381],[18.3947,43.4523],[18.3847,43.4853],[18.3761,43.5181],[18.3705,43.5567],[18.3747,43.5825],[18.3759,43.5833],[18.3827,43.5883],[18.3904,43.5939],[18.4294,43.5879],[18.4684,43.6139],[18.5138,43.6139],[18.5527,43.6171],[18.583,43.6367],[18.585,43.6361],[18.6493,43.5989],[18.6937,43.5832],[18.7609,43.576],[18.7924,43.5817],[18.8453,43.5875],[18.8854,43.5917],[18.9183,43.6032],[18.9626,43.6175],[18.9955,43.6361],[19.0199,43.6547],[19.0513,43.659],[19.0571,43.6733],[19.0456,43.7019],[19.0284,43.7176],[18.9955,43.7248],[18.9726,43.7248],[18.9497,43.742],[19.0017,43.7676],[19.0706,43.7838],[19.1436,43.7716],[19.1761,43.7554],[19.2207,43.7514],[19.2409,43.7757],[19.2207,43.8162],[19.2247,43.8527],[19.2166,43.9055],[19.225,43.9215],[19.241,43.9524],[19.2754,43.9333],[19.3059,43.9047],[19.3595,43.8422],[19.4617,43.7621],[19.4817,43.7292],[19.5057,43.6736],[19.5074,43.6472],[19.4817,43.6289],[19.4775,43.617],[19.4756,43.6026],[19.4769,43.5887],[19.4817,43.5781],[19.489,43.5732],[19.4918,43.5686],[19.4896,43.5644],[19.4817,43.5608],[19.4439,43.5719],[19.4318,43.5711],[19.4193,43.5493],[19.4107,43.5408],[19.4029,43.5496],[19.3946,43.5665],[19.3804,43.5856],[19.3634,43.6016],[19.3466,43.6088],[19.3358,43.6065],[19.3127,43.5932],[19.3009,43.5883],[19.2892,43.5879],[19.2637,43.591],[19.2527,43.5886],[19.2389,43.5721],[19.2295,43.5497],[19.2175,43.5328],[19.1953,43.5328],[19.1477,43.5381],[19.1228,43.5359],[19.096,43.5129],[19.0764,43.5072],[19.055,43.5067]]]}},{"type":"Feature","properties":{"id":"BIH-2228","name":"Herzegovina-Neretva","nameBn":"হার্জেগোভিনা-নেরেভা ক্যান্টন","type":"Canton","bounds":[17.3809,42.5744,18.3947,43.8605],"center":[17.8878,43.3226]},"geometry":{"type":"Polygon","coordinates":[[[17.7867,42.9014],[17.7655,42.9041],[17.7236,42.9162],[17.7016,42.9195],[17.6795,42.9157],[17.6659,42.9052],[17.6533,42.8909],[17.6528,42.8912],[17.5565,42.9348],[17.574,42.9343],[17.6011,42.9252],[17.6179,42.9218],[17.603,42.9326],[17.5807,42.9421],[17.6345,42.9504],[17.6627,42.9657],[17.6593,42.9934],[17.6592,42.9934],[17.6591,42.9936],[17.659,42.9937],[17.6284,43.0466],[17.598,43.0729],[17.6295,43.1053],[17.6537,43.1479],[17.6643,43.1875],[17.6526,43.2128],[17.6509,43.2166],[17.6205,43.2418],[17.5977,43.2454],[17.5953,43.2457],[17.585,43.2686],[17.5821,43.2749],[17.5847,43.2921],[17.5953,43.3001],[17.6191,43.2987],[17.6417,43.2921],[17.6626,43.2898],[17.6906,43.2868],[17.7473,43.2842],[17.7502,43.2841],[17.7503,43.2841],[17.7503,43.3041],[17.7398,43.3258],[17.7383,43.3291],[17.7359,43.3325],[17.7265,43.3463],[17.7145,43.3675],[17.7143,43.3706],[17.7131,43.3901],[17.7121,43.3951],[17.7093,43.4087],[17.7053,43.4259],[17.6629,43.4311],[17.6471,43.4391],[17.6443,43.4391],[17.6337,43.4563],[17.6285,43.4695],[17.6059,43.4801],[17.5875,43.5039],[17.5729,43.5211],[17.5575,43.5201],[17.5516,43.5197],[17.551,43.52],[17.5371,43.5251],[17.5371,43.5317],[17.5385,43.5449],[17.5404,43.5457],[17.5477,43.5489],[17.5596,43.5489],[17.5808,43.5489],[17.5953,43.5489],[17.5993,43.552],[17.602,43.5541],[17.602,43.5701],[17.602,43.5899],[17.5953,43.5979],[17.5953,43.5979],[17.5861,43.6071],[17.5861,43.6165],[17.5861,43.6349],[17.5783,43.6441],[17.5715,43.6521],[17.5698,43.6522],[17.5477,43.6535],[17.5359,43.6513],[17.5305,43.6504],[17.5305,43.6561],[17.5159,43.6667],[17.5041,43.6747],[17.4909,43.6919],[17.4603,43.7197],[17.4445,43.7395],[17.4167,43.7449],[17.4021,43.7449],[17.3915,43.7449],[17.3915,43.7555],[17.3915,43.7673],[17.3809,43.7819],[17.3809,43.7951],[17.3809,43.8149],[17.3816,43.8221],[17.3835,43.8415],[17.3899,43.8523],[17.3929,43.8573],[17.418,43.8586],[17.4365,43.8507],[17.4656,43.8428],[17.4657,43.8427],[17.4603,43.8573],[17.4593,43.8604],[17.4593,43.8605],[17.4769,43.8575],[17.4975,43.8489],[17.5251,43.8369],[17.5507,43.8393],[17.5713,43.8441],[17.5967,43.8477],[17.6425,43.8393],[17.6825,43.8223],[17.7163,43.8139],[17.7551,43.8175],[17.7627,43.8222],[17.7804,43.8332],[17.8119,43.8392],[17.8602,43.8392],[17.8905,43.8368],[17.8966,43.8307],[17.9001,43.8271],[17.911,43.8071],[17.9158,43.7981],[17.9437,43.7763],[17.9472,43.7757],[17.9788,43.7703],[18.0069,43.7747],[18.0151,43.7654],[18.0249,43.7369],[18.0259,43.734],[18.0266,43.7319],[18.0345,43.7063],[18.0417,43.6929],[18.0587,43.6809],[18.0908,43.6756],[18.0961,43.6747],[18.1029,43.6758],[18.1263,43.6796],[18.1471,43.6774],[18.1493,43.6771],[18.1565,43.672],[18.1819,43.6543],[18.182,43.6542],[18.1965,43.6263],[18.1973,43.6113],[18.1977,43.6046],[18.2086,43.5985],[18.2364,43.5912],[18.2582,43.5798],[18.2618,43.578],[18.2654,43.5773],[18.2751,43.5755],[18.2868,43.5746],[18.2896,43.5743],[18.2945,43.5877],[18.3029,43.6021],[18.322,43.5974],[18.3223,43.5973],[18.3453,43.5901],[18.3731,43.5901],[18.3825,43.5884],[18.3827,43.5883],[18.3759,43.5833],[18.3747,43.5825],[18.3705,43.5567],[18.3761,43.5181],[18.3847,43.4853],[18.3947,43.4523],[18.3904,43.4381],[18.3561,43.4381],[18.2573,43.4451],[18.1701,43.4423],[18.0985,43.4423],[18.0299,43.4451],[18.0251,43.4309],[18.0227,43.4237],[18.0471,43.3951],[18.0513,43.3621],[18.0543,43.2979],[18.0571,43.2077],[18.0457,43.1963],[18.0299,43.1819],[18.0071,43.1733],[17.9913,43.1561],[17.9885,43.1405],[17.9913,43.1291],[18.0106,43.1277],[18.0141,43.1275],[18.0194,43.1261],[18.0399,43.1204],[18.0556,43.1089],[18.054,43.0874],[18.0528,43.071],[18.0428,43.0424],[18.0357,43.0365],[18.0256,43.0281],[18.0156,43.0123],[18.0144,42.976],[18.0141,42.9666],[18.0145,42.9646],[18.0243,42.9223],[18.0399,42.8851],[18.0574,42.8621],[18.0585,42.8607],[18.059,42.8604],[18.0885,42.8451],[18.1515,42.8035],[18.1744,42.7869],[18.203,42.7663],[18.2116,42.7529],[18.2159,42.7463],[18.2689,42.7049],[18.3175,42.6705],[18.3462,42.6491],[18.3733,42.6433],[18.3745,42.6213],[18.3698,42.5744],[18.3496,42.5963],[18.3387,42.6025],[18.3116,42.6012],[18.2571,42.6149],[18.2241,42.6281],[18.0494,42.7148],[17.9953,42.7404],[17.9719,42.755],[17.9289,42.7908],[17.9045,42.8045],[17.8694,42.8118],[17.8585,42.817],[17.8272,42.8531],[17.8251,42.8645],[17.8262,42.8886],[17.8233,42.8984],[17.8118,42.9099],[17.8027,42.9096],[17.7947,42.9046],[17.7867,42.9014]]]}},{"type":"Feature","properties":{"id":"BIH-3153","name":"Posavina","nameBn":"পোসাভিনা ক্যান্টন","type":"Canton","bounds":[18.1437,44.8415,18.8421,45.1575],"center":[18.2977,45.06]},"geometry":{"type":"MultiPolygon","coordinates":[[[[18.4817,45.0669],[18.4908,45.0628],[18.517,45.0559],[18.5411,45.0553],[18.5393,45.0693],[18.5344,45.0815],[18.5348,45.0884],[18.5349,45.0904],[18.5496,45.0948],[18.5577,45.0944],[18.5738,45.0916],[18.5818,45.0914],[18.5886,45.0932],[18.6025,45.0993],[18.6091,45.1001],[18.6167,45.0977],[18.6211,45.0931],[18.6279,45.08],[18.6336,45.072],[18.6405,45.0654],[18.6487,45.0627],[18.6581,45.0663],[18.6612,45.0711],[18.6633,45.0771],[18.6661,45.083],[18.6713,45.0869],[18.6782,45.0874],[18.6841,45.0848],[18.689,45.0802],[18.7263,45.0261],[18.7383,45.0159],[18.7501,45.0122],[18.778,45.0103],[18.7849,45.0085],[18.789,45.0057],[18.7918,45.0015],[18.7946,44.9954],[18.7952,44.9933],[18.7952,44.988],[18.7958,44.9851],[18.798,44.9822],[18.803,44.9773],[18.8046,44.9738],[18.8016,44.964],[18.7799,44.9522],[18.7726,44.9425],[18.7834,44.9137],[18.8178,44.8875],[18.8421,44.8762],[18.8403,44.8728],[18.8352,44.86],[18.806,44.8415],[18.7814,44.8415],[18.7814,44.8523],[18.7845,44.8723],[18.7799,44.8861],[18.7691,44.8922],[18.743,44.8938],[18.723,44.8968],[18.7199,44.9183],[18.6938,44.9368],[18.6508,44.9537],[18.6078,44.9537],[18.5679,44.9644],[18.528,44.9859],[18.4972,45.0121],[18.4834,45.0228],[18.4803,45.0551],[18.4817,45.0669]]],[[[18.2379,45.1575],[18.262,45.1507],[18.3074,45.1275],[18.3223,45.1229],[18.3929,45.1186],[18.412,45.1124],[18.4293,45.1022],[18.4518,45.085],[18.4435,45.072],[18.4373,45.0489],[18.4128,45.0397],[18.379,45.0305],[18.3513,45.0228],[18.3436,45.009],[18.3359,44.9967],[18.3313,44.9875],[18.3098,44.9875],[18.2776,44.9875],[18.2561,44.9905],[18.2315,45.0213],[18.21,45.0382],[18.1915,45.0489],[18.1731,45.0505],[18.1608,45.0643],[18.1454,45.0919],[18.1437,45.0973],[18.1437,45.0977],[18.1537,45.0976],[18.1749,45.1008],[18.1925,45.1085],[18.1993,45.119],[18.2001,45.1316],[18.2023,45.1441],[18.2133,45.1538],[18.2379,45.1575]]]]}},{"type":"Feature","properties":{"id":"BIH-2890","name":"Sarajevo","nameBn":"সারাজেভো","type":"Canton","bounds":[18.0066,43.5743,18.6088,44.1114],"center":[18.3077,43.7991]},"geometry":{"type":"Polygon","coordinates":[[[18.5868,44.0491],[18.5764,44.0488],[18.5692,44.0281],[18.5392,44.0095],[18.5091,43.9923],[18.4991,43.978],[18.4977,43.9537],[18.5034,43.9179],[18.5063,43.8879],[18.5063,43.8564],[18.4977,43.8435],[18.482,43.8335],[18.4519,43.8306],[18.4247,43.8349],[18.3832,43.8378],[18.3703,43.8321],[18.3732,43.812],[18.3761,43.7891],[18.4033,43.7548],[18.4161,43.7377],[18.4433,43.7362],[18.4863,43.7348],[18.5177,43.7234],[18.5592,43.7105],[18.6088,43.6837],[18.606,43.6815],[18.5939,43.6718],[18.5858,43.6572],[18.5826,43.6451],[18.583,43.6367],[18.5492,43.6476],[18.5163,43.659],[18.4919,43.6761],[18.4634,43.6904],[18.4433,43.6904],[18.4133,43.6904],[18.4018,43.6661],[18.3975,43.6247],[18.3904,43.5939],[18.3827,43.5883],[18.3825,43.5884],[18.3731,43.5901],[18.3453,43.5901],[18.3223,43.5973],[18.322,43.5974],[18.3029,43.6021],[18.2945,43.5877],[18.2896,43.5743],[18.2868,43.5746],[18.2751,43.5755],[18.2654,43.5773],[18.2618,43.578],[18.2582,43.5798],[18.2364,43.5912],[18.2086,43.5985],[18.1977,43.6046],[18.1973,43.6113],[18.1965,43.6263],[18.182,43.6542],[18.1819,43.6543],[18.1565,43.672],[18.1493,43.6771],[18.1471,43.6774],[18.1263,43.6796],[18.1029,43.6758],[18.0961,43.6747],[18.0908,43.6756],[18.0587,43.6809],[18.0417,43.6929],[18.0345,43.7063],[18.0266,43.7319],[18.0259,43.734],[18.0249,43.7369],[18.0151,43.7654],[18.0069,43.7747],[18.0068,43.7749],[18.0066,43.7751],[18.0114,43.7872],[18.0235,43.7981],[18.0622,43.8005],[18.0937,43.809],[18.1251,43.8259],[18.1469,43.8319],[18.1602,43.8416],[18.165,43.8513],[18.1638,43.8683],[18.1554,43.8997],[18.1465,43.9066],[18.1445,43.9082],[18.1421,43.9178],[18.1542,43.9263],[18.165,43.9263],[18.1795,43.9311],[18.188,43.9408],[18.188,43.9674],[18.1953,43.9868],[18.2255,43.9941],[18.2594,43.9928],[18.2993,43.9941],[18.3271,44.0049],[18.3392,44.0158],[18.338,44.0485],[18.3392,44.063],[18.3513,44.0702],[18.3767,44.0702],[18.3961,44.0702],[18.413,44.0799],[18.4263,44.0981],[18.4372,44.1077],[18.4408,44.1114],[18.4614,44.1114],[18.4783,44.1114],[18.4989,44.1089],[18.5146,44.0993],[18.5303,44.0823],[18.54,44.069],[18.5569,44.0606],[18.5811,44.0569],[18.5868,44.0491]]]}},{"type":"Feature","properties":{"id":"BIH-4806","name":"Sarajevo-romanija","nameBn":"সারাজেভো-রোমানিজা","type":null,"bounds":[18.3703,43.5879,19.2409,44.1203],"center":[18.751,43.9275]},"geometry":{"type":"MultiPolygon","coordinates":[[[[18.5868,44.0491],[18.6236,44.0503],[18.6594,44.066],[18.7037,44.0989],[18.7366,44.1203],[18.8232,44.1082],[18.9084,44.092],[19.0057,44.0474],[19.1274,43.9987],[19.1761,43.9622],[19.225,43.9215],[19.2166,43.9055],[19.2247,43.8527],[19.2207,43.8162],[19.2409,43.7757],[19.2207,43.7514],[19.1761,43.7554],[19.1436,43.7716],[19.0706,43.7838],[19.0017,43.7676],[18.9497,43.742],[18.9254,43.7634],[18.8782,43.7691],[18.7838,43.7706],[18.7395,43.7663],[18.7194,43.7477],[18.7094,43.7148],[18.6922,43.6904],[18.6736,43.6776],[18.6364,43.679],[18.6121,43.6819],[18.6088,43.6837],[18.5592,43.7105],[18.5177,43.7234],[18.4863,43.7348],[18.4433,43.7362],[18.4161,43.7377],[18.4033,43.7548],[18.3761,43.7891],[18.3732,43.812],[18.3703,43.8321],[18.3832,43.8378],[18.4247,43.8349],[18.4519,43.8306],[18.482,43.8335],[18.4977,43.8435],[18.5063,43.8564],[18.5063,43.8879],[18.5034,43.9179],[18.4977,43.9537],[18.4991,43.978],[18.5091,43.9923],[18.5392,44.0095],[18.5692,44.0281],[18.5764,44.0488],[18.5868,44.0491]]],[[[18.3904,43.5939],[18.3975,43.6247],[18.4018,43.6661],[18.4133,43.6904],[18.4433,43.6904],[18.4634,43.6904],[18.4919,43.6761],[18.5163,43.659],[18.5492,43.6476],[18.583,43.6367],[18.5527,43.6171],[18.5138,43.6139],[18.4684,43.6139],[18.4294,43.5879],[18.3904,43.5939]]]]}},{"type":"Feature","properties":{"id":"BIH-4808","name":"Trebinje","nameBn":"ট্রেবিঞ্জ","type":null,"bounds":[17.9885,42.5592,18.6884,43.4451],"center":[18.3391,43.1037]},"geometry":{"type":"Polygon","coordinates":[[[18.4374,42.5592],[18.421,42.5636],[18.3853,42.5665],[18.3705,42.5736],[18.3698,42.5744],[18.3745,42.6213],[18.3733,42.6433],[18.3462,42.6491],[18.3175,42.6705],[18.2689,42.7049],[18.2159,42.7463],[18.2116,42.7529],[18.203,42.7663],[18.1744,42.7869],[18.1515,42.8035],[18.0885,42.8451],[18.059,42.8604],[18.0585,42.8607],[18.0574,42.8621],[18.0399,42.8851],[18.0243,42.9223],[18.0145,42.9646],[18.0141,42.9666],[18.0144,42.976],[18.0156,43.0123],[18.0256,43.0281],[18.0357,43.0365],[18.0428,43.0424],[18.0528,43.071],[18.054,43.0874],[18.0556,43.1089],[18.0399,43.1204],[18.0194,43.1261],[18.0141,43.1275],[18.0106,43.1277],[17.9913,43.1291],[17.9885,43.1405],[17.9913,43.1561],[18.0071,43.1733],[18.0299,43.1819],[18.0457,43.1963],[18.0571,43.2077],[18.0543,43.2979],[18.0513,43.3621],[18.0471,43.3951],[18.0227,43.4237],[18.0251,43.4309],[18.0299,43.4451],[18.0985,43.4423],[18.1701,43.4423],[18.2573,43.4451],[18.3561,43.4381],[18.3649,43.3904],[18.3487,43.3458],[18.3771,43.3215],[18.4095,43.3336],[18.4501,43.3134],[18.5069,43.3215],[18.588,43.2687],[18.6326,43.2485],[18.6643,43.2332],[18.6884,43.2245],[18.6453,43.1802],[18.6291,43.1549],[18.6211,43.1246],[18.6206,43.1226],[18.6211,43.0964],[18.639,43.0202],[18.5984,43.0245],[18.539,43.0239],[18.483,43.0146],[18.4528,42.9934],[18.4335,42.9542],[18.434,42.9369],[18.444,42.9169],[18.4676,42.8817],[18.4733,42.8626],[18.466,42.8528],[18.4535,42.8457],[18.4437,42.8345],[18.4446,42.8171],[18.4539,42.7932],[18.4674,42.7692],[18.5022,42.7274],[18.5225,42.7119],[18.5397,42.6955],[18.55,42.6681],[18.5496,42.6389],[18.5428,42.6264],[18.5384,42.6183],[18.5172,42.603],[18.5068,42.5985],[18.4867,42.5898],[18.4937,42.5798],[18.4959,42.5709],[18.4921,42.5648],[18.4818,42.5637],[18.4705,42.5691],[18.459,42.5697],[18.4477,42.5662],[18.4374,42.5592]]]}},{"type":"Feature","properties":{"id":"BIH-2887","name":"Tuzla","nameBn":"তুজলা ক্যান্টন","type":"Canton","bounds":[18.0785,44.1488,19.0313,44.9186],"center":[18.5549,44.5325]},"geometry":{"type":"Polygon","coordinates":[[[18.2872,44.5753],[18.2874,44.5753],[18.3332,44.5739],[18.3847,44.5824],[18.3904,44.6053],[18.3846,44.6311],[18.3575,44.654],[18.3131,44.664],[18.2716,44.674],[18.2216,44.6869],[18.1801,44.6997],[18.1357,44.7126],[18.0942,44.7284],[18.0785,44.7412],[18.0785,44.7699],[18.0857,44.787],[18.1258,44.7913],[18.1686,44.7942],[18.2473,44.7942],[18.2874,44.8013],[18.3117,44.8285],[18.3332,44.8729],[18.3474,44.8986],[18.3732,44.9115],[18.3975,44.9186],[18.4605,44.9165],[18.4948,44.9093],[18.4948,44.8864],[18.4948,44.875],[18.5063,44.865],[18.5334,44.8636],[18.5578,44.8678],[18.5935,44.8793],[18.6493,44.8764],[18.7094,44.865],[18.748,44.845],[18.7624,44.8035],[18.7681,44.7634],[18.7752,44.7463],[18.8038,44.7448],[18.8053,44.7276],[18.7981,44.7048],[18.7709,44.6919],[18.7423,44.679],[18.7309,44.6675],[18.7294,44.6447],[18.7395,44.6247],[18.7781,44.5975],[18.8324,44.5517],[18.8482,44.5417],[18.8682,44.5417],[18.8911,44.5502],[18.9197,44.586],[18.9383,44.6175],[18.9512,44.6332],[18.9869,44.639],[19.0227,44.6332],[19.0299,44.6175],[19.0311,44.5675],[19.0313,44.5588],[19.0284,44.4902],[19.0199,44.4759],[18.9941,44.4601],[18.9769,44.4551],[18.9483,44.4379],[18.9226,44.4265],[18.8825,44.4251],[18.8382,44.4165],[18.8253,44.3922],[18.8067,44.3736],[18.7767,44.3607],[18.7538,44.3578],[18.7451,44.3407],[18.7523,44.2992],[18.7681,44.2734],[18.7824,44.2462],[18.7924,44.2148],[18.7867,44.1804],[18.7652,44.1504],[18.7631,44.1488],[18.7396,44.1731],[18.684,44.1731],[18.615,44.1706],[18.5945,44.1767],[18.5847,44.1973],[18.5569,44.1973],[18.5352,44.2009],[18.5303,44.2057],[18.5303,44.2347],[18.5158,44.2698],[18.5073,44.3049],[18.488,44.317],[18.4541,44.3291],[18.4299,44.3327],[18.4045,44.3533],[18.3924,44.3738],[18.3924,44.392],[18.3852,44.4113],[18.3707,44.4186],[18.3211,44.4174],[18.3054,44.4259],[18.2957,44.4464],[18.2957,44.467],[18.2957,44.4875],[18.2945,44.5118],[18.286,44.5287],[18.286,44.5432],[18.2872,44.5626],[18.2872,44.5753]]]}},{"type":"Feature","properties":{"id":"BIH-2225","name":"Una-Sana","nameBn":"উনা-সানা ক্যান্টন","type":"Canton","bounds":[15.7161,44.3505,16.8825,45.2185],"center":[16.299,44.6409]},"geometry":{"type":"Polygon","coordinates":[[[16.3162,45.0012],[16.3406,45.0059],[16.346,45.02],[16.3494,45.0162],[16.3552,45.0095],[16.3546,45.0016],[16.3489,44.9916],[16.326,44.9844],[16.2788,44.973],[16.2631,44.9544],[16.2631,44.9372],[16.273,44.9215],[16.3017,44.8972],[16.3332,44.89],[16.399,44.8857],[16.4691,44.8829],[16.5005,44.88],[16.5592,44.8771],[16.6136,44.8714],[16.6508,44.8657],[16.7037,44.8557],[16.7452,44.8371],[16.7895,44.8056],[16.8282,44.767],[16.8382,44.7412],[16.8382,44.7012],[16.8382,44.684],[16.8439,44.6726],[16.8697,44.674],[16.8782,44.6625],[16.8825,44.6211],[16.8825,44.571],[16.8811,44.5138],[16.8711,44.4966],[16.8611,44.4766],[16.8525,44.4594],[16.8096,44.458],[16.7537,44.4551],[16.6965,44.4709],[16.6264,44.4895],[16.5664,44.5023],[16.5277,44.5023],[16.5077,44.5009],[16.5034,44.4808],[16.512,44.4637],[16.5257,44.4553],[16.5178,44.4516],[16.4954,44.4212],[16.4794,44.4066],[16.4305,44.3987],[16.3974,44.3894],[16.363,44.3867],[16.3405,44.3815],[16.3048,44.3828],[16.2809,44.3815],[16.2663,44.3669],[16.2597,44.3576],[16.2478,44.3537],[16.2227,44.3563],[16.2117,44.3527],[16.2056,44.3505],[16.2029,44.3598],[16.1921,44.3674],[16.1713,44.3771],[16.1532,44.3804],[16.142,44.3808],[16.1383,44.3776],[16.1388,44.3854],[16.1454,44.3896],[16.1539,44.3936],[16.1599,44.4007],[16.1597,44.4161],[16.1529,44.4351],[16.1283,44.4843],[16.1231,44.5039],[16.1165,44.5215],[16.1049,44.5324],[16.0837,44.5349],[16.0473,44.5233],[16.0266,44.5252],[16.0061,44.541],[16.0139,44.557],[16.0305,44.5722],[16.0349,44.5854],[16.0432,44.5884],[16.0447,44.5894],[16.0411,44.6028],[16.0362,44.6153],[16.0283,44.6247],[16.016,44.629],[15.9916,44.6314],[15.9791,44.6344],[15.969,44.6392],[15.9556,44.6532],[15.9481,44.6781],[15.9374,44.689],[15.9298,44.6895],[15.9215,44.6861],[15.9131,44.6845],[15.9054,44.6901],[15.902,44.6988],[15.8993,44.7092],[15.8956,44.7186],[15.8888,44.7242],[15.8763,44.7248],[15.8692,44.7186],[15.8639,44.71],[15.8564,44.7036],[15.8478,44.7015],[15.83,44.7005],[15.8204,44.6983],[15.8057,44.6967],[15.797,44.7033],[15.7905,44.7134],[15.7828,44.7226],[15.7593,44.7342],[15.7537,44.7393],[15.7285,44.7691],[15.7173,44.7865],[15.7161,44.8032],[15.7306,44.817],[15.7512,44.8216],[15.7687,44.8273],[15.7734,44.845],[15.764,44.864],[15.748,44.882],[15.7343,44.9021],[15.7309,44.9272],[15.7341,44.9344],[15.7388,44.9449],[15.7636,44.9755],[15.7674,44.9932],[15.7556,45.0236],[15.756,45.0422],[15.7794,45.0854],[15.7838,45.1009],[15.78,45.1603],[15.781,45.168],[15.7923,45.1898],[15.8026,45.1965],[15.8248,45.211],[15.8789,45.2172],[15.9746,45.2154],[15.9975,45.2185],[16.0085,45.2182],[16.0204,45.2139],[16.0292,45.205],[16.0287,45.1963],[16.025,45.1889],[16.0244,45.1843],[16.0331,45.1797],[16.055,45.1764],[16.0675,45.1696],[16.0828,45.1516],[16.1041,45.1125],[16.1215,45.0962],[16.213,45.0315],[16.2412,45.019],[16.2793,45.0072],[16.3162,45.0012]]]}},{"type":"Feature","properties":{"id":"BIH-4805","name":"Vlasenica","nameBn":"ভ্লাসেনিকা","type":null,"bounds":[18.7366,43.9215,19.6189,44.5942],"center":[19.0758,44.1968]},"geometry":{"type":"Polygon","coordinates":[[[19.1796,44.5383],[19.1731,44.5314],[19.1653,44.5267],[19.1299,44.5183],[19.1273,44.5026],[19.1434,44.4582],[19.1414,44.4308],[19.1296,44.4162],[19.1158,44.4036],[19.1072,44.3827],[19.1089,44.3636],[19.1167,44.3437],[19.1389,44.3093],[19.157,44.2936],[19.1772,44.287],[19.22,44.2802],[19.2407,44.2727],[19.2495,44.2707],[19.2637,44.2702],[19.2959,44.2758],[19.3074,44.2742],[19.3243,44.264],[19.3416,44.2458],[19.354,44.2243],[19.3561,44.204],[19.3624,44.1912],[19.3812,44.1771],[19.4249,44.1538],[19.4355,44.1461],[19.4426,44.1432],[19.4485,44.1444],[19.4597,44.1527],[19.4657,44.1528],[19.4742,44.1449],[19.4764,44.127],[19.4827,44.1207],[19.4982,44.1102],[19.5162,44.0912],[19.522,44.085],[19.5546,44.0713],[19.5709,44.0569],[19.5802,44.0515],[19.5838,44.0543],[19.5899,44.0603],[19.5989,44.0626],[19.6114,44.0545],[19.6189,44.0357],[19.6104,44.0193],[19.5934,44.0056],[19.5522,43.9834],[19.5286,43.9772],[19.5041,43.9757],[19.4471,43.9798],[19.394,43.9771],[19.3791,43.9739],[19.3646,43.9733],[19.3517,43.9791],[19.3259,43.9966],[19.3006,44.0095],[19.2873,44.013],[19.2728,44.0124],[19.2521,44.0075],[19.2435,44.002],[19.238,43.9925],[19.2381,43.9854],[19.2429,43.9728],[19.2407,43.9657],[19.2293,43.9577],[19.241,43.9524],[19.225,43.9215],[19.1761,43.9622],[19.1274,43.9987],[19.0057,44.0474],[18.9084,44.092],[18.8232,44.1082],[18.7366,44.1203],[18.7495,44.1389],[18.7631,44.1488],[18.7652,44.1504],[18.7867,44.1804],[18.7924,44.2148],[18.7824,44.2462],[18.7681,44.2734],[18.7523,44.2992],[18.7451,44.3407],[18.7538,44.3578],[18.7767,44.3607],[18.8067,44.3736],[18.8253,44.3922],[18.8382,44.4165],[18.8825,44.4251],[18.9226,44.4265],[18.9483,44.4379],[18.9769,44.4551],[18.9941,44.4601],[19.0199,44.4759],[19.0284,44.4902],[19.0313,44.5588],[19.0311,44.5675],[19.0472,44.574],[19.0749,44.5878],[19.0993,44.5942],[19.1153,44.591],[19.1472,44.575],[19.1684,44.5548],[19.1796,44.5383]]]}},{"type":"Feature","properties":{"id":"BIH-2224","name":"West Bosnia","nameBn":"পশ্চিম বসনিয়া","type":"Canton","bounds":[16.1866,43.5277,17.5305,44.4553],"center":[16.8584,43.9773]},"geometry":{"type":"Polygon","coordinates":[[[16.3779,44.0574],[16.3672,44.0581],[16.3574,44.0622],[16.3461,44.0685],[16.3269,44.0824],[16.3122,44.1],[16.29,44.1391],[16.2755,44.1574],[16.2321,44.191],[16.2158,44.2082],[16.1971,44.2512],[16.1876,44.2824],[16.1866,44.2976],[16.1895,44.3085],[16.1997,44.3247],[16.2032,44.3331],[16.2059,44.3498],[16.2056,44.3505],[16.2117,44.3527],[16.2227,44.3563],[16.2478,44.3537],[16.2597,44.3576],[16.2663,44.3669],[16.2809,44.3815],[16.3048,44.3828],[16.3405,44.3815],[16.363,44.3867],[16.3974,44.3894],[16.4305,44.3987],[16.4794,44.4066],[16.4954,44.4212],[16.5178,44.4516],[16.5257,44.4553],[16.5563,44.4365],[16.585,44.4165],[16.6279,44.3907],[16.6894,44.3607],[16.7166,44.345],[16.7409,44.345],[16.7566,44.3421],[16.7681,44.3292],[16.7809,44.3106],[16.7995,44.2863],[16.8353,44.2777],[16.8539,44.2763],[16.8768,44.2605],[16.9168,44.2391],[16.9684,44.2191],[17.0155,44.199],[17.0456,44.1905],[17.0613,44.169],[17.0843,44.1575],[17.1071,44.1533],[17.1128,44.1275],[17.1143,44.096],[17.1286,44.0831],[17.1558,44.0788],[17.2488,44.0674],[17.249,44.0679],[17.2552,44.0545],[17.2724,44.032],[17.2909,44.0174],[17.2975,44.0068],[17.2988,43.9936],[17.3108,43.9777],[17.3134,43.9738],[17.3226,43.9658],[17.328,43.9447],[17.3386,43.9367],[17.3558,43.9221],[17.3729,43.9102],[17.3981,43.9089],[17.4259,43.9076],[17.4537,43.8758],[17.4592,43.8604],[17.4593,43.8604],[17.4603,43.8573],[17.4657,43.8427],[17.4656,43.8428],[17.4365,43.8507],[17.418,43.8586],[17.3929,43.8573],[17.3899,43.8523],[17.3835,43.8415],[17.3816,43.8221],[17.3809,43.8149],[17.3809,43.7951],[17.3809,43.7819],[17.3915,43.7673],[17.3915,43.7555],[17.3915,43.7449],[17.4021,43.7449],[17.4167,43.7449],[17.4445,43.7395],[17.4603,43.7197],[17.4909,43.6919],[17.5041,43.6747],[17.5159,43.6667],[17.5305,43.6561],[17.5305,43.6504],[17.5305,43.6402],[17.5265,43.619],[17.5119,43.6058],[17.4987,43.5872],[17.4762,43.5819],[17.4418,43.5767],[17.414,43.5767],[17.3915,43.574],[17.3584,43.5608],[17.3346,43.5502],[17.2988,43.5383],[17.2724,43.5383],[17.2604,43.5475],[17.2538,43.5595],[17.23,43.5647],[17.2141,43.5555],[17.1691,43.5462],[17.1175,43.5462],[17.1075,43.5435],[17.0623,43.5277],[17.0305,43.5485],[16.9819,43.5897],[16.8238,43.7073],[16.7126,43.7715],[16.6982,43.7881],[16.6898,43.8093],[16.6861,43.8261],[16.6786,43.8407],[16.6374,43.8684],[16.6048,43.9011],[16.5558,43.9375],[16.5274,43.9679],[16.5165,43.9795],[16.501,43.9927],[16.4835,44.0025],[16.4396,44.014],[16.4315,44.0258],[16.4269,44.0405],[16.414,44.0558],[16.404,44.0588],[16.3779,44.0574]]]}},{"type":"Feature","properties":{"id":"BIH-2227","name":"West Herzegovina","nameBn":"ওয়েস্ট হেরেজোভিনা ক্যান্টন","type":"Canton","bounds":[17.0623,43.0729,17.7503,43.6535],"center":[17.4063,43.3908]},"geometry":{"type":"Polygon","coordinates":[[[17.4509,43.1482],[17.4421,43.1524],[17.4268,43.1657],[17.4152,43.185],[17.4068,43.2054],[17.4002,43.216],[17.3897,43.2231],[17.3694,43.2326],[17.3287,43.2604],[17.2899,43.3034],[17.2676,43.3533],[17.2864,43.4374],[17.2705,43.4632],[17.2395,43.4784],[17.1428,43.4893],[17.0846,43.5132],[17.0623,43.5277],[17.1075,43.5435],[17.1175,43.5462],[17.1691,43.5462],[17.2141,43.5555],[17.23,43.5647],[17.2538,43.5595],[17.2604,43.5475],[17.2724,43.5383],[17.2988,43.5383],[17.3346,43.5502],[17.3584,43.5608],[17.3915,43.574],[17.414,43.5767],[17.4418,43.5767],[17.4762,43.5819],[17.4987,43.5872],[17.5119,43.6058],[17.5265,43.619],[17.5305,43.6402],[17.5305,43.6504],[17.5359,43.6513],[17.5477,43.6535],[17.5698,43.6522],[17.5715,43.6521],[17.5783,43.6441],[17.5861,43.6349],[17.5861,43.6165],[17.5861,43.6071],[17.5953,43.5979],[17.5953,43.5979],[17.602,43.5899],[17.602,43.5701],[17.602,43.5541],[17.5993,43.552],[17.5953,43.5489],[17.5808,43.5489],[17.5596,43.5489],[17.5477,43.5489],[17.5404,43.5457],[17.5385,43.5449],[17.5371,43.5317],[17.5371,43.5251],[17.551,43.52],[17.5516,43.5197],[17.5575,43.5201],[17.5729,43.5211],[17.5875,43.5039],[17.6059,43.4801],[17.6285,43.4695],[17.6337,43.4563],[17.6443,43.4391],[17.6471,43.4391],[17.6629,43.4311],[17.7053,43.4259],[17.7093,43.4087],[17.7121,43.3951],[17.7131,43.3901],[17.7143,43.3706],[17.7145,43.3675],[17.7265,43.3463],[17.7359,43.3325],[17.7383,43.3291],[17.7398,43.3258],[17.7503,43.3041],[17.7503,43.2841],[17.7502,43.2841],[17.7473,43.2842],[17.6906,43.2868],[17.6626,43.2898],[17.6417,43.2921],[17.6191,43.2987],[17.5953,43.3001],[17.5847,43.2921],[17.5821,43.2749],[17.585,43.2686],[17.5953,43.2457],[17.5977,43.2454],[17.6205,43.2418],[17.6509,43.2166],[17.6526,43.2128],[17.6643,43.1875],[17.6537,43.1479],[17.6295,43.1053],[17.598,43.0729],[17.5874,43.0821],[17.4509,43.1482]]]}},{"type":"Feature","properties":{"id":"BIH-2889","name":"Zenica-Doboj","nameBn":"জেনিকা-ডোবোজ ক্যান্টন","type":"Canton","bounds":[17.7328,43.9045,18.7631,44.7269],"center":[18.2479,44.2843]},"geometry":{"type":"Polygon","coordinates":[[[17.7328,44.3753],[17.7652,44.3929],[17.8153,44.4129],[17.8568,44.4301],[17.8925,44.4501],[17.9169,44.4701],[17.9211,44.4945],[17.9211,44.5188],[17.9154,44.546],[17.8911,44.5631],[17.8568,44.5874],[17.8353,44.6161],[17.8353,44.639],[17.8525,44.6675],[17.8883,44.7198],[17.9226,44.7269],[17.9741,44.7241],[18.0156,44.7198],[18.0499,44.6969],[18.0828,44.6568],[18.1171,44.6039],[18.1372,44.5796],[18.1644,44.5767],[18.2101,44.5753],[18.2872,44.5753],[18.2872,44.5626],[18.286,44.5432],[18.286,44.5287],[18.2945,44.5118],[18.2957,44.4875],[18.2957,44.467],[18.2957,44.4464],[18.3054,44.4259],[18.3211,44.4174],[18.3707,44.4186],[18.3852,44.4113],[18.3924,44.392],[18.3924,44.3738],[18.4045,44.3533],[18.4299,44.3327],[18.4541,44.3291],[18.488,44.317],[18.5073,44.3049],[18.5158,44.2698],[18.5303,44.2347],[18.5303,44.2057],[18.5352,44.2009],[18.5569,44.1973],[18.5847,44.1973],[18.5945,44.1767],[18.615,44.1706],[18.684,44.1731],[18.7396,44.1731],[18.7631,44.1488],[18.7495,44.1389],[18.7366,44.1203],[18.7037,44.0989],[18.6594,44.066],[18.6236,44.0503],[18.5868,44.0491],[18.5811,44.0569],[18.5569,44.0606],[18.54,44.069],[18.5303,44.0823],[18.5146,44.0993],[18.4989,44.1089],[18.4783,44.1114],[18.4614,44.1114],[18.4408,44.1114],[18.4372,44.1077],[18.4263,44.0981],[18.413,44.0799],[18.3961,44.0702],[18.3767,44.0702],[18.3513,44.0702],[18.3392,44.063],[18.338,44.0485],[18.3392,44.0158],[18.3271,44.0049],[18.2993,43.9941],[18.2594,43.9928],[18.2255,43.9941],[18.1953,43.9868],[18.188,43.9674],[18.188,43.9408],[18.1795,43.9311],[18.165,43.9263],[18.1542,43.9263],[18.1421,43.9178],[18.1445,43.9082],[18.1465,43.9066],[18.1348,43.9045],[18.1227,43.9045],[18.1142,43.919],[18.09,43.9481],[18.0816,43.9554],[18.0731,43.9554],[18.061,43.9554],[18.061,43.965],[18.0501,43.9759],[18.0526,43.9856],[18.0501,44.0001],[18.0417,44.0062],[18.0126,44.0049],[17.9969,44.0049],[17.9896,44.0352],[17.9848,44.0569],[17.9727,44.0666],[17.9618,44.0666],[17.9449,44.0666],[17.9256,44.0751],[17.9195,44.0908],[17.911,44.1138],[17.911,44.1283],[17.8941,44.1307],[17.8651,44.1271],[17.8397,44.1452],[17.8058,44.1682],[17.7937,44.1924],[17.7913,44.2444],[17.7961,44.2868],[17.7925,44.3049],[17.7719,44.323],[17.7525,44.3376],[17.7417,44.3605],[17.7328,44.3753]]]}}]}