{"type":"FeatureCollection","features":[{"type":"Feature","properties":{"id":"BLZ-1323","name":"Belize","nameBn":"বেলিজ","type":"District","bounds":[-88.6413,17.1045,-87.7831,18.2092],"center":[-88.4189,17.5367]},"geometry":{"type":"MultiPolygon","coordinates":[[[[-88.1669,17.9599],[-88.2083,17.882],[-88.2023,17.8561],[-88.2143,17.7731],[-88.2388,17.6904],[-88.2467,17.6737],[-88.2727,17.644],[-88.2832,17.6256],[-88.2877,17.6042],[-88.2833,17.5803],[-88.2712,17.5681],[-88.2356,17.5507],[-88.2281,17.5356],[-88.2186,17.5273],[-88.1767,17.5203],[-88.1673,17.512],[-88.1794,17.4926],[-88.2051,17.4929],[-88.2308,17.4965],[-88.2423,17.4875],[-88.2449,17.472],[-88.2863,17.3397],[-88.296,17.2381],[-88.297,17.2172],[-88.3005,17.1779],[-88.2934,17.1568],[-88.2895,17.1378],[-88.2894,17.1358],[-88.3025,17.1225],[-88.323,17.115],[-88.3282,17.1121],[-88.3375,17.1092],[-88.6024,17.1045],[-88.58,17.1123],[-88.5769,17.1139],[-88.5746,17.116],[-88.5726,17.1183],[-88.5691,17.1244],[-88.5682,17.1294],[-88.5664,17.1328],[-88.5646,17.1357],[-88.5623,17.1369],[-88.5604,17.1391],[-88.5582,17.1443],[-88.5547,17.1551],[-88.5535,17.1622],[-88.5485,17.174],[-88.5483,17.1832],[-88.5491,17.1943],[-88.5575,17.2134],[-88.5687,17.229],[-88.57,17.2343],[-88.5687,17.2704],[-88.5687,17.271],[-88.5788,17.4703],[-88.5812,17.484],[-88.585,17.4899],[-88.5934,17.486],[-88.5993,17.4734],[-88.6053,17.4635],[-88.6289,17.454],[-88.6413,17.5988],[-88.6406,17.6168],[-88.6277,17.6519],[-88.6163,17.6689],[-88.5869,17.6821],[-88.5767,17.6849],[-88.5685,17.6884],[-88.5639,17.693],[-88.5634,17.6995],[-88.5646,17.7047],[-88.5696,17.7177],[-88.5701,17.7247],[-88.5671,17.7485],[-88.5673,17.7542],[-88.5704,17.7765],[-88.5705,17.7821],[-88.57,17.7865],[-88.5639,17.813],[-88.5636,17.8259],[-88.5644,17.832],[-88.568,17.8454],[-88.5686,17.8526],[-88.5676,17.8627],[-88.5654,17.8714],[-88.5591,17.8887],[-88.5062,17.9176],[-88.2843,17.9723],[-88.1669,17.9599]]],[[[-87.8383,17.3885],[-87.8258,17.3992],[-87.8142,17.3813],[-87.7974,17.3332],[-87.802,17.3259],[-87.8037,17.316],[-87.8036,17.2923],[-87.8104,17.2923],[-87.81,17.3026],[-87.8104,17.306],[-87.8161,17.3043],[-87.8199,17.3015],[-87.8224,17.2975],[-87.8246,17.2923],[-87.8238,17.3529],[-87.8272,17.3781],[-87.8383,17.3885]]],[[[-87.8277,17.5456],[-87.8157,17.5452],[-87.8015,17.5418],[-87.7892,17.532],[-87.7831,17.512],[-87.7872,17.4969],[-87.8079,17.4578],[-87.8211,17.4407],[-87.8313,17.4237],[-87.8458,17.4146],[-87.8656,17.4295],[-87.8759,17.4132],[-87.8885,17.4039],[-87.9001,17.3918],[-87.9072,17.3674],[-87.9134,17.3227],[-87.9159,17.3154],[-87.921,17.3052],[-87.9255,17.2928],[-87.9265,17.2786],[-87.9407,17.2923],[-87.937,17.2956],[-87.9357,17.299],[-87.9353,17.3024],[-87.9339,17.306],[-87.9315,17.3272],[-87.9223,17.3625],[-87.9175,17.4105],[-87.9095,17.4263],[-87.8967,17.4377],[-87.8793,17.4499],[-87.8588,17.4704],[-87.8487,17.4713],[-87.8338,17.4653],[-87.8213,17.4636],[-87.8116,17.4723],[-87.8039,17.4919],[-87.8021,17.5129],[-87.8104,17.5256],[-87.8214,17.5162],[-87.8307,17.5111],[-87.8383,17.512],[-87.8378,17.5184],[-87.8277,17.5456]]],[[[-88.0773,17.6418],[-88.0635,17.6306],[-88.0536,17.6063],[-88.0438,17.553],[-88.0506,17.553],[-88.0557,17.5626],[-88.0644,17.5864],[-88.0773,17.6418]]],[[[-88.1605,17.6828],[-88.1395,17.692],[-88.0828,17.7292],[-88.0711,17.7343],[-88.0803,17.7018],[-88.1037,17.6818],[-88.1349,17.6718],[-88.1673,17.6691],[-88.1674,17.6738],[-88.166,17.6768],[-88.1605,17.6828]]],[[[-87.9134,18.0259],[-87.9072,18.0259],[-87.9151,17.9827],[-87.9346,17.9429],[-87.9658,17.9138],[-88.009,17.9025],[-88.009,17.9092],[-87.9986,17.9089],[-87.9954,17.9092],[-87.9589,17.9343],[-87.9459,17.9518],[-87.9407,17.9775],[-87.9565,17.9768],[-87.9523,18.0078],[-87.9339,18.0703],[-87.9318,18.0747],[-87.9271,18.0783],[-87.9224,18.083],[-87.9203,18.0908],[-87.9197,18.1006],[-87.9049,18.1532],[-87.895,18.1621],[-87.8793,18.1557],[-87.8573,18.1697],[-87.8473,18.156],[-87.849,18.1338],[-87.8622,18.1221],[-87.8696,18.1108],[-87.89,18.057],[-87.8998,18.039],[-87.9066,18.0435],[-87.9134,18.0465],[-87.9159,18.036],[-87.9197,18.0285],[-87.9254,18.0231],[-87.9339,18.0191],[-87.9339,18.0124],[-87.9265,17.998],[-87.9171,18.0112],[-87.9149,18.0172],[-87.9134,18.0259]]],[[[-88.0956,17.5174],[-88.077,17.5037],[-88.0677,17.4905],[-88.0698,17.4807],[-88.0726,17.4761],[-88.0729,17.4701],[-88.0771,17.4611],[-88.084,17.4618],[-88.0858,17.4701],[-88.0871,17.4909],[-88.0885,17.4953],[-88.0965,17.4943],[-88.1051,17.4981],[-88.1109,17.5051],[-88.1142,17.5101],[-88.1173,17.5129],[-88.1172,17.5188],[-88.1105,17.523],[-88.0956,17.5174]]],[[[-87.9691,18.0909],[-87.9633,18.0932],[-87.9603,18.0904],[-87.9625,18.08],[-87.9706,18.0731],[-87.9814,18.0713],[-87.9844,18.0776],[-87.9772,18.0875],[-87.9721,18.0907],[-87.9691,18.0909]]],[[[-87.9395,18.1186],[-87.9371,18.1147],[-87.9364,18.1039],[-87.9423,18.0935],[-87.9505,18.0876],[-87.954,18.0883],[-87.9553,18.0934],[-87.9569,18.0974],[-87.9552,18.1008],[-87.9501,18.1036],[-87.9448,18.1079],[-87.943,18.1135],[-87.9412,18.1172],[-87.9395,18.1186]]],[[[-87.8784,18.2082],[-87.8747,18.2065],[-87.8741,18.2025],[-87.8747,18.1973],[-87.8783,18.1873],[-87.8878,18.1756],[-87.8935,18.1804],[-87.8908,18.1975],[-87.8868,18.2034],[-87.8837,18.2011],[-87.8832,18.2031],[-87.8848,18.2075],[-87.8844,18.2092],[-87.881,18.2085],[-87.8784,18.2082]]]]}},{"type":"Feature","properties":{"id":"BLZ-1324","name":"Cayo","nameBn":"কায়ো জেলা","type":"District","bounds":[-89.1931,16.3926,-88.5483,17.4899],"center":[-88.8833,16.9902]},"geometry":{"type":"Polygon","coordinates":[[[-89.1931,16.3926],[-89.1844,16.4959],[-89.1661,16.777],[-89.1492,17.0363],[-89.1507,17.321],[-89.1205,17.3449],[-89.079,17.3713],[-89.0649,17.3763],[-89.0539,17.3768],[-89.046,17.3738],[-89.038,17.372],[-88.9218,17.3846],[-88.9079,17.389],[-88.8975,17.396],[-88.8916,17.4041],[-88.8843,17.4119],[-88.8776,17.4142],[-88.8626,17.4118],[-88.8449,17.4105],[-88.8213,17.4115],[-88.811,17.4108],[-88.7965,17.4122],[-88.7697,17.4111],[-88.7469,17.4139],[-88.7291,17.4201],[-88.6996,17.439],[-88.6826,17.445],[-88.6709,17.4468],[-88.6506,17.4565],[-88.643,17.4584],[-88.6289,17.454],[-88.6053,17.4635],[-88.5993,17.4734],[-88.5934,17.486],[-88.585,17.4899],[-88.5812,17.484],[-88.5788,17.4703],[-88.5687,17.271],[-88.5687,17.2704],[-88.57,17.2343],[-88.5687,17.229],[-88.5575,17.2134],[-88.5491,17.1943],[-88.5483,17.1832],[-88.5485,17.174],[-88.5535,17.1622],[-88.5547,17.1551],[-88.5582,17.1443],[-88.5604,17.1391],[-88.5623,17.1369],[-88.5646,17.1357],[-88.5664,17.1328],[-88.5682,17.1294],[-88.5691,17.1244],[-88.5726,17.1183],[-88.5746,17.116],[-88.5769,17.1139],[-88.58,17.1123],[-88.6024,17.1045],[-88.6059,17.0946],[-88.6021,17.0863],[-88.5878,17.0636],[-88.5738,17.052],[-88.5671,17.0451],[-88.5674,17.0366],[-88.5721,17.032],[-88.5776,17.0283],[-88.581,17.0239],[-88.5913,17.0036],[-88.5972,16.9876],[-88.6036,16.9762],[-88.6097,16.9677],[-88.6212,16.9596],[-88.6261,16.9552],[-88.6331,16.9437],[-88.6631,16.9119],[-88.6648,16.907],[-88.6649,16.9026],[-88.6639,16.8985],[-88.6641,16.8926],[-88.6664,16.879],[-88.6667,16.8739],[-88.6651,16.8613],[-88.6661,16.8563],[-88.6678,16.852],[-88.6704,16.8487],[-88.6738,16.8461],[-88.6833,16.8418],[-88.689,16.8366],[-88.6907,16.8334],[-88.6899,16.8297],[-88.6767,16.8207],[-88.6729,16.8165],[-88.6734,16.8134],[-88.6764,16.8109],[-88.6805,16.8097],[-88.6984,16.8069],[-88.7176,16.8004],[-88.7229,16.797],[-88.7278,16.7924],[-88.7554,16.7516],[-88.7613,16.7366],[-88.7719,16.7177],[-88.7776,16.6979],[-88.7775,16.6938],[-88.7742,16.681],[-88.791,16.6801],[-88.7988,16.6761],[-88.8016,16.6739],[-88.8074,16.6682],[-88.8182,16.655],[-88.8208,16.6502],[-88.8216,16.646],[-88.8173,16.6292],[-88.8166,16.6239],[-88.8194,16.6136],[-88.8395,16.5937],[-88.8557,16.5818],[-88.8601,16.5798],[-88.8682,16.5776],[-88.8752,16.5741],[-88.902,16.5543],[-88.9109,16.549],[-88.917,16.5474],[-88.9218,16.5482],[-88.9278,16.547],[-88.9391,16.542],[-88.9447,16.5383],[-88.949,16.5344],[-88.9536,16.528],[-88.9537,16.5245],[-88.9524,16.5163],[-88.9565,16.5133],[-88.9959,16.4989],[-89.0014,16.4977],[-89.0057,16.4977],[-89.009,16.4996],[-89.0157,16.5065],[-89.019,16.5093],[-89.0222,16.5114],[-89.0269,16.5129],[-89.0295,16.5115],[-89.0359,16.5043],[-89.0563,16.4852],[-89.0641,16.4798],[-89.0706,16.4766],[-89.0874,16.4748],[-89.0946,16.4725],[-89.0985,16.4717],[-89.1116,16.4707],[-89.1468,16.4568],[-89.1513,16.4539],[-89.1556,16.449],[-89.1589,16.4443],[-89.1595,16.4423],[-89.1603,16.4371],[-89.1619,16.4333],[-89.1648,16.4288],[-89.1715,16.4208],[-89.1765,16.4158],[-89.1822,16.4089],[-89.1931,16.3926]]]}},{"type":"Feature","properties":{"id":"BLZ-1325","name":"Corozal","nameBn":"কোরুজাল জেলা","type":"District","bounds":[-88.6141,17.9599,-88.0836,18.4908],"center":[-88.3492,18.1667]},"geometry":{"type":"Polygon","coordinates":[[[-88.4132,18.4908],[-88.408,18.4889],[-88.3984,18.4801],[-88.3908,18.4757],[-88.3849,18.4766],[-88.3791,18.4797],[-88.3714,18.4818],[-88.3095,18.4823],[-88.3038,18.4813],[-88.3038,18.4778],[-88.2866,18.4628],[-88.3063,18.4383],[-88.3837,18.385],[-88.391,18.3706],[-88.3795,18.3549],[-88.3654,18.3541],[-88.3175,18.3748],[-88.3231,18.3603],[-88.3324,18.3448],[-88.3553,18.3171],[-88.3608,18.3083],[-88.358,18.3037],[-88.3503,18.3042],[-88.3414,18.3102],[-88.3246,18.3283],[-88.2914,18.3511],[-88.2757,18.3582],[-88.2591,18.3612],[-88.2368,18.3581],[-88.2078,18.3446],[-88.1947,18.3406],[-88.1734,18.3437],[-88.1431,18.3638],[-88.1085,18.3739],[-88.0968,18.3754],[-88.0915,18.3717],[-88.0935,18.3576],[-88.099,18.3484],[-88.1189,18.3338],[-88.1417,18.3244],[-88.1461,18.3202],[-88.1465,18.3093],[-88.1393,18.307],[-88.1305,18.3105],[-88.123,18.3223],[-88.1149,18.3278],[-88.1046,18.3321],[-88.095,18.3338],[-88.0917,18.3284],[-88.0836,18.2101],[-88.0915,18.1184],[-88.0948,18.1028],[-88.1088,18.0788],[-88.112,18.0632],[-88.1496,17.9713],[-88.1667,17.9601],[-88.1669,17.9599],[-88.2843,17.9723],[-88.4218,18.0914],[-88.4944,18.186],[-88.5402,18.2181],[-88.6039,18.245],[-88.6141,18.247],[-88.6132,18.2506],[-88.6115,18.2664],[-88.6077,18.2834],[-88.5981,18.2995],[-88.5672,18.3335],[-88.5548,18.3522],[-88.5513,18.3637],[-88.5474,18.3891],[-88.5384,18.4131],[-88.533,18.4433],[-88.5278,18.4541],[-88.5202,18.4616],[-88.4892,18.4845],[-88.4792,18.4834],[-88.4699,18.4785],[-88.4596,18.4757],[-88.4508,18.4769],[-88.4309,18.4838],[-88.42,18.489],[-88.4132,18.4908]]]}},{"type":"Feature","properties":{"id":"BLZ-1326","name":"Orange Walk","nameBn":"ওরেঞ্জ ওয়াক জেলা","type":"District","bounds":[-89.1614,17.321,-88.2843,18.247],"center":[-88.8552,17.7122]},"geometry":{"type":"Polygon","coordinates":[[[-89.1507,17.321],[-89.1562,17.5982],[-89.1605,17.8143],[-89.1614,17.9014],[-89.1539,17.9411],[-89.1463,17.9515],[-89.1326,17.9703],[-89.0494,17.9992],[-89.028,17.9921],[-89.0115,17.9778],[-88.9966,17.9618],[-88.9798,17.9494],[-88.9678,17.9483],[-88.9565,17.9505],[-88.947,17.9485],[-88.9333,17.9204],[-88.9205,17.9109],[-88.8803,17.8885],[-88.8714,17.891],[-88.8654,17.899],[-88.8608,17.9211],[-88.8564,17.9283],[-88.8054,17.965],[-88.7959,17.9756],[-88.7816,18.0147],[-88.7769,18.0238],[-88.762,18.0356],[-88.7484,18.0433],[-88.7364,18.0519],[-88.7266,18.0667],[-88.7235,18.0775],[-88.7204,18.1001],[-88.7177,18.11],[-88.6929,18.15],[-88.6895,18.1612],[-88.693,18.1752],[-88.6966,18.1781],[-88.6681,18.1982],[-88.639,18.2116],[-88.627,18.2203],[-88.617,18.2354],[-88.6141,18.247],[-88.6039,18.245],[-88.5402,18.2181],[-88.4944,18.186],[-88.4218,18.0914],[-88.2843,17.9723],[-88.5062,17.9176],[-88.5591,17.8887],[-88.5654,17.8714],[-88.5676,17.8627],[-88.5686,17.8526],[-88.568,17.8454],[-88.5644,17.832],[-88.5636,17.8259],[-88.5639,17.813],[-88.57,17.7865],[-88.5705,17.7821],[-88.5704,17.7765],[-88.5673,17.7542],[-88.5671,17.7485],[-88.5701,17.7247],[-88.5696,17.7177],[-88.5646,17.7047],[-88.5634,17.6995],[-88.5639,17.693],[-88.5685,17.6884],[-88.5767,17.6849],[-88.5869,17.6821],[-88.6163,17.6689],[-88.6277,17.6519],[-88.6406,17.6168],[-88.6413,17.5988],[-88.6289,17.454],[-88.643,17.4584],[-88.6506,17.4565],[-88.6709,17.4468],[-88.6826,17.445],[-88.6996,17.439],[-88.7291,17.4201],[-88.7469,17.4139],[-88.7697,17.4111],[-88.7965,17.4122],[-88.811,17.4108],[-88.8213,17.4115],[-88.8449,17.4105],[-88.8626,17.4118],[-88.8776,17.4142],[-88.8843,17.4119],[-88.8916,17.4041],[-88.8975,17.396],[-88.9079,17.389],[-88.9218,17.3846],[-89.038,17.372],[-89.046,17.3738],[-89.0539,17.3768],[-89.0649,17.3763],[-89.079,17.3713],[-89.1205,17.3449],[-89.1507,17.321]]]}},{"type":"Feature","properties":{"id":"BLZ-1355","name":"Stann Creek","nameBn":"স্টান জেলা","type":"District","bounds":[-88.7776,16.4977,-88.2151,17.1358],"center":[-88.4963,16.809]},"geometry":{"type":"Polygon","coordinates":[[[-88.2894,17.1358],[-88.2886,17.1269],[-88.2833,17.1039],[-88.2794,17.0915],[-88.2699,17.0863],[-88.2486,17.0794],[-88.2365,17.0642],[-88.2282,17.0449],[-88.2235,17.0231],[-88.2209,16.9914],[-88.2151,16.9671],[-88.2174,16.9555],[-88.2237,16.9529],[-88.2325,16.9531],[-88.2423,16.9497],[-88.2533,16.9399],[-88.267,16.9247],[-88.2785,16.9074],[-88.2833,16.8913],[-88.2789,16.873],[-88.2593,16.8434],[-88.2555,16.8262],[-88.2537,16.8261],[-88.2502,16.8234],[-88.2477,16.8189],[-88.2486,16.8131],[-88.2523,16.8122],[-88.2655,16.8139],[-88.2697,16.8131],[-88.2824,16.8034],[-88.2875,16.7973],[-88.2895,16.7883],[-88.2917,16.7834],[-88.2967,16.7785],[-88.3016,16.7717],[-88.3038,16.7613],[-88.3028,16.7493],[-88.2981,16.7335],[-88.297,16.7238],[-88.3062,16.6529],[-88.3124,16.642],[-88.3212,16.6334],[-88.3312,16.6207],[-88.3426,16.5798],[-88.3481,16.5673],[-88.3515,16.5497],[-88.3448,16.5246],[-88.349,16.5153],[-88.3561,16.5065],[-88.3629,16.5058],[-88.3659,16.5214],[-88.3345,16.6351],[-88.3177,16.6522],[-88.3113,16.6623],[-88.3376,16.6492],[-88.3647,16.5837],[-88.3864,16.5593],[-88.3798,16.5583],[-88.3659,16.5518],[-88.3726,16.5485],[-88.3778,16.5471],[-88.384,16.548],[-88.3932,16.5518],[-88.3911,16.543],[-88.3885,16.5389],[-88.3833,16.5378],[-88.3728,16.5382],[-88.3728,16.532],[-88.3834,16.5251],[-88.3909,16.515],[-88.3927,16.503],[-88.3901,16.4977],[-88.4016,16.5022],[-88.4043,16.5099],[-88.4084,16.5109],[-88.4184,16.5116],[-88.4391,16.5083],[-88.4437,16.5086],[-88.4492,16.5098],[-88.4595,16.5102],[-88.4637,16.5097],[-88.5031,16.5121],[-88.506,16.5113],[-88.5122,16.5111],[-88.5528,16.5165],[-88.5588,16.519],[-88.5572,16.5233],[-88.5552,16.5258],[-88.5531,16.5297],[-88.553,16.5339],[-88.5524,16.5372],[-88.5511,16.5537],[-88.5497,16.5599],[-88.5493,16.5634],[-88.5495,16.5671],[-88.5514,16.5721],[-88.5555,16.5797],[-88.5581,16.5834],[-88.5602,16.5879],[-88.5631,16.5919],[-88.5651,16.5957],[-88.5682,16.5996],[-88.5715,16.6048],[-88.5837,16.6177],[-88.5881,16.6233],[-88.5885,16.6283],[-88.5847,16.6374],[-88.5843,16.6416],[-88.5846,16.6457],[-88.5872,16.6499],[-88.5901,16.6583],[-88.5931,16.663],[-88.5981,16.6673],[-88.6329,16.686],[-88.6476,16.6892],[-88.6702,16.6918],[-88.7452,16.6901],[-88.7742,16.681],[-88.7775,16.6938],[-88.7776,16.6979],[-88.7719,16.7177],[-88.7613,16.7366],[-88.7554,16.7516],[-88.7278,16.7924],[-88.7229,16.797],[-88.7176,16.8004],[-88.6984,16.8069],[-88.6805,16.8097],[-88.6764,16.8109],[-88.6734,16.8134],[-88.6729,16.8165],[-88.6767,16.8207],[-88.6899,16.8297],[-88.6907,16.8334],[-88.689,16.8366],[-88.6833,16.8418],[-88.6738,16.8461],[-88.6704,16.8487],[-88.6678,16.852],[-88.6661,16.8563],[-88.6651,16.8613],[-88.6667,16.8739],[-88.6664,16.879],[-88.6641,16.8926],[-88.6639,16.8985],[-88.6649,16.9026],[-88.6648,16.907],[-88.6631,16.9119],[-88.6331,16.9437],[-88.6261,16.9552],[-88.6212,16.9596],[-88.6097,16.9677],[-88.6036,16.9762],[-88.5972,16.9876],[-88.5913,17.0036],[-88.581,17.0239],[-88.5776,17.0283],[-88.5721,17.032],[-88.5674,17.0366],[-88.5671,17.0451],[-88.5738,17.052],[-88.5878,17.0636],[-88.6021,17.0863],[-88.6059,17.0946],[-88.6024,17.1045],[-88.3375,17.1092],[-88.3282,17.1121],[-88.323,17.115],[-88.3025,17.1225],[-88.2894,17.1358]]]}},{"type":"Feature","properties":{"id":"BLZ-1356","name":"Toledo","nameBn":"তলেডু জেলা","type":"District","bounds":[-89.2365,15.8797,-88.3864,16.6918],"center":[-88.8117,16.3761]},"geometry":{"type":"Polygon","coordinates":[[[-89.2282,15.8808],[-89.2365,15.8939],[-89.236,15.9065],[-89.2341,15.9549],[-89.2085,16.1861],[-89.1931,16.3926],[-89.1822,16.4089],[-89.1765,16.4158],[-89.1715,16.4208],[-89.1648,16.4288],[-89.1619,16.4333],[-89.1603,16.4371],[-89.1595,16.4423],[-89.1589,16.4443],[-89.1556,16.449],[-89.1513,16.4539],[-89.1468,16.4568],[-89.1116,16.4707],[-89.0985,16.4717],[-89.0946,16.4725],[-89.0874,16.4748],[-89.0706,16.4766],[-89.0641,16.4798],[-89.0563,16.4852],[-89.0359,16.5043],[-89.0295,16.5115],[-89.0269,16.5129],[-89.0222,16.5114],[-89.019,16.5093],[-89.0157,16.5065],[-89.009,16.4996],[-89.0057,16.4977],[-89.0014,16.4977],[-88.9959,16.4989],[-88.9565,16.5133],[-88.9524,16.5163],[-88.9537,16.5245],[-88.9536,16.528],[-88.949,16.5344],[-88.9447,16.5383],[-88.9391,16.542],[-88.9278,16.547],[-88.9218,16.5482],[-88.917,16.5474],[-88.9109,16.549],[-88.902,16.5543],[-88.8752,16.5741],[-88.8682,16.5776],[-88.8601,16.5798],[-88.8557,16.5818],[-88.8395,16.5937],[-88.8194,16.6136],[-88.8166,16.6239],[-88.8173,16.6292],[-88.8216,16.646],[-88.8208,16.6502],[-88.8182,16.655],[-88.8074,16.6682],[-88.8016,16.6739],[-88.7988,16.6761],[-88.791,16.6801],[-88.7742,16.681],[-88.7452,16.6901],[-88.6702,16.6918],[-88.6476,16.6892],[-88.6329,16.686],[-88.5981,16.6673],[-88.5931,16.663],[-88.5901,16.6583],[-88.5872,16.6499],[-88.5846,16.6457],[-88.5843,16.6416],[-88.5847,16.6374],[-88.5885,16.6283],[-88.5881,16.6233],[-88.5837,16.6177],[-88.5715,16.6048],[-88.5682,16.5996],[-88.5651,16.5957],[-88.5631,16.5919],[-88.5602,16.5879],[-88.5581,16.5834],[-88.5555,16.5797],[-88.5514,16.5721],[-88.5495,16.5671],[-88.5493,16.5634],[-88.5497,16.5599],[-88.5511,16.5537],[-88.5524,16.5372],[-88.553,16.5339],[-88.5531,16.5297],[-88.5552,16.5258],[-88.5572,16.5233],[-88.5588,16.519],[-88.5528,16.5165],[-88.5122,16.5111],[-88.506,16.5113],[-88.5031,16.5121],[-88.4637,16.5097],[-88.4595,16.5102],[-88.4492,16.5098],[-88.4437,16.5086],[-88.4391,16.5083],[-88.4184,16.5116],[-88.4084,16.5109],[-88.4043,16.5099],[-88.4016,16.5022],[-88.3901,16.4977],[-88.3864,16.4904],[-88.4052,16.4768],[-88.4256,16.4372],[-88.4444,16.4289],[-88.4464,16.4234],[-88.4482,16.3996],[-88.4478,16.3948],[-88.4535,16.3914],[-88.4588,16.3913],[-88.4621,16.393],[-88.4621,16.3948],[-88.4685,16.3907],[-88.4706,16.3886],[-88.4718,16.3861],[-88.4757,16.3812],[-88.4886,16.3513],[-88.4925,16.3464],[-88.5004,16.3421],[-88.5267,16.3088],[-88.5297,16.3035],[-88.5338,16.2904],[-88.5366,16.2855],[-88.5373,16.2827],[-88.536,16.2741],[-88.5366,16.2713],[-88.5394,16.2707],[-88.5475,16.2719],[-88.5503,16.2713],[-88.5547,16.2689],[-88.5668,16.2663],[-88.5714,16.2638],[-88.5735,16.2599],[-88.5782,16.244],[-88.5782,16.2855],[-88.585,16.2855],[-88.5919,16.2638],[-88.6059,16.2606],[-88.6197,16.269],[-88.626,16.2818],[-88.6299,16.2875],[-88.6383,16.2882],[-88.6466,16.2866],[-88.6502,16.2855],[-88.6515,16.282],[-88.651,16.2644],[-88.6539,16.2576],[-88.6611,16.2554],[-88.6949,16.2508],[-88.7007,16.2471],[-88.7054,16.2423],[-88.7126,16.2382],[-88.7259,16.2365],[-88.7401,16.2302],[-88.7442,16.2145],[-88.7421,16.1757],[-88.7457,16.1549],[-88.7552,16.1397],[-88.7693,16.1304],[-88.7867,16.1273],[-88.7918,16.1247],[-88.7977,16.1184],[-88.8026,16.1106],[-88.807,16.0932],[-88.8131,16.0881],[-88.8218,16.0849],[-88.8314,16.0795],[-88.8425,16.0703],[-88.8475,16.0652],[-88.8519,16.059],[-88.8543,16.0479],[-88.8535,16.0369],[-88.8563,16.0283],[-88.8824,16.0209],[-88.8996,16.0108],[-88.9164,15.9975],[-88.9276,15.9839],[-88.9311,15.9591],[-88.9103,15.9174],[-88.914,15.8939],[-88.9519,15.8797],[-89.0403,15.9017],[-89.0724,15.9015],[-89.1009,15.8968],[-89.1774,15.9003],[-89.1958,15.8929],[-89.2048,15.8924],[-89.2165,15.8886],[-89.226,15.884],[-89.2282,15.8808]]]}}]}