{"type":"FeatureCollection","features":[{"type":"Feature","properties":{"id":"BRB-1989","name":"Christ Church","nameBn":"ক্রাইস্ট চার্চ","type":"Parish","bounds":[-59.6003,13.0512,-59.4758,13.1294],"center":[-59.538,13.0873]},"geometry":{"type":"Polygon","coordinates":[[[-59.4758,13.0865],[-59.4875,13.0786],[-59.5089,13.0573],[-59.5167,13.0564],[-59.5231,13.0565],[-59.5293,13.0554],[-59.5361,13.0512],[-59.546,13.0677],[-59.5644,13.078],[-59.5869,13.0832],[-59.6003,13.0841],[-59.5693,13.1002],[-59.5688,13.1002],[-59.569,13.1016],[-59.5705,13.1082],[-59.5131,13.1294],[-59.5038,13.1266],[-59.5023,13.1251],[-59.5006,13.1225],[-59.4989,13.1116],[-59.4987,13.1108],[-59.4928,13.101],[-59.4915,13.0982],[-59.4916,13.0978],[-59.4906,13.097],[-59.4889,13.0965],[-59.4832,13.0943],[-59.4807,13.0931],[-59.4758,13.0865]]]}},{"type":"Feature","properties":{"id":"BRB-1990","name":"Saint Andrew","nameBn":"সেন্ট অ্যান্ড্রু","type":"Parish","bounds":[-59.606,13.2098,-59.5458,13.2897],"center":[-59.5759,13.2551]},"geometry":{"type":"Polygon","coordinates":[[[-59.569,13.2897],[-59.5498,13.2492],[-59.5458,13.2438],[-59.5482,13.2433],[-59.5608,13.2374],[-59.5638,13.2367],[-59.5651,13.2372],[-59.5654,13.2375],[-59.5657,13.238],[-59.5659,13.2382],[-59.5662,13.2384],[-59.5666,13.2384],[-59.567,13.2384],[-59.5675,13.2382],[-59.5707,13.2333],[-59.581,13.2098],[-59.5856,13.2157],[-59.5891,13.217],[-59.601,13.2164],[-59.606,13.2421],[-59.6055,13.2758],[-59.6041,13.2784],[-59.6032,13.2828],[-59.6026,13.283],[-59.6022,13.2832],[-59.602,13.2833],[-59.6017,13.2832],[-59.6014,13.2831],[-59.6011,13.2828],[-59.6005,13.2824],[-59.5998,13.2822],[-59.5989,13.2819],[-59.5984,13.2819],[-59.5979,13.2821],[-59.5975,13.2822],[-59.5971,13.2822],[-59.5963,13.2821],[-59.596,13.2821],[-59.5957,13.2822],[-59.5954,13.2822],[-59.595,13.2821],[-59.5945,13.2817],[-59.593,13.2819],[-59.5906,13.2828],[-59.5863,13.2868],[-59.5841,13.2881],[-59.5826,13.2885],[-59.5821,13.2883],[-59.5816,13.2881],[-59.5812,13.2881],[-59.5809,13.2878],[-59.5804,13.2878],[-59.5798,13.2878],[-59.5782,13.2893],[-59.578,13.2893],[-59.5779,13.2892],[-59.5765,13.2889],[-59.5707,13.2891],[-59.569,13.2897]]]}},{"type":"Feature","properties":{"id":"BRB-1991","name":"Saint George","nameBn":"সেন্ট জর্জ","type":"Parish","bounds":[-59.5871,13.1082,-59.5087,13.1825],"center":[-59.5479,13.1489]},"geometry":{"type":"Polygon","coordinates":[[[-59.5402,13.1825],[-59.5192,13.1636],[-59.5172,13.1614],[-59.5087,13.1458],[-59.5131,13.1294],[-59.5705,13.1082],[-59.5871,13.1613],[-59.5635,13.1704],[-59.5615,13.1716],[-59.5543,13.1801],[-59.5409,13.1825],[-59.5402,13.1825]]]}},{"type":"Feature","properties":{"id":"BRB-1992","name":"Saint James","nameBn":"সেন্ট জেমস","type":"Parish","bounds":[-59.6508,13.1364,-59.601,13.2449],"center":[-59.6259,13.192]},"geometry":{"type":"Polygon","coordinates":[[[-59.6406,13.1416],[-59.6461,13.1604],[-59.6508,13.2388],[-59.6445,13.2372],[-59.6277,13.2449],[-59.606,13.2421],[-59.601,13.2164],[-59.6064,13.2093],[-59.6079,13.2079],[-59.6081,13.208],[-59.6083,13.208],[-59.6084,13.208],[-59.6086,13.2078],[-59.6088,13.2076],[-59.609,13.2075],[-59.6093,13.2076],[-59.6095,13.2076],[-59.6097,13.2076],[-59.6101,13.2076],[-59.6103,13.2076],[-59.6105,13.2074],[-59.6112,13.207],[-59.6114,13.2069],[-59.6117,13.2067],[-59.6119,13.2067],[-59.612,13.2067],[-59.6131,13.2058],[-59.6135,13.2056],[-59.6137,13.2054],[-59.6139,13.2054],[-59.614,13.2053],[-59.6144,13.2053],[-59.6146,13.2053],[-59.6148,13.2053],[-59.6153,13.205],[-59.6171,13.2043],[-59.6177,13.2026],[-59.6204,13.1913],[-59.6218,13.188],[-59.6228,13.186],[-59.6238,13.1857],[-59.6242,13.1854],[-59.6244,13.1851],[-59.6248,13.1842],[-59.625,13.1836],[-59.6253,13.1834],[-59.6248,13.1829],[-59.6235,13.1822],[-59.6169,13.1749],[-59.6111,13.1503],[-59.6217,13.1422],[-59.6226,13.1413],[-59.6244,13.1399],[-59.6293,13.1378],[-59.6314,13.1366],[-59.6314,13.1364],[-59.6327,13.1371],[-59.6378,13.1418],[-59.6406,13.1416]]]}},{"type":"Feature","properties":{"id":"BRB-1993","name":"Saint John","nameBn":"সেন্ট জন","type":"Parish","bounds":[-59.5402,13.1458,-59.4677,13.2175],"center":[-59.5039,13.1795]},"geometry":{"type":"Polygon","coordinates":[[[-59.5181,13.2175],[-59.4918,13.1979],[-59.4767,13.1894],[-59.4677,13.1865],[-59.4692,13.1842],[-59.4802,13.1711],[-59.4815,13.1699],[-59.4882,13.1658],[-59.4954,13.163],[-59.5087,13.1458],[-59.5172,13.1614],[-59.5192,13.1636],[-59.5402,13.1825],[-59.5393,13.1982],[-59.539,13.1996],[-59.5386,13.2014],[-59.5377,13.2014],[-59.5373,13.2015],[-59.5368,13.2016],[-59.5204,13.2165],[-59.5181,13.2175]]]}},{"type":"Feature","properties":{"id":"BRB-1994","name":"Saint Joseph","nameBn":"সেন্ট জোসেফ","type":"Parish","bounds":[-59.581,13.1801,-59.5181,13.2438],"center":[-59.5495,13.2118]},"geometry":{"type":"Polygon","coordinates":[[[-59.5458,13.2438],[-59.5366,13.2314],[-59.5181,13.2175],[-59.5204,13.2165],[-59.5368,13.2016],[-59.5373,13.2015],[-59.5377,13.2014],[-59.5386,13.2014],[-59.539,13.1996],[-59.5393,13.1982],[-59.5402,13.1825],[-59.5409,13.1825],[-59.5543,13.1801],[-59.5628,13.1968],[-59.5655,13.2],[-59.5669,13.2012],[-59.581,13.2098],[-59.5707,13.2333],[-59.5675,13.2382],[-59.567,13.2384],[-59.5666,13.2384],[-59.5662,13.2384],[-59.5659,13.2382],[-59.5657,13.238],[-59.5654,13.2375],[-59.5651,13.2372],[-59.5638,13.2367],[-59.5608,13.2374],[-59.5482,13.2433],[-59.5458,13.2438]]]}},{"type":"Feature","properties":{"id":"BRB-1995","name":"Saint Lucy","nameBn":"সেন্ট লুসি","type":"Parish","bounds":[-59.6542,13.2739,-59.5759,13.3445],"center":[-59.615,13.3177]},"geometry":{"type":"Polygon","coordinates":[[[-59.6529,13.2739],[-59.6542,13.2951],[-59.6522,13.3106],[-59.6451,13.3237],[-59.6309,13.338],[-59.6129,13.3445],[-59.5945,13.3348],[-59.5807,13.3145],[-59.5759,13.3044],[-59.5768,13.3038],[-59.6305,13.2868],[-59.649,13.2747],[-59.6529,13.2739]]]}},{"type":"Feature","properties":{"id":"BRB-1996","name":"Saint Michael","nameBn":"সেন্ট মাইকেল","type":"Parish","bounds":[-59.6406,13.0841,-59.5688,13.1613],"center":[-59.6047,13.118]},"geometry":{"type":"Polygon","coordinates":[[[-59.6003,13.0841],[-59.6081,13.0847],[-59.6216,13.094],[-59.6331,13.1159],[-59.6406,13.1416],[-59.6378,13.1418],[-59.6327,13.1371],[-59.6314,13.1364],[-59.6314,13.1366],[-59.6293,13.1378],[-59.6244,13.1399],[-59.6226,13.1413],[-59.6217,13.1422],[-59.6111,13.1503],[-59.5951,13.1535],[-59.5936,13.1541],[-59.5871,13.1613],[-59.5705,13.1082],[-59.569,13.1016],[-59.5688,13.1002],[-59.5693,13.1002],[-59.6003,13.0841]]]}},{"type":"Feature","properties":{"id":"BRB-1997","name":"Saint Peter","nameBn":"সেইন্ট পিটার","type":"Parish","bounds":[-59.6529,13.2372,-59.569,13.3044],"center":[-59.6109,13.2679]},"geometry":{"type":"Polygon","coordinates":[[[-59.5759,13.3044],[-59.569,13.2897],[-59.5707,13.2891],[-59.5765,13.2889],[-59.5779,13.2892],[-59.578,13.2893],[-59.5782,13.2893],[-59.5798,13.2878],[-59.5804,13.2878],[-59.5809,13.2878],[-59.5812,13.2881],[-59.5816,13.2881],[-59.5821,13.2883],[-59.5826,13.2885],[-59.5841,13.2881],[-59.5863,13.2868],[-59.5906,13.2828],[-59.593,13.2819],[-59.5945,13.2817],[-59.595,13.2821],[-59.5954,13.2822],[-59.5957,13.2822],[-59.596,13.2821],[-59.5963,13.2821],[-59.5971,13.2822],[-59.5975,13.2822],[-59.5979,13.2821],[-59.5984,13.2819],[-59.5989,13.2819],[-59.5998,13.2822],[-59.6005,13.2824],[-59.6011,13.2828],[-59.6014,13.2831],[-59.6017,13.2832],[-59.602,13.2833],[-59.6022,13.2832],[-59.6026,13.283],[-59.6032,13.2828],[-59.6041,13.2784],[-59.6055,13.2758],[-59.606,13.2421],[-59.6277,13.2449],[-59.6445,13.2372],[-59.6508,13.2388],[-59.6529,13.2739],[-59.649,13.2747],[-59.6305,13.2868],[-59.5768,13.3038],[-59.5759,13.3044]]]}},{"type":"Feature","properties":{"id":"BRB-1998","name":"Saint Philip","nameBn":"সেন্ট ফিলিপ","type":"Parish","bounds":[-59.5131,13.0865,-59.4269,13.1865],"center":[-59.47,13.1368]},"geometry":{"type":"Polygon","coordinates":[[[-59.4677,13.1865],[-59.4571,13.1832],[-59.4386,13.1749],[-59.4269,13.1604],[-59.43,13.1259],[-59.4557,13.1],[-59.4758,13.0865],[-59.4807,13.0931],[-59.4832,13.0943],[-59.4889,13.0965],[-59.4906,13.097],[-59.4916,13.0978],[-59.4915,13.0982],[-59.4928,13.101],[-59.4987,13.1108],[-59.4989,13.1116],[-59.5006,13.1225],[-59.5023,13.1251],[-59.5038,13.1266],[-59.5131,13.1294],[-59.5087,13.1458],[-59.4954,13.163],[-59.4882,13.1658],[-59.4815,13.1699],[-59.4802,13.1711],[-59.4692,13.1842],[-59.4677,13.1865]]]}},{"type":"Feature","properties":{"id":"BRB-1999","name":"Saint Thomas","nameBn":"সেন্ট থমাস","type":"Parish","bounds":[-59.6253,13.1503,-59.5543,13.217],"center":[-59.5898,13.1877]},"geometry":{"type":"Polygon","coordinates":[[[-59.5891,13.217],[-59.5856,13.2157],[-59.581,13.2098],[-59.5669,13.2012],[-59.5655,13.2],[-59.5628,13.1968],[-59.5543,13.1801],[-59.5615,13.1716],[-59.5635,13.1704],[-59.5871,13.1613],[-59.5936,13.1541],[-59.5951,13.1535],[-59.6111,13.1503],[-59.6169,13.1749],[-59.6235,13.1822],[-59.6248,13.1829],[-59.6253,13.1834],[-59.625,13.1836],[-59.6248,13.1842],[-59.6244,13.1851],[-59.6242,13.1854],[-59.6238,13.1857],[-59.6228,13.186],[-59.6218,13.188],[-59.6204,13.1913],[-59.6177,13.2026],[-59.6171,13.2043],[-59.6153,13.205],[-59.6148,13.2053],[-59.6146,13.2053],[-59.6144,13.2053],[-59.614,13.2053],[-59.6139,13.2054],[-59.6137,13.2054],[-59.6135,13.2056],[-59.6131,13.2058],[-59.612,13.2067],[-59.6119,13.2067],[-59.6117,13.2067],[-59.6114,13.2069],[-59.6112,13.207],[-59.6105,13.2074],[-59.6103,13.2076],[-59.6101,13.2076],[-59.6097,13.2076],[-59.6095,13.2076],[-59.6093,13.2076],[-59.609,13.2075],[-59.6088,13.2076],[-59.6086,13.2078],[-59.6084,13.208],[-59.6083,13.208],[-59.6081,13.208],[-59.6079,13.2079],[-59.6064,13.2093],[-59.601,13.2164],[-59.5891,13.217]]]}}]}