{"type":"FeatureCollection","features":[{"type":"Feature","properties":{"id":"BRN-1181","name":"Belait","nameBn":"বেলাইত জেলা","type":"District","bounds":[113.9988,4.0167,114.8172,4.6813],"center":[114.408,4.4555]},"geometry":{"type":"Polygon","coordinates":[[[114.3605,4.2539],[114.3168,4.2625],[114.2827,4.2649],[114.278,4.2741],[114.2763,4.289],[114.2795,4.2949],[114.2934,4.3071],[114.2967,4.3167],[114.2899,4.3613],[114.2763,4.3819],[114.2763,4.4097],[114.2685,4.4377],[114.2626,4.4487],[114.2521,4.4603],[114.2488,4.4669],[114.2478,4.4748],[114.2456,4.4814],[114.2383,4.4842],[114.2229,4.4846],[114.2167,4.4877],[114.2091,4.5081],[114.1973,4.5158],[114.1727,4.5252],[114.14,4.5507],[114.119,4.5616],[114.0642,4.57],[113.9988,4.6011],[114.2517,4.5927],[114.3267,4.6069],[114.3958,4.6457],[114.4944,4.6813],[114.5029,4.6572],[114.5128,4.6343],[114.5281,4.6187],[114.541,4.6018],[114.5594,4.5994],[114.5825,4.598],[114.5955,4.5777],[114.5908,4.5473],[114.5968,4.5223],[114.628,4.503],[114.651,4.4802],[114.6725,4.4531],[114.6968,4.4296],[114.716,4.4058],[114.7317,4.3766],[114.7395,4.3461],[114.7581,4.32],[114.7916,4.3017],[114.7939,4.3004],[114.7942,4.3002],[114.7879,4.2942],[114.782,4.2849],[114.7826,4.2644],[114.8138,4.2771],[114.8172,4.2597],[114.81,4.2413],[114.7871,4.2072],[114.7801,4.1878],[114.7745,4.1465],[114.7669,4.1318],[114.6749,4.0441],[114.6278,4.0167],[114.5866,4.0214],[114.5817,4.0293],[114.5742,4.0541],[114.5694,4.0644],[114.5614,4.072],[114.5402,4.0869],[114.4774,4.145],[114.4631,4.1641],[114.4533,4.1837],[114.4325,4.2469],[114.4199,4.2601],[114.4014,4.2612],[114.3605,4.2539]]]}},{"type":"Feature","properties":{"id":"BRN-1182","name":"Brunei and Muara","nameBn":"ব্রুনাই-মুয়ারা জেলা","type":"District","bounds":[114.7362,4.7306,115.1032,5.0572],"center":[114.92,4.9021]},"geometry":{"type":"Polygon","coordinates":[[[114.9817,4.8891],[114.9589,4.8663],[114.9557,4.8509],[114.9549,4.8342],[114.9484,4.8189],[114.9324,4.8091],[114.9149,4.8087],[114.8965,4.8118],[114.8782,4.8128],[114.8558,4.8067],[114.8377,4.7953],[114.8054,4.7646],[114.7885,4.7539],[114.7518,4.7385],[114.7432,4.7306],[114.7431,4.7309],[114.7362,4.7478],[114.7437,4.78],[114.747,4.802],[114.7558,4.8222],[114.7596,4.8478],[114.7618,4.8752],[114.7602,4.8987],[114.9284,5.0006],[115.0578,5.0541],[115.0829,5.0572],[115.1017,5.0499],[115.1032,5.0369],[115.0886,5.0266],[115.0574,5.0126],[115.0491,4.9992],[115.0325,4.9594],[115.0296,4.9475],[115.0228,4.9337],[114.9917,4.905],[114.9817,4.8891]]]}},{"type":"Feature","properties":{"id":"BRN-1183","name":"Temburong","nameBn":"তেম্বুরং জেলা","type":"District","bounds":[115.0228,4.3138,115.3607,4.9088],"center":[115.191,4.6025]},"geometry":{"type":"Polygon","coordinates":[[[115.1462,4.9085],[115.1468,4.8856],[115.156,4.8763],[115.1693,4.87],[115.1823,4.8612],[115.2074,4.8256],[115.2727,4.6368],[115.277,4.6131],[115.2755,4.5957],[115.2674,4.5562],[115.2669,4.5169],[115.2725,4.4747],[115.2856,4.4354],[115.3087,4.4047],[115.3438,4.3717],[115.3583,4.3503],[115.3607,4.3296],[115.3463,4.3138],[115.3244,4.3146],[115.3012,4.3247],[115.2831,4.3368],[115.2743,4.34],[115.2551,4.3392],[115.2447,4.3437],[115.2291,4.3568],[115.2207,4.3598],[115.1908,4.3568],[115.17,4.3613],[115.113,4.3824],[115.0998,4.3912],[115.0918,4.4054],[115.0798,4.504],[115.0681,4.5434],[115.0355,4.6212],[115.0268,4.66],[115.0228,4.7414],[115.0298,4.8206],[115.0481,4.8018],[115.0664,4.8135],[115.0862,4.8356],[115.1086,4.8475],[115.1302,4.852],[115.1309,4.8637],[115.1223,4.8794],[115.1165,4.8961],[115.1187,4.9038],[115.1252,4.9077],[115.1345,4.9088],[115.1458,4.9085],[115.1462,4.9085]]]}},{"type":"Feature","properties":{"id":"BRN-1184","name":"Tutong","nameBn":"তুতং জেলা","type":"District","bounds":[114.4944,4.3002,114.8479,4.8987],"center":[114.671,4.645]},"geometry":{"type":"Polygon","coordinates":[[[114.7432,4.7306],[114.742,4.7295],[114.7413,4.7129],[114.7488,4.6944],[114.7681,4.6575],[114.7739,4.6368],[114.7773,4.6147],[114.7822,4.4978],[114.7882,4.4612],[114.806,4.4333],[114.8257,4.4262],[114.8405,4.4286],[114.8479,4.4237],[114.8456,4.3951],[114.8364,4.3572],[114.829,4.3405],[114.8182,4.3235],[114.7942,4.3002],[114.7939,4.3004],[114.7916,4.3017],[114.7581,4.32],[114.7395,4.3461],[114.7317,4.3766],[114.716,4.4058],[114.6968,4.4296],[114.6725,4.4531],[114.651,4.4802],[114.628,4.503],[114.5968,4.5223],[114.5908,4.5473],[114.5955,4.5777],[114.5825,4.598],[114.5594,4.5994],[114.541,4.6018],[114.5281,4.6187],[114.5128,4.6343],[114.5029,4.6572],[114.4944,4.6813],[114.5293,4.6938],[114.5503,4.7144],[114.5657,4.7434],[114.6018,4.78],[114.7227,4.876],[114.7602,4.8987],[114.7618,4.8752],[114.7596,4.8478],[114.7558,4.8222],[114.747,4.802],[114.7437,4.78],[114.7362,4.7478],[114.7431,4.7309],[114.7432,4.7306]]]}}]}