{"type":"FeatureCollection","features":[{"type":"Feature","properties":{"id":"BWA-2630","name":"Central","nameBn":"সেন্ট্রাল জেলা","type":"District","bounds":[23.879,-23.9479,29.3501,-18.9999],"center":[26.6144,-21.8775]},"geometry":{"type":"Polygon","coordinates":[[[25.9674,-18.9999],[25.9678,-19.001],[25.9644,-19.0216],[25.9481,-19.0587],[25.9449,-19.0792],[25.9486,-19.1033],[25.9565,-19.1221],[25.9811,-19.1618],[26.0114,-19.1998],[26.0344,-19.2437],[26.1303,-19.5011],[26.1555,-19.5372],[26.1945,-19.5602],[26.2391,-19.5715],[26.2926,-19.5725],[26.3035,-19.5773],[26.3132,-19.5842],[26.3211,-19.592],[26.331,-19.605],[26.3335,-19.613],[26.3263,-19.6339],[26.3191,-19.6463],[26.3125,-19.6496],[26.3122,-19.6514],[26.3244,-19.6591],[26.3323,-19.6624],[26.3627,-19.6676],[26.3852,-19.6791],[26.4128,-19.7196],[26.4319,-19.7365],[26.4503,-19.7433],[26.4897,-19.7519],[26.5089,-19.7593],[26.5493,-19.7841],[26.5663,-19.8008],[26.5748,-19.8195],[26.5819,-19.8421],[26.5956,-19.8556],[26.6141,-19.8634],[26.6594,-19.8757],[26.6738,-19.8834],[26.6772,-19.8868],[26.6848,-19.8945],[26.6986,-19.9125],[26.7139,-19.9274],[26.731,-19.9359],[26.7508,-19.9396],[26.7745,-19.9398],[26.8119,-19.9464],[26.9251,-20.0009],[26.9611,-20.0072],[26.9943,-20.0068],[27.0267,-20.0101],[27.0601,-20.0276],[27.0692,-20.0374],[27.0865,-20.0605],[27.0973,-20.0689],[27.1096,-20.0732],[27.1198,-20.0739],[27.1297,-20.0729],[27.1419,-20.0733],[27.1629,-20.0766],[27.1837,-20.0823],[27.2018,-20.093],[27.2149,-20.1105],[27.266,-20.2342],[27.284,-20.3515],[27.2684,-20.4958],[27.2718,-20.5625],[27.2506,-20.6191],[27.2294,-20.704],[27.2152,-20.7747],[27.2152,-20.8455],[27.2294,-20.9445],[27.2718,-21.0011],[27.3072,-21.0648],[27.3497,-21.1638],[27.385,-21.2558],[27.4063,-21.3478],[27.4416,-21.4114],[27.4912,-21.468],[27.569,-21.5034],[27.6397,-21.5034],[27.7246,-21.5246],[27.7883,-21.5175],[27.859,-21.5175],[27.9156,-21.5458],[27.9904,-21.5519],[28.0026,-21.5642],[28.0166,-21.5729],[28.0329,-21.5779],[28.0908,-21.5813],[28.1657,-21.5952],[28.2849,-21.5969],[28.3219,-21.6035],[28.3618,-21.6163],[28.4431,-21.6558],[28.4646,-21.6603],[28.4814,-21.6574],[28.4973,-21.6515],[28.5325,-21.6431],[28.5429,-21.6383],[28.554,-21.6366],[28.5859,-21.6444],[28.6157,-21.6471],[28.6297,-21.6513],[28.6684,-21.68],[28.7142,-21.6935],[28.8609,-21.7574],[28.891,-21.7649],[28.9519,-21.7683],[28.9808,-21.7748],[28.9987,-21.786],[29.0387,-21.7979],[29.0553,-21.81],[29.0576,-21.8292],[29.0454,-21.8526],[29.0289,-21.8766],[29.0179,-21.8981],[29.0138,-21.9404],[29.0216,-21.9828],[29.0405,-22.0209],[29.0708,-22.051],[29.108,-22.0692],[29.1449,-22.0753],[29.2393,-22.0726],[29.2444,-22.0757],[29.2541,-22.0871],[29.2596,-22.0961],[29.2673,-22.1158],[29.2736,-22.1251],[29.3501,-22.1867],[29.3315,-22.1928],[29.3029,-22.1902],[29.2482,-22.1793],[29.2221,-22.1822],[29.2028,-22.1945],[29.1866,-22.2077],[29.1688,-22.214],[29.0478,-22.2203],[29.0387,-22.2239],[29.0178,-22.2504],[29.0181,-22.255],[29.0028,-22.2634],[28.9837,-22.282],[28.9602,-22.3102],[28.9679,-22.3804],[28.9634,-22.3922],[28.9535,-22.4007],[28.9304,-22.4409],[28.9125,-22.4537],[28.8694,-22.4489],[28.8466,-22.4499],[28.8368,-22.4632],[28.8312,-22.4823],[28.8168,-22.4929],[28.7968,-22.4982],[28.7748,-22.5014],[28.7314,-22.5139],[28.659,-22.552],[28.6239,-22.5628],[28.5972,-22.5627],[28.5776,-22.56],[28.5598,-22.563],[28.5385,-22.5803],[28.5225,-22.5848],[28.4594,-22.5696],[28.3769,-22.575],[28.3386,-22.5846],[28.3018,-22.6038],[28.2868,-22.6158],[28.2506,-22.6556],[28.2407,-22.6609],[28.2163,-22.6632],[28.2055,-22.666],[28.1962,-22.6716],[28.1647,-22.7086],[28.1597,-22.7181],[28.1577,-22.7311],[28.1597,-22.7433],[28.1627,-22.751],[28.1625,-22.759],[28.155,-22.772],[28.1459,-22.7797],[28.1356,-22.7834],[28.1256,-22.7855],[28.1174,-22.7895],[28.1132,-22.7954],[28.1077,-22.8106],[28.1037,-22.8167],[28.0888,-22.8226],[28.0658,-22.8288],[28.0472,-22.8369],[28.0454,-22.8478],[28.054,-22.8691],[28.0497,-22.8914],[28.0374,-22.9114],[28.0218,-22.9266],[28.0083,-22.9348],[27.9894,-22.9438],[27.9684,-22.951],[27.9492,-22.9539],[27.9375,-22.9638],[27.9379,-22.9867],[27.9461,-23.029],[27.9301,-23.057],[27.8955,-23.0795],[27.8538,-23.0956],[27.8157,-23.1047],[27.8223,-23.123],[27.8064,-23.1284],[27.7849,-23.127],[27.7742,-23.1252],[27.7717,-23.133],[27.7746,-23.1408],[27.7791,-23.1477],[27.781,-23.1525],[27.783,-23.1554],[27.7874,-23.1598],[27.7893,-23.1638],[27.7846,-23.1656],[27.7833,-23.1669],[27.7758,-23.1725],[27.7742,-23.173],[27.7594,-23.2114],[27.7536,-23.2208],[27.7392,-23.2276],[27.7257,-23.2217],[27.6984,-23.1935],[27.6588,-23.2234],[27.6471,-23.2276],[27.6334,-23.2234],[27.6192,-23.217],[27.608,-23.2167],[27.5992,-23.2446],[27.5804,-23.2639],[27.5761,-23.2791],[27.5752,-23.2848],[27.5731,-23.2905],[27.5696,-23.2949],[27.5659,-23.2965],[27.5633,-23.2992],[27.5649,-23.3058],[27.5678,-23.3138],[27.5694,-23.3204],[27.5637,-23.3428],[27.5489,-23.3608],[27.5288,-23.3731],[27.5072,-23.3791],[27.4657,-23.3804],[27.4527,-23.3853],[27.4432,-23.3951],[27.435,-23.4066],[27.4252,-23.4127],[27.4111,-23.4058],[27.4185,-23.3913],[27.4105,-23.3893],[27.3958,-23.3941],[27.3837,-23.3996],[27.3808,-23.4053],[27.3713,-23.417],[27.3612,-23.4225],[27.35,-23.3915],[27.3356,-23.4024],[27.312,-23.4371],[27.2956,-23.4517],[27.2781,-23.4636],[27.2397,-23.4814],[27.2025,-23.4921],[27.1915,-23.5038],[27.2057,-23.5231],[27.1956,-23.5271],[27.1866,-23.5273],[27.1787,-23.5236],[27.1714,-23.5156],[27.169,-23.5216],[27.1615,-23.5299],[27.1572,-23.5367],[27.1491,-23.5275],[27.1377,-23.5234],[27.1274,-23.525],[27.1231,-23.533],[27.1274,-23.5453],[27.1357,-23.5519],[27.1412,-23.5583],[27.1367,-23.5702],[27.1244,-23.5632],[27.1134,-23.5643],[27.1038,-23.5717],[27.0958,-23.5838],[27.1025,-23.5838],[27.0841,-23.596],[27.0783,-23.602],[27.0752,-23.6112],[27.0684,-23.6073],[27.0615,-23.6044],[27.0631,-23.6242],[27.0694,-23.6417],[27.0701,-23.6561],[27.0548,-23.6664],[27.0376,-23.6657],[27.0299,-23.6547],[27.0243,-23.6425],[27.0138,-23.6385],[27.0042,-23.6458],[26.9865,-23.687],[26.9672,-23.7187],[26.9621,-23.7374],[26.9645,-23.7471],[26.9643,-23.7472],[26.9589,-23.7482],[26.9398,-23.7505],[26.9272,-23.7606],[26.9037,-23.7898],[26.9006,-23.7843],[26.8929,-23.7739],[26.89,-23.7687],[26.882,-23.7872],[26.872,-23.8027],[26.849,-23.8307],[26.8452,-23.8378],[26.8394,-23.8534],[26.8354,-23.8581],[26.8276,-23.8593],[26.8088,-23.8566],[26.8012,-23.8581],[26.7761,-23.8805],[26.7296,-23.9339],[26.7281,-23.9348],[26.7251,-23.9414],[26.7215,-23.9449],[26.7175,-23.9479],[26.0204,-23.5663],[25.8856,-23.3905],[25.8407,-23.3491],[25.7526,-23.3228],[25.7397,-23.3174],[25.7316,-23.3103],[25.4393,-22.9519],[23.8814,-21.0],[23.879,-20.3165],[23.8835,-20.2967],[23.9093,-20.3122],[23.9223,-20.3165],[23.9337,-20.316],[23.9954,-20.3001],[23.9978,-20.2949],[23.9969,-20.289],[23.9954,-20.2835],[23.9957,-20.2797],[24.0186,-20.2538],[24.0266,-20.2479],[24.0358,-20.2441],[24.0478,-20.2414],[24.0588,-20.2367],[24.0762,-20.2215],[24.0865,-20.216],[24.1248,-20.21],[24.1382,-20.2047],[24.1474,-20.1996],[24.1571,-20.1988],[24.1717,-20.2062],[24.1828,-20.2151],[24.2088,-20.2425],[24.2285,-20.2497],[24.2422,-20.2426],[24.2543,-20.2423],[24.2812,-20.2939],[24.2963,-20.3086],[24.3347,-20.3375],[24.3623,-20.3771],[24.3783,-20.3943],[24.4021,-20.4028],[24.4221,-20.4012],[24.4575,-20.3897],[24.4786,-20.3893],[24.4934,-20.3909],[24.5045,-20.3921],[25.1451,-20.3423],[25.156,-20.3384],[25.1603,-20.329],[25.1623,-20.3167],[25.1698,-20.0841],[25.1677,-20.0732],[25.1622,-20.067],[24.9972,-20.0003],[24.9952,-19.9989],[24.9921,-19.9955],[24.9907,-18.9999],[25.0002,-18.9999],[25.9672,-18.9999],[25.9674,-18.9999]],[[27.8435,-21.9961],[27.8519,-21.9937],[27.86,-21.9882],[27.8739,-21.9836],[27.8778,-21.9744],[27.8789,-21.9656],[27.8829,-21.9607],[27.8805,-21.957],[27.8715,-21.9515],[27.8728,-21.9418],[27.8739,-21.9349],[27.8702,-21.9248],[27.866,-21.9207],[27.8556,-21.9239],[27.8508,-21.9332],[27.8501,-21.94],[27.8424,-21.9482],[27.8424,-21.9576],[27.8321,-21.9622],[27.8259,-21.9631],[27.8189,-21.9603],[27.8079,-21.9655],[27.8078,-21.97],[27.8103,-21.9733],[27.8118,-21.9783],[27.8081,-21.9843],[27.8085,-21.9918],[27.8105,-21.997],[27.821,-21.995],[27.8294,-21.9887],[27.8371,-21.99],[27.8435,-21.9961]],[[26.1948,-20.5585],[26.1437,-20.5467],[26.1263,-20.5446],[26.1204,-20.5678],[26.1466,-20.5801],[26.2003,-20.5944],[26.2522,-20.5986],[26.256,-20.5594],[26.2332,-20.5518],[26.21,-20.5551],[26.1948,-20.5585]]]}},{"type":"Feature","properties":{"id":"BWA-5502","name":"Francistown","nameBn":"ফ্রাঞ্চিসটাউন","type":"City","bounds":[27.4425,-21.2158,27.5593,-21.1069],"center":[27.5038,-21.1678]},"geometry":{"type":"Polygon","coordinates":[[[27.5376,-21.1069],[27.5461,-21.1074],[27.5522,-21.1151],[27.5512,-21.1237],[27.5402,-21.1319],[27.5343,-21.1457],[27.5384,-21.1605],[27.5438,-21.1633],[27.5534,-21.1673],[27.5575,-21.175],[27.5563,-21.1872],[27.5575,-21.1987],[27.5593,-21.2056],[27.5557,-21.2117],[27.5387,-21.2158],[27.5343,-21.2155],[27.5068,-21.202],[27.4915,-21.1987],[27.4859,-21.2112],[27.4634,-21.2104],[27.4466,-21.2061],[27.4425,-21.1987],[27.4433,-21.1865],[27.4471,-21.176],[27.454,-21.1722],[27.4596,-21.1668],[27.4583,-21.1594],[27.4588,-21.1559],[27.469,-21.1533],[27.4818,-21.1441],[27.4876,-21.1365],[27.4953,-21.1247],[27.5065,-21.1222],[27.5282,-21.1117],[27.5376,-21.1069]]]}},{"type":"Feature","properties":{"id":"BWA-5501","name":"Gaborone","nameBn":"গ্যাবোরোন","type":"City","bounds":[25.8349,-24.7162,26.0334,-24.5074],"center":[25.9171,-24.6239]},"geometry":{"type":"Polygon","coordinates":[[[25.8349,-24.6227],[25.9512,-24.5074],[26.0334,-24.5589],[26.0321,-24.5821],[25.9827,-24.6499],[25.9827,-24.6751],[25.9574,-24.7073],[25.9149,-24.7096],[25.8916,-24.7162],[25.8575,-24.7084],[25.8448,-24.6866],[25.8402,-24.651],[25.8349,-24.6227]]]}},{"type":"Feature","properties":{"id":"BWA-1191","name":"Ghanzi","nameBn":"গাঞ্জি জেলা","type":"District","bounds":[19.9783,-23.3185,25.4393,-21.0],"center":[22.7086,-22.1555]},"geometry":{"type":"Polygon","coordinates":[[[19.9799,-23.3086],[19.9798,-23.2045],[19.9796,-23.0325],[19.9793,-22.8607],[19.9792,-22.6886],[19.979,-22.5381],[19.9789,-22.3876],[19.9787,-22.2372],[19.9784,-22.0868],[19.9783,-22.0007],[20.2124,-22.0007],[20.4465,-22.0007],[20.6806,-22.0007],[20.9147,-22.0007],[20.972,-22.0007],[20.9848,-21.964],[20.9847,-21.9228],[20.9845,-21.8652],[20.9843,-21.8076],[20.9841,-21.75],[20.9839,-21.6924],[20.9837,-21.6347],[20.9835,-21.577],[20.9831,-21.5194],[20.983,-21.4618],[20.9828,-21.4041],[20.9826,-21.3464],[20.9824,-21.2889],[20.9822,-21.2312],[20.9821,-21.1736],[20.9819,-21.1161],[20.9816,-21.0584],[20.9815,-21.0007],[20.9815,-21.0],[21.0001,-21.0],[23.8814,-21.0],[25.4393,-22.9519],[25.2417,-23.3185],[23.0575,-23.3113],[19.999,-23.3086],[19.9799,-23.3086]]]}},{"type":"Feature","properties":{"id":"BWA-5506","name":"Jwaneng","nameBn":"জোওনেং","type":"Town","bounds":[24.6376,-24.6603,24.8206,-24.4612],"center":[24.7253,-24.5774]},"geometry":{"type":"Polygon","coordinates":[[[24.6397,-24.4612],[24.8136,-24.5119],[24.8206,-24.652],[24.6376,-24.6603],[24.6397,-24.4612]]]}},{"type":"Feature","properties":{"id":"BWA-2625","name":"Kgalagadi","nameBn":"কগালাগাডি জেলা","type":"District","bounds":[19.9799,-26.8918,24.5009,-23.3086],"center":[22.2402,-24.8361]},"geometry":{"type":"Polygon","coordinates":[[[20.5969,-25.4329],[20.5936,-25.4132],[20.588,-25.404],[20.5588,-25.392],[20.5422,-25.3822],[20.5358,-25.3712],[20.5292,-25.3401],[20.5251,-25.3322],[20.5146,-25.3193],[20.5105,-25.3123],[20.5104,-25.3047],[20.5149,-25.2991],[20.5186,-25.293],[20.5164,-25.2836],[20.5099,-25.2775],[20.4918,-25.2691],[20.4855,-25.2632],[20.4835,-25.2566],[20.4817,-25.2305],[20.4625,-25.2237],[20.4438,-25.2133],[20.4344,-25.1998],[20.4432,-25.1831],[20.4448,-25.1684],[20.4339,-25.1468],[20.4068,-25.1078],[20.3755,-25.0461],[20.3649,-25.0332],[20.2357,-24.936],[20.1593,-24.8937],[20.1491,-24.891],[20.1284,-24.8897],[20.1189,-24.8874],[20.1078,-24.8803],[20.0811,-24.8526],[20.0293,-24.8152],[20.0105,-24.788],[19.9929,-24.7759],[19.9864,-24.7688],[19.9814,-24.7525],[19.9813,-24.5804],[19.9811,-24.4084],[19.9808,-24.2366],[19.9807,-24.0645],[19.9805,-23.8925],[19.9805,-23.8645],[19.9803,-23.7206],[19.9801,-23.5486],[19.9799,-23.3765],[19.9799,-23.3086],[19.999,-23.3086],[23.0575,-23.3113],[23.043,-23.3974],[23.0227,-23.4143],[22.9773,-23.4132],[22.9673,-23.4169],[22.959,-23.4249],[22.9554,-23.4627],[22.9567,-23.5586],[22.959,-23.5661],[22.9659,-23.5687],[22.9756,-23.5697],[23.0323,-23.5696],[23.0501,-23.6427],[23.0534,-23.9991],[23.0493,-24.8232],[23.0512,-24.8357],[23.0565,-24.8458],[23.0703,-24.8492],[23.0852,-24.8506],[24.0441,-24.8453],[24.0596,-24.8469],[24.075,-24.851],[24.0907,-24.8623],[24.2065,-24.9719],[24.2193,-24.9874],[24.2299,-25.004],[24.2344,-25.0258],[24.2503,-25.5014],[24.2831,-25.5405],[24.3985,-25.6463],[24.414,-25.6506],[24.4601,-25.6537],[24.4867,-25.6726],[24.5009,-25.7578],[24.4567,-25.743],[24.4368,-25.7453],[24.4167,-25.7531],[24.3892,-25.7595],[24.3389,-25.7518],[24.2967,-25.7235],[24.2277,-25.649],[24.1835,-25.6259],[24.131,-25.6262],[24.0271,-25.6518],[24.0057,-25.6547],[24.0042,-25.6499],[24.0096,-25.6413],[24.0087,-25.6332],[23.9983,-25.6253],[23.988,-25.6195],[23.9764,-25.6176],[23.9248,-25.6292],[23.9058,-25.6185],[23.8907,-25.5988],[23.8454,-25.5691],[23.8075,-25.5236],[23.7986,-25.5185],[23.7783,-25.5126],[23.769,-25.5074],[23.7623,-25.4985],[23.7521,-25.4776],[23.7427,-25.47],[23.6867,-25.4544],[23.6742,-25.4426],[23.6667,-25.4327],[23.5611,-25.3573],[23.5359,-25.3433],[23.5066,-25.331],[23.4966,-25.3242],[23.4835,-25.3115],[23.4682,-25.2902],[23.4593,-25.2822],[23.4449,-25.2781],[23.432,-25.2803],[23.3992,-25.2914],[23.3814,-25.2926],[23.3659,-25.2893],[23.3204,-25.2734],[23.2657,-25.264],[23.2161,-25.2672],[23.1685,-25.28],[23.0934,-25.3125],[23.0839,-25.3197],[23.0717,-25.326],[23.0655,-25.3208],[23.0612,-25.3107],[23.0545,-25.3025],[23.0307,-25.2994],[23.007,-25.3108],[22.968,-25.3469],[22.9626,-25.3558],[22.9603,-25.3643],[22.9561,-25.3721],[22.9448,-25.3787],[22.9309,-25.3843],[22.9205,-25.3905],[22.9119,-25.3991],[22.9036,-25.4114],[22.8876,-25.4502],[22.8768,-25.462],[22.8513,-25.4713],[22.8446,-25.4811],[22.8247,-25.543],[22.8168,-25.5584],[22.814,-25.5666],[22.8134,-25.5751],[22.8192,-25.5849],[22.8287,-25.5955],[22.8334,-25.6061],[22.8244,-25.6158],[22.8108,-25.6253],[22.8096,-25.6333],[22.8134,-25.6419],[22.815,-25.6528],[22.8128,-25.6671],[22.8102,-25.6774],[22.8044,-25.6872],[22.7598,-25.7349],[22.7464,-25.7553],[22.7405,-25.777],[22.7412,-25.7909],[22.745,-25.7941],[22.7509,-25.796],[22.7579,-25.806],[22.7641,-25.8203],[22.7655,-25.8265],[22.7547,-25.8434],[22.7395,-25.8585],[22.7195,-25.8743],[22.7088,-25.891],[22.7216,-25.909],[22.7268,-25.9216],[22.7272,-25.9439],[22.7242,-25.9675],[22.7194,-25.9843],[22.7105,-25.9969],[22.7007,-26.0033],[22.6722,-26.0129],[22.6616,-26.0209],[22.6621,-26.0298],[22.6658,-26.0399],[22.665,-26.0514],[22.6232,-26.1093],[22.6209,-26.1115],[22.6112,-26.1206],[22.5915,-26.1332],[22.5803,-26.1465],[22.5638,-26.1811],[22.5451,-26.2074],[22.528,-26.2137],[22.4826,-26.2048],[22.4509,-26.2101],[22.4288,-26.2265],[22.395,-26.2719],[22.3429,-26.3174],[22.3188,-26.3288],[22.3032,-26.3336],[22.2573,-26.3409],[22.2483,-26.3469],[22.2377,-26.3668],[22.1974,-26.4041],[22.1783,-26.4399],[22.1462,-26.5192],[22.1081,-26.5719],[22.0577,-26.6176],[21.999,-26.6503],[21.9358,-26.6639],[21.8388,-26.6645],[21.8073,-26.6696],[21.7806,-26.6782],[21.7687,-26.6887],[21.7675,-26.7043],[21.7765,-26.7492],[21.7775,-26.7685],[21.7734,-26.7868],[21.7623,-26.8045],[21.7438,-26.8205],[21.6872,-26.8552],[21.6645,-26.8631],[21.6434,-26.8628],[21.5839,-26.8484],[21.4987,-26.8464],[21.4495,-26.8264],[21.4266,-26.8227],[21.3808,-26.824],[21.2969,-26.8445],[21.2829,-26.845],[21.2549,-26.8418],[21.2406,-26.842],[21.1535,-26.8645],[21.1225,-26.8653],[20.9904,-26.8386],[20.9502,-26.816],[20.9077,-26.8],[20.8519,-26.8065],[20.826,-26.8188],[20.7794,-26.8481],[20.7149,-26.8751],[20.6935,-26.889],[20.6908,-26.8918],[20.6857,-26.8818],[20.6755,-26.85],[20.6656,-26.8391],[20.6506,-26.8297],[20.6449,-26.8245],[20.6387,-26.817],[20.6248,-26.7894],[20.6147,-26.7532],[20.6092,-26.7162],[20.6089,-26.6861],[20.6307,-26.6183],[20.6324,-26.5953],[20.6277,-26.5808],[20.6115,-26.5599],[20.6053,-26.5477],[20.6023,-26.5222],[20.6053,-26.4933],[20.6182,-26.4397],[20.6225,-26.4275],[20.6521,-26.4078],[20.666,-26.3918],[20.6955,-26.342],[20.7533,-26.2762],[20.7762,-26.2406],[20.7947,-26.2019],[20.8379,-26.1468],[20.8414,-26.1313],[20.8039,-26.0713],[20.8005,-26.0525],[20.8028,-25.9805],[20.7941,-25.8939],[20.7671,-25.8344],[20.7669,-25.8307],[20.7558,-25.819],[20.75,-25.8185],[20.7401,-25.8231],[20.7265,-25.8274],[20.7271,-25.8182],[20.7378,-25.7989],[20.7167,-25.7326],[20.7069,-25.7148],[20.6965,-25.7071],[20.671,-25.6955],[20.6629,-25.6853],[20.6627,-25.6749],[20.6714,-25.6533],[20.6708,-25.6423],[20.6631,-25.6363],[20.6514,-25.6346],[20.641,-25.6312],[20.6379,-25.6203],[20.6433,-25.6132],[20.6652,-25.601],[20.6714,-25.5912],[20.6634,-25.5647],[20.6185,-25.5285],[20.6204,-25.5006],[20.6269,-25.4847],[20.6565,-25.4678],[20.6435,-25.4574],[20.6344,-25.4577],[20.6256,-25.4627],[20.6166,-25.4661],[20.6066,-25.462],[20.6059,-25.4518],[20.6114,-25.4394],[20.612,-25.431],[20.5969,-25.4329]]]}},{"type":"Feature","properties":{"id":"BWA-2646","name":"Kgatleng","nameBn":"ঘালেং জেলা","type":"District","bounds":[25.8862,-24.6608,26.9666,-23.5663],"center":[26.4263,-24.2001]},"geometry":{"type":"Polygon","coordinates":[[[26.9645,-23.7471],[26.9666,-23.7552],[26.9381,-23.8029],[26.945,-23.8232],[26.9412,-23.8502],[26.8709,-24.1158],[26.8689,-24.1604],[26.8497,-24.2481],[26.8392,-24.2656],[26.8233,-24.2788],[26.8023,-24.2897],[26.714,-24.3159],[26.6929,-24.3266],[26.6841,-24.3415],[26.6235,-24.3994],[26.5584,-24.4382],[26.5312,-24.4587],[26.5061,-24.4888],[26.4768,-24.5599],[26.4695,-24.5714],[26.4044,-24.6328],[26.404,-24.6328],[26.3816,-24.6295],[26.3635,-24.6281],[26.3445,-24.624],[26.3257,-24.6224],[26.2788,-24.6285],[26.1659,-24.6608],[26.1658,-24.6607],[26.1568,-24.6471],[26.1124,-24.6085],[26.0334,-24.5589],[25.9512,-24.5074],[25.9349,-24.4975],[25.915,-24.4884],[25.904,-24.486],[25.8944,-24.4787],[25.8878,-24.4591],[25.8862,-24.4307],[25.9005,-24.3744],[25.9129,-24.3452],[25.9262,-24.3228],[25.9566,-24.1765],[26.0204,-23.5663],[26.7175,-23.9479],[26.7215,-23.9449],[26.7251,-23.9414],[26.7281,-23.9348],[26.7296,-23.9339],[26.7761,-23.8805],[26.8012,-23.8581],[26.8088,-23.8566],[26.8276,-23.8593],[26.8354,-23.8581],[26.8394,-23.8534],[26.8452,-23.8378],[26.849,-23.8307],[26.872,-23.8027],[26.882,-23.7872],[26.89,-23.7687],[26.8929,-23.7739],[26.9006,-23.7843],[26.9037,-23.7898],[26.9272,-23.7606],[26.9398,-23.7505],[26.9589,-23.7482],[26.9643,-23.7472],[26.9645,-23.7471]]]}},{"type":"Feature","properties":{"id":"BWA-2647","name":"Kweneng","nameBn":"কেনেং জেলা","type":"District","bounds":[22.9554,-24.7691,26.0204,-22.9519],"center":[24.4879,-23.8665]},"geometry":{"type":"Polygon","coordinates":[[[25.2417,-23.3185],[25.4393,-22.9519],[25.7316,-23.3103],[25.7397,-23.3174],[25.7526,-23.3228],[25.8407,-23.3491],[25.8856,-23.3905],[26.0204,-23.5663],[25.9566,-24.1765],[25.9262,-24.3228],[25.9129,-24.3452],[25.9005,-24.3744],[25.8862,-24.4307],[25.8878,-24.4591],[25.8944,-24.4787],[25.904,-24.486],[25.915,-24.4884],[25.9349,-24.4975],[25.9512,-24.5074],[25.8349,-24.6227],[25.6872,-24.7691],[25.6027,-24.7661],[25.5848,-24.7623],[25.4667,-24.7021],[24.8136,-24.5119],[24.6397,-24.4612],[23.0534,-23.9991],[23.0501,-23.6427],[23.0323,-23.5696],[22.9756,-23.5697],[22.9659,-23.5687],[22.959,-23.5661],[22.9567,-23.5586],[22.9554,-23.4627],[22.959,-23.4249],[22.9673,-23.4169],[22.9773,-23.4132],[23.0227,-23.4143],[23.043,-23.3974],[23.0575,-23.3113],[25.2417,-23.3185]]]}},{"type":"Feature","properties":{"id":"BWA-5503","name":"Lobatse","nameBn":"লোবাৎসে","type":"Town","bounds":[25.6593,-25.239,25.7056,-25.1718],"center":[25.6842,-25.2144]},"geometry":{"type":"Polygon","coordinates":[[[25.6809,-25.1718],[25.6857,-25.1728],[25.6874,-25.1831],[25.6991,-25.1811],[25.7008,-25.1883],[25.7056,-25.1927],[25.6994,-25.1989],[25.7005,-25.2037],[25.6936,-25.2088],[25.6963,-25.2146],[25.7049,-25.2143],[25.7053,-25.2242],[25.6991,-25.2338],[25.6874,-25.239],[25.6806,-25.2345],[25.67,-25.2376],[25.6593,-25.2386],[25.6597,-25.2359],[25.6679,-25.2253],[25.6713,-25.214],[25.6717,-25.1985],[25.6772,-25.1811],[25.6809,-25.1718]]]}},{"type":"Feature","properties":{"id":"BWA-4853","name":"North-East","nameBn":"নর্থ-ইস্ট জেলা","type":"District","bounds":[27.2152,-21.5519,27.9904,-20.473],"center":[27.4487,-20.9374]},"geometry":{"type":"Polygon","coordinates":[[[27.3407,-20.473],[27.4539,-20.4733],[27.5341,-20.483],[27.5909,-20.4733],[27.6258,-20.4886],[27.666,-20.4891],[27.6838,-20.4961],[27.6981,-20.5091],[27.7056,-20.5267],[27.7026,-20.5661],[27.6904,-20.6015],[27.6825,-20.6373],[27.7073,-20.7167],[27.7096,-20.7567],[27.6944,-20.8377],[27.689,-20.849],[27.6818,-20.8576],[27.676,-20.8667],[27.6748,-20.8799],[27.6751,-20.8913],[27.6726,-20.9137],[27.6727,-20.9235],[27.6804,-20.9796],[27.679,-21.0007],[27.6668,-21.0538],[27.6666,-21.0712],[27.6748,-21.0901],[27.7092,-21.1345],[27.7244,-21.1497],[27.7938,-21.1974],[27.8236,-21.2317],[27.8491,-21.2697],[27.885,-21.3102],[27.8944,-21.3243],[27.8967,-21.3324],[27.8962,-21.3479],[27.8978,-21.3554],[27.9042,-21.3647],[27.9205,-21.3812],[27.9502,-21.4383],[27.953,-21.4487],[27.9496,-21.4565],[27.9419,-21.4685],[27.9399,-21.478],[27.9433,-21.4799],[27.9504,-21.482],[27.9544,-21.4878],[27.9493,-21.5008],[27.9532,-21.5105],[27.9581,-21.5115],[27.9637,-21.5105],[27.9706,-21.5144],[27.9757,-21.5226],[27.9847,-21.5429],[27.9904,-21.5519],[27.9156,-21.5458],[27.859,-21.5175],[27.7883,-21.5175],[27.7246,-21.5246],[27.6397,-21.5034],[27.569,-21.5034],[27.4912,-21.468],[27.4416,-21.4114],[27.4063,-21.3478],[27.385,-21.2558],[27.3497,-21.1638],[27.3072,-21.0648],[27.2718,-21.0011],[27.2294,-20.9445],[27.2152,-20.8455],[27.2152,-20.7747],[27.2294,-20.704],[27.2506,-20.6191],[27.2718,-20.5625],[27.2684,-20.4958],[27.306,-20.4774],[27.3407,-20.473]],[[27.5387,-21.2158],[27.5557,-21.2117],[27.5593,-21.2056],[27.5575,-21.1987],[27.5563,-21.1872],[27.5575,-21.175],[27.5534,-21.1673],[27.5438,-21.1633],[27.5384,-21.1605],[27.5343,-21.1457],[27.5402,-21.1319],[27.5512,-21.1237],[27.5522,-21.1151],[27.5461,-21.1074],[27.5376,-21.1069],[27.5282,-21.1117],[27.5065,-21.1222],[27.4953,-21.1247],[27.4876,-21.1365],[27.4818,-21.1441],[27.469,-21.1533],[27.4588,-21.1559],[27.4583,-21.1594],[27.4596,-21.1668],[27.454,-21.1722],[27.4471,-21.176],[27.4433,-21.1865],[27.4425,-21.1987],[27.4466,-21.2061],[27.4634,-21.2104],[27.4859,-21.2112],[27.4915,-21.1987],[27.5068,-21.202],[27.5343,-21.2155],[27.5387,-21.2158]]]}},{"type":"Feature","properties":{"id":"BWA-2629","name":"North-West","nameBn":"নর্থ ওয়েস্ট জেলা","type":"District","bounds":[20.9751,-21.0,25.9674,-17.7818],"center":[23.4709,-19.6141]},"geometry":{"type":"Polygon","coordinates":[[[25.2598,-17.7941],[25.2194,-17.8798],[25.2194,-17.908],[25.2261,-17.9319],[25.255,-18.0011],[25.2964,-18.0686],[25.3234,-18.0966],[25.3574,-18.1158],[25.3875,-18.139],[25.4088,-18.176],[25.4409,-18.2532],[25.4732,-18.3034],[25.4812,-18.3234],[25.4905,-18.3655],[25.4956,-18.3789],[25.5085,-18.3991],[25.5744,-18.4657],[25.6084,-18.4877],[25.6221,-18.5011],[25.6695,-18.566],[25.6983,-18.5902],[25.7369,-18.6087],[25.7619,-18.6303],[25.7734,-18.6656],[25.7795,-18.7388],[25.8153,-18.814],[25.9407,-18.9213],[25.9674,-18.9999],[25.9672,-18.9999],[25.0002,-18.9999],[24.9907,-18.9999],[24.9921,-19.9955],[24.9952,-19.9989],[24.9972,-20.0003],[25.1622,-20.067],[25.1677,-20.0732],[25.1698,-20.0841],[25.1623,-20.3167],[25.1603,-20.329],[25.156,-20.3384],[25.1451,-20.3423],[24.5045,-20.3921],[24.4934,-20.3909],[24.4786,-20.3893],[24.4575,-20.3897],[24.4221,-20.4012],[24.4021,-20.4028],[24.3783,-20.3943],[24.3623,-20.3771],[24.3347,-20.3375],[24.2963,-20.3086],[24.2812,-20.2939],[24.2543,-20.2423],[24.2422,-20.2426],[24.2285,-20.2497],[24.2088,-20.2425],[24.1828,-20.2151],[24.1717,-20.2062],[24.1571,-20.1988],[24.1474,-20.1996],[24.1382,-20.2047],[24.1248,-20.21],[24.0865,-20.216],[24.0762,-20.2215],[24.0588,-20.2367],[24.0478,-20.2414],[24.0358,-20.2441],[24.0266,-20.2479],[24.0186,-20.2538],[23.9957,-20.2797],[23.9954,-20.2835],[23.9969,-20.289],[23.9978,-20.2949],[23.9954,-20.3001],[23.9337,-20.316],[23.9223,-20.3165],[23.9093,-20.3122],[23.8835,-20.2967],[23.879,-20.3165],[23.8814,-21.0],[21.0001,-21.0],[20.9815,-21.0],[20.9811,-20.8758],[20.9807,-20.7507],[20.9802,-20.6258],[20.9798,-20.5007],[20.9794,-20.3758],[20.9794,-20.351],[20.9791,-20.2508],[20.9787,-20.1259],[20.9783,-20.0008],[20.978,-19.8758],[20.9776,-19.7508],[20.977,-19.6258],[20.9767,-19.5009],[20.9763,-19.3758],[20.9758,-19.2509],[20.9756,-19.1721],[20.9755,-19.1259],[20.9751,-19.001],[20.9751,-18.96],[20.9751,-18.9192],[20.9751,-18.8784],[20.9751,-18.8377],[20.9751,-18.7968],[20.9751,-18.756],[20.9751,-18.7152],[20.9751,-18.6744],[20.9751,-18.6335],[20.9751,-18.5927],[20.9751,-18.552],[20.9751,-18.5111],[20.9751,-18.4701],[20.9751,-18.4293],[20.9751,-18.3886],[20.9751,-18.3478],[20.9751,-18.3193],[20.9934,-18.3186],[21.0242,-18.3174],[21.0806,-18.3152],[21.1369,-18.3129],[21.1935,-18.3108],[21.2499,-18.3085],[21.2968,-18.3066],[21.3439,-18.3048],[21.3909,-18.3029],[21.4379,-18.3011],[21.4568,-18.3002],[21.4757,-18.2995],[21.4929,-18.2964],[21.5098,-18.2932],[21.527,-18.29],[21.544,-18.2868],[21.6285,-18.2712],[21.7127,-18.2556],[21.7971,-18.2399],[21.8815,-18.2242],[21.966,-18.2086],[22.0503,-18.1928],[22.1346,-18.1772],[22.219,-18.1615],[22.3035,-18.1458],[22.3878,-18.1302],[22.4721,-18.1145],[22.5565,-18.0988],[22.6409,-18.0832],[22.7253,-18.0675],[22.8097,-18.0519],[22.894,-18.0362],[22.9814,-18.02],[23.0996,-18.0102],[23.1858,-18.0031],[23.2549,-17.9974],[23.2928,-17.999],[23.3057,-18.0055],[23.3115,-18.0098],[23.3128,-18.0165],[23.3127,-18.03],[23.3159,-18.0371],[23.3233,-18.0392],[23.3306,-18.04],[23.3338,-18.0433],[23.3326,-18.0671],[23.3338,-18.074],[23.3366,-18.0794],[23.3481,-18.0944],[23.3595,-18.1192],[23.3897,-18.1533],[23.3958,-18.1634],[23.3963,-18.1694],[23.3945,-18.1862],[23.3958,-18.1914],[23.4013,-18.1943],[23.4103,-18.1974],[23.4189,-18.1984],[23.4294,-18.1885],[23.4443,-18.2007],[23.4588,-18.2176],[23.4641,-18.2255],[23.4778,-18.2309],[23.4913,-18.2331],[23.5015,-18.2375],[23.5057,-18.2494],[23.5113,-18.2603],[23.5217,-18.2682],[23.5273,-18.2777],[23.5188,-18.2937],[23.5515,-18.3275],[23.5608,-18.3485],[23.5466,-18.3695],[23.5555,-18.3831],[23.5713,-18.426],[23.5792,-18.4679],[23.5922,-18.4782],[23.6099,-18.4777],[23.6454,-18.466],[23.6499,-18.4634],[23.6565,-18.4583],[23.6801,-18.4315],[23.7009,-18.428],[23.7158,-18.4191],[23.8098,-18.3217],[23.8256,-18.3171],[23.8372,-18.3058],[23.8552,-18.2801],[23.8675,-18.2694],[23.897,-18.2502],[23.9129,-18.2357],[23.916,-18.2012],[23.9508,-18.1776],[23.9566,-18.1766],[23.962,-18.1779],[23.9667,-18.1806],[23.9712,-18.1838],[23.9749,-18.177],[23.9797,-18.1719],[23.9917,-18.1634],[24.0203,-18.1516],[24.0281,-18.1458],[24.057,-18.119],[24.0651,-18.1152],[24.1016,-18.1088],[24.1351,-18.0855],[24.1831,-18.0294],[24.2183,-18.0126],[24.2382,-18.0099],[24.2592,-18.0126],[24.2701,-18.0158],[24.2874,-18.0245],[24.2964,-18.0262],[24.3058,-18.0194],[24.3343,-17.9716],[24.3506,-17.9561],[24.3653,-17.9508],[24.3995,-17.9523],[24.4216,-17.9565],[24.4339,-17.9672],[24.451,-17.999],[24.4585,-18.0058],[24.4651,-18.0087],[24.4698,-18.0145],[24.4715,-18.03],[24.5056,-18.0603],[24.5184,-18.0573],[24.5644,-18.0528],[24.5746,-18.0504],[24.5778,-18.0444],[24.5918,-18.0284],[24.595,-18.0228],[24.5986,-18.0208],[24.6492,-17.9628],[24.6641,-17.9499],[24.6985,-17.9289],[24.7253,-17.8959],[24.7307,-17.8919],[24.7382,-17.8876],[24.7468,-17.8842],[24.756,-17.8828],[24.7645,-17.8797],[24.7707,-17.8655],[24.7769,-17.8623],[24.7974,-17.8581],[24.8208,-17.8393],[24.8381,-17.835],[24.8574,-17.8336],[24.9311,-17.8105],[24.9376,-17.8071],[24.9452,-17.8],[24.9486,-17.7933],[24.9533,-17.7884],[24.9643,-17.7867],[24.9581,-17.8009],[24.9686,-17.8076],[24.9751,-17.8163],[24.9833,-17.8205],[24.9985,-17.8139],[25.0071,-17.8257],[25.0197,-17.8238],[25.0475,-17.8071],[25.057,-17.8277],[25.0879,-17.8268],[25.1209,-17.8135],[25.1539,-17.7818],[25.1942,-17.7823],[25.2598,-17.7941]]]}},{"type":"Feature","properties":{"id":"BWA-5504","name":"Selebi-Phikwe","nameBn":"সেলেবি-পিখবে","type":"Town","bounds":[27.8078,-21.997,27.8829,-21.9207],"center":[27.8625,-21.9728]},"geometry":{"type":"Polygon","coordinates":[[[27.866,-21.9207],[27.8702,-21.9248],[27.8739,-21.9349],[27.8728,-21.9418],[27.8715,-21.9515],[27.8805,-21.957],[27.8829,-21.9607],[27.8789,-21.9656],[27.8778,-21.9744],[27.8739,-21.9836],[27.86,-21.9882],[27.8519,-21.9937],[27.8435,-21.9961],[27.8371,-21.99],[27.8294,-21.9887],[27.821,-21.995],[27.8105,-21.997],[27.8085,-21.9918],[27.8081,-21.9843],[27.8118,-21.9783],[27.8103,-21.9733],[27.8078,-21.97],[27.8079,-21.9655],[27.8189,-21.9603],[27.8259,-21.9631],[27.8321,-21.9622],[27.8424,-21.9576],[27.8424,-21.9482],[27.8501,-21.94],[27.8508,-21.9332],[27.8556,-21.9239],[27.866,-21.9207]]]}},{"type":"Feature","properties":{"id":"BWA-2648","name":"South-East","nameBn":"সাউথ ইস্ট জেলা","type":"District","bounds":[25.5423,-25.4633,26.1659,-24.5589],"center":[25.7446,-24.9869]},"geometry":{"type":"Polygon","coordinates":[[[26.1659,-24.6608],[26.0136,-24.7045],[25.9811,-24.7263],[25.966,-24.7336],[25.9147,-24.7318],[25.8817,-24.7422],[25.8741,-24.7434],[25.8684,-24.7482],[25.8669,-24.7726],[25.8773,-24.8457],[25.8767,-24.886],[25.8662,-24.9182],[25.8371,-24.9791],[25.8352,-25.0164],[25.8049,-25.0648],[25.7829,-25.1314],[25.6955,-25.31],[25.6635,-25.44],[25.6528,-25.4633],[25.6525,-25.4632],[25.5482,-25.424],[25.5428,-25.4132],[25.5423,-25.402],[25.6567,-25.0382],[25.6597,-25.0247],[25.6598,-25.0114],[25.6501,-25.0074],[25.637,-25.0063],[25.6095,-25.0076],[25.601,-25.0068],[25.5993,-25.0026],[25.5988,-25.001],[25.6309,-24.9133],[25.6362,-24.8873],[25.6348,-24.8739],[25.6439,-24.8655],[25.6564,-24.8509],[25.6683,-24.8403],[25.6872,-24.7691],[25.8349,-24.6227],[25.8402,-24.651],[25.8448,-24.6866],[25.8575,-24.7084],[25.8916,-24.7162],[25.9149,-24.7096],[25.9574,-24.7073],[25.9827,-24.6751],[25.9827,-24.6499],[26.0321,-24.5821],[26.0334,-24.5589],[26.1124,-24.6085],[26.1568,-24.6471],[26.1658,-24.6607],[26.1659,-24.6608]],[[25.6874,-25.1831],[25.6857,-25.1728],[25.6809,-25.1718],[25.6772,-25.1811],[25.6717,-25.1985],[25.6713,-25.214],[25.6679,-25.2253],[25.6597,-25.2359],[25.6593,-25.2386],[25.67,-25.2376],[25.6806,-25.2345],[25.6874,-25.239],[25.6991,-25.2338],[25.7053,-25.2242],[25.7049,-25.2143],[25.6963,-25.2146],[25.6936,-25.2088],[25.7005,-25.2037],[25.6994,-25.1989],[25.7056,-25.1927],[25.7008,-25.1883],[25.6991,-25.1811],[25.6874,-25.1831]]]}},{"type":"Feature","properties":{"id":"BWA-2649","name":"Southern","nameBn":"সাউদার্ন জেলা","type":"District","bounds":[23.0493,-25.8292,25.6872,-23.9991],"center":[24.3683,-25.0004]},"geometry":{"type":"Polygon","coordinates":[[[25.6528,-25.4633],[25.6089,-25.5593],[25.5873,-25.6195],[25.4584,-25.7112],[25.3865,-25.7435],[25.1778,-25.7633],[25.136,-25.7566],[25.0903,-25.7436],[25.0517,-25.7379],[25.0133,-25.743],[24.9679,-25.7629],[24.9084,-25.8041],[24.8885,-25.8117],[24.8289,-25.826],[24.7986,-25.8292],[24.7707,-25.8226],[24.738,-25.8159],[24.665,-25.8233],[24.6296,-25.8161],[24.5767,-25.7833],[24.5009,-25.7578],[24.4867,-25.6726],[24.4601,-25.6537],[24.414,-25.6506],[24.3985,-25.6463],[24.2831,-25.5405],[24.2503,-25.5014],[24.2344,-25.0258],[24.2299,-25.004],[24.2193,-24.9874],[24.2065,-24.9719],[24.0907,-24.8623],[24.075,-24.851],[24.0596,-24.8469],[24.0441,-24.8453],[23.0852,-24.8506],[23.0703,-24.8492],[23.0565,-24.8458],[23.0512,-24.8357],[23.0493,-24.8232],[23.0534,-23.9991],[24.6397,-24.4612],[24.6376,-24.6603],[24.8206,-24.652],[24.8136,-24.5119],[25.4667,-24.7021],[25.5848,-24.7623],[25.6027,-24.7661],[25.6872,-24.7691],[25.6683,-24.8403],[25.6564,-24.8509],[25.6439,-24.8655],[25.6348,-24.8739],[25.6362,-24.8873],[25.6309,-24.9133],[25.5988,-25.001],[25.5993,-25.0026],[25.601,-25.0068],[25.6095,-25.0076],[25.637,-25.0063],[25.6501,-25.0074],[25.6598,-25.0114],[25.6597,-25.0247],[25.6567,-25.0382],[25.5423,-25.402],[25.5428,-25.4132],[25.5482,-25.424],[25.6525,-25.4632],[25.6528,-25.4633]]]}},{"type":"Feature","properties":{"id":"BWA-5505","name":"Sowa","nameBn":"সোবা","type":"Township","bounds":[26.1204,-20.5986,26.256,-20.5446],"center":[26.1919,-20.5752]},"geometry":{"type":"Polygon","coordinates":[[[26.1263,-20.5446],[26.1437,-20.5467],[26.1948,-20.5585],[26.21,-20.5551],[26.2332,-20.5518],[26.256,-20.5594],[26.2522,-20.5986],[26.2003,-20.5944],[26.1466,-20.5801],[26.1204,-20.5678],[26.1263,-20.5446]]]}}]}