{"type":"FeatureCollection","features":[{"type":"Feature","properties":{"id":"CZE-10370","name":"Jihomoravský","nameBn":"সাউথ মুরাভিয়ান অঞ্চল","type":"Region","bounds":[15.5442,48.6042,17.646,49.634],"center":[16.7484,49.1054]},"geometry":{"type":"Polygon","coordinates":[[[15.7038,48.855],[15.6813,48.8585],[15.6037,48.8874],[15.5442,48.9026],[15.5443,48.9029],[15.5467,48.9123],[15.5509,48.9183],[15.5546,48.9263],[15.5699,48.9516],[15.5747,48.9621],[15.5747,48.9662],[15.5775,48.9708],[15.5821,48.9735],[15.588,48.9746],[15.5948,48.9738],[15.6021,48.9713],[15.6094,48.9671],[15.6283,48.9474],[15.6341,48.9453],[15.6398,48.9461],[15.645,48.9489],[15.6531,48.9567],[15.6563,48.9611],[15.6632,48.9666],[15.6737,48.9721],[15.68,48.9737],[15.6868,48.974],[15.6938,48.9723],[15.7238,48.9552],[15.7296,48.9539],[15.7358,48.9544],[15.8082,48.9976],[15.8363,49.0061],[15.8709,49.0039],[15.8774,49.0061],[15.8823,49.0104],[15.8874,49.0244],[15.8913,49.0292],[15.8962,49.032],[15.9015,49.0333],[15.9109,49.0332],[15.915,49.0323],[15.9408,49.0534],[15.9483,49.0561],[15.9549,49.0557],[15.96,49.0511],[15.9644,49.0451],[15.9692,49.0408],[15.9745,49.0381],[15.9864,49.0359],[16.0164,49.0367],[16.0226,49.0384],[16.0404,49.0472],[16.0449,49.0479],[16.1138,49.0405],[16.1242,49.0429],[16.1325,49.0473],[16.1532,49.0676],[16.1573,49.07],[16.2277,49.0849],[16.2495,49.1024],[16.2564,49.1122],[16.258,49.1171],[16.2581,49.1217],[16.2563,49.1261],[16.2482,49.1389],[16.2469,49.1434],[16.247,49.1481],[16.2489,49.153],[16.2531,49.1581],[16.2671,49.1692],[16.2716,49.1747],[16.2737,49.1799],[16.2736,49.1847],[16.2716,49.189],[16.268,49.1926],[16.2627,49.1954],[16.2503,49.1996],[16.2462,49.2033],[16.2437,49.2081],[16.2427,49.2137],[16.2441,49.2263],[16.2488,49.2386],[16.2524,49.2432],[16.2572,49.2462],[16.2783,49.2518],[16.2814,49.2539],[16.2825,49.2573],[16.2819,49.2611],[16.2802,49.2641],[16.2732,49.2726],[16.2714,49.2763],[16.2707,49.2811],[16.2713,49.2873],[16.2735,49.2942],[16.2772,49.3006],[16.2877,49.3117],[16.3003,49.32],[16.3875,49.3548],[16.3915,49.3597],[16.3926,49.3657],[16.3914,49.3726],[16.3725,49.4111],[16.3705,49.4183],[16.3683,49.4639],[16.3625,49.4773],[16.3629,49.4819],[16.3656,49.4853],[16.3702,49.4875],[16.4001,49.491],[16.4041,49.4941],[16.407,49.4987],[16.4086,49.5044],[16.4091,49.5105],[16.4082,49.5167],[16.4061,49.5225],[16.4025,49.5273],[16.375,49.5451],[16.3725,49.5495],[16.3726,49.5547],[16.3851,49.5746],[16.3897,49.5862],[16.392,49.5973],[16.416,49.5959],[16.5346,49.6034],[16.5434,49.6081],[16.5467,49.6122],[16.5485,49.6188],[16.5498,49.6272],[16.5549,49.6315],[16.5636,49.6339],[16.617,49.634],[16.6245,49.6327],[16.637,49.6288],[16.6461,49.6281],[16.6799,49.6297],[16.7048,49.6282],[16.7282,49.6229],[16.7783,49.6064],[16.7892,49.6079],[16.7852,49.5958],[16.7805,49.5883],[16.7751,49.5844],[16.769,49.5833],[16.7372,49.5883],[16.7301,49.5868],[16.7273,49.5828],[16.7281,49.577],[16.7319,49.57],[16.7455,49.555],[16.7882,49.5275],[16.7906,49.5242],[16.7906,49.5215],[16.7879,49.5194],[16.7767,49.5158],[16.7745,49.5117],[16.775,49.5061],[16.7776,49.4993],[16.8025,49.458],[16.8037,49.4523],[16.8036,49.4469],[16.8021,49.4418],[16.799,49.4369],[16.7943,49.4323],[16.7878,49.428],[16.7834,49.4235],[16.7842,49.4186],[16.7891,49.4135],[16.8435,49.386],[16.852,49.3863],[16.8609,49.3888],[16.8697,49.3932],[16.8859,49.4048],[16.8975,49.4167],[16.9005,49.4223],[16.9013,49.4285],[16.9002,49.4349],[16.8979,49.4413],[16.8908,49.4531],[16.8726,49.473],[16.8711,49.4764],[16.8704,49.4807],[16.8722,49.4926],[16.8759,49.4986],[16.8824,49.5021],[16.8908,49.5035],[16.9007,49.5032],[16.9397,49.4926],[16.9468,49.4885],[16.959,49.4759],[16.968,49.4608],[16.9747,49.4375],[16.9781,49.4324],[16.9831,49.427],[17.0295,49.3975],[17.0329,49.3939],[17.0353,49.3896],[17.0366,49.3845],[17.0351,49.365],[17.0381,49.3594],[17.0438,49.3549],[17.0605,49.3485],[17.0979,49.3409],[17.1182,49.3281],[17.137,49.3099],[17.1489,49.2918],[17.1506,49.2845],[17.1502,49.2788],[17.1491,49.2741],[17.1484,49.2723],[17.1474,49.2701],[17.131,49.2508],[17.1286,49.2443],[17.1295,49.2359],[17.1383,49.2163],[17.1519,49.1978],[17.1647,49.1861],[17.1909,49.1759],[17.1952,49.173],[17.1987,49.1691],[17.2013,49.1636],[17.2019,49.1578],[17.1999,49.1529],[17.1957,49.1489],[17.1832,49.1431],[17.1562,49.1365],[17.1513,49.1334],[17.1254,49.1091],[17.1101,49.1001],[17.1083,49.0954],[17.1105,49.0907],[17.1158,49.0862],[17.1234,49.0823],[17.1417,49.0771],[17.1591,49.077],[17.2078,49.088],[17.2153,49.0876],[17.221,49.0851],[17.2238,49.0801],[17.2244,49.0734],[17.2218,49.0423],[17.2238,49.037],[17.2278,49.0332],[17.2333,49.03],[17.2744,49.0173],[17.3363,49.0089],[17.341,49.0068],[17.3448,49.0029],[17.35,48.9924],[17.3531,48.978],[17.3886,48.9681],[17.4064,48.9586],[17.4173,48.9477],[17.4237,48.9452],[17.4311,48.9446],[17.4389,48.9456],[17.4707,48.957],[17.5002,48.9543],[17.5232,48.9483],[17.5269,48.9458],[17.5335,48.9386],[17.5385,48.9293],[17.5416,48.9189],[17.5446,48.9145],[17.551,48.9114],[17.6052,48.9008],[17.6147,48.8964],[17.6225,48.8901],[17.629,48.8821],[17.6386,48.8644],[17.646,48.8418],[17.5351,48.813],[17.4985,48.8168],[17.4679,48.8381],[17.4533,48.8428],[17.4296,48.8382],[17.4112,48.8302],[17.3917,48.8218],[17.3744,48.8196],[17.2603,48.8578],[17.2122,48.8661],[17.1675,48.8598],[17.1137,48.8339],[17.1046,48.8246],[17.0987,48.8058],[17.0844,48.7937],[17.0499,48.774],[17.0253,48.7463],[16.9748,48.6499],[16.9633,48.6359],[16.9475,48.6232],[16.945,48.6042],[16.9105,48.6308],[16.8967,48.697],[16.873,48.719],[16.8566,48.7198],[16.8181,48.7108],[16.7989,48.7092],[16.7805,48.7138],[16.7443,48.7296],[16.729,48.7331],[16.691,48.7321],[16.6751,48.7339],[16.662,48.74],[16.6547,48.7519],[16.651,48.7662],[16.6431,48.7783],[16.624,48.7834],[16.6055,48.7848],[16.5458,48.7963],[16.5287,48.8035],[16.5195,48.8056],[16.5103,48.8048],[16.4923,48.7997],[16.4819,48.7994],[16.4531,48.8022],[16.4357,48.7945],[16.385,48.7371],[16.374,48.7303],[16.3583,48.7273],[16.3527,48.7284],[16.3395,48.7356],[16.3187,48.7335],[16.3176,48.7328],[16.1778,48.7465],[16.0854,48.7429],[16.0323,48.7581],[15.9318,48.8064],[15.9303,48.8114],[15.9303,48.8183],[15.9251,48.8226],[15.9081,48.8197],[15.9071,48.8303],[15.8996,48.8347],[15.8884,48.8351],[15.8758,48.8331],[15.886,48.842],[15.8776,48.8417],[15.8702,48.8439],[15.8592,48.8492],[15.8401,48.8501],[15.8333,48.852],[15.8283,48.8571],[15.8243,48.8694],[15.8185,48.8723],[15.7879,48.8723],[15.7792,48.8709],[15.7437,48.8585],[15.7268,48.855],[15.7038,48.855]]]}},{"type":"Feature","properties":{"id":"CZE-1593","name":"Jihočeský","nameBn":"সাউথ বুহেমিয়া অঞ্চল","type":"Region","bounds":[13.5211,48.5579,15.5984,49.6139],"center":[14.5598,49.0726]},"geometry":{"type":"Polygon","coordinates":[[[13.5905,48.9448],[13.5734,48.951],[13.5565,48.96],[13.5389,48.967],[13.5224,48.9693],[13.5224,48.9696],[13.5211,48.979],[13.5429,49.0094],[13.5661,49.0332],[13.5877,49.0472],[13.5924,49.0525],[13.5953,49.0584],[13.5956,49.067],[13.5947,49.072],[13.593,49.0778],[13.5925,49.0886],[13.5961,49.1031],[13.609,49.1249],[13.6195,49.1327],[13.6288,49.1356],[13.6409,49.134],[13.6453,49.1346],[13.6491,49.1364],[13.6588,49.1451],[13.6852,49.1778],[13.6941,49.1835],[13.7045,49.188],[13.7126,49.1899],[13.7181,49.1932],[13.7188,49.197],[13.7145,49.204],[13.7005,49.2134],[13.6965,49.2171],[13.6951,49.2206],[13.6957,49.2244],[13.6993,49.2283],[13.7057,49.2338],[13.7088,49.2375],[13.71,49.2414],[13.71,49.247],[13.7044,49.2565],[13.7041,49.2598],[13.7053,49.2637],[13.7102,49.2676],[13.7142,49.2701],[13.7316,49.2769],[13.7364,49.2796],[13.7398,49.2839],[13.7438,49.2909],[13.7494,49.3035],[13.7584,49.3164],[13.7776,49.3375],[13.7818,49.3436],[13.7831,49.3503],[13.7818,49.3589],[13.7764,49.3765],[13.7742,49.3888],[13.7759,49.4042],[13.7829,49.423],[13.7839,49.428],[13.7825,49.4365],[13.7698,49.4689],[13.7556,49.4895],[13.8136,49.5117],[13.8193,49.5121],[13.824,49.5113],[13.8357,49.5061],[13.8413,49.5049],[13.8622,49.5044],[13.8688,49.5034],[13.8744,49.5021],[13.8801,49.4994],[13.8982,49.4926],[13.9066,49.4919],[13.917,49.4927],[13.9349,49.4987],[13.9403,49.5014],[13.9479,49.504],[13.9961,49.5138],[13.9994,49.5154],[14.0019,49.5173],[14.0073,49.5289],[14.0121,49.5357],[14.0186,49.5392],[14.0298,49.5431],[14.0369,49.544],[14.0446,49.5434],[14.0546,49.5398],[14.0669,49.5335],[14.0728,49.5323],[14.0914,49.5313],[14.1043,49.5284],[14.1308,49.5277],[14.1891,49.5327],[14.209,49.538],[14.227,49.5497],[14.2312,49.5516],[14.236,49.5526],[14.248,49.5541],[14.264,49.554],[14.2759,49.552],[14.2812,49.5502],[14.2844,49.5479],[14.2882,49.5414],[14.2902,49.5388],[14.2923,49.5373],[14.2951,49.5366],[14.299,49.5362],[14.3038,49.535],[14.3074,49.5333],[14.3116,49.5301],[14.3136,49.5278],[14.3184,49.5232],[14.3206,49.5218],[14.3231,49.5206],[14.326,49.5196],[14.3305,49.5185],[14.3381,49.5181],[14.3484,49.5189],[14.3952,49.536],[14.4034,49.5372],[14.4159,49.5375],[14.4292,49.5354],[14.4458,49.5294],[14.4646,49.5278],[14.5757,49.5307],[14.5879,49.5286],[14.587,49.5256],[14.5867,49.5228],[14.5872,49.5202],[14.5889,49.5191],[14.6126,49.5166],[14.6233,49.5176],[14.6342,49.5196],[14.6581,49.5294],[14.6727,49.5392],[14.6795,49.5413],[14.7119,49.5458],[14.7259,49.553],[14.7323,49.5592],[14.7347,49.5854],[14.7354,49.5885],[14.7363,49.5913],[14.7425,49.5996],[14.7467,49.6036],[14.7498,49.606],[14.762,49.6128],[14.7668,49.6139],[14.7707,49.6134],[14.7762,49.6096],[14.7833,49.6032],[14.7866,49.6011],[14.7919,49.5991],[14.8215,49.5932],[14.8269,49.5902],[14.8303,49.5864],[14.831,49.5837],[14.8314,49.5772],[14.8365,49.5752],[14.8466,49.5746],[14.8659,49.5768],[14.8779,49.574],[14.8846,49.5712],[14.887,49.568],[14.8901,49.5617],[14.8932,49.5572],[14.8974,49.5531],[14.9025,49.5494],[14.9071,49.5467],[14.9116,49.5449],[14.9163,49.5437],[14.9228,49.5443],[14.937,49.5344],[14.9412,49.53],[14.9437,49.5252],[14.9436,49.5205],[14.94,49.5161],[14.9332,49.5127],[14.8978,49.506],[14.892,49.5034],[14.8895,49.4995],[14.9044,49.4645],[14.9071,49.4482],[14.9063,49.4298],[14.8852,49.3755],[14.885,49.3685],[14.8875,49.3623],[14.8919,49.3575],[14.9084,49.347],[14.9113,49.3444],[14.9131,49.3409],[14.9138,49.3361],[14.9115,49.3155],[14.9125,49.3105],[14.9154,49.3055],[14.9206,49.3003],[14.9581,49.2774],[14.9771,49.2698],[14.9862,49.269],[14.9952,49.2709],[15.0123,49.2813],[15.0211,49.2833],[15.0297,49.2827],[15.0458,49.2766],[15.0682,49.2623],[15.0969,49.2498],[15.1233,49.2268],[15.1634,49.2097],[15.1678,49.2098],[15.172,49.2118],[15.1895,49.2292],[15.1946,49.2315],[15.2001,49.2327],[15.2063,49.2324],[15.2589,49.2144],[15.2631,49.2126],[15.2745,49.2105],[15.3231,49.2068],[15.3317,49.2046],[15.3373,49.1994],[15.3413,49.191],[15.3433,49.1747],[15.3458,49.1658],[15.3491,49.159],[15.354,49.1547],[15.4015,49.1251],[15.4052,49.1237],[15.4099,49.1231],[15.4266,49.1251],[15.4311,49.1252],[15.4783,49.1195],[15.4926,49.1202],[15.5314,49.1304],[15.5356,49.131],[15.539,49.1309],[15.5427,49.1292],[15.5902,49.0985],[15.5966,49.0929],[15.5984,49.0894],[15.5983,49.0867],[15.5956,49.0843],[15.5914,49.0822],[15.5863,49.0804],[15.5795,49.0793],[15.5574,49.0784],[15.5522,49.0777],[15.5495,49.076],[15.5472,49.072],[15.5461,49.0676],[15.545,49.0604],[15.5429,49.0556],[15.5379,49.0489],[15.5053,49.0236],[15.5011,49.0197],[15.4992,49.0158],[15.4971,49.0078],[15.4979,49.0037],[15.4992,49.0012],[15.5011,49.0007],[15.5043,49.0007],[15.5077,48.9998],[15.5108,48.9973],[15.5151,48.9905],[15.5188,48.9861],[15.525,48.9833],[15.532,48.9822],[15.5478,48.9814],[15.5595,48.9798],[15.5643,48.9777],[15.5688,48.9749],[15.5738,48.9698],[15.5747,48.9662],[15.5747,48.9621],[15.5699,48.9516],[15.5546,48.9263],[15.5509,48.9183],[15.5467,48.9123],[15.5443,48.9029],[15.5442,48.9026],[15.5213,48.9085],[15.4719,48.9367],[15.4504,48.9448],[15.4059,48.9547],[15.3579,48.9708],[15.3355,48.975],[15.2887,48.9754],[15.2837,48.9776],[15.2796,48.9826],[15.2745,48.9867],[15.2669,48.9867],[15.2629,48.9826],[15.2604,48.9692],[15.2571,48.9639],[15.2432,48.9529],[15.2381,48.9508],[15.1618,48.9372],[15.1419,48.9375],[15.1486,48.9517],[15.149,48.9653],[15.1447,48.9789],[15.1374,48.993],[15.0596,48.9972],[15.004,49.0098],[14.9821,49.0079],[14.9789,49.0063],[14.9773,49.0029],[14.9773,48.9983],[14.9782,48.9928],[14.9646,48.9717],[14.9642,48.9433],[14.9683,48.9127],[14.9682,48.885],[14.947,48.8224],[14.9398,48.8098],[14.9381,48.8028],[14.9401,48.7965],[14.9444,48.7886],[14.9489,48.7821],[14.9511,48.7803],[14.9396,48.7628],[14.9193,48.7616],[14.8676,48.7756],[14.8155,48.7803],[14.8004,48.7765],[14.7945,48.767],[14.7904,48.7549],[14.7804,48.7431],[14.7754,48.724],[14.7227,48.6934],[14.7038,48.6731],[14.7002,48.6461],[14.7007,48.6155],[14.6957,48.5895],[14.6911,48.5865],[14.6756,48.5762],[14.6592,48.577],[14.6513,48.5835],[14.6454,48.5929],[14.6347,48.6023],[14.6282,48.6033],[14.6129,48.5997],[14.6051,48.6003],[14.6019,48.6045],[14.6018,48.6112],[14.6006,48.6176],[14.5942,48.6213],[14.5788,48.6205],[14.5488,48.6109],[14.5338,48.6087],[14.522,48.6106],[14.4821,48.6245],[14.4582,48.6432],[14.4436,48.6365],[14.4212,48.5971],[14.4054,48.5863],[14.3534,48.5714],[14.3332,48.5607],[14.3254,48.5586],[14.3157,48.5579],[14.2165,48.5812],[14.0748,48.5917],[14.0408,48.6012],[14.0325,48.6061],[14.0152,48.6204],[14.0109,48.6259],[14.0062,48.6395],[14.0081,48.6424],[14.0137,48.6438],[14.0205,48.6532],[14.0235,48.6546],[14.0283,48.654],[14.0329,48.6549],[14.0347,48.6612],[14.0321,48.6673],[14.0262,48.6701],[14.0192,48.6719],[14.0142,48.6751],[14.0078,48.6833],[13.9911,48.7002],[13.9823,48.7065],[13.915,48.731],[13.8931,48.743],[13.8749,48.7524],[13.8559,48.7593],[13.8157,48.7664],[13.7962,48.7798],[13.7479,48.8434],[13.7247,48.8673],[13.7106,48.8725],[13.6734,48.8763],[13.6544,48.8822],[13.6374,48.8935],[13.6218,48.9091],[13.6111,48.9272],[13.6087,48.9462],[13.5905,48.9448]]]}},{"type":"Feature","properties":{"id":"CZE-1590","name":"Karlovarský","nameBn":"কার্লোভি ভেরি অঞ্চল","type":"Region","bounds":[12.0761,49.8992,13.2899,50.443],"center":[12.7286,50.1601]},"geometry":{"type":"Polygon","coordinates":[[[12.9526,50.4042],[12.9606,50.4092],[12.9942,50.3914],[13.0112,50.3851],[13.0766,50.3803],[13.0826,50.3773],[13.0877,50.3731],[13.0943,50.3646],[13.1016,50.3583],[13.1143,50.3523],[13.1392,50.349],[13.1697,50.348],[13.1979,50.3433],[13.2133,50.3379],[13.2196,50.3332],[13.2248,50.3268],[13.2297,50.3135],[13.2314,50.3049],[13.2317,50.2964],[13.2299,50.2747],[13.2302,50.2681],[13.2319,50.2563],[13.2355,50.2435],[13.2367,50.2332],[13.2358,50.2279],[13.2339,50.223],[13.2316,50.2183],[13.2347,50.2102],[13.2423,50.2001],[13.2634,50.1792],[13.2701,50.1682],[13.2722,50.16],[13.2688,50.1556],[13.2648,50.1514],[13.2503,50.1392],[13.2485,50.1371],[13.2468,50.133],[13.2499,50.1299],[13.2573,50.125],[13.2783,50.1153],[13.2899,50.1085],[13.2797,50.1055],[13.273,50.1012],[13.2694,50.0959],[13.2684,50.0899],[13.2694,50.0837],[13.2718,50.0775],[13.2788,50.0671],[13.2795,50.0634],[13.2751,50.0607],[13.2171,50.0525],[13.2132,50.0499],[13.2112,50.0459],[13.2107,50.0408],[13.2116,50.035],[13.2233,50.0053],[13.2218,50.0016],[13.218,49.999],[13.2126,49.9974],[13.1991,49.9972],[13.1862,50.0005],[13.1504,50.0265],[13.0814,50.0352],[13.0768,50.0345],[13.0664,50.0303],[13.0448,50.0151],[12.9522,49.9826],[12.9469,49.9796],[12.9429,49.9745],[12.9295,49.9322],[12.9252,49.9287],[12.9188,49.9275],[12.9027,49.93],[12.8759,49.9387],[12.8725,49.939],[12.8646,49.9376],[12.8397,49.9256],[12.836,49.925],[12.8323,49.9255],[12.8286,49.9269],[12.8067,49.9417],[12.7291,49.9428],[12.7224,49.9405],[12.6923,49.9176],[12.6875,49.9156],[12.6732,49.9141],[12.6557,49.9153],[12.6263,49.9223],[12.6207,49.9222],[12.6154,49.9206],[12.5883,49.903],[12.5809,49.9003],[12.5714,49.8992],[12.5241,49.905],[12.5179,49.9122],[12.5036,49.9158],[12.4627,49.9313],[12.4638,49.9421],[12.4707,49.9556],[12.4682,49.9702],[12.4513,49.9806],[12.4145,49.983],[12.3992,49.9928],[12.3982,49.9928],[12.2469,50.045],[12.2437,50.0513],[12.2435,50.0604],[12.2414,50.0706],[12.2325,50.0805],[12.218,50.0886],[12.202,50.0945],[12.1879,50.1028],[12.1792,50.118],[12.1786,50.133],[12.1856,50.1557],[12.1827,50.1707],[12.1751,50.1826],[12.1638,50.1938],[12.1393,50.211],[12.0899,50.2308],[12.0796,50.2427],[12.0921,50.2548],[12.1024,50.2592],[12.1091,50.2638],[12.111,50.2766],[12.1073,50.2909],[12.0992,50.2998],[12.0761,50.3152],[12.1013,50.314],[12.1493,50.3117],[12.1685,50.303],[12.1744,50.2937],[12.1741,50.2766],[12.178,50.2688],[12.1892,50.2625],[12.2038,50.2596],[12.2325,50.2591],[12.2396,50.2566],[12.243,50.253],[12.2424,50.2484],[12.238,50.2427],[12.2364,50.2426],[12.2351,50.2423],[12.2338,50.2417],[12.2325,50.241],[12.2298,50.2391],[12.2289,50.237],[12.2299,50.2348],[12.2325,50.2325],[12.25,50.2212],[12.2543,50.2174],[12.2585,50.2109],[12.2602,50.205],[12.2612,50.1999],[12.2732,50.1723],[12.2834,50.1622],[12.3004,50.1608],[12.3144,50.1673],[12.3144,50.1762],[12.3086,50.1869],[12.3056,50.1993],[12.3087,50.2171],[12.3141,50.2265],[12.3338,50.2427],[12.3365,50.2586],[12.3447,50.2664],[12.3558,50.2714],[12.3672,50.2791],[12.3982,50.3152],[12.4089,50.322],[12.4383,50.3325],[12.4502,50.3394],[12.4538,50.3407],[12.4628,50.3405],[12.4668,50.3419],[12.469,50.3456],[12.4684,50.3495],[12.467,50.3528],[12.4668,50.3549],[12.4695,50.3594],[12.4716,50.3645],[12.4751,50.3694],[12.4825,50.3736],[12.5102,50.3888],[12.5505,50.3964],[12.6254,50.3999],[12.6788,50.3937],[12.6918,50.3947],[12.703,50.4015],[12.7251,50.4234],[12.7379,50.4315],[12.7542,50.4353],[12.7703,50.4359],[12.7881,50.4343],[12.7943,50.4359],[12.8084,50.4418],[12.8174,50.443],[12.8258,50.4414],[12.9184,50.4054],[12.9526,50.4042]]]}},{"type":"Feature","properties":{"id":"CZE-1598","name":"Královéhradecký","nameBn":"হারডেক ক্রালোভ অঞ্চল","type":"Region","bounds":[15.1166,50.0223,16.5842,50.7824],"center":[15.8838,50.3723]},"geometry":{"type":"Polygon","coordinates":[[[15.5221,50.7824],[15.6419,50.7558],[15.6532,50.751],[15.6665,50.7381],[15.6738,50.7335],[15.6843,50.7314],[15.7674,50.7442],[15.7922,50.7427],[15.7944,50.7359],[15.7976,50.7298],[15.8482,50.6752],[15.8546,50.6737],[15.8823,50.6742],[15.9415,50.6884],[15.958,50.6869],[15.9715,50.6786],[15.9845,50.6629],[15.9932,50.6494],[15.9986,50.6356],[15.9964,50.6237],[15.982,50.6162],[15.98,50.613],[15.9792,50.6098],[15.9799,50.6066],[15.982,50.6036],[16.0245,50.6086],[16.0865,50.6468],[16.1287,50.644],[16.1603,50.6286],[16.1755,50.6241],[16.1923,50.6266],[16.2045,50.6363],[16.2118,50.6491],[16.2191,50.6591],[16.232,50.6609],[16.2683,50.6604],[16.3009,50.6551],[16.3316,50.644],[16.4168,50.5866],[16.4259,50.5676],[16.3945,50.5593],[16.3983,50.5518],[16.3983,50.5485],[16.3955,50.5457],[16.3912,50.5399],[16.3896,50.5348],[16.3883,50.5271],[16.3884,50.5213],[16.3912,50.5218],[16.3826,50.5142],[16.362,50.5012],[16.3526,50.4928],[16.3355,50.4904],[16.3034,50.496],[16.2877,50.4928],[16.28,50.4799],[16.265,50.4716],[16.2474,50.465],[16.232,50.4568],[16.2265,50.4554],[16.2173,50.4517],[16.2112,50.4513],[16.2161,50.4402],[16.218,50.4371],[16.198,50.44],[16.1902,50.4242],[16.1996,50.4063],[16.232,50.4026],[16.2449,50.3768],[16.2497,50.371],[16.2625,50.3644],[16.2698,50.3655],[16.277,50.3694],[16.2886,50.3719],[16.3342,50.3719],[16.3437,50.37],[16.3508,50.3606],[16.3515,50.3513],[16.3507,50.3423],[16.3532,50.3335],[16.371,50.3184],[16.4156,50.3079],[16.4378,50.298],[16.4522,50.285],[16.4776,50.2553],[16.492,50.2427],[16.5048,50.228],[16.535,50.2077],[16.5459,50.1888],[16.5573,50.1547],[16.5667,50.1422],[16.5842,50.1274],[16.4784,50.1494],[16.4732,50.1477],[16.4691,50.1442],[16.4661,50.1393],[16.464,50.1334],[16.4625,50.1198],[16.4604,50.1136],[16.4545,50.1088],[16.3511,50.0772],[16.3454,50.074],[16.3412,50.0696],[16.3365,50.0571],[16.3328,50.0516],[16.3278,50.047],[16.3219,50.0434],[16.3082,50.0388],[16.2188,50.0334],[16.2033,50.0294],[16.1888,50.0223],[16.15,50.0439],[16.1385,50.0456],[16.1338,50.0478],[16.1179,50.0607],[16.1141,50.0628],[16.1054,50.0641],[16.094,50.0679],[16.0822,50.0749],[16.0722,50.0844],[16.0648,50.0945],[16.0588,50.0974],[16.0013,50.1048],[15.9934,50.1086],[15.9889,50.114],[15.9868,50.1204],[15.9865,50.1407],[15.9855,50.146],[15.9825,50.1498],[15.977,50.1525],[15.9493,50.1578],[15.9075,50.1573],[15.8982,50.1543],[15.8345,50.1141],[15.8288,50.1123],[15.8246,50.1132],[15.8205,50.1155],[15.8165,50.1193],[15.8095,50.1297],[15.8003,50.1555],[15.7964,50.1588],[15.7912,50.1602],[15.7415,50.1509],[15.7352,50.146],[15.7306,50.1397],[15.7174,50.1125],[15.7125,50.1086],[15.7061,50.1072],[15.6984,50.1084],[15.6577,50.1262],[15.6525,50.1273],[15.6219,50.1215],[15.6072,50.1216],[15.5682,50.134],[15.553,50.1332],[15.5336,50.127],[15.4727,50.0902],[15.465,50.0898],[15.4099,50.1032],[15.4128,50.106],[15.4122,50.1101],[15.4083,50.1164],[15.3952,50.129],[15.3856,50.1364],[15.3779,50.1413],[15.3619,50.1484],[15.3591,50.1507],[15.3567,50.1539],[15.357,50.1591],[15.3585,50.1621],[15.3748,50.1729],[15.379,50.1769],[15.3802,50.1789],[15.3815,50.1811],[15.3821,50.1836],[15.3801,50.1892],[15.3647,50.2176],[15.3604,50.2283],[15.3581,50.2365],[15.3579,50.25],[15.3542,50.2671],[15.3513,50.2728],[15.3468,50.2786],[15.3385,50.2834],[15.3318,50.2852],[15.3245,50.2856],[15.2836,50.2822],[15.2563,50.2863],[15.2471,50.2868],[15.2287,50.2842],[15.2216,50.2838],[15.2144,50.2842],[15.2086,50.2857],[15.2032,50.2895],[15.1998,50.2948],[15.197,50.3063],[15.1933,50.3142],[15.1847,50.323],[15.1785,50.3269],[15.1723,50.3295],[15.1228,50.3431],[15.1202,50.3444],[15.118,50.3481],[15.1166,50.3547],[15.118,50.3694],[15.1213,50.3775],[15.1239,50.3823],[15.1326,50.3898],[15.1411,50.3999],[15.1445,50.4055],[15.1461,50.4137],[15.1453,50.4235],[15.1362,50.4639],[15.1341,50.4682],[15.1309,50.4728],[15.1241,50.4807],[15.1214,50.4867],[15.1221,50.4946],[15.1255,50.4998],[15.1263,50.5003],[15.1295,50.5035],[15.1326,50.507],[15.1329,50.5108],[15.1309,50.5146],[15.1332,50.516],[15.1362,50.517],[15.1405,50.5178],[15.1462,50.5179],[15.1621,50.5143],[15.2174,50.4846],[15.2242,50.4824],[15.2304,50.4819],[15.2363,50.4836],[15.2795,50.5147],[15.2893,50.5173],[15.3,50.5173],[15.3436,50.5061],[15.3628,50.4962],[15.3934,50.4712],[15.4083,50.463],[15.4156,50.4609],[15.4226,50.4604],[15.4291,50.4616],[15.435,50.4648],[15.4394,50.4702],[15.4417,50.4773],[15.4451,50.5091],[15.4482,50.5145],[15.4538,50.5173],[15.4796,50.523],[15.4855,50.5233],[15.4912,50.5226],[15.4969,50.5207],[15.5178,50.5065],[15.5292,50.5015],[15.6058,50.4929],[15.613,50.4938],[15.6187,50.4968],[15.6225,50.5023],[15.6242,50.509],[15.6238,50.5152],[15.6217,50.5211],[15.5874,50.5712],[15.5861,50.5751],[15.5858,50.579],[15.5928,50.6004],[15.5934,50.6064],[15.593,50.6125],[15.5913,50.6183],[15.5883,50.6239],[15.5837,50.629],[15.5714,50.6391],[15.5669,50.6467],[15.564,50.6557],[15.5625,50.6752],[15.5638,50.6842],[15.5664,50.6918],[15.57,50.6973],[15.5718,50.703],[15.5695,50.7109],[15.5363,50.7536],[15.5221,50.7824]]]}},{"type":"Feature","properties":{"id":"CZE-1597","name":"Liberecký","nameBn":"লাইবেরেক অঞ্চল","type":"Region","bounds":[14.3388,50.4604,15.6242,51.0207],"center":[14.9186,50.7339]},"geometry":{"type":"Polygon","coordinates":[[[14.6083,50.8531],[14.6132,50.8456],[14.6479,50.8394],[14.6622,50.8344],[14.7004,50.816],[14.7375,50.8107],[14.7592,50.8102],[14.7754,50.813],[14.7851,50.8201],[14.7946,50.8316],[14.8104,50.8584],[14.8317,50.858],[14.8679,50.8644],[14.9821,50.8591],[14.9841,50.8677],[14.9829,50.9024],[14.9818,50.9053],[14.9811,50.9091],[14.9821,50.9147],[14.9849,50.9181],[14.9947,50.9251],[14.9978,50.9302],[14.9966,50.9592],[14.9814,50.9732],[14.9652,50.9813],[14.961,50.9927],[14.9611,50.9927],[14.9656,50.9961],[14.9707,50.9987],[14.9764,51.0004],[14.9821,51.0012],[14.9965,51.0078],[15.0012,51.0124],[15.004,51.0207],[15.023,51.0097],[15.0736,51.0026],[15.0821,50.9928],[15.0939,50.9854],[15.1079,50.981],[15.1192,50.9825],[15.1225,50.9927],[15.1225,50.9928],[15.1315,51.0058],[15.1444,51.0116],[15.1561,51.0078],[15.1608,50.9927],[15.1702,50.978],[15.2271,50.9774],[15.2538,50.969],[15.2698,50.9527],[15.2688,50.943],[15.2601,50.9325],[15.2531,50.9141],[15.2561,50.8999],[15.2654,50.8823],[15.2771,50.8657],[15.2878,50.8549],[15.3077,50.8448],[15.3258,50.8397],[15.341,50.8317],[15.353,50.813],[15.3533,50.8033],[15.3505,50.7932],[15.3497,50.7837],[15.3561,50.7755],[15.3686,50.7729],[15.3703,50.7726],[15.3813,50.78],[15.3908,50.7906],[15.4001,50.798],[15.4418,50.8002],[15.5221,50.7824],[15.5363,50.7536],[15.5695,50.7109],[15.5718,50.703],[15.57,50.6973],[15.5664,50.6918],[15.5638,50.6842],[15.5625,50.6752],[15.564,50.6557],[15.5669,50.6467],[15.5714,50.6391],[15.5837,50.629],[15.5883,50.6239],[15.5913,50.6183],[15.593,50.6125],[15.5934,50.6064],[15.5928,50.6004],[15.5858,50.579],[15.5861,50.5751],[15.5874,50.5712],[15.6217,50.5211],[15.6238,50.5152],[15.6242,50.509],[15.6225,50.5023],[15.6187,50.4968],[15.613,50.4938],[15.6058,50.4929],[15.5292,50.5015],[15.5178,50.5065],[15.4969,50.5207],[15.4912,50.5226],[15.4855,50.5233],[15.4796,50.523],[15.4538,50.5173],[15.4482,50.5145],[15.4451,50.5091],[15.4417,50.4773],[15.4394,50.4702],[15.435,50.4648],[15.4291,50.4616],[15.4226,50.4604],[15.4156,50.4609],[15.4083,50.463],[15.3934,50.4712],[15.3628,50.4962],[15.3436,50.5061],[15.3,50.5173],[15.2893,50.5173],[15.2795,50.5147],[15.2363,50.4836],[15.2304,50.4819],[15.2242,50.4824],[15.2174,50.4846],[15.1621,50.5143],[15.1462,50.5179],[15.1405,50.5178],[15.1362,50.517],[15.1332,50.516],[15.1309,50.5146],[15.0953,50.535],[15.0848,50.5473],[15.076,50.5767],[15.0501,50.5723],[15.0434,50.5732],[15.0359,50.575],[15.0299,50.5786],[15.0108,50.593],[15.0055,50.5953],[15.0004,50.5962],[14.9765,50.5952],[14.9683,50.5976],[14.9587,50.6028],[14.9517,50.6034],[14.9444,50.6022],[14.933,50.5989],[14.9248,50.5991],[14.9151,50.6017],[14.9093,50.6019],[14.9045,50.6004],[14.9008,50.5975],[14.8891,50.5855],[14.8834,50.581],[14.8628,50.5698],[14.8564,50.5653],[14.8524,50.5614],[14.8418,50.548],[14.8347,50.5423],[14.8263,50.5376],[14.8097,50.5319],[14.8021,50.5285],[14.7903,50.5211],[14.7815,50.5168],[14.7448,50.5057],[14.7043,50.4884],[14.6146,50.4735],[14.5972,50.4726],[14.5886,50.4733],[14.5858,50.4746],[14.5834,50.4769],[14.5822,50.4798],[14.5817,50.483],[14.5811,50.4859],[14.5803,50.4883],[14.5785,50.4912],[14.5765,50.4937],[14.572,50.4951],[14.565,50.4958],[14.5496,50.4951],[14.5307,50.4971],[14.4861,50.4964],[14.4753,50.4944],[14.4675,50.5173],[14.3963,50.5548],[14.34,50.6673],[14.3388,50.6726],[14.3404,50.6772],[14.3439,50.681],[14.3485,50.6842],[14.3625,50.6898],[14.3808,50.72],[14.385,50.7236],[14.4076,50.7369],[14.4103,50.7405],[14.4117,50.7447],[14.4112,50.7553],[14.4132,50.7603],[14.4168,50.7647],[14.4211,50.7686],[14.4338,50.7761],[14.445,50.8173],[14.4488,50.8222],[14.4544,50.8233],[14.4614,50.8212],[14.5136,50.787],[14.5221,50.7857],[14.5304,50.7869],[14.5378,50.7901],[14.5443,50.7952],[14.5493,50.8016],[14.5526,50.8091],[14.5545,50.8246],[14.5564,50.8297],[14.5595,50.8332],[14.5636,50.8351],[14.5938,50.8368],[14.5987,50.8387],[14.6023,50.8415],[14.605,50.8446],[14.6077,50.8504],[14.6083,50.8531]]]}},{"type":"Feature","properties":{"id":"CZE-1612","name":"Moravskoslezský","nameBn":"মুরাভিয়ান অঞ্চল","type":"Region","bounds":[17.1335,49.3776,18.8374,50.3151],"center":[17.9683,49.7687]},"geometry":{"type":"Polygon","coordinates":[[[17.691,50.3151],[17.708,50.311],[17.7136,50.3077],[17.732,50.2918],[17.7345,50.2895],[17.735,50.2868],[17.7342,50.2838],[17.732,50.2807],[17.7211,50.2619],[17.7192,50.2528],[17.7214,50.2427],[17.732,50.236],[17.7476,50.2175],[17.7382,50.2024],[17.7179,50.1911],[17.6753,50.1747],[17.6487,50.168],[17.6004,50.1668],[17.5894,50.1632],[17.5821,50.1532],[17.5842,50.1459],[17.6328,50.1063],[17.6484,50.1018],[17.6585,50.103],[17.667,50.1061],[17.6776,50.1077],[17.6907,50.1055],[17.7179,50.0968],[17.732,50.0949],[17.7324,50.0939],[17.7326,50.093],[17.7324,50.0922],[17.732,50.0915],[17.7227,50.0864],[17.7195,50.0809],[17.7226,50.0751],[17.732,50.0691],[17.743,50.0606],[17.7499,50.0495],[17.7554,50.0372],[17.7633,50.0252],[17.7746,50.0152],[17.8394,49.9736],[17.8757,49.9687],[17.9121,49.9758],[17.9416,49.9928],[17.9598,49.9958],[17.9999,49.9966],[18.0324,50.0028],[18.0375,50.0072],[18.0357,50.0172],[18.0287,50.0241],[18.0201,50.0243],[18.0122,50.0227],[18.0069,50.0241],[18.0024,50.0468],[18.0191,50.0441],[18.0332,50.0418],[18.0916,50.0172],[18.0851,49.9988],[18.0982,49.989],[18.162,49.9812],[18.1772,49.9758],[18.2087,49.9583],[18.2205,49.9549],[18.244,49.9517],[18.2559,49.946],[18.2601,49.9406],[18.267,49.9251],[18.2726,49.9183],[18.2925,49.9078],[18.3069,49.9097],[18.3349,49.9254],[18.3338,49.9271],[18.3325,49.9283],[18.3307,49.9288],[18.3285,49.9288],[18.3688,49.932],[18.4075,49.9232],[18.4818,49.8966],[18.5051,49.8967],[18.5444,49.913],[18.5592,49.9072],[18.5654,49.889],[18.5629,49.8737],[18.5673,49.8615],[18.5938,49.8522],[18.5663,49.8316],[18.5668,49.8048],[18.5841,49.7744],[18.6077,49.743],[18.6177,49.7139],[18.624,49.7064],[18.6373,49.7003],[18.6681,49.6986],[18.6824,49.6958],[18.6954,49.6889],[18.7151,49.6738],[18.7277,49.6689],[18.7422,49.6697],[18.7579,49.6741],[18.7735,49.6758],[18.7884,49.6686],[18.7926,49.6608],[18.7993,49.6264],[18.8039,49.6168],[18.8157,49.5993],[18.8202,49.5903],[18.8345,49.5476],[18.8374,49.527],[18.8332,49.5103],[18.7923,49.5095],[18.7736,49.5049],[18.7325,49.4803],[18.7045,49.4793],[18.6756,49.485],[18.6428,49.4958],[18.6359,49.4967],[18.629,49.4958],[18.6004,49.486],[18.5562,49.4902],[18.5356,49.4817],[18.5305,49.4735],[18.528,49.4549],[18.5229,49.4461],[18.5147,49.4406],[18.4818,49.4291],[18.4392,49.3951],[18.4168,49.3855],[18.3876,49.3898],[18.387,49.3776],[18.376,49.3778],[18.3703,49.3793],[18.3647,49.3821],[18.3599,49.3863],[18.3563,49.3923],[18.3483,49.4209],[18.3453,49.4273],[18.341,49.4329],[18.3348,49.4376],[18.3176,49.4447],[18.3109,49.4496],[18.2901,49.4787],[18.285,49.4823],[18.2679,49.4866],[18.1919,49.4858],[18.1851,49.4874],[18.155,49.5014],[18.1456,49.5039],[17.9897,49.4938],[17.9813,49.495],[17.9743,49.4974],[17.9687,49.501],[17.9648,49.506],[17.9606,49.5184],[17.9579,49.5226],[17.9544,49.5253],[17.9504,49.5269],[17.9063,49.5273],[17.8913,49.5386],[17.8785,49.5451],[17.85,49.5498],[17.8482,49.5625],[17.8437,49.5736],[17.84,49.5789],[17.8292,49.5878],[17.8025,49.6029],[17.771,49.6124],[17.7644,49.6169],[17.7338,49.6586],[17.7282,49.6624],[17.7225,49.6633],[17.7167,49.662],[17.6985,49.6544],[17.6919,49.6535],[17.685,49.6548],[17.6795,49.6586],[17.6765,49.664],[17.6756,49.6706],[17.6813,49.7036],[17.6797,49.7079],[17.6752,49.7125],[17.652,49.7254],[17.6231,49.7343],[17.5869,49.7266],[17.5613,49.7279],[17.5247,49.7438],[17.5189,49.7441],[17.5136,49.7425],[17.4903,49.7308],[17.4396,49.7326],[17.4249,49.7374],[17.348,49.7911],[17.341,49.7929],[17.3339,49.7922],[17.3058,49.7822],[17.2988,49.7823],[17.2132,49.8105],[17.2091,49.8132],[17.207,49.8164],[17.2042,49.8265],[17.2019,49.8292],[17.1975,49.8311],[17.1543,49.8348],[17.1413,49.8386],[17.1368,49.8417],[17.1344,49.8456],[17.1335,49.85],[17.1382,49.8864],[17.1401,49.892],[17.1431,49.897],[17.1718,49.9212],[17.1736,49.9246],[17.1731,49.9276],[17.1708,49.9305],[17.1428,49.9481],[17.1388,49.9532],[17.1366,49.9586],[17.1361,49.9642],[17.1372,49.9698],[17.1398,49.9752],[17.1437,49.9803],[17.2032,50.0341],[17.2065,50.0384],[17.2077,50.0429],[17.2074,50.0477],[17.196,50.0772],[17.1967,50.0817],[17.199,50.0853],[17.2091,50.0959],[17.2116,50.1013],[17.2137,50.1165],[17.2169,50.1235],[17.2218,50.1295],[17.2351,50.1394],[17.3161,50.1684],[17.3391,50.1901],[17.3442,50.1931],[17.3498,50.1945],[17.3558,50.194],[17.3697,50.1884],[17.3769,50.1883],[17.3839,50.1903],[17.3902,50.1939],[17.3957,50.1986],[17.4,50.2037],[17.4028,50.2089],[17.4038,50.2136],[17.388,50.2726],[17.4098,50.2613],[17.4191,50.2427],[17.4242,50.2406],[17.4296,50.2398],[17.4348,50.2405],[17.44,50.2427],[17.4694,50.2656],[17.517,50.2684],[17.6064,50.2582],[17.6295,50.2621],[17.6467,50.2711],[17.6764,50.2974],[17.6819,50.3056],[17.6845,50.3124],[17.691,50.3151]]]}},{"type":"Feature","properties":{"id":"CZE-10372","name":"Olomoucký","nameBn":"ওলোমুক অঞ্চল","type":"Region","bounds":[16.7236,49.2609,17.9063,50.4329],"center":[17.1244,49.6928]},"geometry":{"type":"Polygon","coordinates":[[[16.944,50.4203],[16.9588,50.4146],[16.9819,50.4164],[17.0847,50.398],[17.0956,50.3937],[17.1189,50.3812],[17.1317,50.3768],[17.1454,50.3767],[17.1759,50.3807],[17.1876,50.3785],[17.1854,50.3757],[17.1889,50.3648],[17.1951,50.3519],[17.201,50.3432],[17.2109,50.3364],[17.2461,50.3221],[17.2699,50.3178],[17.3168,50.3186],[17.3375,50.313],[17.3191,50.3082],[17.3219,50.3045],[17.3254,50.3011],[17.3295,50.2982],[17.3341,50.2957],[17.3328,50.2827],[17.3348,50.27],[17.3417,50.2597],[17.355,50.2533],[17.3659,50.2716],[17.388,50.2726],[17.4038,50.2136],[17.4028,50.2089],[17.4,50.2037],[17.3957,50.1986],[17.3902,50.1939],[17.3839,50.1903],[17.3769,50.1883],[17.3697,50.1884],[17.3558,50.194],[17.3498,50.1945],[17.3442,50.1931],[17.3391,50.1901],[17.3161,50.1684],[17.2351,50.1394],[17.2218,50.1295],[17.2169,50.1235],[17.2137,50.1165],[17.2116,50.1013],[17.2091,50.0959],[17.199,50.0853],[17.1967,50.0817],[17.196,50.0772],[17.2074,50.0477],[17.2077,50.0429],[17.2065,50.0384],[17.2032,50.0341],[17.1437,49.9803],[17.1398,49.9752],[17.1372,49.9698],[17.1361,49.9642],[17.1366,49.9586],[17.1388,49.9532],[17.1428,49.9481],[17.1708,49.9305],[17.1731,49.9276],[17.1736,49.9246],[17.1718,49.9212],[17.1431,49.897],[17.1401,49.892],[17.1382,49.8864],[17.1335,49.85],[17.1344,49.8456],[17.1368,49.8417],[17.1413,49.8386],[17.1543,49.8348],[17.1975,49.8311],[17.2019,49.8292],[17.2042,49.8265],[17.207,49.8164],[17.2091,49.8132],[17.2132,49.8105],[17.2988,49.7823],[17.3058,49.7822],[17.3339,49.7922],[17.341,49.7929],[17.348,49.7911],[17.4249,49.7374],[17.4396,49.7326],[17.4903,49.7308],[17.5136,49.7425],[17.5189,49.7441],[17.5247,49.7438],[17.5613,49.7279],[17.5869,49.7266],[17.6231,49.7343],[17.652,49.7254],[17.6752,49.7125],[17.6797,49.7079],[17.6813,49.7036],[17.6756,49.6706],[17.6765,49.664],[17.6795,49.6586],[17.685,49.6548],[17.6919,49.6535],[17.6985,49.6544],[17.7167,49.662],[17.7225,49.6633],[17.7282,49.6624],[17.7338,49.6586],[17.7644,49.6169],[17.771,49.6124],[17.8025,49.6029],[17.8292,49.5878],[17.84,49.5789],[17.8437,49.5736],[17.8482,49.5625],[17.85,49.5498],[17.8785,49.5451],[17.8913,49.5386],[17.9063,49.5273],[17.8913,49.5011],[17.8767,49.4987],[17.8644,49.4995],[17.8586,49.5014],[17.8493,49.5085],[17.8442,49.511],[17.839,49.5124],[17.8336,49.5123],[17.8285,49.5109],[17.8237,49.508],[17.8196,49.5035],[17.8132,49.4914],[17.8095,49.4875],[17.8055,49.4849],[17.7931,49.4805],[17.7894,49.4783],[17.7863,49.4748],[17.7841,49.4703],[17.7831,49.4654],[17.7835,49.4556],[17.7863,49.4448],[17.7594,49.437],[17.6715,49.4486],[17.6563,49.449],[17.645,49.4481],[17.6329,49.4449],[17.6291,49.4429],[17.6273,49.44],[17.6287,49.4359],[17.6352,49.4258],[17.6377,49.4194],[17.6377,49.415],[17.6357,49.4108],[17.6325,49.4078],[17.6281,49.405],[17.622,49.4034],[17.6149,49.4026],[17.5437,49.4036],[17.5359,49.4023],[17.5187,49.3977],[17.5056,49.3928],[17.5005,49.3901],[17.4963,49.3867],[17.4915,49.3811],[17.4869,49.3744],[17.4819,49.3689],[17.4757,49.3653],[17.4698,49.364],[17.4595,49.3653],[17.4166,49.3779],[17.4078,49.3791],[17.3866,49.3866],[17.362,49.4004],[17.3466,49.4041],[17.3403,49.4046],[17.3216,49.4062],[17.3174,49.3901],[17.3159,49.373],[17.3239,49.3559],[17.3326,49.3489],[17.3236,49.3368],[17.3202,49.334],[17.2861,49.3125],[17.2806,49.308],[17.2758,49.3031],[17.2726,49.3007],[17.2681,49.2993],[17.2648,49.2991],[17.2608,49.2996],[17.1956,49.2986],[17.1887,49.2972],[17.1842,49.2937],[17.1814,49.2885],[17.1771,49.2701],[17.1745,49.2652],[17.1703,49.262],[17.1653,49.2609],[17.1609,49.2614],[17.157,49.2631],[17.1538,49.2655],[17.1494,49.2707],[17.1484,49.2723],[17.1491,49.2741],[17.1502,49.2788],[17.1506,49.2845],[17.1489,49.2918],[17.137,49.3099],[17.1182,49.3281],[17.0979,49.3409],[17.0605,49.3485],[17.0438,49.3549],[17.0381,49.3594],[17.0351,49.365],[17.0366,49.3845],[17.0353,49.3896],[17.0329,49.3939],[17.0295,49.3975],[16.9831,49.427],[16.9781,49.4324],[16.9747,49.4375],[16.968,49.4608],[16.959,49.4759],[16.9468,49.4885],[16.9397,49.4926],[16.9007,49.5032],[16.8908,49.5035],[16.8824,49.5021],[16.8759,49.4986],[16.8722,49.4926],[16.8704,49.4807],[16.8711,49.4764],[16.8726,49.473],[16.8908,49.4531],[16.8979,49.4413],[16.9002,49.4349],[16.9013,49.4285],[16.9005,49.4223],[16.8975,49.4167],[16.8859,49.4048],[16.8697,49.3932],[16.8609,49.3888],[16.852,49.3863],[16.8435,49.386],[16.7891,49.4135],[16.7842,49.4186],[16.7834,49.4235],[16.7878,49.428],[16.7943,49.4323],[16.799,49.4369],[16.8021,49.4418],[16.8036,49.4469],[16.8037,49.4523],[16.8025,49.458],[16.7776,49.4993],[16.775,49.5061],[16.7745,49.5117],[16.7767,49.5158],[16.7879,49.5194],[16.7906,49.5215],[16.7906,49.5242],[16.7882,49.5275],[16.7455,49.555],[16.7319,49.57],[16.7281,49.577],[16.7273,49.5828],[16.7301,49.5868],[16.7372,49.5883],[16.769,49.5833],[16.7751,49.5844],[16.7805,49.5883],[16.7852,49.5958],[16.7892,49.6079],[16.7992,49.6147],[16.8052,49.6298],[16.808,49.6498],[16.8103,49.657],[16.8412,49.6777],[16.8337,49.7116],[16.8238,49.7214],[16.8077,49.7253],[16.8026,49.7289],[16.7989,49.7345],[16.7962,49.7513],[16.7548,49.8058],[16.7388,49.8214],[16.7331,49.8286],[16.731,49.8371],[16.7326,49.845],[16.7487,49.8675],[16.7473,49.8915],[16.7483,49.9185],[16.7473,49.9245],[16.7399,49.9436],[16.7359,49.9659],[16.734,49.9709],[16.7312,49.9755],[16.7242,49.9832],[16.7236,49.9879],[16.7268,49.9933],[16.7439,49.9996],[16.7476,50.0006],[16.7537,50.0032],[16.7742,50.0174],[16.8049,50.0315],[16.8094,50.0343],[16.8122,50.0379],[16.8137,50.0418],[16.813,50.0486],[16.8117,50.0521],[16.8054,50.0629],[16.8068,50.0734],[16.8319,50.1277],[16.8698,50.1897],[16.881,50.1916],[16.8904,50.1969],[16.907,50.2118],[16.919,50.2171],[16.9278,50.2173],[16.9463,50.2131],[16.9553,50.2135],[16.9578,50.2171],[16.9575,50.2292],[16.9603,50.232],[16.975,50.2318],[16.981,50.2292],[16.9857,50.2231],[16.9963,50.2129],[17.0084,50.21],[17.0148,50.2185],[17.0128,50.2317],[16.9998,50.2427],[16.9984,50.267],[16.9878,50.2849],[16.9696,50.2978],[16.9452,50.3069],[16.9265,50.3193],[16.9167,50.3386],[16.9093,50.3599],[16.8979,50.3782],[16.8659,50.4084],[16.8658,50.4224],[16.893,50.4329],[16.9158,50.4311],[16.944,50.4203]]]}},{"type":"Feature","properties":{"id":"CZE-10373","name":"Pardubický","nameBn":"পারডোবিচে অঞ্চল","type":"Region","bounds":[15.3402,49.5959,16.8698,50.1897],"center":[16.2784,49.8651]},"geometry":{"type":"Polygon","coordinates":[[[16.5842,50.1274],[16.6187,50.107],[16.6606,50.093],[16.7012,50.0949],[16.732,50.122],[16.7543,50.1323],[16.7664,50.1434],[16.7773,50.1569],[16.7953,50.1744],[16.8177,50.1868],[16.8376,50.1886],[16.8576,50.1877],[16.8698,50.1897],[16.8319,50.1277],[16.8068,50.0734],[16.8054,50.0629],[16.8117,50.0521],[16.813,50.0486],[16.8137,50.0418],[16.8122,50.0379],[16.8094,50.0343],[16.8049,50.0315],[16.7742,50.0174],[16.7537,50.0032],[16.7476,50.0006],[16.7439,49.9996],[16.7268,49.9933],[16.7236,49.9879],[16.7242,49.9832],[16.7312,49.9755],[16.734,49.9709],[16.7359,49.9659],[16.7399,49.9436],[16.7473,49.9245],[16.7483,49.9185],[16.7473,49.8915],[16.7487,49.8675],[16.7326,49.845],[16.731,49.8371],[16.7331,49.8286],[16.7388,49.8214],[16.7548,49.8058],[16.7962,49.7513],[16.7989,49.7345],[16.8026,49.7289],[16.8077,49.7253],[16.8238,49.7214],[16.8337,49.7116],[16.8412,49.6777],[16.8103,49.657],[16.808,49.6498],[16.8052,49.6298],[16.7992,49.6147],[16.7892,49.6079],[16.7783,49.6064],[16.7282,49.6229],[16.7048,49.6282],[16.6799,49.6297],[16.6461,49.6281],[16.637,49.6288],[16.6245,49.6327],[16.617,49.634],[16.5636,49.6339],[16.5549,49.6315],[16.5498,49.6272],[16.5485,49.6188],[16.5467,49.6122],[16.5434,49.6081],[16.5346,49.6034],[16.416,49.5959],[16.392,49.5973],[16.3724,49.6012],[16.3315,49.6184],[16.2963,49.6267],[16.2856,49.6317],[16.2785,49.6383],[16.2722,49.6457],[16.2632,49.653],[16.2502,49.6601],[16.2126,49.6763],[16.1831,49.6859],[16.1629,49.6899],[16.1372,49.6906],[16.1156,49.6893],[16.1047,49.6909],[16.0973,49.6943],[16.094,49.6987],[16.0911,49.7039],[16.084,49.7086],[16.0728,49.7125],[16.0498,49.7157],[16.0349,49.7191],[16.0214,49.7235],[16.0074,49.7297],[16.0006,49.7315],[15.9946,49.7316],[15.9904,49.7291],[15.988,49.7265],[15.9833,49.7185],[15.9797,49.7145],[15.975,49.7123],[15.9639,49.7096],[15.9591,49.7079],[15.9437,49.6966],[15.9339,49.6926],[15.9246,49.6925],[15.9136,49.6945],[15.9,49.6983],[15.8913,49.6978],[15.8841,49.6954],[15.8588,49.6998],[15.843,49.7205],[15.8293,49.7325],[15.813,49.7409],[15.7871,49.7491],[15.7833,49.7516],[15.7809,49.755],[15.7787,49.7651],[15.7751,49.7697],[15.7697,49.7735],[15.7559,49.7792],[15.7291,49.7833],[15.6834,49.8064],[15.6659,49.8095],[15.5897,49.8055],[15.5839,49.8075],[15.5733,49.8151],[15.5475,49.8423],[15.5283,49.857],[15.485,49.8756],[15.4864,49.8836],[15.4904,49.8939],[15.4954,49.9034],[15.4977,49.9092],[15.4988,49.9147],[15.4995,49.9347],[15.5001,49.939],[15.5013,49.9419],[15.5039,49.9455],[15.5061,49.9505],[15.5047,49.9555],[15.4954,49.9626],[15.4881,49.9665],[15.4811,49.9688],[15.4679,49.9713],[15.4599,49.975],[15.4234,49.9976],[15.4164,50.0006],[15.3824,50.0077],[15.359,50.0175],[15.3517,50.0222],[15.3402,50.0341],[15.3451,50.0389],[15.3636,50.0447],[15.384,50.048],[15.3928,50.0478],[15.3947,50.058],[15.3952,50.0616],[15.3949,50.065],[15.3911,50.0763],[15.39,50.0814],[15.39,50.0866],[15.3911,50.09],[15.3935,50.0929],[15.4099,50.1032],[15.465,50.0898],[15.4727,50.0902],[15.5336,50.127],[15.553,50.1332],[15.5682,50.134],[15.6072,50.1216],[15.6219,50.1215],[15.6525,50.1273],[15.6577,50.1262],[15.6984,50.1084],[15.7061,50.1072],[15.7125,50.1086],[15.7174,50.1125],[15.7306,50.1397],[15.7352,50.146],[15.7415,50.1509],[15.7912,50.1602],[15.7964,50.1588],[15.8003,50.1555],[15.8095,50.1297],[15.8165,50.1193],[15.8205,50.1155],[15.8246,50.1132],[15.8288,50.1123],[15.8345,50.1141],[15.8982,50.1543],[15.9075,50.1573],[15.9493,50.1578],[15.977,50.1525],[15.9825,50.1498],[15.9855,50.146],[15.9865,50.1407],[15.9868,50.1204],[15.9889,50.114],[15.9934,50.1086],[16.0013,50.1048],[16.0588,50.0974],[16.0648,50.0945],[16.0722,50.0844],[16.0822,50.0749],[16.094,50.0679],[16.1054,50.0641],[16.1141,50.0628],[16.1179,50.0607],[16.1338,50.0478],[16.1385,50.0456],[16.15,50.0439],[16.1888,50.0223],[16.2033,50.0294],[16.2188,50.0334],[16.3082,50.0388],[16.3219,50.0434],[16.3278,50.047],[16.3328,50.0516],[16.3365,50.0571],[16.3412,50.0696],[16.3454,50.074],[16.3511,50.0772],[16.4545,50.1088],[16.4604,50.1136],[16.4625,50.1198],[16.464,50.1334],[16.4661,50.1393],[16.4691,50.1442],[16.4732,50.1477],[16.4784,50.1494],[16.5842,50.1274]]]}},{"type":"Feature","properties":{"id":"CZE-10369","name":"Plzeňský","nameBn":"প্লজেনস্কি","type":"Region","bounds":[12.3836,48.9376,13.8358,50.1085],"center":[13.2001,49.6458]},"geometry":{"type":"Polygon","coordinates":[[[12.4825,49.8272],[12.4899,49.8427],[12.5129,49.8702],[12.521,49.8855],[12.5241,49.905],[12.5714,49.8992],[12.5809,49.9003],[12.5883,49.903],[12.6154,49.9206],[12.6207,49.9222],[12.6263,49.9223],[12.6557,49.9153],[12.6732,49.9141],[12.6875,49.9156],[12.6923,49.9176],[12.7224,49.9405],[12.7291,49.9428],[12.8067,49.9417],[12.8286,49.9269],[12.8323,49.9255],[12.836,49.925],[12.8397,49.9256],[12.8646,49.9376],[12.8725,49.939],[12.8759,49.9387],[12.9027,49.93],[12.9188,49.9275],[12.9252,49.9287],[12.9295,49.9322],[12.9429,49.9745],[12.9469,49.9796],[12.9522,49.9826],[13.0448,50.0151],[13.0664,50.0303],[13.0768,50.0345],[13.0814,50.0352],[13.1504,50.0265],[13.1862,50.0005],[13.1991,49.9972],[13.2126,49.9974],[13.218,49.999],[13.2218,50.0016],[13.2233,50.0053],[13.2116,50.035],[13.2107,50.0408],[13.2112,50.0459],[13.2132,50.0499],[13.2171,50.0525],[13.2751,50.0607],[13.2795,50.0634],[13.2788,50.0671],[13.2718,50.0775],[13.2694,50.0837],[13.2684,50.0899],[13.2694,50.0959],[13.273,50.1012],[13.2797,50.1055],[13.2899,50.1085],[13.2992,50.1018],[13.3101,50.0921],[13.3165,50.0877],[13.3256,50.0848],[13.3706,50.0775],[13.3844,50.0774],[13.4057,50.0872],[13.4176,50.0672],[13.4181,50.0628],[13.4176,50.0575],[13.4147,50.0526],[13.4107,50.0473],[13.4065,50.0401],[13.4066,50.0358],[13.4103,50.0327],[13.4153,50.0314],[13.4209,50.0309],[13.4259,50.0311],[13.4367,50.0328],[13.457,50.0401],[13.4622,50.0411],[13.4679,50.041],[13.4811,50.0377],[13.4976,50.0353],[13.5149,50.0298],[13.5635,49.9996],[13.5723,49.9961],[13.5902,49.9946],[13.6042,49.9955],[13.6177,49.9975],[13.6257,49.998],[13.6356,49.9975],[13.6545,49.9941],[13.6653,49.9909],[13.674,49.9871],[13.7002,49.9685],[13.707,49.9648],[13.7126,49.9627],[13.746,49.9562],[13.7523,49.9535],[13.7565,49.9499],[13.7574,49.946],[13.7596,49.9414],[13.8121,49.9242],[13.8209,49.9181],[13.8251,49.9133],[13.8236,49.9098],[13.823,49.9055],[13.8233,49.9012],[13.825,49.8962],[13.8347,49.8748],[13.8358,49.8699],[13.8354,49.8673],[13.8343,49.8655],[13.8318,49.8645],[13.8276,49.8632],[13.8222,49.8621],[13.8125,49.8615],[13.8096,49.861],[13.8074,49.8595],[13.8052,49.8562],[13.8049,49.8519],[13.8055,49.8433],[13.8052,49.8388],[13.8043,49.8349],[13.8032,49.8322],[13.7907,49.8117],[13.7907,49.809],[13.7913,49.8054],[13.7936,49.7995],[13.7947,49.7952],[13.7941,49.7902],[13.7842,49.7681],[13.7825,49.763],[13.7821,49.7571],[13.7835,49.7545],[13.786,49.753],[13.7958,49.7505],[13.8029,49.7478],[13.8054,49.7444],[13.8055,49.7414],[13.8023,49.737],[13.7775,49.719],[13.7698,49.7143],[13.7621,49.7118],[13.7328,49.7071],[13.7202,49.7037],[13.7089,49.6991],[13.6971,49.6917],[13.6917,49.6869],[13.689,49.6822],[13.693,49.6781],[13.7082,49.6692],[13.7095,49.6656],[13.7079,49.6627],[13.6999,49.6596],[13.6938,49.6563],[13.694,49.655],[13.7069,49.6498],[13.7094,49.6472],[13.71,49.6448],[13.7082,49.6421],[13.7024,49.6388],[13.6997,49.6362],[13.6988,49.6327],[13.7011,49.625],[13.7052,49.6214],[13.7102,49.6191],[13.7146,49.6182],[13.7196,49.6166],[13.7263,49.6135],[13.7351,49.6067],[13.739,49.6018],[13.7409,49.5962],[13.7399,49.5715],[13.7413,49.5612],[13.7438,49.5552],[13.7472,49.5506],[13.7568,49.5429],[13.7636,49.5362],[13.7659,49.5292],[13.7659,49.5233],[13.7629,49.5136],[13.7586,49.5049],[13.7567,49.5021],[13.7554,49.4986],[13.7556,49.4895],[13.7698,49.4689],[13.7825,49.4365],[13.7839,49.428],[13.7829,49.423],[13.7759,49.4042],[13.7742,49.3888],[13.7764,49.3765],[13.7818,49.3589],[13.7831,49.3503],[13.7818,49.3436],[13.7776,49.3375],[13.7584,49.3164],[13.7494,49.3035],[13.7438,49.2909],[13.7398,49.2839],[13.7364,49.2796],[13.7316,49.2769],[13.7142,49.2701],[13.7102,49.2676],[13.7053,49.2637],[13.7041,49.2598],[13.7044,49.2565],[13.71,49.247],[13.71,49.2414],[13.7088,49.2375],[13.7057,49.2338],[13.6993,49.2283],[13.6957,49.2244],[13.6951,49.2206],[13.6965,49.2171],[13.7005,49.2134],[13.7145,49.204],[13.7188,49.197],[13.7181,49.1932],[13.7126,49.1899],[13.7045,49.188],[13.6941,49.1835],[13.6852,49.1778],[13.6588,49.1451],[13.6491,49.1364],[13.6453,49.1346],[13.6409,49.134],[13.6288,49.1356],[13.6195,49.1327],[13.609,49.1249],[13.5961,49.1031],[13.5925,49.0886],[13.593,49.0778],[13.5947,49.072],[13.5956,49.067],[13.5953,49.0584],[13.5924,49.0525],[13.5877,49.0472],[13.5661,49.0332],[13.5429,49.0094],[13.5211,48.979],[13.5224,48.9696],[13.5224,48.9693],[13.516,48.9702],[13.5021,48.9661],[13.4926,48.955],[13.4823,48.9376],[13.4589,48.945],[13.4273,48.96],[13.3985,48.9777],[13.3842,48.993],[13.3836,49.0211],[13.3724,49.0385],[13.3299,49.0669],[13.2995,49.0936],[13.2873,49.1006],[13.2673,49.1056],[13.2068,49.1075],[13.1785,49.1183],[13.1626,49.1351],[13.1495,49.1548],[13.0558,49.2382],[13.0434,49.2428],[13.0432,49.2429],[13.0113,49.2678],[13.0067,49.2771],[13.0054,49.2868],[12.9998,49.2949],[12.9824,49.2996],[12.9543,49.3191],[12.9399,49.3268],[12.9229,49.3327],[12.8847,49.3396],[12.8709,49.3367],[12.8754,49.3239],[12.8567,49.3222],[12.7978,49.3278],[12.7779,49.3325],[12.7621,49.3432],[12.7293,49.3911],[12.7092,49.4047],[12.6631,49.4189],[12.6435,49.4295],[12.6322,49.444],[12.6272,49.4602],[12.6243,49.493],[12.623,49.5098],[12.6155,49.5138],[12.605,49.5128],[12.5937,49.515],[12.5829,49.5224],[12.575,49.5299],[12.5687,49.5388],[12.5623,49.5508],[12.5583,49.5626],[12.5536,49.5847],[12.5466,49.5956],[12.5361,49.6031],[12.5122,49.6116],[12.502,49.6197],[12.5027,49.6221],[12.5074,49.63],[12.4995,49.6325],[12.4969,49.6339],[12.5054,49.6461],[12.5046,49.6594],[12.4964,49.67],[12.4825,49.6747],[12.4492,49.685],[12.4339,49.6918],[12.4196,49.7002],[12.3989,49.7195],[12.3886,49.7323],[12.3836,49.7429],[12.3954,49.7579],[12.4367,49.7693],[12.4527,49.7797],[12.4559,49.7961],[12.4564,49.8171],[12.4625,49.8312],[12.4825,49.8272]]]}},{"type":"Feature","properties":{"id":"CZE-1595","name":"Prague","nameBn":"প্রাগ","type":"Region","bounds":[14.213,49.9507,14.6845,50.1688],"center":[14.4487,50.0647]},"geometry":{"type":"Polygon","coordinates":[[[14.527,50.1688],[14.5378,50.1675],[14.5442,50.1658],[14.5493,50.1634],[14.5653,50.1526],[14.5777,50.1469],[14.582,50.1431],[14.5855,50.1367],[14.5898,50.1325],[14.5972,50.1302],[14.6207,50.1262],[14.6244,50.1248],[14.6281,50.1228],[14.6348,50.1166],[14.6382,50.1122],[14.6418,50.1092],[14.6452,50.1072],[14.652,50.1048],[14.673,50.1004],[14.6787,50.0972],[14.6831,50.0924],[14.6845,50.0874],[14.684,50.0842],[14.6817,50.0806],[14.6733,50.0735],[14.6455,50.0558],[14.6424,50.053],[14.6412,50.051],[14.641,50.0493],[14.6421,50.0474],[14.6467,50.0413],[14.6478,50.0386],[14.6484,50.0353],[14.6471,50.0264],[14.6478,50.0238],[14.6498,50.0202],[14.652,50.0172],[14.6539,50.014],[14.6542,50.0118],[14.6539,50.0093],[14.6526,50.007],[14.6467,49.9999],[14.6244,49.9962],[14.5881,49.995],[14.5707,49.9962],[14.5566,49.9986],[14.5537,49.9997],[14.5516,50.0003],[14.549,50.0005],[14.5423,49.9999],[14.5325,49.998],[14.5164,49.9903],[14.5017,49.9814],[14.4956,49.9792],[14.4509,49.97],[14.3791,49.9618],[14.3372,49.9507],[14.3262,49.9519],[14.3229,49.9528],[14.3203,49.9541],[14.3185,49.9552],[14.3172,49.9568],[14.3162,49.9626],[14.3168,49.9693],[14.3175,49.9724],[14.3181,49.9793],[14.317,49.9829],[14.3144,49.9868],[14.2874,50.0069],[14.2849,50.0092],[14.2827,50.0118],[14.2806,50.0152],[14.2753,50.0272],[14.2708,50.0335],[14.2681,50.0364],[14.2435,50.0563],[14.2404,50.0593],[14.2393,50.0616],[14.2393,50.0643],[14.2402,50.0667],[14.2416,50.0693],[14.2444,50.0733],[14.2456,50.0756],[14.2461,50.078],[14.2445,50.0799],[14.2419,50.0818],[14.2362,50.0851],[14.2177,50.0923],[14.2146,50.0946],[14.213,50.0965],[14.2132,50.098],[14.2135,50.0994],[14.2146,50.1009],[14.2169,50.1026],[14.2359,50.1097],[14.2832,50.1209],[14.2893,50.1214],[14.2951,50.1209],[14.32,50.1143],[14.325,50.1137],[14.3307,50.1146],[14.3363,50.1167],[14.3403,50.1197],[14.3417,50.1222],[14.3412,50.1252],[14.3397,50.1288],[14.3388,50.1327],[14.3395,50.136],[14.3419,50.1387],[14.346,50.1406],[14.4776,50.1652],[14.527,50.1688]]]}},{"type":"Feature","properties":{"id":"CZE-1596","name":"Středočeský","nameBn":"সেন্ট্রাল বুহেমিয়ান অঞ্চল","type":"Region","bounds":[13.4057,49.4895,15.5061,50.6034],"center":[14.4559,49.7498]},"geometry":{"type":"Polygon","coordinates":[[[15.485,49.8756],[15.4842,49.8673],[15.4845,49.8568],[15.4831,49.8517],[15.4794,49.849],[15.469,49.8466],[15.4658,49.8451],[15.4583,49.84],[15.4547,49.8366],[15.4516,49.8331],[15.45,49.8308],[15.4479,49.8267],[15.4463,49.8225],[15.4425,49.8065],[15.4401,49.8023],[15.4364,49.7986],[15.4307,49.7952],[15.4221,49.7926],[15.4087,49.791],[15.3922,49.7925],[15.3868,49.7935],[15.383,49.7934],[15.377,49.7912],[15.3413,49.7706],[15.3065,49.7618],[15.2656,49.746],[15.262,49.7454],[15.2573,49.7454],[15.2519,49.7462],[15.2432,49.7495],[15.2395,49.7514],[15.2372,49.7519],[15.2341,49.752],[15.2273,49.7506],[15.226,49.7502],[15.2219,49.7477],[15.2176,49.7444],[15.2144,49.7409],[15.2122,49.7367],[15.2109,49.7323],[15.2094,49.7283],[15.2069,49.7243],[15.1985,49.7166],[15.1758,49.6996],[15.1709,49.694],[15.168,49.6868],[15.1697,49.6825],[15.1744,49.6784],[15.2195,49.6565],[15.2251,49.6523],[15.2302,49.6469],[15.2353,49.6382],[15.238,49.6273],[15.2355,49.6152],[15.1571,49.5906],[15.1286,49.5877],[15.112,49.5922],[15.0829,49.5926],[15.0594,49.5881],[15.0457,49.587],[15.0347,49.5874],[14.9953,49.5987],[14.987,49.5991],[14.9824,49.5983],[14.9796,49.5966],[14.9779,49.5943],[14.9774,49.5917],[14.978,49.5893],[14.9802,49.5835],[14.9793,49.5807],[14.9765,49.5786],[14.9573,49.572],[14.9545,49.57],[14.9512,49.5662],[14.9497,49.5629],[14.9469,49.5582],[14.9425,49.5534],[14.9309,49.5465],[14.9228,49.5443],[14.9163,49.5437],[14.9116,49.5449],[14.9071,49.5467],[14.9025,49.5494],[14.8974,49.5531],[14.8932,49.5572],[14.8901,49.5617],[14.887,49.568],[14.8846,49.5712],[14.8779,49.574],[14.8659,49.5768],[14.8466,49.5746],[14.8365,49.5752],[14.8314,49.5772],[14.831,49.5837],[14.8303,49.5864],[14.8269,49.5902],[14.8215,49.5932],[14.7919,49.5991],[14.7866,49.6011],[14.7833,49.6032],[14.7762,49.6096],[14.7707,49.6134],[14.7668,49.6139],[14.762,49.6128],[14.7498,49.606],[14.7467,49.6036],[14.7425,49.5996],[14.7363,49.5913],[14.7354,49.5885],[14.7347,49.5854],[14.7323,49.5592],[14.7259,49.553],[14.7119,49.5458],[14.6795,49.5413],[14.6727,49.5392],[14.6581,49.5294],[14.6342,49.5196],[14.6233,49.5176],[14.6126,49.5166],[14.5889,49.5191],[14.5872,49.5202],[14.5867,49.5228],[14.587,49.5256],[14.5879,49.5286],[14.5757,49.5307],[14.4646,49.5278],[14.4458,49.5294],[14.4292,49.5354],[14.4159,49.5375],[14.4034,49.5372],[14.3952,49.536],[14.3484,49.5189],[14.3381,49.5181],[14.3305,49.5185],[14.326,49.5196],[14.3231,49.5206],[14.3206,49.5218],[14.3184,49.5232],[14.3136,49.5278],[14.3116,49.5301],[14.3074,49.5333],[14.3038,49.535],[14.299,49.5362],[14.2951,49.5366],[14.2923,49.5373],[14.2902,49.5388],[14.2882,49.5414],[14.2844,49.5479],[14.2812,49.5502],[14.2759,49.552],[14.264,49.554],[14.248,49.5541],[14.236,49.5526],[14.2312,49.5516],[14.227,49.5497],[14.209,49.538],[14.1891,49.5327],[14.1308,49.5277],[14.1043,49.5284],[14.0914,49.5313],[14.0728,49.5323],[14.0669,49.5335],[14.0546,49.5398],[14.0446,49.5434],[14.0369,49.544],[14.0298,49.5431],[14.0186,49.5392],[14.0121,49.5357],[14.0073,49.5289],[14.0019,49.5173],[13.9994,49.5154],[13.9961,49.5138],[13.9479,49.504],[13.9403,49.5014],[13.9349,49.4987],[13.917,49.4927],[13.9066,49.4919],[13.8982,49.4926],[13.8801,49.4994],[13.8744,49.5021],[13.8688,49.5034],[13.8622,49.5044],[13.8413,49.5049],[13.8357,49.5061],[13.824,49.5113],[13.8193,49.5121],[13.8136,49.5117],[13.7556,49.4895],[13.7554,49.4986],[13.7567,49.5021],[13.7586,49.5049],[13.7629,49.5136],[13.7659,49.5233],[13.7659,49.5292],[13.7636,49.5362],[13.7568,49.5429],[13.7472,49.5506],[13.7438,49.5552],[13.7413,49.5612],[13.7399,49.5715],[13.7409,49.5962],[13.739,49.6018],[13.7351,49.6067],[13.7263,49.6135],[13.7196,49.6166],[13.7146,49.6182],[13.7102,49.6191],[13.7052,49.6214],[13.7011,49.625],[13.6988,49.6327],[13.6997,49.6362],[13.7024,49.6388],[13.7082,49.6421],[13.71,49.6448],[13.7094,49.6472],[13.7069,49.6498],[13.694,49.655],[13.6938,49.6563],[13.6999,49.6596],[13.7079,49.6627],[13.7095,49.6656],[13.7082,49.6692],[13.693,49.6781],[13.689,49.6822],[13.6917,49.6869],[13.6971,49.6917],[13.7089,49.6991],[13.7202,49.7037],[13.7328,49.7071],[13.7621,49.7118],[13.7698,49.7143],[13.7775,49.719],[13.8023,49.737],[13.8055,49.7414],[13.8054,49.7444],[13.8029,49.7478],[13.7958,49.7505],[13.786,49.753],[13.7835,49.7545],[13.7821,49.7571],[13.7825,49.763],[13.7842,49.7681],[13.7941,49.7902],[13.7947,49.7952],[13.7936,49.7995],[13.7913,49.8054],[13.7907,49.809],[13.7907,49.8117],[13.8032,49.8322],[13.8043,49.8349],[13.8052,49.8388],[13.8055,49.8433],[13.8049,49.8519],[13.8052,49.8562],[13.8074,49.8595],[13.8096,49.861],[13.8125,49.8615],[13.8222,49.8621],[13.8276,49.8632],[13.8318,49.8645],[13.8343,49.8655],[13.8354,49.8673],[13.8358,49.8699],[13.8347,49.8748],[13.825,49.8962],[13.8233,49.9012],[13.823,49.9055],[13.8236,49.9098],[13.8251,49.9133],[13.8209,49.9181],[13.8121,49.9242],[13.7596,49.9414],[13.7574,49.946],[13.7565,49.9499],[13.7523,49.9535],[13.746,49.9562],[13.7126,49.9627],[13.707,49.9648],[13.7002,49.9685],[13.674,49.9871],[13.6653,49.9909],[13.6545,49.9941],[13.6356,49.9975],[13.6257,49.998],[13.6177,49.9975],[13.6042,49.9955],[13.5902,49.9946],[13.5723,49.9961],[13.5635,49.9996],[13.5149,50.0298],[13.4976,50.0353],[13.4811,50.0377],[13.4679,50.041],[13.4622,50.0411],[13.457,50.0401],[13.4367,50.0328],[13.4259,50.0311],[13.4209,50.0309],[13.4153,50.0314],[13.4103,50.0327],[13.4066,50.0358],[13.4065,50.0401],[13.4107,50.0473],[13.4147,50.0526],[13.4176,50.0575],[13.4181,50.0628],[13.4176,50.0672],[13.4057,50.0872],[13.4161,50.0967],[13.4287,50.1009],[13.4442,50.1037],[13.4541,50.1069],[13.4797,50.1235],[13.4914,50.1285],[13.501,50.1363],[13.5106,50.1511],[13.5239,50.1647],[13.5295,50.1687],[13.5412,50.173],[13.5997,50.1886],[13.6425,50.2065],[13.6518,50.2128],[13.6552,50.2147],[13.6625,50.2175],[13.671,50.2193],[13.682,50.2192],[13.6883,50.2182],[13.6945,50.2162],[13.6986,50.2153],[13.7036,50.2153],[13.7212,50.2183],[13.8165,50.2502],[13.825,50.2506],[13.8331,50.2484],[13.8396,50.2453],[13.8472,50.2435],[13.8541,50.2442],[13.8653,50.2499],[13.871,50.2537],[13.8773,50.2592],[13.8833,50.2636],[13.9426,50.2874],[13.9521,50.2898],[13.9656,50.2892],[13.9739,50.2897],[13.9817,50.2918],[13.9876,50.2977],[13.9896,50.3014],[13.9899,50.3047],[13.9886,50.3111],[13.9888,50.3153],[13.9899,50.3209],[13.9923,50.3252],[13.9964,50.3295],[14.0042,50.3318],[14.0163,50.3336],[14.0581,50.3345],[14.0825,50.3314],[14.106,50.326],[14.1261,50.3244],[14.205,50.333],[14.2376,50.3252],[14.2427,50.326],[14.25,50.3283],[14.2716,50.3398],[14.2799,50.3433],[14.2877,50.3447],[14.3159,50.3462],[14.3335,50.3455],[14.3412,50.3465],[14.3491,50.3493],[14.357,50.3569],[14.3605,50.3619],[14.3626,50.3661],[14.3643,50.3684],[14.3691,50.373],[14.3701,50.3754],[14.3701,50.3792],[14.3687,50.3825],[14.3649,50.3896],[14.3637,50.3928],[14.3639,50.3963],[14.3649,50.4027],[14.3645,50.4066],[14.3629,50.4104],[14.3583,50.4193],[14.3569,50.4233],[14.3578,50.4273],[14.3615,50.4292],[14.3696,50.4283],[14.3828,50.4244],[14.3881,50.4235],[14.3934,50.4232],[14.3993,50.4248],[14.4079,50.4281],[14.4371,50.4436],[14.4452,50.4464],[14.4516,50.4494],[14.4531,50.4514],[14.4547,50.4539],[14.4581,50.4616],[14.4593,50.4698],[14.4593,50.4759],[14.4604,50.4805],[14.4618,50.4839],[14.4647,50.4878],[14.4685,50.4913],[14.4753,50.4944],[14.4861,50.4964],[14.5307,50.4971],[14.5496,50.4951],[14.565,50.4958],[14.572,50.4951],[14.5765,50.4937],[14.5785,50.4912],[14.5803,50.4883],[14.5811,50.4859],[14.5817,50.483],[14.5822,50.4798],[14.5834,50.4769],[14.5858,50.4746],[14.5886,50.4733],[14.5972,50.4726],[14.6146,50.4735],[14.7043,50.4884],[14.7448,50.5057],[14.7815,50.5168],[14.7903,50.5211],[14.8021,50.5285],[14.8097,50.5319],[14.8263,50.5376],[14.8347,50.5423],[14.8418,50.548],[14.8524,50.5614],[14.8564,50.5653],[14.8628,50.5698],[14.8834,50.581],[14.8891,50.5855],[14.9008,50.5975],[14.9045,50.6004],[14.9093,50.6019],[14.9151,50.6017],[14.9248,50.5991],[14.933,50.5989],[14.9444,50.6022],[14.9517,50.6034],[14.9587,50.6028],[14.9683,50.5976],[14.9765,50.5952],[15.0004,50.5962],[15.0055,50.5953],[15.0108,50.593],[15.0299,50.5786],[15.0359,50.575],[15.0434,50.5732],[15.0501,50.5723],[15.076,50.5767],[15.0848,50.5473],[15.0953,50.535],[15.1309,50.5146],[15.1329,50.5108],[15.1326,50.507],[15.1295,50.5035],[15.1263,50.5003],[15.1255,50.4998],[15.1221,50.4946],[15.1214,50.4867],[15.1241,50.4807],[15.1309,50.4728],[15.1341,50.4682],[15.1362,50.4639],[15.1453,50.4235],[15.1461,50.4137],[15.1445,50.4055],[15.1411,50.3999],[15.1326,50.3898],[15.1239,50.3823],[15.1213,50.3775],[15.118,50.3694],[15.1166,50.3547],[15.118,50.3481],[15.1202,50.3444],[15.1228,50.3431],[15.1723,50.3295],[15.1785,50.3269],[15.1847,50.323],[15.1933,50.3142],[15.197,50.3063],[15.1998,50.2948],[15.2032,50.2895],[15.2086,50.2857],[15.2144,50.2842],[15.2216,50.2838],[15.2287,50.2842],[15.2471,50.2868],[15.2563,50.2863],[15.2836,50.2822],[15.3245,50.2856],[15.3318,50.2852],[15.3385,50.2834],[15.3468,50.2786],[15.3513,50.2728],[15.3542,50.2671],[15.3579,50.25],[15.3581,50.2365],[15.3604,50.2283],[15.3647,50.2176],[15.3801,50.1892],[15.3821,50.1836],[15.3815,50.1811],[15.3802,50.1789],[15.379,50.1769],[15.3748,50.1729],[15.3585,50.1621],[15.357,50.1591],[15.3567,50.1539],[15.3591,50.1507],[15.3619,50.1484],[15.3779,50.1413],[15.3856,50.1364],[15.3952,50.129],[15.4083,50.1164],[15.4122,50.1101],[15.4128,50.106],[15.4099,50.1032],[15.3935,50.0929],[15.3911,50.09],[15.39,50.0866],[15.39,50.0814],[15.3911,50.0763],[15.3949,50.065],[15.3952,50.0616],[15.3947,50.058],[15.3928,50.0478],[15.384,50.048],[15.3636,50.0447],[15.3451,50.0389],[15.3402,50.0341],[15.3517,50.0222],[15.359,50.0175],[15.3824,50.0077],[15.4164,50.0006],[15.4234,49.9976],[15.4599,49.975],[15.4679,49.9713],[15.4811,49.9688],[15.4881,49.9665],[15.4954,49.9626],[15.5047,49.9555],[15.5061,49.9505],[15.5039,49.9455],[15.5013,49.9419],[15.5001,49.939],[15.4995,49.9347],[15.4988,49.9147],[15.4977,49.9092],[15.4954,49.9034],[15.4904,49.8939],[15.4864,49.8836],[15.485,49.8756]],[[14.5881,49.995],[14.6244,49.9962],[14.6467,49.9999],[14.6526,50.007],[14.6539,50.0093],[14.6542,50.0118],[14.6539,50.014],[14.652,50.0172],[14.6498,50.0202],[14.6478,50.0238],[14.6471,50.0264],[14.6484,50.0353],[14.6478,50.0386],[14.6467,50.0413],[14.6421,50.0474],[14.641,50.0493],[14.6412,50.051],[14.6424,50.053],[14.6455,50.0558],[14.6733,50.0735],[14.6817,50.0806],[14.684,50.0842],[14.6845,50.0874],[14.6831,50.0924],[14.6787,50.0972],[14.673,50.1004],[14.652,50.1048],[14.6452,50.1072],[14.6418,50.1092],[14.6382,50.1122],[14.6348,50.1166],[14.6281,50.1228],[14.6244,50.1248],[14.6207,50.1262],[14.5972,50.1302],[14.5898,50.1325],[14.5855,50.1367],[14.582,50.1431],[14.5777,50.1469],[14.5653,50.1526],[14.5493,50.1634],[14.5442,50.1658],[14.5378,50.1675],[14.527,50.1688],[14.4776,50.1652],[14.346,50.1406],[14.3419,50.1387],[14.3395,50.136],[14.3388,50.1327],[14.3397,50.1288],[14.3412,50.1252],[14.3417,50.1222],[14.3403,50.1197],[14.3363,50.1167],[14.3307,50.1146],[14.325,50.1137],[14.32,50.1143],[14.2951,50.1209],[14.2893,50.1214],[14.2832,50.1209],[14.2359,50.1097],[14.2169,50.1026],[14.2146,50.1009],[14.2135,50.0994],[14.2132,50.098],[14.213,50.0965],[14.2146,50.0946],[14.2177,50.0923],[14.2362,50.0851],[14.2419,50.0818],[14.2445,50.0799],[14.2461,50.078],[14.2456,50.0756],[14.2444,50.0733],[14.2416,50.0693],[14.2402,50.0667],[14.2393,50.0643],[14.2393,50.0616],[14.2404,50.0593],[14.2435,50.0563],[14.2681,50.0364],[14.2708,50.0335],[14.2753,50.0272],[14.2806,50.0152],[14.2827,50.0118],[14.2849,50.0092],[14.2874,50.0069],[14.3144,49.9868],[14.317,49.9829],[14.3181,49.9793],[14.3175,49.9724],[14.3168,49.9693],[14.3162,49.9626],[14.3172,49.9568],[14.3185,49.9552],[14.3203,49.9541],[14.3229,49.9528],[14.3262,49.9519],[14.3372,49.9507],[14.3791,49.9618],[14.4509,49.97],[14.4956,49.9792],[14.5017,49.9814],[14.5164,49.9903],[14.5325,49.998],[14.5423,49.9999],[14.549,50.0005],[14.5516,50.0003],[14.5537,49.9997],[14.5566,49.9986],[14.5707,49.9962],[14.5881,49.995]]]}},{"type":"Feature","properties":{"id":"CZE-1594","name":"Vysočina","nameBn":"ভাইসোচিনা অঞ্চল","type":"Region","bounds":[14.885,48.9453,16.4091,49.8756],"center":[15.7721,49.4088]},"geometry":{"type":"Polygon","coordinates":[[[16.392,49.5973],[16.3897,49.5862],[16.3851,49.5746],[16.3726,49.5547],[16.3725,49.5495],[16.375,49.5451],[16.4025,49.5273],[16.4061,49.5225],[16.4082,49.5167],[16.4091,49.5105],[16.4086,49.5044],[16.407,49.4987],[16.4041,49.4941],[16.4001,49.491],[16.3702,49.4875],[16.3656,49.4853],[16.3629,49.4819],[16.3625,49.4773],[16.3683,49.4639],[16.3705,49.4183],[16.3725,49.4111],[16.3914,49.3726],[16.3926,49.3657],[16.3915,49.3597],[16.3875,49.3548],[16.3003,49.32],[16.2877,49.3117],[16.2772,49.3006],[16.2735,49.2942],[16.2713,49.2873],[16.2707,49.2811],[16.2714,49.2763],[16.2732,49.2726],[16.2802,49.2641],[16.2819,49.2611],[16.2825,49.2573],[16.2814,49.2539],[16.2783,49.2518],[16.2572,49.2462],[16.2524,49.2432],[16.2488,49.2386],[16.2441,49.2263],[16.2427,49.2137],[16.2437,49.2081],[16.2462,49.2033],[16.2503,49.1996],[16.2627,49.1954],[16.268,49.1926],[16.2716,49.189],[16.2736,49.1847],[16.2737,49.1799],[16.2716,49.1747],[16.2671,49.1692],[16.2531,49.1581],[16.2489,49.153],[16.247,49.1481],[16.2469,49.1434],[16.2482,49.1389],[16.2563,49.1261],[16.2581,49.1217],[16.258,49.1171],[16.2564,49.1122],[16.2495,49.1024],[16.2277,49.0849],[16.1573,49.07],[16.1532,49.0676],[16.1325,49.0473],[16.1242,49.0429],[16.1138,49.0405],[16.0449,49.0479],[16.0404,49.0472],[16.0226,49.0384],[16.0164,49.0367],[15.9864,49.0359],[15.9745,49.0381],[15.9692,49.0408],[15.9644,49.0451],[15.96,49.0511],[15.9549,49.0557],[15.9483,49.0561],[15.9408,49.0534],[15.915,49.0323],[15.9109,49.0332],[15.9015,49.0333],[15.8962,49.032],[15.8913,49.0292],[15.8874,49.0244],[15.8823,49.0104],[15.8774,49.0061],[15.8709,49.0039],[15.8363,49.0061],[15.8082,48.9976],[15.7358,48.9544],[15.7296,48.9539],[15.7238,48.9552],[15.6938,48.9723],[15.6868,48.974],[15.68,48.9737],[15.6737,48.9721],[15.6632,48.9666],[15.6563,48.9611],[15.6531,48.9567],[15.645,48.9489],[15.6398,48.9461],[15.6341,48.9453],[15.6283,48.9474],[15.6094,48.9671],[15.6021,48.9713],[15.5948,48.9738],[15.588,48.9746],[15.5821,48.9735],[15.5775,48.9708],[15.5747,48.9662],[15.5738,48.9698],[15.5688,48.9749],[15.5643,48.9777],[15.5595,48.9798],[15.5478,48.9814],[15.532,48.9822],[15.525,48.9833],[15.5188,48.9861],[15.5151,48.9905],[15.5108,48.9973],[15.5077,48.9998],[15.5043,49.0007],[15.5011,49.0007],[15.4992,49.0012],[15.4979,49.0037],[15.4971,49.0078],[15.4992,49.0158],[15.5011,49.0197],[15.5053,49.0236],[15.5379,49.0489],[15.5429,49.0556],[15.545,49.0604],[15.5461,49.0676],[15.5472,49.072],[15.5495,49.076],[15.5522,49.0777],[15.5574,49.0784],[15.5795,49.0793],[15.5863,49.0804],[15.5914,49.0822],[15.5956,49.0843],[15.5983,49.0867],[15.5984,49.0894],[15.5966,49.0929],[15.5902,49.0985],[15.5427,49.1292],[15.539,49.1309],[15.5356,49.131],[15.5314,49.1304],[15.4926,49.1202],[15.4783,49.1195],[15.4311,49.1252],[15.4266,49.1251],[15.4099,49.1231],[15.4052,49.1237],[15.4015,49.1251],[15.354,49.1547],[15.3491,49.159],[15.3458,49.1658],[15.3433,49.1747],[15.3413,49.191],[15.3373,49.1994],[15.3317,49.2046],[15.3231,49.2068],[15.2745,49.2105],[15.2631,49.2126],[15.2589,49.2144],[15.2063,49.2324],[15.2001,49.2327],[15.1946,49.2315],[15.1895,49.2292],[15.172,49.2118],[15.1678,49.2098],[15.1634,49.2097],[15.1233,49.2268],[15.0969,49.2498],[15.0682,49.2623],[15.0458,49.2766],[15.0297,49.2827],[15.0211,49.2833],[15.0123,49.2813],[14.9952,49.2709],[14.9862,49.269],[14.9771,49.2698],[14.9581,49.2774],[14.9206,49.3003],[14.9154,49.3055],[14.9125,49.3105],[14.9115,49.3155],[14.9138,49.3361],[14.9131,49.3409],[14.9113,49.3444],[14.9084,49.347],[14.8919,49.3575],[14.8875,49.3623],[14.885,49.3685],[14.8852,49.3755],[14.9063,49.4298],[14.9071,49.4482],[14.9044,49.4645],[14.8895,49.4995],[14.892,49.5034],[14.8978,49.506],[14.9332,49.5127],[14.94,49.5161],[14.9436,49.5205],[14.9437,49.5252],[14.9412,49.53],[14.937,49.5344],[14.9228,49.5443],[14.9309,49.5465],[14.9425,49.5534],[14.9469,49.5582],[14.9497,49.5629],[14.9512,49.5662],[14.9545,49.57],[14.9573,49.572],[14.9765,49.5786],[14.9793,49.5807],[14.9802,49.5835],[14.978,49.5893],[14.9774,49.5917],[14.9779,49.5943],[14.9796,49.5966],[14.9824,49.5983],[14.987,49.5991],[14.9953,49.5987],[15.0347,49.5874],[15.0457,49.587],[15.0594,49.5881],[15.0829,49.5926],[15.112,49.5922],[15.1286,49.5877],[15.1571,49.5906],[15.2355,49.6152],[15.238,49.6273],[15.2353,49.6382],[15.2302,49.6469],[15.2251,49.6523],[15.2195,49.6565],[15.1744,49.6784],[15.1697,49.6825],[15.168,49.6868],[15.1709,49.694],[15.1758,49.6996],[15.1985,49.7166],[15.2069,49.7243],[15.2094,49.7283],[15.2109,49.7323],[15.2122,49.7367],[15.2144,49.7409],[15.2176,49.7444],[15.2219,49.7477],[15.226,49.7502],[15.2273,49.7506],[15.2341,49.752],[15.2372,49.7519],[15.2395,49.7514],[15.2432,49.7495],[15.2519,49.7462],[15.2573,49.7454],[15.262,49.7454],[15.2656,49.746],[15.3065,49.7618],[15.3413,49.7706],[15.377,49.7912],[15.383,49.7934],[15.3868,49.7935],[15.3922,49.7925],[15.4087,49.791],[15.4221,49.7926],[15.4307,49.7952],[15.4364,49.7986],[15.4401,49.8023],[15.4425,49.8065],[15.4463,49.8225],[15.4479,49.8267],[15.45,49.8308],[15.4516,49.8331],[15.4547,49.8366],[15.4583,49.84],[15.4658,49.8451],[15.469,49.8466],[15.4794,49.849],[15.4831,49.8517],[15.4845,49.8568],[15.4842,49.8673],[15.485,49.8756],[15.5283,49.857],[15.5475,49.8423],[15.5733,49.8151],[15.5839,49.8075],[15.5897,49.8055],[15.6659,49.8095],[15.6834,49.8064],[15.7291,49.7833],[15.7559,49.7792],[15.7697,49.7735],[15.7751,49.7697],[15.7787,49.7651],[15.7809,49.755],[15.7833,49.7516],[15.7871,49.7491],[15.813,49.7409],[15.8293,49.7325],[15.843,49.7205],[15.8588,49.6998],[15.8841,49.6954],[15.8913,49.6978],[15.9,49.6983],[15.9136,49.6945],[15.9246,49.6925],[15.9339,49.6926],[15.9437,49.6966],[15.9591,49.7079],[15.9639,49.7096],[15.975,49.7123],[15.9797,49.7145],[15.9833,49.7185],[15.988,49.7265],[15.9904,49.7291],[15.9946,49.7316],[16.0006,49.7315],[16.0074,49.7297],[16.0214,49.7235],[16.0349,49.7191],[16.0498,49.7157],[16.0728,49.7125],[16.084,49.7086],[16.0911,49.7039],[16.094,49.6987],[16.0973,49.6943],[16.1047,49.6909],[16.1156,49.6893],[16.1372,49.6906],[16.1629,49.6899],[16.1831,49.6859],[16.2126,49.6763],[16.2502,49.6601],[16.2632,49.653],[16.2722,49.6457],[16.2785,49.6383],[16.2856,49.6317],[16.2963,49.6267],[16.3315,49.6184],[16.3724,49.6012],[16.392,49.5973]]]}},{"type":"Feature","properties":{"id":"CZE-10371","name":"Zlínský","nameBn":"জিলিনস্কি","type":"Region","bounds":[17.1083,48.8418,18.387,49.5273],"center":[17.7745,49.1837]},"geometry":{"type":"Polygon","coordinates":[[[18.3616,49.3302],[18.3246,49.3113],[18.19,49.2769],[18.1606,49.2587],[18.1365,49.2331],[18.1178,49.2026],[18.1051,49.1698],[18.1015,49.1429],[18.1016,49.1369],[18.1029,49.0922],[18.0963,49.0703],[18.0755,49.0472],[18.0461,49.0292],[18.0129,49.0191],[17.9592,49.0219],[17.9351,49.0194],[17.9141,49.0105],[17.9008,48.993],[17.8946,48.9782],[17.8869,48.9472],[17.8787,48.9336],[17.8603,48.9217],[17.8412,48.921],[17.8201,48.9234],[17.7955,48.9206],[17.7794,48.9117],[17.7449,48.8726],[17.7272,48.8629],[17.646,48.8418],[17.6386,48.8644],[17.629,48.8821],[17.6225,48.8901],[17.6147,48.8964],[17.6052,48.9008],[17.551,48.9114],[17.5446,48.9145],[17.5416,48.9189],[17.5385,48.9293],[17.5335,48.9386],[17.5269,48.9458],[17.5232,48.9483],[17.5002,48.9543],[17.4707,48.957],[17.4389,48.9456],[17.4311,48.9446],[17.4237,48.9452],[17.4173,48.9477],[17.4064,48.9586],[17.3886,48.9681],[17.3531,48.978],[17.35,48.9924],[17.3448,49.0029],[17.341,49.0068],[17.3363,49.0089],[17.2744,49.0173],[17.2333,49.03],[17.2278,49.0332],[17.2238,49.037],[17.2218,49.0423],[17.2244,49.0734],[17.2238,49.0801],[17.221,49.0851],[17.2153,49.0876],[17.2078,49.088],[17.1591,49.077],[17.1417,49.0771],[17.1234,49.0823],[17.1158,49.0862],[17.1105,49.0907],[17.1083,49.0954],[17.1101,49.1001],[17.1254,49.1091],[17.1513,49.1334],[17.1562,49.1365],[17.1832,49.1431],[17.1957,49.1489],[17.1999,49.1529],[17.2019,49.1578],[17.2013,49.1636],[17.1987,49.1691],[17.1952,49.173],[17.1909,49.1759],[17.1647,49.1861],[17.1519,49.1978],[17.1383,49.2163],[17.1295,49.2359],[17.1286,49.2443],[17.131,49.2508],[17.1474,49.2701],[17.1484,49.2723],[17.1494,49.2707],[17.1538,49.2655],[17.157,49.2631],[17.1609,49.2614],[17.1653,49.2609],[17.1703,49.262],[17.1745,49.2652],[17.1771,49.2701],[17.1814,49.2885],[17.1842,49.2937],[17.1887,49.2972],[17.1956,49.2986],[17.2608,49.2996],[17.2648,49.2991],[17.2681,49.2993],[17.2726,49.3007],[17.2758,49.3031],[17.2806,49.308],[17.2861,49.3125],[17.3202,49.334],[17.3236,49.3368],[17.3326,49.3489],[17.3239,49.3559],[17.3159,49.373],[17.3174,49.3901],[17.3216,49.4062],[17.3403,49.4046],[17.3466,49.4041],[17.362,49.4004],[17.3866,49.3866],[17.4078,49.3791],[17.4166,49.3779],[17.4595,49.3653],[17.4698,49.364],[17.4757,49.3653],[17.4819,49.3689],[17.4869,49.3744],[17.4915,49.3811],[17.4963,49.3867],[17.5005,49.3901],[17.5056,49.3928],[17.5187,49.3977],[17.5359,49.4023],[17.5437,49.4036],[17.6149,49.4026],[17.622,49.4034],[17.6281,49.405],[17.6325,49.4078],[17.6357,49.4108],[17.6377,49.415],[17.6377,49.4194],[17.6352,49.4258],[17.6287,49.4359],[17.6273,49.44],[17.6291,49.4429],[17.6329,49.4449],[17.645,49.4481],[17.6563,49.449],[17.6715,49.4486],[17.7594,49.437],[17.7863,49.4448],[17.7835,49.4556],[17.7831,49.4654],[17.7841,49.4703],[17.7863,49.4748],[17.7894,49.4783],[17.7931,49.4805],[17.8055,49.4849],[17.8095,49.4875],[17.8132,49.4914],[17.8196,49.5035],[17.8237,49.508],[17.8285,49.5109],[17.8336,49.5123],[17.839,49.5124],[17.8442,49.511],[17.8493,49.5085],[17.8586,49.5014],[17.8644,49.4995],[17.8767,49.4987],[17.8913,49.5011],[17.9063,49.5273],[17.9504,49.5269],[17.9544,49.5253],[17.9579,49.5226],[17.9606,49.5184],[17.9648,49.506],[17.9687,49.501],[17.9743,49.4974],[17.9813,49.495],[17.9897,49.4938],[18.1456,49.5039],[18.155,49.5014],[18.1851,49.4874],[18.1919,49.4858],[18.2679,49.4866],[18.285,49.4823],[18.2901,49.4787],[18.3109,49.4496],[18.3176,49.4447],[18.3348,49.4376],[18.341,49.4329],[18.3453,49.4273],[18.3483,49.4209],[18.3563,49.3923],[18.3599,49.3863],[18.3647,49.3821],[18.3703,49.3793],[18.376,49.3778],[18.387,49.3776],[18.3852,49.3423],[18.3616,49.3302]]]}},{"type":"Feature","properties":{"id":"CZE-10368","name":"Ústecký","nameBn":"উস্টি নাড লাবেম অঞ্চল","type":"Region","bounds":[12.9606,50.0774,14.6346,51.04],"center":[13.8424,50.4996]},"geometry":{"type":"Polygon","coordinates":[[[14.3194,51.04],[14.3566,51.0323],[14.3641,51.028],[14.3694,51.0224],[14.3759,51.017],[14.3867,51.0133],[14.3978,51.0131],[14.4258,51.0209],[14.4621,51.0197],[14.4735,51.0234],[14.4821,51.0372],[14.4879,51.0287],[14.4901,51.0227],[14.4935,51.0167],[14.5029,51.0085],[14.5153,51.003],[14.5423,50.9987],[14.5546,50.9927],[14.5667,50.9834],[14.5743,50.9755],[14.5774,50.9657],[14.5756,50.9507],[14.5678,50.9386],[14.5558,50.9243],[14.5504,50.9121],[14.5618,50.9064],[14.6171,50.9209],[14.6292,50.9207],[14.6346,50.9094],[14.6288,50.8961],[14.6119,50.871],[14.6083,50.8531],[14.6077,50.8504],[14.605,50.8446],[14.6023,50.8415],[14.5987,50.8387],[14.5938,50.8368],[14.5636,50.8351],[14.5595,50.8332],[14.5564,50.8297],[14.5545,50.8246],[14.5526,50.8091],[14.5493,50.8016],[14.5443,50.7952],[14.5378,50.7901],[14.5304,50.7869],[14.5221,50.7857],[14.5136,50.787],[14.4614,50.8212],[14.4544,50.8233],[14.4488,50.8222],[14.445,50.8173],[14.4338,50.7761],[14.4211,50.7686],[14.4168,50.7647],[14.4132,50.7603],[14.4112,50.7553],[14.4117,50.7447],[14.4103,50.7405],[14.4076,50.7369],[14.385,50.7236],[14.3808,50.72],[14.3625,50.6898],[14.3485,50.6842],[14.3439,50.681],[14.3404,50.6772],[14.3388,50.6726],[14.34,50.6673],[14.3963,50.5548],[14.4675,50.5173],[14.4753,50.4944],[14.4685,50.4913],[14.4647,50.4878],[14.4618,50.4839],[14.4604,50.4805],[14.4593,50.4759],[14.4593,50.4698],[14.4581,50.4616],[14.4547,50.4539],[14.4531,50.4514],[14.4516,50.4494],[14.4452,50.4464],[14.4371,50.4436],[14.4079,50.4281],[14.3993,50.4248],[14.3934,50.4232],[14.3881,50.4235],[14.3828,50.4244],[14.3696,50.4283],[14.3615,50.4292],[14.3578,50.4273],[14.3569,50.4233],[14.3583,50.4193],[14.3629,50.4104],[14.3645,50.4066],[14.3649,50.4027],[14.3639,50.3963],[14.3637,50.3928],[14.3649,50.3896],[14.3687,50.3825],[14.3701,50.3792],[14.3701,50.3754],[14.3691,50.373],[14.3643,50.3684],[14.3626,50.3661],[14.3605,50.3619],[14.357,50.3569],[14.3491,50.3493],[14.3412,50.3465],[14.3335,50.3455],[14.3159,50.3462],[14.2877,50.3447],[14.2799,50.3433],[14.2716,50.3398],[14.25,50.3283],[14.2427,50.326],[14.2376,50.3252],[14.205,50.333],[14.1261,50.3244],[14.106,50.326],[14.0825,50.3314],[14.0581,50.3345],[14.0163,50.3336],[14.0042,50.3318],[13.9964,50.3295],[13.9923,50.3252],[13.9899,50.3209],[13.9888,50.3153],[13.9886,50.3111],[13.9899,50.3047],[13.9896,50.3014],[13.9876,50.2977],[13.9817,50.2918],[13.9739,50.2897],[13.9656,50.2892],[13.9521,50.2898],[13.9426,50.2874],[13.8833,50.2636],[13.8773,50.2592],[13.871,50.2537],[13.8653,50.2499],[13.8541,50.2442],[13.8472,50.2435],[13.8396,50.2453],[13.8331,50.2484],[13.825,50.2506],[13.8165,50.2502],[13.7212,50.2183],[13.7036,50.2153],[13.6986,50.2153],[13.6945,50.2162],[13.6883,50.2182],[13.682,50.2192],[13.671,50.2193],[13.6625,50.2175],[13.6552,50.2147],[13.6518,50.2128],[13.6425,50.2065],[13.5997,50.1886],[13.5412,50.173],[13.5295,50.1687],[13.5239,50.1647],[13.5106,50.1511],[13.501,50.1363],[13.4914,50.1285],[13.4797,50.1235],[13.4541,50.1069],[13.4442,50.1037],[13.4287,50.1009],[13.4161,50.0967],[13.4057,50.0872],[13.3844,50.0774],[13.3706,50.0775],[13.3256,50.0848],[13.3165,50.0877],[13.3101,50.0921],[13.2992,50.1018],[13.2899,50.1085],[13.2783,50.1153],[13.2573,50.125],[13.2499,50.1299],[13.2468,50.133],[13.2485,50.1371],[13.2503,50.1392],[13.2648,50.1514],[13.2688,50.1556],[13.2722,50.16],[13.2701,50.1682],[13.2634,50.1792],[13.2423,50.2001],[13.2347,50.2102],[13.2316,50.2183],[13.2339,50.223],[13.2358,50.2279],[13.2367,50.2332],[13.2355,50.2435],[13.2319,50.2563],[13.2302,50.2681],[13.2299,50.2747],[13.2317,50.2964],[13.2314,50.3049],[13.2297,50.3135],[13.2248,50.3268],[13.2196,50.3332],[13.2133,50.3379],[13.1979,50.3433],[13.1697,50.348],[13.1392,50.349],[13.1143,50.3523],[13.1016,50.3583],[13.0943,50.3646],[13.0877,50.3731],[13.0826,50.3773],[13.0766,50.3803],[13.0112,50.3851],[12.9942,50.3914],[12.9606,50.4092],[12.9824,50.423],[12.9966,50.4337],[13.0031,50.4519],[13.0096,50.4927],[13.0179,50.4963],[13.0263,50.4976],[13.0345,50.4965],[13.0423,50.4928],[13.0511,50.4911],[13.0604,50.4906],[13.0698,50.4911],[13.0789,50.4927],[13.079,50.4927],[13.0792,50.4928],[13.1074,50.499],[13.1601,50.497],[13.1847,50.5088],[13.1991,50.5253],[13.2323,50.582],[13.2518,50.5809],[13.268,50.5737],[13.2846,50.569],[13.3056,50.5758],[13.3163,50.596],[13.3219,50.6024],[13.3594,50.6193],[13.3654,50.6235],[13.366,50.6271],[13.3688,50.6283],[13.381,50.6255],[13.3863,50.6216],[13.4004,50.6066],[13.407,50.6013],[13.4293,50.5943],[13.4479,50.5973],[13.4649,50.6071],[13.4823,50.6209],[13.4922,50.6245],[13.4982,50.6292],[13.4991,50.6352],[13.4933,50.6432],[13.51,50.6512],[13.5233,50.6622],[13.5272,50.6757],[13.5156,50.691],[13.5566,50.7067],[13.6019,50.7122],[13.6918,50.7118],[13.711,50.7143],[13.7491,50.7232],[13.7707,50.7246],[13.8166,50.7214],[13.8345,50.7237],[13.8635,50.7351],[13.8696,50.7353],[13.8754,50.7365],[13.8822,50.7427],[13.8827,50.748],[13.8803,50.755],[13.8791,50.7635],[13.8833,50.7732],[13.8925,50.7804],[13.901,50.7806],[13.9107,50.7788],[13.9233,50.78],[13.9335,50.7848],[13.9488,50.7972],[13.9596,50.8021],[13.9791,50.8048],[14.0157,50.8018],[14.0349,50.8026],[14.1908,50.8479],[14.203,50.8551],[14.2213,50.8726],[14.2321,50.8794],[14.2681,50.8841],[14.3465,50.8802],[14.3759,50.896],[14.3819,50.9209],[14.3552,50.9306],[14.3183,50.9375],[14.2928,50.9535],[14.2937,50.964],[14.3022,50.9677],[14.3038,50.9697],[14.2838,50.9748],[14.25,50.9776],[14.2383,50.9825],[14.2495,50.9927],[14.2636,51.0214],[14.2875,51.0368],[14.3194,51.04]]]}}]}