{"type":"FeatureCollection","features":[{"type":"Feature","properties":{"id":"DOM-1974","name":"Azua","nameBn":"আজুয়া প্রদেশ","type":"Province","bounds":[-71.1613,18.2587,-70.4725,18.9885],"center":[-70.8169,18.5981]},"geometry":{"type":"Polygon","coordinates":[[[-70.5794,18.2718],[-70.5924,18.2799],[-70.5968,18.2891],[-70.5944,18.2991],[-70.5884,18.3036],[-70.5817,18.3071],[-70.5764,18.314],[-70.5718,18.3341],[-70.5712,18.3552],[-70.5739,18.3737],[-70.5795,18.3856],[-70.6014,18.4119],[-70.6147,18.4208],[-70.6378,18.4294],[-70.6575,18.4338],[-70.6825,18.4356],[-70.7038,18.4301],[-70.7129,18.4127],[-70.7095,18.3917],[-70.712,18.3834],[-70.7417,18.3554],[-70.7499,18.3504],[-70.7606,18.3475],[-70.7723,18.3479],[-70.7931,18.3541],[-70.8023,18.3549],[-70.81,18.352],[-70.824,18.3427],[-70.8333,18.3406],[-70.846,18.3422],[-70.8505,18.3396],[-70.8603,18.3307],[-70.8631,18.327],[-70.8694,18.3146],[-70.8706,18.3102],[-70.8733,18.3063],[-70.8867,18.3021],[-70.8917,18.2997],[-70.9183,18.2696],[-70.9325,18.2615],[-70.9562,18.2587],[-70.9656,18.2621],[-70.9507,18.2861],[-70.9583,18.3183],[-70.9617,18.3396],[-70.9594,18.354],[-70.9885,18.3607],[-71.0208,18.3693],[-71.0332,18.3739],[-71.0427,18.3807],[-71.0474,18.3923],[-71.0524,18.4038],[-71.0217,18.4289],[-71.0015,18.4539],[-71.0046,18.4858],[-71.0148,18.502],[-70.9936,18.5096],[-70.9933,18.5273],[-71.0199,18.5443],[-71.0514,18.5497],[-71.1138,18.5703],[-71.1613,18.6159],[-71.1174,18.6271],[-71.0911,18.6644],[-71.0747,18.6703],[-71.0558,18.6788],[-71.0581,18.6916],[-71.0647,18.7026],[-71.0543,18.7161],[-71.0531,18.7288],[-71.0594,18.7664],[-71.0269,18.7761],[-71.0185,18.7588],[-71.0039,18.7531],[-70.9903,18.7656],[-70.9825,18.7826],[-70.9819,18.8341],[-70.9753,18.8837],[-70.9631,18.9087],[-70.9386,18.925],[-70.9245,18.9378],[-70.9205,18.9572],[-70.8996,18.967],[-70.8912,18.9885],[-70.8387,18.9545],[-70.8274,18.8623],[-70.7848,18.8073],[-70.7238,18.7778],[-70.6858,18.734],[-70.7,18.6768],[-70.6713,18.623],[-70.6503,18.5724],[-70.6356,18.5638],[-70.628,18.5489],[-70.6106,18.533],[-70.5874,18.5252],[-70.5541,18.5045],[-70.5219,18.4887],[-70.5011,18.4547],[-70.4791,18.4132],[-70.4725,18.3948],[-70.4822,18.3765],[-70.49,18.3496],[-70.4874,18.3212],[-70.5237,18.2819],[-70.5794,18.2718]]]}},{"type":"Feature","properties":{"id":"DOM-1969","name":"Bahoruco","nameBn":"বাউরুকো প্রদেশ","type":"Province","bounds":[-71.6207,18.336,-70.9933,18.6508],"center":[-71.307,18.5116]},"geometry":{"type":"Polygon","coordinates":[[[-71.3767,18.3927],[-71.4155,18.4021],[-71.4516,18.4233],[-71.49,18.4398],[-71.5926,18.478],[-71.6207,18.5653],[-71.6094,18.5863],[-71.6027,18.6088],[-71.6043,18.6215],[-71.5995,18.6326],[-71.5675,18.6423],[-71.535,18.6508],[-71.4879,18.6343],[-71.4385,18.6248],[-71.3935,18.6032],[-71.3449,18.5996],[-71.3233,18.6128],[-71.3002,18.6202],[-71.2726,18.6173],[-71.2452,18.6219],[-71.1977,18.6354],[-71.1613,18.6159],[-71.1138,18.5703],[-71.0514,18.5497],[-71.0199,18.5443],[-70.9933,18.5273],[-70.9936,18.5096],[-71.0148,18.502],[-71.0344,18.5259],[-71.0478,18.4999],[-71.0634,18.4753],[-71.0892,18.4573],[-71.1199,18.4467],[-71.136,18.4342],[-71.1474,18.4177],[-71.1635,18.4071],[-71.1803,18.3971],[-71.1978,18.3708],[-71.2008,18.3384],[-71.2367,18.336],[-71.2646,18.3579],[-71.2906,18.4042],[-71.3384,18.407],[-71.3767,18.3927]]]}},{"type":"Feature","properties":{"id":"DOM-1970","name":"Barahona","nameBn":"বারাহোনা প্রদেশ","type":"Province","bounds":[-71.4237,17.8466,-70.9507,18.5259],"center":[-71.1872,18.1674]},"geometry":{"type":"Polygon","coordinates":[[[-70.9656,18.2621],[-70.9658,18.2622],[-70.972,18.2703],[-70.9773,18.2803],[-70.9838,18.2891],[-70.9943,18.2966],[-71.0049,18.301],[-71.0482,18.31],[-71.0683,18.3104],[-71.084,18.3044],[-71.0902,18.2891],[-71.0924,18.2807],[-71.1012,18.2661],[-71.1033,18.255],[-71.1014,18.2421],[-71.0965,18.2351],[-71.0899,18.2287],[-71.0828,18.2177],[-71.0665,18.1633],[-71.0613,18.154],[-71.0611,18.1421],[-71.0806,18.1139],[-71.0972,18.0737],[-71.1918,17.9418],[-71.2001,17.9192],[-71.2043,17.9111],[-71.2137,17.9049],[-71.2336,17.895],[-71.2459,17.8851],[-71.2547,17.8753],[-71.2615,17.8632],[-71.2678,17.8466],[-71.2752,17.8491],[-71.2781,17.8508],[-71.281,17.8531],[-71.281,17.8532],[-71.2817,17.8557],[-71.2817,17.8946],[-71.2977,17.9295],[-71.3277,17.9309],[-71.3529,17.9251],[-71.4022,17.9639],[-71.4237,18.015],[-71.4168,18.0239],[-71.4064,18.0274],[-71.3964,18.0313],[-71.3909,18.0419],[-71.389,18.0599],[-71.3899,18.0782],[-71.3912,18.119],[-71.4219,18.1359],[-71.4176,18.163],[-71.3993,18.1816],[-71.374,18.175],[-71.351,18.178],[-71.3666,18.2328],[-71.3814,18.2901],[-71.3371,18.2992],[-71.2866,18.2828],[-71.2339,18.2963],[-71.2008,18.3384],[-71.1978,18.3708],[-71.1803,18.3971],[-71.1635,18.4071],[-71.1474,18.4177],[-71.136,18.4342],[-71.1199,18.4467],[-71.0892,18.4573],[-71.0634,18.4753],[-71.0478,18.4999],[-71.0344,18.5259],[-71.0148,18.502],[-71.0046,18.4858],[-71.0015,18.4539],[-71.0217,18.4289],[-71.0524,18.4038],[-71.0474,18.3923],[-71.0427,18.3807],[-71.0332,18.3739],[-71.0208,18.3693],[-70.9885,18.3607],[-70.9594,18.354],[-70.9617,18.3396],[-70.9583,18.3183],[-70.9507,18.2861],[-70.9656,18.2621]]]}},{"type":"Feature","properties":{"id":"DOM-1966","name":"Dajabón","nameBn":"দাজাবোন","type":"Province","bounds":[-71.7765,19.2179,-71.4131,19.649],"center":[-71.5952,19.4319]},"geometry":{"type":"Polygon","coordinates":[[[-71.7495,19.2797],[-71.7537,19.2838],[-71.7716,19.3076],[-71.7765,19.3275],[-71.77,19.3338],[-71.743,19.3484],[-71.7335,19.3555],[-71.7208,19.386],[-71.7153,19.3917],[-71.7039,19.4146],[-71.7032,19.4593],[-71.7151,19.5375],[-71.7431,19.6001],[-71.7477,19.6228],[-71.746,19.649],[-71.7348,19.6463],[-71.6377,19.6073],[-71.5325,19.6196],[-71.5074,19.6129],[-71.4923,19.5868],[-71.4542,19.5629],[-71.4131,19.5445],[-71.4363,19.5081],[-71.4487,19.4658],[-71.4465,19.4432],[-71.4541,19.4222],[-71.4662,19.3586],[-71.5151,19.338],[-71.5051,19.3164],[-71.4883,19.2988],[-71.5053,19.282],[-71.5258,19.2702],[-71.5496,19.2778],[-71.5741,19.284],[-71.5863,19.2702],[-71.5938,19.2519],[-71.6149,19.2445],[-71.6351,19.2329],[-71.6517,19.2179],[-71.7165,19.2478],[-71.7495,19.2797]]]}},{"type":"Feature","properties":{"id":"DOM-1985","name":"Distrito Nacional","nameBn":"দিস্ত্রিতো নাকিওনাল","type":"National District","bounds":[-69.9974,18.4265,-69.8778,18.5368],"center":[-69.9376,18.4746]},"geometry":{"type":"Polygon","coordinates":[[[-69.8794,18.4712],[-69.8837,18.471],[-69.8998,18.4665],[-69.9312,18.452],[-69.9571,18.4353],[-69.9669,18.4308],[-69.9809,18.4265],[-69.9752,18.4626],[-69.9974,18.4939],[-69.9948,18.5224],[-69.968,18.5368],[-69.9558,18.5202],[-69.9435,18.5018],[-69.9245,18.5001],[-69.9057,18.505],[-69.8778,18.501],[-69.8794,18.4712]]]}},{"type":"Feature","properties":{"id":"DOM-1979","name":"Duarte","nameBn":"দুয়ার্তে প্রদেশ","type":"Province","bounds":[-70.3636,19.0383,-69.6767,19.4993],"center":[-70.0202,19.1987]},"geometry":{"type":"Polygon","coordinates":[[[-70.2258,19.4993],[-70.2151,19.4974],[-70.1797,19.477],[-70.1457,19.4552],[-70.134,19.4235],[-70.1311,19.3892],[-70.1187,19.3471],[-70.0839,19.323],[-70.0535,19.3193],[-70.0399,19.2961],[-69.9913,19.2571],[-69.9226,19.2407],[-69.8554,19.2107],[-69.7861,19.1981],[-69.7373,19.2201],[-69.6768,19.2065],[-69.6767,19.1794],[-69.7033,19.1626],[-69.719,19.1527],[-69.7325,19.1367],[-69.7361,19.1054],[-69.7558,19.0876],[-69.8213,19.09],[-69.8749,19.084],[-69.877,19.0728],[-69.8783,19.0573],[-69.8934,19.0383],[-69.9203,19.0393],[-69.9112,19.0668],[-69.9078,19.0935],[-69.9291,19.1064],[-69.9538,19.1137],[-69.9861,19.1158],[-70.0169,19.1161],[-70.0405,19.1231],[-70.0631,19.1331],[-70.0891,19.1443],[-70.1174,19.1463],[-70.1612,19.1512],[-70.2055,19.1504],[-70.2261,19.1469],[-70.2471,19.1506],[-70.2664,19.1556],[-70.285,19.1498],[-70.2819,19.1507],[-70.2814,19.1464],[-70.3313,19.1776],[-70.3636,19.2249],[-70.3627,19.2675],[-70.3487,19.3104],[-70.3406,19.3572],[-70.3211,19.3994],[-70.279,19.4188],[-70.2506,19.4417],[-70.2425,19.4737],[-70.2366,19.4992],[-70.2258,19.4993]]]}},{"type":"Feature","properties":{"id":"DOM-1986","name":"El Seybo","nameBn":"এল সিবো প্রদেশ","type":"Province","bounds":[-69.3286,18.5273,-68.7851,19.0512],"center":[-69.0568,18.7649]},"geometry":{"type":"Polygon","coordinates":[[[-69.2117,19.021],[-69.1732,19.0111],[-69.1575,19.0122],[-69.1387,19.0223],[-69.1449,19.0296],[-69.1573,19.0367],[-69.1575,19.0464],[-69.1395,19.0512],[-69.1239,19.0378],[-69.1029,19.0054],[-69.0893,18.9979],[-69.0741,18.9936],[-69.0612,18.9882],[-69.0544,18.9775],[-69.0425,18.9868],[-69.0181,18.9975],[-69.0066,19.0054],[-69.0142,19.0134],[-69.0106,19.0154],[-69.0016,19.0156],[-68.993,19.0185],[-68.9825,19.0288],[-68.9794,19.0329],[-68.9754,19.0331],[-68.9396,19.0313],[-68.9186,19.0273],[-68.8998,19.0209],[-68.8831,19.0122],[-68.8812,19.0094],[-68.8812,19.0058],[-68.8804,19.002],[-68.8763,18.9986],[-68.8558,18.9918],[-68.854,18.9921],[-68.8182,18.9849],[-68.7959,18.9841],[-68.7869,18.981],[-68.7851,18.9799],[-68.8038,18.9568],[-68.8324,18.9357],[-68.8317,18.9222],[-68.8374,18.9112],[-68.8452,18.8693],[-68.818,18.82],[-68.8387,18.7634],[-68.8899,18.7248],[-68.9166,18.7207],[-68.9389,18.7081],[-68.9429,18.6864],[-68.9353,18.6657],[-68.979,18.6495],[-69.0042,18.6033],[-69.0425,18.557],[-69.0927,18.5273],[-69.0853,18.5534],[-69.0802,18.5765],[-69.1095,18.5794],[-69.1409,18.5751],[-69.1694,18.595],[-69.1937,18.6204],[-69.21,18.6247],[-69.2268,18.6231],[-69.2405,18.6311],[-69.2536,18.6402],[-69.2415,18.6771],[-69.2242,18.7151],[-69.2198,18.7578],[-69.2353,18.7979],[-69.2926,18.8545],[-69.3286,18.9241],[-69.272,18.9336],[-69.1895,18.9153],[-69.2171,18.9624],[-69.2123,19.0171],[-69.2123,19.0174],[-69.2117,19.021]]]}},{"type":"Feature","properties":{"id":"DOM-1967","name":"Espaillat","nameBn":"এস্পিল্লাত প্রদেশ","type":"Province","bounds":[-70.6139,19.3136,-70.0934,19.7142],"center":[-70.3537,19.5998]},"geometry":{"type":"Polygon","coordinates":[[[-70.3727,19.7142],[-70.3362,19.6776],[-70.3196,19.6664],[-70.3013,19.6577],[-70.2808,19.6518],[-70.2352,19.6472],[-70.1986,19.6347],[-70.1314,19.6221],[-70.1164,19.6224],[-70.1064,19.6259],[-70.0975,19.6332],[-70.094,19.6367],[-70.0934,19.6307],[-70.112,19.5787],[-70.1615,19.5514],[-70.1848,19.5529],[-70.2062,19.5516],[-70.2121,19.526],[-70.2151,19.4974],[-70.2258,19.4993],[-70.2366,19.4992],[-70.2593,19.5344],[-70.2883,19.5586],[-70.3183,19.5422],[-70.3388,19.5139],[-70.3624,19.4987],[-70.3743,19.5254],[-70.3908,19.533],[-70.4089,19.5395],[-70.4423,19.5003],[-70.4419,19.4336],[-70.4457,19.3773],[-70.4673,19.3188],[-70.4955,19.3136],[-70.5156,19.3615],[-70.5361,19.3573],[-70.5585,19.349],[-70.5901,19.3519],[-70.6139,19.3688],[-70.5991,19.3794],[-70.5837,19.3905],[-70.5834,19.4126],[-70.5863,19.4353],[-70.5805,19.4603],[-70.5669,19.4817],[-70.5519,19.4976],[-70.5477,19.5178],[-70.5256,19.5644],[-70.5174,19.6174],[-70.5098,19.6373],[-70.4942,19.6507],[-70.4811,19.6506],[-70.4685,19.6477],[-70.4507,19.6499],[-70.4329,19.6544],[-70.415,19.6543],[-70.3982,19.6592],[-70.3835,19.6859],[-70.3727,19.7142]]]}},{"type":"Feature","properties":{"id":"DOM-1980","name":"Hato Mayor","nameBn":"হাতো মেয়র প্রদেশ","type":"Province","bounds":[-69.6378,18.522,-69.1895,19.1112],"center":[-69.403,18.981]},"geometry":{"type":"Polygon","coordinates":[[[-69.6209,19.102],[-69.6085,19.0935],[-69.5533,19.1015],[-69.5343,19.0948],[-69.5105,19.102],[-69.4634,19.0847],[-69.4386,19.0873],[-69.4447,19.0924],[-69.4527,19.0969],[-69.4623,19.1003],[-69.4734,19.1016],[-69.4734,19.1085],[-69.42,19.1112],[-69.4044,19.1085],[-69.3867,19.0961],[-69.373,19.0654],[-69.3561,19.0532],[-69.339,19.0489],[-69.3046,19.0449],[-69.2117,19.021],[-69.2123,19.0174],[-69.2123,19.0171],[-69.2171,18.9624],[-69.1895,18.9153],[-69.272,18.9336],[-69.3286,18.9241],[-69.2926,18.8545],[-69.2353,18.7979],[-69.2198,18.7578],[-69.2242,18.7151],[-69.2415,18.6771],[-69.2536,18.6402],[-69.2877,18.6176],[-69.3039,18.5802],[-69.3253,18.5538],[-69.3537,18.522],[-69.369,18.5547],[-69.3829,18.5881],[-69.4058,18.6211],[-69.4285,18.6541],[-69.4356,18.6948],[-69.4413,18.7363],[-69.4592,18.7679],[-69.4591,18.8026],[-69.4413,18.8259],[-69.4205,18.8466],[-69.3999,18.8586],[-69.3809,18.8711],[-69.3993,18.8888],[-69.4356,18.8933],[-69.4845,18.9187],[-69.5347,18.9424],[-69.5917,18.9697],[-69.6378,19.0089],[-69.6245,19.0375],[-69.6186,19.0679],[-69.6216,19.0946],[-69.6209,19.102]]]}},{"type":"Feature","properties":{"id":"DOM-1968","name":"Hermanas","nameBn":"হারমানাস মিরাবা প্রদেশ","type":"Province","bounds":[-70.4673,19.2249,-70.2366,19.5586],"center":[-70.352,19.403]},"geometry":{"type":"Polygon","coordinates":[[[-70.2883,19.5586],[-70.2593,19.5344],[-70.2366,19.4992],[-70.2425,19.4737],[-70.2506,19.4417],[-70.279,19.4188],[-70.3211,19.3994],[-70.3406,19.3572],[-70.3487,19.3104],[-70.3627,19.2675],[-70.3636,19.2249],[-70.4045,19.2276],[-70.4325,19.2533],[-70.4525,19.285],[-70.4673,19.3188],[-70.4457,19.3773],[-70.4419,19.4336],[-70.4423,19.5003],[-70.4089,19.5395],[-70.3908,19.533],[-70.3743,19.5254],[-70.3624,19.4987],[-70.3388,19.5139],[-70.3183,19.5422],[-70.2883,19.5586]]]}},{"type":"Feature","properties":{"id":"DOM-1971","name":"Independencia","nameBn":"ইন্ডিপেন্সিয়া প্রদেশ","type":"Province","bounds":[-72.0098,18.1359,-71.2008,18.6847],"center":[-71.6057,18.3759]},"geometry":{"type":"Polygon","coordinates":[[[-71.7918,18.6807],[-71.7849,18.6847],[-71.7294,18.6784],[-71.6619,18.6684],[-71.5978,18.6637],[-71.535,18.6508],[-71.5675,18.6423],[-71.5995,18.6326],[-71.6043,18.6215],[-71.6027,18.6088],[-71.6094,18.5863],[-71.6207,18.5653],[-71.5926,18.478],[-71.49,18.4398],[-71.4516,18.4233],[-71.4155,18.4021],[-71.3767,18.3927],[-71.3384,18.407],[-71.2906,18.4042],[-71.2646,18.3579],[-71.2367,18.336],[-71.2008,18.3384],[-71.2339,18.2963],[-71.2866,18.2828],[-71.3371,18.2992],[-71.3814,18.2901],[-71.3666,18.2328],[-71.351,18.178],[-71.374,18.175],[-71.3993,18.1816],[-71.4176,18.163],[-71.4219,18.1359],[-71.4518,18.1599],[-71.4805,18.1855],[-71.5151,18.1988],[-71.5516,18.2076],[-71.6368,18.2477],[-71.7195,18.2921],[-71.7217,18.293],[-71.7211,18.294],[-71.7093,18.3133],[-71.7115,18.3161],[-71.7207,18.324],[-71.735,18.3329],[-71.7887,18.3522],[-71.8264,18.3762],[-71.8346,18.3851],[-71.8497,18.4064],[-71.8582,18.4136],[-71.8972,18.4229],[-71.9122,18.4307],[-71.9182,18.4492],[-71.9144,18.4602],[-71.9069,18.4643],[-71.9016,18.4698],[-71.9041,18.4848],[-71.9105,18.4943],[-72.0009,18.5825],[-72.0098,18.5988],[-71.9926,18.6111],[-71.9555,18.6186],[-71.8803,18.6054],[-71.8416,18.618],[-71.8286,18.6313],[-71.808,18.6647],[-71.7943,18.6792],[-71.7918,18.6807]]]}},{"type":"Feature","properties":{"id":"DOM-1987","name":"La Altagracia","nameBn":"লা আল্ট্রাগার্সিয়া প্রদেশ","type":"Province","bounds":[-68.9429,18.1079,-68.3286,18.9799],"center":[-68.6413,18.608]},"geometry":{"type":"MultiPolygon","coordinates":[[[[-68.6641,18.1693],[-68.6124,18.1708],[-68.5988,18.1662],[-68.5887,18.1534],[-68.5775,18.1337],[-68.5702,18.1157],[-68.5718,18.1079],[-68.587,18.1111],[-68.6193,18.1251],[-68.6361,18.1284],[-68.6539,18.1263],[-68.6849,18.1169],[-68.7019,18.1147],[-68.737,18.1236],[-68.7621,18.1452],[-68.7782,18.172],[-68.7869,18.1967],[-68.7721,18.2009],[-68.7545,18.1977],[-68.7372,18.1895],[-68.7223,18.1793],[-68.7108,18.1754],[-68.6641,18.1693]]],[[[-68.7851,18.9799],[-68.777,18.9744],[-68.7678,18.9695],[-68.75,18.9681],[-68.7397,18.9644],[-68.6235,18.8619],[-68.5808,18.8126],[-68.5205,18.7689],[-68.4773,18.7402],[-68.465,18.735],[-68.4586,18.731],[-68.4134,18.6896],[-68.3562,18.6566],[-68.3286,18.6165],[-68.3341,18.5773],[-68.428,18.4412],[-68.4347,18.4358],[-68.4413,18.429],[-68.4443,18.4195],[-68.4425,18.3848],[-68.4443,18.3748],[-68.4557,18.3579],[-68.4722,18.3498],[-68.4928,18.3475],[-68.5166,18.3475],[-68.5349,18.3533],[-68.5745,18.3782],[-68.5889,18.3823],[-68.6055,18.3717],[-68.6029,18.3557],[-68.5975,18.3366],[-68.606,18.3171],[-68.6183,18.3015],[-68.6261,18.2834],[-68.6415,18.2252],[-68.6471,18.2148],[-68.6584,18.2109],[-68.743,18.2045],[-68.7602,18.2104],[-68.7625,18.247],[-68.7869,18.2954],[-68.8201,18.3425],[-68.8496,18.3748],[-68.881,18.3955],[-68.9011,18.4037],[-68.8833,18.4443],[-68.8656,18.4897],[-68.852,18.5186],[-68.8531,18.5498],[-68.8741,18.5747],[-68.8993,18.5964],[-68.9187,18.6297],[-68.9353,18.6657],[-68.9429,18.6864],[-68.9389,18.7081],[-68.9166,18.7207],[-68.8899,18.7248],[-68.8387,18.7634],[-68.818,18.82],[-68.8452,18.8693],[-68.8374,18.9112],[-68.8317,18.9222],[-68.8324,18.9357],[-68.8038,18.9568],[-68.7851,18.9799]]]]}},{"type":"Feature","properties":{"id":"DOM-1972","name":"La Estrelleta","nameBn":"লা এস্রতেল্লেতা","type":"Province","bounds":[-71.8654,18.6508,-71.3274,19.2988],"center":[-71.65,19.037]},"geometry":{"type":"Polygon","coordinates":[[[-71.8625,18.9471],[-71.8654,18.9644],[-71.8481,18.9755],[-71.7968,18.9886],[-71.7837,18.9963],[-71.7403,19.0419],[-71.7104,19.0817],[-71.6953,19.0945],[-71.6614,19.1176],[-71.6488,19.1353],[-71.6437,19.1525],[-71.6391,19.2121],[-71.6517,19.2179],[-71.6351,19.2329],[-71.6149,19.2445],[-71.5938,19.2519],[-71.5863,19.2702],[-71.5741,19.284],[-71.5496,19.2778],[-71.5258,19.2702],[-71.5053,19.282],[-71.4883,19.2988],[-71.4468,19.2736],[-71.4159,19.2345],[-71.3713,19.2133],[-71.3274,19.1911],[-71.3343,19.1609],[-71.3363,19.13],[-71.3678,19.1072],[-71.4058,19.1051],[-71.4372,19.1233],[-71.4711,19.1284],[-71.4914,19.0923],[-71.5031,19.0497],[-71.5188,19.0181],[-71.5497,19.0095],[-71.578,19.0067],[-71.6,18.9878],[-71.6248,18.9378],[-71.6332,18.8838],[-71.6159,18.8629],[-71.6279,18.8142],[-71.6053,18.8002],[-71.585,18.7834],[-71.5778,18.7604],[-71.5779,18.7359],[-71.5593,18.717],[-71.5323,18.711],[-71.5207,18.6826],[-71.535,18.6508],[-71.5978,18.6637],[-71.6619,18.6684],[-71.7294,18.6784],[-71.7849,18.6847],[-71.7581,18.7005],[-71.7441,18.7114],[-71.7321,18.7301],[-71.7253,18.747],[-71.7203,18.7654],[-71.7188,18.7842],[-71.7269,18.8235],[-71.7279,18.8641],[-71.7335,18.8826],[-71.7409,18.8916],[-71.7638,18.9115],[-71.773,18.9217],[-71.7871,18.95],[-71.7963,18.9571],[-71.8197,18.9578],[-71.8445,18.9497],[-71.8625,18.9471]]]}},{"type":"Feature","properties":{"id":"DOM-1988","name":"La Romana","nameBn":"লা রোমানা প্রদেশ","type":"Province","bounds":[-69.1218,18.3959,-68.852,18.6657],"center":[-68.9869,18.5221]},"geometry":{"type":"Polygon","coordinates":[[[-68.9011,18.4037],[-68.9225,18.4123],[-68.9643,18.418],[-69.0126,18.3991],[-69.0854,18.3959],[-69.0906,18.4238],[-69.103,18.4526],[-69.115,18.4624],[-69.1218,18.4756],[-69.1087,18.5021],[-69.0927,18.5273],[-69.0425,18.557],[-69.0042,18.6033],[-68.979,18.6495],[-68.9353,18.6657],[-68.9187,18.6297],[-68.8993,18.5964],[-68.8741,18.5747],[-68.8531,18.5498],[-68.852,18.5186],[-68.8656,18.4897],[-68.8833,18.4443],[-68.9011,18.4037]]]}},{"type":"Feature","properties":{"id":"DOM-1975","name":"La Vega","nameBn":"লা ভেগা প্রদেশ","type":"Province","bounds":[-70.9192,18.6768,-70.2776,19.3688],"center":[-70.6836,19.0453]},"geometry":{"type":"Polygon","coordinates":[[[-70.6139,19.3688],[-70.5901,19.3519],[-70.5585,19.349],[-70.5361,19.3573],[-70.5156,19.3615],[-70.4955,19.3136],[-70.4673,19.3188],[-70.4525,19.285],[-70.4325,19.2533],[-70.4045,19.2276],[-70.3636,19.2249],[-70.3313,19.1776],[-70.2814,19.1464],[-70.2796,19.1437],[-70.2776,19.1411],[-70.2999,19.1333],[-70.3244,19.1212],[-70.3641,19.1033],[-70.3923,19.0723],[-70.3998,19.0983],[-70.4237,19.1117],[-70.4434,19.1051],[-70.4542,19.0865],[-70.5018,19.0742],[-70.5226,19.0374],[-70.5235,18.969],[-70.5833,18.9225],[-70.5924,18.8532],[-70.5337,18.7879],[-70.548,18.7436],[-70.5741,18.712],[-70.5951,18.6936],[-70.6105,18.6774],[-70.6547,18.6779],[-70.7,18.6768],[-70.6858,18.734],[-70.7238,18.7778],[-70.7848,18.8073],[-70.8274,18.8623],[-70.8387,18.9545],[-70.8912,18.9885],[-70.8997,19.0099],[-70.9162,19.0259],[-70.9118,19.0481],[-70.9192,19.0694],[-70.89,19.0831],[-70.8571,19.0966],[-70.7949,19.1251],[-70.7425,19.1628],[-70.7303,19.1897],[-70.7088,19.1908],[-70.6825,19.186],[-70.6855,19.2148],[-70.6783,19.2488],[-70.694,19.275],[-70.7246,19.283],[-70.7488,19.3006],[-70.7416,19.3209],[-70.7169,19.3275],[-70.6667,19.3526],[-70.6139,19.3688]]]}},{"type":"Feature","properties":{"id":"DOM-1982","name":"María Trinidad Sánchez","nameBn":"মারিয়া ত্রিনিদাদ সানচেজ প্রদেশ","type":"Province","bounds":[-70.2151,19.1981,-69.7715,19.6801],"center":[-69.9933,19.4682]},"geometry":{"type":"Polygon","coordinates":[[[-70.094,19.6367],[-70.061,19.6701],[-70.0421,19.6785],[-69.9867,19.6776],[-69.9595,19.6801],[-69.9473,19.6787],[-69.932,19.6702],[-69.8979,19.636],[-69.8872,19.6127],[-69.8878,19.5873],[-69.9042,19.5324],[-69.8841,19.5244],[-69.8765,19.5067],[-69.8768,19.461],[-69.8744,19.4411],[-69.868,19.4253],[-69.8014,19.3309],[-69.7715,19.3033],[-69.7736,19.2982],[-69.7773,19.2714],[-69.7866,19.2463],[-69.7928,19.2216],[-69.7861,19.1981],[-69.8554,19.2107],[-69.9226,19.2407],[-69.9913,19.2571],[-70.0399,19.2961],[-70.0535,19.3193],[-70.0839,19.323],[-70.1187,19.3471],[-70.1311,19.3892],[-70.134,19.4235],[-70.1457,19.4552],[-70.1797,19.477],[-70.2151,19.4974],[-70.2121,19.526],[-70.2062,19.5516],[-70.1848,19.5529],[-70.1615,19.5514],[-70.112,19.5787],[-70.0934,19.6307],[-70.094,19.6367]]]}},{"type":"Feature","properties":{"id":"DOM-1976","name":"Monseñor Nouel","nameBn":"মন্সেনর ন্যুয়েল প্রদেশ","type":"Province","bounds":[-70.5924,18.7195,-70.2238,19.1117],"center":[-70.4081,18.9242]},"geometry":{"type":"Polygon","coordinates":[[[-70.3923,19.0723],[-70.3809,19.0487],[-70.3718,19.0255],[-70.3671,18.9984],[-70.3418,18.9868],[-70.3327,18.9757],[-70.3296,18.961],[-70.3139,18.9413],[-70.2929,18.9267],[-70.2499,18.8976],[-70.2238,18.8548],[-70.2444,18.833],[-70.2512,18.8017],[-70.2854,18.7861],[-70.2996,18.7576],[-70.3131,18.7195],[-70.35,18.7202],[-70.3756,18.7372],[-70.4023,18.7474],[-70.4265,18.7392],[-70.4515,18.7366],[-70.4917,18.7647],[-70.5337,18.7879],[-70.5924,18.8532],[-70.5833,18.9225],[-70.5235,18.969],[-70.5226,19.0374],[-70.5018,19.0742],[-70.4542,19.0865],[-70.4434,19.1051],[-70.4237,19.1117],[-70.3998,19.0983],[-70.3923,19.0723]]]}},{"type":"Feature","properties":{"id":"DOM-1964","name":"Monte Cristi","nameBn":"মন্টে ক্রিস্টি প্রদেশ","type":"Province","bounds":[-71.7711,19.5322,-71.134,19.9103],"center":[-71.4527,19.7302]},"geometry":{"type":"Polygon","coordinates":[[[-71.746,19.649],[-71.745,19.6649],[-71.7486,19.6826],[-71.7574,19.7101],[-71.7383,19.7061],[-71.7203,19.6975],[-71.7241,19.7172],[-71.7419,19.7558],[-71.7408,19.7657],[-71.7408,19.7732],[-71.7676,19.7745],[-71.7711,19.7851],[-71.7602,19.8009],[-71.7445,19.8172],[-71.74,19.8203],[-71.7349,19.8213],[-71.7237,19.821],[-71.7169,19.8236],[-71.7058,19.8365],[-71.6998,19.8415],[-71.6879,19.846],[-71.679,19.8481],[-71.6703,19.852],[-71.6588,19.862],[-71.6656,19.8745],[-71.6667,19.8857],[-71.6614,19.8936],[-71.6486,19.8967],[-71.6409,19.8956],[-71.6289,19.8904],[-71.6212,19.8893],[-71.6179,19.8914],[-71.611,19.9008],[-71.6073,19.9029],[-71.5046,19.9103],[-71.4785,19.9069],[-71.4527,19.8981],[-71.3572,19.8513],[-71.3292,19.8459],[-71.3026,19.8557],[-71.2825,19.8418],[-71.2681,19.8355],[-71.2237,19.8341],[-71.2218,19.8346],[-71.215,19.8006],[-71.1951,19.7716],[-71.1639,19.7631],[-71.134,19.7518],[-71.145,19.7225],[-71.1537,19.6925],[-71.1508,19.6594],[-71.1484,19.6263],[-71.1727,19.6286],[-71.179,19.6073],[-71.1728,19.5709],[-71.1842,19.5365],[-71.2015,19.5421],[-71.2163,19.5322],[-71.2478,19.535],[-71.279,19.5523],[-71.3003,19.5497],[-71.3197,19.5403],[-71.3522,19.5376],[-71.3826,19.5484],[-71.3998,19.5605],[-71.4131,19.5445],[-71.4542,19.5629],[-71.4923,19.5868],[-71.5074,19.6129],[-71.5325,19.6196],[-71.6377,19.6073],[-71.7348,19.6463],[-71.746,19.649]]]}},{"type":"Feature","properties":{"id":"DOM-1981","name":"Monte Plata","nameBn":"মন্টে প্লাটা প্রদেশ","type":"Province","bounds":[-70.2512,18.5718,-69.3809,19.09],"center":[-69.816,18.8533]},"geometry":{"type":"Polygon","coordinates":[[[-70.2512,18.8017],[-70.2444,18.833],[-70.2238,18.8548],[-70.172,18.8652],[-70.1296,18.8749],[-70.1105,18.8911],[-70.0841,18.8972],[-70.0632,18.8932],[-70.0454,18.8905],[-70.0331,18.908],[-70.0131,18.9046],[-69.9806,18.8894],[-69.9525,18.91],[-69.9353,18.975],[-69.9203,19.0393],[-69.8934,19.0383],[-69.8783,19.0573],[-69.877,19.0728],[-69.8749,19.084],[-69.8213,19.09],[-69.7558,19.0876],[-69.7273,19.0669],[-69.6986,19.0465],[-69.6669,19.0295],[-69.6378,19.0089],[-69.5917,18.9697],[-69.5347,18.9424],[-69.4845,18.9187],[-69.4356,18.8933],[-69.3993,18.8888],[-69.3809,18.8711],[-69.3999,18.8586],[-69.4205,18.8466],[-69.4413,18.8259],[-69.4591,18.8026],[-69.5183,18.7434],[-69.5753,18.6482],[-69.6111,18.6612],[-69.6451,18.6543],[-69.6639,18.6427],[-69.6857,18.6382],[-69.7439,18.6177],[-69.79,18.5718],[-69.798,18.6001],[-69.819,18.6194],[-69.8246,18.6393],[-69.8385,18.6567],[-69.8612,18.6811],[-69.8883,18.7013],[-69.9114,18.7025],[-69.9346,18.7034],[-69.9473,18.7028],[-69.9591,18.699],[-69.9637,18.6901],[-69.9663,18.6809],[-70.0088,18.6622],[-70.0561,18.671],[-70.0888,18.6795],[-70.1207,18.6907],[-70.139,18.722],[-70.1672,18.7317],[-70.1913,18.7487],[-70.2172,18.7625],[-70.2346,18.7817],[-70.2512,18.8017]]]}},{"type":"Feature","properties":{"id":"DOM-1973","name":"Pedernales","nameBn":"পেডের্নালিস প্রদেশ","type":"Province","bounds":[-71.7768,17.5456,-71.281,18.293],"center":[-71.5201,17.9396]},"geometry":{"type":"MultiPolygon","coordinates":[[[[-71.7762,18.0393],[-71.7643,18.0695],[-71.7607,18.0868],[-71.7629,18.1158],[-71.7622,18.1325],[-71.7646,18.1437],[-71.7753,18.1723],[-71.7768,18.1818],[-71.774,18.2015],[-71.7661,18.2203],[-71.7217,18.293],[-71.7195,18.2921],[-71.6368,18.2477],[-71.5516,18.2076],[-71.5151,18.1988],[-71.4805,18.1855],[-71.4518,18.1599],[-71.4219,18.1359],[-71.3912,18.119],[-71.3899,18.0782],[-71.389,18.0599],[-71.3909,18.0419],[-71.3964,18.0313],[-71.4064,18.0274],[-71.4168,18.0239],[-71.4237,18.015],[-71.4022,17.9639],[-71.3529,17.9251],[-71.3277,17.9309],[-71.2977,17.9295],[-71.2817,17.8946],[-71.2817,17.8557],[-71.281,17.8532],[-71.281,17.8531],[-71.2821,17.854],[-71.2836,17.8467],[-71.2851,17.8442],[-71.2889,17.841],[-71.2821,17.841],[-71.2861,17.8326],[-71.2913,17.8262],[-71.2977,17.822],[-71.3057,17.8205],[-71.3093,17.8164],[-71.3158,17.7965],[-71.3197,17.7892],[-71.3319,17.7724],[-71.3655,17.6784],[-71.3759,17.6601],[-71.4172,17.6048],[-71.4272,17.6093],[-71.4359,17.6171],[-71.4364,17.6213],[-71.4461,17.6293],[-71.5149,17.7378],[-71.5316,17.7551],[-71.5653,17.7675],[-71.6451,17.7573],[-71.6793,17.7653],[-71.6697,17.7724],[-71.6378,17.804],[-71.6309,17.8168],[-71.6324,17.8383],[-71.6366,17.8535],[-71.652,17.882],[-71.6628,17.8977],[-71.6649,17.9035],[-71.6656,17.9155],[-71.6588,17.9533],[-71.6662,17.9708],[-71.6838,17.9902],[-71.7203,18.0191],[-71.7762,18.0393]]],[[[-71.5245,17.5456],[-71.5412,17.5546],[-71.5414,17.5762],[-71.5322,17.6013],[-71.5211,17.6213],[-71.5069,17.6137],[-71.4926,17.6037],[-71.4671,17.5803],[-71.4825,17.5756],[-71.5074,17.5513],[-71.5245,17.5456]]]]}},{"type":"Feature","properties":{"id":"DOM-1977","name":"Peravia","nameBn":"পেরাভিয়া প্রদেশ","type":"Province","bounds":[-70.5794,18.2041,-70.1804,18.5036],"center":[-70.3799,18.359]},"geometry":{"type":"Polygon","coordinates":[[[-70.1804,18.2341],[-70.2021,18.2335],[-70.2208,18.2305],[-70.2331,18.2239],[-70.2508,18.2343],[-70.2696,18.2381],[-70.3976,18.2376],[-70.4191,18.2311],[-70.4602,18.2089],[-70.4836,18.2041],[-70.5528,18.2042],[-70.5689,18.2104],[-70.5703,18.2189],[-70.5631,18.2257],[-70.5537,18.2315],[-70.5491,18.2376],[-70.5519,18.2484],[-70.5587,18.2544],[-70.5657,18.2582],[-70.5733,18.268],[-70.5794,18.2718],[-70.5237,18.2819],[-70.4874,18.3212],[-70.49,18.3496],[-70.4822,18.3765],[-70.4725,18.3948],[-70.4791,18.4132],[-70.4521,18.4513],[-70.4031,18.4649],[-70.3781,18.4814],[-70.3566,18.5036],[-70.3082,18.4836],[-70.2687,18.4472],[-70.237,18.433],[-70.2389,18.4089],[-70.2648,18.3947],[-70.2697,18.3688],[-70.2513,18.3465],[-70.2313,18.324],[-70.2242,18.3112],[-70.2167,18.2987],[-70.2036,18.2865],[-70.1908,18.2759],[-70.1866,18.2534],[-70.1804,18.2341]]]}},{"type":"Feature","properties":{"id":"DOM-1965","name":"Puerto Plata","nameBn":"পুয়ের্তো প্লাটা প্রদেশ","type":"Province","bounds":[-71.2218,19.5178,-70.3727,19.9377],"center":[-70.7972,19.7427]},"geometry":{"type":"Polygon","coordinates":[[[-71.2218,19.8346],[-71.2121,19.8371],[-71.2093,19.8448],[-71.2088,19.855],[-71.2035,19.8654],[-71.1918,19.8697],[-71.1833,19.8604],[-71.1722,19.8341],[-71.1644,19.8386],[-71.1585,19.8435],[-71.1544,19.8491],[-71.1517,19.8557],[-71.1602,19.8582],[-71.162,19.8594],[-71.1622,19.862],[-71.1654,19.8688],[-71.1497,19.863],[-71.1366,19.8637],[-71.1232,19.8669],[-71.107,19.8688],[-71.0968,19.8762],[-71.0783,19.9091],[-71.0661,19.9166],[-71.0509,19.9202],[-71.0184,19.9355],[-71.0009,19.9377],[-70.9847,19.9337],[-70.9694,19.9252],[-70.961,19.9127],[-70.9662,19.8967],[-70.9469,19.8893],[-70.9394,19.8893],[-70.9444,19.9047],[-70.9469,19.9103],[-70.8985,19.9029],[-70.8843,19.9043],[-70.8547,19.9108],[-70.8433,19.9103],[-70.831,19.9025],[-70.787,19.8529],[-70.7833,19.8433],[-70.7886,19.8341],[-70.751,19.8338],[-70.7366,19.8271],[-70.6985,19.7968],[-70.6622,19.7794],[-70.6237,19.7665],[-70.5791,19.7602],[-70.5187,19.7598],[-70.5137,19.7626],[-70.5085,19.7694],[-70.4964,19.7772],[-70.4828,19.7839],[-70.4727,19.7869],[-70.4337,19.7752],[-70.3727,19.7142],[-70.3835,19.6859],[-70.3982,19.6592],[-70.415,19.6543],[-70.4329,19.6544],[-70.4507,19.6499],[-70.4685,19.6477],[-70.4811,19.6506],[-70.4942,19.6507],[-70.5098,19.6373],[-70.5174,19.6174],[-70.5256,19.5644],[-70.5477,19.5178],[-70.6086,19.5361],[-70.638,19.5811],[-70.6588,19.6287],[-70.7121,19.6511],[-70.7158,19.5924],[-70.7605,19.5904],[-70.7827,19.6091],[-70.8052,19.6273],[-70.833,19.6348],[-70.8641,19.6417],[-70.9062,19.647],[-70.9439,19.665],[-70.9777,19.6905],[-71.0182,19.7026],[-71.0452,19.7093],[-71.0675,19.7253],[-71.0998,19.7402],[-71.134,19.7518],[-71.1639,19.7631],[-71.1951,19.7716],[-71.215,19.8006],[-71.2218,19.8346]]]}},{"type":"Feature","properties":{"id":"DOM-1983","name":"Samaná","nameBn":"সামানা প্রদেশ","type":"Province","bounds":[-69.7928,19.0089,-69.1584,19.3633],"center":[-69.4756,19.2717]},"geometry":{"type":"Polygon","coordinates":[[[-69.7715,19.3033],[-69.7677,19.2997],[-69.7335,19.2866],[-69.7132,19.2897],[-69.6744,19.3039],[-69.6544,19.307],[-69.6094,19.3088],[-69.5894,19.3128],[-69.569,19.3207],[-69.5394,19.3394],[-69.528,19.3418],[-69.5176,19.3397],[-69.4964,19.3298],[-69.4833,19.3276],[-69.4591,19.3333],[-69.4486,19.3344],[-69.4428,19.3342],[-69.4374,19.333],[-69.4334,19.3299],[-69.4318,19.3241],[-69.4286,19.3192],[-69.4217,19.3211],[-69.4107,19.3276],[-69.3527,19.3051],[-69.3356,19.2934],[-69.3243,19.3151],[-69.3059,19.3311],[-69.2605,19.3549],[-69.2313,19.3633],[-69.2244,19.3518],[-69.2321,19.3279],[-69.2468,19.2996],[-69.2269,19.2927],[-69.2043,19.2928],[-69.1824,19.2982],[-69.1643,19.307],[-69.1584,19.2851],[-69.1714,19.2679],[-69.1893,19.2523],[-69.1984,19.2351],[-69.2027,19.2169],[-69.2143,19.2006],[-69.2318,19.1887],[-69.2537,19.1835],[-69.3321,19.1972],[-69.4181,19.191],[-69.4384,19.1965],[-69.4755,19.214],[-69.6029,19.229],[-69.6173,19.2252],[-69.6228,19.2119],[-69.626,19.1643],[-69.6335,19.1237],[-69.6304,19.1085],[-69.6209,19.102],[-69.6216,19.0946],[-69.6186,19.0679],[-69.6245,19.0375],[-69.6378,19.0089],[-69.6669,19.0295],[-69.6986,19.0465],[-69.7273,19.0669],[-69.7558,19.0876],[-69.7361,19.1054],[-69.7325,19.1367],[-69.719,19.1527],[-69.7033,19.1626],[-69.6767,19.1794],[-69.6768,19.2065],[-69.7373,19.2201],[-69.7861,19.1981],[-69.7928,19.2216],[-69.7866,19.2463],[-69.7773,19.2714],[-69.7736,19.2982],[-69.7715,19.3033]]]}},{"type":"Feature","properties":{"id":"DOM-1984","name":"San Cristóbal","nameBn":"সান ক্রিস্তোবাল প্রদেশ","type":"Province","bounds":[-70.3788,18.2314,-70.004,18.8017],"center":[-70.1914,18.5126]},"geometry":{"type":"Polygon","coordinates":[[[-70.004,18.4175],[-70.0166,18.4114],[-70.0389,18.3925],[-70.0558,18.3673],[-70.0624,18.3372],[-70.0677,18.3291],[-70.0907,18.3175],[-70.0959,18.3102],[-70.1,18.2992],[-70.1338,18.2693],[-70.1581,18.2426],[-70.1718,18.2314],[-70.1779,18.2342],[-70.1804,18.2341],[-70.1866,18.2534],[-70.1908,18.2759],[-70.2036,18.2865],[-70.2167,18.2987],[-70.2242,18.3112],[-70.2313,18.324],[-70.2513,18.3465],[-70.2697,18.3688],[-70.2648,18.3947],[-70.2389,18.4089],[-70.237,18.433],[-70.2687,18.4472],[-70.3082,18.4836],[-70.3566,18.5036],[-70.3716,18.5333],[-70.3788,18.5657],[-70.3679,18.601],[-70.3722,18.6363],[-70.3687,18.6795],[-70.35,18.7202],[-70.3131,18.7195],[-70.2996,18.7576],[-70.2854,18.7861],[-70.2512,18.8017],[-70.2346,18.7817],[-70.2172,18.7625],[-70.1913,18.7487],[-70.1672,18.7317],[-70.1664,18.6869],[-70.1393,18.6453],[-70.148,18.6231],[-70.1528,18.5986],[-70.1421,18.5632],[-70.1236,18.5312],[-70.0991,18.5139],[-70.0805,18.4923],[-70.0778,18.4751],[-70.0663,18.4634],[-70.0437,18.464],[-70.0212,18.4632],[-70.0085,18.4454],[-70.0077,18.4238],[-70.004,18.4175]]]}},{"type":"Feature","properties":{"id":"DOM-1978","name":"San José de Ocoa","nameBn":"সান হোসে দে ওকোয়া প্রদেশ","type":"Province","bounds":[-70.7,18.4132,-70.35,18.7879],"center":[-70.525,18.6367]},"geometry":{"type":"Polygon","coordinates":[[[-70.5337,18.7879],[-70.4917,18.7647],[-70.4515,18.7366],[-70.4265,18.7392],[-70.4023,18.7474],[-70.3756,18.7372],[-70.35,18.7202],[-70.3687,18.6795],[-70.3722,18.6363],[-70.3679,18.601],[-70.3788,18.5657],[-70.3716,18.5333],[-70.3566,18.5036],[-70.3781,18.4814],[-70.4031,18.4649],[-70.4521,18.4513],[-70.4791,18.4132],[-70.5011,18.4547],[-70.5219,18.4887],[-70.5541,18.5045],[-70.5874,18.5252],[-70.6106,18.533],[-70.628,18.5489],[-70.6356,18.5638],[-70.6503,18.5724],[-70.6713,18.623],[-70.7,18.6768],[-70.6547,18.6779],[-70.6105,18.6774],[-70.5951,18.6936],[-70.5741,18.712],[-70.548,18.7436],[-70.5337,18.7879]]]}},{"type":"Feature","properties":{"id":"DOM-1393","name":"San Juan","nameBn":"সান হুয়ান প্রদেশ","type":"Province","bounds":[-71.6332,18.5996,-70.8912,19.1911],"center":[-71.2622,18.8948]},"geometry":{"type":"Polygon","coordinates":[[[-71.4058,19.1051],[-71.3678,19.1072],[-71.3363,19.13],[-71.3343,19.1609],[-71.3274,19.1911],[-71.2841,19.1707],[-71.2308,19.1702],[-71.1932,19.1491],[-71.1524,19.1301],[-71.1357,19.1219],[-71.1272,19.1071],[-71.1241,19.0823],[-71.1051,19.0661],[-71.0605,19.0389],[-71.0154,19.0256],[-70.9925,19.0363],[-70.9681,19.0415],[-70.9421,19.0337],[-70.9162,19.0259],[-70.8997,19.0099],[-70.8912,18.9885],[-70.8996,18.967],[-70.9205,18.9572],[-70.9245,18.9378],[-70.9386,18.925],[-70.9631,18.9087],[-70.9753,18.8837],[-70.9819,18.8341],[-70.9825,18.7826],[-70.9903,18.7656],[-71.0039,18.7531],[-71.0185,18.7588],[-71.0269,18.7761],[-71.0594,18.7664],[-71.0531,18.7288],[-71.0543,18.7161],[-71.0647,18.7026],[-71.0581,18.6916],[-71.0558,18.6788],[-71.0747,18.6703],[-71.0911,18.6644],[-71.1174,18.6271],[-71.1613,18.6159],[-71.1977,18.6354],[-71.2452,18.6219],[-71.2726,18.6173],[-71.3002,18.6202],[-71.3233,18.6128],[-71.3449,18.5996],[-71.3935,18.6032],[-71.4385,18.6248],[-71.4879,18.6343],[-71.535,18.6508],[-71.5207,18.6826],[-71.5323,18.711],[-71.5593,18.717],[-71.5779,18.7359],[-71.5778,18.7604],[-71.585,18.7834],[-71.6053,18.8002],[-71.6279,18.8142],[-71.6159,18.8629],[-71.6332,18.8838],[-71.6248,18.9378],[-71.6,18.9878],[-71.578,19.0067],[-71.5497,19.0095],[-71.5188,19.0181],[-71.5031,19.0497],[-71.4914,19.0923],[-71.4711,19.1284],[-71.4372,19.1233],[-71.4058,19.1051]]]}},{"type":"Feature","properties":{"id":"DOM-1396","name":"San Pedro de Macorís","nameBn":"সান পেদ্রো দে মাকোরিস","type":"Province","bounds":[-69.6166,18.3959,-69.0802,18.8026],"center":[-69.3484,18.4796]},"geometry":{"type":"Polygon","coordinates":[[[-69.0854,18.3959],[-69.1044,18.3991],[-69.1482,18.4132],[-69.168,18.4163],[-69.1853,18.4217],[-69.2142,18.4451],[-69.2363,18.4505],[-69.2556,18.4467],[-69.2752,18.4403],[-69.295,18.439],[-69.3151,18.4505],[-69.336,18.4321],[-69.4659,18.4226],[-69.5048,18.4089],[-69.5253,18.4084],[-69.5281,18.4103],[-69.5247,18.4366],[-69.5183,18.4685],[-69.577,18.4798],[-69.6166,18.52],[-69.6005,18.5462],[-69.5799,18.5715],[-69.578,18.5966],[-69.5825,18.6216],[-69.5879,18.6194],[-69.5935,18.6198],[-69.5878,18.6352],[-69.5753,18.6482],[-69.5183,18.7434],[-69.4591,18.8026],[-69.4592,18.7679],[-69.4413,18.7363],[-69.4356,18.6948],[-69.4285,18.6541],[-69.4058,18.6211],[-69.3829,18.5881],[-69.369,18.5547],[-69.3537,18.522],[-69.3253,18.5538],[-69.3039,18.5802],[-69.2877,18.6176],[-69.2536,18.6402],[-69.2405,18.6311],[-69.2268,18.6231],[-69.21,18.6247],[-69.1937,18.6204],[-69.1694,18.595],[-69.1409,18.5751],[-69.1095,18.5794],[-69.0802,18.5765],[-69.0853,18.5534],[-69.0927,18.5273],[-69.1087,18.5021],[-69.1218,18.4756],[-69.115,18.4624],[-69.103,18.4526],[-69.0906,18.4238],[-69.0854,18.3959]]]}},{"type":"Feature","properties":{"id":"DOM-1390","name":"Santiago","nameBn":"সান্তিয়াগো প্রদেশ","type":"Province","bounds":[-71.247,19.0256,-70.5477,19.6511],"center":[-70.8974,19.2636]},"geometry":{"type":"Polygon","coordinates":[[[-70.5477,19.5178],[-70.5519,19.4976],[-70.5669,19.4817],[-70.5805,19.4603],[-70.5863,19.4353],[-70.5834,19.4126],[-70.5837,19.3905],[-70.5991,19.3794],[-70.6139,19.3688],[-70.6667,19.3526],[-70.7169,19.3275],[-70.7416,19.3209],[-70.7488,19.3006],[-70.7246,19.283],[-70.694,19.275],[-70.6783,19.2488],[-70.6855,19.2148],[-70.6825,19.186],[-70.7088,19.1908],[-70.7303,19.1897],[-70.7425,19.1628],[-70.7949,19.1251],[-70.8571,19.0966],[-70.89,19.0831],[-70.9192,19.0694],[-70.9118,19.0481],[-70.9162,19.0259],[-70.9421,19.0337],[-70.9681,19.0415],[-70.9925,19.0363],[-71.0154,19.0256],[-71.0605,19.0389],[-71.1051,19.0661],[-71.1241,19.0823],[-71.1272,19.1071],[-71.1357,19.1219],[-71.1524,19.1301],[-71.1932,19.1491],[-71.2308,19.1702],[-71.2255,19.2016],[-71.2269,19.232],[-71.2435,19.2469],[-71.247,19.2679],[-71.2442,19.2987],[-71.2409,19.329],[-71.2269,19.3472],[-71.2086,19.3615],[-71.1963,19.3751],[-71.1809,19.3848],[-71.1621,19.3829],[-71.1432,19.3839],[-71.107,19.4002],[-71.0687,19.4125],[-71.0773,19.4223],[-71.0905,19.4312],[-71.0883,19.451],[-71.0752,19.4681],[-71.0474,19.4534],[-71.0183,19.4418],[-71.0036,19.4387],[-70.9892,19.4405],[-70.9797,19.4534],[-70.9708,19.4641],[-70.9295,19.4473],[-70.8856,19.4475],[-70.8816,19.4653],[-70.9044,19.4815],[-70.8975,19.5103],[-70.8965,19.5378],[-70.9114,19.5465],[-70.9258,19.5531],[-70.9339,19.5711],[-70.9356,19.5912],[-70.9108,19.5746],[-70.8852,19.5778],[-70.8707,19.6083],[-70.8641,19.6417],[-70.833,19.6348],[-70.8052,19.6273],[-70.7827,19.6091],[-70.7605,19.5904],[-70.7158,19.5924],[-70.7121,19.6511],[-70.6588,19.6287],[-70.638,19.5811],[-70.6086,19.5361],[-70.5477,19.5178]]]}},{"type":"Feature","properties":{"id":"DOM-1391","name":"Santiago Rodríguez","nameBn":"স্যান্তিয়াগো রড্রিগেজ প্রদেশ","type":"Province","bounds":[-71.5151,19.1702,-71.0687,19.5605],"center":[-71.2919,19.3626]},"geometry":{"type":"Polygon","coordinates":[[[-71.3998,19.5605],[-71.3826,19.5484],[-71.3522,19.5376],[-71.3197,19.5403],[-71.3003,19.5497],[-71.279,19.5523],[-71.2478,19.535],[-71.2163,19.5322],[-71.2015,19.5421],[-71.1842,19.5365],[-71.1488,19.4806],[-71.0752,19.4681],[-71.0883,19.451],[-71.0905,19.4312],[-71.0773,19.4223],[-71.0687,19.4125],[-71.107,19.4002],[-71.1432,19.3839],[-71.1621,19.3829],[-71.1809,19.3848],[-71.1963,19.3751],[-71.2086,19.3615],[-71.2269,19.3472],[-71.2409,19.329],[-71.2442,19.2987],[-71.247,19.2679],[-71.2435,19.2469],[-71.2269,19.232],[-71.2255,19.2016],[-71.2308,19.1702],[-71.2841,19.1707],[-71.3274,19.1911],[-71.3713,19.2133],[-71.4159,19.2345],[-71.4468,19.2736],[-71.4883,19.2988],[-71.5051,19.3164],[-71.5151,19.338],[-71.4662,19.3586],[-71.4541,19.4222],[-71.4465,19.4432],[-71.4487,19.4658],[-71.4363,19.5081],[-71.4131,19.5445],[-71.3998,19.5605]]]}},{"type":"Feature","properties":{"id":"DOM-1394","name":"Santo Domingo","nameBn":"সান্তো দোমিঙ্গো প্রদেশ","type":"Province","bounds":[-70.1672,18.4103,-69.5183,18.7317],"center":[-69.8427,18.5664]},"geometry":{"type":"Polygon","coordinates":[[[-69.9809,18.4265],[-69.9935,18.4226],[-70.004,18.4175],[-70.0077,18.4238],[-70.0085,18.4454],[-70.0212,18.4632],[-70.0437,18.464],[-70.0663,18.4634],[-70.0778,18.4751],[-70.0805,18.4923],[-70.0991,18.5139],[-70.1236,18.5312],[-70.1421,18.5632],[-70.1528,18.5986],[-70.148,18.6231],[-70.1393,18.6453],[-70.1664,18.6869],[-70.1672,18.7317],[-70.139,18.722],[-70.1207,18.6907],[-70.0888,18.6795],[-70.0561,18.671],[-70.0088,18.6622],[-69.9663,18.6809],[-69.9637,18.6901],[-69.9591,18.699],[-69.9473,18.7028],[-69.9346,18.7034],[-69.9114,18.7025],[-69.8883,18.7013],[-69.8612,18.6811],[-69.8385,18.6567],[-69.8246,18.6393],[-69.819,18.6194],[-69.798,18.6001],[-69.79,18.5718],[-69.7439,18.6177],[-69.6857,18.6382],[-69.6639,18.6427],[-69.6451,18.6543],[-69.6111,18.6612],[-69.5753,18.6482],[-69.5878,18.6352],[-69.5935,18.6198],[-69.5879,18.6194],[-69.5825,18.6216],[-69.578,18.5966],[-69.5799,18.5715],[-69.6005,18.5462],[-69.6166,18.52],[-69.577,18.4798],[-69.5183,18.4685],[-69.5247,18.4366],[-69.5281,18.4103],[-69.58,18.4445],[-69.6021,18.4557],[-69.6168,18.4573],[-69.6232,18.448],[-69.6226,18.4368],[-69.6208,18.4255],[-69.6236,18.4163],[-69.6326,18.4135],[-69.6466,18.4136],[-69.6595,18.4159],[-69.6652,18.4195],[-69.682,18.4468],[-69.6899,18.4541],[-69.6974,18.4564],[-69.8515,18.4725],[-69.8794,18.4712],[-69.8778,18.501],[-69.9057,18.505],[-69.9245,18.5001],[-69.9435,18.5018],[-69.9558,18.5202],[-69.968,18.5368],[-69.9948,18.5224],[-69.9974,18.4939],[-69.9752,18.4626],[-69.9809,18.4265]]]}},{"type":"Feature","properties":{"id":"DOM-1395","name":"Sánchez Ramírez","nameBn":"সাঞ্চেজ রামিরেজ প্রদেশ","type":"Province","bounds":[-70.3923,18.8548,-69.9078,19.1556],"center":[-70.15,19.0101]},"geometry":{"type":"Polygon","coordinates":[[[-70.2238,18.8548],[-70.2499,18.8976],[-70.2929,18.9267],[-70.3139,18.9413],[-70.3296,18.961],[-70.3327,18.9757],[-70.3418,18.9868],[-70.3671,18.9984],[-70.3718,19.0255],[-70.3809,19.0487],[-70.3923,19.0723],[-70.3641,19.1033],[-70.3244,19.1212],[-70.2999,19.1333],[-70.2776,19.1411],[-70.2796,19.1437],[-70.2814,19.1464],[-70.2819,19.1507],[-70.285,19.1498],[-70.2664,19.1556],[-70.2471,19.1506],[-70.2261,19.1469],[-70.2055,19.1504],[-70.1612,19.1512],[-70.1174,19.1463],[-70.0891,19.1443],[-70.0631,19.1331],[-70.0405,19.1231],[-70.0169,19.1161],[-69.9861,19.1158],[-69.9538,19.1137],[-69.9291,19.1064],[-69.9078,19.0935],[-69.9112,19.0668],[-69.9203,19.0393],[-69.9353,18.975],[-69.9525,18.91],[-69.9806,18.8894],[-70.0131,18.9046],[-70.0331,18.908],[-70.0454,18.8905],[-70.0632,18.8932],[-70.0841,18.8972],[-70.1105,18.8911],[-70.1296,18.8749],[-70.172,18.8652],[-70.2238,18.8548]]]}},{"type":"Feature","properties":{"id":"DOM-1392","name":"Valverde","nameBn":"ভ্যালভার্দে প্রদেশ","type":"Province","bounds":[-71.1842,19.4387,-70.8641,19.7518],"center":[-71.0242,19.5741]},"geometry":{"type":"Polygon","coordinates":[[[-71.1484,19.6263],[-71.1508,19.6594],[-71.1537,19.6925],[-71.145,19.7225],[-71.134,19.7518],[-71.0998,19.7402],[-71.0675,19.7253],[-71.0452,19.7093],[-71.0182,19.7026],[-70.9777,19.6905],[-70.9439,19.665],[-70.9062,19.647],[-70.8641,19.6417],[-70.8707,19.6083],[-70.8852,19.5778],[-70.9108,19.5746],[-70.9356,19.5912],[-70.9339,19.5711],[-70.9258,19.5531],[-70.9114,19.5465],[-70.8965,19.5378],[-70.8975,19.5103],[-70.9044,19.4815],[-70.8816,19.4653],[-70.8856,19.4475],[-70.9295,19.4473],[-70.9708,19.4641],[-70.9797,19.4534],[-70.9892,19.4405],[-71.0036,19.4387],[-71.0183,19.4418],[-71.0474,19.4534],[-71.0752,19.4681],[-71.1488,19.4806],[-71.1842,19.5365],[-71.1728,19.5709],[-71.179,19.6073],[-71.1727,19.6286],[-71.1484,19.6263]]]}}]}