{"type":"FeatureCollection","features":[{"type":"Feature","properties":{"id":"EST-1654","name":"Harju","nameBn":"হার্জু কাউন্টি","type":"County","bounds":[23.7185,58.9847,25.9455,59.6709],"center":[25.1734,59.3206]},"geometry":{"type":"MultiPolygon","coordinates":[[[[23.7185,59.2314],[23.7305,59.2304],[23.7422,59.2394],[23.7429,59.2501],[23.736,59.2596],[23.7236,59.2651],[23.7349,59.2777],[23.7568,59.2836],[23.8454,59.2847],[23.8888,59.2788],[23.9356,59.2806],[23.9876,59.2909],[24.0386,59.2933],[24.0806,59.2713],[24.1001,59.2945],[24.0921,59.3126],[24.0282,59.3577],[24.0194,59.3673],[24.0222,59.3781],[24.0348,59.3887],[24.0482,59.3951],[24.063,59.3974],[24.0806,59.3955],[24.1087,59.3848],[24.1649,59.3541],[24.1939,59.3477],[24.2219,59.3552],[24.2134,59.3723],[24.1873,59.3907],[24.1631,59.4023],[24.1829,59.4088],[24.2713,59.4121],[24.3062,59.4191],[24.3177,59.431],[24.3296,59.4638],[24.3338,59.4706],[24.3997,59.4788],[24.4225,59.4774],[24.4421,59.4699],[24.4783,59.4484],[24.4983,59.4438],[24.5168,59.4482],[24.5324,59.4568],[24.5482,59.463],[24.5671,59.46],[24.6248,59.4389],[24.6426,59.4364],[24.6605,59.4406],[24.6566,59.4499],[24.6404,59.4591],[24.6218,59.4631],[24.6218,59.4706],[24.6481,59.4692],[24.6585,59.4721],[24.6628,59.4811],[24.6663,59.4921],[24.675,59.496],[24.6863,59.4951],[24.6975,59.491],[24.7156,59.4759],[24.7283,59.4586],[24.7444,59.4472],[24.7726,59.4501],[24.7842,59.4548],[24.7901,59.4589],[24.8132,59.484],[24.8158,59.4893],[24.8068,59.5047],[24.8003,59.5106],[24.7914,59.5147],[24.7835,59.5198],[24.7801,59.529],[24.78,59.5384],[24.779,59.5455],[24.7767,59.5522],[24.7726,59.56],[24.8035,59.5705],[24.8416,59.5544],[24.9092,59.5115],[24.9344,59.508],[25.0122,59.5184],[25.0358,59.5152],[25.0772,59.501],[25.0978,59.4979],[25.1165,59.5031],[25.1079,59.529],[25.1221,59.5395],[25.1455,59.5391],[25.1941,59.5226],[25.4077,59.491],[25.4094,59.491],[25.4024,59.5143],[25.4158,59.5271],[25.4401,59.5321],[25.5332,59.532],[25.5437,59.5351],[25.5433,59.5422],[25.5361,59.5493],[25.5257,59.5525],[25.4971,59.5709],[25.4819,59.6112],[25.4785,59.6515],[25.4849,59.6698],[25.5025,59.6623],[25.5353,59.629],[25.5537,59.6214],[25.575,59.6169],[25.5921,59.606],[25.6223,59.5805],[25.6445,59.5718],[25.6768,59.5661],[25.7059,59.5693],[25.7185,59.5876],[25.7108,59.6046],[25.6956,59.6159],[25.6848,59.6286],[25.6907,59.6494],[25.6843,59.6502],[25.6753,59.6541],[25.6707,59.6555],[25.6947,59.6709],[25.7254,59.6658],[25.7805,59.6357],[25.7731,59.6282],[25.7854,59.6155],[25.7937,59.5912],[25.8074,59.5805],[25.8262,59.5753],[25.8369,59.5765],[25.8378,59.5729],[25.8373,59.5491],[25.8324,59.5445],[25.8149,59.5327],[25.8132,59.5269],[25.8151,59.5214],[25.8244,59.5101],[25.8289,59.5059],[25.8412,59.4968],[25.8485,59.4563],[25.851,59.4507],[25.8595,59.4432],[25.8888,59.4315],[25.8919,59.4258],[25.8944,59.4185],[25.8927,59.4114],[25.8964,59.3991],[25.8977,59.3906],[25.9011,59.3807],[25.9073,59.372],[25.9177,59.3611],[25.9242,59.3496],[25.9445,59.2994],[25.9455,59.2938],[25.9441,59.2849],[25.9259,59.2763],[25.8482,59.2898],[25.7987,59.2921],[25.666,59.2727],[25.6646,59.2601],[25.6584,59.2586],[25.6483,59.2578],[25.6326,59.2606],[25.5935,59.2722],[25.5234,59.2679],[25.4894,59.2638],[25.4874,59.2596],[25.4893,59.2536],[25.4997,59.2441],[25.5105,59.2319],[25.5169,59.2116],[25.5128,59.1988],[25.5042,59.1847],[25.4858,59.1672],[25.4585,59.132],[25.4733,59.1056],[25.4776,59.102],[25.4896,59.0958],[25.4897,59.0858],[25.4842,59.0808],[25.4765,59.0753],[25.4652,59.0713],[25.4506,59.0719],[25.4343,59.0748],[25.411,59.075],[25.4014,59.0698],[25.3989,59.061],[25.4025,59.04],[25.3974,59.0159],[25.3205,58.9922],[25.2793,59.0032],[25.247,59.0181],[25.216,59.0287],[25.2025,59.0366],[25.1964,59.044],[25.1947,59.051],[25.1924,59.0567],[25.1908,59.0634],[25.1881,59.0696],[25.1845,59.0808],[25.1676,59.0898],[25.1566,59.0944],[25.1471,59.0945],[25.1413,59.0931],[25.1184,59.0931],[25.0605,59.1097],[25.0461,59.1257],[24.9801,59.1376],[24.9565,59.1465],[24.9516,59.1502],[24.9417,59.1596],[24.9237,59.1753],[24.9053,59.184],[24.8993,59.1924],[24.8979,59.2022],[24.9036,59.2257],[24.8661,59.2266],[24.7979,59.2168],[24.7838,59.2131],[24.7756,59.209],[24.6639,59.2169],[24.6308,59.2049],[24.6169,59.1953],[24.5972,59.1871],[24.5893,59.1814],[24.5736,59.1662],[24.5685,59.1462],[24.555,59.1346],[24.557,59.1292],[24.5635,59.1239],[24.5711,59.1155],[24.5728,59.1103],[24.5658,59.0967],[24.5564,59.0956],[24.4828,59.0993],[24.4302,59.0929],[24.3744,59.0862],[24.3651,59.0805],[24.3114,59.0361],[24.2902,59.0153],[24.2227,59.0184],[24.1906,59.0234],[24.1683,59.0228],[24.1546,59.0193],[24.1475,59.0144],[24.1433,59.0097],[24.1408,59.0048],[24.1326,58.9958],[24.1045,58.9847],[24.093,58.9914],[24.0895,58.9958],[24.0895,59.0007],[24.0926,59.0102],[24.0992,59.0181],[24.1053,59.0239],[24.1446,59.0544],[24.1478,59.0581],[24.1478,59.0611],[24.1435,59.0652],[24.1324,59.071],[24.1222,59.0776],[24.1183,59.0874],[24.1195,59.0946],[24.118,59.102],[24.115,59.1069],[24.0734,59.1263],[24.0218,59.137],[23.9681,59.1347],[23.942,59.1294],[23.9318,59.1283],[23.9082,59.1314],[23.8745,59.1536],[23.8604,59.1599],[23.8384,59.1658],[23.8067,59.1705],[23.796,59.176],[23.7789,59.197],[23.7668,59.2063],[23.7349,59.2164],[23.7189,59.2305],[23.7185,59.2314]]],[[[24.5159,59.5981],[24.5309,59.584],[24.5501,59.5578],[24.5428,59.5478],[24.5163,59.5443],[24.4891,59.5596],[24.4873,59.5785],[24.5005,59.5963],[24.5159,59.5981]]]]}},{"type":"Feature","properties":{"id":"EST-1660","name":"Hiiu","nameBn":"হিউ কাউন্টি","type":"County","bounds":[22.0447,58.687,23.0405,59.0895],"center":[22.5428,58.8594]},"geometry":{"type":"Polygon","coordinates":[[[22.2918,58.8952],[22.2269,58.8865],[22.195,58.888],[22.0625,58.9258],[22.0447,58.9362],[22.0555,58.9527],[22.0942,58.956],[22.1682,58.9504],[22.4631,58.9709],[22.4435,58.9777],[22.4421,58.9847],[22.4546,58.9872],[22.4767,58.9805],[22.4885,58.9811],[22.4876,59.0164],[22.5042,59.0256],[22.5269,59.0264],[22.5444,59.0301],[22.5593,59.0384],[22.5729,59.0528],[22.5764,59.0617],[22.5764,59.0701],[22.5783,59.0784],[22.5872,59.087],[22.5977,59.0895],[22.6405,59.0871],[22.6411,59.087],[22.6667,59.0849],[22.6965,59.0792],[22.7141,59.0696],[22.6916,59.0412],[22.7013,59.025],[22.7205,59.0116],[22.7367,59.0051],[22.8372,59.0086],[22.9341,58.984],[22.9496,58.9709],[22.9526,58.9606],[22.9476,58.9451],[22.9496,58.9362],[22.9585,58.9267],[22.9795,58.9176],[22.9876,58.9119],[22.994,58.9058],[23.0081,58.8974],[23.0151,58.8918],[23.0181,58.8872],[23.0191,58.882],[23.0186,58.8707],[23.0217,58.8641],[23.0285,58.8621],[23.0355,58.862],[23.0391,58.861],[23.0405,58.8408],[23.0335,58.8303],[23.0191,58.8291],[22.9778,58.8442],[22.9673,58.8465],[22.9568,58.8474],[22.9496,58.8439],[22.947,58.8376],[22.9422,58.8342],[22.9292,58.84],[22.9126,58.8356],[22.8955,58.8355],[22.8796,58.8327],[22.8672,58.8201],[22.8766,58.8199],[22.8831,58.8173],[22.887,58.8118],[22.8882,58.803],[22.8867,58.7905],[22.8821,58.788],[22.8743,58.7879],[22.8636,58.7822],[22.8454,58.7765],[22.8167,58.7759],[22.7901,58.781],[22.7783,58.7922],[22.7893,58.8026],[22.8112,58.8109],[22.8269,58.8192],[22.8193,58.8297],[22.8023,58.8304],[22.7776,58.8244],[22.7532,58.8151],[22.7367,58.8065],[22.7152,58.782],[22.681,58.7241],[22.655,58.7028],[22.6112,58.6905],[22.5557,58.687],[22.5017,58.6948],[22.4631,58.7165],[22.4722,58.7199],[22.481,58.7248],[22.4972,58.7375],[22.4834,58.7482],[22.4652,58.7666],[22.4495,58.7868],[22.4426,58.803],[22.4426,58.8272],[22.4398,58.8414],[22.4299,58.8524],[22.3821,58.8823],[22.3547,58.8921],[22.325,58.8966],[22.2918,58.8952]]]}},{"type":"Feature","properties":{"id":"EST-1655","name":"Ida-Viru","nameBn":"ইদা-ভিরু কাউন্টি","type":"County","bounds":[26.703,58.8189,28.1865,59.5025],"center":[27.4446,59.1333]},"geometry":{"type":"Polygon","coordinates":[[[28.0191,59.4818],[28.0386,59.463],[28.0834,59.4509],[28.1048,59.4392],[28.1284,59.4094],[28.1378,59.4004],[28.1496,59.3932],[28.1754,59.3819],[28.1865,59.3749],[28.1818,59.3561],[28.1575,59.364],[28.1136,59.3454],[28.0324,59.342],[28.0006,59.3337],[28.0732,59.319],[28.0969,59.3194],[28.0766,59.3053],[27.9597,59.3065],[27.9039,59.2904],[27.8823,59.2757],[27.8908,59.258],[27.8735,59.2365],[27.8424,59.1612],[27.7843,59.0772],[27.7672,59.0559],[27.7244,59.0144],[27.7133,58.9919],[27.6959,58.9772],[27.6944,58.9759],[27.6053,58.9347],[27.4778,58.8754],[27.4463,58.8189],[27.4457,58.8189],[26.9591,58.8653],[26.9536,58.8658],[26.9249,58.8672],[26.9175,58.869],[26.9103,58.8717],[26.8968,58.8823],[26.8715,58.8901],[26.8467,58.8927],[26.8371,58.8925],[26.824,58.8906],[26.7975,58.8843],[26.7755,58.8842],[26.7665,58.8832],[26.7596,58.8812],[26.7517,58.8816],[26.7458,58.8869],[26.7409,58.9023],[26.7367,58.9238],[26.7311,58.9288],[26.7305,58.934],[26.728,58.9379],[26.728,58.9417],[26.703,58.9559],[26.7389,58.9705],[26.7698,58.9767],[26.7767,58.9805],[26.7805,58.9848],[26.7811,58.9916],[26.7833,58.9988],[26.7888,59.0071],[26.8033,59.0148],[26.8105,59.0201],[26.8107,59.0264],[26.7992,59.0404],[26.7989,59.0968],[26.8015,59.1119],[26.8087,59.1172],[26.8755,59.1385],[26.9288,59.1426],[26.9375,59.145],[26.9413,59.1499],[26.9394,59.1554],[26.9376,59.1588],[26.93,59.1657],[26.9387,59.1947],[26.9333,59.2003],[26.9229,59.2051],[26.8927,59.2064],[26.879,59.2094],[26.8607,59.2197],[26.8542,59.2288],[26.8435,59.2551],[26.7747,59.2434],[26.7679,59.2445],[26.7545,59.2497],[26.7417,59.261],[26.7477,59.2843],[26.7895,59.3277],[26.7989,59.3405],[26.7955,59.3457],[26.7867,59.3477],[26.7454,59.351],[26.7364,59.3502],[26.726,59.3503],[26.7179,59.352],[26.7098,59.3578],[26.7086,59.3606],[26.7112,59.3637],[26.7288,59.37],[26.7449,59.3791],[26.7398,59.3993],[26.7441,59.4032],[26.7502,59.4076],[26.7579,59.4097],[26.7643,59.4099],[26.7719,59.4074],[26.7867,59.3988],[26.7944,59.4046],[26.7895,59.4277],[26.7902,59.4393],[26.7854,59.45],[26.7695,59.4698],[26.7663,59.4756],[26.7657,59.4799],[26.7698,59.4874],[26.7792,59.5008],[26.7809,59.5025],[26.8269,59.477],[26.8757,59.4677],[26.9175,59.4542],[26.9377,59.4501],[27.1162,59.442],[27.2751,59.447],[27.409,59.4519],[27.5632,59.4321],[27.7171,59.4272],[27.8733,59.4076],[27.9147,59.4145],[27.9535,59.4282],[27.9832,59.447],[28.0191,59.4818]]]}},{"type":"Feature","properties":{"id":"EST-1656","name":"Järva","nameBn":"জাভা কাউন্টি","type":"County","bounds":[25.1998,58.6137,26.166,59.2921],"center":[25.6829,58.9729]},"geometry":{"type":"Polygon","coordinates":[[[25.7771,58.6898],[25.7329,58.6798],[25.6593,58.6664],[25.6391,58.6586],[25.6216,58.6537],[25.5569,58.642],[25.5396,58.63],[25.5091,58.6334],[25.4726,58.6187],[25.4378,58.6137],[25.349,58.6151],[25.3287,58.6206],[25.3054,58.6228],[25.2585,58.6333],[25.2756,58.6713],[25.2792,58.6841],[25.2833,58.6901],[25.2891,58.6966],[25.2926,58.7021],[25.2925,58.7077],[25.2833,58.7136],[25.2664,58.7184],[25.2346,58.72],[25.1998,58.7258],[25.2205,58.7529],[25.223,58.7605],[25.2197,58.7736],[25.2032,58.7903],[25.2001,58.7966],[25.2041,58.8019],[25.2177,58.8067],[25.2404,58.8104],[25.2473,58.8144],[25.2531,58.8201],[25.2608,58.8337],[25.27,58.8418],[25.2773,58.8539],[25.2599,58.8668],[25.2442,58.8715],[25.2396,58.8757],[25.238,58.8794],[25.2582,58.9062],[25.275,58.9131],[25.2835,58.9149],[25.2939,58.9186],[25.301,58.9251],[25.3027,58.9357],[25.3027,58.9457],[25.301,58.9563],[25.2942,58.9613],[25.2874,58.965],[25.2854,58.97],[25.2866,58.973],[25.3205,58.9922],[25.3974,59.0159],[25.4025,59.04],[25.3989,59.061],[25.4014,59.0698],[25.411,59.075],[25.4343,59.0748],[25.4506,59.0719],[25.4652,59.0713],[25.4765,59.0753],[25.4842,59.0808],[25.4897,59.0858],[25.4896,59.0958],[25.4776,59.102],[25.4733,59.1056],[25.4585,59.132],[25.4858,59.1672],[25.5042,59.1847],[25.5128,59.1988],[25.5169,59.2116],[25.5105,59.2319],[25.4997,59.2441],[25.4893,59.2536],[25.4874,59.2596],[25.4894,59.2638],[25.5234,59.2679],[25.5935,59.2722],[25.6326,59.2606],[25.6483,59.2578],[25.6584,59.2586],[25.6646,59.2601],[25.666,59.2727],[25.7987,59.2921],[25.8482,59.2898],[25.9259,59.2763],[25.9302,59.2728],[25.9253,59.2652],[25.9186,59.2573],[25.9177,59.2509],[25.9202,59.2479],[25.9251,59.2448],[25.9323,59.2424],[25.9478,59.2259],[25.96,59.2143],[25.9531,59.2033],[25.9568,59.1958],[25.9827,59.1854],[26.0187,59.1787],[26.0114,59.156],[25.9843,59.1358],[25.9717,59.1216],[25.9391,59.1024],[25.9376,59.0837],[25.928,59.0645],[25.9309,59.0588],[25.9396,59.0571],[25.9666,59.0583],[25.9802,59.057],[26.0055,59.0505],[26.0274,59.049],[26.0409,59.0449],[26.0662,59.0176],[26.0865,59.0138],[26.1155,58.9913],[26.1351,58.9813],[26.1476,58.9674],[26.1606,58.9484],[26.1643,58.937],[26.166,58.9277],[26.1649,58.9202],[26.1623,58.912],[26.1564,58.8984],[26.1537,58.8872],[26.1272,58.8759],[26.1219,58.8728],[26.1165,58.8681],[26.1126,58.8616],[26.1114,58.8568],[26.1179,58.8444],[26.1138,58.8353],[26.051,58.8326],[26.0309,58.8318],[26.0212,58.8295],[26.0096,58.8256],[26.0015,58.8206],[25.9768,58.8166],[25.9655,58.8105],[25.9614,58.7995],[25.9611,58.7898],[25.9585,58.7806],[25.9556,58.7735],[25.9273,58.7615],[25.9076,58.7696],[25.8873,58.7674],[25.8567,58.7536],[25.8479,58.7517],[25.8358,58.7473],[25.8279,58.7417],[25.8197,58.7297],[25.812,58.7214],[25.7833,58.705],[25.7771,58.6898]]]}},{"type":"Feature","properties":{"id":"EST-1657","name":"Jõgeva","nameBn":"জোগেভা","type":"County","bounds":[25.7492,58.4847,27.4463,58.9568],"center":[26.5975,58.7313]},"geometry":{"type":"Polygon","coordinates":[[[27.4463,58.8189],[27.4106,58.7549],[27.4288,58.7094],[27.4287,58.7094],[27.1468,58.6835],[27.0909,58.6762],[27.0785,58.6725],[27.0661,58.667],[27.05,58.6578],[27.0377,58.6532],[27.0279,58.6505],[27.0197,58.6503],[27.0137,58.647],[27.0106,58.6401],[27.018,58.6122],[27.0135,58.6024],[26.9896,58.6033],[26.977,58.6067],[26.9389,58.6102],[26.8916,58.6297],[26.8621,58.6331],[26.8416,58.5915],[26.8118,58.5614],[26.7209,58.5499],[26.6859,58.5581],[26.6743,58.5631],[26.6644,58.5625],[26.653,58.5559],[26.6372,58.5332],[26.6254,58.5243],[26.6219,58.5229],[26.6174,58.522],[26.5804,58.5235],[26.5427,58.5306],[26.5083,58.5409],[26.4738,58.5334],[26.4605,58.5284],[26.4555,58.5286],[26.4377,58.537],[26.4121,58.5342],[26.39,58.5208],[26.3795,58.5181],[26.3712,58.5213],[26.3647,58.5286],[26.3568,58.534],[26.3424,58.5354],[26.3235,58.5318],[26.2353,58.4977],[26.2178,58.4934],[26.1971,58.4905],[26.1675,58.4914],[26.1315,58.4847],[26.0643,58.5136],[26.033,58.5342],[26.0288,58.5419],[26.0218,58.5505],[26.0128,58.5568],[25.9813,58.5571],[25.9686,58.5594],[25.9577,58.5663],[25.9504,58.5726],[25.9458,58.5792],[25.9427,58.5863],[25.929,58.5924],[25.9166,58.5965],[25.8283,58.6033],[25.812,58.6021],[25.7904,58.6042],[25.76,58.6039],[25.7507,58.6071],[25.7492,58.6131],[25.7574,58.621],[25.7678,58.6256],[25.786,58.6308],[25.7917,58.6355],[25.7937,58.6437],[25.7872,58.657],[25.7853,58.6824],[25.7771,58.6898],[25.7833,58.705],[25.812,58.7214],[25.8197,58.7297],[25.8279,58.7417],[25.8358,58.7473],[25.8479,58.7517],[25.8567,58.7536],[25.8873,58.7674],[25.9076,58.7696],[25.9273,58.7615],[25.9556,58.7735],[25.9585,58.7806],[25.9611,58.7898],[25.9614,58.7995],[25.9655,58.8105],[25.9768,58.8166],[26.0015,58.8206],[26.0096,58.8256],[26.0212,58.8295],[26.0309,58.8318],[26.051,58.8326],[26.1138,58.8353],[26.1179,58.8444],[26.1114,58.8568],[26.1126,58.8616],[26.1165,58.8681],[26.1219,58.8728],[26.1272,58.8759],[26.1537,58.8872],[26.2353,58.8983],[26.2946,58.9161],[26.3146,58.9185],[26.33,58.916],[26.3565,58.896],[26.4104,58.8855],[26.4518,58.8951],[26.4554,58.9],[26.4566,58.9042],[26.4569,58.9202],[26.505,58.9388],[26.5267,58.9377],[26.5382,58.9329],[26.5584,58.9314],[26.5744,58.9334],[26.6141,58.9443],[26.667,58.9557],[26.6771,58.9568],[26.703,58.9559],[26.728,58.9417],[26.728,58.9379],[26.7305,58.934],[26.7311,58.9288],[26.7367,58.9238],[26.7409,58.9023],[26.7458,58.8869],[26.7517,58.8816],[26.7596,58.8812],[26.7665,58.8832],[26.7755,58.8842],[26.7975,58.8843],[26.824,58.8906],[26.8371,58.8925],[26.8467,58.8927],[26.8715,58.8901],[26.8968,58.8823],[26.9103,58.8717],[26.9175,58.869],[26.9249,58.8672],[26.9536,58.8658],[26.9591,58.8653],[27.4457,58.8189],[27.4463,58.8189]]]}},{"type":"Feature","properties":{"id":"EST-1661","name":"Lääne","nameBn":"লাআন কাউন্টি","type":"County","bounds":[23.1141,58.5442,24.1869,59.2583],"center":[23.2541,59.0075]},"geometry":{"type":"MultiPolygon","coordinates":[[[[23.5858,58.5442],[23.5843,58.5449],[23.5735,58.5519],[23.5663,58.5659],[23.5651,58.5774],[23.5612,58.5832],[23.5462,58.5799],[23.5327,58.5703],[23.5248,58.5596],[23.5164,58.5546],[23.5015,58.5625],[23.4981,58.5722],[23.5044,58.583],[23.5135,58.5938],[23.5182,58.6037],[23.5125,58.6224],[23.501,58.6471],[23.4932,58.6734],[23.4977,58.6966],[23.5065,58.7054],[23.5148,58.7067],[23.5359,58.7028],[23.5432,58.7049],[23.5466,58.7096],[23.5462,58.7143],[23.53,58.7228],[23.5274,58.7362],[23.5331,58.7475],[23.5462,58.7477],[23.5845,58.7379],[23.6218,58.7414],[23.6589,58.7489],[23.697,58.7512],[23.7166,58.747],[23.7552,58.7336],[23.7718,58.7307],[23.8025,58.7307],[23.8054,58.7339],[23.8067,58.741],[23.8049,58.748],[23.7991,58.7512],[23.7834,58.7558],[23.7796,58.7664],[23.7855,58.778],[23.7995,58.7853],[23.8162,58.7846],[23.8552,58.7733],[23.8744,58.7717],[23.8474,58.7882],[23.8157,58.8],[23.7842,58.801],[23.7577,58.7853],[23.7395,58.798],[23.7191,58.7991],[23.6765,58.7922],[23.6034,58.7948],[23.5803,58.7922],[23.5603,58.7858],[23.5501,58.7809],[23.5427,58.7754],[23.5366,58.7745],[23.5049,58.7791],[23.4855,58.7773],[23.4295,58.7648],[23.4666,58.8007],[23.4857,58.8096],[23.5188,58.8126],[23.5261,58.8198],[23.4636,58.8642],[23.4551,58.883],[23.4224,58.9087],[23.422,58.9287],[23.4437,58.944],[23.5101,58.9416],[23.5319,58.9567],[23.5492,58.9508],[23.5669,58.9501],[23.5845,58.9536],[23.6167,58.9677],[23.6248,58.9726],[23.6277,58.9792],[23.6281,58.9914],[23.6216,59.0153],[23.6055,59.0327],[23.5835,59.0447],[23.5598,59.0528],[23.5723,59.0397],[23.6019,59.0245],[23.6144,59.0113],[23.606,59.0085],[23.5876,59.0075],[23.5803,59.0051],[23.5598,58.9914],[23.5584,58.9879],[23.5586,58.982],[23.553,58.9709],[23.5433,58.9699],[23.5371,58.9744],[23.532,58.9805],[23.5256,58.984],[23.4613,58.9924],[23.4348,59.0038],[23.4084,59.0256],[23.4152,59.025],[23.4295,59.0259],[23.4363,59.0256],[23.4292,59.0436],[23.4349,59.0561],[23.4803,59.0836],[23.4907,59.0883],[23.5012,59.0854],[23.5182,59.0733],[23.5194,59.125],[23.4862,59.1741],[23.4709,59.2121],[23.5256,59.2304],[23.5368,59.2297],[23.5578,59.2252],[23.5697,59.2242],[23.5785,59.2263],[23.5928,59.2357],[23.6155,59.2418],[23.6277,59.2501],[23.6419,59.2574],[23.6623,59.2583],[23.7155,59.2317],[23.7185,59.2314],[23.7189,59.2305],[23.7349,59.2164],[23.7668,59.2063],[23.7789,59.197],[23.796,59.176],[23.8067,59.1705],[23.8384,59.1658],[23.8604,59.1599],[23.8745,59.1536],[23.9082,59.1314],[23.9318,59.1283],[23.942,59.1294],[23.9681,59.1347],[24.0218,59.137],[24.0734,59.1263],[24.115,59.1069],[24.118,59.102],[24.1195,59.0946],[24.1183,59.0874],[24.1222,59.0776],[24.1324,59.071],[24.1435,59.0652],[24.1478,59.0611],[24.1478,59.0581],[24.1446,59.0544],[24.1053,59.0239],[24.0992,59.0181],[24.0926,59.0102],[24.0895,59.0007],[24.0895,58.9958],[24.093,58.9914],[24.1045,58.9847],[24.0847,58.9649],[24.0888,58.9503],[24.1274,58.9169],[24.1659,58.8645],[24.177,58.8532],[24.1869,58.8447],[24.1859,58.837],[24.1763,58.8321],[24.1495,58.8255],[24.1424,58.8198],[24.1421,58.8101],[24.1458,58.8031],[24.1607,58.7943],[24.1186,58.7764],[24.1113,58.7697],[24.075,58.7611],[24.0702,58.7511],[24.0758,58.7459],[24.0941,58.7422],[24.1407,58.742],[24.1512,58.7386],[24.1546,58.7336],[24.1518,58.7279],[24.1332,58.7015],[24.0867,58.6885],[24.0604,58.6839],[24.0221,58.671],[24.0055,58.6704],[23.9722,58.6753],[23.9645,58.673],[23.9617,58.6669],[23.9597,58.6576],[23.9537,58.6464],[23.9329,58.6305],[23.916,58.6253],[23.899,58.6252],[23.8725,58.6331],[23.8614,58.6341],[23.8591,58.6303],[23.8614,58.6247],[23.8634,58.6209],[23.8645,58.6172],[23.864,58.6134],[23.8614,58.6074],[23.8612,58.6016],[23.8652,58.5862],[23.8986,58.5662],[23.9018,58.5634],[23.9028,58.5556],[23.8246,58.5592],[23.7476,58.5489],[23.6511,58.5562],[23.6357,58.5555],[23.5867,58.5447],[23.586,58.5443],[23.5858,58.5442]]],[[[23.364,59.029],[23.3897,59.0075],[23.3937,58.9962],[23.3848,58.9805],[23.3743,58.9755],[23.3623,58.9775],[23.3504,58.9819],[23.3401,58.984],[23.3294,58.9818],[23.2991,58.9709],[23.2786,58.9707],[23.2444,58.9813],[23.2234,58.984],[23.2175,58.9819],[23.2151,58.9774],[23.2108,58.973],[23.1742,58.9683],[23.1633,58.9689],[23.1483,58.974],[23.1194,59.0161],[23.1141,59.0218],[23.1189,59.0335],[23.1314,59.0407],[23.1482,59.0444],[23.1702,59.0459],[23.208,59.0441],[23.278,59.0324],[23.322,59.039],[23.3442,59.0393],[23.364,59.029]]]]}},{"type":"Feature","properties":{"id":"EST-1658","name":"Lääne-Viru","nameBn":"লাআনে-ভিরু কাউন্টি","type":"County","bounds":[25.8132,58.8855,26.9413,59.6343],"center":[26.3773,59.229]},"geometry":{"type":"Polygon","coordinates":[[[25.8369,59.5765],[25.8445,59.5773],[25.8613,59.5861],[25.8762,59.6009],[25.8688,59.6077],[25.8831,59.6313],[25.9045,59.624],[25.9269,59.6053],[25.9445,59.5947],[25.965,59.5973],[25.9671,59.6038],[25.9627,59.6125],[25.9644,59.6214],[25.9769,59.6313],[25.9885,59.6343],[26.0018,59.6326],[26.0364,59.6232],[26.0745,59.6043],[26.0784,59.6003],[26.0803,59.5947],[26.0817,59.5873],[26.091,59.5856],[26.28,59.5873],[26.2993,59.5842],[26.3401,59.5705],[26.4017,59.5631],[26.4577,59.5459],[26.4978,59.54],[26.5199,59.5395],[26.5365,59.5427],[26.5703,59.5568],[26.5847,59.56],[26.6263,59.5581],[26.6651,59.5519],[26.7023,59.5414],[26.739,59.5258],[26.7809,59.5025],[26.7792,59.5008],[26.7698,59.4874],[26.7657,59.4799],[26.7663,59.4756],[26.7695,59.4698],[26.7854,59.45],[26.7902,59.4393],[26.7895,59.4277],[26.7944,59.4046],[26.7867,59.3988],[26.7719,59.4074],[26.7643,59.4099],[26.7579,59.4097],[26.7502,59.4076],[26.7441,59.4032],[26.7398,59.3993],[26.7449,59.3791],[26.7288,59.37],[26.7112,59.3637],[26.7086,59.3606],[26.7098,59.3578],[26.7179,59.352],[26.726,59.3503],[26.7364,59.3502],[26.7454,59.351],[26.7867,59.3477],[26.7955,59.3457],[26.7989,59.3405],[26.7895,59.3277],[26.7477,59.2843],[26.7417,59.261],[26.7545,59.2497],[26.7679,59.2445],[26.7747,59.2434],[26.8435,59.2551],[26.8542,59.2288],[26.8607,59.2197],[26.879,59.2094],[26.8927,59.2064],[26.9229,59.2051],[26.9333,59.2003],[26.9387,59.1947],[26.93,59.1657],[26.9376,59.1588],[26.9394,59.1554],[26.9413,59.1499],[26.9375,59.145],[26.9288,59.1426],[26.8755,59.1385],[26.8087,59.1172],[26.8015,59.1119],[26.7989,59.0968],[26.7992,59.0404],[26.8107,59.0264],[26.8105,59.0201],[26.8033,59.0148],[26.7888,59.0071],[26.7833,58.9988],[26.7811,58.9916],[26.7805,58.9848],[26.7767,58.9805],[26.7698,58.9767],[26.7389,58.9705],[26.703,58.9559],[26.6771,58.9568],[26.667,58.9557],[26.6141,58.9443],[26.5744,58.9334],[26.5584,58.9314],[26.5382,58.9329],[26.5267,58.9377],[26.505,58.9388],[26.4569,58.9202],[26.4566,58.9042],[26.4554,58.9],[26.4518,58.8951],[26.4104,58.8855],[26.3565,58.896],[26.33,58.916],[26.3146,58.9185],[26.2946,58.9161],[26.2353,58.8983],[26.1537,58.8872],[26.1564,58.8984],[26.1623,58.912],[26.1649,58.9202],[26.166,58.9277],[26.1643,58.937],[26.1606,58.9484],[26.1476,58.9674],[26.1351,58.9813],[26.1155,58.9913],[26.0865,59.0138],[26.0662,59.0176],[26.0409,59.0449],[26.0274,59.049],[26.0055,59.0505],[25.9802,59.057],[25.9666,59.0583],[25.9396,59.0571],[25.9309,59.0588],[25.928,59.0645],[25.9376,59.0837],[25.9391,59.1024],[25.9717,59.1216],[25.9843,59.1358],[26.0114,59.156],[26.0187,59.1787],[25.9827,59.1854],[25.9568,59.1958],[25.9531,59.2033],[25.96,59.2143],[25.9478,59.2259],[25.9323,59.2424],[25.9251,59.2448],[25.9202,59.2479],[25.9177,59.2509],[25.9186,59.2573],[25.9253,59.2652],[25.9302,59.2728],[25.9259,59.2763],[25.9441,59.2849],[25.9455,59.2938],[25.9445,59.2994],[25.9242,59.3496],[25.9177,59.3611],[25.9073,59.372],[25.9011,59.3807],[25.8977,59.3906],[25.8964,59.3991],[25.8927,59.4114],[25.8944,59.4185],[25.8919,59.4258],[25.8888,59.4315],[25.8595,59.4432],[25.851,59.4507],[25.8485,59.4563],[25.8412,59.4968],[25.8289,59.5059],[25.8244,59.5101],[25.8151,59.5214],[25.8132,59.5269],[25.8149,59.5327],[25.8324,59.5445],[25.8373,59.5491],[25.8378,59.5729],[25.8369,59.5765]]]}},{"type":"Feature","properties":{"id":"EST-2346","name":"Pärnu","nameBn":"পারনু কাউন্টি","type":"County","bounds":[23.5858,57.8586,25.2926,58.7512],"center":[23.9802,58.1294]},"geometry":{"type":"MultiPolygon","coordinates":[[[[25.0349,58.0486],[24.9748,58.0158],[24.9493,58.0064],[24.8725,58.0004],[24.8483,57.9921],[24.8274,57.9819],[24.8168,57.9767],[24.7908,57.979],[24.7647,57.9879],[24.7335,57.9922],[24.7188,57.9818],[24.7004,57.9542],[24.6848,57.9476],[24.6241,57.944],[24.5824,57.946],[24.5539,57.9474],[24.5338,57.9451],[24.4813,57.9193],[24.4416,57.9081],[24.4291,57.9003],[24.4127,57.8766],[24.4015,57.8665],[24.3782,57.8594],[24.3497,57.8586],[24.3062,57.8682],[24.3167,57.8773],[24.3244,57.8868],[24.3279,57.8981],[24.3303,57.9101],[24.3338,57.9213],[24.3811,57.9838],[24.3983,58.0233],[24.4465,58.0545],[24.4641,58.0722],[24.4641,58.1206],[24.4714,58.1425],[24.4729,58.1547],[24.4675,58.1653],[24.4598,58.1745],[24.4551,58.1852],[24.4548,58.1964],[24.4675,58.2178],[24.4681,58.2288],[24.4676,58.2398],[24.471,58.2509],[24.4915,58.2657],[24.5215,58.2761],[24.5485,58.2893],[24.5604,58.3123],[24.551,58.3337],[24.5288,58.3507],[24.4442,58.3861],[24.4032,58.3953],[24.3618,58.3973],[24.327,58.3881],[24.3159,58.38],[24.3045,58.3681],[24.2957,58.355],[24.2922,58.3431],[24.2908,58.3275],[24.2869,58.3185],[24.2559,58.2895],[24.2433,58.2802],[24.2289,58.2741],[24.2108,58.2714],[24.1742,58.2768],[24.156,58.2768],[24.1389,58.268],[24.1209,58.2452],[24.1117,58.241],[24.0941,58.2447],[24.0835,58.2509],[24.0532,58.2783],[24.0071,58.3005],[23.9802,58.3184],[23.9138,58.3333],[23.8737,58.3352],[23.8547,58.3397],[23.8495,58.3428],[23.8384,58.3514],[23.8335,58.3539],[23.8245,58.3546],[23.8184,58.3518],[23.8128,58.3483],[23.8057,58.3465],[23.7966,58.3488],[23.7869,58.3531],[23.7771,58.355],[23.7681,58.3502],[23.7621,58.3444],[23.7556,58.34],[23.7485,58.3391],[23.741,58.3431],[23.7349,58.3514],[23.7293,58.3629],[23.7253,58.3749],[23.7236,58.3847],[23.7189,58.3996],[23.7075,58.4074],[23.6942,58.4132],[23.6834,58.4222],[23.6774,58.4352],[23.6775,58.4455],[23.6834,58.47],[23.6843,58.4997],[23.679,58.5242],[23.6638,58.5362],[23.6349,58.5284],[23.6224,58.5291],[23.6032,58.536],[23.5858,58.5442],[23.586,58.5443],[23.5867,58.5447],[23.6357,58.5555],[23.6511,58.5562],[23.7476,58.5489],[23.8246,58.5592],[23.9028,58.5556],[23.9018,58.5634],[23.8986,58.5662],[23.8652,58.5862],[23.8612,58.6016],[23.8614,58.6074],[23.864,58.6134],[23.8645,58.6172],[23.8634,58.6209],[23.8614,58.6247],[23.8591,58.6303],[23.8614,58.6341],[23.8725,58.6331],[23.899,58.6252],[23.916,58.6253],[23.9329,58.6305],[23.9537,58.6464],[23.9597,58.6576],[23.9617,58.6669],[23.9645,58.673],[23.9722,58.6753],[24.0055,58.6704],[24.0221,58.671],[24.0604,58.6839],[24.0867,58.6885],[24.1332,58.7015],[24.1616,58.6887],[24.285,58.6759],[24.3635,58.6703],[24.4147,58.677],[24.4296,58.6817],[24.4389,58.6865],[24.4431,58.6903],[24.4493,58.7028],[24.4556,58.7095],[24.4615,58.7142],[24.4926,58.7288],[24.525,58.7365],[24.5367,58.736],[24.5517,58.7338],[24.5554,58.7301],[24.5543,58.7238],[24.554,58.7184],[24.5647,58.7114],[24.5784,58.7117],[24.6108,58.7186],[24.6544,58.724],[24.6906,58.7512],[24.7244,58.7503],[24.7865,58.7414],[24.812,58.7435],[24.8371,58.7492],[24.8557,58.75],[24.8801,58.7467],[24.8914,58.7419],[24.8976,58.7358],[24.9004,58.7197],[24.9094,58.6962],[24.9122,58.6817],[24.9162,58.6723],[24.9372,58.6767],[24.9719,58.7011],[24.9878,58.7092],[25.0081,58.717],[25.0236,58.7203],[25.0293,58.7202],[25.0466,58.718],[25.0573,58.7184],[25.061,58.7197],[25.0628,58.7282],[25.1299,58.7202],[25.1611,58.7209],[25.1998,58.7258],[25.2346,58.72],[25.2664,58.7184],[25.2833,58.7136],[25.2925,58.7077],[25.2926,58.7021],[25.2891,58.6966],[25.2833,58.6901],[25.2792,58.6841],[25.2756,58.6713],[25.2585,58.6333],[25.2323,58.6261],[25.225,58.6196],[25.2233,58.6124],[25.2267,58.6053],[25.2314,58.5981],[25.232,58.588],[25.2214,58.5834],[25.182,58.5757],[25.1677,58.5683],[25.1549,58.5571],[25.1416,58.5489],[25.0996,58.5323],[25.0321,58.5157],[24.9947,58.4942],[24.9876,58.4859],[24.9895,58.483],[25.0012,58.47],[25.006,58.4589],[25.0067,58.4349],[24.9776,58.4233],[24.973,58.4111],[24.9766,58.3889],[24.9696,58.3672],[24.955,58.3363],[24.9669,58.3237],[24.9728,58.3209],[24.9904,58.3185],[25.0216,58.3347],[25.0357,58.3339],[25.0414,58.3308],[25.1206,58.3226],[25.135,58.3189],[25.1743,58.3001],[25.2332,58.2798],[25.2452,58.2735],[25.2495,58.2637],[25.2318,58.2527],[25.2315,58.2476],[25.2329,58.2397],[25.234,58.2048],[25.2298,58.2004],[25.2238,58.1998],[25.2183,58.2043],[25.2064,58.2085],[25.1522,58.2018],[25.1437,58.1963],[25.1373,58.1892],[25.139,58.1807],[25.1428,58.1727],[25.1416,58.1643],[25.1373,58.1612],[25.1302,58.1624],[25.1212,58.165],[25.1096,58.1655],[25.0956,58.158],[25.0903,58.152],[25.0908,58.1474],[25.0954,58.1442],[25.1051,58.1402],[25.1091,58.1374],[25.1141,58.1329],[25.1123,58.126],[25.103,58.1242],[25.0887,58.1247],[25.0739,58.1266],[25.0602,58.1254],[25.0543,58.1214],[25.052,58.1158],[25.0467,58.1082],[25.0366,58.1031],[25.0189,58.0972],[25.0115,58.0911],[25.0102,58.0852],[25.0155,58.0803],[25.0192,58.0759],[25.0212,58.0707],[25.0222,58.0649],[25.0239,58.0598],[25.0268,58.0556],[25.0345,58.0489],[25.0349,58.0486]]],[[[23.9434,58.1132],[23.938,58.1373],[23.9553,58.1518],[23.9842,58.1571],[24.0134,58.1535],[24.0221,58.1299],[24.0025,58.1085],[23.9707,58.0996],[23.9434,58.1132]]]]}},{"type":"Feature","properties":{"id":"EST-2347","name":"Põlva","nameBn":"পোল্ভা কাউন্টি","type":"County","bounds":[26.5402,57.8131,27.7993,58.2634],"center":[27.1696,58.0905]},"geometry":{"type":"Polygon","coordinates":[[[27.5196,58.1945],[27.54,58.1718],[27.5797,58.1259],[27.6304,58.0883],[27.6366,58.0592],[27.6301,58.033],[27.6316,58.0042],[27.6506,58.0001],[27.6691,57.992],[27.6752,57.9678],[27.6704,57.955],[27.6632,57.944],[27.6594,57.9325],[27.665,57.9184],[27.6731,57.9128],[27.7744,57.8907],[27.7908,57.8809],[27.7993,57.8611],[27.7868,57.8476],[27.7635,57.8387],[27.7007,57.8248],[27.5563,57.8131],[27.5556,57.8134],[27.5459,57.8179],[27.4493,57.8386],[27.3942,57.8444],[27.3594,57.8398],[27.3214,57.8293],[27.2984,57.8316],[27.2831,57.8452],[27.2764,57.848],[27.2684,57.8479],[27.2598,57.8464],[27.2528,57.8476],[27.2492,57.8531],[27.2557,57.8661],[27.2652,57.876],[27.299,57.8922],[27.2962,57.9066],[27.2809,57.9175],[27.274,57.9183],[27.267,57.9158],[27.2626,57.9125],[27.2567,57.9101],[27.2466,57.91],[27.2314,57.9124],[27.1752,57.9273],[27.1109,57.9517],[27.095,57.9571],[27.0858,57.9574],[27.075,57.9566],[27.0568,57.9526],[27.0422,57.9455],[27.0473,57.9216],[27.0391,57.9179],[26.928,57.9405],[26.9006,57.9349],[26.8765,57.9307],[26.8551,57.934],[26.7669,57.9302],[26.7359,57.9384],[26.6825,57.9446],[26.6593,57.9399],[26.6343,57.9381],[26.6045,57.9402],[26.589,57.9431],[26.5789,57.9475],[26.5402,57.9556],[26.5443,58.0076],[26.5525,58.0201],[26.5559,58.0379],[26.5534,58.0577],[26.555,58.0684],[26.5542,58.0763],[26.5652,58.0976],[26.5717,58.1083],[26.575,58.1119],[26.595,58.1234],[26.6236,58.1305],[26.6302,58.135],[26.6386,58.1436],[26.6397,58.1521],[26.6381,58.1612],[26.636,58.169],[26.6361,58.1745],[26.6408,58.1757],[26.6555,58.1715],[26.6656,58.1723],[26.6753,58.1775],[26.6869,58.1866],[26.6984,58.1901],[26.7067,58.1898],[26.7173,58.1818],[26.7201,58.1779],[26.75,58.1776],[26.8122,58.1887],[26.84,58.2037],[26.8486,58.2203],[26.8641,58.2373],[26.876,58.2424],[26.8865,58.2446],[26.8979,58.2439],[26.9051,58.2414],[26.9505,58.2458],[26.9769,58.2317],[26.9969,58.2328],[27.0002,58.2347],[27.0059,58.2398],[27.0219,58.2591],[27.034,58.2628],[27.0444,58.2615],[27.0726,58.2515],[27.0928,58.25],[27.1054,58.2526],[27.1206,58.2631],[27.1285,58.2634],[27.1328,58.2627],[27.14,58.2575],[27.1553,58.2514],[27.2438,58.2519],[27.2621,58.2415],[27.2664,58.2233],[27.2749,58.2191],[27.2855,58.2164],[27.2964,58.215],[27.3071,58.2147],[27.3161,58.2153],[27.3321,58.218],[27.479,58.1923],[27.5196,58.1945]]]}},{"type":"Feature","properties":{"id":"EST-2348","name":"Rapla","nameBn":"রাপ্লা কাউন্টি","type":"County","bounds":[24.0702,58.6703,25.3205,59.2266],"center":[24.6953,58.9829]},"geometry":{"type":"Polygon","coordinates":[[[24.1332,58.7015],[24.1518,58.7279],[24.1546,58.7336],[24.1512,58.7386],[24.1407,58.742],[24.0941,58.7422],[24.0758,58.7459],[24.0702,58.7511],[24.075,58.7611],[24.1113,58.7697],[24.1186,58.7764],[24.1607,58.7943],[24.1458,58.8031],[24.1421,58.8101],[24.1424,58.8198],[24.1495,58.8255],[24.1763,58.8321],[24.1859,58.837],[24.1869,58.8447],[24.177,58.8532],[24.1659,58.8645],[24.1274,58.9169],[24.0888,58.9503],[24.0847,58.9649],[24.1045,58.9847],[24.1326,58.9958],[24.1408,59.0048],[24.1433,59.0097],[24.1475,59.0144],[24.1546,59.0193],[24.1683,59.0228],[24.1906,59.0234],[24.2227,59.0184],[24.2902,59.0153],[24.3114,59.0361],[24.3651,59.0805],[24.3744,59.0862],[24.4302,59.0929],[24.4828,59.0993],[24.5564,59.0956],[24.5658,59.0967],[24.5728,59.1103],[24.5711,59.1155],[24.5635,59.1239],[24.557,59.1292],[24.555,59.1346],[24.5685,59.1462],[24.5736,59.1662],[24.5893,59.1814],[24.5972,59.1871],[24.6169,59.1953],[24.6308,59.2049],[24.6639,59.2169],[24.7756,59.209],[24.7838,59.2131],[24.7979,59.2168],[24.8661,59.2266],[24.9036,59.2257],[24.8979,59.2022],[24.8993,59.1924],[24.9053,59.184],[24.9237,59.1753],[24.9417,59.1596],[24.9516,59.1502],[24.9565,59.1465],[24.9801,59.1376],[25.0461,59.1257],[25.0605,59.1097],[25.1184,59.0931],[25.1413,59.0931],[25.1471,59.0945],[25.1566,59.0944],[25.1676,59.0898],[25.1845,59.0808],[25.1881,59.0696],[25.1908,59.0634],[25.1924,59.0567],[25.1947,59.051],[25.1964,59.044],[25.2025,59.0366],[25.216,59.0287],[25.247,59.0181],[25.2793,59.0032],[25.3205,58.9922],[25.2866,58.973],[25.2854,58.97],[25.2874,58.965],[25.2942,58.9613],[25.301,58.9563],[25.3027,58.9457],[25.3027,58.9357],[25.301,58.9251],[25.2939,58.9186],[25.2835,58.9149],[25.275,58.9131],[25.2582,58.9062],[25.238,58.8794],[25.2396,58.8757],[25.2442,58.8715],[25.2599,58.8668],[25.2773,58.8539],[25.27,58.8418],[25.2608,58.8337],[25.2531,58.8201],[25.2473,58.8144],[25.2404,58.8104],[25.2177,58.8067],[25.2041,58.8019],[25.2001,58.7966],[25.2032,58.7903],[25.2197,58.7736],[25.223,58.7605],[25.2205,58.7529],[25.1998,58.7258],[25.1611,58.7209],[25.1299,58.7202],[25.0628,58.7282],[25.061,58.7197],[25.0573,58.7184],[25.0466,58.718],[25.0293,58.7202],[25.0236,58.7203],[25.0081,58.717],[24.9878,58.7092],[24.9719,58.7011],[24.9372,58.6767],[24.9162,58.6723],[24.9122,58.6817],[24.9094,58.6962],[24.9004,58.7197],[24.8976,58.7358],[24.8914,58.7419],[24.8801,58.7467],[24.8557,58.75],[24.8371,58.7492],[24.812,58.7435],[24.7865,58.7414],[24.7244,58.7503],[24.6906,58.7512],[24.6544,58.724],[24.6108,58.7186],[24.5784,58.7117],[24.5647,58.7114],[24.554,58.7184],[24.5543,58.7238],[24.5554,58.7301],[24.5517,58.7338],[24.5367,58.736],[24.525,58.7365],[24.4926,58.7288],[24.4615,58.7142],[24.4556,58.7095],[24.4493,58.7028],[24.4431,58.6903],[24.4389,58.6865],[24.4296,58.6817],[24.4147,58.677],[24.3635,58.6703],[24.285,58.6759],[24.1616,58.6887],[24.1332,58.7015]]]}},{"type":"Feature","properties":{"id":"EST-2352","name":"Saare","nameBn":"সারে","type":"Municipality","bounds":[21.8324,57.7844,23.4002,58.6811],"center":[23.2464,57.8027]},"geometry":{"type":"MultiPolygon","coordinates":[[[[23.2306,58.5048],[23.2551,58.5001],[23.2886,58.4882],[23.3184,58.4725],[23.3333,58.4564],[23.325,58.4423],[23.2614,58.4659],[23.2376,58.4564],[23.2503,58.4545],[23.2617,58.4516],[23.2713,58.446],[23.278,58.4365],[23.2349,58.4399],[23.2157,58.4459],[23.1961,58.4564],[23.1922,58.4611],[23.1882,58.4682],[23.1819,58.4747],[23.1719,58.4775],[23.1565,58.4775],[23.1548,58.4755],[23.1489,58.47],[23.147,58.4664],[23.1416,58.4519],[23.138,58.4461],[23.1304,58.4395],[23.1235,58.4357],[23.1087,58.429],[23.1019,58.4296],[23.0925,58.4315],[23.0842,58.4296],[23.0806,58.4185],[23.0811,58.4124],[23.0823,58.406],[23.0842,58.4],[23.0868,58.395],[23.0638,58.3854],[23.0425,58.3715],[23.022,58.3632],[22.9776,58.3817],[22.9548,58.381],[22.9475,58.3726],[22.9695,58.3602],[22.9027,58.3118],[22.887,58.3074],[22.8709,58.3047],[22.854,58.2987],[22.8249,58.2792],[22.8112,58.2734],[22.7886,58.2714],[22.7429,58.2738],[22.7212,58.2703],[22.7101,58.2578],[22.7567,58.2423],[22.7232,58.2254],[22.6692,58.2215],[22.655,58.2447],[22.6398,58.2502],[22.6213,58.2528],[22.6026,58.2521],[22.5862,58.2478],[22.571,58.2394],[22.565,58.2352],[22.5603,58.2373],[22.5491,58.2478],[22.535,58.2541],[22.5261,58.2474],[22.5176,58.2304],[22.5104,58.2272],[22.5072,58.2249],[22.5042,58.2235],[22.4972,58.223],[22.4968,58.2265],[22.4915,58.2415],[22.491,58.2447],[22.4768,58.2451],[22.4593,58.2409],[22.443,58.2341],[22.4324,58.2268],[22.4216,58.2216],[22.41,58.224],[22.3984,58.2277],[22.388,58.2268],[22.3805,58.2235],[22.3615,58.2177],[22.3538,58.2168],[22.3234,58.2066],[22.2951,58.1929],[22.282,58.1826],[22.2748,58.1793],[22.2717,58.1743],[22.2699,58.137],[22.2654,58.1151],[22.2568,58.0932],[22.2293,58.0522],[22.221,58.043],[22.2098,58.0349],[22.1999,58.026],[22.1984,58.0163],[22.203,57.994],[22.19,57.9838],[22.0483,57.9151],[22.0169,57.9145],[21.9901,57.9356],[21.9944,57.9473],[21.9907,57.9582],[21.9808,57.9665],[21.9668,57.9697],[21.9641,57.9714],[21.9627,57.9753],[21.9623,57.98],[21.9634,57.984],[21.9898,57.9827],[21.9976,57.984],[22.0046,57.991],[22.0154,58.012],[22.0213,58.0212],[22.0589,58.0523],[22.0762,58.0734],[22.0857,58.0826],[22.0962,58.0864],[22.1107,58.0841],[22.1235,58.0795],[22.1355,58.0767],[22.1477,58.0796],[22.1532,58.0862],[22.159,58.1071],[22.1651,58.1169],[22.203,58.1479],[22.1803,58.1608],[22.1419,58.1695],[22.0723,58.1758],[22.053,58.1866],[22.0169,58.2339],[21.9938,58.2447],[21.9289,58.2451],[21.8965,58.2507],[21.8678,58.2646],[21.8513,58.2819],[21.8438,58.2936],[21.8433,58.3022],[21.8556,58.3069],[21.9082,58.2987],[21.8967,58.3139],[21.8796,58.3295],[21.8733,58.3416],[21.8945,58.3465],[21.9124,58.3397],[21.9284,58.3268],[21.9446,58.3188],[21.9634,58.3266],[21.9549,58.3441],[21.968,58.3546],[21.9905,58.3579],[22.0112,58.3539],[22.0022,58.3654],[21.9901,58.3869],[21.946,58.4323],[21.9245,58.447],[21.9011,58.4684],[21.8877,58.4775],[21.8594,58.4919],[21.8324,58.511],[21.885,58.4982],[21.9014,58.498],[21.9163,58.5012],[21.9185,58.5047],[21.919,58.51],[21.9285,58.5184],[21.9666,58.5176],[21.9956,58.5125],[22.0208,58.4993],[22.0642,58.4567],[22.0698,58.4465],[22.072,58.4328],[22.0736,58.4269],[22.0778,58.4238],[22.0833,58.4225],[22.0894,58.4222],[22.0985,58.4261],[22.0986,58.4348],[22.0931,58.4495],[22.0988,58.4758],[22.1037,58.4872],[22.1136,58.498],[22.1268,58.5046],[22.1589,58.5136],[22.1719,58.5216],[22.1833,58.5355],[22.1878,58.5429],[22.1946,58.5458],[22.2129,58.5464],[22.2156,58.5442],[22.219,58.539],[22.2222,58.533],[22.2235,58.5284],[22.2249,58.5164],[22.2289,58.5106],[22.2433,58.5048],[22.2732,58.502],[22.2829,58.522],[22.2839,58.5495],[22.2883,58.5693],[22.322,58.5848],[22.4631,58.5929],[22.5503,58.6296],[22.5832,58.6345],[22.5941,58.6291],[22.6126,58.6057],[22.6238,58.6003],[22.6301,58.5982],[22.6408,58.5889],[22.6481,58.5867],[22.6582,58.5889],[22.6758,58.5983],[22.6821,58.6003],[22.7026,58.5971],[22.7192,58.5912],[22.7363,58.5881],[22.758,58.5929],[22.7907,58.6148],[22.8114,58.623],[22.8464,58.6134],[22.8997,58.6203],[22.922,58.6174],[22.944,58.6102],[22.9898,58.6018],[23.0365,58.5842],[23.0911,58.571],[23.1113,58.5557],[23.1258,58.5351],[23.1336,58.529],[23.1483,58.5216],[23.1886,58.5104],[23.2306,58.5048]]],[[[23.3816,58.5799],[23.3971,58.5637],[23.4002,58.5554],[23.3799,58.5476],[23.3716,58.5388],[23.3622,58.5325],[23.3469,58.5355],[23.3309,58.5415],[23.3137,58.5447],[23.2786,58.5464],[23.2647,58.5438],[23.2349,58.5347],[23.2238,58.5355],[23.1346,58.5799],[23.0833,58.5905],[23.0593,58.6035],[23.0628,58.6246],[23.0755,58.6298],[23.1061,58.6242],[23.1209,58.6283],[23.1235,58.6337],[23.1304,58.6545],[23.1346,58.6618],[23.1546,58.6759],[23.1758,58.6811],[23.1978,58.6806],[23.2883,58.6665],[23.3303,58.6531],[23.3438,58.6447],[23.3491,58.6351],[23.3482,58.6252],[23.346,58.6157],[23.3475,58.6072],[23.3556,58.5983],[23.374,58.5864],[23.3816,58.5799]]],[[[23.2605,57.8135],[23.2707,57.8078],[23.2751,57.7987],[23.2702,57.7856],[23.2503,57.7844],[23.2295,57.7917],[23.2178,57.8009],[23.2186,57.8095],[23.2206,57.8177],[23.2243,57.8237],[23.2396,57.8226],[23.2605,57.8135]]]]}},{"type":"Feature","properties":{"id":"EST-1659","name":"Tartu","nameBn":"তার্তু কাউন্টি","type":"County","bounds":[26.0387,58.1206,27.5549,58.7094],"center":[26.7967,58.3727]},"geometry":{"type":"Polygon","coordinates":[[[27.4288,58.7094],[27.4493,58.6585],[27.4989,58.5346],[27.5549,58.3952],[27.4941,58.3195],[27.4828,58.2686],[27.4954,58.2215],[27.5196,58.1945],[27.479,58.1923],[27.3321,58.218],[27.3161,58.2153],[27.3071,58.2147],[27.2964,58.215],[27.2855,58.2164],[27.2749,58.2191],[27.2664,58.2233],[27.2621,58.2415],[27.2438,58.2519],[27.1553,58.2514],[27.14,58.2575],[27.1328,58.2627],[27.1285,58.2634],[27.1206,58.2631],[27.1054,58.2526],[27.0928,58.25],[27.0726,58.2515],[27.0444,58.2615],[27.034,58.2628],[27.0219,58.2591],[27.0059,58.2398],[27.0002,58.2347],[26.9969,58.2328],[26.9769,58.2317],[26.9505,58.2458],[26.9051,58.2414],[26.8979,58.2439],[26.8865,58.2446],[26.876,58.2424],[26.8641,58.2373],[26.8486,58.2203],[26.84,58.2037],[26.8122,58.1887],[26.75,58.1776],[26.7201,58.1779],[26.7173,58.1818],[26.7067,58.1898],[26.6984,58.1901],[26.6869,58.1866],[26.6753,58.1775],[26.6656,58.1723],[26.6555,58.1715],[26.6408,58.1757],[26.6361,58.1745],[26.636,58.169],[26.6381,58.1612],[26.6397,58.1521],[26.6386,58.1436],[26.6302,58.135],[26.6236,58.1305],[26.595,58.1234],[26.5784,58.1405],[26.5691,58.1459],[26.548,58.1538],[26.5385,58.16],[26.5194,58.1676],[26.4623,58.1581],[26.4487,58.154],[26.43,58.1504],[26.4189,58.1493],[26.3992,58.1616],[26.3894,58.1664],[26.3786,58.1754],[26.3663,58.1752],[26.354,58.1705],[26.3143,58.1452],[26.2968,58.1371],[26.2805,58.1344],[26.2578,58.1258],[26.239,58.1206],[26.0715,58.1277],[26.045,58.2237],[26.0387,58.3001],[26.0639,58.3294],[26.0982,58.3617],[26.1654,58.4128],[26.1655,58.4203],[26.1315,58.4847],[26.1675,58.4914],[26.1971,58.4905],[26.2178,58.4934],[26.2353,58.4977],[26.3235,58.5318],[26.3424,58.5354],[26.3568,58.534],[26.3647,58.5286],[26.3712,58.5213],[26.3795,58.5181],[26.39,58.5208],[26.4121,58.5342],[26.4377,58.537],[26.4555,58.5286],[26.4605,58.5284],[26.4738,58.5334],[26.5083,58.5409],[26.5427,58.5306],[26.5804,58.5235],[26.6174,58.522],[26.6219,58.5229],[26.6254,58.5243],[26.6372,58.5332],[26.653,58.5559],[26.6644,58.5625],[26.6743,58.5631],[26.6859,58.5581],[26.7209,58.5499],[26.8118,58.5614],[26.8416,58.5915],[26.8621,58.6331],[26.8916,58.6297],[26.9389,58.6102],[26.977,58.6067],[26.9896,58.6033],[27.0135,58.6024],[27.018,58.6122],[27.0106,58.6401],[27.0137,58.647],[27.0197,58.6503],[27.0279,58.6505],[27.0377,58.6532],[27.05,58.6578],[27.0661,58.667],[27.0785,58.6725],[27.0909,58.6762],[27.1468,58.6835],[27.4287,58.7094],[27.4288,58.7094]]]}},{"type":"Feature","properties":{"id":"EST-2349","name":"Valga","nameBn":"ওয়াগা কাউন্টি","type":"County","bounds":[25.5518,57.5618,26.595,58.1754],"center":[26.0733,57.9402]},"geometry":{"type":"Polygon","coordinates":[[[25.6251,57.9103],[25.6015,57.9122],[25.5794,57.9195],[25.5583,57.9342],[25.5529,57.9422],[25.5521,57.9488],[25.5518,57.9499],[25.571,57.9691],[25.5771,57.979],[25.5844,57.9874],[25.6091,58.0101],[25.6114,58.019],[25.6103,58.0284],[25.6112,58.0364],[25.6207,58.0416],[25.6461,58.0439],[25.6614,58.0424],[25.6783,58.0441],[25.6945,58.0502],[25.7234,58.0681],[25.7603,58.0842],[25.8149,58.0987],[25.8218,58.1039],[25.8255,58.1107],[25.8209,58.116],[25.8201,58.1206],[25.8229,58.1267],[25.83,58.1313],[25.844,58.1376],[25.8463,58.1421],[25.8475,58.1468],[25.8533,58.1512],[25.8655,58.1501],[25.8918,58.1402],[25.9053,58.1293],[25.9178,58.116],[25.9299,58.1089],[25.961,58.1086],[25.9814,58.1142],[26.0715,58.1277],[26.239,58.1206],[26.2578,58.1258],[26.2805,58.1344],[26.2968,58.1371],[26.3143,58.1452],[26.354,58.1705],[26.3663,58.1752],[26.3786,58.1754],[26.3894,58.1664],[26.3992,58.1616],[26.4189,58.1493],[26.43,58.1504],[26.4487,58.154],[26.4623,58.1581],[26.5194,58.1676],[26.5385,58.16],[26.548,58.1538],[26.5691,58.1459],[26.5784,58.1405],[26.595,58.1234],[26.575,58.1119],[26.5717,58.1083],[26.5652,58.0976],[26.5542,58.0763],[26.555,58.0684],[26.5534,58.0577],[26.5559,58.0379],[26.5525,58.0201],[26.5443,58.0076],[26.5402,57.9556],[26.4257,57.9466],[26.3924,57.9403],[26.389,57.9353],[26.388,57.927],[26.3887,57.918],[26.3832,57.9052],[26.3717,57.8949],[26.3649,57.8876],[26.3649,57.8789],[26.3931,57.8752],[26.4028,57.8644],[26.3899,57.8453],[26.3911,57.8406],[26.393,57.8091],[26.4195,57.7968],[26.4475,57.7919],[26.4561,57.7842],[26.4574,57.7768],[26.452,57.7634],[26.4451,57.7574],[26.4353,57.754],[26.4283,57.7498],[26.4283,57.7442],[26.4335,57.7365],[26.4356,57.7264],[26.4433,57.7198],[26.4555,57.7146],[26.4673,57.7084],[26.4687,57.7006],[26.4645,57.6937],[26.4448,57.6838],[26.4256,57.6664],[26.4276,57.6626],[26.44,57.6538],[26.4616,57.6412],[26.4616,57.6358],[26.4582,57.6299],[26.4493,57.625],[26.4311,57.6178],[26.4252,57.6125],[26.426,57.6087],[26.4304,57.6028],[26.4341,57.5985],[26.428,57.5765],[26.4306,57.5621],[26.4307,57.5618],[26.3513,57.5802],[26.3386,57.5832],[26.2972,57.5991],[26.2632,57.6208],[26.1685,57.7041],[26.1352,57.7248],[26.0247,57.7744],[26.0161,57.7867],[26.0131,57.8073],[26.0161,57.8165],[26.0218,57.8224],[26.0253,57.8284],[26.022,57.8379],[26.0145,57.8428],[26.0027,57.846],[25.7926,57.856],[25.7675,57.8689],[25.7547,57.8889],[25.7454,57.9092],[25.7303,57.9231],[25.715,57.9234],[25.7038,57.9213],[25.6501,57.9114],[25.6251,57.9103]]]}},{"type":"Feature","properties":{"id":"EST-2350","name":"Viljandi","nameBn":"ভিলজান্ডি কাউন্টি","type":"County","bounds":[24.955,57.9499,26.1655,58.6898],"center":[25.5603,58.3005]},"geometry":{"type":"Polygon","coordinates":[[[25.3337,58.0318],[25.3246,58.0348],[25.3183,58.0406],[25.3064,58.0587],[25.2996,58.0656],[25.2817,58.0734],[25.2635,58.0751],[25.2507,58.0685],[25.2495,58.0512],[25.2776,58.0241],[25.2844,58.0081],[25.2645,57.9942],[25.2325,57.9854],[25.2168,57.9854],[25.2021,57.992],[25.1899,58.0135],[25.1807,58.0382],[25.167,58.0587],[25.141,58.068],[25.0942,58.0673],[25.0706,58.0636],[25.0488,58.0562],[25.0349,58.0486],[25.0345,58.0489],[25.0268,58.0556],[25.0239,58.0598],[25.0222,58.0649],[25.0212,58.0707],[25.0192,58.0759],[25.0155,58.0803],[25.0102,58.0852],[25.0115,58.0911],[25.0189,58.0972],[25.0366,58.1031],[25.0467,58.1082],[25.052,58.1158],[25.0543,58.1214],[25.0602,58.1254],[25.0739,58.1266],[25.0887,58.1247],[25.103,58.1242],[25.1123,58.126],[25.1141,58.1329],[25.1091,58.1374],[25.1051,58.1402],[25.0954,58.1442],[25.0908,58.1474],[25.0903,58.152],[25.0956,58.158],[25.1096,58.1655],[25.1212,58.165],[25.1302,58.1624],[25.1373,58.1612],[25.1416,58.1643],[25.1428,58.1727],[25.139,58.1807],[25.1373,58.1892],[25.1437,58.1963],[25.1522,58.2018],[25.2064,58.2085],[25.2183,58.2043],[25.2238,58.1998],[25.2298,58.2004],[25.234,58.2048],[25.2329,58.2397],[25.2315,58.2476],[25.2318,58.2527],[25.2495,58.2637],[25.2452,58.2735],[25.2332,58.2798],[25.1743,58.3001],[25.135,58.3189],[25.1206,58.3226],[25.0414,58.3308],[25.0357,58.3339],[25.0216,58.3347],[24.9904,58.3185],[24.9728,58.3209],[24.9669,58.3237],[24.955,58.3363],[24.9696,58.3672],[24.9766,58.3889],[24.973,58.4111],[24.9776,58.4233],[25.0067,58.4349],[25.006,58.4589],[25.0012,58.47],[24.9895,58.483],[24.9876,58.4859],[24.9947,58.4942],[25.0321,58.5157],[25.0996,58.5323],[25.1416,58.5489],[25.1549,58.5571],[25.1677,58.5683],[25.182,58.5757],[25.2214,58.5834],[25.232,58.588],[25.2314,58.5981],[25.2267,58.6053],[25.2233,58.6124],[25.225,58.6196],[25.2323,58.6261],[25.2585,58.6333],[25.3054,58.6228],[25.3287,58.6206],[25.349,58.6151],[25.4378,58.6137],[25.4726,58.6187],[25.5091,58.6334],[25.5396,58.63],[25.5569,58.642],[25.6216,58.6537],[25.6391,58.6586],[25.6593,58.6664],[25.7329,58.6798],[25.7771,58.6898],[25.7853,58.6824],[25.7872,58.657],[25.7937,58.6437],[25.7917,58.6355],[25.786,58.6308],[25.7678,58.6256],[25.7574,58.621],[25.7492,58.6131],[25.7507,58.6071],[25.76,58.6039],[25.7904,58.6042],[25.812,58.6021],[25.8283,58.6033],[25.9166,58.5965],[25.929,58.5924],[25.9427,58.5863],[25.9458,58.5792],[25.9504,58.5726],[25.9577,58.5663],[25.9686,58.5594],[25.9813,58.5571],[26.0128,58.5568],[26.0218,58.5505],[26.0288,58.5419],[26.033,58.5342],[26.0643,58.5136],[26.1315,58.4847],[26.1655,58.4203],[26.1654,58.4128],[26.0982,58.3617],[26.0639,58.3294],[26.0387,58.3001],[26.045,58.2237],[26.0715,58.1277],[25.9814,58.1142],[25.961,58.1086],[25.9299,58.1089],[25.9178,58.116],[25.9053,58.1293],[25.8918,58.1402],[25.8655,58.1501],[25.8533,58.1512],[25.8475,58.1468],[25.8463,58.1421],[25.844,58.1376],[25.83,58.1313],[25.8229,58.1267],[25.8201,58.1206],[25.8209,58.116],[25.8255,58.1107],[25.8218,58.1039],[25.8149,58.0987],[25.7603,58.0842],[25.7234,58.0681],[25.6945,58.0502],[25.6783,58.0441],[25.6614,58.0424],[25.6461,58.0439],[25.6207,58.0416],[25.6112,58.0364],[25.6103,58.0284],[25.6114,58.019],[25.6091,58.0101],[25.5844,57.9874],[25.5771,57.979],[25.571,57.9691],[25.5518,57.9499],[25.5503,57.9553],[25.5417,57.9628],[25.532,57.9664],[25.4966,57.9706],[25.4572,57.9841],[25.4197,58.0082],[25.3966,58.0232],[25.3565,58.0348],[25.3464,58.0344],[25.3399,58.0326],[25.3337,58.0318]]]}},{"type":"Feature","properties":{"id":"EST-2351","name":"Võru","nameBn":"ভোঁরু কাউন্টি","type":"County","bounds":[26.3649,57.5158,27.5563,57.9574],"center":[26.9602,57.7735]},"geometry":{"type":"Polygon","coordinates":[[[26.4995,57.5158],[26.481,57.5271],[26.4476,57.5529],[26.4309,57.5617],[26.4307,57.5618],[26.4306,57.5621],[26.428,57.5765],[26.4341,57.5985],[26.4304,57.6028],[26.426,57.6087],[26.4252,57.6125],[26.4311,57.6178],[26.4493,57.625],[26.4582,57.6299],[26.4616,57.6358],[26.4616,57.6412],[26.44,57.6538],[26.4276,57.6626],[26.4256,57.6664],[26.4448,57.6838],[26.4645,57.6937],[26.4687,57.7006],[26.4673,57.7084],[26.4555,57.7146],[26.4433,57.7198],[26.4356,57.7264],[26.4335,57.7365],[26.4283,57.7442],[26.4283,57.7498],[26.4353,57.754],[26.4451,57.7574],[26.452,57.7634],[26.4574,57.7768],[26.4561,57.7842],[26.4475,57.7919],[26.4195,57.7968],[26.393,57.8091],[26.3911,57.8406],[26.3899,57.8453],[26.4028,57.8644],[26.3931,57.8752],[26.3649,57.8789],[26.3649,57.8876],[26.3717,57.8949],[26.3832,57.9052],[26.3887,57.918],[26.388,57.927],[26.389,57.9353],[26.3924,57.9403],[26.4257,57.9466],[26.5402,57.9556],[26.5789,57.9475],[26.589,57.9431],[26.6045,57.9402],[26.6343,57.9381],[26.6593,57.9399],[26.6825,57.9446],[26.7359,57.9384],[26.7669,57.9302],[26.8551,57.934],[26.8765,57.9307],[26.9006,57.9349],[26.928,57.9405],[27.0391,57.9179],[27.0473,57.9216],[27.0422,57.9455],[27.0568,57.9526],[27.075,57.9566],[27.0858,57.9574],[27.095,57.9571],[27.1109,57.9517],[27.1752,57.9273],[27.2314,57.9124],[27.2466,57.91],[27.2567,57.9101],[27.2626,57.9125],[27.267,57.9158],[27.274,57.9183],[27.2809,57.9175],[27.2962,57.9066],[27.299,57.8922],[27.2652,57.876],[27.2557,57.8661],[27.2492,57.8531],[27.2528,57.8476],[27.2598,57.8464],[27.2684,57.8479],[27.2764,57.848],[27.2831,57.8452],[27.2984,57.8316],[27.3214,57.8293],[27.3594,57.8398],[27.3942,57.8444],[27.4493,57.8386],[27.5459,57.8179],[27.5556,57.8134],[27.5563,57.8131],[27.5376,57.8116],[27.5246,57.8073],[27.5326,57.8051],[27.5539,57.7948],[27.5262,57.7873],[27.5124,57.7813],[27.5024,57.7725],[27.4978,57.7557],[27.5089,57.7275],[27.5078,57.7148],[27.4904,57.7046],[27.4077,57.689],[27.3914,57.6802],[27.3847,57.6744],[27.3797,57.6665],[27.377,57.6567],[27.3779,57.6517],[27.3802,57.6477],[27.3828,57.6345],[27.3851,57.6312],[27.387,57.6276],[27.3849,57.607],[27.3821,57.6027],[27.3748,57.5979],[27.3625,57.5945],[27.3489,57.5941],[27.3366,57.5917],[27.328,57.5832],[27.3285,57.5706],[27.3356,57.5539],[27.345,57.5381],[27.3529,57.5276],[27.32,57.5161],[27.1657,57.5467],[27.0854,57.5494],[27.0615,57.5557],[27.0413,57.5685],[27.0046,57.5989],[26.9811,57.609],[26.9466,57.6153],[26.9292,57.6156],[26.9116,57.6134],[26.8961,57.615],[26.885,57.6221],[26.8727,57.6272],[26.8542,57.6226],[26.8385,57.6099],[26.8283,57.595],[26.8163,57.5812],[26.7958,57.5713],[26.7781,57.5685],[26.7005,57.5708],[26.667,57.5649],[26.6343,57.5544],[26.6048,57.5403],[26.5984,57.5339],[26.5948,57.5265],[26.5901,57.5204],[26.5799,57.5178],[26.5702,57.5196],[26.5517,57.5268],[26.5422,57.5282],[26.5287,57.5239],[26.5151,57.5173],[26.4995,57.5158]]]}}]}