{"type":"FeatureCollection","features":[{"type":"Feature","properties":{"id":"FJI-2617","name":"Central","nameBn":"সেন্ট্রাল ডিভিশন","type":"Division","bounds":[177.7682,-18.4155,178.7114,-17.5503],"center":[178.132,-18.3823]},"geometry":{"type":"MultiPolygon","coordinates":[[[[178.1223,-18.3693],[178.1276,-18.3517],[178.1389,-18.3487],[178.1501,-18.3578],[178.156,-18.3762],[178.1526,-18.3974],[178.1423,-18.4119],[178.127,-18.4155],[178.1087,-18.4035],[178.1182,-18.4015],[178.1218,-18.3992],[178.1209,-18.3957],[178.1162,-18.3898],[178.1204,-18.3849],[178.1214,-18.3805],[178.1216,-18.3754],[178.1223,-18.3693]]],[[[178.4483,-17.5503],[178.4556,-17.5512],[178.4661,-17.551],[178.4788,-17.5532],[178.4963,-17.5651],[178.523,-17.6008],[178.5303,-17.6083],[178.5519,-17.6108],[178.573,-17.6179],[178.5908,-17.631],[178.6023,-17.65],[178.6033,-17.6746],[178.5929,-17.6935],[178.5806,-17.7101],[178.5742,-17.7282],[178.5725,-17.7377],[178.5693,-17.7465],[178.5677,-17.755],[178.5711,-17.7626],[178.5789,-17.7692],[178.5975,-17.7818],[178.6023,-17.7866],[178.603,-17.7984],[178.5996,-17.8093],[178.5989,-17.8194],[178.6084,-17.8281],[178.6206,-17.8235],[178.6272,-17.8268],[178.6263,-17.8341],[178.6159,-17.8411],[178.6279,-17.8458],[178.635,-17.8534],[178.636,-17.8637],[178.6296,-17.8759],[178.6258,-17.8736],[178.6159,-17.8691],[178.6179,-17.8738],[178.6227,-17.8902],[178.5911,-17.8976],[178.5949,-17.926],[178.6131,-17.957],[178.6261,-17.9714],[178.6458,-17.9732],[178.6543,-17.9784],[178.6597,-17.987],[178.6704,-17.9988],[178.6742,-18.0043],[178.6746,-18.0087],[178.677,-18.0114],[178.6877,-18.0124],[178.6939,-18.0099],[178.6992,-18.0038],[178.7033,-17.997],[178.7053,-17.992],[178.7114,-17.992],[178.709,-17.9992],[178.7007,-18.0129],[178.6984,-18.0193],[178.6979,-18.0338],[178.6984,-18.0431],[178.6945,-18.0569],[178.6846,-18.0704],[178.6731,-18.0815],[178.6636,-18.0881],[178.613,-18.1124],[178.5886,-18.136],[178.5886,-18.1155],[178.5597,-18.127],[178.5476,-18.1291],[178.5593,-18.1127],[178.5606,-18.1087],[178.555,-18.0992],[178.5508,-18.0978],[178.5457,-18.0973],[178.537,-18.0912],[178.5271,-18.09],[178.4984,-18.1044],[178.4856,-18.1087],[178.4878,-18.1291],[178.4702,-18.1419],[178.4484,-18.1476],[178.4378,-18.1466],[178.4388,-18.1316],[178.44,-18.1261],[178.4382,-18.123],[178.4216,-18.108],[178.4131,-18.1034],[178.4031,-18.1013],[178.3899,-18.1018],[178.3926,-18.1062],[178.3934,-18.1066],[178.3962,-18.1087],[178.3913,-18.1181],[178.3858,-18.1238],[178.3784,-18.1272],[178.3689,-18.1291],[178.3694,-18.1266],[178.3661,-18.122],[178.3608,-18.1174],[178.3552,-18.1155],[178.3484,-18.1169],[178.3364,-18.1213],[178.3309,-18.1222],[178.3229,-18.1256],[178.3169,-18.1329],[178.3093,-18.1402],[178.2969,-18.1435],[178.2842,-18.1441],[178.277,-18.1463],[178.2718,-18.1503],[178.2659,-18.1564],[178.2619,-18.1628],[178.2566,-18.1777],[178.2522,-18.1838],[178.2435,-18.1887],[178.2229,-18.1961],[178.2142,-18.2011],[178.1854,-18.2338],[178.1683,-18.2485],[178.1498,-18.2527],[178.1414,-18.2527],[178.1355,-18.2595],[178.113,-18.2394],[178.0389,-18.2649],[178.0064,-18.2595],[177.9915,-18.2589],[177.9852,-18.2574],[177.9784,-18.2527],[177.9719,-18.2587],[177.9598,-18.2657],[177.9458,-18.2687],[177.9341,-18.2629],[177.9211,-18.2607],[177.9061,-18.2693],[177.8941,-18.2731],[177.889,-18.256],[177.8858,-18.2516],[177.8784,-18.2537],[177.8705,-18.2586],[177.8654,-18.2629],[177.8594,-18.2658],[177.8537,-18.2631],[177.8345,-18.2467],[177.8314,-18.2399],[177.8272,-18.2345],[177.7834,-18.2232],[177.7913,-18.2102],[177.7946,-18.1974],[177.7973,-18.1702],[177.7995,-18.1633],[177.8032,-18.1555],[177.8261,-18.123],[177.8265,-18.1167],[177.8239,-18.1127],[177.8186,-18.1109],[177.7951,-18.1101],[177.7877,-18.1092],[177.7824,-18.107],[177.7787,-18.1028],[177.7756,-18.0955],[177.7694,-18.0755],[177.7682,-18.066],[177.7692,-18.0577],[177.7733,-18.0503],[177.7874,-18.031],[177.7923,-18.0218],[177.7994,-18.0019],[177.8056,-17.9926],[177.8152,-17.9854],[177.8334,-17.9801],[177.8459,-17.9796],[177.858,-17.981],[177.9353,-18.0005],[177.9451,-18.0008],[177.9572,-17.9994],[177.9805,-17.9939],[177.9893,-17.9897],[177.9974,-17.983],[178.0076,-17.9533],[178.0074,-17.9464],[178.0042,-17.9395],[177.9983,-17.9335],[177.9919,-17.9284],[177.9865,-17.9225],[177.9859,-17.9144],[177.9879,-17.9061],[177.993,-17.8927],[177.9906,-17.8841],[177.9836,-17.8764],[177.9762,-17.8702],[177.9713,-17.8629],[177.9706,-17.8563],[177.9728,-17.8488],[177.9768,-17.8414],[177.9817,-17.8341],[177.9848,-17.8267],[177.9868,-17.8142],[177.9909,-17.8078],[178.0371,-17.7591],[178.0588,-17.7419],[178.0786,-17.732],[178.0916,-17.7201],[178.0981,-17.7107],[178.0997,-17.7017],[178.0986,-17.6938],[178.0953,-17.6892],[178.0894,-17.6869],[178.0817,-17.6882],[178.0727,-17.6924],[178.0633,-17.6984],[178.0542,-17.7062],[178.0245,-17.738],[178.0199,-17.7418],[178.0148,-17.7442],[178.0112,-17.7447],[178.0081,-17.7433],[178.0062,-17.7402],[178.0051,-17.7348],[178.0068,-17.679],[178.0091,-17.6689],[178.0143,-17.6594],[178.0285,-17.6387],[178.0326,-17.6294],[178.034,-17.62],[178.0329,-17.6107],[178.0261,-17.5915],[178.0239,-17.5809],[178.0257,-17.5727],[178.0309,-17.5676],[178.0416,-17.5709],[178.0506,-17.5785],[178.0721,-17.602],[178.0979,-17.6423],[178.1055,-17.6505],[178.1142,-17.658],[178.124,-17.6639],[178.1392,-17.6682],[178.1573,-17.6699],[178.2131,-17.6682],[178.2452,-17.6608],[178.2613,-17.6555],[178.2717,-17.6475],[178.2747,-17.6424],[178.2758,-17.6381],[178.2761,-17.6348],[178.2772,-17.6292],[178.2792,-17.6254],[178.2826,-17.6222],[178.2902,-17.623],[178.2975,-17.6264],[178.3223,-17.6435],[178.3316,-17.6466],[178.3417,-17.6478],[178.3606,-17.6472],[178.369,-17.6484],[178.3766,-17.651],[178.3852,-17.6554],[178.4073,-17.6641],[178.4185,-17.6657],[178.4269,-17.6642],[178.4333,-17.6571],[178.4376,-17.647],[178.4468,-17.6018],[178.4486,-17.5577],[178.4483,-17.5503]]]]}},{"type":"Feature","properties":{"id":"FJI-2618","name":"Eastern","nameBn":"ইস্টার্ন ডিভিশন","type":"Division","bounds":[-179.8719,-20.6718,179.9524,-17.1491],"center":[-178.72,-20.6657]},"geometry":{"type":"MultiPolygon","coordinates":[[[[-178.5886,-19.1228],[-178.582,-19.1373],[-178.5664,-19.1511],[-178.548,-19.1593],[-178.5333,-19.157],[-178.537,-19.1772],[-178.5559,-19.175],[-178.5917,-19.157],[-178.6003,-19.1477],[-178.5971,-19.1285],[-178.5817,-19.1115],[-178.5538,-19.1091],[-178.5597,-19.1188],[-178.5664,-19.1209],[-178.5754,-19.1205],[-178.5886,-19.1228]]],[[[-178.9722,-18.9651],[-178.9691,-18.9426],[-178.9579,-18.9279],[-178.9436,-18.9264],[-178.9312,-18.9441],[-178.931,-18.9714],[-178.9444,-18.9872],[-178.9615,-18.9867],[-178.9722,-18.9651]]],[[[-179.8631,-18.9658],[-179.8629,-18.9651],[-179.8497,-18.9234],[-179.8127,-18.9273],[-179.7872,-18.9553],[-179.8082,-18.9864],[-179.8168,-18.9522],[-179.8378,-18.9488],[-179.8552,-18.9631],[-179.8529,-18.9826],[-179.8443,-19.0021],[-179.8583,-19.006],[-179.8719,-18.9937],[-179.8631,-18.9658]]],[[[-178.7667,-18.1913],[-178.7491,-18.2032],[-178.7457,-18.2216],[-178.7518,-18.2385],[-178.7633,-18.2459],[-178.7974,-18.2459],[-178.8066,-18.2437],[-178.8142,-18.2389],[-178.8203,-18.2343],[-178.8248,-18.2321],[-178.8454,-18.2174],[-178.8249,-18.1891],[-178.7898,-18.1721],[-178.7667,-18.1912],[-178.7667,-18.1913]]],[[[-179.0503,-17.956],[-179.0318,-17.9663],[-179.028,-17.9899],[-179.0279,-18.003],[-179.0462,-18.0075],[-179.0591,-18.0007],[-179.0693,-17.9893],[-179.0787,-17.9666],[-179.0595,-17.9525],[-179.0503,-17.956]]],[[[-178.2932,-17.8827],[-178.2811,-17.8888],[-178.2629,-17.9013],[-178.2464,-17.9176],[-178.2391,-17.9343],[-178.2486,-17.9526],[-178.2712,-17.9617],[-178.2983,-17.9633],[-178.321,-17.9584],[-178.3523,-17.9457],[-178.3578,-17.9143],[-178.3379,-17.886],[-178.2932,-17.8827]]],[[[-178.9647,-17.1769],[-178.9329,-17.1915],[-178.9173,-17.2013],[-178.9107,-17.2145],[-178.926,-17.2472],[-178.9275,-17.2527],[-178.9463,-17.2592],[-178.9659,-17.2751],[-178.9809,-17.295],[-178.9858,-17.3136],[-179.0007,-17.3025],[-178.9977,-17.2831],[-178.9853,-17.2638],[-178.9722,-17.2527],[-178.9758,-17.2398],[-178.9707,-17.2338],[-178.9628,-17.2302],[-178.9585,-17.2248],[-178.9583,-17.2114],[-178.9603,-17.2055],[-178.9722,-17.1974],[-178.982,-17.1926],[-179.0038,-17.1887],[-179.0131,-17.1839],[-179.0171,-17.1765],[-179.0185,-17.1569],[-179.02,-17.1491],[-179.0061,-17.1547],[-178.9969,-17.1661],[-178.9854,-17.1759],[-178.9647,-17.1769]]],[[[179.7775,-19.1228],[179.7886,-19.1305],[179.7941,-19.148],[179.7975,-19.1684],[179.802,-19.1843],[179.7721,-19.1913],[179.7604,-19.1923],[179.7459,-19.1901],[179.7419,-19.1862],[179.74,-19.1774],[179.7472,-19.1739],[179.749,-19.1733],[179.7495,-19.1715],[179.7529,-19.1638],[179.758,-19.1657],[179.7692,-19.1686],[179.7741,-19.1707],[179.7678,-19.1554],[179.7578,-19.1399],[179.7566,-19.1277],[179.7775,-19.1228]]],[[[178.4303,-18.9553],[178.4382,-18.9547],[178.4746,-18.9606],[178.4856,-18.9651],[178.4932,-18.9782],[178.4984,-18.9968],[178.4966,-19.0133],[178.4756,-19.0232],[178.4609,-19.0326],[178.4539,-19.0268],[178.4439,-19.0239],[178.4241,-19.0204],[178.4286,-19.0294],[178.429,-19.0368],[178.4251,-19.0431],[178.4167,-19.0478],[178.405,-19.0445],[178.3826,-19.0429],[178.3584,-19.0437],[178.3415,-19.0478],[178.3439,-19.0411],[178.3464,-19.0273],[178.3483,-19.0204],[178.3394,-19.0246],[178.3329,-19.0256],[178.3272,-19.0242],[178.3205,-19.0204],[178.3252,-19.0159],[178.3301,-19.0095],[178.334,-19.0068],[178.3073,-18.9972],[178.2815,-19.0074],[178.2385,-19.0409],[178.223,-19.0449],[178.2073,-19.0451],[178.1951,-19.0475],[178.1901,-19.0577],[178.1904,-19.0787],[178.1887,-19.0836],[178.1838,-19.0689],[178.1743,-19.0759],[178.1709,-19.0872],[178.1731,-19.0978],[178.1802,-19.1023],[178.195,-19.1056],[178.1995,-19.114],[178.1975,-19.1393],[178.1947,-19.1466],[178.1878,-19.1533],[178.179,-19.1575],[178.1702,-19.157],[178.1616,-19.1506],[178.1602,-19.1419],[178.1629,-19.116],[178.1482,-19.1275],[178.1429,-19.1297],[178.1287,-19.1297],[178.1192,-19.1396],[178.1138,-19.1484],[178.1066,-19.1546],[178.0916,-19.157],[178.076,-19.1547],[178.0501,-19.145],[178.0371,-19.1428],[178.0154,-19.1559],[178.0037,-19.1575],[177.9989,-19.1428],[177.992,-19.1428],[177.9841,-19.1471],[177.974,-19.1448],[177.9627,-19.1381],[177.9512,-19.1297],[177.9815,-19.1013],[177.9995,-19.0948],[178.0194,-19.1023],[178.0298,-19.0938],[178.0335,-19.072],[178.0412,-19.0615],[178.0518,-19.0567],[178.0632,-19.0564],[178.1195,-19.0704],[178.1287,-19.0689],[178.1349,-19.0615],[178.1365,-19.0517],[178.1394,-19.0419],[178.1498,-19.0341],[178.1633,-19.044],[178.1721,-19.0353],[178.1764,-19.0173],[178.1764,-18.9993],[178.1907,-18.9772],[178.2261,-18.9641],[178.2659,-18.9621],[178.2937,-18.9726],[178.3019,-18.944],[178.3088,-18.9395],[178.3241,-18.9386],[178.3286,-18.9363],[178.3322,-18.9317],[178.3368,-18.927],[178.345,-18.9249],[178.355,-18.9267],[178.3635,-18.9298],[178.3719,-18.9304],[178.3826,-18.9249],[178.3898,-18.9382],[178.4227,-18.9397],[178.4303,-18.9553]]],[[[178.5265,-18.8766],[178.5348,-18.8845],[178.5383,-18.8923],[178.5376,-18.9005],[178.5339,-18.9106],[178.5205,-18.9062],[178.5137,-18.9159],[178.5083,-18.9264],[178.4993,-18.9249],[178.4719,-18.9072],[178.4741,-18.8953],[178.4834,-18.8803],[178.4856,-18.8731],[178.4959,-18.863],[178.5164,-18.8574],[178.5316,-18.8604],[178.5265,-18.8766]]],[[[179.9434,-18.5563],[179.9481,-18.5635],[179.9524,-18.5685],[179.9447,-18.5806],[179.9208,-18.586],[179.9098,-18.5959],[179.8918,-18.6096],[179.8988,-18.6175],[179.9128,-18.6115],[179.9174,-18.6115],[179.921,-18.6226],[179.9019,-18.6381],[179.9008,-18.6586],[179.8828,-18.6625],[179.8722,-18.6459],[179.8716,-18.6288],[179.8605,-18.621],[179.8529,-18.611],[179.8331,-18.6002],[179.8307,-18.5893],[179.8504,-18.5809],[179.8882,-18.5669],[179.9277,-18.558],[179.9434,-18.5563]]],[[[179.3455,-17.9988],[179.3608,-18.026],[179.363,-18.0798],[179.3503,-18.1188],[179.321,-18.1018],[179.3109,-18.0898],[179.3032,-18.0622],[179.2974,-18.0504],[179.2783,-18.0276],[179.2717,-18.0157],[179.2669,-17.9988],[179.263,-18.0095],[179.2658,-18.0299],[179.2629,-18.0367],[179.2541,-18.0392],[179.2495,-18.0322],[179.2454,-18.0036],[179.2464,-17.9749],[179.2444,-17.9701],[179.2351,-17.9547],[179.2328,-17.9448],[179.2434,-17.9509],[179.2503,-17.9513],[179.2721,-17.9345],[179.2775,-17.934],[179.2839,-17.9363],[179.2974,-17.9379],[179.3125,-17.9474],[179.3368,-17.9894],[179.3455,-17.9988]]],[[[179.4308,-17.794],[179.4308,-17.7985],[179.4295,-17.8014],[179.4241,-17.8071],[179.4273,-17.8137],[179.4305,-17.8229],[179.4323,-17.8328],[179.4308,-17.8411],[179.4226,-17.8505],[179.4168,-17.8455],[179.4104,-17.8281],[179.4027,-17.8186],[179.395,-17.8064],[179.3918,-17.7931],[179.3967,-17.7804],[179.4137,-17.789],[179.4308,-17.794]]],[[[178.7258,-17.7247],[178.7419,-17.7496],[178.7627,-17.762],[178.7796,-17.766],[178.7771,-17.7732],[178.7756,-17.7765],[178.7727,-17.7804],[178.7659,-17.7729],[178.7591,-17.7775],[178.7526,-17.7761],[178.7478,-17.77],[178.7347,-17.7676],[178.7195,-17.7298],[178.7132,-17.711],[178.7258,-17.7247]]],[[[178.7764,-17.6288],[178.7826,-17.6229],[178.7979,-17.6186],[178.8168,-17.629],[178.8257,-17.6521],[178.8302,-17.6658],[178.832,-17.6794],[178.8355,-17.6932],[178.8328,-17.7077],[178.8292,-17.7189],[178.8229,-17.7291],[178.7977,-17.736],[178.7851,-17.7402],[178.7681,-17.7472],[178.7582,-17.7299],[178.7526,-17.713],[178.7394,-17.6733],[178.7511,-17.6434],[178.7764,-17.6288]]],[[[179.0054,-17.6214],[178.9974,-17.608],[178.9985,-17.5971],[179.0068,-17.5932],[179.0197,-17.6008],[179.0261,-17.6106],[179.0381,-17.642],[179.0408,-17.6562],[179.0334,-17.6562],[179.029,-17.6443],[179.0232,-17.6354],[179.0156,-17.6282],[179.0054,-17.6214]]],[[[179.4519,-17.2903],[179.4499,-17.3161],[179.4434,-17.3386],[179.4329,-17.3583],[179.4178,-17.3757],[179.3909,-17.3963],[179.3835,-17.3906],[179.3835,-17.3312],[179.3814,-17.3152],[179.3763,-17.3006],[179.3688,-17.2868],[179.3721,-17.2734],[179.3713,-17.2599],[179.3787,-17.2494],[179.4197,-17.2437],[179.4292,-17.2411],[179.4378,-17.2418],[179.4483,-17.2491],[179.4481,-17.2551],[179.4519,-17.2903]]],[[[-178.7191,-20.671],[-178.7272,-20.6647],[-178.731,-20.6576],[-178.7303,-20.6501],[-178.725,-20.6423],[-178.7242,-20.651],[-178.7208,-20.6593],[-178.7153,-20.6662],[-178.7081,-20.6713],[-178.711,-20.6718],[-178.7191,-20.671]]],[[[-178.2268,-19.84],[-178.2305,-19.8352],[-178.229,-19.829],[-178.2236,-19.8222],[-178.2161,-19.8152],[-178.2176,-19.8219],[-178.22,-19.8279],[-178.2268,-19.84]]],[[[-178.4198,-19.1674],[-178.4011,-19.1335],[-178.3929,-19.1275],[-178.3893,-19.1464],[-178.392,-19.1658],[-178.3996,-19.171],[-178.4094,-19.1718],[-178.4188,-19.1786],[-178.4217,-19.1762],[-178.422,-19.1738],[-178.4198,-19.1674]]],[[[-178.8996,-18.8771],[-178.9072,-18.8815],[-178.9149,-18.884],[-178.9226,-18.8844],[-178.9306,-18.8821],[-178.9195,-18.8727],[-178.9073,-18.864],[-178.894,-18.8576],[-178.8799,-18.8543],[-178.8839,-18.8608],[-178.8885,-18.8668],[-178.8938,-18.8722],[-178.8996,-18.8771]]],[[[-178.5072,-18.6652],[-178.5163,-18.65],[-178.5111,-18.638],[-178.4992,-18.6337],[-178.488,-18.6414],[-178.4861,-18.6518],[-178.4903,-18.6607],[-178.4981,-18.6659],[-178.5072,-18.6652]]],[[[-179.3226,-17.7702],[-179.3361,-17.7585],[-179.3342,-17.74],[-179.3203,-17.7249],[-179.2981,-17.7232],[-179.2797,-17.7394],[-179.2808,-17.7602],[-179.2965,-17.7742],[-179.3226,-17.7702]]],[[[-179.1566,-17.4714],[-179.1728,-17.4579],[-179.1755,-17.4397],[-179.166,-17.4256],[-179.1456,-17.4242],[-179.1347,-17.4353],[-179.1308,-17.4537],[-179.1371,-17.4689],[-179.1566,-17.4714]]],[[[-179.1573,-17.2727],[-179.1567,-17.2541],[-179.1465,-17.248],[-179.1344,-17.2521],[-179.1279,-17.2649],[-179.1308,-17.277],[-179.1393,-17.2833],[-179.1495,-17.2822],[-179.1573,-17.2727]]]]}},{"type":"Feature","properties":{"id":"FJI-2619","name":"Northern","nameBn":"নর্দান ডিভিশন","type":"Division","bounds":[-180,-17.007,180,-16.1213],"center":[178.308,-16.8107]},"geometry":{"type":"MultiPolygon","coordinates":[[[[178.334,-16.7934],[178.3301,-16.8141],[178.3356,-16.8251],[178.3337,-16.8289],[178.3074,-16.8276],[178.2902,-16.8344],[178.283,-16.8224],[178.28,-16.7867],[178.2863,-16.7867],[178.2947,-16.7921],[178.3064,-16.7939],[178.334,-16.7934]]],[[[-180,-16.7867],[-179.9899,-16.7712],[-179.9159,-16.6945],[-179.8977,-16.6835],[-179.8771,-16.6778],[-179.8641,-16.6813],[-179.8557,-16.693],[-179.8465,-16.7213],[-179.8429,-16.7382],[-179.8424,-16.7487],[-179.83,-16.7561],[-179.8209,-16.7634],[-179.8157,-16.7722],[-179.821,-16.78],[-179.8566,-16.8139],[-179.8665,-16.8316],[-179.8693,-16.8406],[-179.8716,-16.8639],[-179.8753,-16.8655],[-179.8815,-16.8645],[-179.8901,-16.8679],[-179.9512,-16.9059],[-179.9829,-16.9324],[-180,-16.9641],[-180,-16.7867]]],[[[179.9175,-16.6555],[179.8833,-16.6555],[179.9001,-16.6502],[179.9072,-16.6495],[179.9109,-16.6463],[179.9102,-16.6321],[179.9141,-16.629],[179.9233,-16.6282],[179.9346,-16.6251],[179.945,-16.6187],[179.9517,-16.6078],[179.9526,-16.6284],[179.9474,-16.6445],[179.9358,-16.6541],[179.9175,-16.6555]]],[[[178.5882,-16.573],[178.5967,-16.5784],[178.6052,-16.58],[178.6138,-16.5781],[178.6226,-16.573],[178.6157,-16.5838],[178.6061,-16.5917],[178.5925,-16.5956],[178.574,-16.5942],[178.5667,-16.5925],[178.5636,-16.5909],[178.5604,-16.5873],[178.5882,-16.573]]],[[[-180,-16.4899],[-179.9914,-16.4758],[-179.9647,-16.4575],[-179.9591,-16.4469],[-179.951,-16.443],[-179.9118,-16.4316],[-179.8977,-16.4298],[-179.8977,-16.4365],[-179.9071,-16.4382],[-179.9112,-16.4412],[-179.91,-16.4451],[-179.9038,-16.4503],[-179.9038,-16.4577],[-179.9099,-16.4596],[-179.9143,-16.4616],[-179.9196,-16.4631],[-179.9283,-16.4638],[-179.9333,-16.468],[-179.9374,-16.4775],[-179.937,-16.4869],[-179.9283,-16.4911],[-179.922,-16.4975],[-179.9348,-16.5108],[-179.952,-16.523],[-180,-16.5411],[-180,-16.4899]]],[[[179.3623,-16.3266],[179.3766,-16.3289],[179.3897,-16.3336],[179.3775,-16.339],[179.3612,-16.3408],[179.3438,-16.339],[179.3281,-16.3336],[179.3281,-16.3266],[179.3623,-16.3266]]],[[[-180,-16.1491],[-179.9875,-16.1381],[-179.973,-16.131],[-179.9386,-16.1213],[-179.9485,-16.1422],[-179.9618,-16.1547],[-179.9789,-16.1628],[-180,-16.1696],[-180,-16.1491]]],[[[180,-16.9628],[179.999,-16.9646],[179.9922,-16.975],[179.9812,-16.9843],[179.9668,-16.9933],[179.9539,-16.9988],[179.9411,-17.0019],[179.9287,-17.0021],[179.9175,-16.9988],[179.9124,-16.983],[179.8942,-16.9675],[179.8901,-16.9539],[179.8953,-16.9391],[179.9072,-16.927],[179.9312,-16.9094],[179.9673,-16.8583],[179.973,-16.8448],[179.9776,-16.8282],[179.9992,-16.7868],[180,-16.7853],[180,-16.9628]]],[[[180,-16.5413],[179.9992,-16.5415],[179.9925,-16.5431],[179.9875,-16.5424],[179.9845,-16.5383],[179.9844,-16.5302],[179.9872,-16.5183],[179.9991,-16.4913],[180,-16.4895],[180,-16.5166],[180,-16.5413]]],[[[180,-16.169],[179.999,-16.1699],[179.938,-16.2243],[179.9299,-16.2271],[179.9121,-16.228],[179.9038,-16.2311],[179.8957,-16.2387],[179.8865,-16.2545],[179.8796,-16.2621],[179.8654,-16.2745],[179.8582,-16.2826],[179.8591,-16.2863],[179.8512,-16.2909],[179.8381,-16.3141],[179.7981,-16.3696],[179.7809,-16.3813],[179.781,-16.403],[179.7634,-16.4328],[179.7385,-16.4592],[179.7158,-16.4706],[179.6939,-16.4773],[179.5979,-16.5398],[179.5918,-16.5453],[179.5877,-16.5529],[179.5823,-16.567],[179.5807,-16.5793],[179.5811,-16.595],[179.5791,-16.6114],[179.5715,-16.6256],[179.5601,-16.6345],[179.5344,-16.6505],[179.5236,-16.6589],[179.5187,-16.6651],[179.5066,-16.6835],[179.5007,-16.6872],[179.4842,-16.6931],[179.4787,-16.6972],[179.4888,-16.7076],[179.4922,-16.725],[179.4888,-16.7438],[179.4787,-16.7587],[179.4861,-16.766],[179.502,-16.7547],[179.5203,-16.7496],[179.5371,-16.7526],[179.5481,-16.766],[179.5625,-16.7548],[179.5852,-16.7294],[179.5994,-16.7245],[179.6095,-16.7228],[179.6221,-16.7179],[179.6326,-16.7102],[179.637,-16.7006],[179.6409,-16.6873],[179.6506,-16.6822],[179.6619,-16.6803],[179.6711,-16.6769],[179.6727,-16.6729],[179.6761,-16.6594],[179.6779,-16.6555],[179.6821,-16.6541],[179.6945,-16.6515],[179.6984,-16.6495],[179.7058,-16.6381],[179.7162,-16.6135],[179.7227,-16.6044],[179.7321,-16.5992],[179.742,-16.5964],[179.7498,-16.5925],[179.7529,-16.5839],[179.7567,-16.5768],[179.7654,-16.572],[179.7809,-16.567],[179.8141,-16.5463],[179.8333,-16.5304],[179.8418,-16.5151],[179.8511,-16.5086],[179.9038,-16.4843],[179.9089,-16.4788],[179.9126,-16.4723],[179.9172,-16.4669],[179.9243,-16.4638],[179.9395,-16.4633],[179.9424,-16.4675],[179.9424,-16.4758],[179.9535,-16.4996],[179.9491,-16.509],[179.9417,-16.5165],[179.9362,-16.5247],[179.9243,-16.5532],[179.8901,-16.6147],[179.8894,-16.6194],[179.8911,-16.6313],[179.8901,-16.6358],[179.8862,-16.6368],[179.8737,-16.6349],[179.8696,-16.6358],[179.8486,-16.6624],[179.875,-16.6643],[179.8919,-16.676],[179.9011,-16.6948],[179.9038,-16.7177],[179.9175,-16.7166],[179.9356,-16.7204],[179.9497,-16.7301],[179.9517,-16.7457],[179.9419,-16.7526],[179.9265,-16.7496],[179.8963,-16.7382],[179.8999,-16.7442],[179.9071,-16.76],[179.9107,-16.766],[179.8958,-16.7618],[179.8901,-16.7587],[179.8757,-16.7695],[179.8636,-16.7648],[179.8579,-16.7519],[179.8622,-16.7382],[179.8263,-16.7371],[179.812,-16.7312],[179.802,-16.7177],[179.7808,-16.725],[179.7593,-16.7237],[179.7402,-16.7193],[179.7263,-16.7177],[179.7165,-16.7219],[179.6999,-16.7353],[179.6883,-16.7382],[179.676,-16.7385],[179.6663,-16.7407],[179.6598,-16.7468],[179.6567,-16.7587],[179.6519,-16.7493],[179.6506,-16.7457],[179.6438,-16.7457],[179.6333,-16.7659],[179.5969,-16.7888],[179.5823,-16.8071],[179.5651,-16.7917],[179.5449,-16.7908],[179.5032,-16.8002],[179.4714,-16.8012],[179.4539,-16.8051],[179.4382,-16.8139],[179.4038,-16.8023],[179.3757,-16.801],[179.2969,-16.8068],[179.2979,-16.8045],[179.308,-16.7975],[179.3142,-16.7833],[179.3234,-16.7712],[179.3415,-16.7651],[179.3547,-16.7585],[179.3489,-16.7457],[179.3514,-16.7314],[179.3396,-16.7244],[179.308,-16.7177],[179.283,-16.6989],[179.2664,-16.6899],[179.259,-16.6938],[179.2482,-16.6941],[179.172,-16.7226],[179.1528,-16.7345],[179.1229,-16.7587],[179.1294,-16.7758],[179.1234,-16.7896],[179.1102,-16.8],[179.0957,-16.8071],[179.0654,-16.7989],[179.0444,-16.8238],[179.0199,-16.8952],[179.0454,-16.8801],[179.0567,-16.878],[179.0752,-16.8815],[179.0656,-16.8935],[179.0373,-16.9127],[179.0269,-16.9231],[179.0199,-16.9231],[179.0068,-16.9177],[178.9675,-16.9063],[178.9544,-16.899],[178.9502,-16.8907],[178.9489,-16.883],[178.9453,-16.8775],[178.926,-16.8731],[178.9203,-16.867],[178.9172,-16.8583],[178.917,-16.8481],[178.91,-16.8481],[178.91,-16.8679],[178.8945,-16.8593],[178.8838,-16.8577],[178.874,-16.8611],[178.8617,-16.8679],[178.8213,-16.9026],[178.8171,-16.912],[178.8071,-16.9505],[178.7995,-16.9572],[178.7902,-16.962],[178.7878,-16.9679],[178.801,-16.9777],[178.7655,-17.0012],[178.7627,-17.0051],[178.7339,-17.007],[178.7209,-17.0055],[178.7053,-16.9988],[178.6919,-16.9858],[178.6807,-16.9583],[178.6732,-16.926],[178.6704,-16.899],[178.6604,-16.8795],[178.6406,-16.8605],[178.6275,-16.8377],[178.6364,-16.8071],[178.615,-16.7997],[178.6062,-16.7929],[178.6023,-16.7797],[178.5407,-16.8092],[178.5116,-16.8142],[178.4856,-16.7934],[178.4902,-16.7912],[178.4904,-16.7902],[178.4924,-16.7867],[178.4812,-16.7773],[178.479,-16.7659],[178.4836,-16.7599],[178.4924,-16.766],[178.4993,-16.766],[178.4966,-16.7472],[178.5065,-16.7304],[178.5402,-16.704],[178.5402,-16.7245],[178.5485,-16.7162],[178.5525,-16.7048],[178.5571,-16.6983],[178.568,-16.704],[178.5729,-16.6889],[178.5856,-16.6651],[178.5886,-16.6495],[178.5671,-16.6601],[178.5527,-16.6589],[178.5428,-16.6479],[178.5339,-16.629],[178.5718,-16.6155],[178.5818,-16.6147],[178.5892,-16.6194],[178.6008,-16.6355],[178.6084,-16.642],[178.6188,-16.6452],[178.6501,-16.6495],[178.6809,-16.6681],[178.6911,-16.6699],[178.7043,-16.6671],[178.709,-16.663],[178.7114,-16.6573],[178.7176,-16.6495],[178.7733,-16.6033],[178.7883,-16.5969],[178.7977,-16.6066],[178.801,-16.6358],[178.814,-16.63],[178.8174,-16.6227],[178.814,-16.5976],[178.8184,-16.5868],[178.8486,-16.5463],[178.8504,-16.5514],[178.8547,-16.5603],[178.8555,-16.567],[178.8635,-16.5622],[178.8679,-16.5571],[178.8696,-16.5501],[178.8692,-16.5396],[178.876,-16.5396],[178.8862,-16.5523],[178.8976,-16.5431],[178.9094,-16.5265],[178.9204,-16.5178],[178.9309,-16.5126],[178.9279,-16.4999],[178.9204,-16.4845],[178.917,-16.4706],[178.9212,-16.4728],[178.9329,-16.4762],[178.9373,-16.4781],[178.9427,-16.4604],[178.9522,-16.4596],[178.9611,-16.4664],[178.9651,-16.4706],[178.9802,-16.4682],[179.0078,-16.4596],[179.0542,-16.454],[179.1066,-16.4361],[179.1367,-16.4298],[179.1675,-16.4313],[179.1776,-16.4298],[179.1802,-16.4264],[179.1878,-16.4122],[179.1913,-16.408],[179.199,-16.4054],[179.2163,-16.4024],[179.2223,-16.399],[179.2404,-16.3981],[179.2698,-16.4057],[179.2983,-16.4091],[179.3142,-16.3956],[179.3293,-16.408],[179.3382,-16.404],[179.3462,-16.3938],[179.3587,-16.3881],[179.3657,-16.3913],[179.3721,-16.4049],[179.3796,-16.408],[179.388,-16.4072],[179.3924,-16.406],[179.3965,-16.4057],[179.4036,-16.408],[179.402,-16.393],[179.3958,-16.3788],[179.3865,-16.3674],[179.3761,-16.3608],[179.3865,-16.3513],[179.3977,-16.3478],[179.4085,-16.3491],[179.4178,-16.3539],[179.4226,-16.3368],[179.4314,-16.319],[179.4432,-16.3102],[179.4582,-16.3199],[179.4651,-16.3027],[179.4668,-16.2869],[179.4712,-16.274],[179.4861,-16.2652],[179.5217,-16.268],[179.5357,-16.2625],[179.5203,-16.2448],[179.5335,-16.2449],[179.5425,-16.2507],[179.549,-16.2605],[179.5544,-16.2726],[179.5632,-16.2374],[179.568,-16.2243],[179.5729,-16.2364],[179.5819,-16.242],[179.5929,-16.2457],[179.6028,-16.2521],[179.6115,-16.2433],[179.6189,-16.2426],[179.6248,-16.2483],[179.6301,-16.259],[179.6301,-16.2434],[179.634,-16.2379],[179.6401,-16.2376],[179.6471,-16.2385],[179.6533,-16.2353],[179.656,-16.228],[179.6565,-16.2206],[179.6564,-16.2175],[179.6633,-16.2182],[179.6675,-16.2206],[179.6707,-16.2231],[179.6745,-16.2243],[179.6935,-16.2258],[179.7018,-16.2231],[179.7053,-16.214],[179.7103,-16.2078],[179.7347,-16.1979],[179.7644,-16.1814],[179.7707,-16.1965],[179.7727,-16.2194],[179.7809,-16.2311],[179.793,-16.2265],[179.8145,-16.2077],[179.8288,-16.2044],[179.8396,-16.2077],[179.8413,-16.2135],[179.8366,-16.2195],[179.8288,-16.2243],[179.8396,-16.2281],[179.8508,-16.228],[179.856,-16.2311],[179.8682,-16.216],[179.9033,-16.1887],[179.9107,-16.1799],[179.9832,-16.1491],[179.9988,-16.1491],[180,-16.1491],[180,-16.169]]]]}},{"type":"Feature","properties":{"id":"FJI-2658","name":"Rotuma","nameBn":"রোতূমা","type":"Division","bounds":[177.0059,-12.5169,177.1291,-12.4753],"center":[177.067,-12.4964]},"geometry":{"type":"Polygon","coordinates":[[[177.1248,-12.4861],[177.1291,-12.5016],[177.1136,-12.5114],[177.0911,-12.5164],[177.0734,-12.5169],[177.0596,-12.512],[177.0436,-12.5085],[177.0271,-12.5073],[177.0115,-12.5095],[177.0066,-12.4947],[177.0059,-12.4895],[177.0208,-12.4936],[177.033,-12.4914],[177.0597,-12.4753],[177.0752,-12.4806],[177.1112,-12.4806],[177.1248,-12.4861]]]}},{"type":"Feature","properties":{"id":"FJI-2620","name":"Western","nameBn":"ওয়েস্টার্ন ডিভিশন","type":"Division","bounds":[174.5889,-21.7111,178.4486,-16.6769],"center":[174.61,-21.6878]},"geometry":{"type":"MultiPolygon","coordinates":[[[[177.6488,-18.4929],[177.6541,-18.5041],[177.6559,-18.517],[177.6563,-18.5407],[177.6631,-18.5885],[177.6488,-18.5793],[177.6365,-18.5628],[177.627,-18.5437],[177.6216,-18.527],[177.619,-18.5119],[177.6208,-18.5041],[177.6351,-18.486],[177.6384,-18.4897],[177.6418,-18.491],[177.645,-18.4916],[177.6488,-18.4929]]],[[[177.7834,-18.2232],[177.6986,-18.2013],[177.673,-18.198],[177.645,-18.1911],[177.5916,-18.1667],[177.5676,-18.1701],[177.5369,-18.1568],[177.5249,-18.1554],[177.4745,-18.1578],[177.4651,-18.1564],[177.4543,-18.152],[177.4476,-18.1461],[177.4426,-18.1402],[177.4372,-18.136],[177.3667,-18.1191],[177.3359,-18.1056],[177.3136,-18.0739],[177.3068,-18.0813],[177.3023,-18.0709],[177.3016,-18.051],[177.3001,-18.0397],[177.2966,-18.0343],[177.2918,-18.0295],[177.2876,-18.0221],[177.2858,-18.009],[177.2811,-18.0037],[177.2629,-17.9938],[177.2625,-17.9885],[177.2664,-17.9794],[177.2621,-17.9714],[177.2551,-17.9628],[177.2516,-17.9522],[177.2546,-17.9446],[177.2679,-17.9272],[177.2721,-17.9169],[177.2715,-17.9042],[177.2668,-17.8964],[177.2616,-17.8893],[177.259,-17.8793],[177.2656,-17.8596],[177.2821,-17.8517],[177.3273,-17.8486],[177.3542,-17.8386],[177.3615,-17.8349],[177.3714,-17.8234],[177.3729,-17.8152],[177.3706,-17.8078],[177.3689,-17.7975],[177.3689,-17.7626],[177.3703,-17.7497],[177.3743,-17.7475],[177.3809,-17.7502],[177.416,-17.7599],[177.4235,-17.7592],[177.4343,-17.7502],[177.4353,-17.7433],[177.432,-17.7365],[177.4297,-17.7282],[177.4287,-17.7171],[177.4245,-17.6975],[177.4235,-17.6876],[177.4206,-17.6783],[177.4133,-17.6741],[177.404,-17.6706],[177.3957,-17.663],[177.3889,-17.6406],[177.4021,-17.6305],[177.4204,-17.6223],[177.4297,-17.6047],[177.4343,-17.5979],[177.4566,-17.5927],[177.4651,-17.588],[177.469,-17.5763],[177.4671,-17.5654],[177.4675,-17.5554],[177.4782,-17.5463],[177.4896,-17.5589],[177.4995,-17.5558],[177.5039,-17.5445],[177.4993,-17.5326],[177.5064,-17.5178],[177.5151,-17.5051],[177.5244,-17.5007],[177.5334,-17.5121],[177.5396,-17.5121],[177.5813,-17.4781],[177.6221,-17.4547],[177.625,-17.4508],[177.6282,-17.4485],[177.6289,-17.4439],[177.6311,-17.4392],[177.6389,-17.4371],[177.6454,-17.4382],[177.6526,-17.4405],[177.6563,-17.4428],[177.6526,-17.4439],[177.6468,-17.4518],[177.6501,-17.4694],[177.6572,-17.488],[177.6631,-17.4985],[177.6693,-17.4924],[177.6631,-17.4797],[177.6592,-17.468],[177.6589,-17.4566],[177.6631,-17.4439],[177.6706,-17.4384],[177.7041,-17.4203],[177.7101,-17.4179],[177.7488,-17.4303],[177.7539,-17.4249],[177.7562,-17.4133],[177.7609,-17.4015],[177.7655,-17.3967],[177.7736,-17.3928],[177.7803,-17.3883],[177.7873,-17.3845],[177.8076,-17.381],[177.8115,-17.3762],[177.8141,-17.3713],[177.8254,-17.3666],[177.8299,-17.364],[177.8333,-17.3665],[177.8345,-17.3793],[177.8337,-17.3902],[177.8311,-17.3998],[177.8267,-17.4088],[177.8202,-17.4172],[177.8363,-17.4213],[177.8499,-17.4132],[177.8623,-17.4001],[177.876,-17.3893],[177.8973,-17.4029],[177.9266,-17.4059],[177.9562,-17.4025],[177.9784,-17.3967],[178.0072,-17.3835],[178.0194,-17.3752],[178.03,-17.3654],[178.0422,-17.3569],[178.0659,-17.3559],[178.0814,-17.3483],[178.1138,-17.3532],[178.1511,-17.3469],[178.1808,-17.3293],[178.1901,-17.3006],[178.2117,-17.3077],[178.2391,-17.3201],[178.2627,-17.3356],[178.2727,-17.3517],[178.2756,-17.3637],[178.2865,-17.3837],[178.2863,-17.3967],[178.2796,-17.4074],[178.2544,-17.4318],[178.2454,-17.4439],[178.256,-17.4496],[178.2581,-17.4575],[178.2538,-17.4655],[178.2454,-17.4713],[178.2586,-17.4689],[178.286,-17.4381],[178.3037,-17.4303],[178.3275,-17.4328],[178.3483,-17.4401],[178.3646,-17.4529],[178.3757,-17.4713],[178.3772,-17.4797],[178.3743,-17.4914],[178.3757,-17.4985],[178.3794,-17.5003],[178.3975,-17.5153],[178.3999,-17.519],[178.4036,-17.5224],[178.4455,-17.5499],[178.4483,-17.5503],[178.4486,-17.5577],[178.4468,-17.6018],[178.4376,-17.647],[178.4333,-17.6571],[178.4269,-17.6642],[178.4185,-17.6657],[178.4073,-17.6641],[178.3852,-17.6554],[178.3766,-17.651],[178.369,-17.6484],[178.3606,-17.6472],[178.3417,-17.6478],[178.3316,-17.6466],[178.3223,-17.6435],[178.2975,-17.6264],[178.2902,-17.623],[178.2826,-17.6222],[178.2792,-17.6254],[178.2772,-17.6292],[178.2761,-17.6348],[178.2758,-17.6381],[178.2747,-17.6424],[178.2717,-17.6475],[178.2613,-17.6555],[178.2452,-17.6608],[178.2131,-17.6682],[178.1573,-17.6699],[178.1392,-17.6682],[178.124,-17.6639],[178.1142,-17.658],[178.1055,-17.6505],[178.0979,-17.6423],[178.0721,-17.602],[178.0506,-17.5785],[178.0416,-17.5709],[178.0309,-17.5676],[178.0257,-17.5727],[178.0239,-17.5809],[178.0261,-17.5915],[178.0329,-17.6107],[178.034,-17.62],[178.0326,-17.6294],[178.0285,-17.6387],[178.0143,-17.6594],[178.0091,-17.6689],[178.0068,-17.679],[178.0051,-17.7348],[178.0062,-17.7402],[178.0081,-17.7433],[178.0112,-17.7447],[178.0148,-17.7442],[178.0199,-17.7418],[178.0245,-17.738],[178.0542,-17.7062],[178.0633,-17.6984],[178.0727,-17.6924],[178.0817,-17.6882],[178.0894,-17.6869],[178.0953,-17.6892],[178.0986,-17.6938],[178.0997,-17.7017],[178.0981,-17.7107],[178.0916,-17.7201],[178.0786,-17.732],[178.0588,-17.7419],[178.0371,-17.7591],[177.9909,-17.8078],[177.9868,-17.8142],[177.9848,-17.8267],[177.9817,-17.8341],[177.9768,-17.8414],[177.9728,-17.8488],[177.9706,-17.8563],[177.9713,-17.8629],[177.9762,-17.8702],[177.9836,-17.8764],[177.9906,-17.8841],[177.993,-17.8927],[177.9879,-17.9061],[177.9859,-17.9144],[177.9865,-17.9225],[177.9919,-17.9284],[177.9983,-17.9335],[178.0042,-17.9395],[178.0074,-17.9464],[178.0076,-17.9533],[177.9974,-17.983],[177.9893,-17.9897],[177.9805,-17.9939],[177.9572,-17.9994],[177.9451,-18.0008],[177.9353,-18.0005],[177.858,-17.981],[177.8459,-17.9796],[177.8334,-17.9801],[177.8152,-17.9854],[177.8056,-17.9926],[177.7994,-18.0019],[177.7923,-18.0218],[177.7874,-18.031],[177.7733,-18.0503],[177.7692,-18.0577],[177.7682,-18.066],[177.7694,-18.0755],[177.7756,-18.0955],[177.7787,-18.1028],[177.7824,-18.107],[177.7877,-18.1092],[177.7951,-18.1101],[177.8186,-18.1109],[177.8239,-18.1127],[177.8265,-18.1167],[177.8261,-18.123],[177.8032,-18.1555],[177.7995,-18.1633],[177.7973,-18.1702],[177.7946,-18.1974],[177.7913,-18.2102],[177.7834,-18.2232]]],[[[177.0939,-17.2453],[177.1201,-17.2555],[177.1326,-17.2545],[177.1492,-17.2453],[177.1629,-17.2658],[177.156,-17.267],[177.1531,-17.2707],[177.1519,-17.2752],[177.1377,-17.2949],[177.1245,-17.3068],[177.1118,-17.3103],[177.1013,-17.3006],[177.0995,-17.2839],[177.104,-17.2703],[177.1052,-17.2597],[177.0939,-17.2527],[177.0939,-17.2453]]],[[[177.2721,-17.0808],[177.2759,-17.0742],[177.2858,-17.0466],[177.2922,-17.0585],[177.2927,-17.0724],[177.2879,-17.0852],[177.2796,-17.0944],[177.2717,-17.1127],[177.2417,-17.1327],[177.238,-17.1491],[177.2337,-17.1457],[177.2303,-17.1438],[177.2274,-17.1412],[177.2243,-17.1354],[177.2146,-17.1413],[177.2075,-17.1482],[177.2038,-17.1573],[177.2038,-17.1696],[177.176,-17.1633],[177.176,-17.1559],[177.1868,-17.1563],[177.1902,-17.1559],[177.1864,-17.1463],[177.1844,-17.1326],[177.186,-17.1203],[177.1936,-17.1149],[177.2025,-17.111],[177.2062,-17.1015],[177.2078,-17.0903],[177.2112,-17.0808],[177.2183,-17.0738],[177.2406,-17.0568],[177.2485,-17.0535],[177.2497,-17.0577],[177.2614,-17.0759],[177.2659,-17.0808],[177.2721,-17.0808]]],[[[177.4437,-16.8679],[177.4129,-16.8913],[177.4037,-16.9026],[177.4165,-16.9094],[177.4133,-16.9172],[177.4085,-16.9245],[177.4026,-16.9311],[177.3954,-16.9368],[177.3926,-16.9313],[177.3856,-16.9225],[177.3731,-16.9029],[177.3789,-16.8937],[177.4028,-16.8815],[177.3958,-16.8661],[177.4082,-16.8611],[177.4282,-16.8629],[177.4437,-16.8679]]],[[[177.5607,-16.6769],[177.5799,-16.6782],[177.5912,-16.6862],[177.594,-16.7],[177.5874,-16.7177],[177.5803,-16.7284],[177.564,-16.7399],[177.5607,-16.7487],[177.5565,-16.7538],[177.4934,-16.8027],[177.4793,-16.8171],[177.4714,-16.8344],[177.4614,-16.8302],[177.4578,-16.8276],[177.4531,-16.8332],[177.4456,-16.8386],[177.4372,-16.84],[177.4297,-16.8344],[177.4303,-16.8282],[177.4364,-16.8036],[177.4372,-16.7934],[177.444,-16.7934],[177.4566,-16.8056],[177.4754,-16.7966],[177.5129,-16.7587],[177.5586,-16.7214],[177.5725,-16.6995],[177.5607,-16.6769]]],[[[174.6159,-21.7111],[174.5969,-21.6984],[174.5889,-21.6816],[174.594,-21.6687],[174.6141,-21.6682],[174.6266,-21.6765],[174.6312,-21.6896],[174.6278,-21.7026],[174.6159,-21.7111]]]]}}]}