{"type":"FeatureCollection","features":[{"type":"Feature","properties":{"id":"FSM-4942","name":"Chuuk","nameBn":"চুুক রাজ্য","type":null,"bounds":[149.1808,5.286,153.7107,8.9875],"center":[151.839,7.44]},"geometry":{"type":"MultiPolygon","coordinates":[[[[151.5886,7.3836],[151.6224,7.3918],[151.6364,7.3871],[151.6502,7.3694],[151.6507,7.3542],[151.6445,7.3361],[151.6343,7.3279],[151.6227,7.3427],[151.6159,7.3427],[151.6074,7.3361],[151.596,7.3367],[151.5827,7.3404],[151.5681,7.3427],[151.5711,7.3463],[151.5742,7.3477],[151.5818,7.3489],[151.5911,7.3534],[151.6174,7.359],[151.6227,7.3659],[151.6184,7.3759],[151.5969,7.3727],[151.5886,7.3836]]],[[[151.8767,7.4587],[151.8838,7.4636],[151.8923,7.4625],[151.9032,7.4595],[151.9177,7.4587],[151.9075,7.4469],[151.8906,7.4352],[151.8719,7.4267],[151.8562,7.4246],[151.8556,7.437],[151.8568,7.4472],[151.863,7.4656],[151.8674,7.4647],[151.8703,7.4635],[151.8767,7.4587]]],[[[153.6677,5.286],[153.6717,5.2977],[153.6853,5.3097],[153.7009,5.317],[153.7107,5.3146],[153.7077,5.3054],[153.6941,5.2965],[153.6782,5.2895],[153.6677,5.286]]],[[[149.3158,6.6969],[149.3161,6.7039],[149.3169,6.7099],[149.3189,6.7151],[149.3235,6.7195],[149.3257,6.7126],[149.3247,6.7071],[149.3211,6.7022],[149.3158,6.6969]]],[[[151.8568,7.3166],[151.8532,7.3538],[151.8545,7.3701],[151.8626,7.3618],[151.8656,7.3507],[151.8652,7.3388],[151.8618,7.3271],[151.8568,7.3166]]],[[[149.1857,7.3716],[149.1808,7.3812],[149.1873,7.3816],[149.1882,7.3798],[149.1867,7.3761],[149.1857,7.3716]]],[[[150.4075,8.5755],[150.4046,8.586],[150.4094,8.5847],[150.4098,8.5823],[150.4085,8.5793],[150.4075,8.5755]]],[[[149.6687,8.5747],[149.6653,8.5876],[149.6678,8.6042],[149.6755,8.6164],[149.6873,8.616],[149.6888,8.6073],[149.683,8.5943],[149.6745,8.5817],[149.6687,8.5747]]],[[[150.1182,8.9763],[150.1243,8.9855],[150.1275,8.9875],[150.133,8.9861],[150.1305,8.9809],[150.1271,8.9792],[150.1228,8.9782],[150.1182,8.9763]]]]}},{"type":"Feature","properties":{"id":"FSM-4944","name":"Kosrae","nameBn":"কসরে","type":null,"bounds":[162.9121,5.2698,163.0466,5.3797],"center":[162.927,5.3564]},"geometry":{"type":"Polygon","coordinates":[[[163.0261,5.3409],[163.0304,5.3357],[163.0373,5.3337],[163.0437,5.331],[163.0466,5.3236],[163.043,5.3109],[163.0257,5.28],[163.0192,5.2727],[163.0055,5.2698],[162.9934,5.2729],[162.9815,5.2777],[162.9676,5.2802],[162.946,5.28],[162.9313,5.2819],[162.9162,5.2869],[162.9121,5.3042],[162.9241,5.321],[162.9714,5.3618],[162.9907,5.3748],[163.0106,5.3797],[163.0261,5.3688],[163.0274,5.3627],[163.0257,5.3476],[163.0261,5.3409]]]}},{"type":"Feature","properties":{"id":"FSM-4941","name":"Pohnpei","nameBn":"পোহেন্পি অঙ্গরাজ্য","type":null,"bounds":[154.2385,0.9182,158.3386,8.1851],"center":[158.163,6.8658]},"geometry":{"type":"MultiPolygon","coordinates":[[[[158.2908,6.938],[158.2962,6.9281],[158.3047,6.9244],[158.3147,6.9258],[158.325,6.9311],[158.3382,6.8791],[158.3386,6.8691],[158.3307,6.8666],[158.3088,6.8685],[158.3045,6.866],[158.3064,6.8552],[158.3156,6.8366],[158.3176,6.8247],[158.3138,6.8087],[158.3045,6.7993],[158.2925,6.7951],[158.2445,6.7883],[158.2254,6.7895],[158.2151,6.8008],[158.1935,6.7934],[158.1802,6.8025],[158.1706,6.8175],[158.1605,6.8281],[158.1646,6.8412],[158.166,6.854],[158.1629,6.8658],[158.1531,6.8759],[158.1559,6.8799],[158.1605,6.8902],[158.133,6.8919],[158.1258,6.9074],[158.1325,6.9414],[158.1419,6.951],[158.1611,6.9514],[158.1782,6.956],[158.1809,6.9789],[158.2017,6.97],[158.2083,6.9653],[158.218,6.9709],[158.2253,6.9702],[158.2324,6.9671],[158.2424,6.9653],[158.2673,6.9664],[158.2766,6.9653],[158.2774,6.9632],[158.294,6.9523],[158.297,6.9516],[158.3035,6.9429],[158.3008,6.9407],[158.2908,6.938]]],[[[154.8081,0.9278],[154.8143,0.9258],[154.8176,0.9222],[154.8128,0.9182],[154.8018,0.9182],[154.7986,0.9245],[154.803,0.9271],[154.8081,0.9278]]],[[[154.7149,0.9656],[154.7219,0.9692],[154.7329,0.967],[154.7268,0.9606],[154.7151,0.9614],[154.7149,0.9656]]],[[[154.7931,0.9721],[154.7966,0.9658],[154.7923,0.9629],[154.7837,0.9637],[154.7782,0.9688],[154.7785,0.9737],[154.7844,0.9755],[154.7931,0.9721]]],[[[154.8792,3.7519],[154.8767,3.768],[154.8919,3.7788],[154.8943,3.7628],[154.8792,3.7519]]],[[[154.7893,3.7918],[154.7918,3.7766],[154.7737,3.7663],[154.7713,3.7815],[154.7893,3.7918]]],[[[157.1619,5.7739],[157.1607,5.7762],[157.1589,5.7779],[157.1585,5.7792],[157.1609,5.7799],[157.1639,5.7787],[157.1638,5.7773],[157.1624,5.7758],[157.1619,5.7739]]],[[[157.9364,6.7172],[157.9392,6.7274],[157.9421,6.7305],[157.9489,6.7317],[157.9483,6.7258],[157.9458,6.7226],[157.9364,6.7172]]],[[[154.2997,8.1751],[154.3097,8.1671],[154.3133,8.1375],[154.3084,8.119],[154.3043,8.1118],[154.2959,8.1059],[154.2793,8.126],[154.2548,8.1365],[154.2385,8.1434],[154.2454,8.1564],[154.2498,8.1732],[154.2598,8.1801],[154.2667,8.1832],[154.291,8.1851],[154.2997,8.1751]]]]}},{"type":"Feature","properties":{"id":"FSM-4943","name":"Yap","nameBn":"ইয়াপ","type":null,"bounds":[138.0638,9.4121,140.5329,9.7756],"center":[138.114,9.581]},"geometry":{"type":"MultiPolygon","coordinates":[[[[138.1924,9.5759],[138.1817,9.5587],[138.1843,9.5444],[138.1975,9.539],[138.219,9.5486],[138.2141,9.5371],[138.2024,9.5212],[138.1887,9.5068],[138.178,9.5002],[138.1641,9.5048],[138.1566,9.5258],[138.1438,9.5213],[138.1345,9.5119],[138.0798,9.4254],[138.0681,9.4121],[138.0638,9.4361],[138.073,9.4704],[138.0891,9.5012],[138.106,9.5145],[138.113,9.5215],[138.1213,9.5549],[138.1262,9.566],[138.1411,9.5744],[138.1472,9.5674],[138.1501,9.5412],[138.1519,9.5508],[138.155,9.5607],[138.1592,9.5695],[138.1644,9.5759],[138.1732,9.5823],[138.1849,9.5888],[138.1936,9.5889],[138.1924,9.5759]]],[[[140.5142,9.7678],[140.5217,9.7747],[140.5313,9.7756],[140.5329,9.7719],[140.5247,9.7645],[140.5154,9.7612],[140.5142,9.7678]]]]}}]}