{"type":"FeatureCollection","features":[{"type":"Feature","properties":{"id":"GAB-2168","name":"Estuaire","nameBn":"আমোরিয়া প্রদেশ","type":"Province","bounds":[9.2988,-0.578,10.974,1.0613],"center":[10.1365,0.322]},"geometry":{"type":"Polygon","coordinates":[[[10.0294,1.0035],[10.1386,1.0031],[10.415,1.0022],[10.4096,0.8602],[10.3942,0.8099],[10.3829,0.7899],[10.3685,0.7514],[10.3645,0.7318],[10.3655,0.7177],[10.3811,0.6966],[10.3865,0.6875],[10.3907,0.678],[10.3992,0.649],[10.4042,0.6397],[10.4121,0.6377],[10.4267,0.6406],[10.9484,0.8207],[10.957,0.8209],[10.9612,0.8183],[10.9707,0.7785],[10.974,0.7566],[10.9717,0.6876],[10.9696,0.6748],[10.9597,0.6474],[10.9549,0.6239],[10.9527,0.6172],[10.9505,0.6132],[10.9355,0.601],[10.9307,0.5954],[10.9293,0.5931],[10.9279,0.5905],[10.9169,0.5496],[10.9135,0.5415],[10.9058,0.5298],[10.9013,0.5244],[10.8978,0.5182],[10.8957,0.5135],[10.8925,0.5019],[10.8911,0.4984],[10.8793,0.4781],[10.875,0.4684],[10.8543,0.3947],[10.8514,0.3684],[10.8495,0.3602],[10.8479,0.3556],[10.8447,0.3514],[10.8413,0.3479],[10.8359,0.3437],[10.8337,0.3381],[10.8317,0.3281],[10.8388,0.2949],[10.8397,0.2833],[10.8391,0.2778],[10.8379,0.2727],[10.8328,0.2605],[10.8255,0.2516],[10.8217,0.2486],[10.8196,0.2463],[10.8134,0.2375],[10.807,0.2318],[10.7882,0.235],[10.7842,0.2353],[10.7805,0.2344],[10.7499,0.22],[10.735,0.2172],[10.7286,0.2172],[10.6887,0.2121],[10.6745,0.2126],[10.6686,0.2101],[10.6663,0.2068],[10.6649,0.1975],[10.6653,0.1833],[10.6632,0.1759],[10.6597,0.17],[10.6559,0.1654],[10.6385,0.1495],[10.6365,0.1467],[10.6329,0.1405],[10.632,0.1377],[10.6315,0.1348],[10.6318,0.1262],[10.6324,0.1223],[10.6346,0.1152],[10.6435,0.0967],[10.6441,0.0883],[10.6394,0.0789],[10.6119,0.0652],[10.6036,0.0592],[10.5929,0.0458],[10.5724,0.025],[10.5558,0.0154],[10.5441,0.0019],[10.5441,-0.0007],[10.548,-0.0111],[10.5517,-0.031],[10.5527,-0.0406],[10.5519,-0.0451],[10.5482,-0.0491],[10.5437,-0.051],[10.5353,-0.0531],[10.5286,-0.0567],[10.5262,-0.0622],[10.5255,-0.0673],[10.5257,-0.0723],[10.5212,-0.0773],[10.4003,-0.172],[10.3882,-0.1796],[10.3699,-0.187],[10.2982,-0.2296],[10.2867,-0.2399],[10.2529,-0.2812],[10.2311,-0.2997],[10.1101,-0.376],[10.0191,-0.4139],[10.0015,-0.4153],[9.9961,-0.4089],[9.994,-0.4001],[9.9922,-0.3805],[9.9883,-0.3708],[9.9816,-0.3411],[9.9773,-0.3317],[9.9697,-0.3234],[9.961,-0.3182],[9.9517,-0.3146],[9.9326,-0.3131],[9.923,-0.3098],[9.9131,-0.305],[9.9028,-0.3023],[9.8929,-0.3041],[9.8829,-0.3145],[9.875,-0.3244],[9.8623,-0.337],[9.8453,-0.3492],[9.8145,-0.366],[9.7976,-0.3683],[9.7863,-0.3649],[9.7659,-0.3473],[9.7566,-0.3456],[9.7394,-0.3565],[9.7147,-0.3688],[9.7047,-0.3705],[9.6748,-0.3719],[9.6649,-0.3743],[9.6243,-0.3898],[9.5853,-0.4095],[9.5754,-0.4124],[9.5674,-0.4167],[9.5619,-0.4251],[9.576,-0.5536],[9.5701,-0.578],[9.5244,-0.5221],[9.4922,-0.5],[9.4587,-0.4841],[9.4492,-0.4819],[9.4303,-0.4803],[9.4174,-0.4722],[9.4027,-0.4576],[9.351,-0.3883],[9.342,-0.3686],[9.3198,-0.2849],[9.3063,-0.2719],[9.3061,-0.2716],[9.3057,-0.2031],[9.3132,-0.1821],[9.3357,-0.1373],[9.3405,-0.1171],[9.3416,-0.1061],[9.346,-0.0847],[9.3467,-0.0727],[9.3444,-0.0635],[9.333,-0.0379],[9.3342,-0.0254],[9.3372,-0.0135],[9.3428,-0.0027],[9.3504,0.0068],[9.3553,0.0162],[9.3535,0.0248],[9.349,0.0329],[9.3467,0.0406],[9.3454,0.062],[9.3102,0.2513],[9.2988,0.2835],[9.302,0.2925],[9.3071,0.319],[9.3091,0.3245],[9.3135,0.3275],[9.3454,0.3558],[9.3562,0.3586],[9.3659,0.3515],[9.3745,0.332],[9.3787,0.3076],[9.3766,0.2873],[9.367,0.2501],[9.3689,0.2384],[9.3734,0.2274],[9.3739,0.2192],[9.3636,0.216],[9.3584,0.2117],[9.3565,0.2017],[9.3573,0.1901],[9.3602,0.1811],[9.3689,0.1891],[9.3743,0.1981],[9.3804,0.2054],[9.3916,0.2084],[9.4243,0.2082],[9.4292,0.205],[9.4346,0.1921],[9.4608,0.1665],[9.4701,0.147],[9.4735,0.1092],[9.4798,0.1036],[9.488,0.0983],[9.495,0.0985],[9.4981,0.1092],[9.4925,0.152],[9.4937,0.17],[9.5042,0.188],[9.5537,0.1741],[9.5664,0.1675],[9.5718,0.1565],[9.5803,0.1218],[9.5868,0.1123],[9.5912,0.1192],[9.6193,0.1472],[9.6284,0.1538],[9.6436,0.153],[9.6524,0.1469],[9.6626,0.1265],[9.7124,0.1348],[9.7489,0.0978],[9.7796,0.0495],[9.8122,0.0235],[9.7756,0.0904],[9.7612,0.1092],[9.7586,0.1256],[9.7781,0.1345],[9.8039,0.1332],[9.8196,0.1191],[9.8319,0.1268],[9.8504,0.1508],[9.8612,0.1613],[9.8963,0.1835],[9.9089,0.188],[9.9251,0.1877],[9.9543,0.1769],[9.9705,0.1737],[9.9852,0.175],[10.0256,0.188],[10.0256,0.1955],[9.9754,0.1943],[9.9558,0.2],[9.9363,0.216],[9.9209,0.2058],[9.9024,0.1968],[9.8827,0.1904],[9.8054,0.1857],[9.7922,0.1811],[9.7472,0.1964],[9.7346,0.205],[9.7196,0.2186],[9.7114,0.2232],[9.6797,0.2222],[9.669,0.2272],[9.6211,0.2631],[9.5864,0.2836],[9.5721,0.2983],[9.5664,0.3183],[9.5596,0.3183],[9.5539,0.3061],[9.5482,0.3026],[9.5357,0.3047],[9.5275,0.3022],[9.5051,0.2923],[9.4981,0.291],[9.4901,0.3024],[9.4841,0.3381],[9.4735,0.3456],[9.4593,0.3599],[9.4114,0.4699],[9.3987,0.4887],[9.3709,0.5201],[9.3522,0.5292],[9.3346,0.5279],[9.319,0.5286],[9.3057,0.5443],[9.3049,0.5589],[9.3088,0.614],[9.3159,0.6262],[9.3377,0.6284],[9.3602,0.633],[9.3714,0.6376],[9.3918,0.6494],[9.402,0.6535],[9.4154,0.6552],[9.4241,0.6528],[9.433,0.6492],[9.4465,0.6473],[9.4548,0.6494],[9.4683,0.6588],[9.4866,0.666],[9.5023,0.6758],[9.52,0.6835],[9.5391,0.6815],[9.5554,0.6652],[9.5628,0.6422],[9.5593,0.6215],[9.5425,0.6125],[9.499,0.6218],[9.4778,0.6191],[9.464,0.5989],[9.4872,0.6059],[9.5164,0.6042],[9.5399,0.5913],[9.5459,0.5648],[9.5578,0.5685],[9.5666,0.5755],[9.5718,0.5857],[9.5733,0.5989],[9.5853,0.5828],[9.5871,0.5537],[9.5819,0.5251],[9.5733,0.5101],[9.5828,0.4816],[9.5908,0.4729],[9.6079,0.4692],[9.6035,0.485],[9.6037,0.5054],[9.6086,0.5231],[9.6175,0.5306],[9.6239,0.5395],[9.6341,0.5829],[9.6421,0.5989],[9.6284,0.6187],[9.625,0.6393],[9.6284,0.6883],[9.6182,0.8068],[9.5828,0.9007],[9.5799,0.9247],[9.5755,0.9408],[9.5671,0.9511],[9.5615,0.9628],[9.5664,0.9831],[9.5789,1.0044],[9.5921,1.0144],[9.6067,1.0173],[9.6248,1.0173],[9.6424,1.0223],[9.6521,1.0343],[9.6589,1.048],[9.6688,1.0582],[9.6868,1.0613],[9.7451,1.0597],[9.7612,1.0548],[9.7747,1.0329],[9.7831,0.9901],[9.7922,0.9688],[9.8005,0.9858],[9.8044,0.9984],[9.8341,0.9949],[9.8496,0.9892],[9.8661,0.9776],[9.8921,0.9479],[9.9086,0.9351],[9.9263,0.9275],[9.9441,0.9249],[9.96,0.9284],[9.9718,0.9398],[9.9754,0.953],[9.9755,0.9826],[9.9808,0.9972],[10.0004,0.9997],[10.0294,1.0035]]]}},{"type":"Feature","properties":{"id":"GAB-2627","name":"Haut-Ogooué","nameBn":"হত-ওগউ প্রদেশ","type":"Province","bounds":[12.741,-2.5016,14.499,0.0407],"center":[13.6198,-1.1319]},"geometry":{"type":"Polygon","coordinates":[[[13.8881,-0.0921],[13.8427,-0.1523],[13.8322,-0.1771],[13.8312,-0.2054],[13.8774,-0.2605],[13.8834,-0.2649],[13.8898,-0.2637],[13.9031,-0.2588],[13.9073,-0.2544],[13.91,-0.2472],[13.9138,-0.2406],[13.9216,-0.2379],[13.9573,-0.242],[13.967,-0.2458],[13.9751,-0.2525],[13.9823,-0.2623],[14.0187,-0.2526],[14.0588,-0.2588],[14.0954,-0.2766],[14.1214,-0.3022],[14.1383,-0.3364],[14.1506,-0.3765],[14.1579,-0.4177],[14.1597,-0.4551],[14.1765,-0.4461],[14.1931,-0.4404],[14.2102,-0.4403],[14.2285,-0.4478],[14.2447,-0.4516],[14.26,-0.4464],[14.2755,-0.4391],[14.2927,-0.4364],[14.3206,-0.4445],[14.3586,-0.4613],[14.3923,-0.4824],[14.4144,-0.5122],[14.4542,-0.5396],[14.4665,-0.5527],[14.49,-0.6009],[14.499,-0.6309],[14.4922,-0.6634],[14.4516,-0.7512],[14.446,-0.7757],[14.4462,-0.8003],[14.4529,-0.8257],[14.4571,-0.8561],[14.4459,-0.8775],[14.4282,-0.8969],[14.4128,-0.9215],[14.4075,-0.9445],[14.4026,-0.9877],[14.392,-1.009],[14.3918,-1.0233],[14.4203,-1.1018],[14.431,-1.1234],[14.4344,-1.1351],[14.4336,-1.1437],[14.428,-1.1609],[14.4283,-1.1695],[14.4353,-1.1817],[14.4394,-1.1857],[14.4564,-1.2025],[14.4642,-1.2154],[14.4658,-1.2244],[14.4648,-1.2556],[14.4608,-1.278],[14.4571,-1.2876],[14.4516,-1.2982],[14.4443,-1.3063],[14.436,-1.3127],[14.4291,-1.32],[14.4263,-1.331],[14.4323,-1.3501],[14.447,-1.3653],[14.4821,-1.3886],[14.4877,-1.4094],[14.4806,-1.4208],[14.4679,-1.429],[14.4563,-1.4402],[14.4527,-1.4496],[14.451,-1.4737],[14.4384,-1.5026],[14.4516,-1.5156],[14.4627,-1.5336],[14.4631,-1.5487],[14.4304,-1.5549],[14.424,-1.5636],[14.4199,-1.5751],[14.4132,-1.5853],[14.4037,-1.5922],[14.3943,-1.5969],[14.3738,-1.6041],[14.3648,-1.612],[14.3715,-1.6195],[14.3909,-1.6303],[14.403,-1.6709],[14.42,-1.6761],[14.4411,-1.6796],[14.4488,-1.6863],[14.4252,-1.7005],[14.4131,-1.714],[14.4067,-1.7356],[14.4036,-1.8152],[14.3975,-1.841],[14.3969,-1.8494],[14.4045,-1.8931],[14.3973,-1.9068],[14.3707,-1.9213],[14.3686,-1.9221],[14.2522,-1.9676],[14.2451,-1.9748],[14.2401,-1.9823],[14.2376,-1.9911],[14.2381,-2.0026],[14.2329,-2.012],[14.2335,-2.0182],[14.2386,-2.0234],[14.2468,-2.0294],[14.2517,-2.0379],[14.2506,-2.0478],[14.244,-2.0675],[14.2384,-2.1202],[14.2338,-2.1345],[14.227,-2.1413],[14.2097,-2.1474],[14.2043,-2.1522],[14.2032,-2.162],[14.2094,-2.1799],[14.2092,-2.1872],[14.1959,-2.2018],[14.1615,-2.2143],[14.148,-2.2248],[14.1512,-2.259],[14.227,-2.3231],[14.2344,-2.3549],[14.2301,-2.3522],[14.1823,-2.3633],[14.1724,-2.3679],[14.1633,-2.374],[14.1442,-2.3902],[14.136,-2.3988],[14.1315,-2.4089],[14.1319,-2.4351],[14.1249,-2.4438],[14.1152,-2.4514],[14.1068,-2.4603],[14.1006,-2.4781],[14.096,-2.4911],[14.09,-2.4986],[14.0809,-2.5],[14.071,-2.4958],[14.0556,-2.4869],[14.0456,-2.4861],[14.0393,-2.4872],[13.9933,-2.5016],[13.9856,-2.5015],[13.9792,-2.4956],[13.9762,-2.4773],[13.967,-2.4706],[13.9573,-2.4706],[13.9477,-2.4749],[13.9304,-2.4854],[13.9095,-2.4897],[13.885,-2.4885],[13.8621,-2.4809],[13.8458,-2.4666],[13.8469,-2.4616],[13.8477,-2.4231],[13.8551,-2.4143],[13.8759,-2.4038],[13.89,-2.3737],[13.9019,-2.3663],[13.9062,-2.3598],[13.8925,-2.3412],[13.8822,-2.3339],[13.8716,-2.3288],[13.8639,-2.3215],[13.8606,-2.2937],[13.8539,-2.2838],[13.8356,-2.2652],[13.8233,-2.2468],[13.8005,-2.2004],[13.7914,-2.1591],[13.7828,-2.138],[13.7707,-2.1191],[13.7569,-2.1059],[13.7464,-2.0983],[13.7432,-2.0971],[13.7409,-2.1025],[13.72,-2.1336],[13.7095,-2.1535],[13.7068,-2.1646],[13.7052,-2.1843],[13.7016,-2.1947],[13.6935,-2.2059],[13.6174,-2.2796],[13.6107,-2.2899],[13.6078,-2.3111],[13.6034,-2.32],[13.5934,-2.3268],[13.5695,-2.3345],[13.5576,-2.3405],[13.5477,-2.3494],[13.5331,-2.3677],[13.5246,-2.376],[13.4922,-2.3985],[13.4823,-2.4081],[13.4768,-2.4177],[13.474,-2.427],[13.4694,-2.435],[13.4589,-2.441],[13.4537,-2.4394],[13.4454,-2.4271],[13.439,-2.4254],[13.4249,-2.4298],[13.4197,-2.4297],[13.398,-2.4262],[13.3788,-2.4309],[13.361,-2.4288],[13.1867,-2.3641],[13.1768,-2.362],[13.1653,-2.3635],[13.1462,-2.3747],[13.1352,-2.377],[13.1143,-2.3719],[13.0498,-2.3426],[13.025,-2.3382],[13.0121,-2.342],[12.994,-2.3601],[12.9824,-2.3717],[12.969,-2.3724],[12.9661,-2.3664],[12.9713,-2.3571],[12.9824,-2.3477],[12.9871,-2.3407],[12.9911,-2.3323],[12.9939,-2.3235],[12.9946,-2.3149],[12.9967,-2.3048],[13.0023,-2.2967],[13.0107,-2.2878],[13.0082,-2.2765],[13.0034,-2.2755],[12.9973,-2.2757],[12.9902,-2.268],[12.9875,-2.26],[12.9824,-2.233],[12.973,-2.2215],[12.9543,-2.1909],[12.9456,-2.1824],[12.9214,-2.1949],[12.9071,-2.1954],[12.9028,-2.1776],[12.902,-2.1673],[12.8982,-2.1602],[12.8851,-2.1474],[12.8827,-2.1408],[12.8845,-2.1345],[12.8887,-2.1269],[12.8906,-2.1222],[12.8945,-2.1156],[12.8951,-2.1098],[12.8763,-2.1049],[12.8741,-2.0998],[12.8752,-2.0938],[12.8752,-2.0891],[12.8769,-2.0887],[12.873,-2.0659],[12.8685,-2.0599],[12.8529,-2.0446],[12.8472,-2.0372],[12.8382,-2.0161],[12.8161,-1.9435],[12.8046,-1.9191],[12.7877,-1.9075],[12.7455,-1.8939],[12.741,-1.8907],[12.7429,-1.8836],[12.7567,-1.8471],[12.7635,-1.8197],[12.7779,-1.7888],[12.7777,-1.7794],[12.7741,-1.7599],[12.7763,-1.7499],[12.8503,-1.5972],[12.8677,-1.5748],[12.8731,-1.5662],[12.8765,-1.5566],[12.8848,-1.5459],[12.8913,-1.5344],[12.8955,-1.5227],[12.8978,-1.4938],[12.9007,-1.4844],[12.9096,-1.4706],[12.9186,-1.4605],[12.9283,-1.4539],[12.9369,-1.4463],[12.9439,-1.4351],[12.9493,-1.4182],[12.96,-1.409],[12.9892,-1.3934],[12.9971,-1.3924],[13.0022,-1.3925],[13.01,-1.3937],[13.0187,-1.3934],[13.0283,-1.3904],[13.0382,-1.3843],[13.0479,-1.3757],[13.0565,-1.366],[13.0708,-1.3474],[13.0789,-1.3391],[13.0883,-1.3335],[13.1061,-1.3267],[13.1119,-1.3196],[13.1287,-1.2902],[13.1389,-1.2811],[13.1496,-1.2747],[13.1593,-1.2711],[13.167,-1.2592],[13.1711,-1.2394],[13.1715,-1.1981],[13.1681,-1.1604],[13.1585,-1.1227],[13.158,-1.1163],[13.1666,-1.109],[13.2396,-1.1445],[13.257,-1.1591],[13.2648,-1.1566],[13.2708,-1.151],[13.433,-0.9537],[13.5574,-0.7696],[13.559,-0.753],[13.5523,-0.7293],[13.3031,-0.2396],[13.2935,-0.2313],[13.2837,-0.2268],[13.2738,-0.2246],[13.2644,-0.2209],[13.2564,-0.2142],[13.2513,-0.2015],[13.2489,-0.1903],[13.2472,-0.1689],[13.2379,-0.1285],[13.2325,-0.1201],[13.2265,-0.1135],[13.2227,-0.1062],[13.2291,-0.0948],[13.2533,-0.06],[13.2789,-0.0104],[13.2814,0.0407],[13.4691,0.0331],[13.5079,0.0353],[13.523,0.0338],[13.7229,-0.0095],[13.7429,-0.0177],[13.7646,-0.0305],[13.8138,-0.0661],[13.8876,-0.0919],[13.8881,-0.0921]]]}},{"type":"Feature","properties":{"id":"GAB-2621","name":"Moyen-Ogooué","nameBn":"মোয়েেন-ওগৌ প্রদেশ","type":"Province","bounds":[9.5619,-1.2555,11.5828,0.2353],"center":[10.5724,-0.3742]},"geometry":{"type":"Polygon","coordinates":[[[11.5828,0.2301],[11.578,0.1981],[11.5797,0.1839],[11.5762,0.1703],[11.5703,0.1598],[11.5509,0.1439],[11.5391,0.1358],[11.5248,0.1238],[11.5138,0.1194],[11.4967,0.1165],[11.3561,0.0434],[11.3416,0.0297],[11.3163,0.0111],[11.3081,0.0013],[11.2993,-0.0299],[11.2826,-0.0613],[11.2801,-0.0714],[11.2803,-0.0804],[11.2837,-0.0885],[11.2869,-0.0933],[11.2925,-0.0985],[11.301,-0.1008],[11.3106,-0.1022],[11.3194,-0.1053],[11.3261,-0.1117],[11.3295,-0.1191],[11.3375,-0.1528],[11.3416,-0.1978],[11.3385,-0.2264],[11.3383,-0.2501],[11.34,-0.2601],[11.3431,-0.27],[11.3484,-0.2796],[11.4004,-0.3575],[11.4056,-0.3677],[11.4084,-0.3809],[11.4095,-0.3967],[11.4084,-0.4217],[11.4106,-0.4372],[11.4262,-0.4888],[11.432,-0.4996],[11.4403,-0.5092],[11.4775,-0.5401],[11.486,-0.5497],[11.4981,-0.5675],[11.5132,-0.5997],[11.529,-0.6806],[11.5325,-0.6903],[11.5625,-0.7535],[11.4757,-0.7497],[11.4431,-0.7448],[11.3841,-0.7243],[11.3262,-0.6969],[11.1726,-0.5785],[11.1592,-0.5754],[11.1475,-0.5756],[11.1069,-0.5847],[10.9277,-0.595],[10.9077,-0.6005],[10.8973,-0.6048],[10.8883,-0.6113],[10.8748,-0.628],[10.8666,-0.633],[10.8575,-0.63],[10.8362,-0.6153],[10.8259,-0.6154],[10.8169,-0.6207],[10.8045,-0.638],[10.7952,-0.6452],[10.782,-0.6488],[10.7713,-0.6466],[10.7623,-0.6393],[10.7569,-0.6303],[10.7485,-0.6201],[10.7378,-0.6161],[10.7234,-0.614],[10.7123,-0.6152],[10.7024,-0.6198],[10.695,-0.6261],[10.6839,-0.6307],[10.6604,-0.6255],[10.6546,-0.6301],[10.6556,-0.6379],[10.6676,-0.657],[10.6706,-0.6663],[10.6678,-0.6747],[10.6608,-0.6812],[10.6523,-0.6877],[10.6442,-0.6965],[10.6154,-0.7397],[10.6059,-0.7498],[10.5944,-0.7601],[10.5438,-0.7903],[10.5341,-0.7988],[10.5279,-0.8079],[10.519,-0.8393],[10.5154,-0.8591],[10.5151,-0.8686],[10.5178,-0.888],[10.5153,-0.8978],[10.4751,-0.967],[10.4703,-0.9721],[10.4621,-0.9774],[10.4253,-0.9947],[10.4205,-0.9986],[10.4189,-1.0017],[10.4188,-1.0066],[10.4228,-1.0139],[10.4282,-1.0215],[10.4306,-1.0308],[10.4285,-1.0406],[10.4236,-1.0506],[10.4099,-1.0693],[10.4015,-1.0778],[10.3961,-1.087],[10.3939,-1.0962],[10.3935,-1.1059],[10.3911,-1.1146],[10.3855,-1.1224],[10.375,-1.1269],[10.3705,-1.1348],[10.3682,-1.144],[10.3646,-1.1531],[10.3573,-1.1609],[10.346,-1.1506],[10.3346,-1.1443],[10.2757,-1.1431],[10.252,-1.138],[10.2359,-1.1365],[10.211,-1.1381],[10.1956,-1.1425],[10.1824,-1.1479],[10.1523,-1.1671],[10.0665,-1.2555],[10.0502,-1.2478],[10.0037,-1.2403],[9.9979,-1.2384],[9.9899,-1.2348],[9.9807,-1.2292],[9.9193,-1.1727],[9.9103,-1.1617],[9.9092,-1.1526],[9.9114,-1.1432],[9.9374,-1.0944],[9.9444,-1.074],[9.9461,-1.0633],[9.9464,-1.0531],[9.9447,-1.0428],[9.9283,-1.0037],[9.927,-0.9983],[9.9275,-0.9913],[9.9348,-0.9737],[9.9355,-0.9639],[9.9315,-0.952],[9.9235,-0.9392],[9.8888,-0.9107],[9.8763,-0.9043],[9.8664,-0.9021],[9.8468,-0.9033],[9.8091,-0.9011],[9.8007,-0.8994],[9.795,-0.8991],[9.7678,-0.9014],[9.7579,-0.9008],[9.7484,-0.8974],[9.7401,-0.8904],[9.7346,-0.8794],[9.724,-0.8689],[9.7202,-0.8668],[9.7107,-0.8595],[9.6977,-0.8515],[9.6766,-0.8418],[9.6356,-0.7867],[9.5701,-0.578],[9.576,-0.5536],[9.5619,-0.4251],[9.5674,-0.4167],[9.5754,-0.4124],[9.5853,-0.4095],[9.6243,-0.3898],[9.6649,-0.3743],[9.6748,-0.3719],[9.7047,-0.3705],[9.7147,-0.3688],[9.7394,-0.3565],[9.7566,-0.3456],[9.7659,-0.3473],[9.7863,-0.3649],[9.7976,-0.3683],[9.8145,-0.366],[9.8453,-0.3492],[9.8623,-0.337],[9.875,-0.3244],[9.8829,-0.3145],[9.8929,-0.3041],[9.9028,-0.3023],[9.9131,-0.305],[9.923,-0.3098],[9.9326,-0.3131],[9.9517,-0.3146],[9.961,-0.3182],[9.9697,-0.3234],[9.9773,-0.3317],[9.9816,-0.3411],[9.9883,-0.3708],[9.9922,-0.3805],[9.994,-0.4001],[9.9961,-0.4089],[10.0015,-0.4153],[10.0191,-0.4139],[10.1101,-0.376],[10.2311,-0.2997],[10.2529,-0.2812],[10.2867,-0.2399],[10.2982,-0.2296],[10.3699,-0.187],[10.3882,-0.1796],[10.4003,-0.172],[10.5212,-0.0773],[10.5257,-0.0723],[10.5255,-0.0673],[10.5262,-0.0622],[10.5286,-0.0567],[10.5353,-0.0531],[10.5437,-0.051],[10.5482,-0.0491],[10.5519,-0.0451],[10.5527,-0.0406],[10.5517,-0.031],[10.548,-0.0111],[10.5441,-0.0007],[10.5441,0.0019],[10.5558,0.0154],[10.5724,0.025],[10.5929,0.0458],[10.6036,0.0592],[10.6119,0.0652],[10.6394,0.0789],[10.6441,0.0883],[10.6435,0.0967],[10.6346,0.1152],[10.6324,0.1223],[10.6318,0.1262],[10.6315,0.1348],[10.632,0.1377],[10.6329,0.1405],[10.6365,0.1467],[10.6385,0.1495],[10.6559,0.1654],[10.6597,0.17],[10.6632,0.1759],[10.6653,0.1833],[10.6649,0.1975],[10.6663,0.2068],[10.6686,0.2101],[10.6745,0.2126],[10.6887,0.2121],[10.7286,0.2172],[10.735,0.2172],[10.7499,0.22],[10.7805,0.2344],[10.7842,0.2353],[10.7882,0.235],[10.807,0.2318],[11.5828,0.2301]]]}},{"type":"Feature","properties":{"id":"GAB-2622","name":"Ngounié","nameBn":"গোউনিয়ে প্রদেশ","type":"Province","bounds":[9.8724,-2.805,12.4998,-0.5754],"center":[11.1859,-1.4865]},"geometry":{"type":"Polygon","coordinates":[[[12.45,-1.8993],[12.4381,-1.8867],[12.4269,-1.8841],[12.4231,-1.8976],[12.4315,-2.0054],[12.44,-2.0458],[12.4608,-2.0779],[12.4998,-2.0955],[12.4953,-2.1128],[12.4774,-2.1411],[12.4702,-2.1563],[12.4684,-2.1711],[12.4755,-2.2124],[12.4686,-2.2412],[12.4551,-2.2756],[12.4479,-2.3079],[12.4593,-2.3299],[12.0623,-2.415],[12.0313,-2.4116],[12.0007,-2.3906],[11.9668,-2.3485],[11.9487,-2.3352],[11.9384,-2.3291],[11.9071,-2.3446],[11.8649,-2.3582],[11.8288,-2.3653],[11.8066,-2.3742],[11.7727,-2.4054],[11.7561,-2.4151],[11.7395,-2.4138],[11.7213,-2.4041],[11.6875,-2.3777],[11.6799,-2.3688],[11.6759,-2.3604],[11.6697,-2.3527],[11.6559,-2.3456],[11.6054,-2.3303],[11.5684,-2.3291],[11.5662,-2.3297],[11.5582,-2.3494],[11.5797,-2.4077],[11.5834,-2.4297],[11.5761,-2.4851],[11.5765,-2.5025],[11.5843,-2.5236],[11.6096,-2.564],[11.619,-2.5865],[11.6244,-2.612],[11.6244,-2.6328],[11.6195,-2.6535],[11.6103,-2.6789],[11.5375,-2.7977],[11.5356,-2.805],[11.5352,-2.8046],[11.4651,-2.7144],[11.3852,-2.6321],[11.3064,-2.5682],[11.2485,-2.5028],[11.2294,-2.4858],[11.2246,-2.477],[11.2057,-2.4076],[11.201,-2.3978],[11.1928,-2.3885],[11.1101,-2.3379],[11.1018,-2.3299],[11.0966,-2.3206],[11.0938,-2.311],[11.0916,-2.3007],[11.0885,-2.2909],[11.0832,-2.2809],[11.0757,-2.2716],[11.0657,-2.2636],[11.0545,-2.2579],[11.0399,-2.2538],[10.6071,-2.3099],[10.5669,-2.2458],[10.552,-2.2289],[10.5476,-2.2263],[10.5435,-2.2229],[10.5398,-2.2186],[10.5128,-2.179],[10.5066,-2.1644],[10.4881,-2.0957],[10.486,-2.0908],[10.4824,-2.0867],[10.4643,-2.0736],[10.4555,-2.0641],[10.4499,-2.0532],[10.4468,-2.0389],[10.4468,-2.0276],[10.4484,-2.0169],[10.4608,-1.9843],[10.4624,-1.9742],[10.4592,-1.9642],[10.4487,-1.9574],[10.4285,-1.9504],[10.4079,-1.9332],[10.3659,-1.9102],[10.3564,-1.9099],[10.347,-1.9153],[10.3382,-1.9225],[10.3284,-1.9274],[10.3181,-1.9294],[10.3072,-1.929],[10.2368,-1.9119],[10.2169,-1.9119],[10.2065,-1.9068],[10.1953,-1.8966],[10.1848,-1.8913],[10.1619,-1.8755],[10.1305,-1.867],[10.0985,-1.8497],[10.0485,-1.8335],[10.0282,-1.8303],[9.995,-1.8296],[9.9861,-1.8286],[9.977,-1.8245],[9.9675,-1.8176],[9.9585,-1.8087],[9.9252,-1.7682],[9.9196,-1.7582],[9.9076,-1.727],[9.9019,-1.7169],[9.8881,-1.6979],[9.8738,-1.6829],[9.8724,-1.6744],[9.8817,-1.6647],[9.8902,-1.6575],[9.896,-1.6487],[9.8966,-1.6389],[9.8989,-1.6283],[9.9087,-1.6161],[9.9183,-1.6098],[9.9286,-1.6075],[9.938,-1.6071],[9.9473,-1.6056],[9.9565,-1.6011],[9.9646,-1.588],[9.9733,-1.5677],[9.9793,-1.5362],[9.9807,-1.5185],[9.9798,-1.5046],[9.9689,-1.453],[9.9669,-1.4333],[9.9674,-1.4141],[9.9708,-1.4032],[9.9767,-1.3918],[10.047,-1.3245],[10.0611,-1.2955],[10.0665,-1.2555],[10.1523,-1.1671],[10.1824,-1.1479],[10.1956,-1.1425],[10.211,-1.1381],[10.2359,-1.1365],[10.252,-1.138],[10.2757,-1.1431],[10.3346,-1.1443],[10.346,-1.1506],[10.3573,-1.1609],[10.3646,-1.1531],[10.3682,-1.144],[10.3705,-1.1348],[10.375,-1.1269],[10.3855,-1.1224],[10.3911,-1.1146],[10.3935,-1.1059],[10.3939,-1.0962],[10.3961,-1.087],[10.4015,-1.0778],[10.4099,-1.0693],[10.4236,-1.0506],[10.4285,-1.0406],[10.4306,-1.0308],[10.4282,-1.0215],[10.4228,-1.0139],[10.4188,-1.0066],[10.4189,-1.0017],[10.4205,-0.9986],[10.4253,-0.9947],[10.4621,-0.9774],[10.4703,-0.9721],[10.4751,-0.967],[10.5153,-0.8978],[10.5178,-0.888],[10.5151,-0.8686],[10.5154,-0.8591],[10.519,-0.8393],[10.5279,-0.8079],[10.5341,-0.7988],[10.5438,-0.7903],[10.5944,-0.7601],[10.6059,-0.7498],[10.6154,-0.7397],[10.6442,-0.6965],[10.6523,-0.6877],[10.6608,-0.6812],[10.6678,-0.6747],[10.6706,-0.6663],[10.6676,-0.657],[10.6556,-0.6379],[10.6546,-0.6301],[10.6604,-0.6255],[10.6839,-0.6307],[10.695,-0.6261],[10.7024,-0.6198],[10.7123,-0.6152],[10.7234,-0.614],[10.7378,-0.6161],[10.7485,-0.6201],[10.7569,-0.6303],[10.7623,-0.6393],[10.7713,-0.6466],[10.782,-0.6488],[10.7952,-0.6452],[10.8045,-0.638],[10.8169,-0.6207],[10.8259,-0.6154],[10.8362,-0.6153],[10.8575,-0.63],[10.8666,-0.633],[10.8748,-0.628],[10.8883,-0.6113],[10.8973,-0.6048],[10.9077,-0.6005],[10.9277,-0.595],[11.1069,-0.5847],[11.1475,-0.5756],[11.1592,-0.5754],[11.1726,-0.5785],[11.3262,-0.6969],[11.3841,-0.7243],[11.4431,-0.7448],[11.4757,-0.7497],[11.5625,-0.7535],[11.5436,-0.7832],[11.5169,-0.8141],[11.509,-0.8271],[11.5043,-0.8391],[11.4978,-0.8964],[11.4985,-0.9062],[11.5023,-0.9232],[11.5047,-0.9477],[11.507,-0.9585],[11.5109,-0.9683],[11.5166,-0.9776],[11.5359,-0.9983],[11.5383,-1.0016],[11.5413,-1.007],[11.5475,-1.0266],[11.5501,-1.0398],[11.5521,-1.0598],[11.5504,-1.0764],[11.5467,-1.0952],[11.5494,-1.1128],[11.5563,-1.1218],[11.5661,-1.1257],[11.5858,-1.1308],[11.5962,-1.1314],[11.6061,-1.1283],[11.6261,-1.1195],[11.6557,-1.1125],[11.7247,-1.0693],[11.7349,-1.0652],[11.7447,-1.0627],[11.7545,-1.0643],[11.7573,-1.0673],[11.7576,-1.0721],[11.7557,-1.0808],[11.7551,-1.097],[11.7578,-1.1184],[11.7669,-1.1489],[11.7725,-1.1594],[11.808,-1.2086],[11.824,-1.2258],[11.8726,-1.2603],[11.9089,-1.2951],[11.9172,-1.3005],[11.9554,-1.3175],[11.9641,-1.3228],[11.9846,-1.3432],[12.0201,-1.387],[12.0262,-1.3976],[12.0269,-1.4035],[12.0269,-1.4226],[12.0291,-1.4341],[12.0434,-1.4813],[12.0467,-1.5182],[12.0447,-1.5423],[12.0422,-1.5508],[12.0413,-1.5529],[12.0361,-1.5616],[12.0304,-1.5691],[12.0231,-1.5758],[12.02,-1.5796],[12.0175,-1.584],[12.0158,-1.5894],[12.0161,-1.5989],[12.0189,-1.6108],[12.0283,-1.6332],[12.0385,-1.6417],[12.0489,-1.6477],[12.0586,-1.6513],[12.0676,-1.6582],[12.1342,-1.7485],[12.1472,-1.7629],[12.2092,-1.8149],[12.2191,-1.8203],[12.3423,-1.8627],[12.352,-1.8633],[12.4225,-1.857],[12.4326,-1.8574],[12.4418,-1.8599],[12.4487,-1.863],[12.4538,-1.878],[12.45,-1.8993]]]}},{"type":"Feature","properties":{"id":"GAB-2623","name":"Nyanga","nameBn":"ন্যানগা প্রদেশ","type":"Province","bounds":[9.9617,-3.9369,11.9549,-2.2538],"center":[10.9768,-2.9771]},"geometry":{"type":"Polygon","coordinates":[[[11.5356,-2.805],[11.5256,-2.8433],[11.5307,-2.8667],[11.5479,-2.8639],[11.5884,-2.8354],[11.6168,-2.8268],[11.6368,-2.8333],[11.6531,-2.8517],[11.6876,-2.9018],[11.7637,-2.9826],[11.7784,-3.0057],[11.7784,-3.0272],[11.7537,-3.0423],[11.7306,-3.0447],[11.7169,-3.0436],[11.7064,-3.0499],[11.6932,-3.0747],[11.6883,-3.0923],[11.6873,-3.1615],[11.6857,-3.1672],[11.6875,-3.171],[11.6961,-3.1796],[11.7039,-3.1854],[11.7605,-3.2091],[11.7816,-3.2217],[11.8219,-3.2548],[11.8583,-3.2721],[11.9057,-3.2851],[11.9444,-3.3032],[11.9549,-3.3355],[11.9415,-3.357],[11.8984,-3.3892],[11.8848,-3.4133],[11.8278,-3.5481],[11.825,-3.5712],[11.8349,-3.5921],[11.8556,-3.6044],[11.8793,-3.612],[11.8985,-3.6224],[11.9055,-3.6435],[11.8977,-3.6661],[11.88,-3.6872],[11.8584,-3.7033],[11.8408,-3.71],[11.8383,-3.7109],[11.8197,-3.7104],[11.7622,-3.694],[11.7421,-3.6917],[11.6876,-3.6987],[11.6659,-3.6914],[11.6492,-3.6733],[11.5698,-3.545],[11.5327,-3.5165],[11.4826,-3.5093],[11.455,-3.5282],[11.4363,-3.559],[11.414,-3.5876],[11.3758,-3.6003],[11.3347,-3.6086],[11.3024,-3.6285],[11.2727,-3.653],[11.2386,-3.6751],[11.2125,-3.6973],[11.1961,-3.7288],[11.1296,-3.9079],[11.114,-3.9369],[11.0946,-3.9243],[11.0702,-3.9088],[11.0213,-3.8578],[11.0057,-3.7931],[10.9963,-3.7755],[10.9898,-3.7574],[10.986,-3.7376],[10.9846,-3.7146],[10.9638,-3.6915],[10.9304,-3.6671],[10.8077,-3.5629],[10.6464,-3.4519],[10.6384,-3.4069],[10.6395,-3.3915],[10.6454,-3.3742],[10.6489,-3.3517],[10.6449,-3.3325],[10.6354,-3.3137],[10.6209,-3.3019],[10.5987,-3.2888],[10.57,-3.2665],[10.553,-3.2587],[10.5491,-3.2391],[10.5116,-3.1974],[10.4982,-3.1816],[10.48,-3.162],[10.4526,-3.1333],[10.347,-3.0445],[10.2191,-2.9452],[10.1683,-2.9034],[10.0388,-2.8093],[9.9785,-2.7582],[9.9617,-2.7454],[9.9991,-2.7353],[10.0001,-2.735],[10.2964,-2.6487],[10.3162,-2.6487],[10.3257,-2.6448],[10.335,-2.6298],[10.3393,-2.6179],[10.3475,-2.5758],[10.3511,-2.5653],[10.3583,-2.5544],[10.3685,-2.5439],[10.3865,-2.5326],[10.399,-2.5281],[10.4098,-2.5253],[10.4163,-2.5206],[10.4172,-2.5134],[10.4151,-2.5061],[10.4012,-2.4837],[10.3984,-2.4742],[10.4006,-2.4633],[10.4071,-2.4512],[10.4195,-2.4349],[10.4301,-2.4102],[10.4643,-2.3808],[10.6071,-2.3099],[11.0399,-2.2538],[11.0545,-2.2579],[11.0657,-2.2636],[11.0757,-2.2716],[11.0832,-2.2809],[11.0885,-2.2909],[11.0916,-2.3007],[11.0938,-2.311],[11.0966,-2.3206],[11.1018,-2.3299],[11.1101,-2.3379],[11.1928,-2.3885],[11.201,-2.3978],[11.2057,-2.4076],[11.2246,-2.477],[11.2294,-2.4858],[11.2485,-2.5028],[11.3064,-2.5682],[11.3852,-2.6321],[11.4651,-2.7144],[11.5352,-2.8046],[11.5356,-2.805]]]}},{"type":"Feature","properties":{"id":"GAB-2186","name":"Ogooué-Ivindo","nameBn":"ওগৌড়-ইভিন্দ প্রদেশ","type":"Province","bounds":[11.2801,-0.7535,14.4681,1.4344],"center":[12.8739,0.7234]},"geometry":{"type":"Polygon","coordinates":[[[13.1849,1.2226],[13.1849,1.2225],[13.1955,1.2211],[13.2158,1.2244],[13.2502,1.2218],[13.2709,1.226],[13.2892,1.234],[13.3078,1.2567],[13.326,1.2593],[13.3429,1.2639],[13.3493,1.2816],[13.3574,1.2891],[13.3769,1.2944],[13.3987,1.2969],[13.4139,1.2955],[13.4489,1.2831],[13.4798,1.2771],[13.51,1.2773],[13.5434,1.2835],[13.5564,1.2928],[13.5792,1.3235],[13.6151,1.3374],[13.6281,1.3481],[13.6422,1.3574],[13.6621,1.3592],[13.6715,1.3588],[13.6807,1.3594],[13.6991,1.3628],[13.7056,1.366],[13.7175,1.3754],[13.7244,1.378],[13.7294,1.3769],[13.7411,1.3713],[13.7441,1.3703],[13.7548,1.3743],[13.7582,1.3765],[13.7704,1.4004],[13.7798,1.4263],[13.7806,1.431],[13.7947,1.4344],[13.9836,1.4168],[14.0008,1.413],[14.019,1.4021],[14.0338,1.3876],[14.0495,1.3764],[14.0707,1.3751],[14.1065,1.3889],[14.1244,1.3936],[14.1445,1.3916],[14.1839,1.3808],[14.1925,1.375],[14.199,1.3683],[14.2065,1.3628],[14.2184,1.3606],[14.2199,1.355],[14.2215,1.3495],[14.2301,1.3439],[14.2414,1.3392],[14.2522,1.3308],[14.2582,1.3197],[14.2731,1.2572],[14.2757,1.2311],[14.2747,1.1556],[14.2829,1.1301],[14.2985,1.1092],[14.3464,1.0871],[14.3601,1.0668],[14.3757,1.0156],[14.3867,0.9922],[14.4008,0.9703],[14.4175,0.9506],[14.4366,0.9333],[14.4604,0.9212],[14.4681,0.9132],[14.4662,0.8996],[14.457,0.8903],[14.4451,0.8833],[14.4376,0.8751],[14.441,0.8628],[14.4476,0.8162],[14.4134,0.775],[14.3673,0.7355],[14.3384,0.6939],[14.3354,0.6426],[14.3288,0.6212],[14.2547,0.5571],[14.2509,0.5519],[14.2453,0.5477],[14.2318,0.5426],[14.1816,0.5399],[14.1255,0.5462],[14.076,0.5395],[14.0456,0.4973],[14.0568,0.4764],[14.063,0.4559],[14.0591,0.4353],[14.0404,0.4138],[13.9665,0.3731],[13.9452,0.3504],[13.9098,0.2709],[13.8758,0.2203],[13.8712,0.1964],[13.8762,0.1713],[13.8859,0.1403],[13.8907,0.1159],[13.8949,0.0437],[13.9014,0.0368],[13.9131,0.0365],[13.9251,0.0344],[13.9329,0.0221],[13.9314,0.0116],[13.9172,-0.0067],[13.913,-0.0166],[13.9149,-0.0313],[13.9201,-0.0424],[13.9211,-0.053],[13.9107,-0.0659],[13.9005,-0.0756],[13.8881,-0.0921],[13.8876,-0.0919],[13.8138,-0.0661],[13.7646,-0.0305],[13.7429,-0.0177],[13.7229,-0.0095],[13.523,0.0338],[13.5079,0.0353],[13.4691,0.0331],[13.2814,0.0407],[13.2613,0.0405],[13.253,0.0424],[13.2423,0.0471],[13.2325,0.053],[13.2217,0.0571],[13.1952,0.0561],[13.1832,0.0581],[13.1718,0.0628],[13.1618,0.0695],[13.1237,0.088],[13.1169,0.0958],[13.1126,0.1047],[13.0936,0.1653],[13.0919,0.1851],[13.0874,0.1934],[13.071,0.2048],[13.0572,0.219],[13.0488,0.2226],[13.019,0.218],[13.01,0.218],[13.0019,0.2195],[12.9962,0.2215],[12.9876,0.2254],[12.9687,0.2368],[12.9526,0.2491],[12.9447,0.2516],[12.9158,0.2254],[12.9043,0.2191],[12.8899,0.2168],[12.8784,0.2183],[12.8478,0.2273],[12.8232,0.2311],[12.8047,0.2295],[12.793,0.2332],[12.7841,0.2405],[12.7789,0.2494],[12.7712,0.2584],[12.7629,0.2653],[12.7546,0.2737],[12.7443,0.2792],[12.731,0.2814],[12.6658,0.2498],[12.6561,0.2477],[12.6464,0.2494],[12.6371,0.255],[12.6283,0.2629],[12.621,0.2715],[12.6141,0.2766],[12.6089,0.2734],[12.4576,-0.4024],[12.3004,-0.4821],[11.5625,-0.7535],[11.5325,-0.6903],[11.529,-0.6806],[11.5132,-0.5997],[11.4981,-0.5675],[11.486,-0.5497],[11.4775,-0.5401],[11.4403,-0.5092],[11.432,-0.4996],[11.4262,-0.4888],[11.4106,-0.4372],[11.4084,-0.4217],[11.4095,-0.3967],[11.4084,-0.3809],[11.4056,-0.3677],[11.4004,-0.3575],[11.3484,-0.2796],[11.3431,-0.27],[11.34,-0.2601],[11.3383,-0.2501],[11.3385,-0.2264],[11.3416,-0.1978],[11.3375,-0.1528],[11.3295,-0.1191],[11.3261,-0.1117],[11.3194,-0.1053],[11.3106,-0.1022],[11.301,-0.1008],[11.2925,-0.0985],[11.2869,-0.0933],[11.2837,-0.0885],[11.2803,-0.0804],[11.2801,-0.0714],[11.2826,-0.0613],[11.2993,-0.0299],[11.3081,0.0013],[11.3163,0.0111],[11.3416,0.0297],[11.3561,0.0434],[11.4967,0.1165],[11.5138,0.1194],[11.5248,0.1238],[11.5391,0.1358],[11.5509,0.1439],[11.5703,0.1598],[11.5762,0.1703],[11.5797,0.1839],[11.578,0.1981],[11.5828,0.2301],[11.4812,0.3374],[11.4763,0.3461],[11.4772,0.3522],[11.4854,0.3602],[12.2048,0.8482],[12.2121,0.856],[12.2161,0.8648],[12.2216,0.8927],[12.2209,0.8961],[12.2199,0.8982],[12.2178,0.9013],[12.2174,0.9054],[12.218,0.9103],[12.2206,0.9211],[12.2211,0.9272],[12.2181,0.9637],[12.2188,0.9839],[12.2225,0.9998],[12.223,1.0008],[12.2237,1.0025],[12.2524,1.039],[12.2603,1.0522],[12.2714,1.0762],[12.2729,1.0814],[12.2751,1.0862],[12.278,1.0916],[12.2937,1.1093],[12.2963,1.1133],[12.3151,1.1505],[12.3277,1.1632],[12.3311,1.1681],[12.3322,1.1715],[12.3337,1.1846],[12.3345,1.1879],[12.3359,1.1917],[12.3384,1.1955],[12.3499,1.2097],[12.3514,1.2127],[12.3528,1.2162],[12.3547,1.2262],[12.3548,1.2347],[13.1849,1.2226]]]}},{"type":"Feature","properties":{"id":"GAB-2628","name":"Ogooué-Lolo","nameBn":"ওগেউ লুলু প্রদেশ","type":"Province","bounds":[11.4978,-1.9249,13.559,0.2814],"center":[12.5284,-0.9727]},"geometry":{"type":"Polygon","coordinates":[[[12.741,-1.8907],[12.675,-1.8428],[12.6324,-1.8252],[12.5832,-1.8265],[12.5724,-1.8304],[12.5235,-1.8633],[12.5174,-1.869],[12.5124,-1.8755],[12.5063,-1.8882],[12.5045,-1.8969],[12.5038,-1.9077],[12.4995,-1.9179],[12.4866,-1.9249],[12.469,-1.9194],[12.45,-1.8993],[12.4538,-1.878],[12.4487,-1.863],[12.4418,-1.8599],[12.4326,-1.8574],[12.4225,-1.857],[12.352,-1.8633],[12.3423,-1.8627],[12.2191,-1.8203],[12.2092,-1.8149],[12.1472,-1.7629],[12.1342,-1.7485],[12.0676,-1.6582],[12.0586,-1.6513],[12.0489,-1.6477],[12.0385,-1.6417],[12.0283,-1.6332],[12.0189,-1.6108],[12.0161,-1.5989],[12.0158,-1.5894],[12.0175,-1.584],[12.02,-1.5796],[12.0231,-1.5758],[12.0304,-1.5691],[12.0361,-1.5616],[12.0413,-1.5529],[12.0422,-1.5508],[12.0447,-1.5423],[12.0467,-1.5182],[12.0434,-1.4813],[12.0291,-1.4341],[12.0269,-1.4226],[12.0269,-1.4035],[12.0262,-1.3976],[12.0201,-1.387],[11.9846,-1.3432],[11.9641,-1.3228],[11.9554,-1.3175],[11.9172,-1.3005],[11.9089,-1.2951],[11.8726,-1.2603],[11.824,-1.2258],[11.808,-1.2086],[11.7725,-1.1594],[11.7669,-1.1489],[11.7578,-1.1184],[11.7551,-1.097],[11.7557,-1.0808],[11.7576,-1.0721],[11.7573,-1.0673],[11.7545,-1.0643],[11.7447,-1.0627],[11.7349,-1.0652],[11.7247,-1.0693],[11.6557,-1.1125],[11.6261,-1.1195],[11.6061,-1.1283],[11.5962,-1.1314],[11.5858,-1.1308],[11.5661,-1.1257],[11.5563,-1.1218],[11.5494,-1.1128],[11.5467,-1.0952],[11.5504,-1.0764],[11.5521,-1.0598],[11.5501,-1.0398],[11.5475,-1.0266],[11.5413,-1.007],[11.5383,-1.0016],[11.5359,-0.9983],[11.5166,-0.9776],[11.5109,-0.9683],[11.507,-0.9585],[11.5047,-0.9477],[11.5023,-0.9232],[11.4985,-0.9062],[11.4978,-0.8964],[11.5043,-0.8391],[11.509,-0.8271],[11.5169,-0.8141],[11.5436,-0.7832],[11.5625,-0.7535],[12.3004,-0.4821],[12.4576,-0.4024],[12.6089,0.2734],[12.6141,0.2766],[12.621,0.2715],[12.6283,0.2629],[12.6371,0.255],[12.6464,0.2494],[12.6561,0.2477],[12.6658,0.2498],[12.731,0.2814],[12.7443,0.2792],[12.7546,0.2737],[12.7629,0.2653],[12.7712,0.2584],[12.7789,0.2494],[12.7841,0.2405],[12.793,0.2332],[12.8047,0.2295],[12.8232,0.2311],[12.8478,0.2273],[12.8784,0.2183],[12.8899,0.2168],[12.9043,0.2191],[12.9158,0.2254],[12.9447,0.2516],[12.9526,0.2491],[12.9687,0.2368],[12.9876,0.2254],[12.9962,0.2215],[13.0019,0.2195],[13.01,0.218],[13.019,0.218],[13.0488,0.2226],[13.0572,0.219],[13.071,0.2048],[13.0874,0.1934],[13.0919,0.1851],[13.0936,0.1653],[13.1126,0.1047],[13.1169,0.0958],[13.1237,0.088],[13.1618,0.0695],[13.1718,0.0628],[13.1832,0.0581],[13.1952,0.0561],[13.2217,0.0571],[13.2325,0.053],[13.2423,0.0471],[13.253,0.0424],[13.2613,0.0405],[13.2814,0.0407],[13.2789,-0.0104],[13.2533,-0.06],[13.2291,-0.0948],[13.2227,-0.1062],[13.2265,-0.1135],[13.2325,-0.1201],[13.2379,-0.1285],[13.2472,-0.1689],[13.2489,-0.1903],[13.2513,-0.2015],[13.2564,-0.2142],[13.2644,-0.2209],[13.2738,-0.2246],[13.2837,-0.2268],[13.2935,-0.2313],[13.3031,-0.2396],[13.5523,-0.7293],[13.559,-0.753],[13.5574,-0.7696],[13.433,-0.9537],[13.2708,-1.151],[13.2648,-1.1566],[13.257,-1.1591],[13.2396,-1.1445],[13.1666,-1.109],[13.158,-1.1163],[13.1585,-1.1227],[13.1681,-1.1604],[13.1715,-1.1981],[13.1711,-1.2394],[13.167,-1.2592],[13.1593,-1.2711],[13.1496,-1.2747],[13.1389,-1.2811],[13.1287,-1.2902],[13.1119,-1.3196],[13.1061,-1.3267],[13.0883,-1.3335],[13.0789,-1.3391],[13.0708,-1.3474],[13.0565,-1.366],[13.0479,-1.3757],[13.0382,-1.3843],[13.0283,-1.3904],[13.0187,-1.3934],[13.01,-1.3937],[13.0022,-1.3925],[12.9971,-1.3924],[12.9892,-1.3934],[12.96,-1.409],[12.9493,-1.4182],[12.9439,-1.4351],[12.9369,-1.4463],[12.9283,-1.4539],[12.9186,-1.4605],[12.9096,-1.4706],[12.9007,-1.4844],[12.8978,-1.4938],[12.8955,-1.5227],[12.8913,-1.5344],[12.8848,-1.5459],[12.8765,-1.5566],[12.8731,-1.5662],[12.8677,-1.5748],[12.8503,-1.5972],[12.7763,-1.7499],[12.7741,-1.7599],[12.7777,-1.7794],[12.7779,-1.7888],[12.7635,-1.8197],[12.7567,-1.8471],[12.7429,-1.8836],[12.741,-1.8907]]]}},{"type":"Feature","properties":{"id":"GAB-2624","name":"Ogooué-Maritime","nameBn":"ওগুয়ে-মেরিটাইম প্রদেশ","type":"Province","bounds":[8.6956,-2.7454,10.6071,-0.2716],"center":[8.9957,-0.6825]},"geometry":{"type":"MultiPolygon","coordinates":[[[[9.9617,-2.7454],[9.9024,-2.7004],[9.7251,-2.4814],[9.7035,-2.443],[9.7217,-2.4568],[9.7503,-2.4872],[9.7718,-2.4983],[9.7949,-2.5009],[9.8086,-2.4923],[9.8211,-2.4762],[9.8401,-2.4567],[9.8376,-2.4708],[9.8329,-2.482],[9.8301,-2.4928],[9.8333,-2.5051],[9.8386,-2.5034],[9.8425,-2.5006],[9.8455,-2.4965],[9.8475,-2.4915],[9.8472,-2.5097],[9.8503,-2.5284],[9.8587,-2.5388],[9.8743,-2.5325],[9.91,-2.545],[9.9158,-2.5496],[9.9178,-2.55],[9.9326,-2.5728],[9.9363,-2.5945],[9.9431,-2.5945],[9.945,-2.5847],[9.9486,-2.5803],[9.9544,-2.5812],[9.9636,-2.5871],[9.9649,-2.5834],[9.9649,-2.5817],[9.9658,-2.581],[9.9705,-2.5803],[9.9736,-2.6169],[9.9773,-2.6287],[9.9841,-2.621],[9.992,-2.6164],[10.0012,-2.6144],[10.0114,-2.615],[10.0081,-2.6291],[10.012,-2.6324],[10.0208,-2.6285],[10.0319,-2.6213],[10.0396,-2.6132],[10.0471,-2.5948],[10.053,-2.5871],[10.0674,-2.5818],[10.0894,-2.5785],[10.1101,-2.5779],[10.1213,-2.5803],[10.1475,-2.5776],[10.1566,-2.5729],[10.1623,-2.5603],[10.1432,-2.5489],[10.1355,-2.5462],[10.1375,-2.5274],[10.1179,-2.5175],[10.0936,-2.5082],[10.0803,-2.4915],[10.0735,-2.4915],[10.0803,-2.5092],[10.094,-2.5603],[10.0798,-2.5582],[10.072,-2.5509],[10.0672,-2.5429],[10.0628,-2.5393],[10.0549,-2.5351],[10.0436,-2.5163],[10.0357,-2.512],[10.0281,-2.5109],[10.0158,-2.5063],[10.0083,-2.5051],[10.0046,-2.5077],[10.0051,-2.5136],[10.0062,-2.5202],[10.0052,-2.5251],[9.9984,-2.5326],[9.992,-2.5422],[9.987,-2.5519],[9.9841,-2.5603],[9.9701,-2.5543],[9.9574,-2.5462],[9.9613,-2.5359],[9.9553,-2.5152],[9.9574,-2.5051],[9.9666,-2.5004],[9.9783,-2.5007],[9.9881,-2.4999],[9.9915,-2.4915],[9.9797,-2.4817],[9.9541,-2.4732],[9.9265,-2.4685],[9.9089,-2.4704],[9.8864,-2.4242],[9.8848,-2.4164],[9.8745,-2.4094],[9.8696,-2.4094],[9.8674,-2.4195],[9.8638,-2.4202],[9.8493,-2.4279],[9.8475,-2.4295],[9.822,-2.4242],[9.7982,-2.4422],[9.7754,-2.464],[9.752,-2.4704],[9.7424,-2.465],[9.7332,-2.4558],[9.7267,-2.4445],[9.724,-2.4325],[9.7264,-2.4294],[9.738,-2.4187],[9.7415,-2.4164],[9.7471,-2.4133],[9.7393,-2.4072],[9.7282,-2.402],[9.724,-2.4021],[9.7223,-2.3938],[9.7239,-2.3858],[9.724,-2.3791],[9.7178,-2.3748],[9.7093,-2.3735],[9.7028,-2.3741],[9.6984,-2.3775],[9.6966,-2.3845],[9.7092,-2.4081],[9.7127,-2.4229],[9.7035,-2.4357],[9.6877,-2.4289],[9.6458,-2.3788],[9.6284,-2.3674],[9.6377,-2.3818],[9.6598,-2.4085],[9.6688,-2.4226],[9.6465,-2.4076],[9.6198,-2.3818],[9.597,-2.3522],[9.5868,-2.3264],[9.5868,-2.3209],[9.5791,-2.298],[9.5733,-2.2072],[9.5658,-2.1926],[9.4666,-2.0949],[9.4398,-2.0798],[9.4094,-2.0437],[9.3952,-2.0323],[9.398,-2.0284],[9.402,-2.0185],[9.3804,-2.0126],[9.368,-1.9952],[9.3542,-1.9571],[9.3123,-1.9159],[9.3057,-1.9055],[9.3011,-1.904],[9.2917,-1.8954],[9.2832,-1.8859],[9.2819,-1.8814],[9.2713,-1.8766],[9.2736,-1.867],[9.2809,-1.8604],[9.2853,-1.8644],[9.2927,-1.8826],[9.311,-1.8967],[9.3338,-1.904],[9.3542,-1.9018],[9.3518,-1.9059],[9.3506,-1.9067],[9.3494,-1.907],[9.3467,-1.9094],[9.3597,-1.9147],[9.3669,-1.9094],[9.3745,-1.8883],[9.3807,-1.8883],[9.3882,-1.9094],[9.3823,-1.9114],[9.3779,-1.9142],[9.3755,-1.9186],[9.3745,-1.9257],[9.3779,-1.9318],[9.3848,-1.9274],[9.3899,-1.9197],[9.3882,-1.9156],[9.4395,-1.9156],[9.4673,-1.9225],[9.4813,-1.9391],[9.4788,-1.9596],[9.4566,-1.9776],[9.4685,-1.9908],[9.4749,-1.996],[9.4807,-1.9981],[9.5025,-2.0001],[9.5081,-2.0016],[9.5106,-2.0075],[9.5105,-2.0248],[9.5119,-2.0323],[9.5322,-2.0458],[9.5329,-2.0506],[9.5379,-2.0628],[9.5432,-2.0709],[9.5459,-2.0632],[9.5491,-2.0582],[9.5632,-2.0529],[9.5664,-2.0496],[9.5637,-2.0317],[9.5571,-2.0117],[9.5485,-1.9977],[9.5391,-1.9981],[9.5282,-1.9854],[9.5037,-1.9685],[9.4981,-1.9571],[9.5098,-1.9395],[9.5193,-1.933],[9.5178,-1.9264],[9.4852,-1.8704],[9.4666,-1.8513],[9.4566,-1.8609],[9.4412,-1.852],[9.436,-1.8473],[9.4325,-1.8566],[9.4324,-1.8661],[9.436,-1.8883],[9.4173,-1.873],[9.3919,-1.8263],[9.3745,-1.8193],[9.3672,-1.8259],[9.3625,-1.8376],[9.3595,-1.8489],[9.3572,-1.8541],[9.3477,-1.8572],[9.3421,-1.8653],[9.34,-1.8762],[9.3405,-1.8883],[9.3333,-1.881],[9.3255,-1.8762],[9.3167,-1.874],[9.3057,-1.874],[9.3172,-1.8541],[9.315,-1.8429],[9.2922,-1.8261],[9.2702,-1.8404],[9.2554,-1.8352],[9.2469,-1.8155],[9.2443,-1.7858],[9.2451,-1.7741],[9.2494,-1.7566],[9.2503,-1.7482],[9.2503,-1.707],[9.2485,-1.6961],[9.2398,-1.6738],[9.2368,-1.6623],[9.238,-1.6313],[9.2368,-1.6213],[9.2201,-1.5798],[9.1973,-1.5483],[9.1419,-1.491],[9.0166,-1.3159],[9.0071,-1.2985],[8.9969,-1.2737],[8.9883,-1.2517],[8.9836,-1.2309],[8.9969,-1.2576],[9.0071,-1.2874],[9.0194,-1.3048],[9.0387,-1.3264],[9.0542,-1.3249],[9.0698,-1.3317],[9.0823,-1.3435],[9.0925,-1.3751],[9.116,-1.3995],[9.1213,-1.419],[9.1276,-1.4289],[9.1592,-1.468],[9.1726,-1.4767],[9.1787,-1.4833],[9.2268,-1.5221],[9.2352,-1.5265],[9.2647,-1.5353],[9.2742,-1.6596],[9.2803,-1.6751],[9.2922,-1.6697],[9.2951,-1.6594],[9.286,-1.6458],[9.2887,-1.6384],[9.2975,-1.6345],[9.305,-1.6384],[9.3104,-1.6467],[9.3125,-1.6555],[9.3275,-1.6384],[9.3509,-1.6248],[9.3777,-1.6165],[9.402,-1.6144],[9.3963,-1.6301],[9.395,-1.6469],[9.4006,-1.6614],[9.4155,-1.6697],[9.4226,-1.6359],[9.4221,-1.6194],[9.4155,-1.6076],[9.4468,-1.6033],[9.5296,-1.6144],[9.5596,-1.6076],[9.5183,-1.5917],[9.5025,-1.5798],[9.4906,-1.5598],[9.4813,-1.5226],[9.4802,-1.5007],[9.4844,-1.4841],[9.4762,-1.4816],[9.4566,-1.4705],[9.4522,-1.4699],[9.4395,-1.4705],[9.4323,-1.4731],[9.4318,-1.4794],[9.436,-1.4943],[9.4346,-1.5046],[9.4312,-1.5097],[9.4269,-1.5131],[9.402,-1.5465],[9.3791,-1.5629],[9.3519,-1.571],[9.3193,-1.5735],[9.3127,-1.5749],[9.3063,-1.5769],[9.2998,-1.5774],[9.2922,-1.5735],[9.2866,-1.5661],[9.2854,-1.55],[9.2783,-1.5353],[9.2775,-1.5261],[9.2783,-1.508],[9.2742,-1.503],[9.265,-1.5007],[9.2554,-1.4994],[9.2503,-1.4977],[9.2485,-1.482],[9.2566,-1.4714],[9.2713,-1.4655],[9.2887,-1.4636],[9.2971,-1.4577],[9.2988,-1.4441],[9.2948,-1.4299],[9.2853,-1.4221],[9.2853,-1.4158],[9.2943,-1.4133],[9.3182,-1.4111],[9.3262,-1.4084],[9.3342,-1.3986],[9.3386,-1.3797],[9.3545,-1.3505],[9.3512,-1.3333],[9.333,-1.2985],[9.3384,-1.2924],[9.3394,-1.2878],[9.3355,-1.2834],[9.3262,-1.278],[9.3257,-1.2979],[9.333,-1.3502],[9.3303,-1.3609],[9.3229,-1.3709],[9.313,-1.3782],[9.3023,-1.3811],[9.2932,-1.378],[9.2849,-1.3642],[9.2783,-1.3606],[9.2621,-1.3661],[9.252,-1.3803],[9.244,-1.395],[9.2337,-1.4016],[9.1857,-1.4106],[9.1691,-1.4084],[9.158,-1.3952],[9.1548,-1.3742],[9.1565,-1.3547],[9.1592,-1.3464],[9.1569,-1.345],[9.1501,-1.3386],[9.1465,-1.3323],[9.1418,-1.3341],[9.136,-1.338],[9.1262,-1.3421],[9.1243,-1.346],[9.1199,-1.3486],[9.1071,-1.3464],[9.0925,-1.3381],[9.0574,-1.3117],[9.0422,-1.3059],[9.03,-1.2991],[9.0213,-1.2825],[9.0188,-1.2621],[9.0257,-1.2439],[9.0225,-1.2403],[9.0208,-1.2376],[9.0183,-1.2309],[9.0378,-1.2167],[9.0331,-1.1935],[9.0158,-1.1699],[8.9972,-1.1552],[9.0098,-1.1853],[9.0039,-1.2123],[9.0005,-1.2214],[8.9942,-1.2204],[8.9909,-1.2096],[8.9836,-1.1484],[8.9666,-1.1044],[8.8674,-0.977],[8.8934,-1.0016],[8.9077,-1.0086],[8.9227,-1.0037],[8.9085,-0.9975],[8.9144,-0.9841],[8.9227,-0.9726],[8.9307,-0.9651],[8.9357,-0.9635],[8.924,-0.9583],[8.8947,-0.9781],[8.8775,-0.9737],[8.8709,-0.9577],[8.8645,-0.933],[8.8569,-0.9159],[8.847,-0.9225],[8.8396,-0.9225],[8.8311,-0.8868],[8.8259,-0.8746],[8.8107,-0.8488],[8.7844,-0.7892],[8.763,-0.7526],[8.7497,-0.7],[8.7189,-0.6603],[8.6956,-0.5866],[8.7092,-0.5656],[8.7166,-0.5729],[8.7077,-0.5922],[8.7186,-0.6008],[8.7508,-0.6071],[8.7464,-0.6161],[8.7455,-0.6222],[8.7471,-0.6272],[8.7508,-0.6339],[8.7723,-0.6332],[8.7874,-0.6576],[8.7957,-0.6918],[8.8003,-0.7337],[8.806,-0.7483],[8.8157,-0.76],[8.8296,-0.7647],[8.8374,-0.7716],[8.8395,-0.7863],[8.8444,-0.8002],[8.8607,-0.8051],[8.8519,-0.788],[8.8529,-0.7713],[8.8577,-0.7536],[8.8607,-0.7337],[8.8661,-0.7195],[8.8794,-0.7184],[8.897,-0.7223],[8.9146,-0.7232],[8.9146,-0.7164],[8.9048,-0.7118],[8.8945,-0.7038],[8.8877,-0.6933],[8.888,-0.6816],[8.8953,-0.6751],[8.905,-0.6759],[8.929,-0.6873],[8.939,-0.7013],[8.9465,-0.7184],[8.9495,-0.7337],[8.957,-0.7535],[8.9932,-0.7872],[9.0046,-0.8051],[9.0051,-0.8253],[8.9982,-0.8604],[9.0046,-0.8746],[9.0115,-0.8746],[9.0158,-0.8559],[9.0183,-0.7952],[9.0238,-0.7763],[9.0476,-0.7502],[9.053,-0.7337],[9.052,-0.72],[9.0505,-0.7143],[9.052,-0.7106],[9.0593,-0.7027],[9.0652,-0.699],[9.0817,-0.6933],[9.0872,-0.6896],[9.0899,-0.6793],[9.0879,-0.6687],[9.0891,-0.6599],[9.1008,-0.6549],[9.1145,-0.6816],[9.1125,-0.6583],[9.1008,-0.6423],[9.0925,-0.6257],[9.1008,-0.5997],[9.16,-0.5468],[9.178,-0.5108],[9.2674,-0.4124],[9.2922,-0.3737],[9.3065,-0.3323],[9.3061,-0.2716],[9.3063,-0.2719],[9.3198,-0.2849],[9.342,-0.3686],[9.351,-0.3883],[9.4027,-0.4576],[9.4174,-0.4722],[9.4303,-0.4803],[9.4492,-0.4819],[9.4587,-0.4841],[9.4922,-0.5],[9.5244,-0.5221],[9.5701,-0.578],[9.6356,-0.7867],[9.6766,-0.8418],[9.6977,-0.8515],[9.7107,-0.8595],[9.7202,-0.8668],[9.724,-0.8689],[9.7346,-0.8794],[9.7401,-0.8904],[9.7484,-0.8974],[9.7579,-0.9008],[9.7678,-0.9014],[9.795,-0.8991],[9.8007,-0.8994],[9.8091,-0.9011],[9.8468,-0.9033],[9.8664,-0.9021],[9.8763,-0.9043],[9.8888,-0.9107],[9.9235,-0.9392],[9.9315,-0.952],[9.9355,-0.9639],[9.9348,-0.9737],[9.9275,-0.9913],[9.927,-0.9983],[9.9283,-1.0037],[9.9447,-1.0428],[9.9464,-1.0531],[9.9461,-1.0633],[9.9444,-1.074],[9.9374,-1.0944],[9.9114,-1.1432],[9.9092,-1.1526],[9.9103,-1.1617],[9.9193,-1.1727],[9.9807,-1.2292],[9.9899,-1.2348],[9.9979,-1.2384],[10.0037,-1.2403],[10.0502,-1.2478],[10.0665,-1.2555],[10.0611,-1.2955],[10.047,-1.3245],[9.9767,-1.3918],[9.9708,-1.4032],[9.9674,-1.4141],[9.9669,-1.4333],[9.9689,-1.453],[9.9798,-1.5046],[9.9807,-1.5185],[9.9793,-1.5362],[9.9733,-1.5677],[9.9646,-1.588],[9.9565,-1.6011],[9.9473,-1.6056],[9.938,-1.6071],[9.9286,-1.6075],[9.9183,-1.6098],[9.9087,-1.6161],[9.8989,-1.6283],[9.8966,-1.6389],[9.896,-1.6487],[9.8902,-1.6575],[9.8817,-1.6647],[9.8724,-1.6744],[9.8738,-1.6829],[9.8881,-1.6979],[9.9019,-1.7169],[9.9076,-1.727],[9.9196,-1.7582],[9.9252,-1.7682],[9.9585,-1.8087],[9.9675,-1.8176],[9.977,-1.8245],[9.9861,-1.8286],[9.995,-1.8296],[10.0282,-1.8303],[10.0485,-1.8335],[10.0985,-1.8497],[10.1305,-1.867],[10.1619,-1.8755],[10.1848,-1.8913],[10.1953,-1.8966],[10.2065,-1.9068],[10.2169,-1.9119],[10.2368,-1.9119],[10.3072,-1.929],[10.3181,-1.9294],[10.3284,-1.9274],[10.3382,-1.9225],[10.347,-1.9153],[10.3564,-1.9099],[10.3659,-1.9102],[10.4079,-1.9332],[10.4285,-1.9504],[10.4487,-1.9574],[10.4592,-1.9642],[10.4624,-1.9742],[10.4608,-1.9843],[10.4484,-2.0169],[10.4468,-2.0276],[10.4468,-2.0389],[10.4499,-2.0532],[10.4555,-2.0641],[10.4643,-2.0736],[10.4824,-2.0867],[10.486,-2.0908],[10.4881,-2.0957],[10.5066,-2.1644],[10.5128,-2.179],[10.5398,-2.2186],[10.5435,-2.2229],[10.5476,-2.2263],[10.552,-2.2289],[10.5669,-2.2458],[10.6071,-2.3099],[10.4643,-2.3808],[10.4301,-2.4102],[10.4195,-2.4349],[10.4071,-2.4512],[10.4006,-2.4633],[10.3984,-2.4742],[10.4012,-2.4837],[10.4151,-2.5061],[10.4172,-2.5134],[10.4163,-2.5206],[10.4098,-2.5253],[10.399,-2.5281],[10.3865,-2.5326],[10.3685,-2.5439],[10.3583,-2.5544],[10.3511,-2.5653],[10.3475,-2.5758],[10.3393,-2.6179],[10.335,-2.6298],[10.3257,-2.6448],[10.3162,-2.6487],[10.2964,-2.6487],[10.0001,-2.735],[9.9991,-2.7353],[9.9617,-2.7454]]],[[[8.9972,-0.6276],[9.0335,-0.6354],[9.0415,-0.6699],[9.0379,-0.7121],[9.0387,-0.7437],[9.021,-0.7555],[9.0066,-0.7621],[8.9929,-0.7612],[8.9773,-0.7506],[8.9685,-0.7374],[8.9684,-0.7249],[8.9712,-0.7115],[8.9712,-0.6959],[8.9666,-0.6873],[8.9529,-0.6728],[8.9495,-0.6617],[8.9495,-0.6506],[8.9517,-0.643],[8.9631,-0.6276],[8.9744,-0.617],[8.9961,-0.6037],[9.0046,-0.5929],[9.01,-0.6028],[9.0104,-0.611],[9.0059,-0.617],[8.9972,-0.6202],[8.9972,-0.6276]]]]}},{"type":"Feature","properties":{"id":"GAB-2187","name":"Wouleu-Ntem","nameBn":"উলেও-নটেম প্রদেশ","type":"Province","bounds":[10.3645,0.2301,13.2984,2.3225],"center":[11.8313,1.4395]},"geometry":{"type":"Polygon","coordinates":[[[11.6573,2.3225],[11.6712,2.321],[11.681,2.3154],[11.7014,2.2987],[11.7528,2.2819],[11.7681,2.2802],[11.8022,2.2848],[11.8898,2.2821],[11.9662,2.2887],[12.0419,2.284],[12.1007,2.2885],[12.1188,2.2878],[12.1592,2.2814],[12.2026,2.2796],[12.2226,2.2833],[12.261,2.2962],[12.2808,2.299],[12.2912,2.3018],[12.3121,2.3129],[12.3216,2.3141],[12.334,2.3096],[12.3668,2.2896],[12.3849,2.2859],[12.4399,2.2985],[12.4784,2.2959],[12.5342,2.2777],[12.5515,2.2723],[12.5748,2.2777],[12.5907,2.2657],[12.6146,2.2569],[12.7499,2.2367],[12.7702,2.2407],[12.7841,2.2495],[12.7956,2.2588],[12.8082,2.264],[12.8252,2.2592],[12.8481,2.2493],[12.8678,2.245],[12.8764,2.2572],[12.8905,2.2514],[12.9032,2.2504],[12.9145,2.2545],[12.9248,2.264],[12.9548,2.2532],[12.9722,2.2504],[12.9832,2.2535],[12.9969,2.26],[13.0129,2.2563],[13.0409,2.2442],[13.0835,2.2495],[13.093,2.2535],[13.1131,2.2727],[13.1247,2.2811],[13.1333,2.2845],[13.1638,2.2832],[13.1917,2.2777],[13.2057,2.2669],[13.2123,2.264],[13.2216,2.2639],[13.236,2.2699],[13.2429,2.2715],[13.2542,2.2669],[13.2697,2.2557],[13.2846,2.2422],[13.2942,2.2305],[13.2984,2.2158],[13.2943,2.1858],[13.2946,2.1611],[13.2949,2.1011],[13.2914,2.0689],[13.2811,2.045],[13.2455,2.0253],[13.2395,2.0207],[13.2213,2.0008],[13.216,1.9972],[13.2069,1.9936],[13.2066,1.9852],[13.2123,1.9664],[13.2102,1.9563],[13.2051,1.9493],[13.1984,1.9431],[13.1917,1.9351],[13.1849,1.9235],[13.1782,1.9078],[13.1663,1.9044],[13.1622,1.8998],[13.1751,1.8821],[13.1832,1.864],[13.1883,1.8566],[13.1925,1.8447],[13.191,1.8287],[13.1807,1.792],[13.173,1.7769],[13.1628,1.7636],[13.1502,1.7563],[13.1575,1.7391],[13.1546,1.7217],[13.1478,1.7029],[13.144,1.6818],[13.15,1.6363],[13.1468,1.6123],[13.1296,1.5925],[13.1459,1.5634],[13.1644,1.5378],[13.1713,1.5453],[13.1826,1.5365],[13.1897,1.5247],[13.1909,1.5111],[13.1849,1.4969],[13.2055,1.4864],[13.2235,1.438],[13.2395,1.428],[13.2384,1.4196],[13.2398,1.3723],[13.2392,1.3642],[13.2396,1.3565],[13.2429,1.3498],[13.2513,1.3376],[13.2491,1.3324],[13.243,1.3289],[13.2336,1.3088],[13.2193,1.2992],[13.2024,1.2934],[13.1883,1.2914],[13.1804,1.2848],[13.1766,1.2709],[13.1692,1.2586],[13.1502,1.2566],[13.1603,1.2477],[13.1723,1.2429],[13.1818,1.2365],[13.1849,1.2226],[12.3548,1.2347],[12.3547,1.2262],[12.3528,1.2162],[12.3514,1.2127],[12.3499,1.2097],[12.3384,1.1955],[12.3359,1.1917],[12.3345,1.1879],[12.3337,1.1846],[12.3322,1.1715],[12.3311,1.1681],[12.3277,1.1632],[12.3151,1.1505],[12.2963,1.1133],[12.2937,1.1093],[12.278,1.0916],[12.2751,1.0862],[12.2729,1.0814],[12.2714,1.0762],[12.2603,1.0522],[12.2524,1.039],[12.2237,1.0025],[12.223,1.0008],[12.2225,0.9998],[12.2188,0.9839],[12.2181,0.9637],[12.2211,0.9272],[12.2206,0.9211],[12.218,0.9103],[12.2174,0.9054],[12.2178,0.9013],[12.2199,0.8982],[12.2209,0.8961],[12.2216,0.8927],[12.2161,0.8648],[12.2121,0.856],[12.2048,0.8482],[11.4854,0.3602],[11.4772,0.3522],[11.4763,0.3461],[11.4812,0.3374],[11.5828,0.2301],[10.807,0.2318],[10.8134,0.2375],[10.8196,0.2463],[10.8217,0.2486],[10.8255,0.2516],[10.8328,0.2605],[10.8379,0.2727],[10.8391,0.2778],[10.8397,0.2833],[10.8388,0.2949],[10.8317,0.3281],[10.8337,0.3381],[10.8359,0.3437],[10.8413,0.3479],[10.8447,0.3514],[10.8479,0.3556],[10.8495,0.3602],[10.8514,0.3684],[10.8543,0.3947],[10.875,0.4684],[10.8793,0.4781],[10.8911,0.4984],[10.8925,0.5019],[10.8957,0.5135],[10.8978,0.5182],[10.9013,0.5244],[10.9058,0.5298],[10.9135,0.5415],[10.9169,0.5496],[10.9279,0.5905],[10.9293,0.5931],[10.9307,0.5954],[10.9355,0.601],[10.9505,0.6132],[10.9527,0.6172],[10.9549,0.6239],[10.9597,0.6474],[10.9696,0.6748],[10.9717,0.6876],[10.974,0.7566],[10.9707,0.7785],[10.9612,0.8183],[10.957,0.8209],[10.9484,0.8207],[10.4267,0.6406],[10.4121,0.6377],[10.4042,0.6397],[10.3992,0.649],[10.3907,0.678],[10.3865,0.6875],[10.3811,0.6966],[10.3655,0.7177],[10.3645,0.7318],[10.3685,0.7514],[10.3829,0.7899],[10.3942,0.8099],[10.4096,0.8602],[10.415,1.0022],[10.4381,1.0022],[10.7374,1.0011],[10.9638,1.0004],[11.0368,1.0002],[11.3363,0.9992],[11.3348,1.2612],[11.3332,1.5231],[11.332,1.7326],[11.3317,1.7851],[11.3301,2.0471],[11.3297,2.1274],[11.3221,2.1658],[11.3285,2.1763],[11.3324,2.188],[11.3342,2.2003],[11.3342,2.2128],[11.3359,2.2292],[11.3422,2.2406],[11.35,2.2511],[11.356,2.2652],[11.3543,2.2785],[11.3498,2.2915],[11.3516,2.3006],[11.6186,2.3104],[11.6446,2.3197],[11.6573,2.3225]]]}}]}