{"type":"FeatureCollection","features":[{"type":"Feature","properties":{"id":"GEO-3015","name":"Abkhazia","nameBn":"আবখাজিয়া","type":"Autonomous Republic","bounds":[39.986,42.4065,42.1543,43.5758],"center":[41.0701,43.1479]},"geometry":{"type":"Polygon","coordinates":[[[40.1643,43.5758],[40.2331,43.5758],[40.4798,43.5087],[40.5196,43.5052],[40.5508,43.5112],[40.6155,43.5358],[40.6519,43.539],[40.6811,43.5281],[40.69,43.5231],[40.7402,43.4953],[40.8427,43.4694],[40.875,43.4556],[41.0118,43.3754],[41.0425,43.3698],[41.1467,43.3799],[41.1808,43.3747],[41.2131,43.3628],[41.2439,43.3442],[41.2788,43.3332],[41.3503,43.3434],[41.3807,43.3348],[41.3898,43.3249],[41.4038,43.3015],[41.4131,43.2913],[41.4276,43.2832],[41.4798,43.2712],[41.5061,43.2598],[41.5506,43.2263],[41.5775,43.2153],[41.6141,43.213],[41.6874,43.2202],[41.7238,43.2172],[41.7889,43.2036],[41.8203,43.2012],[41.89,43.207],[41.9193,43.2059],[41.9483,43.2001],[41.9797,43.1887],[42.0113,43.1819],[42.0434,43.1806],[42.0753,43.1853],[42.1543,43.2175],[42.1403,43.1938],[42.1293,43.1679],[42.133,43.1392],[42.1335,43.1114],[42.1194,43.0832],[42.0995,43.059],[42.0763,43.0397],[42.0573,43.0169],[42.0051,43.0005],[41.908,42.9872],[41.9002,42.9798],[41.8845,42.9646],[41.9022,42.9479],[41.9107,42.9271],[41.9161,42.9036],[41.9178,42.9],[41.9258,42.8823],[41.9309,42.8606],[41.9155,42.8452],[41.903,42.8393],[41.8923,42.8308],[41.8915,42.8201],[41.8989,42.8109],[41.9095,42.7649],[41.9082,42.739],[41.9122,42.7146],[41.9404,42.679],[41.9441,42.6551],[41.9471,42.6358],[41.9383,42.618],[41.9204,42.6097],[41.8995,42.5971],[41.8837,42.58],[41.8823,42.5786],[41.8037,42.5222],[41.7174,42.4851],[41.7143,42.4838],[41.6649,42.4714],[41.6513,42.4588],[41.6292,42.4384],[41.5913,42.4208],[41.58,42.4167],[41.5562,42.4082],[41.5512,42.4065],[41.5002,42.6406],[41.4828,42.6802],[41.4574,42.7137],[41.4243,42.7399],[41.3835,42.7573],[41.3073,42.7676],[41.291,42.7744],[41.2749,42.7853],[41.2507,42.7952],[41.2254,42.8023],[41.2053,42.8044],[41.1937,42.8019],[41.1736,42.7928],[41.1609,42.7908],[41.1502,42.7956],[41.1047,42.8466],[41.0818,42.9081],[41.0403,42.9613],[41.0231,42.99],[40.9984,42.9894],[40.959,42.9764],[40.9338,42.9827],[40.904,43.0163],[40.8866,43.0242],[40.8862,43.0293],[40.8628,43.059],[40.856,43.0631],[40.7831,43.0842],[40.6829,43.0943],[40.6362,43.0925],[40.604,43.0865],[40.5918,43.0856],[40.5799,43.0888],[40.5607,43.103],[40.5505,43.1061],[40.5461,43.1088],[40.529,43.1223],[40.5202,43.1273],[40.5103,43.13],[40.4785,43.134],[40.3983,43.1623],[40.3612,43.1655],[40.3351,43.1409],[40.325,43.1488],[40.3103,43.1757],[40.301,43.1887],[40.2783,43.2055],[40.2684,43.2164],[40.2728,43.248],[40.2572,43.2774],[40.2352,43.3044],[40.2191,43.319],[40.1882,43.3296],[40.1335,43.3416],[40.1013,43.3652],[40.0869,43.3703],[40.0408,43.3758],[40.0098,43.3852],[39.986,43.389],[39.9913,43.4063],[40.0592,43.5352],[40.0728,43.5511],[40.0967,43.5626],[40.1643,43.5758]]]}},{"type":"Feature","properties":{"id":"GEO-3027","name":"Ajaria","nameBn":"আদজারা স্বায়ত্তশাসিত প্রজাতন্ত্র","type":"Autonomous Republic","bounds":[41.5208,41.4218,42.5866,41.9026],"center":[42.0537,41.6552]},"geometry":{"type":"Polygon","coordinates":[[[42.451,41.4314],[42.4379,41.4309],[42.2625,41.4823],[42.2133,41.4802],[42.1893,41.4817],[42.1726,41.4935],[42.1584,41.4999],[42.1432,41.5003],[42.1118,41.4935],[42.0975,41.4983],[42.0835,41.5001],[42.0694,41.4986],[42.0549,41.4935],[42.0196,41.4851],[41.948,41.5056],[41.9078,41.4935],[41.894,41.4855],[41.8627,41.4518],[41.8226,41.426],[41.813,41.4218],[41.8008,41.4257],[41.761,41.4535],[41.7478,41.4569],[41.7185,41.4596],[41.7068,41.4632],[41.7026,41.4695],[41.7028,41.4776],[41.7039,41.4851],[41.7026,41.489],[41.695,41.4891],[41.6698,41.4805],[41.64,41.4787],[41.6273,41.4805],[41.5208,41.5142],[41.5863,41.6027],[41.6157,41.6326],[41.676,41.6622],[41.6929,41.6923],[41.7398,41.7499],[41.7424,41.7617],[41.7424,41.7707],[41.7439,41.7786],[41.75,41.7875],[41.7663,41.8042],[41.7718,41.8126],[41.7739,41.8216],[41.7739,41.9026],[41.9047,41.8978],[41.9311,41.886],[41.9463,41.8793],[41.9516,41.8583],[42.0007,41.843],[42.0202,41.8334],[42.0324,41.8294],[42.063,41.8114],[42.0757,41.813],[42.077,41.8133],[42.1019,41.8202],[42.1505,41.8246],[42.1824,41.8121],[42.2005,41.8042],[42.2298,41.7986],[42.248,41.8008],[42.3024,41.8073],[42.3559,41.8324],[42.3831,41.8386],[42.4055,41.8349],[42.4435,41.8055],[42.4563,41.8005],[42.4817,41.7987],[42.4862,41.7889],[42.4959,41.7677],[42.495,41.733],[42.4835,41.7199],[42.4812,41.701],[42.4879,41.6867],[42.4977,41.6743],[42.5238,41.656],[42.5473,41.6355],[42.5768,41.6001],[42.5866,41.5791],[42.5852,41.5788],[42.5652,41.5671],[42.555,41.5503],[42.5455,41.5096],[42.5355,41.4935],[42.5138,41.4762],[42.4838,41.4422],[42.4631,41.4318],[42.451,41.4314]]]}},{"type":"Feature","properties":{"id":"GEO-3028","name":"Guria","nameBn":"গুরিয়া","type":"Region","bounds":[41.7152,41.7936,42.6496,42.1586],"center":[42.1824,41.9634]},"geometry":{"type":"Polygon","coordinates":[[[42.4817,41.7987],[42.4563,41.8005],[42.4435,41.8055],[42.4055,41.8349],[42.3831,41.8386],[42.3559,41.8324],[42.3024,41.8073],[42.248,41.8008],[42.2298,41.7986],[42.2005,41.8042],[42.1824,41.8121],[42.1505,41.8246],[42.1019,41.8202],[42.077,41.8133],[42.0757,41.813],[42.063,41.8114],[42.0324,41.8294],[42.0202,41.8334],[42.0007,41.843],[41.9516,41.8583],[41.9463,41.8793],[41.9311,41.886],[41.9047,41.8978],[41.7739,41.9026],[41.7739,41.9069],[41.762,41.9699],[41.7603,41.9926],[41.7557,42.0064],[41.7152,42.0593],[41.7317,42.0806],[41.737,42.0856],[41.7415,42.1048],[41.7551,42.1325],[41.818,42.1414],[41.8821,42.1431],[42.0061,42.1586],[42.0615,42.1484],[42.1121,42.1231],[42.1761,42.117],[42.229,42.0972],[42.206,42.0709],[42.2303,42.0445],[42.2799,42.038],[42.2981,42.0339],[42.3149,42.0379],[42.3453,42.0526],[42.3809,42.0462],[42.4005,42.0224],[42.4135,41.9931],[42.4424,41.9803],[42.4781,41.9724],[42.5037,41.958],[42.5312,41.948],[42.5502,41.9391],[42.5704,41.9319],[42.602,41.9337],[42.6323,41.9274],[42.6476,41.8841],[42.6496,41.8334],[42.6239,41.833],[42.6017,41.8217],[42.5927,41.8038],[42.5761,41.7936],[42.5534,41.7966],[42.5312,41.8027],[42.4817,41.7987]]]}},{"type":"Feature","properties":{"id":"GEO-3030","name":"Imereti","nameBn":"ইমেরেতি","type":"Region","bounds":[42.206,41.8059,43.7728,42.5241],"center":[42.9894,42.093]},"geometry":{"type":"Polygon","coordinates":[[[43.7501,42.394],[43.7728,42.374],[43.7609,42.3417],[43.7602,42.309],[43.6835,42.2935],[43.6362,42.2686],[43.6159,42.2578],[43.6126,42.2458],[43.6077,42.2281],[43.6139,42.1963],[43.6082,42.1702],[43.603,42.1661],[43.6021,42.1653],[43.5963,42.1608],[43.5807,42.1511],[43.5673,42.1221],[43.549,42.0963],[43.5167,42.0782],[43.4888,42.0574],[43.4847,42.0151],[43.4695,41.9793],[43.4335,41.9554],[43.4262,41.9166],[43.1274,41.8254],[43.1107,41.8273],[43.0936,41.832],[42.9909,41.8252],[42.9481,41.8118],[42.903,41.8124],[42.8171,41.8261],[42.7114,41.8059],[42.6496,41.8334],[42.6476,41.8841],[42.6323,41.9274],[42.602,41.9337],[42.5704,41.9319],[42.5502,41.9391],[42.5312,41.948],[42.5037,41.958],[42.4781,41.9724],[42.4424,41.9803],[42.4135,41.9931],[42.4005,42.0224],[42.3809,42.0462],[42.3453,42.0526],[42.3149,42.0379],[42.2981,42.0339],[42.2799,42.038],[42.2303,42.0445],[42.206,42.0709],[42.229,42.0972],[42.2687,42.1006],[42.2893,42.1316],[42.288,42.1841],[42.298,42.2259],[42.3167,42.2422],[42.3282,42.2682],[42.3714,42.3214],[42.4417,42.3814],[42.4551,42.405],[42.456,42.4341],[42.4658,42.4498],[42.481,42.4598],[42.4964,42.4942],[42.5267,42.5171],[42.577,42.5197],[42.5952,42.5234],[42.6144,42.5241],[42.6231,42.501],[42.6234,42.4757],[42.6312,42.4568],[42.6321,42.4354],[42.739,42.462],[42.7642,42.4542],[42.7905,42.4527],[42.8126,42.4691],[42.8374,42.4698],[42.8926,42.4437],[42.9434,42.4087],[42.9561,42.3773],[42.981,42.3624],[43.0024,42.3594],[43.05,42.3396],[43.1216,42.3443],[43.1638,42.3572],[43.1989,42.3836],[43.2939,42.4204],[43.4,42.4119],[43.502,42.418],[43.5647,42.4009],[43.5665,42.4004],[43.5874,42.3947],[43.6228,42.3787],[43.6617,42.3743],[43.6907,42.3795],[43.7183,42.3908],[43.7501,42.394]]]}},{"type":"Feature","properties":{"id":"GEO-3033","name":"Kakheti","nameBn":"কাখেটি","type":"Region","bounds":[45.0214,41.0441,46.6948,42.5598],"center":[45.8579,41.6527]},"geometry":{"type":"Polygon","coordinates":[[[45.3016,42.5598],[45.3126,42.5417],[45.3227,42.5301],[45.356,42.52],[45.3986,42.5244],[45.4793,42.5423],[45.5368,42.5414],[45.6207,42.5304],[45.6987,42.5076],[45.7396,42.4715],[45.7395,42.4706],[45.7364,42.4475],[45.6214,42.2245],[45.6314,42.2012],[45.6616,42.1867],[45.7018,42.1728],[45.8116,42.1155],[45.8814,42.102],[45.8952,42.0919],[45.9235,42.0396],[45.9341,42.0285],[45.9476,42.0229],[45.9664,42.0221],[45.9735,42.0242],[45.9867,42.0319],[45.9952,42.0335],[46.0016,42.031],[46.0184,42.02],[46.0267,42.0168],[46.0448,42.0177],[46.0585,42.0203],[46.0683,42.0153],[46.075,41.9935],[46.0992,41.9851],[46.1299,41.9845],[46.1886,41.9935],[46.1889,41.9936],[46.1892,41.9938],[46.1977,41.9955],[46.2062,41.9961],[46.2146,41.9955],[46.2243,41.9935],[46.2505,41.9777],[46.2942,41.9386],[46.3226,41.929],[46.3821,41.9252],[46.4066,41.915],[46.4309,41.8904],[46.3928,41.8317],[46.3713,41.8057],[46.3283,41.7664],[46.3137,41.7567],[46.2978,41.7508],[46.2769,41.7493],[46.2301,41.7573],[46.2083,41.7555],[46.189,41.7401],[46.1795,41.7059],[46.18,41.6552],[46.1928,41.6102],[46.2197,41.5933],[46.2285,41.5987],[46.2334,41.608],[46.24,41.6155],[46.2539,41.6159],[46.2562,41.6103],[46.2784,41.5784],[46.2799,41.5712],[46.2879,41.5321],[46.2967,41.5104],[46.3139,41.4937],[46.3662,41.4666],[46.3779,41.4625],[46.3983,41.4587],[46.4451,41.4259],[46.5425,41.395],[46.5916,41.3729],[46.6074,41.345],[46.6229,41.3496],[46.6298,41.3461],[46.631,41.3455],[46.6378,41.337],[46.6571,41.3206],[46.6885,41.2844],[46.6948,41.2698],[46.6917,41.2685],[46.6834,41.2695],[46.6746,41.2617],[46.6727,41.254],[46.6716,41.2365],[46.6695,41.2299],[46.6636,41.2235],[46.6504,41.2142],[46.6445,41.208],[46.6348,41.1811],[46.6295,41.1467],[46.6211,41.1146],[46.6155,41.1087],[46.6018,41.094],[46.5821,41.0917],[46.5631,41.0956],[46.5435,41.097],[46.5224,41.087],[46.5111,41.071],[46.5056,41.0553],[46.4968,41.0448],[46.4749,41.0441],[46.457,41.0524],[46.429,41.081],[46.4126,41.0919],[46.3531,41.1065],[46.3323,41.1159],[46.2734,41.1563],[46.2444,41.1837],[46.2286,41.1954],[46.2106,41.2002],[46.1354,41.1999],[46.1131,41.196],[46.0876,41.1837],[46.0614,41.1709],[46.0416,41.1654],[46.0174,41.1638],[45.9692,41.1683],[45.8207,41.2088],[45.7703,41.2321],[45.7511,41.241],[45.7097,41.2677],[45.6859,41.2962],[45.7081,41.3171],[45.731,41.3233],[45.7453,41.3292],[45.7441,41.3354],[45.7207,41.3424],[45.6556,41.3524],[45.5118,41.3946],[45.4793,41.4177],[45.4648,41.4302],[45.45,41.4322],[45.4169,41.4246],[45.3968,41.4233],[45.3812,41.4256],[45.3331,41.4444],[45.3331,41.4444],[45.33,41.4614],[45.3237,41.4744],[45.3153,41.4864],[45.3082,41.5113],[45.2896,41.5312],[45.2584,41.5379],[45.2263,41.5397],[45.2083,41.5486],[45.2011,41.5681],[45.1956,41.5952],[45.2299,41.6545],[45.2108,41.708],[45.2031,41.7401],[45.1855,41.767],[45.1474,41.77],[45.1143,41.788],[45.0924,41.8153],[45.0662,41.8375],[45.0528,41.867],[45.0214,41.8811],[45.0481,41.9028],[45.0778,41.9165],[45.1326,41.8898],[45.2129,41.8983],[45.1771,41.9307],[45.1281,41.9402],[45.1043,41.9418],[45.0817,41.9479],[45.0723,41.9788],[45.0878,42.0061],[45.0698,42.0377],[45.0669,42.0659],[45.055,42.1045],[45.0688,42.1277],[45.0842,42.1849],[45.1032,42.2076],[45.1237,42.2581],[45.1481,42.2808],[45.174,42.2985],[45.195,42.3007],[45.2146,42.3063],[45.2236,42.345],[45.2108,42.385],[45.2205,42.4083],[45.2427,42.4231],[45.2583,42.4485],[45.2552,42.4789],[45.269,42.5242],[45.3013,42.5596],[45.3016,42.5598]]]}},{"type":"Feature","properties":{"id":"GEO-3037","name":"Kvemo Kartli","nameBn":"কাভমো কার্তলি","type":"Region","bounds":[43.6727,41.1646,45.3331,41.8442],"center":[44.5029,41.4755]},"geometry":{"type":"Polygon","coordinates":[[[45.0024,41.2905],[44.99,41.2845],[44.9674,41.269],[44.9552,41.2627],[44.9172,41.2618],[44.8207,41.2733],[44.8013,41.2585],[44.8095,41.2444],[44.8471,41.2308],[44.8538,41.2235],[44.8577,41.2193],[44.8478,41.2089],[44.8215,41.2062],[44.6749,41.2085],[44.6331,41.2211],[44.6129,41.2231],[44.5914,41.2158],[44.5784,41.2028],[44.5663,41.1869],[44.5515,41.177],[44.531,41.1815],[44.5255,41.1891],[44.5219,41.1993],[44.5166,41.2068],[44.5059,41.2066],[44.4994,41.2028],[44.4792,41.1858],[44.4549,41.1805],[44.4325,41.1817],[44.4106,41.1877],[44.3573,41.2122],[44.3449,41.2132],[44.3331,41.2104],[44.3249,41.2048],[44.3177,41.1986],[44.3085,41.1938],[44.285,41.1909],[44.2665,41.1962],[44.2181,41.2216],[44.191,41.23],[44.1803,41.2299],[44.1684,41.2236],[44.1659,41.2161],[44.1652,41.2077],[44.1601,41.1979],[44.1444,41.1861],[44.1247,41.1781],[44.1036,41.1752],[44.0613,41.1842],[44.0413,41.1826],[44.0011,41.1689],[43.9782,41.1646],[43.9781,41.1649],[43.9675,41.2167],[43.957,41.2327],[43.9441,41.2471],[43.937,41.2912],[43.9515,41.3354],[43.9475,41.3568],[43.937,41.3759],[43.9161,41.3858],[43.9085,41.4089],[43.908,41.4308],[43.9049,41.4522],[43.901,41.466],[43.8917,41.472],[43.8735,41.5009],[43.8474,41.5219],[43.7997,41.5239],[43.7517,41.5148],[43.7078,41.5134],[43.6727,41.5185],[43.6793,41.5344],[43.6936,41.543],[43.7039,41.5674],[43.7102,41.6674],[43.7331,41.6987],[43.7772,41.6932],[43.8369,41.6951],[43.8862,41.7342],[44.1175,41.7172],[44.1484,41.7248],[44.1801,41.7288],[44.2272,41.7201],[44.2757,41.7264],[44.3359,41.7484],[44.3541,41.7418],[44.3702,41.7272],[44.3933,41.7203],[44.4631,41.7216],[44.4792,41.748],[44.5346,41.7425],[44.5812,41.7174],[44.6283,41.6856],[44.6807,41.7055],[44.6987,41.7018],[44.7019,41.6878],[44.7156,41.6739],[44.7453,41.6751],[44.8269,41.6436],[44.8516,41.642],[44.8759,41.6376],[44.9049,41.6268],[44.9432,41.625],[44.9809,41.6343],[45.0093,41.6657],[44.9998,41.6903],[44.9835,41.6808],[44.9702,41.6667],[44.9474,41.6622],[44.9241,41.6667],[44.9065,41.6732],[44.8912,41.6834],[44.8866,41.7008],[44.8797,41.7184],[44.8605,41.7317],[44.8628,41.7489],[44.8922,41.7698],[44.9157,41.7914],[44.9278,41.8195],[44.9446,41.8379],[44.9661,41.8442],[45.0163,41.8352],[45.0662,41.8375],[45.0924,41.8153],[45.1143,41.788],[45.1474,41.77],[45.1855,41.767],[45.2031,41.7401],[45.2108,41.708],[45.2299,41.6545],[45.1956,41.5952],[45.2011,41.5681],[45.2083,41.5486],[45.2263,41.5397],[45.2584,41.5379],[45.2896,41.5312],[45.3082,41.5113],[45.3153,41.4864],[45.3237,41.4744],[45.33,41.4614],[45.3331,41.4444],[45.3331,41.4444],[45.3144,41.4516],[45.2817,41.4529],[45.2496,41.4445],[45.0978,41.3499],[45.0024,41.2905]]]}},{"type":"Feature","properties":{"id":"GEO-3034","name":"Mtskheta-Mtianeti","nameBn":"এম টি স্কেটা এমতিয়ানে","type":"Region","bounds":[44.1858,41.6856,45.3016,42.7595],"center":[44.7435,42.2106]},"geometry":{"type":"Polygon","coordinates":[[[44.8594,42.7595],[44.903,42.7531],[45.0121,42.6953],[45.0298,42.6888],[45.0481,42.6859],[45.067,42.6885],[45.076,42.6914],[45.1039,42.7005],[45.123,42.7023],[45.1554,42.6933],[45.1842,42.6748],[45.2827,42.5864],[45.2936,42.5729],[45.3016,42.5598],[45.3013,42.5596],[45.269,42.5242],[45.2552,42.4789],[45.2583,42.4485],[45.2427,42.4231],[45.2205,42.4083],[45.2108,42.385],[45.2236,42.345],[45.2146,42.3063],[45.195,42.3007],[45.174,42.2985],[45.1481,42.2808],[45.1237,42.2581],[45.1032,42.2076],[45.0842,42.1849],[45.0688,42.1277],[45.055,42.1045],[45.0669,42.0659],[45.0698,42.0377],[45.0878,42.0061],[45.0723,41.9788],[45.0817,41.9479],[45.1043,41.9418],[45.1281,41.9402],[45.1771,41.9307],[45.2129,41.8983],[45.1326,41.8898],[45.0778,41.9165],[45.0481,41.9028],[45.0214,41.8811],[45.0528,41.867],[45.0662,41.8375],[45.0163,41.8352],[44.9661,41.8442],[44.9446,41.8379],[44.9278,41.8195],[44.9157,41.7914],[44.8922,41.7698],[44.8308,41.7937],[44.8053,41.7953],[44.7898,41.7746],[44.7614,41.7611],[44.7326,41.7617],[44.7124,41.7275],[44.6931,41.7215],[44.6807,41.7055],[44.6283,41.6856],[44.5812,41.7174],[44.5346,41.7425],[44.4792,41.748],[44.479,41.7736],[44.4984,41.7908],[44.4951,41.8293],[44.5229,41.8493],[44.5597,41.8506],[44.5732,41.8789],[44.546,41.9104],[44.5132,41.9392],[44.5056,41.9752],[44.497,41.9965],[44.4962,41.9985],[44.493,42.0063],[44.4586,42.0206],[44.387,42.0326],[44.3527,42.0334],[44.3236,42.0173],[44.308,42.0065],[44.2945,41.9972],[44.2897,42.0229],[44.2619,42.034],[44.2577,42.0507],[44.2661,42.0689],[44.2668,42.0705],[44.269,42.1219],[44.2844,42.1708],[44.2963,42.1788],[44.309,42.1851],[44.3178,42.1972],[44.3248,42.2105],[44.3454,42.2222],[44.3626,42.2396],[44.3546,42.271],[44.3377,42.2976],[44.3412,42.329],[44.339,42.3591],[44.3253,42.3726],[44.3118,42.3827],[44.3074,42.3982],[44.3053,42.4142],[44.2982,42.4244],[44.2869,42.4294],[44.3022,42.4651],[44.3344,42.4947],[44.3189,42.5112],[44.3017,42.5223],[44.2683,42.5663],[44.2209,42.5759],[44.2004,42.5968],[44.1878,42.6232],[44.1858,42.6265],[44.1974,42.6291],[44.2114,42.6396],[44.2301,42.6538],[44.2486,42.682],[44.272,42.7024],[44.3607,42.7038],[44.4014,42.7135],[44.4792,42.7443],[44.5081,42.7503],[44.5583,42.7531],[44.601,42.7491],[44.6388,42.7401],[44.6424,42.7393],[44.6794,42.7237],[44.695,42.7142],[44.7245,42.691],[44.7364,42.6776],[44.7611,42.6192],[44.7735,42.6096],[44.7823,42.6166],[44.7985,42.6717],[44.8274,42.718],[44.8337,42.7341],[44.8594,42.7595]]]}},{"type":"Feature","properties":{"id":"GEO-3035","name":"Racha-Lechkhumi-Kvemo Svaneti","nameBn":"রচা- লেচুমি এবং কিভোম ভেনেটি","type":"Region","bounds":[42.3526,42.3396,43.9082,42.9345],"center":[43.1304,42.6296]},"geometry":{"type":"Polygon","coordinates":[[[43.3862,42.8869],[43.4796,42.8675],[43.5174,42.8605],[43.5863,42.8356],[43.603,42.8248],[43.6443,42.7886],[43.6628,42.7798],[43.756,42.7631],[43.7825,42.7532],[43.8006,42.7465],[43.8118,42.7173],[43.7887,42.6931],[43.7538,42.6747],[43.7257,42.6544],[43.7226,42.6249],[43.7511,42.5987],[43.7962,42.5898],[43.845,42.587],[43.8854,42.5792],[43.9082,42.5662],[43.9022,42.5156],[43.8489,42.4874],[43.8271,42.4582],[43.808,42.4515],[43.669,42.4433],[43.5874,42.3947],[43.5665,42.4004],[43.5647,42.4009],[43.502,42.418],[43.4,42.4119],[43.2939,42.4204],[43.1989,42.3836],[43.1638,42.3572],[43.1216,42.3443],[43.05,42.3396],[43.0024,42.3594],[42.981,42.3624],[42.9561,42.3773],[42.9434,42.4087],[42.8926,42.4437],[42.8374,42.4698],[42.8126,42.4691],[42.7905,42.4527],[42.7642,42.4542],[42.739,42.462],[42.6321,42.4354],[42.6312,42.4568],[42.6234,42.4757],[42.6231,42.501],[42.6144,42.5241],[42.5383,42.6361],[42.5649,42.6779],[42.5195,42.712],[42.4075,42.759],[42.3526,42.7938],[42.3773,42.8284],[42.409,42.8416],[42.4461,42.8436],[42.4582,42.8459],[42.4691,42.852],[42.4795,42.8704],[42.4919,42.8871],[42.5169,42.8867],[42.5416,42.8781],[42.6837,42.8526],[42.7422,42.851],[42.7693,42.8599],[42.7814,42.8675],[42.7943,42.8722],[42.9029,42.8361],[42.9757,42.8434],[43.0377,42.8257],[43.0656,42.8221],[43.0835,42.843],[43.0862,42.8743],[43.1084,42.8896],[43.1425,42.9247],[43.1752,42.9345],[43.1943,42.9268],[43.3862,42.8869]]]}},{"type":"Feature","properties":{"id":"GEO-3029","name":"Samegrelo-Zemo Svaneti","nameBn":"সেমগ্রেলো-জেমো ভেনাতি","type":"Region","bounds":[41.5512,42.0593,43.1752,43.236],"center":[42.3632,42.5492]},"geometry":{"type":"Polygon","coordinates":[[[42.3626,43.2352],[42.4229,43.229],[42.4797,43.2009],[42.5061,43.1816],[42.5349,43.1651],[42.5959,43.14],[42.6152,43.137],[42.6294,43.1413],[42.6562,43.1598],[42.6736,43.1659],[42.7049,43.1664],[42.7515,43.177],[42.7913,43.1762],[42.8298,43.1688],[42.8577,43.1555],[42.8858,43.1358],[42.9148,43.1219],[43.0001,43.0987],[43.0002,43.0854],[42.9925,43.0688],[42.9898,43.0527],[42.9989,43.0422],[43.0483,43.017],[43.1556,42.9424],[43.1752,42.9345],[43.1425,42.9247],[43.1084,42.8896],[43.0862,42.8743],[43.0835,42.843],[43.0656,42.8221],[43.0377,42.8257],[42.9757,42.8434],[42.9029,42.8361],[42.7943,42.8722],[42.7814,42.8675],[42.7693,42.8599],[42.7422,42.851],[42.6837,42.8526],[42.5416,42.8781],[42.5169,42.8867],[42.4919,42.8871],[42.4795,42.8704],[42.4691,42.852],[42.4582,42.8459],[42.4461,42.8436],[42.409,42.8416],[42.3773,42.8284],[42.3526,42.7938],[42.4075,42.759],[42.5195,42.712],[42.5649,42.6779],[42.5383,42.6361],[42.6144,42.5241],[42.5952,42.5234],[42.577,42.5197],[42.5267,42.5171],[42.4964,42.4942],[42.481,42.4598],[42.4658,42.4498],[42.456,42.4341],[42.4551,42.405],[42.4417,42.3814],[42.3714,42.3214],[42.3282,42.2682],[42.3167,42.2422],[42.298,42.2259],[42.288,42.1841],[42.2893,42.1316],[42.2687,42.1006],[42.229,42.0972],[42.1761,42.117],[42.1121,42.1231],[42.0615,42.1484],[42.0061,42.1586],[41.8821,42.1431],[41.818,42.1414],[41.7551,42.1325],[41.7415,42.1048],[41.737,42.0856],[41.7317,42.0806],[41.7152,42.0593],[41.6849,42.0989],[41.6743,42.1055],[41.6641,42.114],[41.6592,42.133],[41.6572,42.1671],[41.6492,42.2122],[41.5962,42.3494],[41.5923,42.3554],[41.5852,42.3629],[41.5584,42.3828],[41.5549,42.3898],[41.5512,42.4065],[41.5562,42.4082],[41.58,42.4167],[41.5913,42.4208],[41.6292,42.4384],[41.6513,42.4588],[41.6649,42.4714],[41.7143,42.4838],[41.7174,42.4851],[41.8037,42.5222],[41.8823,42.5786],[41.8837,42.58],[41.8995,42.5971],[41.9204,42.6097],[41.9383,42.618],[41.9471,42.6358],[41.9441,42.6551],[41.9404,42.679],[41.9122,42.7146],[41.9082,42.739],[41.9095,42.7649],[41.8989,42.8109],[41.8915,42.8201],[41.8923,42.8308],[41.903,42.8393],[41.9155,42.8452],[41.9309,42.8606],[41.9258,42.8823],[41.9178,42.9],[41.9161,42.9036],[41.9107,42.9271],[41.9022,42.9479],[41.8845,42.9646],[41.9002,42.9798],[41.908,42.9872],[42.0051,43.0005],[42.0573,43.0169],[42.0763,43.0397],[42.0995,43.059],[42.1194,43.0832],[42.1335,43.1114],[42.133,43.1392],[42.1293,43.1679],[42.1403,43.1938],[42.1543,43.2175],[42.1598,43.2197],[42.1854,43.2255],[42.3546,43.236],[42.3626,43.2352]]]}},{"type":"Feature","properties":{"id":"GEO-3038","name":"Samtskhe-Javakheti","nameBn":"সাঁমটস্কে-জাভাকেটি","type":"Region","bounds":[42.4812,41.1045,43.9782,41.918],"center":[43.2296,41.5149]},"geometry":{"type":"Polygon","coordinates":[[[42.83,41.4725],[42.8112,41.4772],[42.7921,41.4929],[42.7665,41.5043],[42.7749,41.5143],[42.7946,41.5268],[42.8027,41.5341],[42.8068,41.543],[42.8089,41.5529],[42.8122,41.563],[42.8199,41.5723],[42.8009,41.5792],[42.661,41.5883],[42.6106,41.5851],[42.5909,41.5802],[42.5866,41.5791],[42.5768,41.6001],[42.5473,41.6355],[42.5238,41.656],[42.4977,41.6743],[42.4879,41.6867],[42.4812,41.701],[42.4835,41.7199],[42.495,41.733],[42.4959,41.7677],[42.4862,41.7889],[42.4817,41.7987],[42.5312,41.8027],[42.5534,41.7966],[42.5761,41.7936],[42.5927,41.8038],[42.6017,41.8217],[42.6239,41.833],[42.6496,41.8334],[42.7114,41.8059],[42.8171,41.8261],[42.903,41.8124],[42.9481,41.8118],[42.9909,41.8252],[43.0936,41.832],[43.1107,41.8273],[43.1274,41.8254],[43.4262,41.9166],[43.4541,41.918],[43.519,41.9061],[43.5544,41.8938],[43.5638,41.88],[43.5691,41.8637],[43.5826,41.8552],[43.5924,41.8438],[43.6266,41.8218],[43.6574,41.8179],[43.6722,41.7914],[43.7045,41.7822],[43.739,41.7674],[43.7767,41.7716],[43.8441,41.7725],[43.8862,41.7342],[43.8369,41.6951],[43.7772,41.6932],[43.7331,41.6987],[43.7102,41.6674],[43.7039,41.5674],[43.6936,41.543],[43.6793,41.5344],[43.6727,41.5185],[43.7078,41.5134],[43.7517,41.5148],[43.7997,41.5239],[43.8474,41.5219],[43.8735,41.5009],[43.8917,41.472],[43.901,41.466],[43.9049,41.4522],[43.908,41.4308],[43.9085,41.4089],[43.9161,41.3858],[43.937,41.3759],[43.9475,41.3568],[43.9515,41.3354],[43.937,41.2912],[43.9441,41.2471],[43.957,41.2327],[43.9675,41.2167],[43.9781,41.1649],[43.9782,41.1646],[43.9778,41.1645],[43.9558,41.1605],[43.8632,41.159],[43.8204,41.1455],[43.7737,41.1145],[43.7542,41.1082],[43.7297,41.1067],[43.5666,41.1241],[43.5241,41.1228],[43.4701,41.1062],[43.4603,41.1045],[43.4505,41.1047],[43.4404,41.1066],[43.4518,41.1326],[43.4376,41.1562],[43.4106,41.1752],[43.3833,41.1872],[43.3518,41.1936],[43.3226,41.1921],[43.2306,41.1726],[43.2162,41.1805],[43.1922,41.225],[43.172,41.2423],[43.1523,41.2441],[43.1303,41.2423],[43.1031,41.2488],[43.1572,41.2697],[43.1719,41.2793],[43.1854,41.2938],[43.184,41.299],[43.1548,41.3019],[43.1239,41.3129],[43.0756,41.3449],[43.0021,41.3827],[42.9876,41.3947],[42.9577,41.437],[42.95,41.4437],[42.9411,41.4463],[42.9362,41.4502],[42.9322,41.4548],[42.9261,41.4591],[42.8966,41.4666],[42.889,41.47],[42.8807,41.4812],[42.8751,41.4937],[42.868,41.5002],[42.8546,41.4938],[42.83,41.4725]]]}},{"type":"Feature","properties":{"id":"GEO-3039","name":"Shida Kartli","nameBn":"সিদা কার্টলি","type":"Region","bounds":[43.4262,41.7172,44.5732,42.6265],"center":[43.9997,42.1586]},"geometry":{"type":"Polygon","coordinates":[[[43.9082,42.5662],[43.9208,42.5591],[43.9397,42.5522],[43.9584,42.5544],[43.9732,42.564],[43.998,42.5894],[44.0115,42.6003],[44.0551,42.6153],[44.1508,42.6187],[44.1858,42.6265],[44.1878,42.6232],[44.2004,42.5968],[44.2209,42.5759],[44.2683,42.5663],[44.3017,42.5223],[44.3189,42.5112],[44.3344,42.4947],[44.3022,42.4651],[44.2869,42.4294],[44.2982,42.4244],[44.3053,42.4142],[44.3074,42.3982],[44.3118,42.3827],[44.3253,42.3726],[44.339,42.3591],[44.3412,42.329],[44.3377,42.2976],[44.3546,42.271],[44.3626,42.2396],[44.3454,42.2222],[44.3248,42.2105],[44.3178,42.1972],[44.309,42.1851],[44.2963,42.1788],[44.2844,42.1708],[44.269,42.1219],[44.2668,42.0705],[44.2661,42.0689],[44.2577,42.0507],[44.2619,42.034],[44.2897,42.0229],[44.2945,41.9972],[44.308,42.0065],[44.3236,42.0173],[44.3527,42.0334],[44.387,42.0326],[44.4586,42.0206],[44.493,42.0063],[44.4962,41.9985],[44.497,41.9965],[44.5056,41.9752],[44.5132,41.9392],[44.546,41.9104],[44.5732,41.8789],[44.5597,41.8506],[44.5229,41.8493],[44.4951,41.8293],[44.4984,41.7908],[44.479,41.7736],[44.4792,41.748],[44.4631,41.7216],[44.3933,41.7203],[44.3702,41.7272],[44.3541,41.7418],[44.3359,41.7484],[44.2757,41.7264],[44.2272,41.7201],[44.1801,41.7288],[44.1484,41.7248],[44.1175,41.7172],[43.8862,41.7342],[43.8441,41.7725],[43.7767,41.7716],[43.739,41.7674],[43.7045,41.7822],[43.6722,41.7914],[43.6574,41.8179],[43.6266,41.8218],[43.5924,41.8438],[43.5826,41.8552],[43.5691,41.8637],[43.5638,41.88],[43.5544,41.8938],[43.519,41.9061],[43.4541,41.918],[43.4262,41.9166],[43.4335,41.9554],[43.4695,41.9793],[43.4847,42.0151],[43.4888,42.0574],[43.5167,42.0782],[43.549,42.0963],[43.5673,42.1221],[43.5807,42.1511],[43.5963,42.1608],[43.6021,42.1653],[43.603,42.1661],[43.6082,42.1702],[43.6139,42.1963],[43.6077,42.2281],[43.6126,42.2458],[43.6159,42.2578],[43.6362,42.2686],[43.6835,42.2935],[43.7602,42.309],[43.7609,42.3417],[43.7728,42.374],[43.7501,42.394],[43.7183,42.3908],[43.6907,42.3795],[43.6617,42.3743],[43.6228,42.3787],[43.5874,42.3947],[43.669,42.4433],[43.808,42.4515],[43.8271,42.4582],[43.8489,42.4874],[43.9022,42.5156],[43.9082,42.5662]]]}},{"type":"Feature","properties":{"id":"GEO-3036","name":"Tbilisi","nameBn":"তিবিলিসি","type":"Independent City","bounds":[44.6807,41.625,45.0093,41.7953],"center":[44.845,41.7153]},"geometry":{"type":"Polygon","coordinates":[[[44.8053,41.7953],[44.8308,41.7937],[44.8922,41.7698],[44.8628,41.7489],[44.8605,41.7317],[44.8797,41.7184],[44.8866,41.7008],[44.8912,41.6834],[44.9065,41.6732],[44.9241,41.6667],[44.9474,41.6622],[44.9702,41.6667],[44.9835,41.6808],[44.9998,41.6903],[45.0093,41.6657],[44.9809,41.6343],[44.9432,41.625],[44.9049,41.6268],[44.8759,41.6376],[44.8516,41.642],[44.8269,41.6436],[44.7453,41.6751],[44.7156,41.6739],[44.7019,41.6878],[44.6987,41.7018],[44.6807,41.7055],[44.6931,41.7215],[44.7124,41.7275],[44.7326,41.7617],[44.7614,41.7611],[44.7898,41.7746],[44.8053,41.7953]]]}}]}