{"type":"FeatureCollection","features":[{"type":"Feature","properties":{"id":"GIN-5627","name":"Beyla","nameBn":"বেলা প্রশাসনিক অঞ্চল","type":"Prefecture","bounds":[-8.9691,8.0152,-7.6624,9.4187],"center":[-8.4073,8.8139]},"geometry":{"type":"Polygon","coordinates":[[[-8.0704,9.3975],[-8.0541,9.3891],[-8.0323,9.3846],[-8.0099,9.3836],[-7.9916,9.3853],[-7.9711,9.393],[-7.933,9.4143],[-7.9119,9.4187],[-7.8706,9.4186],[-7.8654,9.4099],[-7.8917,9.3302],[-7.8949,9.3071],[-7.9306,9.2203],[-7.9296,9.1839],[-7.8787,9.1639],[-7.8663,9.166],[-7.8562,9.1702],[-7.8479,9.1686],[-7.8342,9.143],[-7.8234,9.132],[-7.801,9.1148],[-7.7594,9.0917],[-7.7468,9.0764],[-7.7482,9.0754],[-7.7642,9.0636],[-7.7881,9.06],[-7.8078,9.06],[-7.827,9.0578],[-7.9167,9.0123],[-7.9318,8.9966],[-7.9319,8.9965],[-7.9416,8.9722],[-7.9465,8.9486],[-7.9507,8.8995],[-7.9689,8.8128],[-7.9589,8.782],[-7.9131,8.7682],[-7.891,8.7657],[-7.831,8.7477],[-7.8266,8.7482],[-7.8161,8.7535],[-7.8102,8.7534],[-7.8037,8.7491],[-7.7957,8.7365],[-7.7909,8.7309],[-7.7721,8.7145],[-7.7651,8.7061],[-7.7412,8.6629],[-7.7318,8.6521],[-7.7039,8.6335],[-7.6968,8.6248],[-7.6916,8.6061],[-7.694,8.5678],[-7.6917,8.5467],[-7.6792,8.5051],[-7.6793,8.4877],[-7.6865,8.4626],[-7.6896,8.4387],[-7.6832,8.4173],[-7.6624,8.3749],[-7.7207,8.3685],[-7.7483,8.3723],[-7.771,8.3865],[-7.8024,8.4492],[-7.8238,8.4779],[-7.8457,8.4743],[-7.8494,8.4592],[-7.8468,8.4427],[-7.8486,8.4286],[-7.8656,8.4209],[-7.8823,8.4215],[-7.8986,8.4263],[-7.9129,8.4342],[-7.9238,8.4438],[-7.9316,8.457],[-7.937,8.4714],[-7.9439,8.4846],[-7.9563,8.4944],[-7.9705,8.497],[-7.9859,8.4949],[-8.0157,8.4872],[-8.0249,8.4886],[-8.0425,8.4872],[-8.0507,8.4877],[-8.0572,8.4909],[-8.0681,8.5005],[-8.0766,8.5033],[-8.0969,8.5017],[-8.1301,8.4886],[-8.1505,8.4865],[-8.1863,8.4937],[-8.2003,8.4918],[-8.2489,8.4536],[-8.2544,8.4465],[-8.2543,8.4345],[-8.2491,8.4238],[-8.2421,8.4128],[-8.2369,8.4001],[-8.2353,8.3795],[-8.2476,8.3226],[-8.2476,8.3038],[-8.2453,8.2851],[-8.2483,8.2736],[-8.2646,8.2565],[-8.266,8.246],[-8.1829,8.1917],[-8.0855,8.162],[-8.076,8.1634],[-8.0157,8.1839],[-8.0033,8.184],[-8.0024,8.1743],[-8.0083,8.1604],[-8.0157,8.1482],[-8.0217,8.1177],[-8.0213,8.1027],[-8.0157,8.0885],[-7.9971,8.0773],[-7.9804,8.059],[-7.9682,8.037],[-7.9656,8.0269],[-7.9626,8.0152],[-7.9804,8.0166],[-7.9925,8.0242],[-8.0022,8.0324],[-8.012,8.0356],[-8.0538,8.0288],[-8.0691,8.0293],[-8.0672,8.0208],[-8.1112,8.0487],[-8.2074,8.1358],[-8.2795,8.1959],[-8.3696,8.22],[-8.4297,8.217],[-8.4447,8.241],[-8.4778,8.265],[-8.5379,8.271],[-8.5499,8.3071],[-8.5889,8.3492],[-8.652,8.3642],[-8.7362,8.3582],[-8.8233,8.3191],[-8.9104,8.2981],[-8.8954,8.3401],[-8.8744,8.3972],[-8.8563,8.4633],[-8.8714,8.5504],[-8.9044,8.6346],[-8.9525,8.7007],[-8.9675,8.7457],[-8.9691,8.9619],[-8.9264,9.0018],[-8.8837,9.0218],[-8.8067,9.036],[-8.764,9.056],[-8.728,9.0721],[-8.7273,9.0775],[-8.7255,9.0831],[-8.717,9.0999],[-8.7149,9.1099],[-8.7114,9.1193],[-8.6673,9.1949],[-8.6216,9.2269],[-8.5988,9.2696],[-8.5646,9.3152],[-8.5304,9.3266],[-8.5218,9.3665],[-8.4791,9.3808],[-8.4278,9.3779],[-8.3851,9.3637],[-8.3195,9.3352],[-8.2711,9.3409],[-8.2113,9.3722],[-8.1486,9.4007],[-8.0704,9.3975]]]}},{"type":"Feature","properties":{"id":"GIN-5628","name":"Boffa","nameBn":"বোফ্যা প্রশাসনিক অঞ্চল","type":"Prefecture","bounds":[-14.5509,9.85,-13.6124,10.7408],"center":[-14.0764,10.3994]},"geometry":{"type":"Polygon","coordinates":[[[-13.6904,9.9508],[-13.694,9.9538],[-13.6975,9.9404],[-13.6992,9.9213],[-13.702,9.9117],[-13.7128,9.9052],[-13.7325,9.8768],[-13.7467,9.8708],[-13.7454,9.8665],[-13.7497,9.8635],[-13.7847,9.8502],[-13.7887,9.85],[-13.8097,9.8516],[-13.8277,9.8554],[-13.8428,9.8608],[-13.8492,9.8676],[-13.8551,9.8789],[-13.8691,9.8962],[-13.8861,9.9122],[-13.9006,9.9191],[-13.9276,9.9359],[-13.9332,9.9433],[-13.9454,9.9669],[-13.9543,9.9709],[-13.9711,9.9718],[-13.9795,9.9744],[-13.987,9.9804],[-14.0067,10.001],[-14.0217,10.0073],[-14.0323,10.009],[-14.043,10.0128],[-14.0583,10.0253],[-14.0619,10.0501],[-14.0461,10.0795],[-14.0203,10.0944],[-13.9938,10.0762],[-14.0011,10.0882],[-14.0148,10.1048],[-14.0282,10.1166],[-14.0341,10.114],[-14.0416,10.1013],[-14.0568,10.1066],[-14.0683,10.1181],[-14.0655,10.1246],[-14.0438,10.1332],[-14.027,10.154],[-13.9999,10.1997],[-14.0145,10.1928],[-14.0249,10.1837],[-14.0447,10.1622],[-14.0555,10.1553],[-14.0828,10.1429],[-14.0893,10.1383],[-14.0912,10.126],[-14.0893,10.0799],[-14.0923,10.0686],[-14.1006,10.0583],[-14.1134,10.051],[-14.1303,10.0489],[-14.1532,10.0556],[-14.1705,10.0708],[-14.1798,10.0903],[-14.1788,10.1103],[-14.1628,10.1266],[-14.1382,10.1445],[-14.1236,10.1626],[-14.1378,10.1792],[-14.1417,10.1645],[-14.1531,10.1563],[-14.1686,10.1527],[-14.1849,10.1519],[-14.1825,10.1295],[-14.2002,10.1127],[-14.2224,10.1061],[-14.2334,10.114],[-14.2366,10.1209],[-14.2436,10.1294],[-14.2506,10.1405],[-14.2538,10.1553],[-14.2505,10.1626],[-14.244,10.1689],[-14.2401,10.1751],[-14.2439,10.1823],[-14.2493,10.1843],[-14.2547,10.1828],[-14.259,10.1796],[-14.2607,10.1758],[-14.2701,10.1597],[-14.2921,10.1718],[-14.3524,10.2262],[-14.3627,10.2312],[-14.3767,10.2344],[-14.3918,10.2334],[-14.4055,10.2294],[-14.4186,10.228],[-14.432,10.2344],[-14.4525,10.2146],[-14.4626,10.2252],[-14.4659,10.2497],[-14.4661,10.272],[-14.4582,10.3043],[-14.4586,10.317],[-14.463,10.33],[-14.4686,10.3362],[-14.4753,10.3403],[-14.5373,10.4036],[-14.548,10.4256],[-14.5509,10.4466],[-14.5505,10.4721],[-14.5455,10.495],[-14.5356,10.5075],[-14.4986,10.5364],[-14.4596,10.5694],[-14.4055,10.5934],[-14.2763,10.5995],[-14.2072,10.6205],[-14.1445,10.6691],[-14.0497,10.6691],[-14.0307,10.6406],[-13.9865,10.6469],[-13.928,10.6752],[-13.9207,10.668],[-13.9158,10.6665],[-13.9122,10.6684],[-13.9095,10.6733],[-13.9058,10.6774],[-13.893,10.6823],[-13.8885,10.6846],[-13.8506,10.6912],[-13.8421,10.7222],[-13.8328,10.7246],[-13.8252,10.729],[-13.8184,10.7356],[-13.8101,10.7398],[-13.8,10.7408],[-13.7738,10.7304],[-13.7639,10.7281],[-13.7455,10.7302],[-13.7343,10.7291],[-13.7242,10.7224],[-13.6124,10.7148],[-13.6243,10.5544],[-13.6724,10.5183],[-13.6904,10.5063],[-13.7325,10.4913],[-13.7565,10.4552],[-13.8106,10.3952],[-13.8286,10.3531],[-13.819,10.2961],[-13.8411,10.2392],[-13.8695,10.1855],[-13.9078,10.129],[-13.912,10.124],[-13.9134,10.1169],[-13.9104,10.1042],[-13.9075,10.0973],[-13.9037,10.0905],[-13.8991,10.0849],[-13.7851,9.9896],[-13.7802,9.9869],[-13.7752,9.985],[-13.7634,9.9829],[-13.7241,9.9827],[-13.7181,9.9816],[-13.7081,9.9771],[-13.6999,9.9691],[-13.6902,9.9525],[-13.6903,9.9509],[-13.6904,9.9508]]]}},{"type":"Feature","properties":{"id":"GIN-5629","name":"Boke","nameBn":"বুকে অঞ্চল","type":"Prefecture","bounds":[-15.0811,10.4734,-13.7588,11.6689],"center":[-14.3088,11.1674]},"geometry":{"type":"Polygon","coordinates":[[[-14.2897,11.6689],[-14.2845,11.6682],[-14.2787,11.6651],[-14.195,11.6597],[-14.172,11.6628],[-14.1618,11.6609],[-14.1531,11.6548],[-14.1445,11.6474],[-14.1349,11.6418],[-14.1186,11.638],[-14.1047,11.6386],[-14.0746,11.6437],[-14.0588,11.644],[-14.0151,11.6371],[-14.0239,11.5939],[-14.048,11.5639],[-14.048,11.5338],[-14.0209,11.5128],[-13.9698,11.5128],[-13.9338,11.4858],[-13.9188,11.4287],[-13.9098,11.3776],[-13.8827,11.3536],[-13.8407,11.3445],[-13.8066,11.292],[-13.8246,11.2752],[-13.8441,11.2718],[-13.8394,11.2618],[-13.8355,11.26],[-13.8294,11.2586],[-13.8167,11.2576],[-13.8123,11.2552],[-13.8032,11.243],[-13.7961,11.2362],[-13.7841,11.2209],[-13.7828,11.2144],[-13.7842,11.192],[-13.7818,11.1856],[-13.7776,11.1816],[-13.7732,11.1791],[-13.7622,11.1696],[-13.7602,11.1645],[-13.7596,11.158],[-13.76,11.1494],[-13.7588,11.128],[-13.76,11.1185],[-13.77,11.0774],[-13.7724,11.0737],[-13.7759,11.0713],[-13.7854,11.0671],[-13.7939,11.0607],[-13.8134,11.043],[-13.8166,11.0368],[-13.8158,11.0271],[-13.8253,10.982],[-13.8411,10.9441],[-13.8601,10.8899],[-13.9305,10.8577],[-13.9897,10.8619],[-14.0402,10.7923],[-14.1003,10.7323],[-14.1445,10.6691],[-14.2072,10.6205],[-14.2763,10.5995],[-14.4055,10.5934],[-14.4596,10.5694],[-14.4986,10.5364],[-14.5356,10.5075],[-14.535,10.5082],[-14.5354,10.5082],[-14.5514,10.5068],[-14.5624,10.4993],[-14.5716,10.4894],[-14.5828,10.4809],[-14.5964,10.476],[-14.6135,10.4734],[-14.629,10.4763],[-14.6374,10.4877],[-14.6443,10.4877],[-14.6512,10.4751],[-14.6578,10.4796],[-14.6627,10.4941],[-14.6647,10.5116],[-14.6638,10.5292],[-14.6611,10.5426],[-14.6505,10.5703],[-14.6394,10.5666],[-14.626,10.5774],[-14.6114,10.593],[-14.5964,10.6037],[-14.6206,10.6043],[-14.6287,10.6173],[-14.6274,10.6355],[-14.6152,10.6913],[-14.6073,10.7054],[-14.5964,10.6994],[-14.5902,10.6994],[-14.5883,10.7143],[-14.5807,10.7221],[-14.5724,10.7263],[-14.5685,10.731],[-14.5555,10.7757],[-14.5313,10.8235],[-14.5174,10.829],[-14.5097,10.8425],[-14.5084,10.8585],[-14.5139,10.8719],[-14.51,10.8765],[-14.5002,10.8911],[-14.5199,10.8854],[-14.5226,10.8776],[-14.5192,10.8665],[-14.5214,10.8508],[-14.5549,10.8276],[-14.5589,10.8235],[-14.5735,10.8124],[-14.5904,10.7873],[-14.6044,10.7604],[-14.616,10.728],[-14.6297,10.7064],[-14.6579,10.6727],[-14.6861,10.6482],[-14.6998,10.6431],[-14.7057,10.6553],[-14.7037,10.6708],[-14.6981,10.6818],[-14.6894,10.689],[-14.6783,10.6931],[-14.6858,10.6947],[-14.6918,10.6945],[-14.6979,10.6918],[-14.7057,10.6863],[-14.7194,10.6994],[-14.7069,10.7392],[-14.6991,10.7563],[-14.6884,10.772],[-14.6822,10.7778],[-14.6681,10.7871],[-14.6613,10.7928],[-14.656,10.8006],[-14.6533,10.8076],[-14.6514,10.81],[-14.6566,10.812],[-14.6647,10.8166],[-14.678,10.7996],[-14.7231,10.7651],[-14.7348,10.7481],[-14.7464,10.7108],[-14.7603,10.6994],[-14.77,10.7188],[-14.7827,10.7313],[-14.7928,10.745],[-14.7951,10.7683],[-14.7816,10.7678],[-14.77,10.7769],[-14.7608,10.7904],[-14.7541,10.803],[-14.7493,10.8161],[-14.7461,10.8312],[-14.745,10.8441],[-14.7467,10.8508],[-14.7439,10.8566],[-14.7424,10.861],[-14.7405,10.8719],[-14.7589,10.8585],[-14.7653,10.8503],[-14.7677,10.8409],[-14.7726,10.8365],[-14.8013,10.8235],[-14.8087,10.8235],[-14.8097,10.8348],[-14.8091,10.8456],[-14.8065,10.8555],[-14.8013,10.8644],[-14.8073,10.8736],[-14.808,10.8825],[-14.8038,10.8908],[-14.7951,10.8986],[-14.8139,10.9003],[-14.8197,10.912],[-14.8168,10.9272],[-14.8087,10.9396],[-14.7961,10.9476],[-14.7786,10.9541],[-14.7599,10.9584],[-14.7436,10.96],[-14.7318,10.9665],[-14.725,10.9805],[-14.7206,10.9946],[-14.7163,11.001],[-14.6995,11.0055],[-14.6808,11.0275],[-14.6647,11.0358],[-14.6722,11.0414],[-14.6772,11.0476],[-14.6852,11.0637],[-14.687,11.0543],[-14.6901,11.0452],[-14.695,11.0385],[-14.7023,11.0358],[-14.7079,11.0345],[-14.7235,11.0283],[-14.7268,11.0258],[-14.7308,11.0058],[-14.7415,10.9891],[-14.7568,10.9812],[-14.7746,10.988],[-14.7794,10.9833],[-14.7846,10.9811],[-14.7914,10.9804],[-14.8013,10.9805],[-14.7955,10.9997],[-14.8013,11.0119],[-14.8107,11.0145],[-14.8155,11.0047],[-14.8435,10.9675],[-14.8746,10.9733],[-14.8944,11.0303],[-14.9186,11.029],[-14.9015,11.0117],[-14.8988,10.9932],[-14.9041,10.9755],[-14.9111,10.96],[-14.932,10.9757],[-14.9439,10.98],[-14.9596,10.9805],[-14.9264,10.9556],[-14.9144,10.9423],[-14.9111,10.9259],[-14.9209,10.9077],[-14.9398,10.8891],[-14.9581,10.8762],[-14.9664,10.875],[-14.9685,10.8779],[-14.9732,10.8789],[-14.9779,10.8779],[-14.9801,10.875],[-14.979,10.8688],[-14.9742,10.8593],[-14.9732,10.8542],[-14.9732,10.8201],[-14.969,10.8144],[-14.9596,10.81],[-14.9502,10.8038],[-14.9459,10.7928],[-14.9477,10.7876],[-14.9596,10.7683],[-14.9775,10.777],[-15.0139,10.7826],[-15.0316,10.7928],[-15.0526,10.8144],[-15.0694,10.8371],[-15.0795,10.8587],[-15.0811,10.8782],[-15.0743,10.8969],[-15.0589,10.916],[-15.0516,10.9196],[-15.0319,10.9255],[-15.0278,10.9293],[-15.0267,10.9367],[-15.0236,10.9436],[-15.0194,10.9495],[-15.0148,10.9538],[-15.0148,10.96],[-15.0193,10.9597],[-15.0203,10.9614],[-15.0201,10.9642],[-15.021,10.9675],[-14.9926,10.9962],[-14.9926,10.9964],[-14.9591,11.0358],[-14.8631,11.2186],[-14.8432,11.2972],[-14.8282,11.3348],[-14.729,11.478],[-14.7111,11.4976],[-14.6868,11.5107],[-14.6454,11.5151],[-14.5623,11.5056],[-14.5209,11.5129],[-14.4323,11.5606],[-14.3392,11.6106],[-14.3265,11.6206],[-14.3198,11.6305],[-14.3082,11.6545],[-14.3004,11.6632],[-14.2897,11.6689]]]}},{"type":"Feature","properties":{"id":"GIN-5630","name":"Conakry","nameBn":"কোনাক্রি","type":"Administrative Zone","bounds":[-13.7262,9.5058,-13.6433,9.5738],"center":[-13.6847,9.5392]},"geometry":{"type":"Polygon","coordinates":[[[-13.6433,9.5425],[-13.678,9.5227],[-13.7058,9.5145],[-13.7071,9.5122],[-13.7143,9.5076],[-13.7224,9.5058],[-13.7262,9.5111],[-13.7241,9.5195],[-13.7189,9.5223],[-13.7123,9.5237],[-13.7058,9.5281],[-13.6733,9.5738],[-13.6732,9.5738],[-13.6433,9.5425]]]}},{"type":"Feature","properties":{"id":"GIN-5631","name":"Coyah","nameBn":"কোয়াহ প্রশাসনিক অঞ্চল","type":"Prefecture","bounds":[-13.5282,9.5245,-13.0895,9.9986],"center":[-13.3482,9.791]},"geometry":{"type":"Polygon","coordinates":[[[-13.4867,9.5691],[-13.4935,9.5691],[-13.5156,9.5245],[-13.5222,9.578],[-13.5282,9.6501],[-13.4981,9.6891],[-13.4741,9.7342],[-13.4741,9.7672],[-13.4861,9.8243],[-13.4741,9.8994],[-13.4411,9.9535],[-13.393,9.9926],[-13.3119,9.9986],[-13.2818,9.9986],[-13.2398,9.9625],[-13.2187,9.9385],[-13.2097,9.8514],[-13.2247,9.8183],[-13.2458,9.7883],[-13.2338,9.7462],[-13.1947,9.7222],[-13.1526,9.7071],[-13.1076,9.6501],[-13.0926,9.605],[-13.0895,9.5629],[-13.1316,9.5569],[-13.2067,9.5629],[-13.2368,9.581],[-13.2758,9.62],[-13.3179,9.638],[-13.369,9.614],[-13.423,9.596],[-13.4561,9.593],[-13.4867,9.5691]]]}},{"type":"Feature","properties":{"id":"GIN-5632","name":"Dabola","nameBn":"দাবোলা","type":"Prefecture","bounds":[-11.6064,9.9943,-10.5981,11.1126],"center":[-11.2004,10.7774]},"geometry":{"type":"Polygon","coordinates":[[[-11.4492,9.995],[-11.4849,9.9948],[-11.5875,9.9943],[-11.6064,10.0685],[-11.5938,10.157],[-11.5716,10.1886],[-11.5653,10.2424],[-11.566,10.3722],[-11.5527,10.7354],[-11.5533,10.7957],[-11.584,10.8094],[-11.595,10.8192],[-11.5923,10.8256],[-11.5881,10.8665],[-11.5892,10.8989],[-11.6029,10.9653],[-11.5947,10.9763],[-11.5897,10.9798],[-11.5824,10.9865],[-11.4895,11.0642],[-11.4231,11.0642],[-11.4161,11.0291],[-11.1938,11.0261],[-11.1727,11.002],[-11.1397,10.966],[-11.0826,10.945],[-11.0255,10.96],[-10.9144,11.0321],[-10.8332,11.0892],[-10.7581,11.1042],[-10.7031,11.1126],[-10.6944,11.0997],[-10.6962,11.0915],[-10.7115,11.0558],[-10.7183,11.0455],[-10.7246,11.0392],[-10.7295,11.037],[-10.7382,11.0316],[-10.7478,11.0219],[-10.7551,11.0126],[-10.7609,11.0079],[-10.7665,11.0045],[-10.7763,11.0007],[-10.7791,10.9983],[-10.793,10.9834],[-10.7975,10.976],[-10.8006,10.9691],[-10.8077,10.9415],[-10.8166,10.9187],[-10.823,10.9089],[-10.8295,10.9032],[-10.8411,10.9007],[-10.8511,10.8966],[-10.8649,10.8893],[-10.8906,10.8714],[-10.8956,10.8626],[-10.8979,10.8537],[-10.8963,10.8441],[-10.8923,10.8349],[-10.8857,10.8256],[-10.877,10.8167],[-10.8643,10.808],[-10.7309,10.7664],[-10.7228,10.7602],[-10.7183,10.7576],[-10.7127,10.7561],[-10.6982,10.7549],[-10.6925,10.7532],[-10.6871,10.7497],[-10.6775,10.7372],[-10.6729,10.7336],[-10.6479,10.7219],[-10.6435,10.7177],[-10.6395,10.7123],[-10.6262,10.6892],[-10.623,10.6852],[-10.5981,10.6621],[-10.6229,10.6475],[-10.653,10.6115],[-10.7281,10.6025],[-10.8092,10.6085],[-10.8453,10.6445],[-10.8813,10.6565],[-10.9474,10.6325],[-11.0195,10.6085],[-11.1066,10.5213],[-11.1607,10.4733],[-11.2478,10.4643],[-11.3019,10.4192],[-11.377,10.3952],[-11.3921,10.1668],[-11.4221,10.0617],[-11.4492,9.995]]]}},{"type":"Feature","properties":{"id":"GIN-5633","name":"Dalaba","nameBn":"বালাবা প্রশাসনিক অঞ্চল","type":"Prefecture","bounds":[-12.6495,10.4912,-11.7796,11.306],"center":[-12.2144,10.8327]},"geometry":{"type":"Polygon","coordinates":[[[-12.0055,11.2866],[-11.9964,11.2473],[-11.9867,11.2279],[-11.9774,11.2158],[-11.9677,11.2108],[-11.9567,11.2076],[-11.9424,11.2008],[-11.9284,11.1906],[-11.9115,11.1735],[-11.9048,11.1586],[-11.9034,11.142],[-11.9082,11.1111],[-11.9097,11.0893],[-11.9089,11.068],[-11.9037,11.0342],[-11.8968,11.0176],[-11.8881,11.0061],[-11.8784,11.0017],[-11.867,10.9995],[-11.8238,11.0006],[-11.8131,11.0025],[-11.7856,10.969],[-11.7796,10.8969],[-11.8007,10.8488],[-11.8217,10.8038],[-11.8607,10.7857],[-11.9479,10.7797],[-12.029,10.7617],[-12.1011,10.7076],[-12.1732,10.6355],[-12.1972,10.5934],[-12.2754,10.5814],[-12.3114,10.5634],[-12.3595,10.5243],[-12.4151,10.4912],[-12.428,10.4969],[-12.433,10.5054],[-12.4356,10.5251],[-12.4425,10.5311],[-12.4522,10.5349],[-12.4713,10.5401],[-12.4783,10.543],[-12.4903,10.5497],[-12.4958,10.5579],[-12.4972,10.5682],[-12.4909,10.589],[-12.4929,10.6147],[-12.5001,10.619],[-12.5052,10.6189],[-12.5129,10.6166],[-12.5243,10.6093],[-12.5714,10.5634],[-12.6095,10.5439],[-12.6495,10.5287],[-12.6449,10.6746],[-12.6179,10.7317],[-12.5518,10.7767],[-12.4947,10.8248],[-12.4406,10.8368],[-12.4015,10.8999],[-12.3835,10.954],[-12.3384,10.987],[-12.2934,11.0081],[-12.2573,11.0291],[-12.1341,11.0321],[-12.1462,11.0742],[-12.1732,11.0952],[-12.1822,11.1342],[-12.1582,11.1703],[-12.1552,11.2184],[-12.1341,11.2484],[-12.1218,11.293],[-12.1047,11.3026],[-12.0928,11.306],[-12.0857,11.3033],[-12.075,11.2938],[-12.0693,11.291],[-12.0624,11.2905],[-12.0555,11.291],[-12.0489,11.2908],[-12.03,11.2857],[-12.0055,11.2866]]]}},{"type":"Feature","properties":{"id":"GIN-5634","name":"Dinguiraye","nameBn":"ডিঙ্গুইরায় প্রশাসনিক অঞ্চল","type":"Prefecture","bounds":[-11.4231,10.945,-9.8888,12.2195],"center":[-10.6749,11.5609]},"geometry":{"type":"Polygon","coordinates":[[[-10.9521,12.2195],[-10.9277,12.213],[-10.9098,12.2001],[-10.8696,12.1384],[-10.8464,12.1214],[-10.8229,12.1105],[-10.8049,12.096],[-10.7985,12.0681],[-10.8012,12.0592],[-10.811,12.0415],[-10.8124,12.0334],[-10.8078,12.0228],[-10.781,11.9962],[-10.7403,11.9199],[-10.7114,11.8904],[-10.67,11.892],[-10.6551,11.899],[-10.6452,11.9084],[-10.6342,11.9254],[-10.6253,11.9439],[-10.6215,11.9577],[-10.6138,11.9677],[-10.5957,11.9799],[-10.575,11.9903],[-10.5595,11.9952],[-10.5665,12.0173],[-10.5554,12.0293],[-10.5354,12.0387],[-10.5151,12.0529],[-10.5149,12.0601],[-10.5177,12.0707],[-10.5173,12.0803],[-10.508,12.0846],[-10.5044,12.0884],[-10.5127,12.1085],[-10.5116,12.1181],[-10.4935,12.1244],[-10.4457,12.1207],[-10.436,12.1352],[-10.4289,12.1434],[-10.3946,12.1716],[-10.3814,12.1801],[-10.3748,12.1748],[-10.3682,12.1715],[-10.3534,12.1665],[-10.3541,12.1809],[-10.3484,12.1848],[-10.3393,12.1855],[-10.3299,12.1904],[-10.3256,12.1998],[-10.3236,12.202],[-10.3165,12.1969],[-10.3136,12.1911],[-10.311,12.191],[-10.305,12.2029],[-10.2669,12.2178],[-10.259,12.2138],[-10.2541,12.2072],[-10.2478,12.2011],[-10.2149,12.1946],[-10.1798,12.1782],[-10.1602,12.1745],[-10.1358,12.1755],[-10.1287,12.1745],[-10.1188,12.1702],[-10.1052,12.1586],[-10.0973,12.1537],[-10.0903,12.1516],[-10.087,12.1506],[-10.0704,12.1499],[-10.0602,12.1475],[-10.0481,12.1414],[-10.0277,12.1257],[-10.0155,12.1199],[-9.9964,12.1141],[-9.9616,12.096],[-9.9415,12.0928],[-9.9232,12.0876],[-9.8888,12.0606],[-9.9547,12.0185],[-9.9939,11.9651],[-10.0829,11.8974],[-10.1833,11.8448],[-10.1908,11.8346],[-10.1996,11.8253],[-10.2077,11.8149],[-10.1505,11.7265],[-10.1149,11.6945],[-10.0651,11.641],[-10.0259,11.5449],[-10.0295,11.3775],[-10.1399,11.374],[-10.2431,11.4523],[-10.3215,11.4665],[-10.3856,11.4416],[-10.3998,11.3989],[-10.3434,11.2695],[-10.3428,11.2066],[-10.3749,11.1781],[-10.4568,11.1745],[-10.5494,11.1745],[-10.5814,11.1817],[-10.5976,11.2086],[-10.6491,11.2351],[-10.6954,11.2279],[-10.7025,11.1852],[-10.7031,11.1126],[-10.7581,11.1042],[-10.8332,11.0892],[-10.9144,11.0321],[-11.0255,10.96],[-11.0826,10.945],[-11.1397,10.966],[-11.1727,11.002],[-11.1938,11.0261],[-11.4161,11.0291],[-11.4231,11.0642],[-11.3125,11.14],[-11.2492,11.1843],[-11.2492,11.2285],[-11.2714,11.2823],[-11.3062,11.3262],[-11.2663,11.3853],[-11.2507,11.4002],[-11.2415,11.4071],[-11.2309,11.4126],[-11.1958,11.4246],[-11.1899,11.4297],[-11.1848,11.4366],[-11.1725,11.4469],[-11.1579,11.4563],[-11.1459,11.4604],[-11.1392,11.4674],[-11.1324,11.483],[-11.1373,11.4902],[-11.1956,11.518],[-11.2034,11.5238],[-11.2108,11.5305],[-11.2141,11.5345],[-11.2168,11.5385],[-11.2182,11.5444],[-11.2182,11.5515],[-11.2158,11.5619],[-11.1391,11.6576],[-11.1348,11.702],[-11.1323,11.7305],[-11.1309,11.7653],[-11.1193,11.7875],[-11.1193,11.8302],[-11.1193,11.8911],[-11.1659,11.9351],[-11.1815,11.9713],[-11.1846,12.0211],[-11.1763,12.0295],[-11.1656,12.0486],[-11.1594,12.0775],[-11.1527,12.0809],[-11.1442,12.0813],[-11.1363,12.0851],[-11.1221,12.1073],[-11.1175,12.1127],[-11.1166,12.1137],[-11.0843,12.1366],[-11.0728,12.1495],[-11.0598,12.1924],[-11.0523,12.2025],[-11.0388,12.2053],[-11.0155,12.2044],[-10.972,12.2186],[-10.9521,12.2195]]]}},{"type":"Feature","properties":{"id":"GIN-5635","name":"Dubréka","nameBn":"দেব্রেকা প্রশাসনিক অঞ্চল","type":"Prefecture","bounds":[-13.9134,9.5002,-13.1136,10.4042],"center":[-13.468,10.1137]},"geometry":{"type":"Polygon","coordinates":[[[-13.6733,9.5738],[-13.6527,9.5972],[-13.6408,9.6237],[-13.6258,9.6473],[-13.623,9.6629],[-13.6244,9.7203],[-13.6232,9.7274],[-13.6186,9.7321],[-13.6049,9.7374],[-13.6022,9.7438],[-13.5954,9.755],[-13.5807,9.762],[-13.5665,9.7711],[-13.5611,9.7882],[-13.5818,9.7772],[-13.5943,9.7742],[-13.6041,9.7802],[-13.6478,9.8315],[-13.6512,9.8428],[-13.6552,9.8417],[-13.6581,9.8405],[-13.6648,9.8366],[-13.6538,9.8052],[-13.6505,9.777],[-13.6613,9.7545],[-13.6921,9.7404],[-13.7289,9.7441],[-13.7472,9.7678],[-13.7498,9.7999],[-13.7399,9.8292],[-13.6983,9.8808],[-13.682,9.9135],[-13.6853,9.9465],[-13.6904,9.9508],[-13.6903,9.9509],[-13.6902,9.9525],[-13.6999,9.9691],[-13.7081,9.9771],[-13.7181,9.9816],[-13.7241,9.9827],[-13.7634,9.9829],[-13.7752,9.985],[-13.7802,9.9869],[-13.7851,9.9896],[-13.8991,10.0849],[-13.9037,10.0905],[-13.9075,10.0973],[-13.9104,10.1042],[-13.9134,10.1169],[-13.912,10.124],[-13.9078,10.129],[-13.8695,10.1855],[-13.8411,10.2392],[-13.819,10.2961],[-13.7558,10.2961],[-13.6775,10.2803],[-13.4839,10.2392],[-13.4081,10.2582],[-13.367,10.3182],[-13.2946,10.3765],[-13.2121,10.3972],[-13.1346,10.4042],[-13.1346,10.296],[-13.1196,10.275],[-13.1136,10.2419],[-13.1316,10.2119],[-13.1556,10.1879],[-13.1556,10.1097],[-13.2037,10.0917],[-13.2338,10.0647],[-13.2428,10.0376],[-13.2818,9.9986],[-13.3119,9.9986],[-13.393,9.9926],[-13.4411,9.9535],[-13.4741,9.8994],[-13.4861,9.8243],[-13.4741,9.7672],[-13.4741,9.7342],[-13.4981,9.6891],[-13.5282,9.6501],[-13.5222,9.578],[-13.5156,9.5245],[-13.529,9.5057],[-13.5475,9.5002],[-13.5614,9.509],[-13.5753,9.5272],[-13.5855,9.5491],[-13.5884,9.5691],[-13.619,9.5564],[-13.6433,9.5425],[-13.6732,9.5738],[-13.6733,9.5738]]]}},{"type":"Feature","properties":{"id":"GIN-5636","name":"Faranah","nameBn":"ফারানাহ","type":"Prefecture","bounds":[-11.4492,9.0476,-10.1224,10.6621],"center":[-10.881,9.9852]},"geometry":{"type":"Polygon","coordinates":[[[-10.8017,9.3873],[-10.8194,9.3881],[-10.8318,9.3921],[-10.8222,9.4009],[-10.8115,9.4083],[-10.8134,9.4139],[-10.8291,9.4239],[-10.844,9.4403],[-10.8549,9.4553],[-10.8591,9.473],[-10.8537,9.4979],[-10.8526,9.5121],[-10.8602,9.5185],[-10.8706,9.5234],[-10.8777,9.5327],[-10.8828,9.5602],[-10.8863,9.5684],[-10.896,9.5783],[-10.9217,9.5959],[-10.9291,9.6057],[-10.9358,9.6319],[-10.9401,9.6397],[-10.9466,9.6448],[-10.9629,9.6508],[-10.9685,9.6542],[-10.9746,9.6638],[-10.9863,9.6978],[-11.0101,9.7427],[-11.0449,9.7871],[-11.086,9.8262],[-11.1603,9.8728],[-11.1677,9.8845],[-11.1813,9.9504],[-11.1885,9.9726],[-11.1996,9.9822],[-11.2134,9.9834],[-11.2473,9.9934],[-11.2727,9.996],[-11.4492,9.995],[-11.4221,10.0617],[-11.3921,10.1668],[-11.377,10.3952],[-11.3019,10.4192],[-11.2478,10.4643],[-11.1607,10.4733],[-11.1066,10.5213],[-11.0195,10.6085],[-10.9474,10.6325],[-10.8813,10.6565],[-10.8453,10.6445],[-10.8092,10.6085],[-10.7281,10.6025],[-10.653,10.6115],[-10.6229,10.6475],[-10.5981,10.6621],[-10.5852,10.6475],[-10.5788,10.6378],[-10.5766,10.6307],[-10.5764,10.623],[-10.577,10.6132],[-10.5757,10.6065],[-10.5727,10.6003],[-10.5691,10.5965],[-10.5647,10.5937],[-10.5592,10.5927],[-10.5373,10.5907],[-10.5298,10.5882],[-10.523,10.5847],[-10.517,10.5799],[-10.4707,10.5301],[-10.4602,10.5238],[-10.455,10.5213],[-10.4417,10.5059],[-10.4333,10.5082],[-10.424,10.5097],[-10.4168,10.5139],[-10.4119,10.5205],[-10.4091,10.5293],[-10.3987,10.526],[-10.3702,10.5223],[-10.3508,10.5221],[-10.3426,10.5231],[-10.3047,10.5322],[-10.2963,10.5291],[-10.2898,10.5225],[-10.2794,10.5151],[-10.2644,10.5112],[-10.2375,10.5125],[-10.2242,10.5082],[-10.2364,10.4973],[-10.2348,10.4884],[-10.2136,10.4704],[-10.2098,10.4635],[-10.2024,10.4435],[-10.1999,10.4393],[-10.1911,10.4426],[-10.1895,10.4499],[-10.1896,10.4571],[-10.186,10.4604],[-10.1787,10.464],[-10.1553,10.4813],[-10.1491,10.4878],[-10.1459,10.5053],[-10.1468,10.5217],[-10.1381,10.5268],[-10.1342,10.5238],[-10.1306,10.4964],[-10.1292,10.4923],[-10.1269,10.4878],[-10.124,10.4838],[-10.1224,10.4785],[-10.1234,10.4715],[-10.1314,10.4587],[-10.1371,10.4524],[-10.1419,10.4459],[-10.1442,10.4397],[-10.1443,10.429],[-10.1422,10.4226],[-10.1391,10.4176],[-10.136,10.4139],[-10.1348,10.4088],[-10.1374,10.3989],[-10.1701,10.334],[-10.1772,10.3247],[-10.1837,10.3216],[-10.1904,10.3211],[-10.2032,10.3217],[-10.2242,10.3268],[-10.2283,10.3245],[-10.2303,10.3195],[-10.2296,10.3099],[-10.2283,10.3031],[-10.228,10.2939],[-10.2326,10.2642],[-10.2324,10.2542],[-10.231,10.2468],[-10.229,10.2418],[-10.2242,10.2258],[-10.2191,10.2168],[-10.2161,10.213],[-10.2106,10.2046],[-10.2087,10.1998],[-10.2088,10.1929],[-10.2108,10.184],[-10.2198,10.1679],[-10.2258,10.1601],[-10.2316,10.1552],[-10.241,10.1505],[-10.245,10.1463],[-10.2668,10.1139],[-10.2782,10.106],[-10.2817,10.1026],[-10.2845,10.0986],[-10.2877,10.0948],[-10.2913,10.0913],[-10.2953,10.0884],[-10.2997,10.0862],[-10.3044,10.0853],[-10.3148,10.0859],[-10.3199,10.0854],[-10.3233,10.0809],[-10.3254,10.0738],[-10.3248,10.0513],[-10.3257,10.0423],[-10.3277,10.0343],[-10.3336,10.0236],[-10.3383,10.0178],[-10.3466,10.0102],[-10.3516,10.0034],[-10.3538,9.9991],[-10.3543,9.9953],[-10.3545,9.9891],[-10.3527,9.9786],[-10.3435,9.957],[-10.342,9.9514],[-10.3396,9.9327],[-10.3376,9.9277],[-10.332,9.9194],[-10.3281,9.9095],[-10.323,9.9006],[-10.3216,9.8955],[-10.3227,9.8886],[-10.325,9.8809],[-10.3384,9.8585],[-10.3424,9.8556],[-10.3477,9.8539],[-10.3606,9.8525],[-10.3664,9.8511],[-10.3707,9.8453],[-10.3735,9.8356],[-10.3751,9.8034],[-10.3737,9.795],[-10.3718,9.7899],[-10.3689,9.7858],[-10.3668,9.7819],[-10.3663,9.7782],[-10.3709,9.7744],[-10.3819,9.7702],[-10.386,9.7668],[-10.3945,9.7569],[-10.4043,9.7509],[-10.4081,9.7479],[-10.4113,9.7443],[-10.414,9.7401],[-10.4154,9.7333],[-10.4156,9.7229],[-10.4076,9.6743],[-10.4073,9.66],[-10.41,9.6347],[-10.4177,9.6117],[-10.4216,9.5539],[-10.4066,9.5089],[-10.3886,9.4668],[-10.3796,9.3857],[-10.3916,9.2925],[-10.4337,9.2625],[-10.4607,9.2264],[-10.4782,9.1852],[-10.4868,9.1465],[-10.4983,9.1152],[-10.5018,9.1097],[-10.5163,9.0971],[-10.5716,9.0595],[-10.5931,9.0476],[-10.5941,9.0541],[-10.606,9.0638],[-10.6293,9.0704],[-10.6691,9.0744],[-10.7104,9.073],[-10.7463,9.0838],[-10.7535,9.1201],[-10.7426,9.1633],[-10.7247,9.1945],[-10.715,9.2014],[-10.7038,9.2063],[-10.6932,9.2128],[-10.6852,9.2245],[-10.6839,9.2338],[-10.6879,9.2507],[-10.6881,9.2593],[-10.6835,9.2718],[-10.6777,9.2829],[-10.6738,9.294],[-10.6751,9.3065],[-10.7178,9.3433],[-10.7282,9.3482],[-10.7415,9.3571],[-10.7535,9.3676],[-10.7655,9.3852],[-10.7748,9.3873],[-10.7854,9.3872],[-10.7952,9.3885],[-10.8017,9.3873]]]}},{"type":"Feature","properties":{"id":"GIN-5637","name":"Forécariah","nameBn":"ফোরকারিয়া","type":"Prefecture","bounds":[-13.5209,9.0415,-12.6016,9.6981],"center":[-13.0624,9.3854]},"geometry":{"type":"Polygon","coordinates":[[[-12.6016,9.6517],[-12.6028,9.6094],[-12.6068,9.6007],[-12.6149,9.6001],[-12.6246,9.6013],[-12.6338,9.5979],[-12.6386,9.5894],[-12.6473,9.5566],[-12.6499,9.5521],[-12.6521,9.5494],[-12.6553,9.5477],[-12.661,9.546],[-12.6686,9.5424],[-12.6693,9.5382],[-12.6673,9.5337],[-12.6675,9.5287],[-12.7016,9.4202],[-12.7062,9.4139],[-12.7131,9.4082],[-12.7165,9.4044],[-12.719,9.3984],[-12.7229,9.3921],[-12.7278,9.3931],[-12.7329,9.3965],[-12.7372,9.3972],[-12.7541,9.3878],[-12.7598,9.3828],[-12.7678,9.3723],[-12.7676,9.3644],[-12.7636,9.3553],[-12.7642,9.3477],[-12.7779,9.3438],[-12.7953,9.3351],[-12.8191,9.2958],[-12.8358,9.282],[-12.8569,9.2785],[-12.8761,9.2798],[-12.8956,9.2785],[-12.9175,9.267],[-12.937,9.2871],[-12.9579,9.2724],[-12.9738,9.2416],[-12.9784,9.2128],[-12.9739,9.2028],[-12.9602,9.1861],[-12.9592,9.1778],[-12.9628,9.1767],[-12.9785,9.1752],[-12.9842,9.1723],[-12.9938,9.1587],[-13.002,9.1441],[-13.0152,9.1128],[-13.0289,9.096],[-13.047,9.0845],[-13.0856,9.066],[-13.1159,9.0439],[-13.1311,9.0415],[-13.1538,9.0493],[-13.1918,9.073],[-13.2075,9.0767],[-13.2336,9.0721],[-13.2774,9.0586],[-13.3011,9.0415],[-13.3124,9.0483],[-13.3216,9.0566],[-13.3258,9.0678],[-13.3222,9.0831],[-13.3194,9.0836],[-13.3045,9.0831],[-13.3006,9.0846],[-13.3009,9.0882],[-13.3022,9.0925],[-13.3011,9.0961],[-13.2738,9.124],[-13.2549,9.1549],[-13.2431,9.1697],[-13.2259,9.1793],[-13.2082,9.1801],[-13.1761,9.1737],[-13.1577,9.1793],[-13.1577,9.1855],[-13.2185,9.1833],[-13.2473,9.186],[-13.2595,9.1964],[-13.2577,9.2003],[-13.2489,9.2083],[-13.2458,9.2134],[-13.2458,9.2265],[-13.2379,9.2466],[-13.2328,9.2674],[-13.2549,9.2448],[-13.2646,9.2204],[-13.2704,9.194],[-13.2806,9.165],[-13.3049,9.1755],[-13.3153,9.1821],[-13.3222,9.1929],[-13.3136,9.1979],[-13.3116,9.2072],[-13.3147,9.2333],[-13.3136,9.2331],[-13.3112,9.238],[-13.3089,9.2448],[-13.3079,9.2503],[-13.31,9.2538],[-13.3197,9.2593],[-13.3222,9.2612],[-13.3251,9.2813],[-13.3253,9.311],[-13.3187,9.3295],[-13.3011,9.3159],[-13.3038,9.3378],[-13.3034,9.3471],[-13.3011,9.3568],[-13.3079,9.3568],[-13.314,9.3496],[-13.3222,9.3454],[-13.3328,9.3436],[-13.3458,9.3432],[-13.3529,9.3388],[-13.3578,9.3284],[-13.3679,9.2822],[-13.3745,9.2728],[-13.3975,9.2838],[-13.4078,9.287],[-13.412,9.2934],[-13.4041,9.3084],[-13.4141,9.3172],[-13.4238,9.3329],[-13.4308,9.352],[-13.432,9.3711],[-13.4252,9.3899],[-13.4033,9.4182],[-13.3966,9.4394],[-13.4041,9.4394],[-13.4284,9.4207],[-13.4654,9.4182],[-13.4992,9.4288],[-13.514,9.4496],[-13.5209,9.4795],[-13.5207,9.4951],[-13.5102,9.5111],[-13.5006,9.5218],[-13.4932,9.5349],[-13.4884,9.5506],[-13.4867,9.5691],[-13.4561,9.593],[-13.423,9.596],[-13.369,9.614],[-13.3179,9.638],[-13.2758,9.62],[-13.2368,9.581],[-13.2067,9.5629],[-13.1316,9.5569],[-13.0895,9.5629],[-13.0475,9.584],[-13.0235,9.62],[-12.9844,9.6501],[-12.9243,9.6831],[-12.8672,9.6981],[-12.711,9.6951],[-12.6539,9.6681],[-12.6016,9.6517]]]}},{"type":"Feature","properties":{"id":"GIN-5638","name":"Fria","nameBn":"ফ্রিয়া প্রশাসনিক অঞ্চল","type":"Prefecture","bounds":[-13.8286,10.2392,-13.1963,10.7148],"center":[-13.4957,10.4732]},"geometry":{"type":"Polygon","coordinates":[[[-13.6124,10.7148],[-13.4049,10.7007],[-13.2089,10.5964],[-13.1963,10.5142],[-13.2184,10.4763],[-13.2153,10.4383],[-13.2121,10.3972],[-13.2946,10.3765],[-13.367,10.3182],[-13.4081,10.2582],[-13.4839,10.2392],[-13.6775,10.2803],[-13.7558,10.2961],[-13.819,10.2961],[-13.8286,10.3531],[-13.8106,10.3952],[-13.7565,10.4552],[-13.7325,10.4913],[-13.6904,10.5063],[-13.6724,10.5183],[-13.6243,10.5544],[-13.6124,10.7148]]]}},{"type":"Feature","properties":{"id":"GIN-5639","name":"Gaoual","nameBn":"গাউল প্রশাসনিক অঞ্চল","type":"Prefecture","bounds":[-14.048,11.1295,-12.7042,12.3109],"center":[-13.3943,11.7453]},"geometry":{"type":"Polygon","coordinates":[[[-13.8086,12.2561],[-13.7408,12.2569],[-13.7118,12.2675],[-13.6953,12.2925],[-13.6684,12.2404],[-13.667,12.2321],[-13.655,12.2347],[-13.5936,12.2639],[-13.5787,12.2767],[-13.5712,12.2811],[-13.5622,12.2828],[-13.538,12.2803],[-13.5333,12.2899],[-13.5275,12.291],[-13.515,12.2818],[-13.4772,12.2722],[-13.4866,12.3006],[-13.4846,12.3098],[-13.4746,12.3026],[-13.4667,12.2927],[-13.4557,12.2814],[-13.4447,12.2774],[-13.4213,12.3089],[-13.41,12.3098],[-13.398,12.3109],[-13.3776,12.3014],[-13.3712,12.2879],[-13.3779,12.2785],[-13.3857,12.2759],[-13.3905,12.2713],[-13.3879,12.256],[-13.3797,12.2433],[-13.3691,12.2364],[-13.3551,12.2274],[-13.3459,12.2169],[-13.3386,12.2011],[-13.3335,12.1859],[-13.3323,12.1704],[-13.3425,12.1363],[-13.3444,12.1201],[-13.3418,12.1049],[-13.3344,12.0908],[-13.3271,12.0809],[-13.3181,12.0712],[-13.3076,12.0652],[-13.296,12.0665],[-13.2963,12.0736],[-13.3012,12.0855],[-13.3021,12.0953],[-13.2902,12.0963],[-13.2768,12.0885],[-13.2731,12.0767],[-13.2741,12.0629],[-13.2751,12.0484],[-13.2729,12.0427],[-13.2642,12.0301],[-13.2437,12.0243],[-13.2111,12.0154],[-13.0181,12.0169],[-13.0047,12.0422],[-12.9809,12.0585],[-12.9602,12.0822],[-12.8948,12.0852],[-12.8666,12.1045],[-12.8444,12.1327],[-12.8277,12.1542],[-12.814,12.1307],[-12.8087,12.1137],[-12.8077,12.1073],[-12.8074,12.0997],[-12.8238,11.992],[-12.8284,11.9775],[-12.8627,11.9154],[-12.863,11.9089],[-12.8586,11.9037],[-12.8519,11.901],[-12.8443,11.8988],[-12.839,11.8979],[-12.8338,11.8997],[-12.8289,11.9046],[-12.8201,11.9191],[-12.8147,11.9248],[-12.8089,11.9277],[-12.8018,11.9277],[-12.7969,11.9256],[-12.7935,11.9214],[-12.7867,11.9105],[-12.7817,11.8998],[-12.7802,11.8918],[-12.7807,11.8855],[-12.7823,11.8804],[-12.8062,11.8354],[-12.8151,11.7884],[-12.8159,11.7638],[-12.8087,11.7222],[-12.8082,11.7048],[-12.807,11.6964],[-12.8053,11.6917],[-12.8028,11.6868],[-12.7989,11.6834],[-12.789,11.6792],[-12.7853,11.676],[-12.7804,11.667],[-12.7762,11.6569],[-12.7746,11.6516],[-12.7723,11.6472],[-12.7666,11.6429],[-12.7646,11.6403],[-12.7625,11.6367],[-12.7597,11.633],[-12.756,11.6293],[-12.752,11.626],[-12.748,11.6233],[-12.7125,11.6095],[-12.7079,11.6067],[-12.7053,11.6017],[-12.7045,11.5949],[-12.7067,11.5839],[-12.7061,11.5773],[-12.7044,11.5715],[-12.7042,11.5662],[-12.707,11.5593],[-12.7174,11.5507],[-12.7244,11.5462],[-12.7462,11.5372],[-12.7551,11.5316],[-12.7611,11.5249],[-12.8008,11.4691],[-12.8234,11.4534],[-12.881,11.427],[-12.8853,11.4242],[-12.9084,11.4009],[-12.9215,11.3905],[-12.9261,11.3881],[-12.9303,11.3854],[-12.9353,11.3778],[-12.9405,11.3665],[-12.9553,11.3169],[-12.9659,11.296],[-12.9849,11.2663],[-12.9897,11.2562],[-12.9687,11.1685],[-13.0405,11.1717],[-13.0498,11.1674],[-13.0882,11.1535],[-13.1761,11.1327],[-13.2271,11.1295],[-13.2337,11.1303],[-13.244,11.1377],[-13.2457,11.1424],[-13.2642,11.331],[-13.2797,11.3355],[-13.284,11.3373],[-13.2941,11.3376],[-13.3543,11.3486],[-13.3954,11.3613],[-13.4396,11.3594],[-13.4454,11.3631],[-13.4537,11.3652],[-13.4643,11.3661],[-13.5511,11.3642],[-13.5658,11.3617],[-13.5808,11.3565],[-13.6054,11.3445],[-13.6162,11.3361],[-13.6237,11.3291],[-13.6298,11.3245],[-13.6386,11.3214],[-13.6548,11.32],[-13.667,11.32],[-13.685,11.3224],[-13.6903,11.3243],[-13.6947,11.3264],[-13.6988,11.3278],[-13.7071,11.3286],[-13.745,11.3225],[-13.7915,11.3061],[-13.8066,11.292],[-13.8407,11.3445],[-13.8827,11.3536],[-13.9098,11.3776],[-13.9188,11.4287],[-13.9338,11.4858],[-13.9698,11.5128],[-14.0209,11.5128],[-14.048,11.5338],[-14.048,11.5639],[-14.0239,11.5939],[-14.0151,11.6371],[-13.9965,11.6438],[-13.9534,11.6697],[-13.9454,11.6757],[-13.9237,11.665],[-13.9036,11.6654],[-13.8864,11.6756],[-13.8735,11.6945],[-13.8707,11.7041],[-13.8685,11.727],[-13.873,11.7384],[-13.8701,11.7437],[-13.855,11.7434],[-13.8463,11.7373],[-13.843,11.7173],[-13.8346,11.7121],[-13.8201,11.7081],[-13.8195,11.7017],[-13.8217,11.6942],[-13.8158,11.6868],[-13.7957,11.684],[-13.77,11.6887],[-13.7458,11.6982],[-13.7299,11.7098],[-13.7248,11.7231],[-13.7196,11.7661],[-13.7194,11.784],[-13.7346,11.9019],[-13.7313,11.9434],[-13.7226,11.9839],[-13.7239,12.0028],[-13.7349,12.0193],[-13.7444,12.0239],[-13.7796,12.0293],[-13.7959,12.0363],[-13.8078,12.0443],[-13.8296,12.0681],[-13.8352,12.0778],[-13.8377,12.0854],[-13.8424,12.0913],[-13.8697,12.1007],[-13.8798,12.1077],[-13.8993,12.1262],[-13.9184,12.1378],[-13.9387,12.1443],[-13.9649,12.1479],[-13.9725,12.1516],[-13.9684,12.1626],[-13.9683,12.184],[-13.9657,12.1942],[-13.9439,12.2186],[-13.8832,12.2464],[-13.859,12.266],[-13.84,12.2771],[-13.8126,12.2836],[-13.7957,12.2787],[-13.8086,12.2561]]]}},{"type":"Feature","properties":{"id":"GIN-5640","name":"Guéckédou","nameBn":"গুয়েকেদু প্রশাসনিক অঞ্চল","type":"Prefecture","bounds":[-10.7353,8.2696,-9.77,9.1852],"center":[-10.2232,8.7033]},"geometry":{"type":"Polygon","coordinates":[[[-10.5922,9.0417],[-10.5931,9.0476],[-10.5716,9.0595],[-10.5163,9.0971],[-10.5018,9.1097],[-10.4983,9.1152],[-10.4868,9.1465],[-10.4782,9.1852],[-10.4423,9.164],[-10.437,9.1577],[-10.4323,9.1473],[-10.4416,9.085],[-10.4398,9.0785],[-10.4364,9.0743],[-10.3998,9.047],[-10.3848,9.0427],[-10.2943,8.9367],[-10.2928,8.9309],[-10.2906,8.9261],[-10.2878,8.9226],[-10.2795,8.9194],[-10.2384,8.9093],[-10.2234,8.902],[-10.2136,8.8946],[-10.204,8.8753],[-10.2022,8.8723],[-10.1893,8.8712],[-10.1672,8.8716],[-10.0871,8.8831],[-10.0702,8.8882],[-10.0564,8.896],[-10.0498,8.901],[-10.0412,8.909],[-9.9897,8.9392],[-9.98,8.943],[-9.9376,8.9378],[-9.77,8.9003],[-9.7817,8.8599],[-9.7937,8.8269],[-9.8388,8.8088],[-9.8748,8.7878],[-9.9079,8.7547],[-9.9199,8.6917],[-9.8728,8.5004],[-9.8869,8.4966],[-9.8919,8.4959],[-9.9114,8.4957],[-9.9281,8.4934],[-9.9442,8.4883],[-9.9611,8.4796],[-10.0002,8.4493],[-10.0404,8.4257],[-10.0617,8.4222],[-10.075,8.4266],[-10.0794,8.44],[-10.0693,8.4869],[-10.0761,8.5015],[-10.0911,8.5101],[-10.148,8.5243],[-10.1649,8.5246],[-10.1818,8.5196],[-10.2156,8.4866],[-10.2324,8.4771],[-10.2403,8.4937],[-10.2608,8.4859],[-10.2713,8.4841],[-10.2822,8.4846],[-10.2937,8.4831],[-10.3022,8.4859],[-10.3102,8.4904],[-10.3376,8.4986],[-10.3443,8.4991],[-10.3747,8.4948],[-10.3898,8.4891],[-10.4024,8.481],[-10.4141,8.4702],[-10.4238,8.4566],[-10.448,8.4076],[-10.4602,8.3922],[-10.5193,8.3348],[-10.5544,8.3118],[-10.5727,8.3046],[-10.5833,8.3069],[-10.6119,8.3253],[-10.6267,8.3315],[-10.6598,8.3333],[-10.6882,8.3241],[-10.7079,8.3031],[-10.7152,8.2696],[-10.7353,8.2873],[-10.725,8.3199],[-10.702,8.3536],[-10.6838,8.3749],[-10.6691,8.3991],[-10.6547,8.4855],[-10.6439,8.4869],[-10.6411,8.4948],[-10.6412,8.5066],[-10.6389,8.5199],[-10.6319,8.532],[-10.6165,8.5465],[-10.6005,8.5757],[-10.5846,8.5968],[-10.5654,8.6128],[-10.5452,8.6168],[-10.5221,8.6186],[-10.5033,8.6316],[-10.4897,8.651],[-10.4819,8.6725],[-10.5248,8.7295],[-10.5302,8.7392],[-10.5453,8.75],[-10.5863,8.8041],[-10.5891,8.8066],[-10.5963,8.8112],[-10.5997,8.8154],[-10.6002,8.819],[-10.5991,8.8296],[-10.5994,8.834],[-10.6085,8.8623],[-10.6101,8.8723],[-10.6119,8.9451],[-10.6071,8.9798],[-10.5918,9.0391],[-10.5922,9.0417]]]}},{"type":"Feature","properties":{"id":"GIN-5641","name":"Kankan","nameBn":"কানকান অঞ্চল","type":"Prefecture","bounds":[-9.9552,9.3352,-8.0704,10.7497],"center":[-9.1262,10.1319]},"geometry":{"type":"Polygon","coordinates":[[[-8.1524,9.95],[-8.1738,9.9419],[-8.1747,9.933],[-8.1715,9.9228],[-8.1679,9.9147],[-8.1645,9.9127],[-8.159,9.9124],[-8.1532,9.9109],[-8.1495,9.9053],[-8.1472,9.8879],[-8.1457,9.8825],[-8.1473,9.8801],[-8.1521,9.8788],[-8.1551,9.8752],[-8.151,9.8661],[-8.1469,9.8647],[-8.1281,9.8662],[-8.1235,9.8449],[-8.1603,9.5848],[-8.1616,9.5756],[-8.161,9.5536],[-8.1576,9.5309],[-8.1529,9.5131],[-8.1454,9.4971],[-8.0872,9.4154],[-8.0704,9.3975],[-8.1486,9.4007],[-8.2113,9.3722],[-8.2711,9.3409],[-8.3195,9.3352],[-8.3851,9.3637],[-8.4278,9.3779],[-8.4791,9.3808],[-8.4658,9.4578],[-8.4748,9.5209],[-8.5229,9.584],[-8.5709,9.626],[-8.631,9.6501],[-8.6731,9.6681],[-8.7752,9.6741],[-8.8143,9.6831],[-8.8383,9.7222],[-8.8834,9.7402],[-9.0246,9.7312],[-9.1237,9.6801],[-9.1778,9.638],[-9.2139,9.4968],[-9.2212,9.4262],[-9.3443,9.4672],[-9.5495,9.459],[-9.6293,9.5366],[-9.6328,9.5363],[-9.662,9.5416],[-9.6711,9.5417],[-9.7553,9.5578],[-9.8334,9.5531],[-9.8932,9.5962],[-9.9552,9.669],[-9.9229,9.6891],[-9.8508,9.7011],[-9.8147,9.7492],[-9.7787,9.7732],[-9.7757,9.8273],[-9.7396,9.8724],[-9.7006,9.9024],[-9.6916,10.0016],[-9.7186,10.0466],[-9.7186,10.2029],[-9.6826,10.284],[-9.6675,10.4372],[-9.6195,10.4913],[-9.5113,10.6025],[-9.4602,10.6776],[-9.4242,10.7226],[-9.3731,10.7497],[-9.301,10.7226],[-9.2139,10.7046],[-9.1598,10.6806],[-8.9645,10.6656],[-8.9555,10.5604],[-8.9465,10.5033],[-8.8984,10.4492],[-8.8563,10.4342],[-8.7842,10.4192],[-8.7482,10.3922],[-8.7302,10.3321],[-8.7241,10.284],[-8.6731,10.2329],[-8.5739,10.2179],[-8.4778,10.1999],[-8.4297,10.1788],[-8.4207,10.1278],[-8.3907,10.0587],[-8.3396,10.0046],[-8.2615,9.9775],[-8.2134,9.9565],[-8.1524,9.95]]]}},{"type":"Feature","properties":{"id":"GIN-5643","name":"Kindia","nameBn":"কিন্ডিয়া অঞ্চল","type":"Prefecture","bounds":[-13.2818,9.5629,-12.1098,10.619],"center":[-12.7298,10.0552]},"geometry":{"type":"Polygon","coordinates":[[[-12.1098,9.8817],[-12.1413,9.8749],[-12.1583,9.8756],[-12.1748,9.8792],[-12.1936,9.8861],[-12.2174,9.9006],[-12.2356,9.9168],[-12.2536,9.9284],[-12.2767,9.9293],[-12.427,9.8976],[-12.4723,9.8813],[-12.5083,9.8604],[-12.5143,9.8513],[-12.515,9.8451],[-12.5137,9.8383],[-12.5136,9.8278],[-12.5273,9.7536],[-12.5266,9.7506],[-12.5229,9.7394],[-12.5225,9.7345],[-12.5256,9.7321],[-12.5307,9.7328],[-12.5357,9.7328],[-12.5377,9.7279],[-12.5375,9.7157],[-12.5388,9.7119],[-12.542,9.7113],[-12.5731,9.6926],[-12.5823,9.6834],[-12.5986,9.6549],[-12.6016,9.6517],[-12.6539,9.6681],[-12.711,9.6951],[-12.8672,9.6981],[-12.9243,9.6831],[-12.9844,9.6501],[-13.0235,9.62],[-13.0475,9.584],[-13.0895,9.5629],[-13.0926,9.605],[-13.1076,9.6501],[-13.1526,9.7071],[-13.1947,9.7222],[-13.2338,9.7462],[-13.2458,9.7883],[-13.2247,9.8183],[-13.2097,9.8514],[-13.2187,9.9385],[-13.2398,9.9625],[-13.2818,9.9986],[-13.2428,10.0376],[-13.2338,10.0647],[-13.2037,10.0917],[-13.1556,10.1097],[-13.1556,10.1879],[-13.1316,10.2119],[-13.1136,10.2419],[-13.1196,10.275],[-13.1346,10.296],[-13.1346,10.4042],[-13.0445,10.4252],[-12.9333,10.4582],[-12.896,10.4699],[-12.8518,10.4826],[-12.8373,10.5196],[-12.8257,10.5211],[-12.8128,10.5241],[-12.8033,10.5213],[-12.7873,10.5089],[-12.7705,10.5002],[-12.7623,10.4949],[-12.7555,10.4893],[-12.7344,10.4766],[-12.714,10.4715],[-12.7029,10.4755],[-12.6947,10.4832],[-12.6836,10.5038],[-12.67,10.5153],[-12.6495,10.5287],[-12.6095,10.5439],[-12.5714,10.5634],[-12.5243,10.6093],[-12.5129,10.6166],[-12.5052,10.6189],[-12.5001,10.619],[-12.4929,10.6147],[-12.4909,10.589],[-12.4972,10.5682],[-12.4958,10.5579],[-12.4903,10.5497],[-12.4783,10.543],[-12.4713,10.5401],[-12.4522,10.5349],[-12.4425,10.5311],[-12.4356,10.5251],[-12.433,10.5054],[-12.428,10.4969],[-12.4151,10.4912],[-12.3997,10.4828],[-12.3828,10.4654],[-12.4014,10.4447],[-12.4047,10.4398],[-12.4064,10.4326],[-12.4059,10.4162],[-12.407,10.4051],[-12.4139,10.3848],[-12.4232,10.365],[-12.426,10.3543],[-12.4259,10.3404],[-12.4097,10.277],[-12.407,10.2718],[-12.403,10.2678],[-12.3949,10.2649],[-12.3857,10.264],[-12.3758,10.2641],[-12.3665,10.2652],[-12.3373,10.2752],[-12.3269,10.2773],[-12.3162,10.2775],[-12.3061,10.2763],[-12.2788,10.2698],[-12.2642,10.2687],[-12.2575,10.2692],[-12.2469,10.2715],[-12.2437,10.2719],[-12.2404,10.271],[-12.2364,10.2686],[-12.229,10.2578],[-12.1863,10.1769],[-12.1255,10.0998],[-12.1232,10.0897],[-12.1216,10.0745],[-12.1224,10.0407],[-12.124,10.0257],[-12.1263,10.0153],[-12.1411,9.9824],[-12.1442,9.9721],[-12.1436,9.9626],[-12.1318,9.9239],[-12.11,9.882],[-12.1098,9.8817]]]}},{"type":"Feature","properties":{"id":"GIN-5644","name":"Kissidougou","nameBn":"কিস্যিদোগু প্রশাসনিক অঞ্চল","type":"Prefecture","bounds":[-10.4782,8.86,-9.2212,9.7166],"center":[-9.8914,9.2564]},"geometry":{"type":"Polygon","coordinates":[[[-9.9552,9.669],[-9.8932,9.5962],[-9.8334,9.5531],[-9.7553,9.5578],[-9.6711,9.5417],[-9.662,9.5416],[-9.6328,9.5363],[-9.6293,9.5366],[-9.5495,9.459],[-9.3443,9.4672],[-9.2212,9.4262],[-9.2376,9.2457],[-9.3197,9.1964],[-9.3361,9.0897],[-9.3509,9.0588],[-9.3623,8.9933],[-9.4217,8.9287],[-9.5232,8.8721],[-9.547,8.8647],[-9.5743,8.8603],[-9.5926,8.86],[-9.77,8.9003],[-9.9376,8.9378],[-9.98,8.943],[-9.9897,8.9392],[-10.0412,8.909],[-10.0498,8.901],[-10.0564,8.896],[-10.0702,8.8882],[-10.0871,8.8831],[-10.1672,8.8716],[-10.1893,8.8712],[-10.2022,8.8723],[-10.204,8.8753],[-10.2136,8.8946],[-10.2234,8.902],[-10.2384,8.9093],[-10.2795,8.9194],[-10.2878,8.9226],[-10.2906,8.9261],[-10.2928,8.9309],[-10.2943,8.9367],[-10.3848,9.0427],[-10.3998,9.047],[-10.4364,9.0743],[-10.4398,9.0785],[-10.4416,9.085],[-10.4323,9.1473],[-10.437,9.1577],[-10.4423,9.164],[-10.4782,9.1852],[-10.4607,9.2264],[-10.4337,9.2625],[-10.3916,9.2925],[-10.3796,9.3857],[-10.3886,9.4668],[-10.4066,9.5089],[-10.4216,9.5539],[-10.4177,9.6117],[-10.2902,9.5958],[-10.2814,9.5962],[-10.2709,9.5981],[-10.2529,9.6053],[-10.2442,9.6104],[-10.2382,9.6151],[-10.2281,9.6266],[-10.2068,9.6608],[-10.1813,9.6911],[-10.1691,9.7026],[-10.1659,9.7047],[-10.162,9.7068],[-10.1504,9.7106],[-10.1341,9.7138],[-10.0844,9.7166],[-10.0302,9.7144],[-10.021,9.7129],[-9.9925,9.7],[-9.9552,9.669]]]}},{"type":"Feature","properties":{"id":"GIN-5645","name":"Koubia","nameBn":"কুবিয়া প্রশাসনিক অঞ্চল","type":"Prefecture","bounds":[-12.3175,11.2857,-11.344,12.1346],"center":[-11.7074,11.6162]},"geometry":{"type":"Polygon","coordinates":[[[-11.4708,12.1346],[-11.4096,12.1079],[-11.3917,12.0937],[-11.3513,12.0404],[-11.344,11.7051],[-11.353,11.666],[-11.4461,11.648],[-11.5243,11.624],[-11.5513,11.5639],[-11.6234,11.5098],[-11.8007,11.4347],[-11.9449,11.3536],[-11.9959,11.3205],[-12.0055,11.2866],[-12.03,11.2857],[-12.0489,11.2908],[-12.0555,11.291],[-12.062,11.3265],[-12.0681,11.3626],[-12.1041,11.3986],[-12.1534,11.4739],[-12.2393,11.5939],[-12.2994,11.678],[-12.3175,11.7278],[-12.2002,11.7291],[-12.1702,11.7111],[-12.1101,11.6901],[-12.0771,11.663],[-12.026,11.654],[-11.9565,11.6529],[-11.9306,11.6732],[-11.9116,11.6705],[-11.8923,11.6739],[-11.8819,11.6839],[-11.8427,11.6961],[-11.8067,11.7141],[-11.7406,11.7261],[-11.6264,11.7291],[-11.6144,11.7682],[-11.5904,11.8463],[-11.5453,11.8883],[-11.5182,11.9635],[-11.4732,12.0566],[-11.4708,12.1346]]]}},{"type":"Feature","properties":{"id":"GIN-5646","name":"Koundara","nameBn":"কুন্ডারা প্রশাসনিক অঞ্চল","type":"Prefecture","bounds":[-13.7363,12.0154,-12.5781,12.6734],"center":[-13.1823,12.3537]},"geometry":{"type":"Polygon","coordinates":[[[-13.3598,12.6497],[-13.3566,12.6489],[-13.352,12.647],[-13.3434,12.641],[-13.3386,12.6392],[-13.3328,12.6396],[-13.33,12.6421],[-13.3277,12.6449],[-13.3229,12.6465],[-13.2929,12.6527],[-13.2841,12.6533],[-13.2757,12.6511],[-13.2634,12.6432],[-13.2547,12.6418],[-13.246,12.6432],[-13.2291,12.6478],[-13.2215,12.6484],[-13.216,12.6457],[-13.2065,12.6357],[-13.2019,12.6334],[-13.1979,12.6341],[-13.1852,12.6378],[-13.1763,12.6377],[-13.1692,12.6388],[-13.1626,12.6381],[-13.1547,12.6328],[-13.1453,12.6439],[-13.1273,12.6348],[-13.109,12.6354],[-13.0917,12.6382],[-13.0765,12.6359],[-13.0636,12.6223],[-13.0593,12.6035],[-13.0604,12.5834],[-13.0642,12.5662],[-13.0791,12.5322],[-13.0827,12.5157],[-13.0783,12.4962],[-13.0667,12.4801],[-13.052,12.4723],[-13.0346,12.4706],[-13.0152,12.4727],[-12.9974,12.4659],[-12.981,12.467],[-12.9695,12.4768],[-12.9662,12.4961],[-12.9495,12.5359],[-12.9131,12.5363],[-12.874,12.5164],[-12.8492,12.495],[-12.8497,12.4911],[-12.8513,12.4844],[-12.8491,12.4758],[-12.8386,12.4664],[-12.8291,12.4628],[-12.7994,12.4606],[-12.7835,12.4531],[-12.7792,12.4433],[-12.7733,12.4351],[-12.7527,12.4324],[-12.6881,12.436],[-12.6675,12.4337],[-12.648,12.4258],[-12.6316,12.4127],[-12.6034,12.3819],[-12.5981,12.3724],[-12.5973,12.3654],[-12.5937,12.3616],[-12.5794,12.3612],[-12.5781,12.3615],[-12.5788,12.3598],[-12.6104,12.339],[-12.6564,12.3183],[-12.6884,12.2978],[-12.7023,12.2859],[-12.7136,12.279],[-12.7244,12.274],[-12.7764,12.2568],[-12.7901,12.2482],[-12.7989,12.2397],[-12.8255,12.1642],[-12.8277,12.1542],[-12.8444,12.1327],[-12.8666,12.1045],[-12.8948,12.0852],[-12.9602,12.0822],[-12.9809,12.0585],[-13.0047,12.0422],[-13.0181,12.0169],[-13.2111,12.0154],[-13.2437,12.0243],[-13.2642,12.0301],[-13.2729,12.0427],[-13.2751,12.0484],[-13.2741,12.0629],[-13.2731,12.0767],[-13.2768,12.0885],[-13.2902,12.0963],[-13.3021,12.0953],[-13.3012,12.0855],[-13.2963,12.0736],[-13.296,12.0665],[-13.3076,12.0652],[-13.3181,12.0712],[-13.3271,12.0809],[-13.3344,12.0908],[-13.3418,12.1049],[-13.3444,12.1201],[-13.3425,12.1363],[-13.3323,12.1704],[-13.3335,12.1859],[-13.3386,12.2011],[-13.3459,12.2169],[-13.3551,12.2274],[-13.3691,12.2364],[-13.3797,12.2433],[-13.3879,12.256],[-13.3905,12.2713],[-13.3857,12.2759],[-13.3779,12.2785],[-13.3712,12.2879],[-13.3776,12.3014],[-13.398,12.3109],[-13.41,12.3098],[-13.4213,12.3089],[-13.4447,12.2774],[-13.4557,12.2814],[-13.4667,12.2927],[-13.4746,12.3026],[-13.4846,12.3098],[-13.4866,12.3006],[-13.4772,12.2722],[-13.515,12.2818],[-13.5275,12.291],[-13.5333,12.2899],[-13.538,12.2803],[-13.5622,12.2828],[-13.5712,12.2811],[-13.5787,12.2767],[-13.5936,12.2639],[-13.655,12.2347],[-13.667,12.2321],[-13.6684,12.2404],[-13.6953,12.2925],[-13.695,12.2929],[-13.691,12.3193],[-13.683,12.3387],[-13.682,12.3503],[-13.6852,12.3792],[-13.6841,12.392],[-13.682,12.4003],[-13.6644,12.4415],[-13.6607,12.4587],[-13.6634,12.4758],[-13.6747,12.4961],[-13.7251,12.5581],[-13.7346,12.5853],[-13.7363,12.6076],[-13.7283,12.6734],[-13.4048,12.6618],[-13.3598,12.6497]]]}},{"type":"Feature","properties":{"id":"GIN-5647","name":"Kouroussa","nameBn":"করৌস্যা প্রশাসনিক অঞ্চল","type":"Prefecture","bounds":[-10.8979,9.5958,-9.3431,11.4665],"center":[-10.0204,10.7221]},"geometry":{"type":"Polygon","coordinates":[[[-9.9552,9.669],[-9.9925,9.7],[-10.021,9.7129],[-10.0302,9.7144],[-10.0844,9.7166],[-10.1341,9.7138],[-10.1504,9.7106],[-10.162,9.7068],[-10.1659,9.7047],[-10.1691,9.7026],[-10.1813,9.6911],[-10.2068,9.6608],[-10.2281,9.6266],[-10.2382,9.6151],[-10.2442,9.6104],[-10.2529,9.6053],[-10.2709,9.5981],[-10.2814,9.5962],[-10.2902,9.5958],[-10.4177,9.6117],[-10.41,9.6347],[-10.4073,9.66],[-10.4076,9.6743],[-10.4156,9.7229],[-10.4154,9.7333],[-10.414,9.7401],[-10.4113,9.7443],[-10.4081,9.7479],[-10.4043,9.7509],[-10.3945,9.7569],[-10.386,9.7668],[-10.3819,9.7702],[-10.3709,9.7744],[-10.3663,9.7782],[-10.3668,9.7819],[-10.3689,9.7858],[-10.3718,9.7899],[-10.3737,9.795],[-10.3751,9.8034],[-10.3735,9.8356],[-10.3707,9.8453],[-10.3664,9.8511],[-10.3606,9.8525],[-10.3477,9.8539],[-10.3424,9.8556],[-10.3384,9.8585],[-10.325,9.8809],[-10.3227,9.8886],[-10.3216,9.8955],[-10.323,9.9006],[-10.3281,9.9095],[-10.332,9.9194],[-10.3376,9.9277],[-10.3396,9.9327],[-10.342,9.9514],[-10.3435,9.957],[-10.3527,9.9786],[-10.3545,9.9891],[-10.3543,9.9953],[-10.3538,9.9991],[-10.3516,10.0034],[-10.3466,10.0102],[-10.3383,10.0178],[-10.3336,10.0236],[-10.3277,10.0343],[-10.3257,10.0423],[-10.3248,10.0513],[-10.3254,10.0738],[-10.3233,10.0809],[-10.3199,10.0854],[-10.3148,10.0859],[-10.3044,10.0853],[-10.2997,10.0862],[-10.2953,10.0884],[-10.2913,10.0913],[-10.2877,10.0948],[-10.2845,10.0986],[-10.2817,10.1026],[-10.2782,10.106],[-10.2668,10.1139],[-10.245,10.1463],[-10.241,10.1505],[-10.2316,10.1552],[-10.2258,10.1601],[-10.2198,10.1679],[-10.2108,10.184],[-10.2088,10.1929],[-10.2087,10.1998],[-10.2106,10.2046],[-10.2161,10.213],[-10.2191,10.2168],[-10.2242,10.2258],[-10.229,10.2418],[-10.231,10.2468],[-10.2324,10.2542],[-10.2326,10.2642],[-10.228,10.2939],[-10.2283,10.3031],[-10.2296,10.3099],[-10.2303,10.3195],[-10.2283,10.3245],[-10.2242,10.3268],[-10.2032,10.3217],[-10.1904,10.3211],[-10.1837,10.3216],[-10.1772,10.3247],[-10.1701,10.334],[-10.1374,10.3989],[-10.1348,10.4088],[-10.136,10.4139],[-10.1391,10.4176],[-10.1422,10.4226],[-10.1443,10.429],[-10.1442,10.4397],[-10.1419,10.4459],[-10.1371,10.4524],[-10.1314,10.4587],[-10.1234,10.4715],[-10.1224,10.4785],[-10.124,10.4838],[-10.1269,10.4878],[-10.1292,10.4923],[-10.1306,10.4964],[-10.1342,10.5238],[-10.1381,10.5268],[-10.1468,10.5217],[-10.1459,10.5053],[-10.1491,10.4878],[-10.1553,10.4813],[-10.1787,10.464],[-10.186,10.4604],[-10.1896,10.4571],[-10.1895,10.4499],[-10.1911,10.4426],[-10.1999,10.4393],[-10.2024,10.4435],[-10.2098,10.4635],[-10.2136,10.4704],[-10.2348,10.4884],[-10.2364,10.4973],[-10.2242,10.5082],[-10.2375,10.5125],[-10.2644,10.5112],[-10.2794,10.5151],[-10.2898,10.5225],[-10.2963,10.5291],[-10.3047,10.5322],[-10.3426,10.5231],[-10.3508,10.5221],[-10.3702,10.5223],[-10.3987,10.526],[-10.4091,10.5293],[-10.4119,10.5205],[-10.4168,10.5139],[-10.424,10.5097],[-10.4333,10.5082],[-10.4417,10.5059],[-10.455,10.5213],[-10.4602,10.5238],[-10.4707,10.5301],[-10.517,10.5799],[-10.523,10.5847],[-10.5298,10.5882],[-10.5373,10.5907],[-10.5592,10.5927],[-10.5647,10.5937],[-10.5691,10.5965],[-10.5727,10.6003],[-10.5757,10.6065],[-10.577,10.6132],[-10.5764,10.623],[-10.5766,10.6307],[-10.5788,10.6378],[-10.5852,10.6475],[-10.5981,10.6621],[-10.623,10.6852],[-10.6262,10.6892],[-10.6395,10.7123],[-10.6435,10.7177],[-10.6479,10.7219],[-10.6729,10.7336],[-10.6775,10.7372],[-10.6871,10.7497],[-10.6925,10.7532],[-10.6982,10.7549],[-10.7127,10.7561],[-10.7183,10.7576],[-10.7228,10.7602],[-10.7309,10.7664],[-10.8643,10.808],[-10.877,10.8167],[-10.8857,10.8256],[-10.8923,10.8349],[-10.8963,10.8441],[-10.8979,10.8537],[-10.8956,10.8626],[-10.8906,10.8714],[-10.8649,10.8893],[-10.8511,10.8966],[-10.8411,10.9007],[-10.8295,10.9032],[-10.823,10.9089],[-10.8166,10.9187],[-10.8077,10.9415],[-10.8006,10.9691],[-10.7975,10.976],[-10.793,10.9834],[-10.7791,10.9983],[-10.7763,11.0007],[-10.7665,11.0045],[-10.7609,11.0079],[-10.7551,11.0126],[-10.7478,11.0219],[-10.7382,11.0316],[-10.7295,11.037],[-10.7246,11.0392],[-10.7183,11.0455],[-10.7115,11.0558],[-10.6962,11.0915],[-10.6944,11.0997],[-10.7031,11.1126],[-10.7025,11.1852],[-10.6954,11.2279],[-10.6491,11.2351],[-10.5976,11.2086],[-10.5814,11.1817],[-10.5494,11.1745],[-10.4568,11.1745],[-10.3749,11.1781],[-10.3428,11.2066],[-10.3434,11.2695],[-10.3998,11.3989],[-10.3856,11.4416],[-10.3215,11.4665],[-10.2431,11.4523],[-10.1399,11.374],[-10.0295,11.3775],[-9.959,11.3656],[-9.9259,11.3295],[-9.8748,11.3025],[-9.8598,11.2634],[-9.8418,11.1613],[-9.8328,11.0381],[-9.8087,11.0081],[-9.7697,10.987],[-9.7336,10.9359],[-9.6886,10.8729],[-9.6375,10.8638],[-9.3431,10.8668],[-9.3641,10.8248],[-9.3701,10.7917],[-9.3731,10.7497],[-9.4242,10.7226],[-9.4602,10.6776],[-9.5113,10.6025],[-9.6195,10.4913],[-9.6675,10.4372],[-9.6826,10.284],[-9.7186,10.2029],[-9.7186,10.0466],[-9.6916,10.0016],[-9.7006,9.9024],[-9.7396,9.8724],[-9.7757,9.8273],[-9.7787,9.7732],[-9.8147,9.7492],[-9.8508,9.7011],[-9.9229,9.6891],[-9.9552,9.669]]]}},{"type":"Feature","properties":{"id":"GIN-5642","name":"Kérouané","nameBn":"কেরুয়ানে প্রশাসনিক অঞ্চল","type":"Prefecture","bounds":[-9.3361,8.9107,-8.4658,9.7402],"center":[-8.905,9.3301]},"geometry":{"type":"Polygon","coordinates":[[[-9.3361,9.0897],[-9.3197,9.1964],[-9.2376,9.2457],[-9.2212,9.4262],[-9.2139,9.4968],[-9.1778,9.638],[-9.1237,9.6801],[-9.0246,9.7312],[-8.8834,9.7402],[-8.8383,9.7222],[-8.8143,9.6831],[-8.7752,9.6741],[-8.6731,9.6681],[-8.631,9.6501],[-8.5709,9.626],[-8.5229,9.584],[-8.4748,9.5209],[-8.4658,9.4578],[-8.4791,9.3808],[-8.5218,9.3665],[-8.5304,9.3266],[-8.5646,9.3152],[-8.5988,9.2696],[-8.6216,9.2269],[-8.6673,9.1949],[-8.7114,9.1193],[-8.7149,9.1099],[-8.717,9.0999],[-8.7255,9.0831],[-8.7273,9.0775],[-8.728,9.0721],[-8.764,9.056],[-8.8067,9.036],[-8.8837,9.0218],[-8.9264,9.0018],[-8.9691,8.9619],[-9.1486,8.9107],[-9.2398,8.9192],[-9.2712,8.999],[-9.2883,9.0816],[-9.3361,9.0897]]]}},{"type":"Feature","properties":{"id":"GIN-5648","name":"Labé","nameBn":"লাবি প্রশাসনিক অঞ্চল","type":"Prefecture","bounds":[-12.5257,11.1484,-12.0555,11.7278],"center":[-12.3404,11.515]},"geometry":{"type":"Polygon","coordinates":[[[-12.0624,11.2905],[-12.0693,11.291],[-12.075,11.2938],[-12.0857,11.3033],[-12.0928,11.306],[-12.1047,11.3026],[-12.1218,11.293],[-12.2354,11.2665],[-12.2544,11.1964],[-12.3656,11.1599],[-12.4163,11.1484],[-12.4379,11.1518],[-12.4614,11.1594],[-12.4682,11.163],[-12.4777,11.1695],[-12.4816,11.1731],[-12.4847,11.1781],[-12.487,11.1847],[-12.4877,11.1953],[-12.4866,11.2095],[-12.4867,11.2154],[-12.4885,11.2241],[-12.4975,11.2544],[-12.5084,11.2784],[-12.5257,11.2992],[-12.5217,11.3836],[-12.5067,11.4287],[-12.4917,11.4858],[-12.4616,11.5128],[-12.4616,11.5789],[-12.4766,11.63],[-12.5067,11.657],[-12.5006,11.7257],[-12.3175,11.7278],[-12.2994,11.678],[-12.2393,11.5939],[-12.1534,11.4739],[-12.1041,11.3986],[-12.0681,11.3626],[-12.062,11.3265],[-12.0555,11.291],[-12.0624,11.2905]]]}},{"type":"Feature","properties":{"id":"GIN-5650","name":"Lola","nameBn":"লোলা প্রশাসনিক অঞ্চল","type":"Prefecture","bounds":[-8.5728,7.5443,-8.0672,8.22],"center":[-8.3335,7.8552]},"geometry":{"type":"Polygon","coordinates":[[[-8.0672,8.0208],[-8.0689,7.9966],[-8.0791,7.9577],[-8.1289,7.8826],[-8.1312,7.8424],[-8.1238,7.832],[-8.1014,7.8128],[-8.0963,7.8019],[-8.0983,7.7919],[-8.1039,7.7863],[-8.1105,7.7824],[-8.1151,7.7769],[-8.119,7.7608],[-8.1226,7.7275],[-8.1274,7.713],[-8.1595,7.6763],[-8.1602,7.6722],[-8.1574,7.6624],[-8.158,7.6582],[-8.1621,7.6542],[-8.1734,7.6478],[-8.1779,7.6439],[-8.1979,7.6186],[-8.2026,7.6072],[-8.203,7.5996],[-8.1998,7.5834],[-8.2002,7.5763],[-8.229,7.5443],[-8.2654,7.5601],[-8.3032,7.5893],[-8.3368,7.5978],[-8.3723,7.5873],[-8.3909,7.5858],[-8.4148,7.6129],[-8.44,7.5999],[-8.4854,7.558],[-8.5156,7.5772],[-8.5478,7.6008],[-8.5665,7.6234],[-8.5728,7.6507],[-8.5674,7.6882],[-8.5319,7.7212],[-8.5108,7.7633],[-8.5319,7.8174],[-8.5499,7.8715],[-8.5499,7.9345],[-8.5229,7.9946],[-8.4898,8.0487],[-8.4748,8.0968],[-8.4447,8.1238],[-8.4357,8.1599],[-8.4297,8.217],[-8.3696,8.22],[-8.2795,8.1959],[-8.2074,8.1358],[-8.1112,8.0487],[-8.0672,8.0208]]]}},{"type":"Feature","properties":{"id":"GIN-5649","name":"Lélouma","nameBn":"লিলুমা প্রশাসনিক অঞ্চল","type":"Prefecture","bounds":[-12.9897,10.9859,-12.4616,11.7257],"center":[-12.6338,11.4687]},"geometry":{"type":"Polygon","coordinates":[[[-12.8749,10.9861],[-12.9087,11.0705],[-12.9503,11.1169],[-12.9687,11.1685],[-12.9897,11.2562],[-12.9849,11.2663],[-12.9659,11.296],[-12.9553,11.3169],[-12.9405,11.3665],[-12.9353,11.3778],[-12.9303,11.3854],[-12.9261,11.3881],[-12.9215,11.3905],[-12.9084,11.4009],[-12.8853,11.4242],[-12.881,11.427],[-12.8234,11.4534],[-12.8008,11.4691],[-12.7611,11.5249],[-12.7551,11.5316],[-12.7462,11.5372],[-12.7244,11.5462],[-12.7174,11.5507],[-12.707,11.5593],[-12.7042,11.5662],[-12.7044,11.5715],[-12.7061,11.5773],[-12.7067,11.5839],[-12.7045,11.5949],[-12.7053,11.6017],[-12.7079,11.6067],[-12.7125,11.6095],[-12.748,11.6233],[-12.752,11.626],[-12.756,11.6293],[-12.7597,11.633],[-12.7625,11.6367],[-12.7646,11.6403],[-12.7666,11.6429],[-12.7723,11.6472],[-12.7746,11.6516],[-12.7762,11.6569],[-12.7804,11.667],[-12.7853,11.676],[-12.789,11.6792],[-12.7989,11.6834],[-12.8028,11.6868],[-12.8053,11.6917],[-12.807,11.6964],[-12.8082,11.7048],[-12.8087,11.7222],[-12.5006,11.7257],[-12.5067,11.657],[-12.4766,11.63],[-12.4616,11.5789],[-12.4616,11.5128],[-12.4917,11.4858],[-12.5067,11.4287],[-12.5217,11.3836],[-12.5257,11.2992],[-12.5391,11.3154],[-12.6042,11.314],[-12.6301,11.3217],[-12.6483,11.3135],[-12.6519,11.308],[-12.6521,11.3031],[-12.6492,11.293],[-12.6495,11.2868],[-12.6521,11.2808],[-12.6572,11.2726],[-12.6624,11.2685],[-12.6676,11.2654],[-12.6949,11.2586],[-12.7092,11.2535],[-12.7167,11.2465],[-12.7267,11.2355],[-12.7515,11.1911],[-12.7533,11.186],[-12.7543,11.1801],[-12.7557,11.1615],[-12.7569,11.1559],[-12.7607,11.1459],[-12.7652,11.1371],[-12.7671,11.1324],[-12.7688,11.1213],[-12.7701,11.1161],[-12.772,11.1114],[-12.773,11.1063],[-12.7765,11.0969],[-12.7794,11.0859],[-12.7983,11.0544],[-12.8054,11.0344],[-12.8126,11.0001],[-12.8137,10.9994],[-12.816,10.9984],[-12.8199,10.9978],[-12.8238,10.9985],[-12.826,10.9995],[-12.827,11.0001],[-12.8359,11.0084],[-12.8403,11.0112],[-12.8451,11.0125],[-12.851,11.0112],[-12.8531,11.0073],[-12.8533,11.0034],[-12.8526,11.0012],[-12.8524,10.9993],[-12.8529,10.9969],[-12.855,10.991],[-12.8591,10.9879],[-12.8645,10.986],[-12.8698,10.9859],[-12.8749,10.9861]]]}},{"type":"Feature","properties":{"id":"GIN-5651","name":"Macenta","nameBn":"ম্যাসেন্টা প্রশাসনিক অঞ্চল","type":"Prefecture","bounds":[-9.9199,7.7546,-8.8563,9.0897],"center":[-9.3199,8.5466]},"geometry":{"type":"Polygon","coordinates":[[[-9.7221,8.4356],[-9.7359,8.4505],[-9.7463,8.4681],[-9.7509,8.4859],[-9.7573,8.5327],[-9.763,8.55],[-9.7736,8.563],[-9.7906,8.5654],[-9.79,8.5531],[-9.7948,8.5445],[-9.802,8.5372],[-9.8089,8.5285],[-9.8088,8.5205],[-9.8055,8.5128],[-9.8068,8.5063],[-9.8316,8.499],[-9.8497,8.4897],[-9.8586,8.4871],[-9.8635,8.4935],[-9.8682,8.4981],[-9.8728,8.5004],[-9.9199,8.6917],[-9.9079,8.7547],[-9.8748,8.7878],[-9.8388,8.8088],[-9.7937,8.8269],[-9.7817,8.8599],[-9.77,8.9003],[-9.5926,8.86],[-9.5743,8.8603],[-9.547,8.8647],[-9.5232,8.8721],[-9.4217,8.9287],[-9.3623,8.9933],[-9.3509,9.0588],[-9.3361,9.0897],[-9.2883,9.0816],[-9.2712,8.999],[-9.2398,8.9192],[-9.1486,8.9107],[-8.9691,8.9619],[-8.9675,8.7457],[-8.9525,8.7007],[-8.9044,8.6346],[-8.8714,8.5504],[-8.8563,8.4633],[-8.8744,8.3972],[-8.8954,8.3401],[-8.9104,8.2981],[-8.9405,8.274],[-8.9885,8.1809],[-9.0096,8.1118],[-9.0525,8.0825],[-9.0694,8.0532],[-9.0859,8.0246],[-9.1088,7.9936],[-9.1316,7.9801],[-9.1759,7.9447],[-9.1943,7.9039],[-9.2681,7.8382],[-9.3026,7.8113],[-9.3289,7.7546],[-9.3467,7.7604],[-9.3678,7.7575],[-9.381,7.7744],[-9.3897,7.7915],[-9.4157,7.8244],[-9.4387,7.8662],[-9.4484,7.9078],[-9.446,7.9501],[-9.4331,7.9935],[-9.4317,7.9966],[-9.4246,8.0058],[-9.4223,8.0158],[-9.4241,8.0262],[-9.4293,8.0369],[-9.4409,8.0506],[-9.4515,8.0518],[-9.4622,8.0435],[-9.4742,8.0288],[-9.4728,8.0404],[-9.4619,8.0584],[-9.4598,8.0688],[-9.478,8.1413],[-9.4781,8.1528],[-9.4814,8.1647],[-9.4913,8.17],[-9.5156,8.1749],[-9.5301,8.1855],[-9.5319,8.2123],[-9.5254,8.2408],[-9.5156,8.2566],[-9.5108,8.261],[-9.5092,8.2656],[-9.5108,8.2701],[-9.5156,8.2744],[-9.5212,8.2844],[-9.5251,8.2954],[-9.5302,8.306],[-9.5394,8.3146],[-9.5285,8.3257],[-9.5223,8.3307],[-9.5156,8.3344],[-9.5115,8.3361],[-9.4991,8.3435],[-9.5044,8.3462],[-9.5115,8.3538],[-9.5291,8.3663],[-9.5792,8.3873],[-9.592,8.4051],[-9.6002,8.4109],[-9.6073,8.4029],[-9.6121,8.3963],[-9.6195,8.3927],[-9.6281,8.3916],[-9.6361,8.3926],[-9.6534,8.3921],[-9.6684,8.3887],[-9.6773,8.3915],[-9.6759,8.4096],[-9.6665,8.4224],[-9.6534,8.4314],[-9.6451,8.4434],[-9.6505,8.4648],[-9.6635,8.4779],[-9.6835,8.4871],[-9.7033,8.4873],[-9.7155,8.4733],[-9.718,8.4527],[-9.7182,8.4383],[-9.7221,8.4356]]]}},{"type":"Feature","properties":{"id":"GIN-5652","name":"Mali","nameBn":"মালি প্রশাসনিক অঞ্চল","type":"Prefecture","bounds":[-12.863,11.6529,-11.3884,12.4316],"center":[-12.1222,12.0218]},"geometry":{"type":"Polygon","coordinates":[[[-11.5154,12.4316],[-11.4816,12.4282],[-11.416,12.405],[-11.3884,12.4039],[-11.3886,12.3845],[-11.4076,12.3819],[-11.4317,12.383],[-11.4472,12.3745],[-11.4515,12.3521],[-11.4449,12.3125],[-11.4446,12.2895],[-11.4632,12.25],[-11.4917,12.2209],[-11.5078,12.1916],[-11.4896,12.1512],[-11.4708,12.1346],[-11.4732,12.0566],[-11.5182,11.9635],[-11.5453,11.8883],[-11.5904,11.8463],[-11.6144,11.7682],[-11.6264,11.7291],[-11.7406,11.7261],[-11.8067,11.7141],[-11.8427,11.6961],[-11.8819,11.6839],[-11.8923,11.6739],[-11.9116,11.6705],[-11.9306,11.6732],[-11.9565,11.6529],[-12.026,11.654],[-12.0771,11.663],[-12.1101,11.6901],[-12.1702,11.7111],[-12.2002,11.7291],[-12.3175,11.7278],[-12.5006,11.7257],[-12.8087,11.7222],[-12.8159,11.7638],[-12.8151,11.7884],[-12.8062,11.8354],[-12.7823,11.8804],[-12.7807,11.8855],[-12.7802,11.8918],[-12.7817,11.8998],[-12.7867,11.9105],[-12.7935,11.9214],[-12.7969,11.9256],[-12.8018,11.9277],[-12.8089,11.9277],[-12.8147,11.9248],[-12.8201,11.9191],[-12.8289,11.9046],[-12.8338,11.8997],[-12.839,11.8979],[-12.8443,11.8988],[-12.8519,11.901],[-12.8586,11.9037],[-12.863,11.9089],[-12.8627,11.9154],[-12.8284,11.9775],[-12.8238,11.992],[-12.8074,12.0997],[-12.8077,12.1073],[-12.8087,12.1137],[-12.814,12.1307],[-12.8277,12.1542],[-12.8255,12.1642],[-12.7989,12.2397],[-12.7901,12.2482],[-12.7764,12.2568],[-12.7244,12.274],[-12.7136,12.279],[-12.7023,12.2859],[-12.6884,12.2978],[-12.6564,12.3183],[-12.6104,12.339],[-12.5788,12.3598],[-12.5781,12.3615],[-12.5706,12.3637],[-12.5415,12.3795],[-12.5219,12.3869],[-12.5051,12.3903],[-12.4878,12.3895],[-12.4668,12.3845],[-12.4234,12.3691],[-12.4055,12.3565],[-12.3771,12.3137],[-12.3609,12.3056],[-12.192,12.3488],[-12.155,12.369],[-12.1219,12.3987],[-12.104,12.4074],[-12.0792,12.4081],[-12.0189,12.3884],[-11.9976,12.3864],[-11.9843,12.389],[-11.9463,12.4094],[-11.9352,12.417],[-11.9309,12.4187],[-11.9239,12.4188],[-11.922,12.4177],[-11.9206,12.416],[-11.8602,12.3911],[-11.8396,12.3867],[-11.7578,12.3833],[-11.72,12.3895],[-11.6431,12.4176],[-11.6015,12.4252],[-11.5154,12.4316]]]}},{"type":"Feature","properties":{"id":"GIN-5653","name":"Mamou","nameBn":"মামৌ","type":"Prefecture","bounds":[-12.426,9.8817,-11.2492,11.3262],"center":[-11.8934,10.3442]},"geometry":{"type":"Polygon","coordinates":[[[-11.5875,9.9943],[-11.9101,9.9925],[-11.915,9.9315],[-11.9218,9.9222],[-12.1098,9.8817],[-12.11,9.882],[-12.1318,9.9239],[-12.1436,9.9626],[-12.1442,9.9721],[-12.1411,9.9824],[-12.1263,10.0153],[-12.124,10.0257],[-12.1224,10.0407],[-12.1216,10.0745],[-12.1232,10.0897],[-12.1255,10.0998],[-12.1863,10.1769],[-12.229,10.2578],[-12.2364,10.2686],[-12.2404,10.271],[-12.2437,10.2719],[-12.2469,10.2715],[-12.2575,10.2692],[-12.2642,10.2687],[-12.2788,10.2698],[-12.3061,10.2763],[-12.3162,10.2775],[-12.3269,10.2773],[-12.3373,10.2752],[-12.3665,10.2652],[-12.3758,10.2641],[-12.3857,10.264],[-12.3949,10.2649],[-12.403,10.2678],[-12.407,10.2718],[-12.4097,10.277],[-12.4259,10.3404],[-12.426,10.3543],[-12.4232,10.365],[-12.4139,10.3848],[-12.407,10.4051],[-12.4059,10.4162],[-12.4064,10.4326],[-12.4047,10.4398],[-12.4014,10.4447],[-12.3828,10.4654],[-12.3997,10.4828],[-12.4151,10.4912],[-12.3595,10.5243],[-12.3114,10.5634],[-12.2754,10.5814],[-12.1972,10.5934],[-12.1732,10.6355],[-12.1011,10.7076],[-12.029,10.7617],[-11.9479,10.7797],[-11.8607,10.7857],[-11.8217,10.8038],[-11.8007,10.8488],[-11.7796,10.8969],[-11.7856,10.969],[-11.8131,11.0025],[-11.7852,11.0145],[-11.7408,11.022],[-11.6969,11.0249],[-11.6636,11.0308],[-11.6469,11.0428],[-11.6186,11.0703],[-11.6158,11.0744],[-11.5727,11.1206],[-11.5663,11.1339],[-11.5029,11.1693],[-11.4924,11.1777],[-11.487,11.1899],[-11.4842,11.2252],[-11.4802,11.237],[-11.4727,11.2451],[-11.4612,11.2481],[-11.4521,11.249],[-11.4456,11.2511],[-11.437,11.2555],[-11.4308,11.2618],[-11.4268,11.2704],[-11.4211,11.275],[-11.4097,11.2692],[-11.3968,11.2787],[-11.3847,11.2756],[-11.3714,11.2693],[-11.355,11.2692],[-11.3438,11.2791],[-11.3271,11.3104],[-11.3062,11.3262],[-11.2714,11.2823],[-11.2492,11.2285],[-11.2492,11.1843],[-11.3125,11.14],[-11.4231,11.0642],[-11.4895,11.0642],[-11.5824,10.9865],[-11.5897,10.9798],[-11.5947,10.9763],[-11.6029,10.9653],[-11.5892,10.8989],[-11.5881,10.8665],[-11.5923,10.8256],[-11.595,10.8192],[-11.584,10.8094],[-11.5533,10.7957],[-11.5527,10.7354],[-11.566,10.3722],[-11.5653,10.2424],[-11.5716,10.1886],[-11.5938,10.157],[-11.6064,10.0685],[-11.5875,9.9943]]]}},{"type":"Feature","properties":{"id":"GIN-5654","name":"Mandiana","nameBn":"মান্দিয়ানা প্রশাসনিক অঞ্চল","type":"Prefecture","bounds":[-9.3731,9.95,-7.9626,11.6495],"center":[-8.6654,10.7221]},"geometry":{"type":"Polygon","coordinates":[[[-7.9897,10.162],[-7.9998,10.1507],[-8.0072,10.1383],[-8.0123,10.1249],[-8.0157,10.1104],[-8.0349,10.0858],[-8.0579,10.0731],[-8.1088,10.0542],[-8.1275,10.0371],[-8.1477,10.01],[-8.1585,9.9849],[-8.1489,9.9739],[-8.1363,9.9694],[-8.1401,9.9597],[-8.1524,9.95],[-8.2134,9.9565],[-8.2615,9.9775],[-8.3396,10.0046],[-8.3907,10.0587],[-8.4207,10.1278],[-8.4297,10.1788],[-8.4778,10.1999],[-8.5739,10.2179],[-8.6731,10.2329],[-8.7241,10.284],[-8.7302,10.3321],[-8.7482,10.3922],[-8.7842,10.4192],[-8.8563,10.4342],[-8.8984,10.4492],[-8.9465,10.5033],[-8.9555,10.5604],[-8.9645,10.6656],[-9.1598,10.6806],[-9.2139,10.7046],[-9.301,10.7226],[-9.3731,10.7497],[-9.3701,10.7917],[-9.3641,10.8248],[-9.3431,10.8668],[-9.313,10.8999],[-9.2379,10.954],[-9.1508,10.984],[-9.0697,11.0171],[-8.9765,11.0802],[-8.9224,11.1312],[-8.8864,11.2304],[-8.8744,11.3385],[-8.8533,11.4287],[-8.8113,11.5267],[-8.7872,11.5579],[-8.7786,11.5855],[-8.7672,11.6101],[-8.7468,11.6229],[-8.7265,11.6495],[-8.7129,11.6401],[-8.6907,11.568],[-8.6873,11.55],[-8.679,11.5298],[-8.668,11.5109],[-8.6568,11.4964],[-8.6022,11.4721],[-8.5752,11.4703],[-8.5496,11.4901],[-8.544,11.4776],[-8.5394,11.4563],[-8.5355,11.4381],[-8.5276,11.4234],[-8.5158,11.419],[-8.4881,11.4182],[-8.4277,11.4001],[-8.3976,11.3859],[-8.3753,11.3677],[-8.3934,11.363],[-8.4141,11.3535],[-8.4261,11.3405],[-8.418,11.3255],[-8.3996,11.3222],[-8.3813,11.3251],[-8.371,11.3206],[-8.3767,11.2947],[-8.3884,11.2814],[-8.4067,11.2753],[-8.4269,11.2742],[-8.4446,11.2763],[-8.4832,11.2849],[-8.4926,11.2778],[-8.5031,11.2554],[-8.5023,11.2516],[-8.4992,11.2467],[-8.497,11.2407],[-8.4988,11.2335],[-8.5021,11.2312],[-8.5121,11.2303],[-8.5156,11.2291],[-8.5241,11.2238],[-8.5446,11.215],[-8.5518,11.2107],[-8.5639,11.1934],[-8.5697,11.1578],[-8.5782,11.1421],[-8.587,11.1375],[-8.6072,11.1372],[-8.6154,11.1341],[-8.6246,11.122],[-8.6249,11.1122],[-8.6224,11.1026],[-8.6231,11.0913],[-8.6337,11.0713],[-8.6798,11.0252],[-8.6887,11.0126],[-8.6969,10.996],[-8.7007,10.9785],[-8.6962,10.9627],[-8.6809,10.9523],[-8.6652,10.957],[-8.648,10.9658],[-8.6282,10.9678],[-8.6114,10.9651],[-8.5933,10.9647],[-8.5756,10.9667],[-8.5595,10.9716],[-8.5416,10.9838],[-8.5316,10.999],[-8.5058,11.0528],[-8.4891,11.0527],[-8.469,11.0464],[-8.4487,11.0471],[-8.4382,11.0497],[-8.4291,11.0483],[-8.4105,11.0419],[-8.4006,11.0433],[-8.3813,11.0539],[-8.3693,11.0542],[-8.3473,11.0431],[-8.3266,11.0238],[-8.3111,11.0008],[-8.3051,10.9782],[-8.3036,10.8749],[-8.3059,10.8563],[-8.3118,10.8472],[-8.3189,10.8395],[-8.3398,10.7839],[-8.3419,10.7632],[-8.3156,10.7531],[-8.3111,10.7353],[-8.2955,10.5374],[-8.2844,10.5112],[-8.2539,10.4698],[-8.2289,10.4234],[-8.2106,10.4141],[-8.189,10.4136],[-8.166,10.4181],[-8.1506,10.4245],[-8.1421,10.4296],[-8.1354,10.4273],[-8.1254,10.4117],[-8.1221,10.3995],[-8.1209,10.373],[-8.1155,10.3602],[-8.0961,10.3467],[-8.0701,10.3419],[-8.0157,10.3393],[-7.9963,10.3283],[-7.9815,10.307],[-7.9712,10.2818],[-7.9646,10.2589],[-7.9626,10.2333],[-7.968,10.21],[-7.9897,10.162]]]}},{"type":"Feature","properties":{"id":"GIN-5655","name":"Nzérékoré","nameBn":"নজেরেকোরে","type":"Prefecture","bounds":[-9.0694,7.622,-8.4297,8.3642],"center":[-8.7384,8.0508]},"geometry":{"type":"Polygon","coordinates":[[[-8.5674,7.6882],[-8.6866,7.6944],[-8.6945,7.6744],[-8.7207,7.6427],[-8.7276,7.622],[-8.8085,7.6335],[-8.8845,7.666],[-8.9117,7.7257],[-8.9388,7.8071],[-8.9822,7.8885],[-8.9931,7.9645],[-9.0148,8.0134],[-9.0694,8.0532],[-9.0525,8.0825],[-9.0096,8.1118],[-8.9885,8.1809],[-8.9405,8.274],[-8.9104,8.2981],[-8.8233,8.3191],[-8.7362,8.3582],[-8.652,8.3642],[-8.5889,8.3492],[-8.5499,8.3071],[-8.5379,8.271],[-8.4778,8.265],[-8.4447,8.241],[-8.4297,8.217],[-8.4357,8.1599],[-8.4447,8.1238],[-8.4748,8.0968],[-8.4898,8.0487],[-8.5229,7.9946],[-8.5499,7.9345],[-8.5499,7.8715],[-8.5319,7.8174],[-8.5108,7.7633],[-8.5319,7.7212],[-8.5674,7.6882]]]}},{"type":"Feature","properties":{"id":"GIN-5656","name":"Pita","nameBn":"পিটা প্রশাসনিক অঞ্চল","type":"Prefecture","bounds":[-12.964,10.4699,-12.1218,11.3217],"center":[-12.62,10.9341]},"geometry":{"type":"Polygon","coordinates":[[[-12.2544,11.1964],[-12.2354,11.2665],[-12.1218,11.293],[-12.1341,11.2484],[-12.1552,11.2184],[-12.1582,11.1703],[-12.1822,11.1342],[-12.1732,11.0952],[-12.1462,11.0742],[-12.1341,11.0321],[-12.2573,11.0291],[-12.2934,11.0081],[-12.3384,10.987],[-12.3835,10.954],[-12.4015,10.8999],[-12.4406,10.8368],[-12.4947,10.8248],[-12.5518,10.7767],[-12.6179,10.7317],[-12.6449,10.6746],[-12.6495,10.5287],[-12.67,10.5153],[-12.6836,10.5038],[-12.6947,10.4832],[-12.7029,10.4755],[-12.714,10.4715],[-12.7344,10.4766],[-12.7555,10.4893],[-12.7623,10.4949],[-12.7705,10.5002],[-12.7873,10.5089],[-12.8033,10.5213],[-12.8128,10.5241],[-12.8257,10.5211],[-12.8373,10.5196],[-12.8518,10.4826],[-12.896,10.4699],[-12.9213,10.5426],[-12.9546,10.5728],[-12.9574,10.5767],[-12.9606,10.5803],[-12.9631,10.5847],[-12.964,10.5903],[-12.9634,10.6017],[-12.9616,10.6065],[-12.956,10.6106],[-12.9502,10.6158],[-12.9443,10.6233],[-12.9327,10.6467],[-12.9316,10.6526],[-12.9353,10.6552],[-12.939,10.6563],[-12.941,10.6598],[-12.9398,10.6653],[-12.9346,10.6728],[-12.9308,10.6795],[-12.9279,10.6875],[-12.9212,10.7238],[-12.9217,10.7296],[-12.9237,10.7342],[-12.9277,10.7371],[-12.9324,10.7393],[-12.9367,10.7419],[-12.9442,10.7482],[-12.9474,10.7517],[-12.9492,10.7566],[-12.95,10.7682],[-12.9526,10.7792],[-12.9534,10.7851],[-12.9531,10.7966],[-12.9538,10.8016],[-12.956,10.8057],[-12.9591,10.8092],[-12.9612,10.813],[-12.9608,10.8177],[-12.9581,10.8232],[-12.9508,10.8291],[-12.9474,10.8344],[-12.9479,10.8416],[-12.9515,10.8529],[-12.9522,10.8591],[-12.9521,10.8735],[-12.9532,10.8794],[-12.9535,10.8848],[-12.9513,10.8906],[-12.9434,10.897],[-12.9308,10.9117],[-12.9272,10.935],[-12.9251,10.9433],[-12.9251,10.9489],[-12.9226,10.9542],[-12.9169,10.96],[-12.8803,10.9839],[-12.8749,10.9861],[-12.8698,10.9859],[-12.8645,10.986],[-12.8591,10.9879],[-12.855,10.991],[-12.8529,10.9969],[-12.8524,10.9993],[-12.8526,11.0012],[-12.8533,11.0034],[-12.8531,11.0073],[-12.851,11.0112],[-12.8451,11.0125],[-12.8403,11.0112],[-12.8359,11.0084],[-12.827,11.0001],[-12.826,10.9995],[-12.8238,10.9985],[-12.8199,10.9978],[-12.816,10.9984],[-12.8137,10.9994],[-12.8126,11.0001],[-12.8054,11.0344],[-12.7983,11.0544],[-12.7794,11.0859],[-12.7765,11.0969],[-12.773,11.1063],[-12.772,11.1114],[-12.7701,11.1161],[-12.7688,11.1213],[-12.7671,11.1324],[-12.7652,11.1371],[-12.7607,11.1459],[-12.7569,11.1559],[-12.7557,11.1615],[-12.7543,11.1801],[-12.7533,11.186],[-12.7515,11.1911],[-12.7267,11.2355],[-12.7167,11.2465],[-12.7092,11.2535],[-12.6949,11.2586],[-12.6676,11.2654],[-12.6624,11.2685],[-12.6572,11.2726],[-12.6521,11.2808],[-12.6495,11.2868],[-12.6492,11.293],[-12.6521,11.3031],[-12.6519,11.308],[-12.6483,11.3135],[-12.6301,11.3217],[-12.6042,11.314],[-12.5391,11.3154],[-12.5257,11.2992],[-12.5084,11.2784],[-12.4975,11.2544],[-12.4885,11.2241],[-12.4867,11.2154],[-12.4866,11.2095],[-12.4877,11.1953],[-12.487,11.1847],[-12.4847,11.1781],[-12.4816,11.1731],[-12.4777,11.1695],[-12.4682,11.163],[-12.4614,11.1594],[-12.4379,11.1518],[-12.4163,11.1484],[-12.3656,11.1599],[-12.2544,11.1964]]]}},{"type":"Feature","properties":{"id":"GIN-5657","name":"Siguiri","nameBn":"সিগুইরি প্রশাসনিক অঞ্চল","type":"Prefecture","bounds":[-10.2077,10.8638,-8.7265,12.4975],"center":[-9.3936,11.5701]},"geometry":{"type":"Polygon","coordinates":[[[-9.3273,12.4975],[-9.3215,12.4966],[-9.3082,12.489],[-9.2941,12.4838],[-9.2864,12.4881],[-9.2789,12.4944],[-9.2659,12.4952],[-9.1895,12.4792],[-9.1473,12.4655],[-9.0278,12.4048],[-8.9938,12.3875],[-8.9759,12.3687],[-8.9647,12.3463],[-8.9631,12.3242],[-8.9721,12.302],[-8.9853,12.2821],[-8.9959,12.261],[-8.9976,12.2348],[-8.9943,12.2248],[-8.9845,12.2089],[-8.9812,12.1989],[-8.9738,12.1876],[-8.9617,12.188],[-8.942,12.1958],[-8.927,12.1874],[-8.9139,12.1699],[-8.906,12.1477],[-8.907,12.1254],[-8.922,12.086],[-8.9263,12.0643],[-8.9221,12.0454],[-8.9037,12.0304],[-8.8817,12.0292],[-8.8588,12.0318],[-8.838,12.0282],[-8.8198,12.0127],[-8.8155,11.9957],[-8.8164,11.9768],[-8.8149,11.9554],[-8.81,11.9444],[-8.8032,11.9349],[-8.7978,11.9251],[-8.797,11.9132],[-8.8472,11.6579],[-8.8285,11.6592],[-8.8117,11.6517],[-8.7952,11.6419],[-8.7772,11.6359],[-8.7565,11.6388],[-8.7404,11.6462],[-8.7265,11.6495],[-8.7468,11.6229],[-8.7672,11.6101],[-8.7786,11.5855],[-8.7872,11.5579],[-8.8113,11.5267],[-8.8533,11.4287],[-8.8744,11.3385],[-8.8864,11.2304],[-8.9224,11.1312],[-8.9765,11.0802],[-9.0697,11.0171],[-9.1508,10.984],[-9.2379,10.954],[-9.313,10.8999],[-9.3431,10.8668],[-9.6375,10.8638],[-9.6886,10.8729],[-9.7336,10.9359],[-9.7697,10.987],[-9.8087,11.0081],[-9.8328,11.0381],[-9.8418,11.1613],[-9.8598,11.2634],[-9.8748,11.3025],[-9.9259,11.3295],[-9.959,11.3656],[-10.0295,11.3775],[-10.0259,11.5449],[-10.0651,11.641],[-10.1149,11.6945],[-10.1505,11.7265],[-10.2077,11.8149],[-10.1996,11.8253],[-10.1908,11.8346],[-10.1833,11.8448],[-10.0829,11.8974],[-9.9939,11.9651],[-9.9547,12.0185],[-9.8888,12.0606],[-9.8707,12.0521],[-9.8611,12.0519],[-9.8407,12.055],[-9.8337,12.0551],[-9.823,12.0509],[-9.8068,12.0384],[-9.7966,12.0323],[-9.7786,12.0267],[-9.723,12.0254],[-9.6988,12.051],[-9.6863,12.0682],[-9.6815,12.0808],[-9.6837,12.1015],[-9.6823,12.1185],[-9.6751,12.134],[-9.66,12.1498],[-9.6282,12.1702],[-9.5156,12.2071],[-9.4959,12.2247],[-9.4796,12.2358],[-9.4389,12.2548],[-9.4215,12.2571],[-9.3602,12.2466],[-9.3368,12.2698],[-9.3319,12.2828],[-9.335,12.3065],[-9.3218,12.3102],[-9.3129,12.3261],[-9.3085,12.345],[-9.3092,12.3577],[-9.3148,12.3627],[-9.3316,12.3663],[-9.3392,12.3706],[-9.3439,12.3801],[-9.3445,12.389],[-9.3472,12.3965],[-9.3747,12.4111],[-9.3928,12.428],[-9.4073,12.4451],[-9.4126,12.4554],[-9.3982,12.4732],[-9.3509,12.4846],[-9.3342,12.4963],[-9.3273,12.4975]]]}},{"type":"Feature","properties":{"id":"GIN-5658","name":"Tougué","nameBn":"তউগু প্রশাসনিক অঞ্চল","type":"Prefecture","bounds":[-12.0055,10.9995,-11.1193,12.0404],"center":[-11.4677,11.4503]},"geometry":{"type":"Polygon","coordinates":[[[-11.3513,12.0404],[-11.3347,12.0262],[-11.3151,12.0133],[-11.2947,12.0031],[-11.275,11.9963],[-11.2555,11.9962],[-11.2233,12.0093],[-11.207,12.0102],[-11.1912,12.0144],[-11.1846,12.0211],[-11.1815,11.9713],[-11.1659,11.9351],[-11.1193,11.8911],[-11.1193,11.8302],[-11.1193,11.7875],[-11.1309,11.7653],[-11.1323,11.7305],[-11.1348,11.702],[-11.1391,11.6576],[-11.2158,11.5619],[-11.2182,11.5515],[-11.2182,11.5444],[-11.2168,11.5385],[-11.2141,11.5345],[-11.2108,11.5305],[-11.2034,11.5238],[-11.1956,11.518],[-11.1373,11.4902],[-11.1324,11.483],[-11.1392,11.4674],[-11.1459,11.4604],[-11.1579,11.4563],[-11.1725,11.4469],[-11.1848,11.4366],[-11.1899,11.4297],[-11.1958,11.4246],[-11.2309,11.4126],[-11.2415,11.4071],[-11.2507,11.4002],[-11.2663,11.3853],[-11.3062,11.3262],[-11.3271,11.3104],[-11.3438,11.2791],[-11.355,11.2692],[-11.3714,11.2693],[-11.3847,11.2756],[-11.3968,11.2787],[-11.4097,11.2692],[-11.4211,11.275],[-11.4268,11.2704],[-11.4308,11.2618],[-11.437,11.2555],[-11.4456,11.2511],[-11.4521,11.249],[-11.4612,11.2481],[-11.4727,11.2451],[-11.4802,11.237],[-11.4842,11.2252],[-11.487,11.1899],[-11.4924,11.1777],[-11.5029,11.1693],[-11.5663,11.1339],[-11.5727,11.1206],[-11.6158,11.0744],[-11.6186,11.0703],[-11.6469,11.0428],[-11.6636,11.0308],[-11.6969,11.0249],[-11.7408,11.022],[-11.7852,11.0145],[-11.8131,11.0025],[-11.8238,11.0006],[-11.867,10.9995],[-11.8784,11.0017],[-11.8881,11.0061],[-11.8968,11.0176],[-11.9037,11.0342],[-11.9089,11.068],[-11.9097,11.0893],[-11.9082,11.1111],[-11.9034,11.142],[-11.9048,11.1586],[-11.9115,11.1735],[-11.9284,11.1906],[-11.9424,11.2008],[-11.9567,11.2076],[-11.9677,11.2108],[-11.9774,11.2158],[-11.9867,11.2279],[-11.9964,11.2473],[-12.0055,11.2866],[-11.9959,11.3205],[-11.9449,11.3536],[-11.8007,11.4347],[-11.6234,11.5098],[-11.5513,11.5639],[-11.5243,11.624],[-11.4461,11.648],[-11.353,11.666],[-11.344,11.7051],[-11.3513,12.0404]]]}},{"type":"Feature","properties":{"id":"GIN-5660","name":"Télimélé","nameBn":"টেলিমেলি প্রশাসনিক অঞ্চল","type":"Prefecture","bounds":[-14.1445,10.3972,-12.8749,11.3661],"center":[-13.3113,10.9156]},"geometry":{"type":"Polygon","coordinates":[[[-12.9687,11.1685],[-12.9503,11.1169],[-12.9087,11.0705],[-12.8749,10.9861],[-12.8803,10.9839],[-12.9169,10.96],[-12.9226,10.9542],[-12.9251,10.9489],[-12.9251,10.9433],[-12.9272,10.935],[-12.9308,10.9117],[-12.9434,10.897],[-12.9513,10.8906],[-12.9535,10.8848],[-12.9532,10.8794],[-12.9521,10.8735],[-12.9522,10.8591],[-12.9515,10.8529],[-12.9479,10.8416],[-12.9474,10.8344],[-12.9508,10.8291],[-12.9581,10.8232],[-12.9608,10.8177],[-12.9612,10.813],[-12.9591,10.8092],[-12.956,10.8057],[-12.9538,10.8016],[-12.9531,10.7966],[-12.9534,10.7851],[-12.9526,10.7792],[-12.95,10.7682],[-12.9492,10.7566],[-12.9474,10.7517],[-12.9442,10.7482],[-12.9367,10.7419],[-12.9324,10.7393],[-12.9277,10.7371],[-12.9237,10.7342],[-12.9217,10.7296],[-12.9212,10.7238],[-12.9279,10.6875],[-12.9308,10.6795],[-12.9346,10.6728],[-12.9398,10.6653],[-12.941,10.6598],[-12.939,10.6563],[-12.9353,10.6552],[-12.9316,10.6526],[-12.9327,10.6467],[-12.9443,10.6233],[-12.9502,10.6158],[-12.956,10.6106],[-12.9616,10.6065],[-12.9634,10.6017],[-12.964,10.5903],[-12.9631,10.5847],[-12.9606,10.5803],[-12.9574,10.5767],[-12.9546,10.5728],[-12.9213,10.5426],[-12.896,10.4699],[-12.9333,10.4582],[-13.0445,10.4252],[-13.1346,10.4042],[-13.2121,10.3972],[-13.2153,10.4383],[-13.2184,10.4763],[-13.1963,10.5142],[-13.2089,10.5964],[-13.4049,10.7007],[-13.6124,10.7148],[-13.7242,10.7224],[-13.7343,10.7291],[-13.7455,10.7302],[-13.7639,10.7281],[-13.7738,10.7304],[-13.8,10.7408],[-13.8101,10.7398],[-13.8184,10.7356],[-13.8252,10.729],[-13.8328,10.7246],[-13.8421,10.7222],[-13.8506,10.6912],[-13.8885,10.6846],[-13.893,10.6823],[-13.9058,10.6774],[-13.9095,10.6733],[-13.9122,10.6684],[-13.9158,10.6665],[-13.9207,10.668],[-13.928,10.6752],[-13.9865,10.6469],[-14.0307,10.6406],[-14.0497,10.6691],[-14.1445,10.6691],[-14.1003,10.7323],[-14.0402,10.7923],[-13.9897,10.8619],[-13.9305,10.8577],[-13.8601,10.8899],[-13.8411,10.9441],[-13.8253,10.982],[-13.8158,11.0271],[-13.8166,11.0368],[-13.8134,11.043],[-13.7939,11.0607],[-13.7854,11.0671],[-13.7759,11.0713],[-13.7724,11.0737],[-13.77,11.0774],[-13.76,11.1185],[-13.7588,11.128],[-13.76,11.1494],[-13.7596,11.158],[-13.7602,11.1645],[-13.7622,11.1696],[-13.7732,11.1791],[-13.7776,11.1816],[-13.7818,11.1856],[-13.7842,11.192],[-13.7828,11.2144],[-13.7841,11.2209],[-13.7961,11.2362],[-13.8032,11.243],[-13.8123,11.2552],[-13.8167,11.2576],[-13.8294,11.2586],[-13.8355,11.26],[-13.8394,11.2618],[-13.8441,11.2718],[-13.8246,11.2752],[-13.8066,11.292],[-13.7915,11.3061],[-13.745,11.3225],[-13.7071,11.3286],[-13.6988,11.3278],[-13.6947,11.3264],[-13.6903,11.3243],[-13.685,11.3224],[-13.667,11.32],[-13.6548,11.32],[-13.6386,11.3214],[-13.6298,11.3245],[-13.6237,11.3291],[-13.6162,11.3361],[-13.6054,11.3445],[-13.5808,11.3565],[-13.5658,11.3617],[-13.5511,11.3642],[-13.4643,11.3661],[-13.4537,11.3652],[-13.4454,11.3631],[-13.4396,11.3594],[-13.3954,11.3613],[-13.3543,11.3486],[-13.2941,11.3376],[-13.284,11.3373],[-13.2797,11.3355],[-13.2642,11.331],[-13.2457,11.1424],[-13.244,11.1377],[-13.2337,11.1303],[-13.2271,11.1295],[-13.1761,11.1327],[-13.0882,11.1535],[-13.0498,11.1674],[-13.0405,11.1717],[-12.9687,11.1685]]]}},{"type":"Feature","properties":{"id":"GIN-5659","name":"Yomou","nameBn":"ইয়োমু প্রশাসনিক অঞ্চল","type":"Prefecture","bounds":[-9.4907,7.1902,-8.7257,8.0532],"center":[-9.0802,7.6155]},"geometry":{"type":"Polygon","coordinates":[[[-9.4866,7.3728],[-9.4871,7.3732],[-9.4907,7.376],[-9.4797,7.3854],[-9.4735,7.3956],[-9.4709,7.4074],[-9.4702,7.421],[-9.4662,7.4334],[-9.4567,7.4431],[-9.4361,7.4586],[-9.4134,7.4923],[-9.4049,7.5136],[-9.4087,7.5274],[-9.3908,7.5482],[-9.3837,7.5595],[-9.3788,7.5863],[-9.373,7.6013],[-9.3644,7.6143],[-9.3535,7.6224],[-9.3747,7.6469],[-9.3762,7.6806],[-9.3664,7.7162],[-9.3555,7.7419],[-9.3678,7.7575],[-9.3467,7.7604],[-9.3289,7.7546],[-9.3026,7.8113],[-9.2681,7.8382],[-9.1943,7.9039],[-9.1759,7.9447],[-9.1316,7.9801],[-9.1088,7.9936],[-9.0859,8.0246],[-9.0694,8.0532],[-9.0148,8.0134],[-8.9931,7.9645],[-8.9822,7.8885],[-8.9388,7.8071],[-8.9117,7.7257],[-8.8845,7.666],[-8.8085,7.6335],[-8.7276,7.622],[-8.73,7.5874],[-8.7315,7.5818],[-8.7374,7.5714],[-8.7392,7.5657],[-8.738,7.5595],[-8.734,7.5577],[-8.7295,7.5564],[-8.7268,7.5518],[-8.7257,7.5285],[-8.7296,7.5087],[-8.7395,7.4906],[-8.7565,7.4724],[-8.7844,7.4557],[-8.7904,7.4508],[-8.794,7.4415],[-8.7955,7.4211],[-8.7992,7.4122],[-8.8077,7.4045],[-8.824,7.3998],[-8.8334,7.3939],[-8.8516,7.3715],[-8.8606,7.3576],[-8.8654,7.3469],[-8.8633,7.3299],[-8.8559,7.3119],[-8.8514,7.2929],[-8.8578,7.273],[-8.8689,7.2666],[-8.9122,7.2502],[-8.9254,7.2486],[-8.9444,7.2787],[-8.9572,7.2865],[-8.9626,7.263],[-8.9731,7.2677],[-8.9777,7.2662],[-8.981,7.2506],[-8.9855,7.25],[-9.0076,7.2435],[-9.0157,7.2389],[-9.0329,7.2403],[-9.0467,7.2327],[-9.0593,7.2214],[-9.0731,7.2113],[-9.0864,7.2072],[-9.1004,7.2048],[-9.1061,7.203],[-9.1139,7.2004],[-9.1254,7.1902],[-9.1161,7.2247],[-9.1196,7.238],[-9.1392,7.2479],[-9.1469,7.2541],[-9.1475,7.2714],[-9.1531,7.2755],[-9.1754,7.2746],[-9.1815,7.2757],[-9.2063,7.2984],[-9.2199,7.361],[-9.2343,7.3813],[-9.2497,7.3831],[-9.2838,7.3741],[-9.2995,7.3766],[-9.3055,7.3835],[-9.3124,7.4033],[-9.3194,7.412],[-9.3278,7.4171],[-9.335,7.4197],[-9.3492,7.4216],[-9.366,7.4211],[-9.3752,7.4193],[-9.3792,7.4158],[-9.3814,7.405],[-9.3865,7.4017],[-9.3923,7.3999],[-9.4074,7.3781],[-9.4187,7.3878],[-9.4381,7.4216],[-9.4493,7.4051],[-9.4784,7.3769],[-9.4866,7.3728]]]}}]}