{"type":"FeatureCollection","features":[{"type":"Feature","properties":{"id":"GRD-5069","name":"Carriacou and Petite Martinique","nameBn":"ক্যারিয়ারাকু এবং পেতিট মার্টিনিক","type":"Dependency","bounds":[-61.4962,12.4404,-61.4216,12.5297],"center":[-61.4461,12.4733]},"geometry":{"type":"Polygon","coordinates":[[[-61.428,12.4547],[-61.4457,12.4598],[-61.4626,12.4551],[-61.4792,12.4467],[-61.4962,12.4404],[-61.4928,12.4465],[-61.4861,12.4622],[-61.4827,12.4683],[-61.4857,12.4688],[-61.4962,12.4683],[-61.4948,12.4723],[-61.4889,12.482],[-61.4673,12.4756],[-61.4543,12.4928],[-61.4435,12.5165],[-61.428,12.5297],[-61.4216,12.5134],[-61.4233,12.4952],[-61.4274,12.4754],[-61.428,12.4547]]]}},{"type":"Feature","properties":{"id":"GRD-5070","name":"Saint Andrew","nameBn":"সেন্ট আন্ড্রু পারিশ","type":"Parish","bounds":[-61.688,12.069,-61.6032,12.1792],"center":[-61.6329,12.1224]},"geometry":{"type":"Polygon","coordinates":[[[-61.6032,12.1767],[-61.6063,12.1338],[-61.6087,12.1268],[-61.6131,12.1199],[-61.6198,12.1046],[-61.6195,12.0967],[-61.6138,12.0804],[-61.6164,12.0773],[-61.6216,12.0749],[-61.6245,12.069],[-61.6428,12.0829],[-61.6584,12.0895],[-61.6765,12.0846],[-61.6814,12.0912],[-61.6864,12.1109],[-61.688,12.1216],[-61.6765,12.1356],[-61.6625,12.1586],[-61.6559,12.1792],[-61.6313,12.1792],[-61.6032,12.1767]]]}},{"type":"Feature","properties":{"id":"GRD-5071","name":"Saint David","nameBn":"সেন্ট ডেভিড প্যারিশ","type":"Parish","bounds":[-61.6963,12.022,-61.6245,12.0895],"center":[-61.6617,12.055]},"geometry":{"type":"Polygon","coordinates":[[[-61.6245,12.069],[-61.6257,12.0612],[-61.626,12.053],[-61.6316,12.0441],[-61.6744,12.022],[-61.6744,12.0295],[-61.683,12.0254],[-61.6889,12.0295],[-61.6963,12.041],[-61.6963,12.0583],[-61.6897,12.0805],[-61.6765,12.0846],[-61.6584,12.0895],[-61.6428,12.0829],[-61.6245,12.069]]]}},{"type":"Feature","properties":{"id":"GRD-5072","name":"Saint George","nameBn":"সেন্ট জর্জ প্যারিশ","type":"Parish","bounds":[-61.7905,12.0028,-61.6765,12.1109],"center":[-61.7226,12.0681]},"geometry":{"type":"Polygon","coordinates":[[[-61.683,12.0254],[-61.6894,12.0198],[-61.6934,12.0123],[-61.6949,12.0028],[-61.7043,12.0045],[-61.7132,12.0073],[-61.7218,12.0111],[-61.7296,12.0158],[-61.74,12.0069],[-61.7569,12.0034],[-61.7755,12.0043],[-61.7905,12.0084],[-61.7558,12.0303],[-61.7495,12.0363],[-61.746,12.0509],[-61.7488,12.0626],[-61.7538,12.0742],[-61.7564,12.0878],[-61.751,12.1101],[-61.716,12.1101],[-61.6864,12.1109],[-61.6814,12.0912],[-61.6765,12.0846],[-61.6897,12.0805],[-61.6963,12.0583],[-61.6963,12.041],[-61.6889,12.0295],[-61.683,12.0254]]]}},{"type":"Feature","properties":{"id":"GRD-5073","name":"Saint John","nameBn":"সেন্ট জন প্যারিশ","type":"Parish","bounds":[-61.751,12.1101,-61.6625,12.1839],"center":[-61.7094,12.1446]},"geometry":{"type":"Polygon","coordinates":[[[-61.751,12.1101],[-61.7303,12.1493],[-61.7296,12.1667],[-61.7151,12.1839],[-61.6963,12.1792],[-61.6773,12.1701],[-61.6625,12.1586],[-61.6765,12.1356],[-61.688,12.1216],[-61.6864,12.1109],[-61.716,12.1101],[-61.751,12.1101]]]}},{"type":"Feature","properties":{"id":"GRD-5074","name":"Saint Mark","nameBn":"সেন্ট মাার্ক পারিশ","type":"Parish","bounds":[-61.7151,12.1586,-61.6559,12.2233],"center":[-61.6749,12.189]},"geometry":{"type":"Polygon","coordinates":[[[-61.7151,12.1839],[-61.6821,12.2233],[-61.6691,12.2137],[-61.6592,12.1997],[-61.6559,12.1792],[-61.6625,12.1586],[-61.6773,12.1701],[-61.6963,12.1792],[-61.7151,12.1839]]]}},{"type":"Feature","properties":{"id":"GRD-5075","name":"Saint Patrick","nameBn":"সেন্ত প্যাট্রিক পারিশ","type":"Parish","bounds":[-61.6821,12.1767,-61.6028,12.2397],"center":[-61.6342,12.2147]},"geometry":{"type":"Polygon","coordinates":[[[-61.6821,12.2233],[-61.6715,12.2361],[-61.6505,12.2397],[-61.6277,12.2367],[-61.606,12.2234],[-61.6067,12.2203],[-61.6129,12.2144],[-61.6046,12.1975],[-61.6028,12.1829],[-61.6032,12.1767],[-61.6313,12.1792],[-61.6559,12.1792],[-61.6592,12.1997],[-61.6691,12.2137],[-61.6821,12.2233]]]}}]}