{"type":"FeatureCollection","features":[{"type":"Feature","properties":{"id":"HKG-5153","name":"Central and Western","nameBn":"সেন্ট্রাল অ্যান্ড ওয়েস্টার্ন","type":null,"bounds":[114.1126,22.2574,114.1657,22.2887],"center":[114.144,22.2741]},"geometry":{"type":"Polygon","coordinates":[[[114.1126,22.2715],[114.1134,22.2778],[114.1157,22.2794],[114.1205,22.2817],[114.1291,22.2856],[114.1391,22.2887],[114.1499,22.2856],[114.1571,22.2817],[114.1657,22.2794],[114.1625,22.2582],[114.1497,22.2574],[114.1365,22.2667],[114.1271,22.2714],[114.1126,22.2715]]]}},{"type":"Feature","properties":{"id":"HKG-5155","name":"Eastern","nameBn":"ইস্টার্ন","type":null,"bounds":[114.1789,22.2489,114.2515,22.2919],"center":[114.213,22.2706]},"geometry":{"type":"Polygon","coordinates":[[[114.1789,22.2794],[114.1882,22.2872],[114.1968,22.2919],[114.2064,22.2882],[114.2156,22.2856],[114.2218,22.2794],[114.2281,22.2809],[114.2358,22.2778],[114.2437,22.2646],[114.2515,22.2591],[114.2515,22.2489],[114.2309,22.2574],[114.2012,22.2597],[114.1888,22.2594],[114.1927,22.2675],[114.195,22.2738],[114.1864,22.2753],[114.1789,22.2794]]]}},{"type":"Feature","properties":{"id":"HKG-5170","name":"Islands","nameBn":"আইল্যান্ডস","type":null,"bounds":[113.8373,22.1771,114.1546,22.3162],"center":[113.954,22.2597]},"geometry":{"type":"MultiPolygon","coordinates":[[[[114.1374,22.1788],[114.1108,22.1771],[114.1141,22.1857],[114.1141,22.2161],[114.1043,22.216],[114.1064,22.2224],[114.1067,22.2358],[114.1133,22.2333],[114.1174,22.2219],[114.1257,22.2134],[114.1328,22.2161],[114.1328,22.2099],[114.1257,22.2052],[114.1382,22.206],[114.1497,22.206],[114.1546,22.2036],[114.1431,22.1961],[114.1391,22.1911],[114.1454,22.1787],[114.1374,22.1788]]],[[[113.8464,22.1971],[113.8392,22.2049],[113.8379,22.218],[113.8373,22.2286],[113.8392,22.2342],[113.8492,22.2342],[113.8492,22.2441],[113.8568,22.246],[113.8568,22.2523],[113.8506,22.2567],[113.8511,22.2571],[113.8599,22.2635],[113.867,22.269],[113.8676,22.2707],[113.8768,22.2723],[113.884,22.2794],[113.8925,22.2927],[113.9113,22.2927],[113.9215,22.2919],[113.9284,22.2849],[113.9386,22.2887],[113.9619,22.3012],[113.9767,22.2981],[113.9837,22.309],[113.9924,22.3106],[113.9956,22.3158],[114.0305,22.3162],[114.0296,22.309],[114.0127,22.3113],[114.0127,22.2981],[114.0221,22.3019],[114.0176,22.289],[114.0189,22.2646],[114.0042,22.2646],[113.9954,22.2678],[114.0073,22.2521],[113.9924,22.2412],[114.015,22.2271],[114.0002,22.2161],[113.9819,22.2082],[113.9806,22.2153],[113.9806,22.2372],[113.9691,22.2372],[113.9596,22.2372],[113.9456,22.2372],[113.9284,22.224],[113.9215,22.224],[113.9183,22.2192],[113.9284,22.2169],[113.9284,22.2108],[113.9191,22.205],[113.9063,22.204],[113.8941,22.2153],[113.8925,22.2224],[113.884,22.22],[113.8737,22.2131],[113.8591,22.2014],[113.8464,22.1971]]]]}},{"type":"Feature","properties":{"id":"HKG-5158","name":"Kowloon City","nameBn":"কোওলুন সিটি","type":null,"bounds":[114.17,22.2911,114.2149,22.348],"center":[114.19,22.3268]},"geometry":{"type":"Polygon","coordinates":[[[114.2118,22.3106],[114.2149,22.3012],[114.2125,22.3012],[114.1955,22.3183],[114.1865,22.3087],[114.1914,22.3019],[114.1914,22.2989],[114.1837,22.3019],[114.1817,22.2944],[114.1765,22.2911],[114.1771,22.3042],[114.1747,22.3143],[114.1753,22.3231],[114.1763,22.3362],[114.17,22.3448],[114.1856,22.348],[114.1934,22.3331],[114.2052,22.3345],[114.2083,22.3237],[114.2118,22.3106]]]}},{"type":"Feature","properties":{"id":"HKG-5164","name":"Kwai Tsing","nameBn":"কোয়াই তসিং","type":null,"bounds":[114.1125,22.332,114.1595,22.3799],"center":[114.14,22.351]},"geometry":{"type":"Polygon","coordinates":[[[114.1457,22.332],[114.1382,22.336],[114.1244,22.3422],[114.1235,22.3371],[114.1134,22.3527],[114.1125,22.3577],[114.1302,22.3604],[114.1384,22.3637],[114.1341,22.3768],[114.1419,22.3799],[114.1505,22.3666],[114.1544,22.3541],[114.1595,22.3419],[114.1483,22.3388],[114.1457,22.332]]]}},{"type":"Feature","properties":{"id":"HKG-5161","name":"Kwun Tong","nameBn":"কৌউন তং","type":null,"bounds":[114.2052,22.2817,114.2434,22.3345],"center":[114.225,22.3159]},"geometry":{"type":"Polygon","coordinates":[[[114.2434,22.2862],[114.2389,22.2817],[114.2281,22.2919],[114.2118,22.3106],[114.2083,22.3237],[114.2052,22.3345],[114.234,22.3331],[114.2418,22.3198],[114.2364,22.3011],[114.2434,22.2862]]]}},{"type":"Feature","properties":{"id":"HKG-5168","name":"North","nameBn":"নর্থ","type":null,"bounds":[114.0824,22.4681,114.3328,22.5639],"center":[114.148,22.5063]},"geometry":{"type":"Polygon","coordinates":[[[114.1732,22.5639],[114.183,22.5562],[114.1999,22.5562],[114.2207,22.5551],[114.2298,22.5558],[114.2347,22.5562],[114.2272,22.5471],[114.2222,22.5414],[114.2149,22.5345],[114.21,22.5345],[114.2093,22.5237],[114.2179,22.526],[114.2187,22.5299],[114.2304,22.5329],[114.2343,22.5369],[114.242,22.5502],[114.2459,22.551],[114.249,22.5478],[114.2546,22.551],[114.2577,22.5478],[114.2533,22.5395],[114.2592,22.5408],[114.2656,22.5353],[114.2651,22.5285],[114.27,22.5256],[114.278,22.5299],[114.2798,22.526],[114.2798,22.5197],[114.2777,22.5117],[114.2852,22.5112],[114.2892,22.5052],[114.2985,22.501],[114.3266,22.5088],[114.3328,22.5119],[114.3144,22.4985],[114.2972,22.4907],[114.2824,22.4938],[114.259,22.4915],[114.2371,22.4907],[114.2278,22.4993],[114.2145,22.5001],[114.1997,22.493],[114.1825,22.4845],[114.1771,22.4868],[114.1654,22.4845],[114.1638,22.4767],[114.1396,22.4681],[114.131,22.4735],[114.1021,22.4704],[114.0967,22.4946],[114.0912,22.5196],[114.0853,22.5229],[114.0824,22.5294],[114.0915,22.5344],[114.1084,22.5344],[114.114,22.5288],[114.1171,22.5276],[114.1289,22.5381],[114.1382,22.5393],[114.1487,22.5381],[114.1539,22.5519],[114.162,22.5605],[114.1732,22.5639]]]}},{"type":"Feature","properties":{"id":"HKG-5162","name":"Sai Kung","nameBn":"সাই কুং","type":null,"bounds":[114.2231,22.2583,114.4013,22.4463],"center":[114.249,22.3463]},"geometry":{"type":"Polygon","coordinates":[[[114.3674,22.4463],[114.3702,22.44],[114.3858,22.4392],[114.3997,22.4361],[114.3974,22.4284],[114.4013,22.4127],[114.3893,22.4179],[114.3818,22.4191],[114.3702,22.398],[114.375,22.4005],[114.3849,22.3874],[114.3897,22.366],[114.3866,22.3652],[114.3858,22.3702],[114.3764,22.3706],[114.3795,22.3621],[114.3756,22.3535],[114.3702,22.3488],[114.3608,22.3458],[114.3576,22.3324],[114.3523,22.3395],[114.3523,22.3519],[114.342,22.3458],[114.339,22.3527],[114.3328,22.3598],[114.3343,22.3753],[114.3204,22.3808],[114.3186,22.3894],[114.3101,22.3838],[114.3001,22.3816],[114.286,22.391],[114.278,22.391],[114.2687,22.3784],[114.2734,22.3636],[114.2798,22.355],[114.2765,22.348],[114.2672,22.3558],[114.2664,22.366],[114.2584,22.3621],[114.2555,22.3559],[114.2658,22.3463],[114.2726,22.3207],[114.2772,22.3192],[114.2913,22.3166],[114.2921,22.3052],[114.296,22.3052],[114.3039,22.3067],[114.3116,22.2973],[114.3057,22.2908],[114.2977,22.2856],[114.2905,22.2879],[114.289,22.2872],[114.2897,22.2817],[114.2896,22.2739],[114.3001,22.277],[114.3032,22.2692],[114.3032,22.2622],[114.2967,22.2583],[114.289,22.2646],[114.2783,22.2705],[114.2798,22.2794],[114.2734,22.2958],[114.2648,22.3019],[114.2656,22.3098],[114.2664,22.316],[114.2555,22.3223],[114.2515,22.3052],[114.253,22.2958],[114.2434,22.2862],[114.2364,22.3011],[114.2418,22.3198],[114.234,22.3331],[114.2231,22.3557],[114.2379,22.3776],[114.2512,22.3955],[114.2816,22.4002],[114.2996,22.4103],[114.3183,22.4189],[114.3331,22.4111],[114.3503,22.4033],[114.3643,22.4119],[114.3628,22.433],[114.3674,22.4463]]]}},{"type":"Feature","properties":{"id":"HKG-5163","name":"Sha Tin","nameBn":"শা টিন","type":null,"bounds":[114.1505,22.3419,114.252,22.4355],"center":[114.2,22.3807]},"geometry":{"type":"Polygon","coordinates":[[[114.2053,22.4249],[114.2118,22.4206],[114.21,22.4127],[114.2149,22.4089],[114.2093,22.3987],[114.2156,22.4003],[114.2234,22.415],[114.2342,22.4247],[114.2382,22.4354],[114.2438,22.4355],[114.2515,22.4307],[114.252,22.4127],[114.2512,22.3955],[114.2379,22.3776],[114.2231,22.3557],[114.1856,22.348],[114.17,22.3448],[114.1595,22.3419],[114.1544,22.3541],[114.1505,22.3666],[114.1732,22.3963],[114.1708,22.4178],[114.1817,22.4181],[114.2053,22.4249]]]}},{"type":"Feature","properties":{"id":"HKG-5159","name":"Sham Shui Po","nameBn":"শাম শুই পো","type":null,"bounds":[114.1457,22.3223,114.1763,22.3448],"center":[114.164,22.3331]},"geometry":{"type":"Polygon","coordinates":[[[114.1595,22.3223],[114.1522,22.3285],[114.1457,22.332],[114.1483,22.3388],[114.1595,22.3419],[114.17,22.3448],[114.1763,22.3362],[114.1753,22.3231],[114.1595,22.3223]]]}},{"type":"Feature","properties":{"id":"HKG-5156","name":"Southern","nameBn":"দক্ষিণ","type":null,"bounds":[114.1126,22.1896,114.2561,22.2715],"center":[114.204,22.2402]},"geometry":{"type":"Polygon","coordinates":[[[114.2515,22.2489],[114.2453,22.2419],[114.249,22.2325],[114.2538,22.224],[114.249,22.2224],[114.2561,22.2036],[114.2437,22.2013],[114.2405,22.2052],[114.2328,22.2115],[114.2327,22.222],[114.2295,22.2336],[114.2227,22.2388],[114.2168,22.2343],[114.2227,22.2325],[114.2227,22.2248],[114.2187,22.224],[114.2118,22.2161],[114.2187,22.206],[114.2156,22.199],[114.2195,22.1919],[114.2077,22.1896],[114.2061,22.2052],[114.2093,22.2075],[114.2066,22.2124],[114.1961,22.2075],[114.1914,22.2099],[114.1961,22.2153],[114.1891,22.2192],[114.1937,22.2255],[114.1914,22.231],[114.1827,22.2325],[114.1838,22.241],[114.1712,22.2333],[114.1672,22.2279],[114.1649,22.2279],[114.1626,22.2333],[114.161,22.2404],[114.1522,22.245],[114.136,22.2458],[114.1291,22.2489],[114.125,22.2567],[114.1235,22.2614],[114.1188,22.2692],[114.1126,22.2715],[114.1271,22.2714],[114.1365,22.2667],[114.1497,22.2574],[114.1625,22.2582],[114.1732,22.2589],[114.1888,22.2594],[114.2012,22.2597],[114.2309,22.2574],[114.2515,22.2489]]]}},{"type":"Feature","properties":{"id":"HKG-5169","name":"Tai Po","nameBn":"তাই পো","type":null,"bounds":[114.1256,22.3955,114.3678,22.5119],"center":[114.154,22.4447]},"geometry":{"type":"MultiPolygon","coordinates":[[[[114.3328,22.5119],[114.3351,22.5064],[114.3163,22.4924],[114.3054,22.483],[114.2936,22.4783],[114.2804,22.4729],[114.2687,22.465],[114.2641,22.4581],[114.2538,22.4518],[114.2459,22.4518],[114.2312,22.4698],[114.2171,22.4674],[114.2118,22.4706],[114.2093,22.4658],[114.2109,22.4573],[114.2156,22.455],[114.2171,22.4479],[114.21,22.4495],[114.2093,22.4541],[114.2022,22.4581],[114.1906,22.4565],[114.1867,22.4518],[114.1675,22.4481],[114.1765,22.4432],[114.1875,22.4361],[114.2002,22.4282],[114.2053,22.4249],[114.1817,22.4181],[114.1708,22.4178],[114.1536,22.4173],[114.1373,22.4119],[114.1256,22.4517],[114.1396,22.4681],[114.1638,22.4767],[114.1654,22.4845],[114.1771,22.4868],[114.1825,22.4845],[114.1997,22.493],[114.2145,22.5001],[114.2278,22.4993],[114.2371,22.4907],[114.259,22.4915],[114.2824,22.4938],[114.2972,22.4907],[114.3144,22.4985],[114.3328,22.5119]]],[[[114.2515,22.4307],[114.2672,22.4307],[114.2694,22.4255],[114.2672,22.416],[114.2726,22.4097],[114.2765,22.4198],[114.289,22.426],[114.2765,22.444],[114.289,22.4533],[114.3016,22.4565],[114.3008,22.465],[114.3237,22.48],[114.325,22.4752],[114.3307,22.4741],[114.325,22.4643],[114.3357,22.4617],[114.3381,22.4464],[114.3328,22.44],[114.3374,22.4316],[114.3428,22.4377],[114.3476,22.4229],[114.3523,22.4237],[114.3516,22.441],[114.3599,22.4612],[114.3678,22.455],[114.3674,22.4463],[114.3628,22.433],[114.3643,22.4119],[114.3503,22.4033],[114.3331,22.4111],[114.3183,22.4189],[114.2996,22.4103],[114.2816,22.4002],[114.2512,22.3955],[114.252,22.4127],[114.2515,22.4307]]]]}},{"type":"Feature","properties":{"id":"HKG-5165","name":"Tsuen Wan","nameBn":"সুয়েন ওয়ান","type":null,"bounds":[113.9956,22.3158,114.1732,22.4178],"center":[114.12,22.3869]},"geometry":{"type":"MultiPolygon","coordinates":[[[[113.9956,22.3158],[113.9995,22.3223],[114.0173,22.3355],[114.0205,22.3285],[114.0438,22.3458],[114.0493,22.3422],[114.0549,22.3363],[114.0518,22.3285],[114.0502,22.3199],[114.0462,22.3231],[114.0383,22.3246],[114.0314,22.3246],[114.0305,22.3162],[113.9956,22.3158]]],[[[114.1125,22.3577],[114.111,22.366],[114.1048,22.3699],[114.0975,22.363],[114.0791,22.366],[114.0783,22.3629],[114.0704,22.3629],[114.0672,22.359],[114.058,22.3613],[114.0502,22.359],[114.0399,22.355],[114.0205,22.3504],[114.0304,22.3635],[114.0218,22.3721],[114.0358,22.3822],[114.0725,22.3947],[114.1146,22.4064],[114.1373,22.4119],[114.1536,22.4173],[114.1708,22.4178],[114.1732,22.3963],[114.1505,22.3666],[114.1419,22.3799],[114.1341,22.3768],[114.1384,22.3637],[114.1302,22.3604],[114.1125,22.3577]]]]}},{"type":"Feature","properties":{"id":"HKG-5166","name":"Tuen Mun","nameBn":"তুয়েন মুন","type":null,"bounds":[113.897,22.3504,114.0358,22.4268],"center":[113.991,22.3846]},"geometry":{"type":"Polygon","coordinates":[[[114.0205,22.3504],[114.015,22.3535],[114.015,22.359],[113.9986,22.359],[113.9919,22.3641],[113.9827,22.3668],[113.9767,22.3792],[113.9729,22.38],[113.9706,22.3871],[113.9644,22.3807],[113.9746,22.3721],[113.9549,22.3699],[113.9448,22.3621],[113.9307,22.3691],[113.926,22.3691],[113.9144,22.3761],[113.9183,22.3878],[113.9106,22.3987],[113.897,22.4088],[113.9094,22.4186],[113.9307,22.4198],[113.941,22.4268],[113.9609,22.4166],[113.9882,22.4041],[114.035,22.4041],[114.0358,22.3822],[114.0218,22.3721],[114.0304,22.3635],[114.0205,22.3504]]]}},{"type":"Feature","properties":{"id":"HKG-5154","name":"Wan Chai","nameBn":"ওয়ান চাই","type":null,"bounds":[114.1625,22.2582,114.195,22.2794],"center":[114.178,22.2699]},"geometry":{"type":"Polygon","coordinates":[[[114.1657,22.2794],[114.1789,22.2794],[114.1864,22.2753],[114.195,22.2738],[114.1927,22.2675],[114.1888,22.2594],[114.1732,22.2589],[114.1625,22.2582],[114.1657,22.2794]]]}},{"type":"Feature","properties":{"id":"HKG-5160","name":"Wong Tai Sin","nameBn":"ওয়াং তাই সিন","type":null,"bounds":[114.1856,22.3331,114.234,22.3557],"center":[114.215,22.3432]},"geometry":{"type":"Polygon","coordinates":[[[114.1934,22.3331],[114.1856,22.348],[114.2231,22.3557],[114.234,22.3331],[114.2052,22.3345],[114.1934,22.3331]]]}},{"type":"Feature","properties":{"id":"HKG-5157","name":"Yau Tsim Mong","nameBn":"ইয়াউ সিম মং","type":null,"bounds":[114.1595,22.2887,114.1771,22.3231],"center":[114.169,22.3128]},"geometry":{"type":"Polygon","coordinates":[[[114.1765,22.2911],[114.1719,22.2887],[114.1672,22.2942],[114.1682,22.3055],[114.1657,22.3106],[114.1649,22.3152],[114.1595,22.3152],[114.1595,22.3223],[114.1753,22.3231],[114.1747,22.3143],[114.1771,22.3042],[114.1765,22.2911]]]}},{"type":"Feature","properties":{"id":"HKG-5167","name":"Yuen Long","nameBn":"ইউয়েন লং","type":null,"bounds":[113.941,22.3822,114.1396,22.5229],"center":[114.058,22.4415]},"geometry":{"type":"Polygon","coordinates":[[[113.941,22.4268],[113.9541,22.4495],[113.9775,22.4588],[113.9986,22.4886],[114.0049,22.4886],[114.0127,22.4861],[114.0117,22.48],[114.0112,22.4729],[114.015,22.4752],[114.0268,22.4783],[114.0299,22.4783],[114.0314,22.4822],[114.0306,22.4877],[114.0306,22.4955],[114.0422,22.501],[114.058,22.5049],[114.0618,22.5088],[114.0658,22.5159],[114.0735,22.5182],[114.0783,22.5197],[114.0853,22.5229],[114.0912,22.5196],[114.0967,22.4946],[114.1021,22.4704],[114.131,22.4735],[114.1396,22.4681],[114.1256,22.4517],[114.1373,22.4119],[114.1146,22.4064],[114.0725,22.3947],[114.0358,22.3822],[114.035,22.4041],[113.9882,22.4041],[113.9609,22.4166],[113.941,22.4268]]]}}]}