{"type":"FeatureCollection","features":[{"type":"Feature","properties":{"id":"HUN-3155","name":"Baranya","nameBn":"বারান্যা","type":"County","bounds":[17.617,45.7413,18.8524,46.4116],"center":[17.9611,45.9602]},"geometry":{"type":"Polygon","coordinates":[[[17.8581,45.7717],[17.858,45.7759],[17.8382,45.7996],[17.8092,45.8144],[17.6873,45.8406],[17.6647,45.8416],[17.6565,45.8454],[17.6547,45.8521],[17.6818,45.8506],[17.7051,45.8592],[17.7084,45.8883],[17.6921,45.9087],[17.6634,45.9267],[17.6423,45.9506],[17.6305,45.981],[17.646,46.001],[17.617,46.0623],[17.6764,46.0835],[17.6935,46.1149],[17.6909,46.1763],[17.7199,46.1995],[17.7663,46.2111],[17.8151,46.2122],[17.846,46.2289],[17.9382,46.3129],[18.0524,46.3227],[18.0718,46.3379],[18.0787,46.3597],[18.0976,46.3712],[18.1234,46.3657],[18.1491,46.3646],[18.1685,46.3825],[18.1855,46.4041],[18.3034,46.4116],[18.3338,46.4079],[18.3381,46.395],[18.3352,46.3788],[18.3735,46.3483],[18.3926,46.3128],[18.4079,46.2272],[18.4471,46.2466],[18.4643,46.2603],[18.4887,46.2634],[18.5387,46.23],[18.5584,46.2299],[18.5784,46.2387],[18.5949,46.226],[18.6205,46.1879],[18.6509,46.1555],[18.683,46.1299],[18.7327,46.1108],[18.7858,46.0997],[18.8042,46.101],[18.822,46.0989],[18.8286,46.0881],[18.8283,46.0742],[18.8447,46.0499],[18.8455,46.0259],[18.8524,46.0112],[18.8449,45.9899],[18.8313,45.9707],[18.8241,45.9402],[18.8015,45.92],[18.8222,45.9057],[18.8225,45.9056],[18.8178,45.9055],[18.8049,45.9136],[18.7949,45.903],[18.7904,45.8939],[18.786,45.8869],[18.7755,45.8828],[18.7633,45.884],[18.7238,45.8984],[18.6743,45.9104],[18.6556,45.9076],[18.633,45.8919],[18.6293,45.8869],[18.6263,45.8748],[18.6236,45.8687],[18.6222,45.8684],[18.6074,45.8567],[18.5855,45.8269],[18.5735,45.8167],[18.5303,45.7908],[18.5042,45.784],[18.4818,45.7914],[18.4655,45.7837],[18.4307,45.7536],[18.4117,45.7432],[18.4044,45.7418],[18.3976,45.7413],[18.3907,45.7418],[18.3841,45.7431],[18.3838,45.7432],[18.3672,45.7582],[18.3512,45.7584],[18.3349,45.752],[18.3177,45.7473],[18.3005,45.7518],[18.2833,45.7649],[18.2605,45.7651],[18.2298,45.7812],[18.2112,45.7854],[18.1289,45.7854],[18.1202,45.7834],[18.1029,45.7746],[18.0921,45.7717],[18.0805,45.7717],[17.9754,45.7921],[17.9062,45.7921],[17.8898,45.7921],[17.8805,45.7885],[17.8757,45.7807],[17.8701,45.7735],[17.8581,45.7717]],[[18.3615,46.0566],[18.3705,46.0686],[18.3555,46.1075],[18.3196,46.1703],[18.2777,46.1524],[18.2388,46.1584],[18.1969,46.1613],[18.1564,46.1414],[18.1355,46.1235],[18.1251,46.0835],[18.1431,46.0626],[18.1281,46.0387],[18.161,46.0237],[18.1999,45.9968],[18.2358,45.9848],[18.2628,45.9968],[18.2807,46.0177],[18.2927,46.0416],[18.3106,46.0626],[18.3286,46.0626],[18.3615,46.0566]]]}},{"type":"Feature","properties":{"id":"HUN-3168","name":"Borsod-Abaúj-Zemplén","nameBn":"বোরোসদ-আবাউদ-জেমপ্লেন কাউন্টি","type":"County","bounds":[20.0383,47.6723,22.1583,48.5692],"center":[21.0983,48.2104]},"geometry":{"type":"Polygon","coordinates":[[[20.8003,48.5692],[20.8158,48.5638],[20.8455,48.5458],[20.8599,48.5433],[20.8914,48.5411],[20.9458,48.519],[20.9815,48.5169],[21.0065,48.5182],[21.036,48.5146],[21.0639,48.5062],[21.084,48.493],[21.1093,48.4891],[21.1867,48.5137],[21.2199,48.5187],[21.238,48.5134],[21.2504,48.5065],[21.2618,48.5032],[21.2766,48.5087],[21.2882,48.5199],[21.2939,48.5306],[21.3023,48.5399],[21.3218,48.5476],[21.3386,48.5499],[21.3727,48.5503],[21.4246,48.5613],[21.4391,48.5583],[21.4727,48.545],[21.4908,48.5403],[21.4994,48.5351],[21.506,48.5265],[21.5151,48.5071],[21.5218,48.5001],[21.5377,48.4952],[21.5746,48.4956],[21.5917,48.493],[21.6004,48.4816],[21.6134,48.4404],[21.6216,48.4297],[21.6776,48.3723],[21.7012,48.3539],[21.7277,48.3409],[21.759,48.3338],[21.7894,48.3355],[21.8412,48.3532],[21.8843,48.3575],[21.9148,48.3691],[21.9293,48.3729],[21.9815,48.3747],[21.9999,48.379],[22.018,48.3797],[22.0779,48.3758],[22.0965,48.3794],[22.1139,48.3886],[22.1328,48.4048],[22.1565,48.4021],[22.1583,48.4022],[22.1372,48.3869],[22.1,48.3345],[22.0792,48.3115],[22.0515,48.3],[22.0422,48.3013],[22.0228,48.3083],[22.0112,48.3074],[22.0053,48.3032],[21.9715,48.2698],[21.9432,48.2478],[21.9286,48.2398],[21.9092,48.235],[21.846,48.2324],[21.8314,48.2247],[21.8131,48.2121],[21.7945,48.202],[21.7784,48.2016],[21.7662,48.1994],[21.6902,48.1674],[21.6712,48.1655],[21.6521,48.1678],[21.6128,48.1803],[21.5958,48.1807],[21.5587,48.1771],[21.4946,48.1791],[21.4761,48.1771],[21.4613,48.1701],[21.4469,48.1579],[21.4353,48.1435],[21.4284,48.1299],[21.4263,48.1124],[21.4317,48.1033],[21.439,48.0955],[21.4427,48.0818],[21.4324,48.0506],[21.4069,48.0337],[21.3733,48.027],[21.339,48.0263],[21.3464,48.0263],[21.2986,48.024],[21.2843,48.0263],[21.2723,48.0332],[21.2633,48.0417],[21.2529,48.0475],[21.2366,48.0468],[21.2296,48.042],[21.2266,48.0351],[21.2226,48.029],[21.2127,48.0263],[21.1882,48.0271],[21.1813,48.0263],[21.1378,48.0068],[21.1267,47.999],[21.12,47.9867],[21.1137,47.9605],[21.1116,47.952],[21.1062,47.9381],[21.0981,47.9296],[21.0652,47.9034],[21.0564,47.8905],[21.0557,47.883],[21.0581,47.8735],[21.0584,47.855],[21.0553,47.8392],[21.0494,47.8313],[21.0285,47.8163],[21.0341,47.7859],[21.0339,47.7798],[20.979,47.773],[20.9786,47.7655],[20.9547,47.7336],[20.9485,47.7284],[20.9422,47.7186],[20.8921,47.6843],[20.8192,47.6794],[20.7915,47.6775],[20.7741,47.6723],[20.7415,47.676],[20.7186,47.686],[20.6089,47.7011],[20.5881,47.7244],[20.5748,47.7553],[20.5285,47.7919],[20.4645,47.8682],[20.4568,47.872],[20.4484,47.8806],[20.4582,47.89],[20.465,47.8992],[20.4609,47.9188],[20.4475,47.9343],[20.4289,47.9486],[20.422,47.9691],[20.4343,47.9838],[20.4788,48.015],[20.4918,48.0549],[20.529,48.071],[20.5796,48.0786],[20.6403,48.0811],[20.6732,48.0508],[20.7263,48.0255],[20.7794,48.0027],[20.8199,48.0053],[20.8704,48.0154],[20.9033,48.0407],[20.8983,48.0634],[20.8755,48.0913],[20.8755,48.1216],[20.8553,48.1596],[20.8274,48.1874],[20.7895,48.2026],[20.7541,48.2026],[20.7111,48.2228],[20.6656,48.2],[20.6067,48.1699],[20.5586,48.142],[20.5055,48.1395],[20.4728,48.1134],[20.4184,48.1514],[20.3548,48.095],[20.3208,48.1116],[20.2847,48.11],[20.2561,48.0928],[20.2209,48.0929],[20.2045,48.1019],[20.1915,48.1162],[20.1772,48.1196],[20.1611,48.1182],[20.1421,48.1342],[20.1182,48.1479],[20.0959,48.1411],[20.0766,48.1544],[20.0486,48.1679],[20.0383,48.1772],[20.0781,48.1935],[20.097,48.1984],[20.1053,48.2028],[20.1126,48.2117],[20.1181,48.2297],[20.122,48.2367],[20.1345,48.2467],[20.1431,48.2478],[20.1533,48.2453],[20.1709,48.244],[20.1876,48.249],[20.2178,48.2676],[20.2291,48.2709],[20.249,48.2642],[20.2603,48.2559],[20.2724,48.2525],[20.2952,48.2604],[20.3243,48.2799],[20.3493,48.3055],[20.3702,48.3343],[20.409,48.4137],[20.4206,48.4292],[20.4356,48.4424],[20.466,48.4638],[20.4682,48.4654],[20.4817,48.4787],[20.4825,48.4823],[20.4829,48.4858],[20.4828,48.4894],[20.4822,48.4929],[20.4802,48.5102],[20.4805,48.5185],[20.4817,48.5261],[20.5105,48.5338],[20.5725,48.5366],[20.7841,48.5691],[20.8003,48.5692]]]}},{"type":"Feature","properties":{"id":"HUN-3160","name":"Budapest","nameBn":"বুদাপেস্ট","type":"Capital City","bounds":[18.9296,47.3602,19.3267,47.6068],"center":[19.1282,47.4757]},"geometry":{"type":"Polygon","coordinates":[[[19.0886,47.6068],[19.1323,47.5883],[19.1546,47.5688],[19.1919,47.5515],[19.1952,47.5394],[19.2174,47.5421],[19.2933,47.5023],[19.3129,47.497],[19.3267,47.4861],[19.3042,47.4476],[19.2569,47.4228],[19.2377,47.4062],[19.1426,47.3602],[19.1131,47.3627],[19.0627,47.3838],[18.949,47.3693],[18.9555,47.4045],[18.9747,47.4342],[18.9739,47.4469],[18.9386,47.515],[18.9296,47.5737],[18.9903,47.5799],[19.0177,47.5888],[19.0409,47.6046],[19.0886,47.6068]]]}},{"type":"Feature","properties":{"id":"HUN-3161","name":"Bács-Kiskun","nameBn":"বাকস-কিস্কুন কাউন্টি","type":"County","bounds":[18.7858,45.9056,20.154,47.1516],"center":[19.4699,46.6096]},"geometry":{"type":"Polygon","coordinates":[[[19.7119,46.1587],[19.6901,46.1684],[19.6693,46.1731],[19.6478,46.1739],[19.5897,46.166],[19.5684,46.1664],[19.5499,46.1642],[19.5252,46.1564],[19.502,46.1456],[19.4875,46.1342],[19.4893,46.126],[19.4967,46.1169],[19.4993,46.1086],[19.473,46.0987],[19.4659,46.092],[19.4609,46.0845],[19.4537,46.0776],[19.4369,46.068],[19.4283,46.0655],[19.4172,46.0643],[19.4047,46.0602],[19.3966,46.0516],[19.3891,46.0415],[19.3789,46.0337],[19.3622,46.0296],[19.3252,46.0295],[19.307,46.0266],[19.2983,46.0221],[19.2869,46.0162],[19.2795,46.0038],[19.2748,45.9916],[19.2635,45.9814],[19.2357,45.9777],[19.148,45.9841],[19.1258,45.9931],[19.1258,45.9933],[19.111,46.013],[19.0885,46.0188],[19.0654,46.012],[19.0497,45.9931],[19.0486,45.9634],[19.0309,45.96],[19.0056,45.9626],[18.9818,45.9508],[18.9787,45.9472],[18.9777,45.9435],[18.9788,45.9398],[18.9865,45.9313],[18.9887,45.927],[18.9875,45.9238],[18.9818,45.9218],[18.9627,45.9279],[18.9013,45.9312],[18.8865,45.9304],[18.8766,45.9224],[18.8654,45.9181],[18.8454,45.9139],[18.8283,45.9057],[18.8225,45.9056],[18.8222,45.9057],[18.8015,45.92],[18.8241,45.9402],[18.8313,45.9707],[18.8449,45.9899],[18.8524,46.0112],[18.8455,46.0259],[18.8447,46.0499],[18.8283,46.0742],[18.8286,46.0881],[18.822,46.0989],[18.8042,46.101],[18.7858,46.0997],[18.8089,46.1081],[18.8292,46.1229],[18.8072,46.1314],[18.7951,46.1512],[18.8026,46.1614],[18.8178,46.1557],[18.8335,46.1618],[18.8539,46.1932],[18.847,46.2056],[18.835,46.2026],[18.8233,46.2063],[18.8205,46.2122],[18.8241,46.2171],[18.8417,46.2257],[18.8984,46.234],[18.9144,46.2457],[18.9133,46.3306],[18.9101,46.3429],[18.8955,46.3629],[18.8922,46.3784],[18.8989,46.4143],[18.9227,46.4686],[18.9201,46.4988],[18.9076,46.5317],[18.8772,46.5912],[18.8581,46.6148],[18.8853,46.6352],[18.9529,46.6561],[18.9816,46.6763],[18.9964,46.6949],[19.0018,46.7085],[18.9989,46.7231],[18.9891,46.7452],[18.9875,46.7539],[18.9869,46.7655],[18.9847,46.7756],[18.9785,46.7799],[18.9754,46.784],[18.9584,46.8008],[18.9543,46.8035],[18.9506,46.8071],[18.9331,46.8205],[18.9276,46.8271],[18.926,46.8352],[18.9267,46.8484],[18.9276,46.8649],[18.9309,46.8771],[18.9389,46.8917],[18.9488,46.9039],[18.958,46.909],[18.9665,46.9172],[18.9669,46.9358],[18.9605,46.9774],[18.9552,46.9947],[18.9543,47.0052],[18.9569,47.0117],[18.9621,47.0172],[18.9667,47.0237],[18.968,47.0331],[18.9894,47.0666],[19.0367,47.0685],[19.0832,47.078],[19.1575,47.1188],[19.2653,47.1516],[19.3014,47.1453],[19.3302,47.1244],[19.3344,47.0954],[19.3106,47.069],[19.3028,47.0411],[19.323,47.0196],[19.3525,47.0266],[19.3744,47.0558],[19.4028,47.0686],[19.4333,47.0768],[19.4455,47.091],[19.4475,47.111],[19.4623,47.1235],[19.5306,47.1162],[19.5683,47.0905],[19.6236,47.0279],[19.6467,47.0121],[19.627,46.9971],[19.5759,47.0148],[19.5622,46.9971],[19.5563,46.9735],[19.5739,46.9421],[19.5936,46.9048],[19.627,46.8636],[19.6505,46.8066],[19.6898,46.7851],[19.7212,46.8263],[19.7212,46.8714],[19.7506,46.9029],[19.786,46.9029],[19.8174,46.9186],[19.8191,46.9455],[19.8387,46.9465],[19.856,46.9625],[19.8843,46.9806],[19.9159,46.9857],[19.9455,46.9704],[19.9771,46.9629],[20.0186,46.9976],[20.047,47.0114],[20.0763,47.0204],[20.1094,47.0067],[20.1464,46.9793],[20.1119,46.9617],[20.1057,46.9537],[20.112,46.9456],[20.1265,46.9423],[20.1427,46.9404],[20.154,46.937],[20.154,46.9308],[20.1362,46.9122],[20.127,46.9133],[20.1088,46.9243],[20.0864,46.9258],[20.0867,46.9096],[20.1063,46.9011],[20.0919,46.8824],[20.0616,46.8836],[20.0275,46.8748],[20.0058,46.8529],[20.0118,46.8507],[19.998,46.8249],[20.0019,46.8114],[20.0159,46.8034],[20.0351,46.8069],[20.0613,46.8007],[20.0116,46.7703],[19.9685,46.7286],[19.9891,46.7178],[19.9974,46.6997],[19.979,46.5905],[19.9439,46.5641],[19.8571,46.5735],[19.8195,46.5551],[19.8209,46.5141],[19.8683,46.4912],[19.8796,46.4447],[19.8628,46.3993],[19.8497,46.3793],[19.8283,46.3802],[19.7973,46.373],[19.7694,46.3589],[19.7402,46.3568],[19.7129,46.363],[19.6898,46.3612],[19.6697,46.3507],[19.6722,46.3271],[19.6713,46.3046],[19.6561,46.2833],[19.6531,46.255],[19.672,46.2204],[19.6968,46.1883],[19.7119,46.1587]]]}},{"type":"Feature","properties":{"id":"HUN-3171","name":"Békés","nameBn":"বেকস কাউন্টি","type":"County","bounds":[20.4079,46.2313,21.6714,47.236],"center":[20.8362,46.592]},"geometry":{"type":"Polygon","coordinates":[[[21.4235,46.6582],[21.4168,46.6452],[21.396,46.6264],[21.3744,46.6184],[21.3376,46.6204],[21.3162,46.6166],[21.301,46.6039],[21.2953,46.585],[21.2913,46.5467],[21.2789,46.5284],[21.2617,46.5133],[21.2476,46.4975],[21.2451,46.4769],[21.2744,46.4384],[21.2807,46.4164],[21.2575,46.4042],[21.2152,46.4029],[21.1956,46.3981],[21.1788,46.3845],[21.1687,46.3628],[21.1645,46.3183],[21.1559,46.2989],[21.1445,46.2837],[21.1349,46.2785],[21.1056,46.2787],[21.0992,46.2764],[21.0515,46.2361],[21.0335,46.2313],[21.0139,46.2431],[21.007,46.2489],[20.9992,46.2516],[20.9906,46.2516],[20.9815,46.2489],[20.9617,46.2483],[20.9244,46.2596],[20.9066,46.2622],[20.8997,46.2607],[20.8851,46.255],[20.8751,46.2544],[20.867,46.2571],[20.849,46.2678],[20.8397,46.2711],[20.8196,46.2717],[20.7987,46.2676],[20.7874,46.2634],[20.7871,46.2637],[20.7753,46.2759],[20.7566,46.286],[20.7492,46.3015],[20.7574,46.3258],[20.7591,46.3495],[20.7474,46.3689],[20.7308,46.3836],[20.7111,46.3822],[20.702,46.3938],[20.6494,46.3843],[20.5993,46.3845],[20.617,46.4121],[20.5849,46.4062],[20.5856,46.4481],[20.5958,46.461],[20.5892,46.481],[20.611,46.5065],[20.6242,46.5388],[20.595,46.5478],[20.5792,46.5679],[20.5757,46.6423],[20.5894,46.6899],[20.5865,46.7537],[20.5545,46.774],[20.5046,46.7832],[20.4232,46.8033],[20.4079,46.8364],[20.4187,46.8654],[20.4579,46.889],[20.4933,46.8914],[20.5269,46.8856],[20.5553,46.9129],[20.5842,46.9074],[20.6074,46.9212],[20.6226,46.914],[20.6353,46.9021],[20.6548,46.9054],[20.674,46.9146],[20.6901,46.9167],[20.7057,46.9237],[20.7163,46.9535],[20.7111,46.9863],[20.7015,46.9988],[20.7005,47.0143],[20.7388,47.0456],[20.738,47.0589],[20.7343,47.0648],[20.7447,47.078],[20.7609,47.0858],[20.8214,47.1368],[20.841,47.1417],[20.8614,47.1375],[20.875,47.1435],[20.8839,47.1562],[20.8984,47.1598],[20.9095,47.1722],[20.9174,47.1854],[20.9419,47.1917],[20.953,47.2021],[20.9605,47.2157],[20.9752,47.2293],[20.9945,47.236],[21.1181,47.181],[21.1608,47.1706],[21.2059,47.1673],[21.2711,47.1454],[21.2914,47.1164],[21.2905,47.0442],[21.2883,47.0158],[21.3013,46.9998],[21.3249,46.9952],[21.3439,46.9827],[21.335,46.9583],[21.3537,46.9456],[21.3868,46.9408],[21.4564,46.9542],[21.4987,46.9537],[21.5668,47.0012],[21.6097,47.0153],[21.6339,47.0194],[21.6343,47.0194],[21.6366,47.0141],[21.6452,47.0112],[21.6548,47.0099],[21.6618,47.0061],[21.6707,46.9944],[21.6714,46.9934],[21.6675,46.9924],[21.6485,46.943],[21.6401,46.9357],[21.5944,46.91],[21.5899,46.9089],[21.5887,46.9062],[21.5871,46.8944],[21.5881,46.8822],[21.5915,46.8715],[21.5918,46.8607],[21.5834,46.8479],[21.5731,46.8418],[21.5366,46.835],[21.5157,46.8216],[21.5029,46.8053],[21.4815,46.765],[21.4771,46.7602],[21.4737,46.7549],[21.4714,46.749],[21.4705,46.743],[21.4726,46.7402],[21.4752,46.7378],[21.4782,46.7359],[21.5052,46.7232],[21.5018,46.7035],[21.4836,46.6849],[21.4635,46.677],[21.4362,46.6737],[21.4255,46.662],[21.4235,46.6582]],[[21.1677,46.6701],[21.207,46.7035],[21.1893,46.7369],[21.2011,46.7761],[21.1559,46.8213],[21.0597,46.8522],[21.0185,46.8011],[20.9753,46.7697],[20.991,46.7187],[21.0028,46.6657],[21.0578,46.6662],[21.1049,46.6721],[21.1677,46.6701]]]}},{"type":"Feature","properties":{"id":"HUN-4919","name":"Békéscsaba","nameBn":"বেকেসসাবা","type":"Urban county","bounds":[20.9753,46.6657,21.207,46.8522],"center":[21.0968,46.7499]},"geometry":{"type":"Polygon","coordinates":[[[21.0597,46.8522],[21.1559,46.8213],[21.2011,46.7761],[21.1893,46.7369],[21.207,46.7035],[21.1677,46.6701],[21.1049,46.6721],[21.0578,46.6662],[21.0028,46.6657],[20.991,46.7187],[20.9753,46.7697],[21.0185,46.8011],[21.0597,46.8522]]]}},{"type":"Feature","properties":{"id":"HUN-3172","name":"Csongrád","nameBn":"চোংরাদ-চনাদ কাউন্টি","type":"County","bounds":[19.6531,46.1081,20.7874,46.8033],"center":[20.1413,46.5997]},"geometry":{"type":"MultiPolygon","coordinates":[[[[20.7874,46.2634],[20.7785,46.2601],[20.7393,46.2375],[20.735,46.2319],[20.7355,46.2225],[20.7448,46.2003],[20.7447,46.1923],[20.7366,46.1867],[20.7271,46.1877],[20.7178,46.19],[20.7103,46.1881],[20.7053,46.1806],[20.7044,46.1685],[20.7042,46.1663],[20.6988,46.1565],[20.6835,46.1447],[20.664,46.1378],[20.6076,46.1295],[20.6001,46.1296],[20.588,46.1328],[20.5781,46.1375],[20.549,46.1561],[20.5094,46.1677],[20.4685,46.1741],[20.4442,46.1469],[20.2832,46.1438],[20.2428,46.1081],[20.1885,46.1404],[20.1705,46.1455],[20.1454,46.1371],[20.138,46.1365],[20.1304,46.1394],[20.1201,46.1492],[20.1148,46.1522],[20.1276,46.1882],[20.1413,46.2],[20.1649,46.198],[20.1885,46.1784],[20.2061,46.1529],[20.2297,46.1568],[20.2317,46.1784],[20.212,46.1902],[20.1983,46.2078],[20.1963,46.2235],[20.2085,46.2388],[20.2432,46.234],[20.2709,46.2353],[20.269,46.2589],[20.3266,46.2655],[20.3698,46.2655],[20.413,46.2498],[20.4719,46.2459],[20.519,46.2714],[20.5465,46.3264],[20.5819,46.3559],[20.5993,46.3845],[20.6494,46.3843],[20.702,46.3938],[20.7111,46.3822],[20.7308,46.3836],[20.7474,46.3689],[20.7591,46.3495],[20.7574,46.3258],[20.7492,46.3015],[20.7566,46.286],[20.7753,46.2759],[20.7871,46.2637],[20.7874,46.2634]]],[[[19.7904,46.1291],[19.773,46.1316],[19.7119,46.1587],[19.6968,46.1883],[19.672,46.2204],[19.6531,46.255],[19.6561,46.2833],[19.6713,46.3046],[19.6722,46.3271],[19.6697,46.3507],[19.6898,46.3612],[19.7129,46.363],[19.7402,46.3568],[19.7694,46.3589],[19.7973,46.373],[19.8283,46.3802],[19.8497,46.3793],[19.8628,46.3993],[19.8796,46.4447],[19.8683,46.4912],[19.8209,46.5141],[19.8195,46.5551],[19.8571,46.5735],[19.9439,46.5641],[19.979,46.5905],[19.9974,46.6997],[19.9891,46.7178],[19.9685,46.7286],[20.0116,46.7703],[20.0613,46.8007],[20.1347,46.7683],[20.25,46.7945],[20.2858,46.7715],[20.3225,46.7644],[20.3548,46.7821],[20.3899,46.7894],[20.4232,46.8033],[20.5046,46.7832],[20.5545,46.774],[20.5865,46.7537],[20.5894,46.6899],[20.5757,46.6423],[20.5792,46.5679],[20.595,46.5478],[20.6242,46.5388],[20.611,46.5065],[20.5892,46.481],[20.5958,46.461],[20.5856,46.4481],[20.5662,46.4638],[20.5308,46.4894],[20.4974,46.5169],[20.4621,46.5326],[20.3757,46.509],[20.3325,46.5188],[20.2972,46.5208],[20.2815,46.4972],[20.2618,46.4383],[20.2383,46.4148],[20.2206,46.456],[20.1983,46.4673],[20.1882,46.4337],[20.189,46.41],[20.1951,46.389],[20.1985,46.366],[20.2035,46.3555],[20.2156,46.348],[20.2109,46.3317],[20.2167,46.3168],[20.1865,46.3158],[20.1669,46.3413],[20.1472,46.3551],[20.1119,46.3276],[20.053,46.3354],[20.0137,46.3178],[20.0098,46.2648],[20.0687,46.253],[20.0785,46.2275],[20.0687,46.2157],[20.0634,46.1453],[20.035,46.143],[19.9931,46.1594],[19.9291,46.1635],[19.8889,46.1574],[19.8736,46.153],[19.7904,46.1291]]]]}},{"type":"Feature","properties":{"id":"HUN-4924","name":"Debrecen","nameBn":"দেব্রেচেন","type":"Urban county","bounds":[21.4161,47.3906,21.8628,47.7323],"center":[21.6192,47.5252]},"geometry":{"type":"Polygon","coordinates":[[[21.5438,47.7323],[21.5312,47.6791],[21.5464,47.6715],[21.559,47.7019],[21.6096,47.707],[21.6274,47.6614],[21.6501,47.6159],[21.678,47.5905],[21.7236,47.6083],[21.7565,47.6361],[21.7919,47.6437],[21.8299,47.6108],[21.8628,47.5703],[21.8602,47.507],[21.84,47.469],[21.7716,47.4159],[21.7311,47.4437],[21.6932,47.4387],[21.6375,47.3906],[21.5767,47.3906],[21.5641,47.4311],[21.5388,47.4437],[21.5072,47.4529],[21.487,47.501],[21.4186,47.501],[21.4161,47.5516],[21.4389,47.6099],[21.4806,47.6918],[21.5236,47.7222],[21.5438,47.7323]]]}},{"type":"Feature","properties":{"id":"HUN-4925","name":"Dunaújváros","nameBn":"দুনাউজভারোস","type":"Urban county","bounds":[18.8284,46.8484,18.9669,47.0159],"center":[18.8971,46.9489]},"geometry":{"type":"Polygon","coordinates":[[[18.9552,46.9947],[18.9605,46.9774],[18.9669,46.9358],[18.9665,46.9172],[18.958,46.909],[18.9488,46.9039],[18.9389,46.8917],[18.9309,46.8771],[18.9276,46.8649],[18.9267,46.8484],[18.8441,46.8882],[18.8284,46.9216],[18.8422,46.9766],[18.8971,47.0159],[18.9552,46.9947]]]}},{"type":"Feature","properties":{"id":"HUN-4920","name":"Eger","nameBn":"এগার","type":"Urban county","bounds":[20.2966,47.8114,20.465,48.0455],"center":[20.3836,47.9316]},"geometry":{"type":"Polygon","coordinates":[[[20.422,47.9691],[20.4289,47.9486],[20.4475,47.9343],[20.4609,47.9188],[20.465,47.8992],[20.4582,47.89],[20.4484,47.8806],[20.4137,47.8747],[20.3915,47.8588],[20.3915,47.8304],[20.3694,47.8114],[20.3251,47.8114],[20.3029,47.8494],[20.3029,47.8905],[20.3156,47.9316],[20.3029,47.9696],[20.2966,48.0012],[20.3219,48.0107],[20.3377,48.0455],[20.3852,48.0392],[20.3947,48.0202],[20.3947,47.9917],[20.422,47.9691]]]}},{"type":"Feature","properties":{"id":"HUN-3162","name":"Fejér","nameBn":"ফেযেঁর কাউন্টি","type":"County","bounds":[18.0948,46.7021,18.968,47.5619],"center":[18.6516,46.989]},"geometry":{"type":"Polygon","coordinates":[[[18.1771,46.9531],[18.2153,46.9936],[18.2296,47.0425],[18.2192,47.0679],[18.2274,47.1339],[18.2133,47.1584],[18.1855,47.1698],[18.1492,47.2259],[18.1065,47.2542],[18.0948,47.281],[18.1008,47.3083],[18.1365,47.315],[18.1032,47.3592],[18.1097,47.3754],[18.1207,47.3871],[18.1184,47.4167],[18.1282,47.4402],[18.1518,47.441],[18.1758,47.4455],[18.1925,47.4639],[18.2135,47.4635],[18.2718,47.4293],[18.2854,47.4144],[18.3028,47.4067],[18.356,47.4161],[18.3464,47.4285],[18.3336,47.4375],[18.3483,47.4521],[18.3987,47.4692],[18.4272,47.489],[18.4466,47.4941],[18.462,47.5054],[18.4825,47.5388],[18.516,47.5553],[18.685,47.5619],[18.7246,47.5076],[18.7756,47.4645],[18.787,47.439],[18.7804,47.4105],[18.807,47.3665],[18.8194,47.3563],[18.8483,47.3324],[18.8561,47.3179],[18.8683,47.3071],[18.9028,47.3038],[18.9188,47.2871],[18.9076,47.2374],[18.8869,47.2081],[18.8814,47.1896],[18.8789,47.169],[18.8792,47.1492],[18.8892,47.1104],[18.8969,47.0903],[18.9031,47.0816],[18.9188,47.074],[18.968,47.0331],[18.9667,47.0237],[18.9621,47.0172],[18.9569,47.0117],[18.9543,47.0052],[18.9552,46.9947],[18.8971,47.0159],[18.8422,46.9766],[18.8284,46.9216],[18.8441,46.8882],[18.9267,46.8484],[18.8807,46.8384],[18.8372,46.8179],[18.7396,46.7327],[18.697,46.7135],[18.6783,46.7092],[18.6602,46.7021],[18.6303,46.7074],[18.5597,46.7845],[18.5399,46.783],[18.5192,46.7726],[18.5069,46.7569],[18.4949,46.7466],[18.4819,46.7452],[18.4402,46.7504],[18.3986,46.7639],[18.3295,46.8031],[18.321,46.8004],[18.2699,46.8007],[18.218,46.7907],[18.2113,46.8187],[18.2122,46.8758],[18.2167,46.8819],[18.2192,46.8886],[18.199,46.9142],[18.1771,46.9531]],[[18.4979,47.2757],[18.4783,47.3032],[18.4586,47.3072],[18.4331,47.2797],[18.3781,47.2424],[18.3289,47.2041],[18.3762,47.1678],[18.4056,47.1324],[18.4174,47.0951],[18.4292,47.0657],[18.49,47.0912],[18.5234,47.0794],[18.5588,47.1187],[18.5764,47.1462],[18.5764,47.1737],[18.5529,47.1952],[18.5529,47.2208],[18.5627,47.2561],[18.5254,47.2757],[18.4979,47.2757]]]}},{"type":"Feature","properties":{"id":"HUN-3156","name":"Gyor-Moson-Sopron","nameBn":"গিওর-মোসন-সোপ্রন কাউন্টি","type":"County","bounds":[16.5578,47.3984,17.9291,48.0203],"center":[17.1682,47.7217]},"geometry":{"type":"Polygon","coordinates":[[[16.9027,47.682],[16.9819,47.6954],[17.0548,47.702],[17.0754,47.7085],[17.064,47.7133],[17.0555,47.7209],[17.0506,47.731],[17.0487,47.7636],[17.042,47.7839],[17.0406,47.8011],[17.0556,47.8124],[17.0491,47.8187],[17.0395,47.8374],[17.0317,47.8413],[17.0107,47.8479],[17.0044,47.8524],[17.0041,47.8633],[17.0166,47.8677],[17.0512,47.8729],[17.0676,47.8816],[17.0775,47.8917],[17.0833,47.9048],[17.0875,47.9226],[17.0854,47.9246],[17.0801,47.9258],[17.0752,47.9278],[17.0741,47.9321],[17.0768,47.935],[17.0861,47.9392],[17.0881,47.9409],[17.0909,47.9495],[17.0957,47.9557],[17.0961,47.9619],[17.0856,47.9701],[17.1483,48.0054],[17.1848,48.0203],[17.2209,48.0151],[17.2623,48.0073],[17.2727,48.0053],[17.3379,47.9987],[17.3694,47.9812],[17.472,47.8888],[17.4819,47.8827],[17.4922,47.8798],[17.5173,47.8763],[17.5266,47.8721],[17.5604,47.838],[17.5726,47.8295],[17.5829,47.8298],[17.593,47.8331],[17.6042,47.8342],[17.6191,47.8292],[17.6399,47.8192],[17.6584,47.8073],[17.6662,47.797],[17.6767,47.7892],[17.7192,47.7737],[17.742,47.7654],[17.8257,47.75],[17.8835,47.7525],[17.8862,47.7392],[17.8949,47.718],[17.896,47.6961],[17.8918,47.6784],[17.8994,47.6608],[17.8976,47.6303],[17.9271,47.6128],[17.9055,47.5725],[17.9291,47.55],[17.9178,47.5326],[17.8956,47.5379],[17.8867,47.5319],[17.8979,47.5038],[17.8825,47.475],[17.8825,47.4548],[17.8514,47.4775],[17.8164,47.4932],[17.8155,47.4744],[17.7974,47.4799],[17.7786,47.4815],[17.7612,47.4707],[17.7259,47.4823],[17.6798,47.4718],[17.6374,47.4495],[17.5974,47.4616],[17.5687,47.4494],[17.5171,47.4545],[17.4969,47.4336],[17.4743,47.4288],[17.4521,47.4286],[17.4377,47.4199],[17.4197,47.4202],[17.4032,47.4244],[17.3694,47.4409],[17.3321,47.4387],[17.295,47.4307],[17.2769,47.4332],[17.2682,47.4227],[17.2408,47.4081],[17.2019,47.3984],[17.1788,47.4241],[17.1526,47.4372],[17.0577,47.4028],[17.0661,47.4288],[17.0764,47.4493],[17.0514,47.4542],[16.9442,47.412],[16.863,47.4215],[16.8385,47.4355],[16.7632,47.4033],[16.7343,47.3996],[16.707,47.4182],[16.6553,47.426],[16.6416,47.4334],[16.6294,47.4438],[16.627,47.4455],[16.6409,47.4529],[16.6368,47.4932],[16.6482,47.5015],[16.6774,47.5099],[16.688,47.5226],[16.6891,47.538],[16.6814,47.5506],[16.6675,47.5601],[16.6506,47.5666],[16.6562,47.5859],[16.6477,47.6061],[16.6302,47.622],[16.6084,47.6288],[16.5755,47.6249],[16.5578,47.6298],[16.5908,47.6472],[16.6284,47.6478],[16.6842,47.6384],[16.6917,47.6472],[16.6879,47.671],[16.7168,47.697],[16.7192,47.6937],[16.7304,47.6859],[16.7411,47.6815],[16.7975,47.6755],[16.8062,47.6769],[16.8173,47.6842],[16.8369,47.7054],[16.8502,47.7129],[16.8647,47.6867],[16.9027,47.682]],[[17.7265,47.73],[17.6793,47.7371],[17.5819,47.7145],[17.5629,47.6651],[17.5048,47.6349],[17.5375,47.6003],[17.5523,47.6031],[17.5876,47.5869],[17.6271,47.6066],[17.6913,47.6066],[17.7336,47.6214],[17.7963,47.6475],[17.8041,47.6658],[17.7928,47.699],[17.7716,47.7328],[17.7265,47.73]]]}},{"type":"Feature","properties":{"id":"HUN-4905","name":"Gyôr","nameBn":"ইয়োর","type":"Urban county","bounds":[17.5048,47.5869,17.8041,47.7371],"center":[17.6657,47.6621]},"geometry":{"type":"Polygon","coordinates":[[[17.6793,47.7371],[17.7265,47.73],[17.7716,47.7328],[17.7928,47.699],[17.8041,47.6658],[17.7963,47.6475],[17.7336,47.6214],[17.6913,47.6066],[17.6271,47.6066],[17.5876,47.5869],[17.5523,47.6031],[17.5375,47.6003],[17.5048,47.6349],[17.5629,47.6651],[17.5819,47.7145],[17.6793,47.7371]]]}},{"type":"Feature","properties":{"id":"HUN-3173","name":"Hajdú-Bihar","nameBn":"হজদু-বিহার কাউন্টি","type":"County","bounds":[20.8192,46.9408,22.1542,47.9605],"center":[21.3746,47.2906]},"geometry":{"type":"Polygon","coordinates":[[[22.1542,47.5822],[22.1485,47.5793],[22.0996,47.5709],[22.0374,47.5393],[22.0079,47.5174],[21.9889,47.4929],[21.9915,47.4618],[22.0002,47.4272],[22.0016,47.3938],[21.9815,47.3661],[21.937,47.3572],[21.919,47.3497],[21.9008,47.3357],[21.8622,47.2974],[21.8561,47.2857],[21.8446,47.2499],[21.8393,47.2408],[21.8277,47.226],[21.8236,47.2149],[21.8233,47.2033],[21.8257,47.1943],[21.826,47.1851],[21.8199,47.1727],[21.8115,47.1647],[21.7894,47.1503],[21.7799,47.1407],[21.7754,47.1317],[21.7705,47.114],[21.7638,47.1052],[21.7435,47.0916],[21.6942,47.0692],[21.6719,47.0547],[21.6328,47.0227],[21.6343,47.0194],[21.6339,47.0194],[21.6097,47.0153],[21.5668,47.0012],[21.4987,46.9537],[21.4564,46.9542],[21.3868,46.9408],[21.3537,46.9456],[21.335,46.9583],[21.3439,46.9827],[21.3249,46.9952],[21.3013,46.9998],[21.2883,47.0158],[21.2905,47.0442],[21.2914,47.1164],[21.2711,47.1454],[21.2059,47.1673],[21.1608,47.1706],[21.1181,47.181],[20.9945,47.236],[21.0229,47.286],[21.0279,47.3495],[21.0187,47.3968],[21.0017,47.4441],[20.9899,47.5288],[20.9766,47.5689],[20.9457,47.5889],[20.9133,47.5917],[20.8811,47.6017],[20.8426,47.6286],[20.8192,47.6794],[20.8921,47.6843],[20.9422,47.7186],[20.9485,47.7284],[20.9547,47.7336],[20.9786,47.7655],[20.979,47.773],[21.0339,47.7798],[21.0341,47.7859],[21.0285,47.8163],[21.0494,47.8313],[21.0553,47.8392],[21.0584,47.855],[21.0581,47.8735],[21.0557,47.883],[21.0564,47.8905],[21.0652,47.9034],[21.0981,47.9296],[21.1062,47.9381],[21.1116,47.952],[21.1137,47.9605],[21.1867,47.954],[21.2694,47.9097],[21.3142,47.9217],[21.4761,47.93],[21.5146,47.9455],[21.5461,47.9381],[21.5561,47.9169],[21.5438,47.8636],[21.5397,47.8075],[21.6333,47.7577],[21.6498,47.7424],[21.6987,47.7354],[21.7182,47.7228],[21.7604,47.7124],[21.7815,47.7124],[21.8019,47.7064],[21.8197,47.6914],[21.8409,47.6831],[21.8595,47.6958],[21.8715,47.7167],[21.8956,47.7449],[21.9299,47.7462],[21.9994,47.7199],[22.0284,47.685],[22.0226,47.6589],[22.0487,47.6415],[22.0951,47.6763],[22.1125,47.6589],[22.1324,47.6011],[22.1538,47.5825],[22.1542,47.5822]],[[21.5464,47.6715],[21.5312,47.6791],[21.5438,47.7323],[21.5236,47.7222],[21.4806,47.6918],[21.4389,47.6099],[21.4161,47.5516],[21.4186,47.501],[21.487,47.501],[21.5072,47.4529],[21.5388,47.4437],[21.5641,47.4311],[21.5767,47.3906],[21.6375,47.3906],[21.6932,47.4387],[21.7311,47.4437],[21.7716,47.4159],[21.84,47.469],[21.8602,47.507],[21.8628,47.5703],[21.8299,47.6108],[21.7919,47.6437],[21.7565,47.6361],[21.7236,47.6083],[21.678,47.5905],[21.6501,47.6159],[21.6274,47.6614],[21.6096,47.707],[21.559,47.7019],[21.5464,47.6715]]]}},{"type":"Feature","properties":{"id":"HUN-3174","name":"Heves","nameBn":"হেভেস কাউন্টি","type":"County","bounds":[19.5807,47.4252,20.7741,48.1514],"center":[20.1774,47.8614]},"geometry":{"type":"Polygon","coordinates":[[[20.7741,47.6723],[20.7681,47.6651],[20.7633,47.6553],[20.75,47.6427],[20.72,47.6344],[20.7098,47.6279],[20.7158,47.616],[20.7124,47.6096],[20.7093,47.6054],[20.7043,47.6029],[20.6953,47.6017],[20.6953,47.5955],[20.6893,47.5779],[20.5124,47.4968],[20.5035,47.4888],[20.4981,47.4678],[20.4846,47.4592],[20.4483,47.4509],[20.4429,47.447],[20.4304,47.4356],[20.421,47.4304],[20.3965,47.4252],[20.3744,47.4297],[20.3169,47.4556],[20.2994,47.4709],[20.2882,47.4885],[20.2944,47.5106],[20.2776,47.5422],[20.2394,47.5561],[20.2204,47.5736],[20.2098,47.5996],[20.1959,47.6068],[20.1013,47.5891],[20.1108,47.5749],[20.1265,47.5673],[20.0772,47.5583],[20.0239,47.5829],[20.0072,47.6209],[19.9998,47.6616],[19.9607,47.6704],[19.9125,47.6601],[19.8898,47.6643],[19.8727,47.6535],[19.8179,47.6028],[19.8056,47.6045],[19.7832,47.6165],[19.7288,47.6128],[19.6748,47.5959],[19.6604,47.6083],[19.6592,47.6251],[19.6316,47.6564],[19.6126,47.6708],[19.6019,47.6894],[19.6139,47.7024],[19.6199,47.7156],[19.6073,47.7177],[19.5953,47.7217],[19.5807,47.7372],[19.6749,47.8128],[19.7124,47.8211],[19.763,47.8794],[19.7909,47.8926],[19.8233,47.8802],[19.8484,47.8924],[19.859,47.9102],[19.8729,47.9255],[19.89,47.9259],[19.9034,47.9167],[19.931,47.9285],[19.9568,47.9463],[19.9601,47.9693],[19.9734,47.9944],[19.9977,48.009],[20.0279,48.0115],[20.0206,48.0445],[19.9992,48.0713],[19.9869,48.0752],[19.9798,48.0809],[19.9851,48.0944],[19.9986,48.1004],[20.0274,48.1054],[20.0496,48.1207],[20.0776,48.1296],[20.0855,48.137],[20.0959,48.1411],[20.1182,48.1479],[20.1421,48.1342],[20.1611,48.1182],[20.1772,48.1196],[20.1915,48.1162],[20.2045,48.1019],[20.2209,48.0929],[20.2561,48.0928],[20.2847,48.11],[20.3208,48.1116],[20.3548,48.095],[20.4184,48.1514],[20.4728,48.1134],[20.49,48.1014],[20.4951,48.0779],[20.4918,48.0549],[20.4788,48.015],[20.4343,47.9838],[20.422,47.9691],[20.3947,47.9917],[20.3947,48.0202],[20.3852,48.0392],[20.3377,48.0455],[20.3219,48.0107],[20.2966,48.0012],[20.3029,47.9696],[20.3156,47.9316],[20.3029,47.8905],[20.3029,47.8494],[20.3251,47.8114],[20.3694,47.8114],[20.3915,47.8304],[20.3915,47.8588],[20.4137,47.8747],[20.4484,47.8806],[20.4568,47.872],[20.4645,47.8682],[20.5285,47.7919],[20.5748,47.7553],[20.5881,47.7244],[20.6089,47.7011],[20.7186,47.686],[20.7415,47.676],[20.7741,47.6723]]]}},{"type":"Feature","properties":{"id":"HUN-4917","name":"Hódmezôvásárhely","nameBn":"হোদমেজোভাসার্হলি","type":"Urban county","bounds":[20.1882,46.2459,20.617,46.5326],"center":[20.3919,46.3767]},"geometry":{"type":"Polygon","coordinates":[[[20.5856,46.4481],[20.5849,46.4062],[20.617,46.4121],[20.5993,46.3845],[20.5819,46.3559],[20.5465,46.3264],[20.519,46.2714],[20.4719,46.2459],[20.413,46.2498],[20.3698,46.2655],[20.3266,46.2655],[20.269,46.2589],[20.2474,46.2628],[20.2219,46.2757],[20.2297,46.2899],[20.2253,46.303],[20.2167,46.3168],[20.2109,46.3317],[20.2156,46.348],[20.2035,46.3555],[20.1985,46.366],[20.1951,46.389],[20.189,46.41],[20.1882,46.4337],[20.1983,46.4673],[20.2206,46.456],[20.2383,46.4148],[20.2618,46.4383],[20.2815,46.4972],[20.2972,46.5208],[20.3325,46.5188],[20.3757,46.509],[20.4621,46.5326],[20.4974,46.5169],[20.5308,46.4894],[20.5662,46.4638],[20.5856,46.4481]]]}},{"type":"Feature","properties":{"id":"HUN-3175","name":"Jász-Nagykun-Szolnok","nameBn":"জায-নাগিকুন-জোলনক কাউন্টি","type":"County","bounds":[19.6646,46.7644,21.0279,47.6794],"center":[20.5204,47.2052]},"geometry":{"type":"Polygon","coordinates":[[[20.7741,47.6723],[20.7915,47.6775],[20.8192,47.6794],[20.8426,47.6286],[20.8811,47.6017],[20.9133,47.5917],[20.9457,47.5889],[20.9766,47.5689],[20.9899,47.5288],[21.0017,47.4441],[21.0187,47.3968],[21.0279,47.3495],[21.0229,47.286],[20.9945,47.236],[20.9752,47.2293],[20.9605,47.2157],[20.953,47.2021],[20.9419,47.1917],[20.9174,47.1854],[20.9095,47.1722],[20.8984,47.1598],[20.8839,47.1562],[20.875,47.1435],[20.8614,47.1375],[20.841,47.1417],[20.8214,47.1368],[20.7609,47.0858],[20.7447,47.078],[20.7343,47.0648],[20.738,47.0589],[20.7388,47.0456],[20.7005,47.0143],[20.7015,46.9988],[20.7111,46.9863],[20.7163,46.9535],[20.7057,46.9237],[20.6901,46.9167],[20.674,46.9146],[20.6548,46.9054],[20.6353,46.9021],[20.6226,46.914],[20.6074,46.9212],[20.5842,46.9074],[20.5553,46.9129],[20.5269,46.8856],[20.4933,46.8914],[20.4579,46.889],[20.4187,46.8654],[20.4079,46.8364],[20.4232,46.8033],[20.3899,46.7894],[20.3548,46.7821],[20.3225,46.7644],[20.2858,46.7715],[20.25,46.7945],[20.1347,46.7683],[20.0613,46.8007],[20.0351,46.8069],[20.0159,46.8034],[20.0019,46.8114],[19.998,46.8249],[20.0118,46.8507],[20.0058,46.8529],[20.0275,46.8748],[20.0616,46.8836],[20.0919,46.8824],[20.1063,46.9011],[20.0867,46.9096],[20.0864,46.9258],[20.1088,46.9243],[20.127,46.9133],[20.1362,46.9122],[20.154,46.9308],[20.154,46.937],[20.1427,46.9404],[20.1265,46.9423],[20.112,46.9456],[20.1057,46.9537],[20.1119,46.9617],[20.1464,46.9793],[20.2021,47.0076],[20.1391,47.0245],[20.0835,47.0581],[20.0511,47.1036],[20.0564,47.152],[20.1145,47.144],[20.1645,47.1184],[20.178,47.1152],[20.1935,47.1093],[20.2209,47.0984],[20.2715,47.1035],[20.3018,47.1187],[20.3044,47.1516],[20.2689,47.1617],[20.2487,47.1905],[20.2797,47.2064],[20.2874,47.219],[20.2614,47.2528],[20.193,47.2908],[20.1323,47.3414],[20.0614,47.2857],[20.0224,47.2491],[20.0048,47.2677],[20.0025,47.2817],[20.0067,47.2969],[20.0067,47.3149],[19.9986,47.3289],[19.8186,47.45],[19.7996,47.4674],[19.758,47.4922],[19.7581,47.5086],[19.7529,47.5271],[19.7154,47.5246],[19.6837,47.5387],[19.6646,47.5663],[19.6748,47.5959],[19.7288,47.6128],[19.7832,47.6165],[19.8056,47.6045],[19.8179,47.6028],[19.8727,47.6535],[19.8898,47.6643],[19.9125,47.6601],[19.9607,47.6704],[19.9998,47.6616],[20.0072,47.6209],[20.0239,47.5829],[20.0772,47.5583],[20.1265,47.5673],[20.1108,47.5749],[20.1013,47.5891],[20.1959,47.6068],[20.2098,47.5996],[20.2204,47.5736],[20.2394,47.5561],[20.2776,47.5422],[20.2944,47.5106],[20.2882,47.4885],[20.2994,47.4709],[20.3169,47.4556],[20.3744,47.4297],[20.3965,47.4252],[20.421,47.4304],[20.4304,47.4356],[20.4429,47.447],[20.4483,47.4509],[20.4846,47.4592],[20.4981,47.4678],[20.5035,47.4888],[20.5124,47.4968],[20.6893,47.5779],[20.6953,47.5955],[20.6953,47.6017],[20.7043,47.6029],[20.7093,47.6054],[20.7124,47.6096],[20.7158,47.616],[20.7098,47.6279],[20.72,47.6344],[20.75,47.6427],[20.7633,47.6553],[20.7681,47.6651],[20.7741,47.6723]]]}},{"type":"Feature","properties":{"id":"HUN-4912","name":"Kaposvár","nameBn":"কাপোভার","type":"Urban county","bounds":[17.707,46.2476,17.8805,46.4541],"center":[17.7984,46.356]},"geometry":{"type":"Polygon","coordinates":[[[17.7495,46.4541],[17.7764,46.4391],[17.8416,46.4451],[17.8416,46.4391],[17.8716,46.3822],[17.8805,46.3284],[17.8476,46.3104],[17.8267,46.2775],[17.8147,46.2536],[17.7818,46.2685],[17.7429,46.2476],[17.7339,46.3074],[17.707,46.3613],[17.7309,46.3822],[17.7369,46.4092],[17.7375,46.4361],[17.7495,46.4541]]]}},{"type":"Feature","properties":{"id":"HUN-4915","name":"Kecskemét","nameBn":"কেক্সকেমিট","type":"Urban county","bounds":[19.5563,46.7851,19.8191,47.0148],"center":[19.6684,46.9282]},"geometry":{"type":"Polygon","coordinates":[[[19.6467,47.0121],[19.6927,46.9806],[19.7692,46.9482],[19.8015,46.9492],[19.8191,46.9455],[19.8174,46.9186],[19.786,46.9029],[19.7506,46.9029],[19.7212,46.8714],[19.7212,46.8263],[19.6898,46.7851],[19.6505,46.8066],[19.627,46.8636],[19.5936,46.9048],[19.5739,46.9421],[19.5563,46.9735],[19.5622,46.9971],[19.5759,47.0148],[19.627,46.9971],[19.6467,47.0121]]]}},{"type":"Feature","properties":{"id":"HUN-3163","name":"Komárom-Esztergom","nameBn":"কোমারম-এজতারগম কাউন্টি","type":"County","bounds":[17.879,47.3424,18.9347,47.8322],"center":[18.2244,47.6697]},"geometry":{"type":"Polygon","coordinates":[[[18.6637,47.7759],[18.6928,47.778],[18.7172,47.7881],[18.7503,47.8136],[18.7677,47.8223],[18.7903,47.8263],[18.8149,47.8322],[18.8173,47.8319],[18.8482,47.8171],[18.8833,47.8122],[18.9058,47.7882],[18.9157,47.7712],[18.9215,47.7413],[18.9347,47.7324],[18.9165,47.7217],[18.8938,47.7268],[18.853,47.7171],[18.8637,47.6661],[18.8113,47.6702],[18.7591,47.6648],[18.7689,47.6525],[18.775,47.6381],[18.7476,47.6243],[18.7259,47.605],[18.7104,47.5787],[18.685,47.5619],[18.516,47.5553],[18.524,47.5756],[18.4907,47.609],[18.4396,47.6168],[18.4004,47.6208],[18.3729,47.6011],[18.3847,47.5756],[18.3748,47.556],[18.4102,47.5265],[18.462,47.5054],[18.4466,47.4941],[18.4272,47.489],[18.3987,47.4692],[18.3483,47.4521],[18.3336,47.4375],[18.3464,47.4285],[18.356,47.4161],[18.3028,47.4067],[18.2854,47.4144],[18.2718,47.4293],[18.2135,47.4635],[18.1925,47.4639],[18.1758,47.4455],[18.1518,47.441],[18.1282,47.4402],[18.1184,47.4167],[18.1207,47.3871],[18.1097,47.3754],[18.1032,47.3592],[17.9892,47.3424],[17.9664,47.3457],[17.9551,47.3639],[17.9493,47.385],[17.9171,47.3885],[17.879,47.3988],[17.8855,47.4265],[17.8825,47.4548],[17.8825,47.475],[17.8979,47.5038],[17.8867,47.5319],[17.8956,47.5379],[17.9178,47.5326],[17.9291,47.55],[17.9055,47.5725],[17.9271,47.6128],[17.8976,47.6303],[17.8994,47.6608],[17.8918,47.6784],[17.896,47.6961],[17.8949,47.718],[17.8862,47.7392],[17.8835,47.7525],[18.1126,47.7625],[18.2359,47.7539],[18.273,47.7563],[18.3479,47.7768],[18.5526,47.7928],[18.5974,47.7906],[18.6338,47.7798],[18.6637,47.7759]]]}},{"type":"Feature","properties":{"id":"HUN-4922","name":"Miskolc","nameBn":"মিসকস","type":"Urban county","bounds":[20.4728,48.0027,20.9033,48.2228],"center":[20.7319,48.1181]},"geometry":{"type":"Polygon","coordinates":[[[20.4918,48.0549],[20.4951,48.0779],[20.49,48.1014],[20.4728,48.1134],[20.5055,48.1395],[20.5586,48.142],[20.6067,48.1699],[20.6656,48.2],[20.7111,48.2228],[20.7541,48.2026],[20.7895,48.2026],[20.8274,48.1874],[20.8553,48.1596],[20.8755,48.1216],[20.8755,48.0913],[20.8983,48.0634],[20.9033,48.0407],[20.8704,48.0154],[20.8199,48.0053],[20.7794,48.0027],[20.7263,48.0255],[20.6732,48.0508],[20.6403,48.0811],[20.5796,48.0786],[20.529,48.071],[20.4918,48.0549]]]}},{"type":"Feature","properties":{"id":"HUN-4911","name":"Nagykanizsa","nameBn":"নাগ্যকানিজসা","type":"Urban county","bounds":[16.9181,46.3765,17.0686,46.5616],"center":[16.9898,46.4513]},"geometry":{"type":"Polygon","coordinates":[[[16.995,46.5616],[17.0051,46.5185],[17.0318,46.5001],[17.0401,46.4634],[17.0686,46.4232],[17.045,46.4192],[17.0539,46.3896],[17.0151,46.3765],[16.9633,46.3815],[16.9232,46.4016],[16.9199,46.4483],[16.9182,46.4868],[16.9181,46.5165],[16.9465,46.5198],[16.9532,46.5599],[16.995,46.5616]]]}},{"type":"Feature","properties":{"id":"HUN-4923","name":"Nyíregyháza","nameBn":"নিরজহাজা","type":"Urban county","bounds":[21.6199,47.8335,21.8981,48.0368],"center":[21.7602,47.9357]},"geometry":{"type":"Polygon","coordinates":[[[21.7681,48.0368],[21.7969,48.0232],[21.7969,47.9928],[21.85,47.9903],[21.8753,48.003],[21.8956,47.9878],[21.8981,47.9524],[21.8956,47.9144],[21.8627,47.9094],[21.8601,47.874],[21.8374,47.8411],[21.7817,47.8335],[21.7489,47.8487],[21.6806,47.8613],[21.6199,47.874],[21.6274,47.9347],[21.635,47.9853],[21.6442,48.0064],[21.6619,48.0292],[21.7125,48.0317],[21.7302,48.0191],[21.7681,48.0368]]]}},{"type":"Feature","properties":{"id":"HUN-3166","name":"Nógrád","nameBn":"নোগ্রাড কাউন্টি","type":"County","bounds":[18.9336,47.706,20.0959,48.227],"center":[19.5146,47.9662]},"geometry":{"type":"Polygon","coordinates":[[[19.9051,48.1243],[19.9286,48.1301],[19.9739,48.1584],[19.9969,48.1679],[20.035,48.1759],[20.0383,48.1772],[20.0486,48.1679],[20.0766,48.1544],[20.0959,48.1411],[20.0855,48.137],[20.0776,48.1296],[20.0496,48.1207],[20.0274,48.1054],[19.9986,48.1004],[19.9851,48.0944],[19.9798,48.0809],[19.9869,48.0752],[19.9992,48.0713],[20.0206,48.0445],[20.0279,48.0115],[19.9977,48.009],[19.9734,47.9944],[19.9601,47.9693],[19.9568,47.9463],[19.931,47.9285],[19.9034,47.9167],[19.89,47.9259],[19.8729,47.9255],[19.859,47.9102],[19.8484,47.8924],[19.8233,47.8802],[19.7909,47.8926],[19.763,47.8794],[19.7124,47.8211],[19.6749,47.8128],[19.5807,47.7372],[19.5189,47.7294],[19.4586,47.706],[19.449,47.7717],[19.416,47.8222],[19.3772,47.8342],[19.1637,47.8615],[19.0829,47.8601],[18.9589,47.9194],[18.9353,47.9547],[18.9701,47.9756],[18.9672,48.0223],[18.9336,48.0543],[18.9818,48.0616],[18.9965,48.0662],[19.019,48.0655],[19.0387,48.0649],[19.0985,48.0707],[19.2225,48.0606],[19.2335,48.0621],[19.2932,48.0878],[19.4282,48.0859],[19.4817,48.1113],[19.4833,48.1165],[19.4838,48.1218],[19.4833,48.1272],[19.4817,48.1327],[19.4814,48.1333],[19.4812,48.134],[19.4814,48.1344],[19.4817,48.1349],[19.4936,48.1507],[19.503,48.1894],[19.514,48.204],[19.5312,48.2107],[19.6232,48.227],[19.6339,48.2268],[19.6439,48.2248],[19.6553,48.2184],[19.677,48.2004],[19.687,48.1969],[19.7331,48.2029],[19.7566,48.2003],[19.7743,48.1859],[19.7748,48.1761],[19.7692,48.1674],[19.7667,48.159],[19.7333,48.1311],[19.7257,48.0907],[19.7106,48.0502],[19.789,48.0401],[19.8168,48.073],[19.8648,48.0957],[19.9051,48.1243]]]}},{"type":"Feature","properties":{"id":"HUN-3164","name":"Pest","nameBn":"পেস্ট","type":"County","bounds":[18.685,46.9455,20.2021,48.0543],"center":[19.4435,47.4344]},"geometry":{"type":"Polygon","coordinates":[[[18.8149,47.8322],[18.8165,47.8326],[18.778,47.8514],[18.7488,47.8707],[18.7422,47.8895],[18.7447,47.9105],[18.7548,47.9518],[18.7514,47.9634],[18.7445,47.9674],[18.7432,47.9711],[18.7562,47.9818],[18.7653,47.9854],[18.7847,47.9876],[18.7942,47.9931],[18.821,48.0305],[18.8385,48.04],[18.9336,48.0543],[18.9672,48.0223],[18.9701,47.9756],[18.9353,47.9547],[18.9589,47.9194],[19.0829,47.8601],[19.1637,47.8615],[19.3772,47.8342],[19.416,47.8222],[19.449,47.7717],[19.4586,47.706],[19.5189,47.7294],[19.5807,47.7372],[19.5953,47.7217],[19.6073,47.7177],[19.6199,47.7156],[19.6139,47.7024],[19.6019,47.6894],[19.6126,47.6708],[19.6316,47.6564],[19.6592,47.6251],[19.6604,47.6083],[19.6748,47.5959],[19.6646,47.5663],[19.6837,47.5387],[19.7154,47.5246],[19.7529,47.5271],[19.7581,47.5086],[19.758,47.4922],[19.7996,47.4674],[19.8186,47.45],[19.9986,47.3289],[20.0067,47.3149],[20.0067,47.2969],[20.0025,47.2817],[20.0048,47.2677],[20.0224,47.2491],[20.0475,47.2372],[20.0829,47.1975],[20.0564,47.152],[20.0511,47.1036],[20.0835,47.0581],[20.1391,47.0245],[20.2021,47.0076],[20.1464,46.9793],[20.1094,47.0067],[20.0763,47.0204],[20.047,47.0114],[20.0186,46.9976],[19.9771,46.9629],[19.9455,46.9704],[19.9159,46.9857],[19.8843,46.9806],[19.856,46.9625],[19.8387,46.9465],[19.8191,46.9455],[19.8015,46.9492],[19.7692,46.9482],[19.6927,46.9806],[19.6467,47.0121],[19.6236,47.0279],[19.5683,47.0905],[19.5306,47.1162],[19.4623,47.1235],[19.4475,47.111],[19.4455,47.091],[19.4333,47.0768],[19.4028,47.0686],[19.3744,47.0558],[19.3525,47.0266],[19.323,47.0196],[19.3028,47.0411],[19.3106,47.069],[19.3344,47.0954],[19.3302,47.1244],[19.3014,47.1453],[19.2653,47.1516],[19.1575,47.1188],[19.0832,47.078],[19.0367,47.0685],[18.9894,47.0666],[18.968,47.0331],[18.9188,47.074],[18.9031,47.0816],[18.8969,47.0903],[18.8892,47.1104],[18.8792,47.1492],[18.8789,47.169],[18.8814,47.1896],[18.8869,47.2081],[18.9076,47.2374],[18.9188,47.2871],[18.9028,47.3038],[18.9286,47.3185],[18.9423,47.344],[18.949,47.3693],[19.0627,47.3838],[19.1131,47.3627],[19.1426,47.3602],[19.2377,47.4062],[19.2569,47.4228],[19.3042,47.4476],[19.3267,47.4861],[19.3129,47.497],[19.2933,47.5023],[19.2174,47.5421],[19.1952,47.5394],[19.1919,47.5515],[19.1546,47.5688],[19.1323,47.5883],[19.0886,47.6068],[19.0409,47.6046],[19.0177,47.5888],[18.9903,47.5799],[18.9296,47.5737],[18.9386,47.515],[18.9739,47.4469],[18.9747,47.4342],[18.9555,47.4045],[18.9247,47.4285],[18.8913,47.4422],[18.8638,47.4618],[18.8383,47.454],[18.8442,47.4206],[18.8619,47.3872],[18.8194,47.3563],[18.807,47.3665],[18.7804,47.4105],[18.787,47.439],[18.7756,47.4645],[18.7246,47.5076],[18.685,47.5619],[18.7104,47.5787],[18.7259,47.605],[18.7476,47.6243],[18.775,47.6381],[18.7689,47.6525],[18.7591,47.6648],[18.8113,47.6702],[18.8637,47.6661],[18.853,47.7171],[18.8938,47.7268],[18.9165,47.7217],[18.9347,47.7324],[18.9215,47.7413],[18.9157,47.7712],[18.9058,47.7882],[18.8833,47.8122],[18.8482,47.8171],[18.8173,47.8319],[18.8149,47.8322]]]}},{"type":"Feature","properties":{"id":"HUN-4913","name":"Pécs","nameBn":"পিকস","type":"Urban county","bounds":[18.1251,45.9848,18.3705,46.1703],"center":[18.2337,46.0699]},"geometry":{"type":"Polygon","coordinates":[[[18.3196,46.1703],[18.3555,46.1075],[18.3705,46.0686],[18.3615,46.0566],[18.3286,46.0626],[18.3106,46.0626],[18.2927,46.0416],[18.2807,46.0177],[18.2628,45.9968],[18.2358,45.9848],[18.1999,45.9968],[18.161,46.0237],[18.1281,46.0387],[18.1431,46.0626],[18.1251,46.0835],[18.1355,46.1235],[18.1564,46.1414],[18.1969,46.1613],[18.2388,46.1584],[18.2777,46.1524],[18.3196,46.1703]]]}},{"type":"Feature","properties":{"id":"HUN-4921","name":"Salgótarján","nameBn":"সাল্গোতারিয়ান","type":"Urban county","bounds":[19.7106,48.0401,19.9051,48.159],"center":[19.7907,48.1057]},"geometry":{"type":"Polygon","coordinates":[[[19.7667,48.159],[19.7761,48.1495],[19.7856,48.1487],[19.8217,48.1579],[19.8463,48.1527],[19.8843,48.1296],[19.9051,48.1243],[19.8648,48.0957],[19.8168,48.073],[19.789,48.0401],[19.7106,48.0502],[19.7257,48.0907],[19.7333,48.1311],[19.7667,48.159]]]}},{"type":"Feature","properties":{"id":"HUN-3157","name":"Somogy","nameBn":"সোমোগি কাউন্টি","type":"County","bounds":[16.8793,45.8506,18.2192,46.972],"center":[17.5491,46.3623]},"geometry":{"type":"Polygon","coordinates":[[[17.3271,45.972],[17.3166,45.9738],[17.3066,45.9799],[17.3048,45.981],[17.2901,45.9846],[17.2901,45.9915],[17.297,45.9926],[17.3094,45.9966],[17.3168,45.9977],[17.3078,46.0064],[17.2915,46.0079],[17.2759,46.012],[17.269,46.0287],[17.2666,46.0388],[17.2541,46.0708],[17.2486,46.0802],[17.2086,46.1166],[17.1973,46.1212],[17.1162,46.1231],[17.1012,46.1282],[17.0529,46.1535],[17.0413,46.1622],[17.0363,46.173],[17.028,46.1805],[16.9748,46.2106],[16.9653,46.2195],[16.9407,46.2515],[16.9033,46.2819],[16.8961,46.2863],[16.8892,46.2922],[16.8793,46.3121],[16.9176,46.3222],[16.9426,46.3018],[17.0126,46.32],[17.0296,46.321],[17.0473,46.325],[17.0658,46.3412],[17.071,46.3636],[17.0539,46.3896],[17.045,46.4192],[17.0686,46.4232],[17.1813,46.4422],[17.1937,46.4749],[17.2108,46.4971],[17.2266,46.5329],[17.2204,46.6646],[17.2586,46.7101],[17.2992,46.7334],[17.366,46.7305],[17.4066,46.745],[17.4583,46.7496],[17.6619,46.8088],[17.842,46.8825],[17.8869,46.8912],[17.9263,46.9199],[17.9498,46.9303],[17.9763,46.935],[18.0726,46.972],[18.1268,46.9688],[18.1771,46.9531],[18.199,46.9142],[18.2192,46.8886],[18.2167,46.8819],[18.2122,46.8758],[18.2113,46.8187],[18.218,46.7907],[18.172,46.7769],[18.1605,46.7755],[18.1515,46.77],[18.1402,46.7534],[18.1262,46.7396],[18.1194,46.7257],[18.1173,46.7087],[18.0976,46.6784],[18.0894,46.6411],[18.0869,46.6021],[18.057,46.5621],[18.0379,46.5157],[18.0474,46.4746],[18.069,46.4662],[18.0976,46.3712],[18.0787,46.3597],[18.0718,46.3379],[18.0524,46.3227],[17.9382,46.3129],[17.846,46.2289],[17.8151,46.2122],[17.7663,46.2111],[17.7199,46.1995],[17.6909,46.1763],[17.6935,46.1149],[17.6764,46.0835],[17.617,46.0623],[17.646,46.001],[17.6305,45.981],[17.6423,45.9506],[17.6634,45.9267],[17.6921,45.9087],[17.7084,45.8883],[17.7051,45.8592],[17.6818,45.8506],[17.6547,45.8521],[17.6532,45.8574],[17.6521,45.8688],[17.6469,45.8837],[17.6458,45.8918],[17.6384,45.9013],[17.5911,45.9362],[17.5543,45.9478],[17.5119,45.9539],[17.4267,45.9567],[17.4182,45.953],[17.4154,45.9497],[17.4116,45.9466],[17.4062,45.9437],[17.3997,45.9599],[17.3892,45.9631],[17.3653,45.9567],[17.3453,45.9557],[17.3421,45.9586],[17.3437,45.9675],[17.3379,45.9846],[17.3271,45.972]],[[17.7764,46.4391],[17.7495,46.4541],[17.7375,46.4361],[17.7369,46.4092],[17.7309,46.3822],[17.707,46.3613],[17.7339,46.3074],[17.7429,46.2476],[17.7818,46.2685],[17.8147,46.2536],[17.8267,46.2775],[17.8476,46.3104],[17.8805,46.3284],[17.8716,46.3822],[17.8416,46.4391],[17.8416,46.4451],[17.7764,46.4391]]]}},{"type":"Feature","properties":{"id":"HUN-4904","name":"Sopron","nameBn":"সোপ্রন","type":"Urban county","bounds":[16.4078,47.6298,16.7168,47.7542],"center":[16.6001,47.6911]},"geometry":{"type":"Polygon","coordinates":[[[16.5678,47.7542],[16.6098,47.7506],[16.6899,47.7296],[16.7025,47.7236],[16.7078,47.7146],[16.7116,47.7041],[16.7168,47.697],[16.6879,47.671],[16.6917,47.6472],[16.6842,47.6384],[16.6284,47.6478],[16.5908,47.6472],[16.5578,47.6298],[16.5096,47.6431],[16.4819,47.639],[16.4259,47.6543],[16.4078,47.6613],[16.4166,47.6688],[16.4318,47.6855],[16.4391,47.6905],[16.4449,47.6855],[16.4499,47.6824],[16.4545,47.6818],[16.4611,47.6845],[16.473,47.6918],[16.5129,47.706],[16.5214,47.7115],[16.5269,47.7201],[16.5251,47.7333],[16.5311,47.743],[16.5678,47.7542]]]}},{"type":"Feature","properties":{"id":"HUN-3169","name":"Szabolcs-Szatmár-Bereg","nameBn":"সবোলচ-সৎমার-বেরেগ কাউন্টি","type":"County","bounds":[21.1137,47.5822,22.8776,48.4182],"center":[22.182,47.9535]},"geometry":{"type":"Polygon","coordinates":[[[22.8776,47.9467],[22.8612,47.9338],[22.8361,47.9025],[22.8197,47.8923],[22.7796,47.8823],[22.7636,47.8748],[22.7529,47.8612],[22.7533,47.8527],[22.7583,47.8462],[22.7603,47.8389],[22.7518,47.8277],[22.7458,47.825],[22.7242,47.8235],[22.7039,47.8172],[22.6917,47.8107],[22.667,47.7888],[22.6377,47.7716],[22.6012,47.7609],[22.563,47.7572],[22.5285,47.761],[22.4544,47.7874],[22.4237,47.7826],[22.4073,47.7431],[22.3959,47.7357],[22.3826,47.732],[22.3683,47.7312],[22.3221,47.7359],[22.3094,47.735],[22.2916,47.7307],[22.2731,47.7238],[22.2617,47.7158],[22.2398,47.6935],[22.2322,47.6883],[22.2152,47.6799],[22.2079,47.6737],[22.2042,47.6663],[22.2007,47.6479],[22.1976,47.6393],[22.1728,47.6154],[22.1698,47.6088],[22.1691,47.6014],[22.1676,47.5949],[22.1674,47.5938],[22.1621,47.5862],[22.1542,47.5822],[22.1538,47.5825],[22.1324,47.6011],[22.1125,47.6589],[22.0951,47.6763],[22.0487,47.6415],[22.0226,47.6589],[22.0284,47.685],[21.9994,47.7199],[21.9299,47.7462],[21.8956,47.7449],[21.8715,47.7167],[21.8595,47.6958],[21.8409,47.6831],[21.8197,47.6914],[21.8019,47.7064],[21.7815,47.7124],[21.7604,47.7124],[21.7182,47.7228],[21.6987,47.7354],[21.6498,47.7424],[21.6333,47.7577],[21.5397,47.8075],[21.5438,47.8636],[21.5561,47.9169],[21.5461,47.9381],[21.5146,47.9455],[21.4761,47.93],[21.3142,47.9217],[21.2694,47.9097],[21.1867,47.954],[21.1137,47.9605],[21.12,47.9867],[21.1267,47.999],[21.1378,48.0068],[21.1813,48.0263],[21.1882,48.0271],[21.2127,48.0263],[21.2226,48.029],[21.2266,48.0351],[21.2296,48.042],[21.2366,48.0468],[21.2529,48.0475],[21.2633,48.0417],[21.2723,48.0332],[21.2843,48.0263],[21.2986,48.024],[21.3464,48.0263],[21.339,48.0263],[21.3733,48.027],[21.4069,48.0337],[21.4324,48.0506],[21.4427,48.0818],[21.439,48.0955],[21.4317,48.1033],[21.4263,48.1124],[21.4284,48.1299],[21.4353,48.1435],[21.4469,48.1579],[21.4613,48.1701],[21.4761,48.1771],[21.4946,48.1791],[21.5587,48.1771],[21.5958,48.1807],[21.6128,48.1803],[21.6521,48.1678],[21.6712,48.1655],[21.6902,48.1674],[21.7662,48.1994],[21.7784,48.2016],[21.7945,48.202],[21.8131,48.2121],[21.8314,48.2247],[21.846,48.2324],[21.9092,48.235],[21.9286,48.2398],[21.9432,48.2478],[21.9715,48.2698],[22.0053,48.3032],[22.0112,48.3074],[22.0228,48.3083],[22.0422,48.3013],[22.0515,48.3],[22.0792,48.3115],[22.1,48.3345],[22.1372,48.3869],[22.1583,48.4022],[22.1593,48.4023],[22.1692,48.4095],[22.202,48.4182],[22.2361,48.4153],[22.2718,48.4035],[22.257,48.3732],[22.2568,48.3573],[22.2844,48.3584],[22.2913,48.3576],[22.2987,48.3491],[22.2987,48.3393],[22.2964,48.3278],[22.2974,48.314],[22.3081,48.2937],[22.3571,48.2431],[22.3636,48.2387],[22.3709,48.2374],[22.3786,48.2389],[22.3865,48.2431],[22.3905,48.2443],[22.3945,48.2448],[22.3988,48.2443],[22.4184,48.239],[22.4342,48.2367],[22.4497,48.2377],[22.469,48.2441],[22.4733,48.2445],[22.4774,48.2439],[22.4814,48.2426],[22.5558,48.1772],[22.5689,48.1565],[22.583,48.1248],[22.6001,48.1011],[22.6055,48.097],[22.6081,48.0968],[22.6212,48.1018],[22.6932,48.1018],[22.7116,48.1058],[22.7286,48.1131],[22.7457,48.1163],[22.7621,48.1093],[22.7656,48.1045],[22.8014,48.091],[22.831,48.0724],[22.8443,48.061],[22.8548,48.0473],[22.8616,48.0284],[22.858,48.018],[22.8513,48.0088],[22.8495,47.9931],[22.8324,47.9789],[22.8408,47.9668],[22.8776,47.9467]],[[21.85,47.9903],[21.7969,47.9928],[21.7969,48.0232],[21.7681,48.0368],[21.7302,48.0191],[21.7125,48.0317],[21.6619,48.0292],[21.6442,48.0064],[21.635,47.9853],[21.6274,47.9347],[21.6199,47.874],[21.6806,47.8613],[21.7489,47.8487],[21.7817,47.8335],[21.8374,47.8411],[21.8601,47.874],[21.8627,47.9094],[21.8956,47.9144],[21.8981,47.9524],[21.8956,47.9878],[21.8753,48.003],[21.85,47.9903]]]}},{"type":"Feature","properties":{"id":"HUN-4916","name":"Szeged","nameBn":"সেগেদ","type":"Urban county","bounds":[20.0098,46.1453,20.2709,46.3551],"center":[20.1431,46.2689]},"geometry":{"type":"Polygon","coordinates":[[[20.1148,46.1522],[20.0984,46.155],[20.0886,46.1541],[20.0634,46.1453],[20.0687,46.2157],[20.0785,46.2275],[20.0687,46.253],[20.0098,46.2648],[20.0137,46.3178],[20.053,46.3354],[20.1119,46.3276],[20.1472,46.3551],[20.1669,46.3413],[20.1865,46.3158],[20.2167,46.3168],[20.2253,46.303],[20.2297,46.2899],[20.2219,46.2757],[20.2474,46.2628],[20.269,46.2589],[20.2709,46.2353],[20.2432,46.234],[20.2085,46.2388],[20.1963,46.2235],[20.1983,46.2078],[20.212,46.1902],[20.2317,46.1784],[20.2297,46.1568],[20.2061,46.1529],[20.1885,46.1784],[20.1649,46.198],[20.1413,46.2],[20.1276,46.1882],[20.1148,46.1522]]]}},{"type":"Feature","properties":{"id":"HUN-4914","name":"Szekszárd","nameBn":"শেকজাদ","type":"Urban county","bounds":[18.6146,46.2987,18.8875,46.4165],"center":[18.6981,46.356]},"geometry":{"type":"Polygon","coordinates":[[[18.7393,46.4165],[18.758,46.3964],[18.7623,46.3805],[18.7693,46.361],[18.8035,46.361],[18.8035,46.3592],[18.8074,46.3549],[18.8129,46.3505],[18.8176,46.348],[18.8176,46.3505],[18.8224,46.3549],[18.8315,46.361],[18.8405,46.359],[18.8471,46.3563],[18.851,46.3511],[18.852,46.3411],[18.8645,46.3458],[18.8779,46.3477],[18.8859,46.3406],[18.8875,46.3309],[18.8783,46.3192],[18.8548,46.3186],[18.8318,46.3232],[18.8057,46.3278],[18.7832,46.3299],[18.7587,46.3355],[18.7362,46.3422],[18.7265,46.3319],[18.7173,46.3156],[18.7005,46.2987],[18.681,46.3033],[18.6683,46.311],[18.6642,46.3258],[18.6616,46.3391],[18.6565,46.3391],[18.6519,46.3309],[18.6299,46.3217],[18.6202,46.3304],[18.6146,46.3411],[18.617,46.3547],[18.6271,46.369],[18.6487,46.382],[18.6635,46.3964],[18.6817,46.392],[18.7076,46.3949],[18.7163,46.4136],[18.7393,46.4165]]]}},{"type":"Feature","properties":{"id":"HUN-4918","name":"Szolnok","nameBn":"সোনক","type":"Urban county","bounds":[20.0224,47.0984,20.3044,47.3414],"center":[20.168,47.206]},"geometry":{"type":"Polygon","coordinates":[[[20.0564,47.152],[20.0829,47.1975],[20.0475,47.2372],[20.0224,47.2491],[20.0614,47.2857],[20.1323,47.3414],[20.193,47.2908],[20.2614,47.2528],[20.2874,47.219],[20.2797,47.2064],[20.2487,47.1905],[20.2689,47.1617],[20.3044,47.1516],[20.3018,47.1187],[20.2715,47.1035],[20.2209,47.0984],[20.1935,47.1093],[20.178,47.1152],[20.1645,47.1184],[20.1145,47.144],[20.0564,47.152]]]}},{"type":"Feature","properties":{"id":"HUN-4903","name":"Szombathely","nameBn":"সোম্বেতলি","type":"Urban county","bounds":[16.5273,47.1476,16.6965,47.2909],"center":[16.625,47.2308]},"geometry":{"type":"Polygon","coordinates":[[[16.6334,47.2909],[16.6591,47.2866],[16.6751,47.2877],[16.6965,47.2396],[16.6901,47.2129],[16.6826,47.1904],[16.6805,47.1594],[16.6527,47.1637],[16.6292,47.1658],[16.6014,47.1476],[16.5714,47.1648],[16.55,47.2097],[16.5383,47.2449],[16.5273,47.2698],[16.5316,47.2815],[16.5573,47.2815],[16.569,47.2751],[16.6334,47.2909]]]}},{"type":"Feature","properties":{"id":"HUN-4908","name":"Székesfehérvár","nameBn":"জেকেসফেরহেভার","type":"Urban county","bounds":[18.3289,47.0657,18.5764,47.3072],"center":[18.4618,47.1977]},"geometry":{"type":"Polygon","coordinates":[[[18.4586,47.3072],[18.4783,47.3032],[18.4979,47.2757],[18.5254,47.2757],[18.5627,47.2561],[18.5529,47.2208],[18.5529,47.1952],[18.5764,47.1737],[18.5764,47.1462],[18.5588,47.1187],[18.5234,47.0794],[18.49,47.0912],[18.4292,47.0657],[18.4174,47.0951],[18.4056,47.1324],[18.3762,47.1678],[18.3289,47.2041],[18.3781,47.2424],[18.4331,47.2797],[18.4586,47.3072]]]}},{"type":"Feature","properties":{"id":"HUN-4906","name":"Tatabánya","nameBn":"তাতাবানায়ান","type":"Urban county","bounds":[18.3729,47.5054,18.524,47.6208],"center":[18.4452,47.5667]},"geometry":{"type":"Polygon","coordinates":[[[18.516,47.5553],[18.4825,47.5388],[18.462,47.5054],[18.4102,47.5265],[18.3748,47.556],[18.3847,47.5756],[18.3729,47.6011],[18.4004,47.6208],[18.4396,47.6168],[18.4907,47.609],[18.524,47.5756],[18.516,47.5553]]]}},{"type":"Feature","properties":{"id":"HUN-3165","name":"Tolna","nameBn":"টোলনা কাউন্টি","type":"County","bounds":[18.0379,46.0997,19.0018,46.8484],"center":[18.5198,46.5078]},"geometry":{"type":"Polygon","coordinates":[[[18.6602,46.7021],[18.6783,46.7092],[18.697,46.7135],[18.7396,46.7327],[18.8372,46.8179],[18.8807,46.8384],[18.9267,46.8484],[18.926,46.8352],[18.9276,46.8271],[18.9331,46.8205],[18.9506,46.8071],[18.9543,46.8035],[18.9584,46.8008],[18.9754,46.784],[18.9785,46.7799],[18.9847,46.7756],[18.9869,46.7655],[18.9875,46.7539],[18.9891,46.7452],[18.9989,46.7231],[19.0018,46.7085],[18.9964,46.6949],[18.9816,46.6763],[18.9529,46.6561],[18.8853,46.6352],[18.8581,46.6148],[18.8772,46.5912],[18.9076,46.5317],[18.9201,46.4988],[18.9227,46.4686],[18.8989,46.4143],[18.8922,46.3784],[18.8955,46.3629],[18.9101,46.3429],[18.9133,46.3306],[18.9144,46.2457],[18.8984,46.234],[18.8417,46.2257],[18.8241,46.2171],[18.8205,46.2122],[18.8233,46.2063],[18.835,46.2026],[18.847,46.2056],[18.8539,46.1932],[18.8335,46.1618],[18.8178,46.1557],[18.8026,46.1614],[18.7951,46.1512],[18.8072,46.1314],[18.8292,46.1229],[18.8089,46.1081],[18.7858,46.0997],[18.7327,46.1108],[18.683,46.1299],[18.6509,46.1555],[18.6205,46.1879],[18.5949,46.226],[18.5784,46.2387],[18.5584,46.2299],[18.5387,46.23],[18.4887,46.2634],[18.4643,46.2603],[18.4471,46.2466],[18.4079,46.2272],[18.3926,46.3128],[18.3735,46.3483],[18.3352,46.3788],[18.3381,46.395],[18.3338,46.4079],[18.3034,46.4116],[18.1855,46.4041],[18.1685,46.3825],[18.1491,46.3646],[18.1234,46.3657],[18.0976,46.3712],[18.069,46.4662],[18.0474,46.4746],[18.0379,46.5157],[18.057,46.5621],[18.0869,46.6021],[18.0894,46.6411],[18.0976,46.6784],[18.1173,46.7087],[18.1194,46.7257],[18.1262,46.7396],[18.1402,46.7534],[18.1515,46.77],[18.1605,46.7755],[18.172,46.7769],[18.218,46.7907],[18.2699,46.8007],[18.321,46.8004],[18.3295,46.8031],[18.3986,46.7639],[18.4402,46.7504],[18.4819,46.7452],[18.4949,46.7466],[18.5069,46.7569],[18.5192,46.7726],[18.5399,46.783],[18.5597,46.7845],[18.6303,46.7074],[18.6602,46.7021]],[[18.7693,46.361],[18.7623,46.3805],[18.758,46.3964],[18.7393,46.4165],[18.7163,46.4136],[18.7076,46.3949],[18.6817,46.392],[18.6635,46.3964],[18.6487,46.382],[18.6271,46.369],[18.617,46.3547],[18.6146,46.3411],[18.6202,46.3304],[18.6299,46.3217],[18.6519,46.3309],[18.6565,46.3391],[18.6616,46.3391],[18.6642,46.3258],[18.6683,46.311],[18.681,46.3033],[18.7005,46.2987],[18.7173,46.3156],[18.7265,46.3319],[18.7362,46.3422],[18.7587,46.3355],[18.7832,46.3299],[18.8057,46.3278],[18.8318,46.3232],[18.8548,46.3186],[18.8783,46.3192],[18.8875,46.3309],[18.8859,46.3406],[18.8779,46.3477],[18.8645,46.3458],[18.852,46.3411],[18.851,46.3511],[18.8471,46.3563],[18.8405,46.359],[18.8315,46.361],[18.8224,46.3549],[18.8176,46.3505],[18.8176,46.348],[18.8129,46.3505],[18.8074,46.3549],[18.8035,46.3592],[18.8035,46.361],[18.7693,46.361]]]}},{"type":"Feature","properties":{"id":"HUN-3138","name":"Vas","nameBn":"ভাস কাউন্টি","type":"County","bounds":[16.094,46.6965,17.3023,47.4542],"center":[16.814,47.1693]},"geometry":{"type":"Polygon","coordinates":[[[16.4819,47.3923],[16.5894,47.4256],[16.627,47.4455],[16.6294,47.4438],[16.6416,47.4334],[16.6553,47.426],[16.707,47.4182],[16.7343,47.3996],[16.7632,47.4033],[16.8385,47.4355],[16.863,47.4215],[16.9442,47.412],[17.0514,47.4542],[17.0764,47.4493],[17.0661,47.4288],[17.0577,47.4028],[17.1526,47.4372],[17.1788,47.4241],[17.2019,47.3984],[17.2467,47.3607],[17.3023,47.3342],[17.2358,47.3139],[17.2274,47.308],[17.2275,47.293],[17.2202,47.2816],[17.2077,47.273],[17.1959,47.2483],[17.2037,47.22],[17.1998,47.1718],[17.2204,47.0671],[17.098,47.0468],[17.0702,47.0204],[17.059,47.0224],[17.0478,47.0211],[17.0409,47.0263],[17.0378,47.0344],[17.014,47.0347],[17.0003,47.0204],[17.0046,47.0082],[16.9963,46.9974],[16.9548,46.9804],[16.9087,46.9734],[16.8843,46.9759],[16.8382,46.969],[16.8268,46.9504],[16.808,46.9498],[16.7861,46.955],[16.7507,46.938],[16.6508,46.9336],[16.6133,46.9212],[16.5965,46.9028],[16.5847,46.8792],[16.5669,46.8608],[16.5212,46.8318],[16.5008,46.8056],[16.4588,46.7864],[16.4114,46.7863],[16.4201,46.7516],[16.3718,46.7006],[16.3662,46.6965],[16.3654,46.6967],[16.3576,46.699],[16.3573,46.7158],[16.3434,46.7142],[16.3341,46.7217],[16.3255,46.7333],[16.3142,46.7433],[16.3004,46.7721],[16.2982,46.7758],[16.2995,46.7795],[16.3022,46.787],[16.3111,46.7975],[16.3149,46.802],[16.3218,46.8133],[16.3275,46.8255],[16.3298,46.8344],[16.3253,46.8394],[16.3107,46.84],[16.3019,46.8432],[16.2974,46.847],[16.2822,46.8599],[16.272,46.864],[16.1795,46.8585],[16.1354,46.8558],[16.1302,46.8567],[16.094,46.8628],[16.1101,46.8679],[16.1229,46.8764],[16.1591,46.9103],[16.1707,46.9185],[16.1961,46.9313],[16.217,46.9374],[16.2239,46.9411],[16.2307,46.9483],[16.2312,46.9544],[16.2304,46.96],[16.2329,46.9661],[16.2431,46.972],[16.253,46.9735],[16.2611,46.9781],[16.2654,46.9933],[16.2749,47.0043],[16.2885,47.0056],[16.3259,47.0004],[16.3666,47.0038],[16.3878,47.002],[16.405,46.9932],[16.4104,46.9904],[16.4156,46.9894],[16.4204,46.9903],[16.4248,46.993],[16.4248,46.9931],[16.4414,46.9952],[16.4674,46.9954],[16.4864,46.9986],[16.4819,47.0094],[16.4676,47.0184],[16.4533,47.0217],[16.4247,47.0241],[16.4372,47.0318],[16.4819,47.0442],[16.4932,47.0491],[16.4972,47.0546],[16.4937,47.0598],[16.4819,47.0639],[16.4618,47.0685],[16.4543,47.0817],[16.4608,47.0963],[16.4819,47.1052],[16.5048,47.1258],[16.5095,47.1375],[16.4973,47.1497],[16.4809,47.1508],[16.4471,47.1397],[16.4337,47.1458],[16.434,47.1513],[16.4421,47.1683],[16.4418,47.1771],[16.4351,47.1836],[16.4267,47.1841],[16.4188,47.1837],[16.4128,47.1872],[16.4093,47.2037],[16.4247,47.2256],[16.4214,47.243],[16.4214,47.2431],[16.4525,47.2546],[16.4666,47.2634],[16.4732,47.2768],[16.4692,47.2932],[16.4388,47.3366],[16.4361,47.3386],[16.4317,47.3397],[16.4271,47.3414],[16.4244,47.3452],[16.425,47.3511],[16.4293,47.3538],[16.4343,47.3556],[16.4364,47.3585],[16.434,47.3969],[16.4441,47.4095],[16.4566,47.4118],[16.4699,47.4055],[16.4819,47.3923]],[[16.6591,47.2866],[16.6334,47.2909],[16.569,47.2751],[16.5573,47.2815],[16.5316,47.2815],[16.5273,47.2698],[16.5383,47.2449],[16.55,47.2097],[16.5714,47.1648],[16.6014,47.1476],[16.6292,47.1658],[16.6527,47.1637],[16.6805,47.1594],[16.6826,47.1904],[16.6901,47.2129],[16.6965,47.2396],[16.6751,47.2877],[16.6591,47.2866]]]}},{"type":"Feature","properties":{"id":"HUN-3158","name":"Veszprém","nameBn":"ভেস্প্রেম কাউন্টি","type":"County","bounds":[17.098,46.6492,18.2296,47.4932],"center":[17.6638,47.1365]},"geometry":{"type":"Polygon","coordinates":[[[18.1032,47.3592],[18.1365,47.315],[18.1008,47.3083],[18.0948,47.281],[18.1065,47.2542],[18.1492,47.2259],[18.1855,47.1698],[18.2133,47.1584],[18.2274,47.1339],[18.2192,47.0679],[18.2296,47.0425],[18.2153,46.9936],[18.1771,46.9531],[18.1268,46.9688],[18.0726,46.972],[17.9763,46.935],[17.9498,46.9303],[17.9263,46.9199],[17.8869,46.8912],[17.842,46.8825],[17.6619,46.8088],[17.4583,46.7496],[17.4066,46.745],[17.366,46.7305],[17.2992,46.7334],[17.2586,46.7101],[17.2204,46.6646],[17.1666,46.6492],[17.1358,46.681],[17.1486,46.7505],[17.1357,46.9761],[17.1397,46.9887],[17.1479,46.9987],[17.1531,47.0097],[17.1468,47.0194],[17.1206,47.0272],[17.1085,47.0361],[17.098,47.0468],[17.2204,47.0671],[17.1998,47.1718],[17.2037,47.22],[17.1959,47.2483],[17.2077,47.273],[17.2202,47.2816],[17.2275,47.293],[17.2274,47.308],[17.2358,47.3139],[17.3023,47.3342],[17.2467,47.3607],[17.2019,47.3984],[17.2408,47.4081],[17.2682,47.4227],[17.2769,47.4332],[17.295,47.4307],[17.3321,47.4387],[17.3694,47.4409],[17.4032,47.4244],[17.4197,47.4202],[17.4377,47.4199],[17.4521,47.4286],[17.4743,47.4288],[17.4969,47.4336],[17.5171,47.4545],[17.5687,47.4494],[17.5974,47.4616],[17.6374,47.4495],[17.6798,47.4718],[17.7259,47.4823],[17.7612,47.4707],[17.7786,47.4815],[17.7974,47.4799],[17.8155,47.4744],[17.8164,47.4932],[17.8514,47.4775],[17.8825,47.4548],[17.8855,47.4265],[17.879,47.3988],[17.9171,47.3885],[17.9493,47.385],[17.9551,47.3639],[17.9664,47.3457],[17.9892,47.3424],[18.1032,47.3592]],[[18.0065,47.0581],[18.0041,47.1203],[17.9922,47.1634],[17.9611,47.2065],[17.9323,47.2281],[17.8988,47.2209],[17.8868,47.1898],[17.8294,47.1874],[17.827,47.1706],[17.8461,47.1539],[17.8437,47.1275],[17.8246,47.0964],[17.8509,47.0581],[17.8797,47.0174],[17.9251,47.0102],[17.9467,47.0246],[17.9658,47.0677],[18.0065,47.0581]]]}},{"type":"Feature","properties":{"id":"HUN-4909","name":"Veszprém","nameBn":"ভেসপ্রেম","type":"Urban county","bounds":[17.8246,47.0102,18.0065,47.2281],"center":[17.9145,47.123]},"geometry":{"type":"Polygon","coordinates":[[[17.9323,47.2281],[17.9611,47.2065],[17.9922,47.1634],[18.0041,47.1203],[18.0065,47.0581],[17.9658,47.0677],[17.9467,47.0246],[17.9251,47.0102],[17.8797,47.0174],[17.8509,47.0581],[17.8246,47.0964],[17.8437,47.1275],[17.8461,47.1539],[17.827,47.1706],[17.8294,47.1874],[17.8868,47.1898],[17.8988,47.2209],[17.9323,47.2281]]]}},{"type":"Feature","properties":{"id":"HUN-3159","name":"Zala","nameBn":"জালা কাউন্টি","type":"County","bounds":[16.3662,46.3018,17.2266,47.0468],"center":[16.7964,46.6712]},"geometry":{"type":"Polygon","coordinates":[[[16.5776,46.4707],[16.5643,46.4799],[16.5211,46.4985],[16.5153,46.5017],[16.5008,46.5448],[16.4671,46.5647],[16.4302,46.6044],[16.3946,46.619],[16.3764,46.6291],[16.3722,46.6363],[16.3684,46.643],[16.3776,46.6529],[16.3967,46.6591],[16.4026,46.6631],[16.4105,46.6684],[16.405,46.6873],[16.39,46.6942],[16.3714,46.6949],[16.3662,46.6965],[16.3718,46.7006],[16.4201,46.7516],[16.4114,46.7863],[16.4588,46.7864],[16.5008,46.8056],[16.5212,46.8318],[16.5669,46.8608],[16.5847,46.8792],[16.5965,46.9028],[16.6133,46.9212],[16.6508,46.9336],[16.7507,46.938],[16.7861,46.955],[16.808,46.9498],[16.8268,46.9504],[16.8382,46.969],[16.8843,46.9759],[16.9087,46.9734],[16.9548,46.9804],[16.9963,46.9974],[17.0046,47.0082],[17.0003,47.0204],[17.014,47.0347],[17.0378,47.0344],[17.0409,47.0263],[17.0478,47.0211],[17.059,47.0224],[17.0702,47.0204],[17.098,47.0468],[17.1085,47.0361],[17.1206,47.0272],[17.1468,47.0194],[17.1531,47.0097],[17.1479,46.9987],[17.1397,46.9887],[17.1357,46.9761],[17.1486,46.7505],[17.1358,46.681],[17.1666,46.6492],[17.2204,46.6646],[17.2266,46.5329],[17.2108,46.4971],[17.1937,46.4749],[17.1813,46.4422],[17.0686,46.4232],[17.0401,46.4634],[17.0318,46.5001],[17.0051,46.5185],[16.995,46.5616],[16.9532,46.5599],[16.9465,46.5198],[16.9181,46.5165],[16.9182,46.4868],[16.9199,46.4483],[16.9232,46.4016],[16.9633,46.3815],[17.0151,46.3765],[17.0539,46.3896],[17.071,46.3636],[17.0658,46.3412],[17.0473,46.325],[17.0296,46.321],[17.0126,46.32],[16.9426,46.3018],[16.9176,46.3222],[16.8793,46.3121],[16.8718,46.3272],[16.8751,46.3429],[16.8655,46.3591],[16.8594,46.3648],[16.8505,46.3731],[16.8377,46.3819],[16.8324,46.3819],[16.8302,46.3774],[16.8275,46.374],[16.8209,46.3781],[16.8166,46.382],[16.8123,46.385],[16.8079,46.3874],[16.8034,46.3887],[16.7765,46.3929],[16.7693,46.3961],[16.7619,46.3819],[16.7551,46.3819],[16.7429,46.3996],[16.7124,46.4127],[16.6936,46.4296],[16.6775,46.4487],[16.6593,46.4642],[16.6377,46.4745],[16.6111,46.4781],[16.6021,46.482],[16.5943,46.483],[16.5881,46.4796],[16.5837,46.4707],[16.5776,46.4707]],[[16.8103,46.7813],[16.8751,46.7897],[16.9127,46.8001],[16.896,46.8774],[16.8458,46.9087],[16.7708,46.8999],[16.7749,46.8377],[16.8103,46.821],[16.8103,46.7813]]]}},{"type":"Feature","properties":{"id":"HUN-4910","name":"Zalaegerszeg","nameBn":"জালায়েসেগ","type":"Urban county","bounds":[16.7708,46.7813,16.9127,46.9087],"center":[16.8447,46.8452]},"geometry":{"type":"Polygon","coordinates":[[[16.8458,46.9087],[16.896,46.8774],[16.9127,46.8001],[16.8751,46.7897],[16.8103,46.7813],[16.8103,46.821],[16.7749,46.8377],[16.7708,46.8999],[16.8458,46.9087]]]}},{"type":"Feature","properties":{"id":"HUN-4907","name":"Érd","nameBn":"এর্দ","type":"Urban county","bounds":[18.8194,47.3038,18.9555,47.4618],"center":[18.893,47.3677]},"geometry":{"type":"Polygon","coordinates":[[[18.9555,47.4045],[18.949,47.3693],[18.9423,47.344],[18.9286,47.3185],[18.9028,47.3038],[18.8683,47.3071],[18.8561,47.3179],[18.8483,47.3324],[18.8194,47.3563],[18.8619,47.3872],[18.8442,47.4206],[18.8383,47.454],[18.8638,47.4618],[18.8913,47.4422],[18.9247,47.4285],[18.9555,47.4045]]]}}]}