{"type":"FeatureCollection","features":[{"type":"Feature","properties":{"id":"JAM-1370","name":"Clarendon","nameBn":"ক্লারেন্ডন প্যারিশ","type":"Parish","bounds":[-77.4912,17.7032,-77.1306,18.2041],"center":[-77.3109,17.9947]},"geometry":{"type":"Polygon","coordinates":[[[-77.1346,17.8851],[-77.1417,17.8811],[-77.1581,17.8499],[-77.162,17.8408],[-77.1544,17.8131],[-77.1617,17.8103],[-77.1744,17.8029],[-77.1817,17.8],[-77.1791,17.7947],[-77.1774,17.7846],[-77.1749,17.7783],[-77.1856,17.7829],[-77.1964,17.7834],[-77.2068,17.7799],[-77.2165,17.7721],[-77.1989,17.7618],[-77.1803,17.7579],[-77.1609,17.7594],[-77.1407,17.7653],[-77.1306,17.7277],[-77.1337,17.7104],[-77.1581,17.7032],[-77.1789,17.7042],[-77.1976,17.7082],[-77.2161,17.7167],[-77.3029,17.7908],[-77.3209,17.8124],[-77.3946,17.8534],[-77.3917,17.8559],[-77.3897,17.8572],[-77.3868,17.8581],[-77.3779,17.857],[-77.3748,17.8572],[-77.3722,17.8577],[-77.3701,17.8591],[-77.3684,17.861],[-77.3673,17.8636],[-77.3653,17.8758],[-77.3594,17.8944],[-77.359,17.8976],[-77.3599,17.9009],[-77.3622,17.9044],[-77.3736,17.9138],[-77.3782,17.9197],[-77.3799,17.924],[-77.3817,17.9301],[-77.3839,17.9436],[-77.3844,17.9504],[-77.3841,17.9552],[-77.3813,17.9631],[-77.3799,17.9688],[-77.4888,18.1812],[-77.4912,18.1961],[-77.4676,18.1887],[-77.4422,18.1845],[-77.4379,18.1847],[-77.4331,18.1856],[-77.426,18.1883],[-77.4223,18.1904],[-77.4153,18.1956],[-77.4129,18.1967],[-77.379,18.2041],[-77.3748,18.204],[-77.3697,18.2032],[-77.3504,18.1958],[-77.3014,18.1873],[-77.2109,18.1861],[-77.1825,18.1176],[-77.1785,18.0997],[-77.1822,18.0926],[-77.1851,18.0833],[-77.1874,18.0688],[-77.1871,18.0639],[-77.1863,18.0603],[-77.1822,18.0542],[-77.1806,18.0524],[-77.1749,18.0444],[-77.1694,18.0345],[-77.167,18.0279],[-77.1657,18.0229],[-77.1654,17.9879],[-77.1646,17.9803],[-77.1634,17.9745],[-77.1622,17.9717],[-77.1609,17.9694],[-77.1416,17.9448],[-77.1398,17.9404],[-77.1389,17.9362],[-77.1393,17.9329],[-77.1346,17.8851]]]}},{"type":"Feature","properties":{"id":"JAM-1371","name":"Hanover","nameBn":"হ্যানওভার প্যারিশ","type":"Parish","bounds":[-78.346,18.2898,-77.9214,18.4555],"center":[-78.1337,18.3953]},"geometry":{"type":"Polygon","coordinates":[[[-78.346,18.298],[-78.3444,18.3054],[-78.3458,18.3355],[-78.3439,18.3441],[-78.3363,18.3559],[-78.3354,18.3634],[-78.3319,18.3674],[-78.3164,18.3686],[-78.3066,18.3747],[-78.2987,18.3864],[-78.2884,18.3944],[-78.2716,18.3891],[-78.2613,18.4174],[-78.2306,18.4442],[-78.195,18.4555],[-78.1693,18.4368],[-78.1544,18.4535],[-78.1385,18.4538],[-78.12,18.4473],[-78.0972,18.4431],[-78.0325,18.4506],[-78.011,18.4505],[-78.0002,18.4467],[-78.0003,18.4372],[-78.0008,18.4341],[-78.0075,18.4117],[-78.0056,18.4082],[-78.0022,18.4042],[-77.986,18.3914],[-77.9843,18.3887],[-77.9818,18.3838],[-77.9803,18.3766],[-77.9775,18.3703],[-77.9662,18.3505],[-77.9612,18.3397],[-77.9591,18.3376],[-77.9555,18.3351],[-77.9416,18.3282],[-77.9366,18.3237],[-77.9341,18.3205],[-77.9214,18.2961],[-78.0052,18.3008],[-78.0271,18.3046],[-78.0822,18.335],[-78.0909,18.3374],[-78.1002,18.3386],[-78.2243,18.3381],[-78.23,18.3366],[-78.2675,18.2945],[-78.2725,18.2908],[-78.2776,18.2898],[-78.283,18.2898],[-78.337,18.2973],[-78.346,18.298]]]}},{"type":"Feature","properties":{"id":"JAM-1377","name":"Kingston","nameBn":"কিংস্টোন পারিশ","type":"Parish","bounds":[-76.8125,17.9538,-76.7214,17.9966],"center":[-76.7653,17.9799]},"geometry":{"type":"Polygon","coordinates":[[[-76.727,17.9538],[-76.7293,17.956],[-76.7344,17.9606],[-76.7475,17.9634],[-76.7777,17.9639],[-76.7982,17.9634],[-76.8125,17.9715],[-76.8092,17.9809],[-76.8074,17.9845],[-76.7997,17.9894],[-76.7897,17.9933],[-76.7812,17.9954],[-76.7554,17.9966],[-76.7406,17.9933],[-76.7307,17.9883],[-76.7223,17.9698],[-76.7214,17.9568],[-76.727,17.9538]]]}},{"type":"Feature","properties":{"id":"JAM-1372","name":"Manchester","nameBn":"ম্যানচেস্টার পারিস","type":"Parish","bounds":[-77.6403,17.8419,-77.359,18.2372],"center":[-77.4996,18.0219]},"geometry":{"type":"Polygon","coordinates":[[[-77.3946,17.8534],[-77.3956,17.8539],[-77.4177,17.8617],[-77.441,17.8647],[-77.4595,17.8574],[-77.4806,17.8437],[-77.5018,17.8419],[-77.5455,17.854],[-77.5646,17.8571],[-77.567,17.8616],[-77.6353,18.1312],[-77.6403,18.2209],[-77.6274,18.2239],[-77.6213,18.2261],[-77.6102,18.2325],[-77.6029,18.2358],[-77.5973,18.2372],[-77.5916,18.2371],[-77.5533,18.2316],[-77.5501,18.2317],[-77.5358,18.2257],[-77.4912,18.1961],[-77.4888,18.1812],[-77.3799,17.9688],[-77.3813,17.9631],[-77.3841,17.9552],[-77.3844,17.9504],[-77.3839,17.9436],[-77.3817,17.9301],[-77.3799,17.924],[-77.3782,17.9197],[-77.3736,17.9138],[-77.3622,17.9044],[-77.3599,17.9009],[-77.359,17.8976],[-77.3594,17.8944],[-77.3653,17.8758],[-77.3673,17.8636],[-77.3684,17.861],[-77.3701,17.8591],[-77.3722,17.8577],[-77.3748,17.8572],[-77.3779,17.857],[-77.3868,17.8581],[-77.3897,17.8572],[-77.3917,17.8559],[-77.3946,17.8534]]]}},{"type":"Feature","properties":{"id":"JAM-1378","name":"Portland","nameBn":"পোর্টল্যান্ড প্যারিশ","type":"Parish","bounds":[-76.7514,17.9867,-76.2568,18.2668],"center":[-76.5041,18.1179]},"geometry":{"type":"Polygon","coordinates":[[[-76.7015,18.2668],[-76.6957,18.2656],[-76.681,18.2581],[-76.662,18.2398],[-76.6473,18.2308],[-76.6304,18.2257],[-76.5972,18.2277],[-76.5798,18.216],[-76.5742,18.2147],[-76.5692,18.2101],[-76.5631,18.206],[-76.5548,18.2041],[-76.4797,18.2041],[-76.4745,18.2011],[-76.4666,18.1868],[-76.463,18.1824],[-76.3894,18.1692],[-76.3511,18.156],[-76.3463,18.1352],[-76.3179,18.1093],[-76.2958,18.0792],[-76.2637,18.0124],[-76.2568,17.9963],[-76.2574,17.9962],[-76.2853,17.9879],[-76.2958,17.9867],[-76.3322,17.9915],[-76.3458,17.9947],[-76.3497,17.9979],[-76.3525,18.0007],[-76.359,18.0097],[-76.3607,18.0116],[-76.3625,18.013],[-76.3679,18.0152],[-76.3975,18.0236],[-76.4302,18.0284],[-76.4522,18.0406],[-76.4571,18.0418],[-76.4612,18.042],[-76.4663,18.0399],[-76.4729,18.0364],[-76.4765,18.0355],[-76.4816,18.0348],[-76.4957,18.0348],[-76.4997,18.0343],[-76.5021,18.0332],[-76.5041,18.0316],[-76.5086,18.0275],[-76.5124,18.0251],[-76.5205,18.0222],[-76.5252,18.0218],[-76.529,18.0222],[-76.536,18.026],[-76.5834,18.0403],[-76.5909,18.0437],[-76.5975,18.048],[-76.5996,18.0498],[-76.6014,18.0515],[-76.609,18.0614],[-76.6278,18.0736],[-76.673,18.0915],[-76.6859,18.0933],[-76.6878,18.0918],[-76.6893,18.0896],[-76.6916,18.0847],[-76.6936,18.0817],[-76.6984,18.0798],[-76.7085,18.0781],[-76.7214,18.0806],[-76.7279,18.0825],[-76.7316,18.0847],[-76.7347,18.0886],[-76.7359,18.0907],[-76.7448,18.1158],[-76.7452,18.1183],[-76.7514,18.1386],[-76.7044,18.2635],[-76.7015,18.2668]]]}},{"type":"Feature","properties":{"id":"JAM-1382","name":"Saint Andrew","nameBn":"সেন্ট অ্যান্ড্রু","type":"Parish","bounds":[-76.8898,17.9297,-76.6162,18.1669],"center":[-76.7685,18.0229]},"geometry":{"type":"Polygon","coordinates":[[[-76.8125,17.9715],[-76.8191,17.9753],[-76.8368,17.9864],[-76.85,17.9923],[-76.8532,18.0038],[-76.86,18.0129],[-76.8627,18.0123],[-76.8678,18.0101],[-76.8703,18.0096],[-76.8731,18.0096],[-76.8755,18.0105],[-76.8773,18.012],[-76.8786,18.0141],[-76.8805,18.0187],[-76.8815,18.0202],[-76.8824,18.0213],[-76.8896,18.0275],[-76.8898,18.0332],[-76.8884,18.0419],[-76.8825,18.0621],[-76.879,18.0704],[-76.8759,18.0757],[-76.8739,18.0771],[-76.872,18.0788],[-76.8704,18.0807],[-76.8691,18.0829],[-76.8657,18.0901],[-76.8655,18.0939],[-76.8665,18.0988],[-76.8731,18.1119],[-76.8747,18.1182],[-76.8752,18.1221],[-76.8728,18.1483],[-76.8593,18.1536],[-76.857,18.1554],[-76.8546,18.158],[-76.8535,18.1606],[-76.8522,18.163],[-76.8483,18.1647],[-76.8422,18.1657],[-76.8294,18.1658],[-76.8237,18.1669],[-76.807,18.1638],[-76.7514,18.1386],[-76.7452,18.1183],[-76.7448,18.1158],[-76.7359,18.0907],[-76.7347,18.0886],[-76.7316,18.0847],[-76.7279,18.0825],[-76.7214,18.0806],[-76.7085,18.0781],[-76.6984,18.0798],[-76.6936,18.0817],[-76.6916,18.0847],[-76.6893,18.0896],[-76.6878,18.0918],[-76.6859,18.0933],[-76.673,18.0915],[-76.6278,18.0736],[-76.637,18.0655],[-76.6387,18.0592],[-76.64,18.0511],[-76.6404,18.0361],[-76.6391,18.0299],[-76.6367,18.0242],[-76.634,18.0198],[-76.6285,18.001],[-76.6267,17.9977],[-76.6195,17.9879],[-76.6162,17.9823],[-76.6162,17.9789],[-76.6178,17.9769],[-76.6206,17.9764],[-76.6305,17.9772],[-76.6346,17.9764],[-76.6384,17.9747],[-76.6429,17.9683],[-76.6439,17.9625],[-76.6433,17.9532],[-76.6438,17.9488],[-76.6449,17.9456],[-76.6512,17.9387],[-76.6572,17.9297],[-76.6848,17.936],[-76.6923,17.94],[-76.7077,17.9459],[-76.7284,17.9448],[-76.7646,17.9366],[-76.7801,17.9348],[-76.8323,17.9366],[-76.8323,17.9434],[-76.7224,17.9496],[-76.727,17.9538],[-76.7214,17.9568],[-76.7223,17.9698],[-76.7307,17.9883],[-76.7406,17.9933],[-76.7554,17.9966],[-76.7812,17.9954],[-76.7897,17.9933],[-76.7997,17.9894],[-76.8074,17.9845],[-76.8092,17.9809],[-76.8125,17.9715]]]}},{"type":"Feature","properties":{"id":"JAM-1379","name":"Saint Ann","nameBn":"সেন্ট অ্যান পারিশ","type":"Parish","bounds":[-77.4912,18.1845,-76.9964,18.4761],"center":[-77.2438,18.3194]},"geometry":{"type":"Polygon","coordinates":[[[-77.4653,18.4761],[-77.455,18.4753],[-77.4289,18.4692],[-77.4083,18.4573],[-77.3765,18.4652],[-77.3253,18.465],[-77.2726,18.4594],[-77.2363,18.4505],[-77.2318,18.446],[-77.2281,18.4337],[-77.2233,18.4294],[-77.2174,18.4293],[-77.212,18.4318],[-77.2089,18.435],[-77.2096,18.4368],[-77.1649,18.4294],[-77.1594,18.4262],[-77.1426,18.4121],[-77.1374,18.4089],[-77.1047,18.4079],[-77.0704,18.4134],[-77.0695,18.4089],[-77.0609,18.3723],[-77.0603,18.3671],[-77.0583,18.3599],[-77.0562,18.3563],[-77.051,18.3515],[-77.0483,18.3479],[-77.0465,18.3442],[-77.0486,18.3217],[-77.0482,18.3187],[-77.0461,18.315],[-77.0337,18.301],[-77.0295,18.2946],[-77.0264,18.2854],[-77.025,18.2769],[-77.0234,18.2715],[-77.0222,18.2688],[-77.0156,18.2603],[-76.9964,18.242],[-77.0564,18.2098],[-77.0768,18.2023],[-77.2109,18.1861],[-77.3014,18.1873],[-77.3504,18.1958],[-77.3697,18.2032],[-77.3748,18.204],[-77.379,18.2041],[-77.4129,18.1967],[-77.4153,18.1956],[-77.4223,18.1904],[-77.426,18.1883],[-77.4331,18.1856],[-77.4379,18.1847],[-77.4422,18.1845],[-77.4676,18.1887],[-77.4912,18.1961],[-77.4515,18.3761],[-77.4512,18.381],[-77.4515,18.3856],[-77.4568,18.3919],[-77.4582,18.3947],[-77.4582,18.3983],[-77.4556,18.4046],[-77.4548,18.4104],[-77.4556,18.4176],[-77.467,18.4459],[-77.4678,18.4541],[-77.4657,18.474],[-77.4653,18.4761]]]}},{"type":"Feature","properties":{"id":"JAM-1380","name":"Saint Catherine","nameBn":"সেন্ট ক্যাথেরিন প্যারিশ","type":"Parish","bounds":[-77.2109,17.8334,-76.85,18.2471],"center":[-77.0292,17.8518]},"geometry":{"type":"Polygon","coordinates":[[[-76.85,17.9923],[-76.8531,17.982],[-76.8578,17.9714],[-76.8702,17.9581],[-76.874,17.9503],[-76.8872,17.9519],[-76.891,17.9445],[-76.8949,17.9217],[-76.9128,17.8613],[-76.9261,17.8433],[-76.9421,17.8336],[-76.9553,17.8334],[-76.964,17.8372],[-76.9721,17.8424],[-76.9831,17.8466],[-77.0383,17.8466],[-77.0383,17.854],[-77.0172,17.8608],[-77.028,17.8698],[-77.0415,17.8872],[-77.052,17.895],[-77.0642,17.8995],[-77.093,17.9025],[-77.1191,17.8938],[-77.1346,17.8851],[-77.1393,17.9329],[-77.1389,17.9362],[-77.1398,17.9404],[-77.1416,17.9448],[-77.1609,17.9694],[-77.1622,17.9717],[-77.1634,17.9745],[-77.1646,17.9803],[-77.1654,17.9879],[-77.1657,18.0229],[-77.167,18.0279],[-77.1694,18.0345],[-77.1749,18.0444],[-77.1806,18.0524],[-77.1822,18.0542],[-77.1863,18.0603],[-77.1871,18.0639],[-77.1874,18.0688],[-77.1851,18.0833],[-77.1822,18.0926],[-77.1785,18.0997],[-77.1825,18.1176],[-77.2109,18.1861],[-77.0768,18.2023],[-77.0564,18.2098],[-76.9964,18.242],[-76.9811,18.2464],[-76.9782,18.2469],[-76.9751,18.2471],[-76.9559,18.2451],[-76.9526,18.2428],[-76.9496,18.2392],[-76.9436,18.2255],[-76.9402,18.2211],[-76.9323,18.2156],[-76.9281,18.2112],[-76.9242,18.2034],[-76.9221,18.1953],[-76.9209,18.1868],[-76.9187,18.1825],[-76.907,18.1672],[-76.8964,18.1574],[-76.8728,18.1483],[-76.8752,18.1221],[-76.8747,18.1182],[-76.8731,18.1119],[-76.8665,18.0988],[-76.8655,18.0939],[-76.8657,18.0901],[-76.8691,18.0829],[-76.8704,18.0807],[-76.872,18.0788],[-76.8739,18.0771],[-76.8759,18.0757],[-76.879,18.0704],[-76.8825,18.0621],[-76.8884,18.0419],[-76.8898,18.0332],[-76.8896,18.0275],[-76.8824,18.0213],[-76.8815,18.0202],[-76.8805,18.0187],[-76.8786,18.0141],[-76.8773,18.012],[-76.8755,18.0105],[-76.8731,18.0096],[-76.8703,18.0096],[-76.8678,18.0101],[-76.8627,18.0123],[-76.86,18.0129],[-76.8532,18.0038],[-76.85,17.9923]]]}},{"type":"Feature","properties":{"id":"JAM-1373","name":"Saint Elizabeth","nameBn":"সেন্ট এলিজাবেথ প্রদেশ","type":"Parish","bounds":[-77.9646,17.8536,-77.5646,18.2344],"center":[-77.7646,18.0537]},"geometry":{"type":"Polygon","coordinates":[[[-77.5646,17.8571],[-77.5884,17.861],[-77.7239,17.8536],[-77.7307,17.8548],[-77.7515,17.8683],[-77.7867,17.885],[-77.7956,17.8915],[-77.7999,17.8991],[-77.8103,17.9247],[-77.8124,17.9328],[-77.8162,17.9392],[-77.8341,17.9453],[-77.8397,17.9496],[-77.8411,17.9706],[-77.8393,17.9958],[-77.8456,18.017],[-77.871,18.0259],[-77.9403,18.0265],[-77.9563,18.0322],[-77.9646,18.0506],[-77.9576,18.0635],[-77.938,18.1176],[-77.9357,18.1324],[-77.9366,18.1348],[-77.938,18.1401],[-77.9382,18.1429],[-77.9379,18.1459],[-77.9362,18.1521],[-77.9299,18.1648],[-77.9189,18.1814],[-77.9144,18.1857],[-77.911,18.1884],[-77.8959,18.1956],[-77.7814,18.2344],[-77.6403,18.2209],[-77.6353,18.1312],[-77.567,17.8616],[-77.5646,17.8571]]]}},{"type":"Feature","properties":{"id":"JAM-1374","name":"Saint James","nameBn":"সেইন্ট জেমস পারিশ","type":"Parish","bounds":[-78.0075,18.1956,-77.7355,18.5251],"center":[-77.8715,18.3637]},"geometry":{"type":"Polygon","coordinates":[[[-78.0002,18.4467],[-77.9924,18.444],[-77.9814,18.4414],[-77.97,18.4431],[-77.9598,18.4499],[-77.9589,18.4564],[-77.9591,18.4641],[-77.953,18.4744],[-77.9303,18.502],[-77.92,18.5112],[-77.9023,18.5188],[-77.8619,18.5251],[-77.8161,18.5234],[-77.7355,18.5067],[-77.7359,18.5049],[-77.7814,18.2344],[-77.8959,18.1956],[-77.8864,18.222],[-77.8859,18.2315],[-77.8939,18.2557],[-77.8969,18.2606],[-77.8984,18.2626],[-77.9002,18.2644],[-77.9022,18.2659],[-77.9047,18.2671],[-77.9105,18.2737],[-77.9214,18.2961],[-77.9341,18.3205],[-77.9366,18.3237],[-77.9416,18.3282],[-77.9555,18.3351],[-77.9591,18.3376],[-77.9612,18.3397],[-77.9662,18.3505],[-77.9775,18.3703],[-77.9803,18.3766],[-77.9818,18.3838],[-77.9843,18.3887],[-77.986,18.3914],[-78.0022,18.4042],[-78.0056,18.4082],[-78.0075,18.4117],[-78.0008,18.4341],[-78.0003,18.4372],[-78.0002,18.4467]]]}},{"type":"Feature","properties":{"id":"JAM-1381","name":"Saint Mary","nameBn":"সেন্ট মেরি প্যারিশ","type":"Parish","bounds":[-77.0704,18.1386,-76.7015,18.4163],"center":[-76.8859,18.2655]},"geometry":{"type":"Polygon","coordinates":[[[-77.0704,18.4134],[-77.052,18.4163],[-77.04,18.4135],[-77.0192,18.4041],[-77.0073,18.4021],[-76.9481,18.4045],[-76.9366,18.4103],[-76.9203,18.4122],[-76.9071,18.4112],[-76.8949,18.4093],[-76.8878,18.4006],[-76.8909,18.3899],[-76.8909,18.3764],[-76.8798,18.3668],[-76.8442,18.3454],[-76.8128,18.328],[-76.8076,18.3183],[-76.7983,18.2921],[-76.7924,18.2834],[-76.7828,18.2778],[-76.7646,18.273],[-76.7129,18.2692],[-76.7015,18.2668],[-76.7044,18.2635],[-76.7514,18.1386],[-76.807,18.1638],[-76.8237,18.1669],[-76.8294,18.1658],[-76.8422,18.1657],[-76.8483,18.1647],[-76.8522,18.163],[-76.8535,18.1606],[-76.8546,18.158],[-76.857,18.1554],[-76.8593,18.1536],[-76.8728,18.1483],[-76.8964,18.1574],[-76.907,18.1672],[-76.9187,18.1825],[-76.9209,18.1868],[-76.9221,18.1953],[-76.9242,18.2034],[-76.9281,18.2112],[-76.9323,18.2156],[-76.9402,18.2211],[-76.9436,18.2255],[-76.9496,18.2392],[-76.9526,18.2428],[-76.9559,18.2451],[-76.9751,18.2471],[-76.9782,18.2469],[-76.9811,18.2464],[-76.9964,18.242],[-77.0156,18.2603],[-77.0222,18.2688],[-77.0234,18.2715],[-77.025,18.2769],[-77.0264,18.2854],[-77.0295,18.2946],[-77.0337,18.301],[-77.0461,18.315],[-77.0482,18.3187],[-77.0486,18.3217],[-77.0465,18.3442],[-77.0483,18.3479],[-77.051,18.3515],[-77.0562,18.3563],[-77.0583,18.3599],[-77.0603,18.3671],[-77.0609,18.3723],[-77.0695,18.4089],[-77.0704,18.4134]]]}},{"type":"Feature","properties":{"id":"JAM-1383","name":"Saint Thomas","nameBn":"সেন্ট থমাস পারিশ","type":"Parish","bounds":[-76.6572,17.8603,-76.188,18.0736],"center":[-76.4226,17.951]},"geometry":{"type":"Polygon","coordinates":[[[-76.2568,17.9963],[-76.2488,17.9779],[-76.234,17.9539],[-76.2152,17.935],[-76.188,17.9155],[-76.1984,17.9074],[-76.2501,17.895],[-76.2865,17.8759],[-76.3074,17.8701],[-76.3252,17.8745],[-76.3182,17.8793],[-76.3154,17.8827],[-76.3115,17.895],[-76.3296,17.8887],[-76.3456,17.8659],[-76.363,17.8608],[-76.3785,17.8651],[-76.3966,17.873],[-76.4149,17.8775],[-76.4449,17.8668],[-76.5235,17.8603],[-76.579,17.8683],[-76.5871,17.868],[-76.5946,17.8666],[-76.6028,17.8676],[-76.6131,17.8745],[-76.6177,17.8835],[-76.6197,17.8951],[-76.6227,17.905],[-76.6305,17.9092],[-76.6386,17.9116],[-76.644,17.9172],[-76.6486,17.9239],[-76.6548,17.9291],[-76.6572,17.9297],[-76.6512,17.9387],[-76.6449,17.9456],[-76.6438,17.9488],[-76.6433,17.9532],[-76.6439,17.9625],[-76.6429,17.9683],[-76.6384,17.9747],[-76.6346,17.9764],[-76.6305,17.9772],[-76.6206,17.9764],[-76.6178,17.9769],[-76.6162,17.9789],[-76.6162,17.9823],[-76.6195,17.9879],[-76.6267,17.9977],[-76.6285,18.001],[-76.634,18.0198],[-76.6367,18.0242],[-76.6391,18.0299],[-76.6404,18.0361],[-76.64,18.0511],[-76.6387,18.0592],[-76.637,18.0655],[-76.6278,18.0736],[-76.609,18.0614],[-76.6014,18.0515],[-76.5996,18.0498],[-76.5975,18.048],[-76.5909,18.0437],[-76.5834,18.0403],[-76.536,18.026],[-76.529,18.0222],[-76.5252,18.0218],[-76.5205,18.0222],[-76.5124,18.0251],[-76.5086,18.0275],[-76.5041,18.0316],[-76.5021,18.0332],[-76.4997,18.0343],[-76.4957,18.0348],[-76.4816,18.0348],[-76.4765,18.0355],[-76.4729,18.0364],[-76.4663,18.0399],[-76.4612,18.042],[-76.4571,18.0418],[-76.4522,18.0406],[-76.4302,18.0284],[-76.3975,18.0236],[-76.3679,18.0152],[-76.3625,18.013],[-76.3607,18.0116],[-76.359,18.0097],[-76.3525,18.0007],[-76.3497,17.9979],[-76.3458,17.9947],[-76.3322,17.9915],[-76.2958,17.9867],[-76.2853,17.9879],[-76.2574,17.9962],[-76.2568,17.9963]]]}},{"type":"Feature","properties":{"id":"JAM-1375","name":"Trelawny","nameBn":"ত্রেলাওনি পারিশ","type":"Parish","bounds":[-77.7814,18.1961,-77.4512,18.5067],"center":[-77.6163,18.36]},"geometry":{"type":"Polygon","coordinates":[[[-77.7355,18.5067],[-77.6645,18.4919],[-77.5673,18.4902],[-77.5243,18.4802],[-77.4653,18.4761],[-77.4657,18.474],[-77.4678,18.4541],[-77.467,18.4459],[-77.4556,18.4176],[-77.4548,18.4104],[-77.4556,18.4046],[-77.4582,18.3983],[-77.4582,18.3947],[-77.4568,18.3919],[-77.4515,18.3856],[-77.4512,18.381],[-77.4515,18.3761],[-77.4912,18.1961],[-77.5358,18.2257],[-77.5501,18.2317],[-77.5533,18.2316],[-77.5916,18.2371],[-77.5973,18.2372],[-77.6029,18.2358],[-77.6102,18.2325],[-77.6213,18.2261],[-77.6274,18.2239],[-77.6403,18.2209],[-77.7814,18.2344],[-77.7359,18.5049],[-77.7355,18.5067]]]}},{"type":"Feature","properties":{"id":"JAM-1376","name":"Westmoreland","nameBn":"ওয়েস্টারমল্যান্ডল্যান্ড প্যারিশ","type":"Parish","bounds":[-78.3747,18.0506,-77.8859,18.3386],"center":[-78.1303,18.2678]},"geometry":{"type":"Polygon","coordinates":[[[-77.9646,18.0506],[-77.98,18.0845],[-77.9879,18.0954],[-77.9964,18.101],[-78.0064,18.1059],[-78.0144,18.1079],[-78.0206,18.1131],[-78.0254,18.1252],[-78.0315,18.1489],[-78.0503,18.1851],[-78.0752,18.1984],[-78.1488,18.1967],[-78.1938,18.2039],[-78.2102,18.2041],[-78.2196,18.1959],[-78.2273,18.1918],[-78.234,18.1932],[-78.2587,18.2026],[-78.2611,18.2041],[-78.2751,18.2062],[-78.3059,18.2156],[-78.3231,18.2177],[-78.3407,18.2219],[-78.3577,18.2327],[-78.3703,18.2481],[-78.3747,18.2656],[-78.3691,18.2739],[-78.3543,18.2838],[-78.3473,18.2922],[-78.346,18.298],[-78.337,18.2973],[-78.283,18.2898],[-78.2776,18.2898],[-78.2725,18.2908],[-78.2675,18.2945],[-78.23,18.3366],[-78.2243,18.3381],[-78.1002,18.3386],[-78.0909,18.3374],[-78.0822,18.335],[-78.0271,18.3046],[-78.0052,18.3008],[-77.9214,18.2961],[-77.9105,18.2737],[-77.9047,18.2671],[-77.9022,18.2659],[-77.9002,18.2644],[-77.8984,18.2626],[-77.8969,18.2606],[-77.8939,18.2557],[-77.8859,18.2315],[-77.8864,18.222],[-77.8959,18.1956],[-77.911,18.1884],[-77.9144,18.1857],[-77.9189,18.1814],[-77.9299,18.1648],[-77.9362,18.1521],[-77.9379,18.1459],[-77.9382,18.1429],[-77.938,18.1401],[-77.9366,18.1348],[-77.9357,18.1324],[-77.938,18.1176],[-77.9576,18.0635],[-77.9646,18.0506]]]}}]}