{"type":"FeatureCollection","features":[{"type":"Feature","properties":{"id":"KWT-1665","name":"Al Ahmadi","nameBn":"আহমাদি প্রশাসনিক অঞ্চল","type":"Province","bounds":[47.4463,28.5335,48.4328,29.2662],"center":[47.9393,28.8653]},"geometry":{"type":"Polygon","coordinates":[[[47.6681,28.5335],[47.6598,28.56],[47.6411,28.5772],[47.6182,28.5915],[47.5968,28.6088],[47.5817,28.6315],[47.568,28.661],[47.5584,28.6915],[47.5546,28.7454],[47.5499,28.7706],[47.4945,28.904],[47.4463,28.9762],[47.4743,28.9911],[47.5231,29.021],[47.7468,29.049],[47.7699,29.0558],[47.7738,29.0691],[47.7841,29.2037],[47.8417,29.2662],[47.8613,29.2491],[47.8761,29.2275],[47.8772,29.185],[48.0346,29.2087],[48.0974,29.2125],[48.1061,29.2135],[48.1147,29.1933],[48.1284,29.1739],[48.1338,29.1536],[48.1585,29.0173],[48.176,28.9838],[48.2259,28.9183],[48.241,28.9057],[48.2795,28.8944],[48.2824,28.8794],[48.2782,28.8597],[48.2769,28.8396],[48.2852,28.8199],[48.3125,28.786],[48.3184,28.7738],[48.3288,28.76],[48.3523,28.7512],[48.3936,28.7434],[48.3838,28.728],[48.3796,28.7104],[48.3807,28.6921],[48.3867,28.6751],[48.3716,28.6844],[48.3662,28.6887],[48.365,28.6808],[48.366,28.6757],[48.3705,28.6719],[48.3799,28.6677],[48.3724,28.6592],[48.3677,28.6567],[48.3638,28.6581],[48.3595,28.6614],[48.3527,28.6614],[48.3518,28.6405],[48.361,28.6356],[48.3747,28.6417],[48.3867,28.654],[48.3895,28.6437],[48.3936,28.5956],[48.3971,28.5833],[48.4053,28.5699],[48.4209,28.5516],[48.4325,28.5407],[48.4328,28.5405],[48.2552,28.5389],[48.0774,28.5373],[47.8996,28.5356],[47.7218,28.534],[47.6681,28.5335]]]}},{"type":"Feature","properties":{"id":"KWT-1663","name":"Al Asimah","nameBn":"আল আসিমাহ","type":"Province","bounds":[47.8585,29.31,48.3995,29.4731],"center":[48.3318,29.4497]},"geometry":{"type":"MultiPolygon","coordinates":[[[[47.8585,29.3232],[47.877,29.3287],[47.8992,29.3352],[47.9054,29.3593],[47.9202,29.3649],[47.9393,29.3594],[47.9594,29.3724],[47.9699,29.3872],[47.9857,29.3938],[47.993,29.3879],[48.0084,29.3692],[47.9797,29.3513],[47.9918,29.3304],[47.9091,29.3208],[47.8649,29.31],[47.8595,29.3199],[47.8585,29.3232]]],[[[48.3382,29.4628],[48.3539,29.4574],[48.3617,29.4516],[48.3732,29.4431],[48.3811,29.434],[48.389,29.4249],[48.3995,29.3976],[48.3974,29.3875],[48.3825,29.3921],[48.373,29.3939],[48.3635,29.3994],[48.3359,29.4206],[48.3169,29.427],[48.2904,29.4306],[48.2692,29.4297],[48.27,29.4559],[48.27,29.456],[48.2811,29.4711],[48.2985,29.4731],[48.3382,29.4628]]]]}},{"type":"Feature","properties":{"id":"KWT-1664","name":"Al Farwaniyah","nameBn":"আল ফারবানিয়াহ গভর্নোরেট","type":"Province","bounds":[47.8417,29.185,48.0346,29.3304],"center":[47.9381,29.2592]},"geometry":{"type":"Polygon","coordinates":[[[47.8649,29.31],[47.9091,29.3208],[47.9918,29.3304],[48.0087,29.2954],[48.0238,29.2643],[48.0346,29.2087],[47.8772,29.185],[47.8761,29.2275],[47.8613,29.2491],[47.8417,29.2662],[47.8459,29.3075],[47.8649,29.31]]]}},{"type":"Feature","properties":{"id":"KWT-1667","name":"Al Jahrah","nameBn":"আল জাহরাহ","type":"Province","bounds":[46.5324,28.9762,48.3595,30.0982],"center":[48.2027,29.7843]},"geometry":{"type":"MultiPolygon","coordinates":[[[[47.6742,30.0982],[47.7314,30.0886],[47.948,29.994],[47.9551,29.9773],[47.9655,29.9621],[47.9753,29.9426],[47.9797,29.9215],[47.9795,29.8843],[47.9827,29.8607],[47.9956,29.8277],[48.0217,29.7797],[48.0524,29.743],[48.0789,29.744],[48.096,29.6992],[48.1192,29.6545],[48.1613,29.6016],[48.1809,29.5622],[48.1768,29.5419],[48.1545,29.5391],[48.1135,29.5546],[48.0925,29.5658],[48.0859,29.575],[48.0663,29.5776],[48.0419,29.5821],[48.0239,29.5848],[47.9655,29.5763],[47.936,29.554],[47.9106,29.5318],[47.8493,29.502],[47.807,29.4676],[47.785,29.437],[47.7639,29.4129],[47.7184,29.3942],[47.7142,29.3785],[47.7047,29.3636],[47.727,29.3619],[47.7641,29.3677],[47.7917,29.3725],[47.814,29.38],[47.8373,29.3875],[47.8512,29.3802],[47.8226,29.3634],[47.8227,29.3514],[47.8164,29.3376],[47.8409,29.3229],[47.8579,29.323],[47.8585,29.3232],[47.8595,29.3199],[47.8649,29.31],[47.8459,29.3075],[47.8417,29.2662],[47.7841,29.2037],[47.7738,29.0691],[47.7699,29.0558],[47.7468,29.049],[47.5231,29.021],[47.4743,28.9911],[47.4463,28.9762],[47.4341,28.9946],[47.434,28.9946],[47.4335,28.9947],[47.4334,28.9947],[47.3776,29.0012],[47.278,29.0127],[47.1784,29.0242],[47.0788,29.0357],[46.9792,29.0472],[46.8674,29.0594],[46.7558,29.0715],[46.6442,29.0836],[46.5324,29.0957],[46.5615,29.1242],[46.7119,29.2714],[46.7745,29.3635],[46.8386,29.425],[46.8535,29.4446],[46.8831,29.5125],[46.9578,29.6204],[46.9774,29.658],[46.9798,29.6681],[46.9837,29.6983],[46.9888,29.7127],[47.0254,29.7721],[47.1105,29.9609],[47.1447,30.0033],[47.1971,30.0342],[47.3582,30.0921],[47.4158,30.0982],[47.6742,30.0982]]],[[[48.3527,29.7098],[48.3338,29.6793],[48.3031,29.6452],[48.2663,29.616],[48.229,29.5999],[48.2223,29.6005],[48.1858,29.6039],[48.1616,29.6297],[48.1267,29.7023],[48.0851,29.7678],[48.0793,29.7739],[48.0737,29.7797],[48.0537,29.79],[48.0461,29.8004],[48.0652,29.8122],[48.0768,29.8176],[48.0985,29.8307],[48.1095,29.8333],[48.1133,29.8391],[48.1192,29.8736],[48.1033,29.8791],[48.0949,29.8803],[48.0853,29.8799],[48.0851,29.8799],[48.0951,29.8947],[48.1092,29.8936],[48.1336,29.8799],[48.1449,29.8783],[48.1587,29.8792],[48.1665,29.8859],[48.1608,29.9016],[48.1789,29.9085],[48.1937,29.9164],[48.1974,29.9254],[48.1814,29.9351],[48.1813,29.9351],[48.1699,29.9365],[48.1567,29.9311],[48.1472,29.9351],[48.1428,29.9417],[48.1404,29.9522],[48.1394,29.9628],[48.1404,29.9698],[48.1404,29.9699],[48.1227,29.9697],[48.1203,29.9714],[48.1167,29.9741],[48.1209,29.9814],[48.1336,29.9897],[48.148,29.9949],[48.1621,29.9957],[48.1758,29.9919],[48.1887,29.9835],[48.3445,29.7906],[48.3595,29.7545],[48.3527,29.7098]]],[[[48.0789,30.0041],[48.0724,29.9987],[48.0628,29.9875],[48.0584,29.9835],[48.0311,29.971],[48.0237,29.9699],[48.0163,29.9737],[48.0108,29.9805],[48.0093,29.9869],[48.0231,29.9952],[48.0436,30.019],[48.0547,30.0245],[48.0938,30.0293],[48.0938,30.0293],[48.1092,30.028],[48.1061,30.0176],[48.0789,30.0041]]]]}},{"type":"Feature","properties":{"id":"KWT-3506","name":"Hawalli","nameBn":"হাওয়াল্যি গভর্নোরেট","type":"Province","bounds":[47.9797,29.2954,48.1003,29.3692],"center":[48.0306,29.3243]},"geometry":{"type":"Polygon","coordinates":[[[48.0084,29.3692],[48.0105,29.3665],[48.0252,29.3549],[48.0354,29.3518],[48.0633,29.3434],[48.1003,29.35],[48.0938,29.3104],[48.05,29.2954],[48.0087,29.2954],[47.9918,29.3304],[47.9797,29.3513],[48.0084,29.3692]]]}},{"type":"Feature","properties":{"id":"KWT-1666","name":"Mubarak Al-Kabeer","nameBn":"মুবারক আল-কাবির গভর্নোরেট","type":"Province","bounds":[48.0087,29.2087,48.1061,29.3104],"center":[48.0548,29.2535]},"geometry":{"type":"Polygon","coordinates":[[[48.0938,29.3104],[48.0931,29.3057],[48.0921,29.2872],[48.0954,29.2577],[48.1061,29.2135],[48.0974,29.2125],[48.0346,29.2087],[48.0238,29.2643],[48.0087,29.2954],[48.05,29.2954],[48.0938,29.3104]]]}}]}