{"type":"FeatureCollection","features":[{"type":"Feature","properties":{"id":"LBY-2983","name":"Ajdabiya","nameBn":"আজডাবিয়া জেলা","type":"Municipality|Governarate","bounds":[18.4993,27.0076,24.9812,31.2628],"center":[21.74,29.0419]},"geometry":{"type":"Polygon","coordinates":[[[24.9812,28.0967],[24.9812,28.0185],[24.9812,27.6665],[24.9812,27.6278],[24.9812,27.4755],[24.9812,27.138],[24.9812,27.0492],[24.9807,27.0492],[24.6309,27.0413],[24.2618,27.0331],[23.6768,27.0239],[23.0919,27.0147],[22.5073,27.0112],[21.9228,27.0076],[21.323,27.0147],[20.7231,27.0218],[20.2861,27.0186],[19.8493,27.0154],[19.5095,27.0141],[19.1698,27.0129],[19.1722,28.3474],[19.0042,28.3582],[19.0045,28.3602],[18.7186,28.4366],[18.4993,28.5021],[18.4999,28.876],[18.5136,29.1647],[18.5799,29.3692],[18.6993,29.5174],[18.7332,29.666],[18.7137,29.8334],[18.7264,30.0006],[18.7611,30.1953],[18.7805,30.3759],[18.926,30.2934],[18.968,30.2777],[19.0568,30.2662],[19.146,30.2647],[19.2398,30.274],[19.2917,30.2871],[19.3386,30.2988],[19.419,30.3332],[19.5305,30.3968],[19.551,30.4049],[19.596,30.412],[19.6164,30.4214],[19.7489,30.5109],[19.9143,30.6829],[19.9582,30.7497],[19.9822,30.7786],[20.0187,30.8038],[20.0365,30.8191],[20.0999,30.935],[20.1467,31.0456],[20.1524,31.0882],[20.1467,31.2168],[20.1416,31.2239],[20.1534,31.2284],[20.1504,31.2372],[20.1476,31.2417],[20.1358,31.2517],[20.1329,31.2607],[20.1892,31.2628],[20.2991,31.2317],[20.3431,31.1749],[20.4175,31.0883],[20.5235,31.0254],[20.5937,31.007],[20.7381,31.0138],[20.9341,31.0461],[21.319,31.0351],[21.3975,31.0328],[21.6552,31.0431],[21.7172,31.0656],[21.7928,31.093],[21.9716,31.1074],[22.1125,31.1199],[22.2589,31.1452],[22.3359,31.0867],[22.4565,30.9928],[22.5118,30.8935],[22.6192,30.829],[22.6893,30.8169],[22.7899,30.7916],[22.8888,30.793],[22.9689,30.7994],[22.9701,30.7995],[22.9713,30.7996],[22.9726,30.7997],[22.9737,30.7998],[22.9946,30.7923],[23.0154,30.7849],[23.0362,30.7774],[23.057,30.77],[23.0584,30.1123],[23.0596,29.4546],[23.0608,28.797],[23.0621,28.1393],[23.5368,28.1296],[24.0115,28.1199],[24.4862,28.1102],[24.9609,28.1005],[24.9707,28.0986],[24.9804,28.0968],[24.9807,28.0968],[24.9812,28.0967]]]}},{"type":"Feature","properties":{"id":"LBY-2987","name":"Al Butnan","nameBn":"বুটনান জেলা","type":"Municipality|Governarate","bounds":[22.9556,28.0967,25.1563,32.2242],"center":[24.0559,30.069]},"geometry":{"type":"Polygon","coordinates":[[[25.1509,31.6565],[25.0884,31.6135],[25.0604,31.5794],[25.0237,31.4944],[24.8613,31.3804],[24.849,31.3486],[24.8486,31.312],[24.8586,31.2279],[24.8595,31.146],[24.8826,31.0391],[24.8896,31.0188],[24.9246,30.9568],[24.9376,30.9058],[24.9812,30.8254],[24.9949,30.7851],[24.9886,30.7506],[24.9736,30.7163],[24.9612,30.6763],[24.9507,30.6212],[24.9204,30.5523],[24.9171,30.5325],[24.9077,30.4987],[24.8881,30.4643],[24.8297,30.3876],[24.7994,30.3608],[24.7724,30.331],[24.7629,30.3171],[24.7461,30.2828],[24.7047,30.2179],[24.6887,30.1828],[24.6883,30.1442],[24.6973,30.1226],[24.7255,30.0784],[24.8116,29.8909],[24.8162,29.8684],[24.8149,29.8486],[24.7982,29.7964],[24.8049,29.7548],[24.8562,29.6795],[24.8707,29.6383],[24.8706,29.614],[24.8616,29.5416],[24.8638,29.5029],[24.8738,29.4683],[24.9566,29.2927],[24.9743,29.2389],[24.9812,29.1814],[24.9812,29.0579],[24.9812,28.8902],[24.9812,28.4915],[24.9812,28.0967],[24.9807,28.0968],[24.9804,28.0968],[24.9707,28.0986],[24.9609,28.1005],[24.4862,28.1102],[24.0115,28.1199],[23.5368,28.1296],[23.0621,28.1393],[23.0608,28.797],[23.0596,29.4546],[23.0584,30.1123],[23.057,30.77],[23.0362,30.7774],[23.0154,30.7849],[22.9946,30.7923],[22.9737,30.7998],[22.9726,30.7997],[22.9713,30.7996],[22.9701,30.7995],[22.9689,30.7994],[22.9688,31.0062],[22.9556,31.0807],[22.9566,31.2333],[22.9854,31.4036],[23.0714,31.5122],[23.1053,31.6683],[23.1184,31.848],[23.1687,32.0035],[23.2176,32.122],[23.2499,32.2101],[23.2514,32.2167],[23.2573,32.2138],[23.2732,32.2097],[23.2854,32.2038],[23.2932,32.1923],[23.3025,32.1707],[23.3122,32.1627],[23.3104,32.1793],[23.2991,32.2242],[23.3184,32.2178],[23.362,32.2171],[23.3709,32.214],[23.3989,32.194],[23.4053,32.1907],[23.5311,32.1814],[23.6697,32.1833],[23.8403,32.1491],[23.9987,32.0939],[23.9753,32.0742],[23.9707,32.0666],[23.9788,32.0622],[24.0049,32.0529],[24.0679,32.0112],[24.0907,32.0058],[24.2809,32.0076],[24.5461,31.9914],[24.6362,32.0149],[24.6585,32.0286],[24.6703,32.0324],[24.7106,32.0256],[24.7186,32.0275],[24.7263,32.0313],[24.7337,32.0331],[24.7419,32.029],[24.7459,32.0262],[24.7581,32.02],[24.772,32.0168],[24.7918,32.0078],[24.8244,32.003],[24.8654,31.9893],[24.9817,31.9679],[25.0179,31.949],[25.0334,31.9163],[25.0244,31.8766],[25.0222,31.8547],[25.0296,31.8369],[25.0637,31.8041],[25.1169,31.738],[25.1221,31.7209],[25.1367,31.6926],[25.1563,31.6631],[25.1525,31.6598],[25.1509,31.6565]]]}},{"type":"Feature","properties":{"id":"LBY-2982","name":"Al Jabal al Akhdar","nameBn":"জাবাল আল আকদার","type":"Municipality|Governarate","bounds":[21.3319,31.0656,22.1125,32.9504],"center":[21.7222,32.0068]},"geometry":{"type":"Polygon","coordinates":[[[21.357,32.7803],[21.4148,32.7934],[21.4546,32.8126],[21.6087,32.9307],[21.6232,32.9368],[21.6717,32.9399],[21.7163,32.9504],[21.7437,32.9309],[21.7874,32.916],[21.8361,32.9066],[21.8775,32.9032],[21.9862,32.9131],[21.9809,32.9012],[21.98,32.9011],[21.9777,32.8389],[21.9693,32.7564],[21.994,32.6823],[22.0249,32.6264],[22.0332,32.5526],[22.0203,32.4977],[21.9904,32.4247],[21.9769,32.3513],[21.9593,32.3195],[21.9781,32.2315],[21.9804,32.1439],[22.0044,32.0512],[21.9987,31.8899],[22.0005,31.7883],[21.9912,31.6778],[21.9676,31.6229],[21.9674,31.4612],[21.9485,31.3877],[21.9178,31.282],[22.1125,31.1199],[21.9716,31.1074],[21.7928,31.093],[21.7172,31.0656],[21.7118,31.2818],[21.6801,31.3056],[21.6544,31.3523],[21.6149,31.4733],[21.6188,31.5887],[21.6596,31.6756],[21.6683,31.7724],[21.6618,31.9063],[21.6321,31.9992],[21.5254,32.0704],[21.462,32.1316],[21.4268,32.229],[21.3644,32.327],[21.3349,32.4288],[21.3319,32.5117],[21.3884,32.5705],[21.4616,32.6335],[21.4581,32.6979],[21.3946,32.7681],[21.3874,32.7806],[21.3857,32.7798],[21.3762,32.7791],[21.3677,32.7751],[21.3592,32.7758],[21.3571,32.7803],[21.357,32.7803]]]}},{"type":"Feature","properties":{"id":"LBY-2973","name":"Al Jifarah","nameBn":"জাফারা পৌরসভা","type":"Municipality|Governarate","bounds":[12.8196,32.2602,13.2508,32.7212],"center":[13.0352,32.4889]},"geometry":{"type":"Polygon","coordinates":[[[13.2508,32.3174],[13.1896,32.3123],[13.1551,32.293],[13.0504,32.2795],[12.9629,32.2774],[12.8196,32.2602],[12.8297,32.3369],[12.8233,32.407],[12.8977,32.5602],[12.9255,32.6025],[12.9693,32.669],[13.0732,32.7157],[13.0763,32.7212],[13.1632,32.6492],[13.1739,32.5667],[13.19,32.46],[13.1875,32.3898],[13.2364,32.3337],[13.2508,32.3174]]]}},{"type":"Feature","properties":{"id":"LBY-2964","name":"Al Jufrah","nameBn":"জুফ্রা","type":"Municipality|Governarate","bounds":[14.4081,26.0038,19.1722,29.862],"center":[17.299,27.9396]},"geometry":{"type":"Polygon","coordinates":[[[14.4198,29.2091],[14.5066,29.232],[14.6324,29.3127],[14.712,29.3557],[14.7524,29.4053],[14.7594,29.4567],[14.7573,29.5372],[14.7386,29.6077],[14.7366,29.6833],[14.7631,29.7375],[14.8227,29.8094],[14.8542,29.862],[14.8999,29.8392],[14.9759,29.7753],[15.0519,29.702],[15.2025,29.6575],[15.2991,29.6401],[15.3851,29.6133],[15.503,29.6147],[15.5675,29.5875],[15.5999,29.56],[15.665,29.4676],[15.7406,29.394],[15.8797,29.3768],[15.9436,29.4239],[16.0395,29.4712],[16.1356,29.5],[16.275,29.4638],[16.3713,29.4366],[16.4186,29.4088],[16.4356,29.4184],[16.5533,29.3912],[16.7459,29.4016],[16.8529,29.4393],[16.9812,29.4305],[17.0881,29.3471],[17.2377,29.3103],[17.3339,29.2826],[17.4303,29.3572],[17.5052,29.3945],[17.5801,29.3946],[17.6654,29.3294],[17.6864,29.255],[17.7287,29.1619],[17.8136,29.078],[17.8985,28.9848],[17.9403,28.8729],[17.9821,28.7331],[18.0878,28.6396],[18.2255,28.5553],[18.3846,28.5175],[18.4993,28.4846],[18.4993,28.5021],[18.7186,28.4366],[19.0045,28.3602],[19.0042,28.3582],[19.1722,28.3474],[19.1698,27.0129],[19.169,26.5083],[19.1681,26.0038],[19.126,26.0223],[19.0208,26.0552],[18.8856,26.0858],[18.7288,26.114],[18.6151,26.1393],[18.515,26.1498],[18.4124,26.2335],[18.3206,26.3294],[18.2041,26.3765],[18.0628,26.3452],[17.9542,26.2941],[17.9081,26.2428],[17.778,26.1575],[17.6966,26.1355],[17.5666,26.1258],[17.4936,26.0842],[17.4098,26.0523],[17.2634,26.1009],[17.0925,26.1347],[16.9405,26.1634],[16.883,26.2341],[16.804,26.285],[16.7276,26.3262],[16.6207,26.4258],[16.568,26.5281],[16.5751,26.6309],[16.52,26.7015],[16.4596,26.7328],[16.372,26.7737],[16.3227,26.7928],[16.2784,26.8462],[16.2691,26.9293],[16.2709,27.0027],[16.2797,27.0752],[16.2807,27.0835],[16.258,27.1517],[16.1919,27.1853],[16.1282,27.2385],[16.0621,27.2721],[16.0232,27.3059],[15.9919,27.3838],[15.9632,27.4666],[15.8678,27.5951],[15.7948,27.692],[15.7959,27.7212],[15.7966,27.7433],[15.831,27.8195],[15.8707,27.9154],[15.894,27.9963],[15.8789,28.0792],[15.7921,28.1564],[15.7201,28.175],[15.5897,28.2148],[15.5069,28.2186],[15.3803,28.207],[15.2493,28.1414],[15.1227,28.1295],[15.0176,28.1448],[14.9938,28.2177],[14.9919,28.2959],[14.9587,28.4077],[14.8397,28.5204],[14.6599,28.622],[14.5864,28.6743],[14.527,28.7195],[14.4692,28.7989],[14.4225,28.8785],[14.4081,28.9881],[14.4156,29.1104],[14.4198,29.2091]]]}},{"type":"Feature","properties":{"id":"LBY-2965","name":"Al Kufrah","nameBn":"কুফ্রা জেলা","type":"Municipality|Governarate","bounds":[19.1681,19.4961,24.9812,27.0492],"center":[22.0744,23.7231]},"geometry":{"type":"Polygon","coordinates":[[[23.9813,19.4961],[23.8578,19.5572],[23.7343,19.6181],[23.6108,19.6791],[23.4873,19.7402],[23.3638,19.8012],[23.2402,19.8621],[23.1168,19.9232],[22.9931,19.9841],[22.8696,20.0451],[22.7461,20.1061],[22.6226,20.1671],[22.4991,20.2281],[22.3756,20.2891],[22.2521,20.3501],[22.1286,20.4111],[22.0051,20.472],[21.8815,20.5331],[21.7581,20.594],[21.6345,20.655],[21.511,20.716],[21.3875,20.777],[21.264,20.838],[21.1403,20.899],[21.0169,20.96],[20.8933,21.0209],[20.7699,21.082],[20.6464,21.1429],[20.5228,21.2039],[20.3994,21.265],[20.2758,21.3259],[20.1523,21.3869],[20.0288,21.4479],[19.9053,21.5089],[19.7817,21.5699],[19.6583,21.6309],[19.5347,21.6919],[19.4111,21.7529],[19.2876,21.8139],[19.1858,21.8642],[19.1858,21.9425],[19.1858,21.953],[19.1858,21.9635],[19.1857,21.9741],[19.1857,21.9846],[19.1857,21.9951],[19.1856,22.0056],[19.1856,22.0162],[19.1856,22.0267],[19.1835,22.5238],[19.1812,23.021],[19.179,23.5181],[19.1768,24.0152],[19.1747,24.5124],[19.1725,25.0095],[19.1703,25.5066],[19.1681,26.0038],[19.169,26.5083],[19.1698,27.0129],[19.5095,27.0141],[19.8493,27.0154],[20.2861,27.0186],[20.7231,27.0218],[21.323,27.0147],[21.9228,27.0076],[22.5073,27.0112],[23.0919,27.0147],[23.6768,27.0239],[24.2618,27.0331],[24.6309,27.0413],[24.9807,27.0492],[24.9812,27.0492],[24.9812,26.86],[24.9812,26.6645],[24.9812,26.3727],[24.9812,26.0808],[24.9812,25.789],[24.9812,25.4973],[24.9812,25.2054],[24.9812,24.9136],[24.9812,24.6217],[24.9812,24.33],[24.9812,24.0381],[24.9812,23.7463],[24.9812,23.4544],[24.9812,23.1627],[24.9812,22.8708],[24.9812,22.579],[24.9812,22.2872],[24.9812,21.9954],[24.9812,21.8708],[24.9811,21.7462],[24.9811,21.6216],[24.9811,21.497],[24.9811,21.3724],[24.981,21.2479],[24.9809,21.1233],[24.9809,20.9987],[24.9809,20.8741],[24.9808,20.7495],[24.9808,20.6249],[24.9808,20.5004],[24.9807,20.4053],[24.9806,20.3102],[24.9806,20.2151],[24.9805,20.12],[24.9805,20.0084],[24.9805,20.0021],[24.9796,20.0005],[24.9787,19.999],[24.9777,19.9975],[24.9768,19.996],[24.9745,19.9957],[24.9724,19.9954],[24.9702,19.9952],[24.968,19.995],[24.8672,19.995],[24.7213,19.995],[24.5991,19.9951],[24.4746,19.9952],[24.3409,19.9953],[24.2279,19.9953],[24.1424,19.9954],[23.9813,19.9954],[23.9813,19.8706],[23.9813,19.7458],[23.9813,19.621],[23.9813,19.4961]]]}},{"type":"Feature","properties":{"id":"LBY-2981","name":"Al Marj","nameBn":"মার্জ জেলা","type":"Municipality|Governarate","bounds":[20.3093,31.0328,21.7172,32.7811],"center":[21.0132,32.1682]},"geometry":{"type":"Polygon","coordinates":[[[20.576,32.5627],[20.7966,32.643],[20.9341,32.7226],[21.051,32.7723],[21.0967,32.7811],[21.2868,32.7711],[21.3319,32.7746],[21.357,32.7803],[21.3571,32.7803],[21.3592,32.7758],[21.3677,32.7751],[21.3762,32.7791],[21.3857,32.7798],[21.3874,32.7806],[21.3946,32.7681],[21.4581,32.6979],[21.4616,32.6335],[21.3884,32.5705],[21.3319,32.5117],[21.3349,32.4288],[21.3644,32.327],[21.4268,32.229],[21.462,32.1316],[21.5254,32.0704],[21.6321,31.9992],[21.6618,31.9063],[21.6683,31.7724],[21.6596,31.6756],[21.6188,31.5887],[21.6149,31.4733],[21.6544,31.3523],[21.6801,31.3056],[21.7118,31.2818],[21.7172,31.0656],[21.6552,31.0431],[21.3975,31.0328],[21.319,31.0351],[21.2889,31.2763],[21.2424,31.3557],[21.2237,31.4577],[21.2154,31.541],[21.1464,31.5977],[21.0918,31.5848],[20.9721,31.5777],[20.8422,31.5937],[20.766,31.5903],[20.6837,31.5592],[20.5485,31.5797],[20.5063,31.6312],[20.4654,31.7379],[20.413,31.8171],[20.3504,31.9287],[20.3093,32.0353],[20.311,32.109],[20.3572,32.219],[20.4303,32.3055],[20.5193,32.3733],[20.5647,32.4371],[20.5784,32.5473],[20.5784,32.5479],[20.576,32.5627]]]}},{"type":"Feature","properties":{"id":"LBY-2966","name":"Al Marqab","nameBn":"মুরকাব পৌরসভা","type":"Municipality|Governarate","bounds":[13.2364,31.9456,14.7584,32.7582],"center":[14.1357,32.5351]},"geometry":{"type":"Polygon","coordinates":[[[13.9544,32.7582],[13.9912,32.7446],[14.1755,32.7177],[14.1853,32.7145],[14.2034,32.7003],[14.2093,32.6972],[14.2263,32.6909],[14.2625,32.6603],[14.3171,32.6304],[14.4041,32.5668],[14.4494,32.5254],[14.4695,32.519],[14.6316,32.4957],[14.6476,32.4883],[14.6629,32.4768],[14.7067,32.4563],[14.7268,32.4508],[14.7558,32.4497],[14.7552,32.439],[14.7425,32.4156],[14.7217,32.3451],[14.7313,32.2935],[14.7584,32.2385],[14.755,32.1794],[14.7162,32.1381],[14.6826,32.0562],[14.6667,31.9678],[14.6012,31.9588],[14.4705,31.9456],[14.365,31.9771],[14.2851,32.0461],[14.1221,32.1426],[14.0657,32.0865],[13.9916,32.074],[13.961,32.0771],[13.8992,32.1018],[13.8337,32.1005],[13.7773,32.0809],[13.6773,32.0567],[13.6164,32.0481],[13.4588,32.0521],[13.3977,32.0508],[13.3918,32.1098],[13.3632,32.2016],[13.3002,32.2704],[13.2508,32.3174],[13.2364,32.3337],[13.3503,32.3639],[13.3848,32.3832],[13.4011,32.4352],[13.4513,32.5286],[13.5257,32.5482],[13.5734,32.5608],[13.7038,32.6114],[13.7193,32.6128],[13.8089,32.6209],[13.8128,32.6394],[13.8902,32.711],[13.9544,32.7582]]]}},{"type":"Feature","properties":{"id":"LBY-2986","name":"Al Qubbah","nameBn":"আল কুব্বাহ","type":"Municipality|Governarate","bounds":[21.9178,30.7916,23.2514,32.9479],"center":[22.5845,31.8165]},"geometry":{"type":"Polygon","coordinates":[[[21.9862,32.9131],[22.0962,32.9231],[22.1013,32.9264],[22.1118,32.9409],[22.1167,32.9442],[22.1388,32.9476],[22.1496,32.9479],[22.1614,32.9442],[22.1694,32.9382],[22.1711,32.9329],[22.1711,32.9263],[22.1751,32.9162],[22.2068,32.8881],[22.2473,32.8808],[22.3396,32.8821],[22.3792,32.8703],[22.4773,32.8071],[22.4968,32.7973],[22.5138,32.791],[22.5322,32.7875],[22.5789,32.7846],[22.8125,32.7245],[22.8667,32.6942],[22.8845,32.6898],[22.8958,32.6882],[22.9292,32.6767],[22.9426,32.675],[22.9769,32.6767],[22.9997,32.6706],[23.0414,32.6525],[23.0864,32.6465],[23.1061,32.6398],[23.1187,32.6293],[23.1209,32.6152],[23.1152,32.6049],[23.0979,32.5867],[23.0944,32.5774],[23.1039,32.5163],[23.1133,32.5008],[23.1287,32.4885],[23.1489,32.4781],[23.141,32.4586],[23.1284,32.3955],[23.1087,32.4023],[23.1122,32.4119],[23.1099,32.4203],[23.1034,32.4282],[23.0944,32.4365],[23.0791,32.3544],[23.0806,32.3341],[23.0956,32.3236],[23.1565,32.3035],[23.179,32.3],[23.1951,32.2917],[23.2145,32.2724],[23.2308,32.2506],[23.2435,32.2206],[23.2514,32.2167],[23.2499,32.2101],[23.2176,32.122],[23.1687,32.0035],[23.1184,31.848],[23.1053,31.6683],[23.0714,31.5122],[22.9854,31.4036],[22.9566,31.2333],[22.9556,31.0807],[22.9688,31.0062],[22.9689,30.7994],[22.8888,30.793],[22.7899,30.7916],[22.6893,30.8169],[22.6192,30.829],[22.5118,30.8935],[22.4565,30.9928],[22.3359,31.0867],[22.2589,31.1452],[22.1125,31.1199],[21.9178,31.282],[21.9485,31.3877],[21.9674,31.4612],[21.9676,31.6229],[21.9912,31.6778],[22.0005,31.7883],[21.9987,31.8899],[22.0044,32.0512],[21.9804,32.1439],[21.9781,32.2315],[21.9593,32.3195],[21.9769,32.3513],[21.9904,32.4247],[22.0203,32.4977],[22.0332,32.5526],[22.0249,32.6264],[21.994,32.6823],[21.9693,32.7564],[21.9777,32.8389],[21.98,32.9011],[21.9809,32.9012],[21.9862,32.9131]]]}},{"type":"Feature","properties":{"id":"LBY-2974","name":"An Nuqat al Khams","nameBn":"নোকাত আল খামস","type":"Municipality|Governarate","bounds":[11.4492,32.3057,12.5732,33.1812],"center":[12.0109,32.6661]},"geometry":{"type":"Polygon","coordinates":[[[11.5261,32.4179],[11.5464,32.4343],[11.5641,32.4655],[11.5606,32.5076],[11.5374,32.5435],[11.4704,32.5993],[11.4499,32.638],[11.4492,32.693],[11.4638,32.7985],[11.4565,32.9021],[11.4744,32.9699],[11.4749,33.0258],[11.4774,33.0412],[11.506,33.1364],[11.5051,33.1812],[11.5259,33.1769],[11.5602,33.1659],[11.575,33.1579],[11.5877,33.1323],[11.603,33.1215],[11.6358,33.1087],[11.7566,33.0925],[11.7935,33.0808],[11.773,33.0994],[11.7078,33.1172],[11.6911,33.136],[11.7393,33.113],[11.847,33.0828],[12.0807,32.9578],[12.1224,32.9213],[12.1607,32.9117],[12.2249,32.8759],[12.3039,32.8431],[12.3483,32.8327],[12.5732,32.8126],[12.5731,32.8125],[12.5549,32.7993],[12.5014,32.6571],[12.4621,32.6008],[12.3372,32.531],[12.2864,32.4742],[12.2085,32.4425],[12.1221,32.4068],[12.0976,32.3544],[11.8627,32.3076],[11.7007,32.3057],[11.6431,32.3224],[11.5931,32.3689],[11.5338,32.4138],[11.5261,32.4179]]]}},{"type":"Feature","properties":{"id":"LBY-2967","name":"Ash Shati'","nameBn":"আশ শাটি","type":"Municipality|Governarate","bounds":[9.777,26.2175,15.894,29.5676],"center":[12.8352,27.8732]},"geometry":{"type":"Polygon","coordinates":[[[9.9313,27.8186],[9.9343,27.8274],[9.9359,27.8667],[9.7899,28.2094],[9.777,28.2676],[9.8273,28.6186],[9.8701,28.633],[9.9228,28.6573],[10.0016,28.6809],[10.0915,28.7051],[10.1379,28.7173],[10.2316,28.6853],[10.3749,28.614],[10.4407,28.6246],[10.5271,28.6606],[10.6165,28.6942],[10.7058,28.7301],[10.7615,28.7718],[10.7803,28.7849],[10.8526,28.8274],[10.9099,28.8446],[10.9383,28.7872],[10.9538,28.7146],[11.0163,28.6416],[11.1449,28.6228],[11.191,28.593],[11.3239,28.5449],[11.3876,28.5451],[11.4546,28.5846],[11.4924,28.6033],[11.5873,28.5901],[11.6233,28.5915],[11.7248,28.6103],[11.7888,28.5517],[11.8979,28.529],[11.9318,28.5695],[11.9501,28.5922],[11.9519,28.5951],[11.9833,28.6472],[12.1096,28.6153],[12.1569,28.6097],[12.2782,28.5652],[12.3506,28.5581],[12.431,28.5536],[12.4924,28.5435],[12.5016,28.4656],[12.589,28.427],[12.6885,28.4303],[12.7576,28.4937],[12.7905,28.5632],[12.8495,28.6092],[12.9062,28.6403],[12.9929,28.687],[13.1045,28.7393],[13.2084,28.8426],[13.301,28.9553],[13.359,29.0351],[13.4202,29.1077],[13.4702,29.18],[13.517,29.2667],[13.5972,29.3568],[13.659,29.422],[13.7132,29.4649],[13.8247,29.5459],[13.9105,29.5676],[13.992,29.5525],[14.0517,29.5221],[14.1818,29.4666],[14.287,29.4006],[14.3703,29.3219],[14.4222,29.2644],[14.4198,29.2091],[14.4156,29.1104],[14.4081,28.9881],[14.4225,28.8785],[14.4692,28.7989],[14.527,28.7195],[14.5864,28.6743],[14.6599,28.622],[14.8397,28.5204],[14.9587,28.4077],[14.9919,28.2959],[14.9938,28.2177],[15.0176,28.1448],[15.1227,28.1295],[15.2493,28.1414],[15.3803,28.207],[15.5069,28.2186],[15.5897,28.2148],[15.7201,28.175],[15.7921,28.1564],[15.8789,28.0792],[15.894,27.9963],[15.8707,27.9154],[15.831,27.8195],[15.7966,27.7433],[15.7959,27.7212],[15.5641,27.7411],[15.4166,27.6927],[15.3535,27.6638],[15.174,27.6428],[15.0685,27.632],[14.9213,27.5738],[14.849,27.4605],[14.7234,27.393],[14.6188,27.3352],[14.5248,27.2775],[14.4836,27.2206],[14.4212,27.1727],[14.3161,27.1615],[13.9832,27.1289],[13.6252,27.1898],[13.3494,27.2678],[13.1905,27.2922],[13.0124,27.2504],[12.7737,27.1131],[12.5777,26.9767],[12.3099,26.7911],[12.0112,26.604],[11.7441,26.4362],[11.508,26.2971],[11.3747,26.2175],[11.3589,26.3577],[11.3226,26.4878],[11.2601,26.7483],[11.2207,26.9531],[11.1942,27.0928],[11.164,27.3259],[11.1068,27.4362],[11.0202,27.4893],[10.8918,27.5315],[10.6576,27.5696],[10.4652,27.6184],[10.2726,27.667],[10.0786,27.7435],[9.935,27.8172],[9.9313,27.8186]]]}},{"type":"Feature","properties":{"id":"LBY-2975","name":"Az Zawiyah","nameBn":"যাইয়া জেলা","type":"Municipality|Governarate","bounds":[11.8627,32.2326,13.111,32.8774],"center":[12.4868,32.4551]},"geometry":{"type":"Polygon","coordinates":[[[12.5732,32.8126],[12.7298,32.7986],[12.8244,32.8043],[13.0745,32.8664],[13.1032,32.8774],[13.1032,32.8773],[13.1038,32.8707],[13.1043,32.8639],[13.111,32.783],[13.0763,32.7212],[13.0732,32.7157],[12.9693,32.669],[12.9255,32.6025],[12.8977,32.5602],[12.8233,32.407],[12.8297,32.3369],[12.8196,32.2602],[12.736,32.2501],[12.6885,32.2403],[12.649,32.2326],[12.5739,32.2528],[12.4901,32.2728],[12.4015,32.3037],[12.2923,32.297],[12.1433,32.3003],[11.8627,32.3076],[12.0976,32.3544],[12.1221,32.4068],[12.2085,32.4425],[12.2864,32.4742],[12.3372,32.531],[12.4621,32.6008],[12.5014,32.6571],[12.5549,32.7993],[12.5731,32.8125],[12.5732,32.8126]]]}},{"type":"Feature","properties":{"id":"LBY-2984","name":"Benghazi","nameBn":"বেনগাজি","type":"Municipality|Governarate","bounds":[19.9172,31.007,21.319,32.5627],"center":[20.6182,31.2887]},"geometry":{"type":"Polygon","coordinates":[[[20.1416,31.2239],[20.1281,31.243],[20.1033,31.3087],[20.0822,31.3366],[20.0383,31.3759],[20.0222,31.3968],[19.9548,31.5595],[19.9489,31.601],[19.948,31.6451],[19.9443,31.6614],[19.9269,31.6992],[19.9207,31.7177],[19.9172,31.7592],[19.9197,31.8047],[19.9343,31.8884],[19.948,31.926],[19.9458,31.936],[19.9417,31.9469],[19.9401,31.9578],[19.9446,31.9675],[19.9572,31.9827],[20.048,32.1461],[20.0715,32.1764],[20.2617,32.3395],[20.2772,32.3608],[20.3255,32.4098],[20.3457,32.4199],[20.3855,32.4346],[20.4033,32.4473],[20.4168,32.4595],[20.5627,32.5578],[20.576,32.5627],[20.5784,32.5479],[20.5784,32.5473],[20.5647,32.4371],[20.5193,32.3733],[20.4303,32.3055],[20.3572,32.219],[20.311,32.109],[20.3093,32.0353],[20.3504,31.9287],[20.413,31.8171],[20.4654,31.7379],[20.5063,31.6312],[20.5485,31.5797],[20.6837,31.5592],[20.766,31.5903],[20.8422,31.5937],[20.9721,31.5777],[21.0918,31.5848],[21.1464,31.5977],[21.2154,31.541],[21.2237,31.4577],[21.2424,31.3557],[21.2889,31.2763],[21.319,31.0351],[20.9341,31.0461],[20.7381,31.0138],[20.5937,31.007],[20.5235,31.0254],[20.4175,31.0883],[20.3431,31.1749],[20.2991,31.2317],[20.1892,31.2628],[20.1329,31.2607],[20.1358,31.2517],[20.1476,31.2417],[20.1504,31.2372],[20.1534,31.2284],[20.1416,31.2239]]]}},{"type":"Feature","properties":{"id":"LBY-2882","name":"Ghadamis","nameBn":"ঘাদামিস","type":"Municipality|Governarate","bounds":[9.2865,28.529,11.963,32.4179],"center":[10.6245,30.3343]},"geometry":{"type":"Polygon","coordinates":[[[10.6836,31.957],[10.7031,31.9622],[10.7366,31.9854],[10.7729,32.0045],[10.8056,32.0324],[10.8459,32.1118],[10.8732,32.1367],[11.1823,32.2622],[11.444,32.3685],[11.5139,32.408],[11.5261,32.4179],[11.5338,32.4138],[11.5931,32.3689],[11.6431,32.3224],[11.7007,32.3057],[11.8627,32.3076],[11.8627,32.1886],[11.84,32.0881],[11.8228,31.9618],[11.8397,31.8549],[11.8555,31.7813],[11.8373,31.6808],[11.8329,31.5621],[11.8452,31.4623],[11.8367,31.3359],[11.853,31.2474],[11.895,31.167],[11.9457,31.0868],[11.963,31.0809],[11.8673,30.931],[11.733,30.7602],[11.6508,30.6463],[11.5986,30.5983],[11.5899,30.5424],[11.6163,30.4133],[11.6121,30.2369],[11.6197,30.0327],[11.6494,29.8106],[11.6901,29.5793],[11.7299,29.3665],[11.7293,29.087],[11.8083,28.9683],[11.8974,28.8592],[11.9216,28.776],[11.9519,28.5951],[11.9501,28.5922],[11.9318,28.5695],[11.8979,28.529],[11.7888,28.5517],[11.7248,28.6103],[11.6233,28.5915],[11.5873,28.5901],[11.4924,28.6033],[11.4546,28.5846],[11.3876,28.5451],[11.3239,28.5449],[11.191,28.593],[11.1449,28.6228],[11.0163,28.6416],[10.9538,28.7146],[10.9383,28.7872],[10.9099,28.8446],[10.8526,28.8274],[10.7803,28.7849],[10.7615,28.7718],[10.7058,28.7301],[10.6165,28.6942],[10.5271,28.6606],[10.4407,28.6246],[10.3749,28.614],[10.2316,28.6853],[10.1379,28.7173],[10.0915,28.7051],[10.0016,28.6809],[9.9228,28.6573],[9.8701,28.633],[9.8273,28.6186],[9.8513,28.786],[9.8483,28.9757],[9.8261,29.1285],[9.7469,29.3684],[9.6677,29.6083],[9.5497,29.8023],[9.4217,29.9687],[9.3695,30.0228],[9.31,30.0844],[9.2865,30.1171],[9.5197,30.2289],[9.7435,30.3313],[9.7729,30.3381],[9.8458,30.3423],[9.8713,30.3552],[9.9956,30.4945],[10.1012,30.6417],[10.1922,30.7313],[10.2539,30.8418],[10.2697,30.8821],[10.2702,30.9156],[10.245,30.9857],[10.2406,31.0212],[10.2462,31.0596],[10.2448,31.0782],[10.2132,31.1354],[10.1827,31.2408],[10.1081,31.4118],[10.1062,31.4292],[10.1169,31.4944],[10.1326,31.5176],[10.1965,31.5786],[10.264,31.6805],[10.3154,31.7158],[10.4278,31.7146],[10.4825,31.7331],[10.4989,31.7443],[10.5135,31.757],[10.5255,31.7721],[10.5424,31.8066],[10.5846,31.8403],[10.5976,31.8735],[10.6059,31.9536],[10.6285,31.9741],[10.6473,31.972],[10.6653,31.9632],[10.6836,31.957]]]}},{"type":"Feature","properties":{"id":"LBY-2968","name":"Ghat","nameBn":"ঘাট জেলা","type":"Municipality|Governarate","bounds":[9.3778,24.3263,11.481,27.8186],"center":[10.4298,25.9201]},"geometry":{"type":"Polygon","coordinates":[[[10.4105,24.4733],[10.3918,24.48],[10.2603,24.5766],[10.2422,24.5951],[10.2297,24.6299],[10.2122,24.7229],[10.1934,24.7499],[10.0445,24.8296],[10.032,24.8563],[10.03,24.9951],[10.0255,25.1364],[10.0214,25.268],[10.0079,25.3314],[9.9695,25.3954],[9.8167,25.5885],[9.694,25.7435],[9.5413,25.9364],[9.4012,26.1134],[9.3778,26.1689],[9.4025,26.2162],[9.4165,26.2323],[9.4348,26.272],[9.4689,26.301],[9.4776,26.3156],[9.4814,26.3326],[9.4826,26.3526],[9.8358,26.5042],[9.8546,26.5244],[9.8963,26.6528],[9.8941,26.674],[9.8826,26.7018],[9.8855,26.7366],[9.9106,26.8431],[9.9067,26.8575],[9.8908,26.8696],[9.8461,26.892],[9.8351,26.901],[9.8255,26.9206],[9.8061,27.0251],[9.7213,27.2919],[9.7219,27.3085],[9.7265,27.3247],[9.7431,27.3641],[9.7563,27.423],[9.7705,27.4442],[9.8136,27.4865],[9.8216,27.5057],[9.8117,27.5265],[9.7971,27.5489],[9.7939,27.5697],[9.8185,27.5857],[9.8466,27.5993],[9.8634,27.6192],[9.9313,27.8186],[9.935,27.8172],[10.0786,27.7435],[10.2726,27.667],[10.4652,27.6184],[10.6576,27.5696],[10.8918,27.5315],[11.0202,27.4893],[11.1068,27.4362],[11.164,27.3259],[11.1942,27.0928],[11.2207,26.9531],[11.2601,26.7483],[11.3226,26.4878],[11.3589,26.3577],[11.3747,26.2175],[11.3532,26.09],[11.3161,25.9413],[11.3037,25.7492],[11.3346,25.6377],[11.3995,25.5514],[11.3326,25.3893],[11.34,25.1921],[11.3373,24.9851],[11.334,24.7968],[11.4555,24.5939],[11.481,24.463],[11.4672,24.3263],[11.15,24.4223],[10.9114,24.4945],[10.7207,24.5523],[10.6991,24.5561],[10.6774,24.5539],[10.5668,24.5165],[10.4502,24.4769],[10.4105,24.4733]]]}},{"type":"Feature","properties":{"id":"LBY-2970","name":"Misratah","nameBn":"মেসারাতা জেলা","type":"Municipality|Governarate","bounds":[13.3977,29.3768,16.5312,32.4497],"center":[15.0186,32.2151]},"geometry":{"type":"Polygon","coordinates":[[[14.7558,32.4497],[14.9111,32.4439],[15.1148,32.4128],[15.16,32.3987],[15.182,32.3955],[15.196,32.3898],[15.2332,32.3471],[15.2697,32.3288],[15.2831,32.3173],[15.2922,32.2809],[15.3008,32.2608],[15.3226,32.2242],[15.3645,32.1747],[15.3705,32.1591],[15.3687,32.138],[15.3596,32.1021],[15.3569,32.0617],[15.3552,32.0385],[15.3611,31.9653],[15.3705,31.9294],[15.4904,31.6649],[15.5144,31.6284],[15.6228,31.4973],[15.6875,31.4378],[15.7615,31.3881],[16.0446,31.2755],[16.1374,31.2612],[16.1373,31.2612],[16.1321,31.2512],[16.1146,31.2158],[16.1156,31.0493],[16.1598,30.9015],[16.2257,30.689],[16.2698,30.4947],[16.303,30.3094],[16.3792,30.1244],[16.4659,29.9207],[16.4987,29.7629],[16.5312,29.6329],[16.5101,29.5305],[16.4186,29.4088],[16.3713,29.4366],[16.275,29.4638],[16.1356,29.5],[16.0395,29.4712],[15.9436,29.4239],[15.8797,29.3768],[15.7406,29.394],[15.665,29.4676],[15.5999,29.56],[15.5675,29.5875],[15.503,29.6147],[15.3851,29.6133],[15.2991,29.6401],[15.2025,29.6575],[15.0519,29.702],[14.9759,29.7753],[14.8999,29.8392],[14.8542,29.862],[14.8656,29.8809],[14.9312,29.9407],[14.9797,30.0171],[14.9824,30.1318],[14.9708,30.2584],[14.9501,30.4092],[14.8645,30.4624],[14.8587,30.4661],[14.7818,30.4988],[14.5607,30.5505],[14.4517,30.619],[14.3576,30.6536],[14.2117,30.721],[14.1572,30.8368],[14.0659,31.032],[13.9342,31.2432],[13.9166,31.2598],[13.8616,31.2901],[13.7982,31.3226],[13.6889,31.4392],[13.6324,31.5083],[13.5999,31.6145],[13.5537,31.7058],[13.4899,31.8136],[13.4526,31.9609],[13.3977,32.0508],[13.4588,32.0521],[13.6164,32.0481],[13.6773,32.0567],[13.7773,32.0809],[13.8337,32.1005],[13.8992,32.1018],[13.961,32.0771],[13.9916,32.074],[14.0657,32.0865],[14.1221,32.1426],[14.2851,32.0461],[14.365,31.9771],[14.4705,31.9456],[14.6012,31.9588],[14.6667,31.9678],[14.6826,32.0562],[14.7162,32.1381],[14.755,32.1794],[14.7584,32.2385],[14.7313,32.2935],[14.7217,32.3451],[14.7425,32.4156],[14.7552,32.439],[14.7558,32.4497]]]}},{"type":"Feature","properties":{"id":"LBY-2976","name":"Mizdah","nameBn":"মিজদাহ","type":"Municipality|Governarate","bounds":[11.5899,28.427,14.9824,32.3174],"center":[13.2861,30.6105]},"geometry":{"type":"Polygon","coordinates":[[[12.8196,32.2602],[12.9629,32.2774],[13.0504,32.2795],[13.1551,32.293],[13.1896,32.3123],[13.2508,32.3174],[13.3002,32.2704],[13.3632,32.2016],[13.3918,32.1098],[13.3977,32.0508],[13.4526,31.9609],[13.4899,31.8136],[13.5537,31.7058],[13.5999,31.6145],[13.6324,31.5083],[13.6889,31.4392],[13.7982,31.3226],[13.8616,31.2901],[13.9166,31.2598],[13.9342,31.2432],[14.0659,31.032],[14.1572,30.8368],[14.2117,30.721],[14.3576,30.6536],[14.4517,30.619],[14.5607,30.5505],[14.7818,30.4988],[14.8587,30.4661],[14.8645,30.4624],[14.9501,30.4092],[14.9708,30.2584],[14.9824,30.1318],[14.9797,30.0171],[14.9312,29.9407],[14.8656,29.8809],[14.8542,29.862],[14.8227,29.8094],[14.7631,29.7375],[14.7366,29.6833],[14.7386,29.6077],[14.7573,29.5372],[14.7594,29.4567],[14.7524,29.4053],[14.712,29.3557],[14.6324,29.3127],[14.5066,29.232],[14.4198,29.2091],[14.4222,29.2644],[14.3703,29.3219],[14.287,29.4006],[14.1818,29.4666],[14.0517,29.5221],[13.992,29.5525],[13.9105,29.5676],[13.8247,29.5459],[13.7132,29.4649],[13.659,29.422],[13.5972,29.3568],[13.517,29.2667],[13.4702,29.18],[13.4202,29.1077],[13.359,29.0351],[13.301,28.9553],[13.2084,28.8426],[13.1045,28.7393],[12.9929,28.687],[12.9062,28.6403],[12.8495,28.6092],[12.7905,28.5632],[12.7576,28.4937],[12.6885,28.4303],[12.589,28.427],[12.5016,28.4656],[12.4924,28.5435],[12.431,28.5536],[12.3506,28.5581],[12.2782,28.5652],[12.1569,28.6097],[12.1096,28.6153],[11.9833,28.6472],[11.9519,28.5951],[11.9216,28.776],[11.8974,28.8592],[11.8083,28.9683],[11.7293,29.087],[11.7299,29.3665],[11.6901,29.5793],[11.6494,29.8106],[11.6197,30.0327],[11.6121,30.2369],[11.6163,30.4133],[11.5899,30.5424],[11.5986,30.5983],[11.6508,30.6463],[11.733,30.7602],[11.8673,30.931],[11.963,31.0809],[11.9457,31.0868],[11.895,31.167],[11.853,31.2474],[11.8367,31.3359],[11.8452,31.4623],[11.8329,31.5621],[11.8373,31.6808],[11.8555,31.7813],[11.8397,31.8549],[11.8228,31.9618],[11.84,32.0881],[11.8627,32.1886],[11.8627,32.3076],[12.1433,32.3003],[12.2923,32.297],[12.4015,32.3037],[12.4901,32.2728],[12.5739,32.2528],[12.649,32.2326],[12.6885,32.2403],[12.736,32.2501],[12.8196,32.2602]]]}},{"type":"Feature","properties":{"id":"LBY-2969","name":"Murzuq","nameBn":"মারজুক জেলা","type":"Municipality|Governarate","bounds":[11.3326,21.8642,19.1858,27.0752],"center":[15.2592,24.9977]},"geometry":{"type":"Polygon","coordinates":[[[19.1858,21.8642],[19.1641,21.8749],[19.0407,21.9359],[18.9171,21.9968],[18.7936,22.0579],[18.6701,22.1188],[18.5466,22.1798],[18.423,22.2409],[18.2996,22.3018],[18.176,22.3628],[18.0525,22.4239],[17.929,22.4848],[17.8055,22.5458],[17.6819,22.6068],[17.5584,22.6678],[17.4348,22.7288],[17.3114,22.7898],[17.1879,22.8508],[17.0643,22.9118],[16.9409,22.9727],[16.8173,23.0337],[16.6938,23.0947],[16.5703,23.1557],[16.4468,23.2167],[16.3232,23.2777],[16.1998,23.3387],[16.0762,23.3996],[15.9851,23.4447],[15.9646,23.4422],[15.9202,23.422],[15.8625,23.3959],[15.8049,23.3698],[15.7472,23.3436],[15.6896,23.3175],[15.6319,23.2913],[15.5743,23.2652],[15.5165,23.239],[15.4588,23.2129],[15.4012,23.1868],[15.3435,23.1606],[15.2858,23.1345],[15.2281,23.1084],[15.1704,23.0823],[15.1129,23.0561],[15.0552,23.03],[14.9975,23.0038],[14.9799,22.9957],[14.9793,22.9954],[14.9792,22.9953],[14.808,22.9089],[14.6371,22.8225],[14.466,22.7362],[14.2949,22.6498],[14.2317,22.6179],[14.2162,22.6163],[14.2016,22.6232],[14.1562,22.6607],[14.031,22.7637],[13.9061,22.8666],[13.7809,22.9696],[13.6558,23.0726],[13.5996,23.119],[13.4823,23.1797],[13.3807,23.2024],[13.2924,23.2221],[13.2041,23.2417],[13.1159,23.2614],[13.0276,23.2811],[12.9394,23.3008],[12.8512,23.3205],[12.763,23.3402],[12.6747,23.3599],[12.5865,23.3796],[12.4983,23.3992],[12.41,23.4189],[12.3218,23.4386],[12.2337,23.4583],[12.1453,23.4779],[12.057,23.4976],[11.9689,23.5174],[11.8924,23.6601],[11.8223,23.7906],[11.7101,24.0001],[11.7086,24.003],[11.6365,24.1376],[11.5671,24.2668],[11.5414,24.2975],[11.5086,24.3138],[11.4672,24.3263],[11.481,24.463],[11.4555,24.5939],[11.334,24.7968],[11.3373,24.9851],[11.34,25.1921],[11.3326,25.3893],[11.3995,25.5514],[11.5941,25.652],[11.7742,25.5733],[11.8584,25.5478],[12.0456,25.563],[12.1599,25.5759],[12.2617,25.6541],[12.3636,25.7323],[12.5,25.708],[12.6249,25.7209],[12.7067,25.7794],[12.7999,25.8101],[12.9655,25.8614],[13.2054,25.8768],[13.3083,25.945],[13.4101,26.06],[13.4819,26.118],[13.6693,26.1597],[13.9344,26.2469],[13.9345,26.245],[14.133,26.2677],[14.2474,26.3074],[14.4244,26.3763],[14.538,26.4814],[14.6412,26.5862],[14.7447,26.6816],[14.8276,26.7579],[14.974,26.8069],[15.0998,26.8369],[15.278,26.8767],[15.4671,26.8978],[15.656,26.9281],[15.761,26.9479],[16.2797,27.0752],[16.2709,27.0027],[16.2691,26.9293],[16.2784,26.8462],[16.3227,26.7928],[16.372,26.7737],[16.4596,26.7328],[16.52,26.7015],[16.5751,26.6309],[16.568,26.5281],[16.6207,26.4258],[16.7276,26.3262],[16.804,26.285],[16.883,26.2341],[16.9405,26.1634],[17.0925,26.1347],[17.2634,26.1009],[17.4098,26.0523],[17.4936,26.0842],[17.5666,26.1258],[17.6966,26.1355],[17.778,26.1575],[17.9081,26.2428],[17.9542,26.2941],[18.0628,26.3452],[18.2041,26.3765],[18.3206,26.3294],[18.4124,26.2335],[18.515,26.1498],[18.6151,26.1393],[18.7288,26.114],[18.8856,26.0858],[19.0208,26.0552],[19.126,26.0223],[19.1681,26.0038],[19.1703,25.5066],[19.1725,25.0095],[19.1747,24.5124],[19.1768,24.0152],[19.179,23.5181],[19.1812,23.021],[19.1835,22.5238],[19.1856,22.0267],[19.1856,22.0162],[19.1856,22.0056],[19.1857,21.9951],[19.1857,21.9846],[19.1857,21.9741],[19.1858,21.9635],[19.1858,21.953],[19.1858,21.9425],[19.1858,21.8642]]]}},{"type":"Feature","properties":{"id":"LBY-2971","name":"Sabha","nameBn":"সাবা জেলা","type":"Municipality|Governarate","bounds":[13.9323,26.245,16.2807,27.7411],"center":[15.1065,27.2371]},"geometry":{"type":"Polygon","coordinates":[[[15.7959,27.7212],[15.7948,27.692],[15.8678,27.5951],[15.9632,27.4666],[15.9919,27.3838],[16.0232,27.3059],[16.0621,27.2721],[16.1282,27.2385],[16.1919,27.1853],[16.258,27.1517],[16.2807,27.0835],[16.2797,27.0752],[15.761,26.9479],[15.656,26.9281],[15.4671,26.8978],[15.278,26.8767],[15.0998,26.8369],[14.974,26.8069],[14.8276,26.7579],[14.7447,26.6816],[14.6412,26.5862],[14.538,26.4814],[14.4244,26.3763],[14.2474,26.3074],[14.133,26.2677],[13.9345,26.245],[13.9344,26.2469],[13.9323,26.3482],[13.972,26.4615],[14.0855,26.5575],[14.1462,26.6712],[14.1347,26.7272],[14.0811,26.7824],[14.0376,26.8565],[14.0455,26.9878],[14.0224,27.0904],[13.9832,27.1289],[14.3161,27.1615],[14.4212,27.1727],[14.4836,27.2206],[14.5248,27.2775],[14.6188,27.3352],[14.7234,27.393],[14.849,27.4605],[14.9213,27.5738],[15.0685,27.632],[15.174,27.6428],[15.3535,27.6638],[15.4166,27.6927],[15.5641,27.7411],[15.7959,27.7212]]]}},{"type":"Feature","properties":{"id":"LBY-2985","name":"Surt","nameBn":"সার্ট","type":"Municipality|Governarate","bounds":[16.1146,28.4846,18.7805,31.2612],"center":[17.4523,30.2021]},"geometry":{"type":"Polygon","coordinates":[[[16.1374,31.2612],[16.3587,31.2271],[16.728,31.2238],[16.9419,31.1833],[17.1603,31.1188],[17.3306,31.0865],[17.3659,31.0866],[17.375,31.0831],[17.382,31.0788],[17.4186,31.0622],[17.4473,31.0387],[17.4578,31.0334],[17.4668,31.03],[17.6139,30.9925],[17.6917,30.9597],[17.7761,30.9352],[17.8486,30.9237],[17.8617,30.9136],[17.8892,30.8779],[17.9075,30.8635],[17.9268,30.8552],[18.0169,30.8379],[18.1753,30.7861],[18.2083,30.7692],[18.2357,30.7468],[18.3242,30.6569],[18.5684,30.5001],[18.6233,30.4457],[18.6532,30.4223],[18.7192,30.3915],[18.761,30.3842],[18.7805,30.3759],[18.7611,30.1953],[18.7264,30.0006],[18.7137,29.8334],[18.7332,29.666],[18.6993,29.5174],[18.5799,29.3692],[18.5136,29.1647],[18.4999,28.876],[18.4993,28.5021],[18.4993,28.4846],[18.3846,28.5175],[18.2255,28.5553],[18.0878,28.6396],[17.9821,28.7331],[17.9403,28.8729],[17.8985,28.9848],[17.8136,29.078],[17.7287,29.1619],[17.6864,29.255],[17.6654,29.3294],[17.5801,29.3946],[17.5052,29.3945],[17.4303,29.3572],[17.3339,29.2826],[17.2377,29.3103],[17.0881,29.3471],[16.9812,29.4305],[16.8529,29.4393],[16.7459,29.4016],[16.5533,29.3912],[16.4356,29.4184],[16.4186,29.4088],[16.5101,29.5305],[16.5312,29.6329],[16.4987,29.7629],[16.4659,29.9207],[16.3792,30.1244],[16.303,30.3094],[16.2698,30.4947],[16.2257,30.689],[16.1598,30.9015],[16.1156,31.0493],[16.1146,31.2158],[16.1321,31.2512],[16.1373,31.2612],[16.1374,31.2612]]]}},{"type":"Feature","properties":{"id":"LBY-2978","name":"Tajura' wa an Nawahi al Arba","nameBn":"তাজুরা ওয়া আন নাওয়াহী আল আরবা","type":"Municipality|Governarate","bounds":[13.0763,32.3337,13.9544,32.9186],"center":[13.5154,32.6867]},"geometry":{"type":"Polygon","coordinates":[[[13.1032,32.8774],[13.1155,32.8821],[13.1477,32.904],[13.1647,32.9127],[13.1878,32.9162],[13.2571,32.9186],[13.3517,32.9042],[13.3631,32.8996],[13.3735,32.892],[13.5715,32.8028],[13.617,32.7934],[13.7871,32.7996],[13.8303,32.7941],[13.9153,32.7728],[13.9544,32.7582],[13.8902,32.711],[13.8128,32.6394],[13.8089,32.6209],[13.7193,32.6128],[13.7038,32.6114],[13.5734,32.5608],[13.5257,32.5482],[13.4513,32.5286],[13.4011,32.4352],[13.3848,32.3832],[13.3503,32.3639],[13.2364,32.3337],[13.1875,32.3898],[13.19,32.46],[13.1739,32.5667],[13.1632,32.6492],[13.0763,32.7212],[13.111,32.783],[13.1043,32.8639],[13.1038,32.8707],[13.1032,32.8773],[13.1032,32.8774]]]}},{"type":"Feature","properties":{"id":"LBY-5488","name":"Wadi al Hayaa","nameBn":"ওয়াদি আল হায়া জেলা","type":"Municipality|Governarate","bounds":[11.3037,25.5478,14.1462,27.2922],"center":[12.679,26.3564]},"geometry":{"type":"Polygon","coordinates":[[[13.9832,27.1289],[14.0224,27.0904],[14.0455,26.9878],[14.0376,26.8565],[14.0811,26.7824],[14.1347,26.7272],[14.1462,26.6712],[14.0855,26.5575],[13.972,26.4615],[13.9323,26.3482],[13.9344,26.2469],[13.6693,26.1597],[13.4819,26.118],[13.4101,26.06],[13.3083,25.945],[13.2054,25.8768],[12.9655,25.8614],[12.7999,25.8101],[12.7067,25.7794],[12.6249,25.7209],[12.5,25.708],[12.3636,25.7323],[12.2617,25.6541],[12.1599,25.5759],[12.0456,25.563],[11.8584,25.5478],[11.7742,25.5733],[11.5941,25.652],[11.3995,25.5514],[11.3346,25.6377],[11.3037,25.7492],[11.3161,25.9413],[11.3532,26.09],[11.3747,26.2175],[11.508,26.2971],[11.7441,26.4362],[12.0112,26.604],[12.3099,26.7911],[12.5777,26.9767],[12.7737,27.1131],[13.0124,27.2504],[13.1905,27.2922],[13.3494,27.2678],[13.6252,27.1898],[13.9832,27.1289]]]}}]}