{"type":"FeatureCollection","features":[{"type":"Feature","properties":{"id":"LSO-1202","name":"Berea","nameBn":"বেরিয়া জেলা","type":"District","bounds":[27.5107,-29.3734,28.2857,-28.9374],"center":[27.8982,-29.1918]},"geometry":{"type":"Polygon","coordinates":[[[27.5107,-29.2708],[27.5189,-29.2684],[27.5289,-29.261],[27.5272,-29.2494],[27.521,-29.2261],[27.5215,-29.2165],[27.5282,-29.2076],[27.5382,-29.2024],[27.5485,-29.1989],[27.5557,-29.1954],[27.613,-29.1338],[27.6356,-29.0966],[27.6345,-29.091],[27.643,-29.091],[27.6696,-29.0804],[27.6861,-29.0803],[27.6986,-29.0823],[27.7112,-29.087],[27.7226,-29.0843],[27.7604,-29.0619],[27.772,-29.0594],[27.7807,-29.0563],[27.7879,-29.053],[27.8251,-29.0314],[27.8333,-29.0311],[27.8418,-29.035],[27.8573,-29.0451],[27.866,-29.0491],[27.8764,-29.0512],[27.8933,-29.0521],[27.9053,-29.0451],[27.9146,-29.0378],[27.943,-28.9994],[27.9523,-28.9908],[27.9651,-28.9835],[27.9732,-28.9716],[27.9796,-28.9544],[27.9908,-28.9415],[28.0002,-28.9374],[28.0103,-28.9384],[28.0218,-28.9426],[28.0342,-28.9499],[28.0468,-28.9594],[28.0594,-28.9719],[28.082,-28.9886],[28.0904,-28.9972],[28.0974,-29.0078],[28.1036,-29.0197],[28.1116,-29.0305],[28.1208,-29.0363],[28.1312,-29.0392],[28.1526,-29.0425],[28.1624,-29.045],[28.1723,-29.0494],[28.1838,-29.0571],[28.194,-29.0658],[28.2113,-29.0845],[28.2169,-29.0924],[28.2215,-29.1004],[28.2311,-29.1111],[28.2645,-29.1192],[28.2486,-29.1533],[28.2519,-29.1681],[28.2599,-29.178],[28.2634,-29.1836],[28.2665,-29.1898],[28.2718,-29.2048],[28.2856,-29.2343],[28.2857,-29.2499],[28.2811,-29.2601],[28.2732,-29.2684],[28.2296,-29.2972],[28.2248,-29.3017],[28.2164,-29.3134],[28.2133,-29.3185],[28.2034,-29.3322],[28.1742,-29.2917],[28.1698,-29.2903],[28.1644,-29.2891],[28.1621,-29.2926],[28.1587,-29.2957],[28.1548,-29.2981],[28.1332,-29.3047],[28.1254,-29.3081],[28.1188,-29.3128],[28.1073,-29.3253],[28.075,-29.3476],[28.0519,-29.368],[28.0418,-29.3734],[28.0342,-29.3717],[28.028,-29.3659],[28.0249,-29.3584],[28.0241,-29.3493],[28.0263,-29.3272],[28.0263,-29.317],[28.0253,-29.3076],[28.0181,-29.2791],[28.0148,-29.2709],[28.0103,-29.2648],[28.005,-29.2646],[27.9988,-29.27],[27.9802,-29.2945],[27.9715,-29.3033],[27.9507,-29.3177],[27.9318,-29.3268],[27.9209,-29.3304],[27.8913,-29.3356],[27.8794,-29.3341],[27.8702,-29.3312],[27.8097,-29.2997],[27.7935,-29.2948],[27.7824,-29.2936],[27.7721,-29.2939],[27.7538,-29.2976],[27.7463,-29.3007],[27.7409,-29.3047],[27.7375,-29.3103],[27.7358,-29.3163],[27.7333,-29.323],[27.7282,-29.3276],[27.7133,-29.33],[27.697,-29.3247],[27.6674,-29.3194],[27.652,-29.313],[27.627,-29.2972],[27.6191,-29.2955],[27.6121,-29.2984],[27.6005,-29.3125],[27.5906,-29.3201],[27.5785,-29.3247],[27.556,-29.3278],[27.5447,-29.3269],[27.5354,-29.323],[27.5309,-29.3171],[27.5282,-29.3112],[27.5281,-29.3066],[27.5287,-29.3034],[27.5335,-29.2923],[27.5332,-29.2896],[27.5315,-29.2874],[27.5276,-29.2854],[27.5226,-29.2841],[27.5187,-29.2821],[27.5159,-29.28],[27.5114,-29.2724],[27.5107,-29.2708]]]}},{"type":"Feature","properties":{"id":"LSO-1211","name":"Butha-Buthe","nameBn":"বুথা বুথে জেলা","type":"District","bounds":[28.2181,-29.0726,28.8309,-28.5708],"center":[28.5244,-28.8328]},"geometry":{"type":"Polygon","coordinates":[[[28.6343,-28.5708],[28.6532,-28.5831],[28.6666,-28.5972],[28.6756,-28.6138],[28.6817,-28.6334],[28.689,-28.6744],[28.6995,-28.6885],[28.7439,-28.6895],[28.7586,-28.7005],[28.7877,-28.7487],[28.7959,-28.7543],[28.8272,-28.7593],[28.8279,-28.7595],[28.827,-28.7619],[28.818,-28.8209],[28.8189,-28.8425],[28.821,-28.8481],[28.8233,-28.8514],[28.8256,-28.8541],[28.8281,-28.8562],[28.8303,-28.8589],[28.8309,-28.8623],[28.83,-28.8669],[28.8236,-28.8744],[28.8186,-28.8784],[28.7913,-28.8892],[28.7646,-28.8954],[28.7581,-28.8984],[28.753,-28.9024],[28.7412,-28.9155],[28.7142,-28.9522],[28.7088,-28.9624],[28.705,-28.9731],[28.6994,-29.0052],[28.6966,-29.0132],[28.6915,-29.0211],[28.6852,-29.028],[28.6766,-29.0346],[28.6676,-29.0398],[28.6565,-29.0444],[28.6445,-29.048],[28.6321,-29.0503],[28.6212,-29.0514],[28.6099,-29.0508],[28.5995,-29.0492],[28.555,-29.0342],[28.5468,-29.0334],[28.5396,-29.0344],[28.5346,-29.0375],[28.5306,-29.0429],[28.518,-29.0654],[28.5149,-29.0697],[28.5103,-29.0726],[28.5024,-29.0715],[28.4945,-29.0655],[28.4855,-29.0488],[28.4826,-29.0363],[28.4828,-29.0247],[28.5041,-28.9596],[28.505,-28.9501],[28.5033,-28.9392],[28.4985,-28.9254],[28.4962,-28.9143],[28.4954,-28.9026],[28.4935,-28.892],[28.4889,-28.8812],[28.4755,-28.875],[28.4674,-28.8734],[28.451,-28.8731],[28.4405,-28.8717],[28.4318,-28.8687],[28.4238,-28.8632],[28.4144,-28.8527],[28.4052,-28.8449],[28.3908,-28.8384],[28.3801,-28.8354],[28.3686,-28.8301],[28.3334,-28.8082],[28.3201,-28.8041],[28.3082,-28.8035],[28.2997,-28.8055],[28.2916,-28.8061],[28.2662,-28.8014],[28.2602,-28.7969],[28.2556,-28.7882],[28.2513,-28.7662],[28.251,-28.7313],[28.2463,-28.7173],[28.2257,-28.7057],[28.2181,-28.7007],[28.2307,-28.6995],[28.2509,-28.7074],[28.2739,-28.7096],[28.2971,-28.7069],[28.3172,-28.7001],[28.3364,-28.6847],[28.3635,-28.6436],[28.3829,-28.6265],[28.4034,-28.6189],[28.5426,-28.6108],[28.5625,-28.6065],[28.6194,-28.5724],[28.6343,-28.5708]]]}},{"type":"Feature","properties":{"id":"LSO-1212","name":"Leribe","nameBn":"লেরিবে জেলা","type":"District","bounds":[27.6307,-29.3461,28.7913,-28.7007],"center":[28.2108,-28.8926]},"geometry":{"type":"Polygon","coordinates":[[[28.164,-28.7054],[28.2181,-28.7007],[28.2257,-28.7057],[28.2463,-28.7173],[28.251,-28.7313],[28.2513,-28.7662],[28.2556,-28.7882],[28.2602,-28.7969],[28.2662,-28.8014],[28.2916,-28.8061],[28.2997,-28.8055],[28.3082,-28.8035],[28.3201,-28.8041],[28.3334,-28.8082],[28.3686,-28.8301],[28.3801,-28.8354],[28.3908,-28.8384],[28.4052,-28.8449],[28.4144,-28.8527],[28.4238,-28.8632],[28.4318,-28.8687],[28.4405,-28.8717],[28.451,-28.8731],[28.4674,-28.8734],[28.4755,-28.875],[28.4889,-28.8812],[28.4935,-28.892],[28.4954,-28.9026],[28.4962,-28.9143],[28.4985,-28.9254],[28.5033,-28.9392],[28.505,-28.9501],[28.5041,-28.9596],[28.4828,-29.0247],[28.4826,-29.0363],[28.4855,-29.0488],[28.4945,-29.0655],[28.5024,-29.0715],[28.5103,-29.0726],[28.5149,-29.0697],[28.518,-29.0654],[28.5306,-29.0429],[28.5346,-29.0375],[28.5396,-29.0344],[28.5468,-29.0334],[28.555,-29.0342],[28.5995,-29.0492],[28.6099,-29.0508],[28.6212,-29.0514],[28.6321,-29.0503],[28.6445,-29.048],[28.6565,-29.0444],[28.6676,-29.0398],[28.6766,-29.0346],[28.6852,-29.028],[28.6915,-29.0211],[28.6966,-29.0132],[28.6994,-29.0052],[28.705,-28.9731],[28.7088,-28.9624],[28.7142,-28.9522],[28.7412,-28.9155],[28.753,-28.9024],[28.7581,-28.8984],[28.7646,-28.8954],[28.7913,-28.8892],[28.7865,-28.9093],[28.7781,-28.9242],[28.7747,-28.9379],[28.767,-29.0358],[28.7599,-29.0565],[28.7525,-29.0712],[28.7376,-29.0861],[28.6548,-29.1529],[28.6442,-29.1598],[28.6346,-29.1633],[28.6152,-29.1673],[28.604,-29.1731],[28.5927,-29.182],[28.5775,-29.1976],[28.5697,-29.2104],[28.566,-29.2228],[28.5652,-29.2413],[28.5621,-29.2589],[28.5629,-29.2696],[28.5646,-29.2733],[28.5689,-29.28],[28.5972,-29.3128],[28.604,-29.3183],[28.6153,-29.3258],[28.6194,-29.3307],[28.6205,-29.3342],[28.6174,-29.3378],[28.6116,-29.3415],[28.6042,-29.3438],[28.5744,-29.3461],[28.5634,-29.3453],[28.5489,-29.3406],[28.4994,-29.3167],[28.4667,-29.3059],[28.4386,-29.3004],[28.4287,-29.2998],[28.4175,-29.2959],[28.4077,-29.2879],[28.3829,-29.2437],[28.3557,-29.1757],[28.3439,-29.1553],[28.3405,-29.1453],[28.3401,-29.1354],[28.3407,-29.1265],[28.3399,-29.1195],[28.3359,-29.1141],[28.3294,-29.1107],[28.3221,-29.1087],[28.3062,-29.1062],[28.2964,-29.1058],[28.2864,-29.1072],[28.2751,-29.1101],[28.2645,-29.1192],[28.2311,-29.1111],[28.2215,-29.1004],[28.2169,-29.0924],[28.2113,-29.0845],[28.194,-29.0658],[28.1838,-29.0571],[28.1723,-29.0494],[28.1624,-29.045],[28.1526,-29.0425],[28.1312,-29.0392],[28.1208,-29.0363],[28.1116,-29.0305],[28.1036,-29.0197],[28.0974,-29.0078],[28.0904,-28.9972],[28.082,-28.9886],[28.0594,-28.9719],[28.0468,-28.9594],[28.0342,-28.9499],[28.0218,-28.9426],[28.0103,-28.9384],[28.0002,-28.9374],[27.9908,-28.9415],[27.9796,-28.9544],[27.9732,-28.9716],[27.9651,-28.9835],[27.9523,-28.9908],[27.943,-28.9994],[27.9146,-29.0378],[27.9053,-29.0451],[27.8933,-29.0521],[27.8764,-29.0512],[27.866,-29.0491],[27.8573,-29.0451],[27.8418,-29.035],[27.8333,-29.0311],[27.8251,-29.0314],[27.7879,-29.053],[27.7807,-29.0563],[27.772,-29.0594],[27.7604,-29.0619],[27.7226,-29.0843],[27.7112,-29.087],[27.6986,-29.0823],[27.6861,-29.0803],[27.6696,-29.0804],[27.643,-29.091],[27.6345,-29.091],[27.6307,-29.0725],[27.6375,-29.0657],[27.6444,-29.0725],[27.6494,-29.0709],[27.6586,-29.0668],[27.665,-29.0657],[27.6563,-29.0558],[27.6438,-29.0445],[27.6392,-29.0353],[27.655,-29.0315],[27.6675,-29.0267],[27.6797,-29.0151],[27.6991,-28.9906],[27.7029,-28.9893],[27.7076,-28.9907],[27.7117,-28.991],[27.7133,-28.9869],[27.7134,-28.9795],[27.7145,-28.9764],[27.7167,-28.9732],[27.719,-28.9678],[27.72,-28.9598],[27.7201,-28.9459],[27.7283,-28.938],[27.7441,-28.9332],[27.7548,-28.9255],[27.7474,-28.9086],[27.8613,-28.9154],[27.888,-28.9049],[27.8973,-28.8898],[27.9036,-28.874],[27.9117,-28.8608],[27.9262,-28.8534],[27.945,-28.8555],[27.9569,-28.8651],[27.9662,-28.8757],[27.9775,-28.8807],[28.0047,-28.8807],[28.0136,-28.8784],[28.0148,-28.8726],[28.0145,-28.8648],[28.0187,-28.8568],[28.0566,-28.8125],[28.1009,-28.7709],[28.1041,-28.7651],[28.1317,-28.7293],[28.145,-28.7147],[28.155,-28.7023],[28.164,-28.7054]]]}},{"type":"Feature","properties":{"id":"LSO-3453","name":"Mafeteng","nameBn":"মাফেতেং জেলা","type":"District","bounds":[27.0022,-30.0408,28.3096,-29.5201],"center":[28.1834,-29.8081]},"geometry":{"type":"MultiPolygon","coordinates":[[[[27.0859,-29.6144],[27.0904,-29.6116],[27.1228,-29.5818],[27.1281,-29.5786],[27.1564,-29.5686],[27.1857,-29.5659],[27.1958,-29.5626],[27.2137,-29.5541],[27.2418,-29.549],[27.2631,-29.5411],[27.2957,-29.5244],[27.3003,-29.5201],[27.3028,-29.5206],[27.324,-29.525],[27.335,-29.523],[27.3401,-29.5227],[27.3469,-29.5239],[27.353,-29.5265],[27.3582,-29.5307],[27.3625,-29.539],[27.3656,-29.5563],[27.3687,-29.5647],[27.3811,-29.5839],[27.385,-29.5936],[27.3921,-29.6041],[27.4176,-29.6294],[27.4225,-29.6407],[27.4246,-29.6497],[27.4249,-29.6568],[27.4294,-29.6631],[27.4365,-29.6674],[27.4515,-29.6713],[27.4593,-29.6722],[27.4689,-29.6722],[27.4953,-29.6655],[27.501,-29.6626],[27.5054,-29.6594],[27.5226,-29.6404],[27.5285,-29.637],[27.5333,-29.6382],[27.536,-29.6464],[27.5354,-29.6691],[27.5395,-29.6797],[27.5509,-29.6887],[27.5744,-29.6939],[27.6061,-29.693],[27.6165,-29.695],[27.6269,-29.702],[27.6754,-29.7714],[27.6762,-29.7856],[27.6711,-29.7973],[27.6613,-29.8058],[27.6536,-29.8141],[27.6551,-29.8211],[27.6665,-29.8261],[27.7501,-29.8155],[27.7893,-29.8158],[27.8108,-29.8222],[27.9397,-29.8439],[27.962,-29.8531],[27.984,-29.8676],[27.9998,-29.8717],[28.0449,-29.8771],[28.0573,-29.8828],[28.0649,-29.8908],[28.0682,-29.8975],[28.0781,-29.9048],[28.0572,-29.9155],[28.0556,-29.9384],[28.041,-29.9351],[28.0149,-29.9286],[27.9888,-29.9139],[27.9644,-29.9139],[27.9383,-29.9139],[27.922,-29.8977],[27.9042,-29.8879],[27.8927,-29.9009],[27.8895,-29.9253],[27.883,-29.94],[27.8716,-29.9253],[27.8537,-29.9058],[27.8357,-29.9042],[27.8407,-29.9253],[27.8374,-29.9384],[27.8211,-29.9547],[27.7999,-29.9595],[27.7771,-29.9481],[27.7609,-29.9351],[27.7413,-29.9449],[27.7332,-29.9612],[27.7185,-29.9644],[27.7017,-29.965],[27.6919,-29.9712],[27.6807,-29.9753],[27.6713,-29.9753],[27.6612,-29.9696],[27.6545,-29.9636],[27.6485,-29.9567],[27.6342,-29.937],[27.6253,-29.9325],[27.6128,-29.9311],[27.5914,-29.9331],[27.5785,-29.9321],[27.569,-29.9275],[27.5645,-29.9221],[27.5614,-29.9198],[27.5594,-29.9202],[27.5546,-29.9363],[27.5526,-29.9409],[27.5498,-29.9452],[27.5456,-29.9492],[27.5402,-29.9533],[27.535,-29.9563],[27.531,-29.9593],[27.5293,-29.9624],[27.5278,-29.9677],[27.5251,-29.9729],[27.5223,-29.9766],[27.4806,-30.0129],[27.4781,-30.0158],[27.4759,-30.019],[27.4718,-30.0271],[27.4689,-30.0305],[27.4642,-30.0337],[27.4574,-30.0358],[27.4483,-30.0402],[27.4427,-30.0408],[27.4354,-30.0393],[27.414,-30.0215],[27.3884,-30.0054],[27.385,-30.0022],[27.3836,-29.9999],[27.3758,-29.9845],[27.3723,-29.9747],[27.3695,-29.9635],[27.3673,-29.9494],[27.3673,-29.9322],[27.3701,-29.9138],[27.3729,-29.9048],[27.3901,-29.8634],[27.3904,-29.857],[27.3858,-29.8516],[27.3768,-29.8494],[27.3617,-29.8519],[27.3522,-29.8583],[27.3468,-29.8634],[27.34,-29.8683],[27.3311,-29.8709],[27.3108,-29.8723],[27.3029,-29.87],[27.297,-29.8669],[27.2922,-29.8659],[27.285,-29.8681],[27.2567,-29.8872],[27.1877,-29.916],[27.1714,-29.9215],[27.0888,-29.7501],[27.0887,-29.7501],[27.0887,-29.75],[27.0801,-29.7351],[27.051,-29.6968],[27.0377,-29.6865],[27.0245,-29.68],[27.0102,-29.6699],[27.0022,-29.6665],[27.0145,-29.6417],[27.0149,-29.6256],[27.0224,-29.6162],[27.033,-29.6162],[27.0424,-29.6281],[27.0492,-29.6205],[27.0568,-29.6044],[27.0622,-29.6002],[27.072,-29.5999],[27.0751,-29.6051],[27.0777,-29.6113],[27.0859,-29.6144]]],[[[28.0898,-29.7022],[28.1207,-29.7039],[28.1435,-29.7039],[28.1841,-29.7095],[28.2054,-29.712],[28.2298,-29.7348],[28.2046,-29.7615],[28.2197,-29.7853],[28.2345,-29.8464],[28.2363,-29.8537],[28.2494,-29.8602],[28.264,-29.8651],[28.2722,-29.8781],[28.2819,-29.8944],[28.3015,-29.9204],[28.3096,-29.94],[28.2999,-29.9497],[28.2901,-29.9612],[28.2754,-29.9514],[28.2608,-29.94],[28.2461,-29.9237],[28.2201,-29.9107],[28.1924,-29.9074],[28.1696,-29.9058],[28.1289,-29.9042],[28.1289,-29.8814],[28.1256,-29.8667],[28.1435,-29.8586],[28.1647,-29.8586],[28.1647,-29.852],[28.1566,-29.8341],[28.1516,-29.8179],[28.1614,-29.7983],[28.15,-29.7951],[28.1289,-29.7999],[28.1012,-29.7983],[28.1012,-29.7886],[28.0963,-29.7706],[28.0914,-29.7511],[28.0768,-29.7283],[28.0572,-29.7185],[28.0653,-29.7088],[28.0898,-29.7022]]]]}},{"type":"Feature","properties":{"id":"LSO-1203","name":"Maseru","nameBn":"মাসেরো জেলা","type":"District","bounds":[27.3003,-29.927,28.2034,-29.2646],"center":[27.7516,-29.5571]},"geometry":{"type":"Polygon","coordinates":[[[27.3449,-29.4845],[27.3502,-29.4803],[27.3545,-29.4623],[27.3655,-29.4467],[27.4071,-29.4069],[27.4137,-29.4025],[27.4176,-29.3966],[27.4191,-29.3838],[27.4162,-29.376],[27.4103,-29.3698],[27.4063,-29.364],[27.4086,-29.3571],[27.4176,-29.3507],[27.4268,-29.348],[27.4361,-29.3435],[27.4458,-29.332],[27.4483,-29.323],[27.4503,-29.2997],[27.4533,-29.2916],[27.4699,-29.2824],[27.5107,-29.2708],[27.5114,-29.2724],[27.5159,-29.28],[27.5187,-29.2821],[27.5226,-29.2841],[27.5276,-29.2854],[27.5315,-29.2874],[27.5332,-29.2896],[27.5335,-29.2923],[27.5287,-29.3034],[27.5281,-29.3066],[27.5282,-29.3112],[27.5309,-29.3171],[27.5354,-29.323],[27.5447,-29.3269],[27.556,-29.3278],[27.5785,-29.3247],[27.5906,-29.3201],[27.6005,-29.3125],[27.6121,-29.2984],[27.6191,-29.2955],[27.627,-29.2972],[27.652,-29.313],[27.6674,-29.3194],[27.697,-29.3247],[27.7133,-29.33],[27.7282,-29.3276],[27.7333,-29.323],[27.7358,-29.3163],[27.7375,-29.3103],[27.7409,-29.3047],[27.7463,-29.3007],[27.7538,-29.2976],[27.7721,-29.2939],[27.7824,-29.2936],[27.7935,-29.2948],[27.8097,-29.2997],[27.8702,-29.3312],[27.8794,-29.3341],[27.8913,-29.3356],[27.9209,-29.3304],[27.9318,-29.3268],[27.9507,-29.3177],[27.9715,-29.3033],[27.9802,-29.2945],[27.9988,-29.27],[28.005,-29.2646],[28.0103,-29.2648],[28.0148,-29.2709],[28.0181,-29.2791],[28.0253,-29.3076],[28.0263,-29.317],[28.0263,-29.3272],[28.0241,-29.3493],[28.0249,-29.3584],[28.028,-29.3659],[28.0342,-29.3717],[28.0418,-29.3734],[28.0519,-29.368],[28.075,-29.3476],[28.1073,-29.3253],[28.1188,-29.3128],[28.1254,-29.3081],[28.1332,-29.3047],[28.1548,-29.2981],[28.1587,-29.2957],[28.1621,-29.2926],[28.1644,-29.2891],[28.1698,-29.2903],[28.1742,-29.2917],[28.2034,-29.3322],[28.1492,-29.3763],[28.1394,-29.381],[28.1267,-29.3855],[28.1189,-29.3864],[28.1134,-29.3916],[28.1087,-29.4001],[28.105,-29.4096],[28.1027,-29.4182],[28.1016,-29.4276],[28.1027,-29.4374],[28.1,-29.4522],[28.1019,-29.4607],[28.1051,-29.4671],[28.1109,-29.4729],[28.1138,-29.4771],[28.1165,-29.4797],[28.1228,-29.4821],[28.1248,-29.4862],[28.1265,-29.4914],[28.1289,-29.4952],[28.1369,-29.4983],[28.1405,-29.5026],[28.1431,-29.5102],[28.1689,-29.6397],[28.1677,-29.6501],[28.1691,-29.6588],[28.1841,-29.7095],[28.1435,-29.7039],[28.1207,-29.7039],[28.0898,-29.7022],[28.0653,-29.7088],[28.0572,-29.7185],[28.0768,-29.7283],[28.0914,-29.7511],[28.0963,-29.7706],[28.1012,-29.7886],[28.1012,-29.7983],[28.1289,-29.7999],[28.15,-29.7951],[28.1614,-29.7983],[28.1516,-29.8179],[28.1566,-29.8341],[28.1647,-29.852],[28.1647,-29.8586],[28.1435,-29.8586],[28.1256,-29.8667],[28.1289,-29.8814],[28.1289,-29.9042],[28.1126,-29.9204],[28.0865,-29.927],[28.0781,-29.9048],[28.0682,-29.8975],[28.0649,-29.8908],[28.0573,-29.8828],[28.0449,-29.8771],[27.9998,-29.8717],[27.984,-29.8676],[27.962,-29.8531],[27.9397,-29.8439],[27.8108,-29.8222],[27.7893,-29.8158],[27.7501,-29.8155],[27.6665,-29.8261],[27.6551,-29.8211],[27.6536,-29.8141],[27.6613,-29.8058],[27.6711,-29.7973],[27.6762,-29.7856],[27.6754,-29.7714],[27.6269,-29.702],[27.6165,-29.695],[27.6061,-29.693],[27.5744,-29.6939],[27.5509,-29.6887],[27.5395,-29.6797],[27.5354,-29.6691],[27.536,-29.6464],[27.5333,-29.6382],[27.5285,-29.637],[27.5226,-29.6404],[27.5054,-29.6594],[27.501,-29.6626],[27.4953,-29.6655],[27.4689,-29.6722],[27.4593,-29.6722],[27.4515,-29.6713],[27.4365,-29.6674],[27.4294,-29.6631],[27.4249,-29.6568],[27.4246,-29.6497],[27.4225,-29.6407],[27.4176,-29.6294],[27.3921,-29.6041],[27.385,-29.5936],[27.3811,-29.5839],[27.3687,-29.5647],[27.3656,-29.5563],[27.3625,-29.539],[27.3582,-29.5307],[27.353,-29.5265],[27.3469,-29.5239],[27.3401,-29.5227],[27.335,-29.523],[27.324,-29.525],[27.3028,-29.5206],[27.3003,-29.5201],[27.3025,-29.5181],[27.3091,-29.5092],[27.3141,-29.4987],[27.316,-29.4872],[27.3214,-29.4836],[27.3449,-29.4845]]]}},{"type":"Feature","properties":{"id":"LSO-1204","name":"Mohale's Hoek","nameBn":"মোহালেস হোয়েক জেলা","type":"District","bounds":[27.1714,-30.3934,28.5547,-29.7762],"center":[27.8628,-30.075]},"geometry":{"type":"Polygon","coordinates":[[[27.322,-30.1348],[27.3128,-30.1316],[27.3004,-30.115],[27.2937,-30.1009],[27.2802,-30.0535],[27.2659,-30.0333],[27.218,-29.9981],[27.1988,-29.9785],[27.1714,-29.9215],[27.1877,-29.916],[27.2567,-29.8872],[27.285,-29.8681],[27.2922,-29.8659],[27.297,-29.8669],[27.3029,-29.87],[27.3108,-29.8723],[27.3311,-29.8709],[27.34,-29.8683],[27.3468,-29.8634],[27.3522,-29.8583],[27.3617,-29.8519],[27.3768,-29.8494],[27.3858,-29.8516],[27.3904,-29.857],[27.3901,-29.8634],[27.3729,-29.9048],[27.3701,-29.9138],[27.3673,-29.9322],[27.3673,-29.9494],[27.3695,-29.9635],[27.3723,-29.9747],[27.3758,-29.9845],[27.3836,-29.9999],[27.385,-30.0022],[27.3884,-30.0054],[27.414,-30.0215],[27.4354,-30.0393],[27.4427,-30.0408],[27.4483,-30.0402],[27.4574,-30.0358],[27.4642,-30.0337],[27.4689,-30.0305],[27.4718,-30.0271],[27.4759,-30.019],[27.4781,-30.0158],[27.4806,-30.0129],[27.5223,-29.9766],[27.5251,-29.9729],[27.5278,-29.9677],[27.5293,-29.9624],[27.531,-29.9593],[27.535,-29.9563],[27.5402,-29.9533],[27.5456,-29.9492],[27.5498,-29.9452],[27.5526,-29.9409],[27.5546,-29.9363],[27.5594,-29.9202],[27.5614,-29.9198],[27.5645,-29.9221],[27.569,-29.9275],[27.5785,-29.9321],[27.5914,-29.9331],[27.6128,-29.9311],[27.6253,-29.9325],[27.6342,-29.937],[27.6485,-29.9567],[27.6545,-29.9636],[27.6612,-29.9696],[27.6713,-29.9753],[27.6807,-29.9753],[27.6919,-29.9712],[27.7017,-29.965],[27.7185,-29.9644],[27.7332,-29.9612],[27.7413,-29.9449],[27.7609,-29.9351],[27.7771,-29.9481],[27.7999,-29.9595],[27.8211,-29.9547],[27.8374,-29.9384],[27.8407,-29.9253],[27.8357,-29.9042],[27.8537,-29.9058],[27.8716,-29.9253],[27.883,-29.94],[27.8895,-29.9253],[27.8927,-29.9009],[27.9042,-29.8879],[27.922,-29.8977],[27.9383,-29.9139],[27.9644,-29.9139],[27.9888,-29.9139],[28.0149,-29.9286],[28.041,-29.9351],[28.0556,-29.9384],[28.0572,-29.9155],[28.0781,-29.9048],[28.0865,-29.927],[28.1126,-29.9204],[28.1289,-29.9042],[28.1696,-29.9058],[28.1924,-29.9074],[28.2201,-29.9107],[28.2461,-29.9237],[28.2608,-29.94],[28.2754,-29.9514],[28.2901,-29.9612],[28.2999,-29.9497],[28.3096,-29.94],[28.3015,-29.9204],[28.2819,-29.8944],[28.3015,-29.8846],[28.321,-29.883],[28.3357,-29.8797],[28.3357,-29.8651],[28.3406,-29.8488],[28.365,-29.8407],[28.3845,-29.8488],[28.4024,-29.8439],[28.4269,-29.8309],[28.4529,-29.8162],[28.4757,-29.8097],[28.5018,-29.8064],[28.5115,-29.7951],[28.5399,-29.7762],[28.5547,-29.7999],[28.5544,-29.8212],[28.5483,-29.8459],[28.5463,-29.8646],[28.5522,-29.8949],[28.5523,-29.9073],[28.548,-29.9189],[28.5407,-29.9253],[28.529,-29.9305],[28.4948,-29.9426],[28.4842,-29.949],[28.4743,-29.9571],[28.4617,-29.9732],[28.4536,-29.98],[28.4474,-29.9843],[28.4419,-29.9862],[28.4372,-29.9884],[28.4319,-29.9913],[28.4099,-30.0073],[28.375,-30.0276],[28.3706,-30.0286],[28.368,-30.0301],[28.3642,-30.0263],[28.3479,-30.0011],[28.3368,-29.9915],[28.3006,-29.9848],[28.2698,-29.9981],[28.2647,-30.0013],[28.2398,-30.0168],[28.2063,-30.0264],[28.163,-30.0231],[28.1402,-30.0263],[28.1303,-30.0393],[28.1242,-30.053],[28.1094,-30.0613],[28.0751,-30.0704],[28.0572,-30.0725],[28.0053,-30.0611],[27.9967,-30.0616],[27.9713,-30.0665],[27.9442,-30.0664],[27.9337,-30.0701],[27.9254,-30.076],[27.9183,-30.084],[27.8971,-30.1184],[27.8933,-30.1312],[27.8932,-30.1459],[27.9012,-30.1707],[27.9026,-30.1827],[27.897,-30.1948],[27.8921,-30.1989],[27.8802,-30.206],[27.875,-30.2109],[27.8716,-30.2163],[27.8662,-30.2287],[27.8627,-30.2344],[27.8354,-30.2475],[27.8195,-30.2643],[27.815,-30.268],[27.7978,-30.2736],[27.78,-30.2743],[27.7461,-30.268],[27.7423,-30.265],[27.7354,-30.2549],[27.7305,-30.2521],[27.7211,-30.253],[27.7174,-30.259],[27.7175,-30.2676],[27.7194,-30.2768],[27.7342,-30.316],[27.7353,-30.3348],[27.7237,-30.3542],[27.6899,-30.3677],[27.6219,-30.3439],[27.5863,-30.3523],[27.5795,-30.3613],[27.5729,-30.3831],[27.5659,-30.3906],[27.5576,-30.3915],[27.547,-30.3892],[27.5334,-30.3934],[27.5297,-30.3822],[27.4932,-30.3677],[27.4775,-30.3563],[27.4667,-30.3411],[27.4594,-30.3166],[27.4521,-30.3101],[27.436,-30.3099],[27.4148,-30.3175],[27.4078,-30.3186],[27.3976,-30.3172],[27.3777,-30.3123],[27.377,-30.3122],[27.3662,-30.311],[27.3678,-30.2954],[27.3455,-30.2416],[27.3437,-30.2129],[27.3655,-30.1658],[27.3805,-30.1526],[27.3814,-30.1427],[27.372,-30.1359],[27.3567,-30.1322],[27.3344,-30.1322],[27.322,-30.1348]]]}},{"type":"Feature","properties":{"id":"LSO-1213","name":"Mokhotlong","nameBn":"মোকুলং জেলা","type":"District","bounds":[28.5621,-29.576,29.4359,-28.7595],"center":[28.9988,-29.202]},"geometry":{"type":"Polygon","coordinates":[[[28.859,-28.773],[28.8728,-28.7836],[28.8857,-28.7972],[28.9259,-28.8595],[28.9808,-28.909],[28.9954,-28.9083],[29.019,-28.914],[29.0405,-28.923],[29.0497,-28.933],[29.05,-28.9526],[29.0558,-28.9654],[29.069,-28.9733],[29.0915,-28.9786],[29.126,-28.9924],[29.2084,-29.0689],[29.2414,-29.0777],[29.2814,-29.0786],[29.3118,-29.0898],[29.3168,-29.1474],[29.3281,-29.1594],[29.3437,-29.1698],[29.3575,-29.1833],[29.365,-29.2003],[29.376,-29.2355],[29.4039,-29.2687],[29.414,-29.2903],[29.4149,-29.2964],[29.414,-29.3117],[29.415,-29.3189],[29.4195,-29.325],[29.4328,-29.3366],[29.4359,-29.3424],[29.4322,-29.357],[29.4137,-29.3801],[29.4119,-29.3958],[29.4125,-29.4103],[29.4079,-29.4215],[29.3995,-29.4303],[29.3882,-29.4378],[29.3618,-29.4479],[29.332,-29.456],[29.3038,-29.4668],[29.2827,-29.4856],[29.2755,-29.5066],[29.2752,-29.5283],[29.2747,-29.5282],[29.2582,-29.5257],[29.2539,-29.5264],[29.2495,-29.5283],[29.2258,-29.5441],[29.2196,-29.5473],[29.1916,-29.5547],[29.1819,-29.559],[29.1633,-29.5744],[29.1583,-29.576],[29.1489,-29.5742],[29.1415,-29.5698],[29.1279,-29.5579],[29.12,-29.5474],[29.1088,-29.5267],[29.0979,-29.5181],[29.0819,-29.5099],[29.0522,-29.4992],[29.0206,-29.4912],[29.0115,-29.4911],[29.0036,-29.4927],[28.9886,-29.4995],[28.9797,-29.5016],[28.9697,-29.502],[28.9583,-29.5012],[28.9091,-29.5034],[28.8956,-29.5026],[28.8501,-29.49],[28.8341,-29.4881],[28.7896,-29.4909],[28.7826,-29.4893],[28.7787,-29.4827],[28.7781,-29.4793],[28.7786,-29.4757],[28.7764,-29.4726],[28.7894,-29.4616],[28.7977,-29.4502],[28.8029,-29.4353],[28.8048,-29.4148],[28.8025,-29.3734],[28.804,-29.3528],[28.8041,-29.3527],[28.7986,-29.3513],[28.7944,-29.3477],[28.787,-29.3445],[28.7707,-29.3414],[28.7587,-29.3402],[28.7483,-29.3403],[28.7423,-29.3423],[28.7388,-29.3459],[28.7356,-29.3504],[28.7303,-29.353],[28.7237,-29.3504],[28.7089,-29.3328],[28.7008,-29.3275],[28.6865,-29.323],[28.6777,-29.3183],[28.6741,-29.3109],[28.6765,-29.3046],[28.6865,-29.2886],[28.7153,-29.2307],[28.7188,-29.2172],[28.7185,-29.2069],[28.714,-29.197],[28.7091,-29.1902],[28.7036,-29.1862],[28.6965,-29.1882],[28.6856,-29.1947],[28.6281,-29.2381],[28.602,-29.2509],[28.5621,-29.2589],[28.5652,-29.2413],[28.566,-29.2228],[28.5697,-29.2104],[28.5775,-29.1976],[28.5927,-29.182],[28.604,-29.1731],[28.6152,-29.1673],[28.6346,-29.1633],[28.6442,-29.1598],[28.6548,-29.1529],[28.7376,-29.0861],[28.7525,-29.0712],[28.7599,-29.0565],[28.767,-29.0358],[28.7747,-28.9379],[28.7781,-28.9242],[28.7865,-28.9093],[28.7913,-28.8892],[28.8186,-28.8784],[28.8236,-28.8744],[28.83,-28.8669],[28.8309,-28.8623],[28.8303,-28.8589],[28.8281,-28.8562],[28.8256,-28.8541],[28.8233,-28.8514],[28.821,-28.8481],[28.8189,-28.8425],[28.818,-28.8209],[28.827,-28.7619],[28.8279,-28.7595],[28.8437,-28.7648],[28.8588,-28.7728],[28.859,-28.773]]]}},{"type":"Feature","properties":{"id":"LSO-1214","name":"Qacha's Nek","nameBn":"কাচাস নেক জেলা","type":"District","bounds":[28.2034,-30.1732,29.1507,-29.7388],"center":[28.6768,-29.9679]},"geometry":{"type":"Polygon","coordinates":[[[29.0158,-29.9786],[28.9763,-29.9999],[28.86,-30.0664],[28.7956,-30.0894],[28.7295,-30.1018],[28.6397,-30.1315],[28.6059,-30.1313],[28.5573,-30.115],[28.5406,-30.1133],[28.5243,-30.1167],[28.4809,-30.1393],[28.4562,-30.147],[28.408,-30.1409],[28.3839,-30.1442],[28.3641,-30.1593],[28.3556,-30.1732],[28.3553,-30.1729],[28.338,-30.1521],[28.3332,-30.1495],[28.3272,-30.1469],[28.3211,-30.1479],[28.3137,-30.1482],[28.2269,-30.139],[28.2159,-30.1347],[28.2085,-30.1283],[28.2048,-30.1218],[28.2034,-30.1152],[28.2034,-30.1077],[28.2046,-30.0995],[28.2093,-30.0825],[28.2139,-30.0749],[28.2218,-30.0677],[28.2524,-30.0538],[28.2715,-30.0526],[28.2761,-30.0489],[28.2791,-30.0411],[28.2724,-30.024],[28.2647,-30.0013],[28.2698,-29.9981],[28.3006,-29.9848],[28.3368,-29.9915],[28.3479,-30.0011],[28.3642,-30.0263],[28.368,-30.0301],[28.3706,-30.0286],[28.375,-30.0276],[28.4099,-30.0073],[28.4319,-29.9913],[28.4372,-29.9884],[28.4419,-29.9862],[28.4474,-29.9843],[28.4536,-29.98],[28.4617,-29.9732],[28.4743,-29.9571],[28.4842,-29.949],[28.4948,-29.9426],[28.529,-29.9305],[28.5407,-29.9253],[28.548,-29.9189],[28.5523,-29.9073],[28.5522,-29.8949],[28.5463,-29.8646],[28.5483,-29.8459],[28.5544,-29.8212],[28.5547,-29.7999],[28.5399,-29.7762],[28.5568,-29.7707],[28.5666,-29.7702],[28.5798,-29.7706],[28.6001,-29.7747],[28.6281,-29.7843],[28.6473,-29.7939],[28.6658,-29.806],[28.6729,-29.8121],[28.6782,-29.8186],[28.6811,-29.8261],[28.6819,-29.8349],[28.68,-29.8539],[28.6805,-29.8621],[28.6828,-29.8684],[28.6875,-29.8737],[28.6931,-29.8776],[28.6974,-29.8794],[28.7101,-29.8744],[28.7175,-29.8677],[28.7238,-29.8606],[28.7309,-29.8544],[28.7405,-29.8505],[28.75,-29.8509],[28.7594,-29.8536],[28.769,-29.8545],[28.7791,-29.8499],[28.7869,-29.8375],[28.7842,-29.8248],[28.7778,-29.8125],[28.7794,-29.8122],[28.7887,-29.8104],[28.8093,-29.8102],[28.8239,-29.8128],[28.8374,-29.8178],[28.8912,-29.8562],[28.906,-29.8618],[28.9221,-29.8634],[28.9426,-29.8611],[28.9586,-29.8567],[28.9735,-29.8499],[28.989,-29.8348],[28.9961,-29.8237],[29.0002,-29.8126],[29.0081,-29.7513],[29.0137,-29.7435],[29.0233,-29.7388],[29.0439,-29.7431],[29.0776,-29.7544],[29.0981,-29.7563],[29.1131,-29.753],[29.1136,-29.7529],[29.1123,-29.7751],[29.1063,-29.8016],[29.1058,-29.8256],[29.1204,-29.8434],[29.133,-29.852],[29.1358,-29.8592],[29.1352,-29.868],[29.1373,-29.8821],[29.1483,-29.9013],[29.1507,-29.9111],[29.1442,-29.9197],[29.1328,-29.9247],[29.1063,-29.9315],[29.0941,-29.9363],[29.0158,-29.9786]]]}},{"type":"Feature","properties":{"id":"LSO-1205","name":"Quthing","nameBn":"কুতিং জেলা","type":"District","bounds":[27.5334,-30.6588,28.3556,-30.0013],"center":[27.9441,-30.3539]},"geometry":{"type":"Polygon","coordinates":[[[28.3556,-30.1732],[28.3387,-30.201],[28.323,-30.2147],[28.3137,-30.2208],[28.3013,-30.2365],[28.2944,-30.2425],[28.2847,-30.2462],[28.2553,-30.2499],[28.237,-30.2563],[28.216,-30.2674],[28.2006,-30.2825],[28.1985,-30.3011],[28.2094,-30.3146],[28.2241,-30.3205],[28.2358,-30.3294],[28.2385,-30.3523],[28.2314,-30.3739],[28.2182,-30.3874],[28.1332,-30.4454],[28.1254,-30.4573],[28.1276,-30.4651],[28.1392,-30.4827],[28.1424,-30.4926],[28.1412,-30.5008],[28.1243,-30.5473],[28.1208,-30.5534],[28.1128,-30.5625],[28.1049,-30.5684],[28.0964,-30.5724],[28.088,-30.5776],[28.0816,-30.5869],[28.0758,-30.607],[28.0765,-30.6232],[28.079,-30.6393],[28.0788,-30.6588],[28.0547,-30.6497],[27.9366,-30.6408],[27.9156,-30.6349],[27.8956,-30.6262],[27.8861,-30.6197],[27.8783,-30.6129],[27.8698,-30.6071],[27.8582,-30.6037],[27.8495,-30.605],[27.8304,-30.6131],[27.8204,-30.6146],[27.7784,-30.6097],[27.7436,-30.6003],[27.7135,-30.5838],[27.6595,-30.5305],[27.5986,-30.4903],[27.5923,-30.4819],[27.5906,-30.4729],[27.5901,-30.4639],[27.5868,-30.455],[27.5627,-30.4255],[27.5366,-30.4032],[27.5334,-30.3934],[27.547,-30.3892],[27.5576,-30.3915],[27.5659,-30.3906],[27.5729,-30.3831],[27.5795,-30.3613],[27.5863,-30.3523],[27.6219,-30.3439],[27.6899,-30.3677],[27.7237,-30.3542],[27.7353,-30.3348],[27.7342,-30.316],[27.7194,-30.2768],[27.7175,-30.2676],[27.7174,-30.259],[27.7211,-30.253],[27.7305,-30.2521],[27.7354,-30.2549],[27.7423,-30.265],[27.7461,-30.268],[27.78,-30.2743],[27.7978,-30.2736],[27.815,-30.268],[27.8195,-30.2643],[27.8354,-30.2475],[27.8627,-30.2344],[27.8662,-30.2287],[27.8716,-30.2163],[27.875,-30.2109],[27.8802,-30.206],[27.8921,-30.1989],[27.897,-30.1948],[27.9026,-30.1827],[27.9012,-30.1707],[27.8932,-30.1459],[27.8933,-30.1312],[27.8971,-30.1184],[27.9183,-30.084],[27.9254,-30.076],[27.9337,-30.0701],[27.9442,-30.0664],[27.9713,-30.0665],[27.9967,-30.0616],[28.0053,-30.0611],[28.0572,-30.0725],[28.0751,-30.0704],[28.1094,-30.0613],[28.1242,-30.053],[28.1303,-30.0393],[28.1402,-30.0263],[28.163,-30.0231],[28.2063,-30.0264],[28.2398,-30.0168],[28.2647,-30.0013],[28.2724,-30.024],[28.2791,-30.0411],[28.2761,-30.0489],[28.2715,-30.0526],[28.2524,-30.0538],[28.2218,-30.0677],[28.2139,-30.0749],[28.2093,-30.0825],[28.2046,-30.0995],[28.2034,-30.1077],[28.2034,-30.1152],[28.2048,-30.1218],[28.2085,-30.1283],[28.2159,-30.1347],[28.2269,-30.139],[28.3137,-30.1482],[28.3211,-30.1479],[28.3272,-30.1469],[28.3332,-30.1495],[28.338,-30.1521],[28.3553,-30.1729],[28.3556,-30.1732]]]}},{"type":"Feature","properties":{"id":"LSO-1215","name":"Thaba-Tseka","nameBn":"থাবা তেস্কা জেলা","type":"District","bounds":[28.1,-29.8944,29.2963,-29.1058],"center":[28.6979,-29.6029]},"geometry":{"type":"Polygon","coordinates":[[[29.2752,-29.5283],[29.2751,-29.5323],[29.282,-29.5561],[29.2963,-29.5716],[29.2799,-29.5814],[29.2784,-29.5971],[29.2786,-29.6136],[29.2673,-29.6261],[29.1903,-29.6469],[29.1613,-29.6669],[29.1451,-29.6919],[29.1324,-29.7203],[29.1138,-29.7501],[29.1136,-29.7529],[29.1131,-29.753],[29.0981,-29.7563],[29.0776,-29.7544],[29.0439,-29.7431],[29.0233,-29.7388],[29.0137,-29.7435],[29.0081,-29.7513],[29.0002,-29.8126],[28.9961,-29.8237],[28.989,-29.8348],[28.9735,-29.8499],[28.9586,-29.8567],[28.9426,-29.8611],[28.9221,-29.8634],[28.906,-29.8618],[28.8912,-29.8562],[28.8374,-29.8178],[28.8239,-29.8128],[28.8093,-29.8102],[28.7887,-29.8104],[28.7794,-29.8122],[28.7778,-29.8125],[28.7842,-29.8248],[28.7869,-29.8375],[28.7791,-29.8499],[28.769,-29.8545],[28.7594,-29.8536],[28.75,-29.8509],[28.7405,-29.8505],[28.7309,-29.8544],[28.7238,-29.8606],[28.7175,-29.8677],[28.7101,-29.8744],[28.6974,-29.8794],[28.6931,-29.8776],[28.6875,-29.8737],[28.6828,-29.8684],[28.6805,-29.8621],[28.68,-29.8539],[28.6819,-29.8349],[28.6811,-29.8261],[28.6782,-29.8186],[28.6729,-29.8121],[28.6658,-29.806],[28.6473,-29.7939],[28.6281,-29.7843],[28.6001,-29.7747],[28.5798,-29.7706],[28.5666,-29.7702],[28.5568,-29.7707],[28.5399,-29.7762],[28.5115,-29.7951],[28.5018,-29.8064],[28.4757,-29.8097],[28.4529,-29.8162],[28.4269,-29.8309],[28.4024,-29.8439],[28.3845,-29.8488],[28.365,-29.8407],[28.3406,-29.8488],[28.3357,-29.8651],[28.3357,-29.8797],[28.321,-29.883],[28.3015,-29.8846],[28.2819,-29.8944],[28.2722,-29.8781],[28.264,-29.8651],[28.2494,-29.8602],[28.2363,-29.8537],[28.2345,-29.8464],[28.2197,-29.7853],[28.2046,-29.7615],[28.2298,-29.7348],[28.2054,-29.712],[28.1841,-29.7095],[28.1691,-29.6588],[28.1677,-29.6501],[28.1689,-29.6397],[28.1431,-29.5102],[28.1405,-29.5026],[28.1369,-29.4983],[28.1289,-29.4952],[28.1265,-29.4914],[28.1248,-29.4862],[28.1228,-29.4821],[28.1165,-29.4797],[28.1138,-29.4771],[28.1109,-29.4729],[28.1051,-29.4671],[28.1019,-29.4607],[28.1,-29.4522],[28.1027,-29.4374],[28.1016,-29.4276],[28.1027,-29.4182],[28.105,-29.4096],[28.1087,-29.4001],[28.1134,-29.3916],[28.1189,-29.3864],[28.1267,-29.3855],[28.1394,-29.381],[28.1492,-29.3763],[28.2034,-29.3322],[28.2133,-29.3185],[28.2164,-29.3134],[28.2248,-29.3017],[28.2296,-29.2972],[28.2732,-29.2684],[28.2811,-29.2601],[28.2857,-29.2499],[28.2856,-29.2343],[28.2718,-29.2048],[28.2665,-29.1898],[28.2634,-29.1836],[28.2599,-29.178],[28.2519,-29.1681],[28.2486,-29.1533],[28.2645,-29.1192],[28.2751,-29.1101],[28.2864,-29.1072],[28.2964,-29.1058],[28.3062,-29.1062],[28.3221,-29.1087],[28.3294,-29.1107],[28.3359,-29.1141],[28.3399,-29.1195],[28.3407,-29.1265],[28.3401,-29.1354],[28.3405,-29.1453],[28.3439,-29.1553],[28.3557,-29.1757],[28.3829,-29.2437],[28.4077,-29.2879],[28.4175,-29.2959],[28.4287,-29.2998],[28.4386,-29.3004],[28.4667,-29.3059],[28.4994,-29.3167],[28.5489,-29.3406],[28.5634,-29.3453],[28.5744,-29.3461],[28.6042,-29.3438],[28.6116,-29.3415],[28.6174,-29.3378],[28.6205,-29.3342],[28.6194,-29.3307],[28.6153,-29.3258],[28.604,-29.3183],[28.5972,-29.3128],[28.5689,-29.28],[28.5646,-29.2733],[28.5629,-29.2696],[28.5621,-29.2589],[28.602,-29.2509],[28.6281,-29.2381],[28.6856,-29.1947],[28.6965,-29.1882],[28.7036,-29.1862],[28.7091,-29.1902],[28.714,-29.197],[28.7185,-29.2069],[28.7188,-29.2172],[28.7153,-29.2307],[28.6865,-29.2886],[28.6765,-29.3046],[28.6741,-29.3109],[28.6777,-29.3183],[28.6865,-29.323],[28.7008,-29.3275],[28.7089,-29.3328],[28.7237,-29.3504],[28.7303,-29.353],[28.7356,-29.3504],[28.7388,-29.3459],[28.7423,-29.3423],[28.7483,-29.3403],[28.7587,-29.3402],[28.7707,-29.3414],[28.787,-29.3445],[28.7944,-29.3477],[28.7986,-29.3513],[28.8041,-29.3527],[28.804,-29.3528],[28.8025,-29.3734],[28.8048,-29.4148],[28.8029,-29.4353],[28.7977,-29.4502],[28.7894,-29.4616],[28.7764,-29.4726],[28.7786,-29.4757],[28.7781,-29.4793],[28.7787,-29.4827],[28.7826,-29.4893],[28.7896,-29.4909],[28.8341,-29.4881],[28.8501,-29.49],[28.8956,-29.5026],[28.9091,-29.5034],[28.9583,-29.5012],[28.9697,-29.502],[28.9797,-29.5016],[28.9886,-29.4995],[29.0036,-29.4927],[29.0115,-29.4911],[29.0206,-29.4912],[29.0522,-29.4992],[29.0819,-29.5099],[29.0979,-29.5181],[29.1088,-29.5267],[29.12,-29.5474],[29.1279,-29.5579],[29.1415,-29.5698],[29.1489,-29.5742],[29.1583,-29.576],[29.1633,-29.5744],[29.1819,-29.559],[29.1916,-29.5547],[29.2196,-29.5473],[29.2258,-29.5441],[29.2495,-29.5283],[29.2539,-29.5264],[29.2582,-29.5257],[29.2747,-29.5282],[29.2752,-29.5283]]]}}]}