{"type":"FeatureCollection","features":[{"type":"Feature","properties":{"id":"MDA-1629","name":"Anenii Noi","nameBn":"আনেনি নোই জেলা","type":"District","bounds":[28.9081,46.7632,29.4762,47.1358],"center":[29.1922,46.8817]},"geometry":{"type":"Polygon","coordinates":[[[29.2404,46.9763],[29.2545,46.9948],[29.2493,47.0235],[29.2489,47.0645],[29.2535,47.1052],[29.2697,47.1289],[29.2922,47.1358],[29.2924,47.1354],[29.291,47.1287],[29.295,47.122],[29.2986,47.1199],[29.3047,47.1165],[29.3291,47.1083],[29.3293,47.1082],[29.3638,47.084],[29.3713,47.0787],[29.3775,47.0708],[29.3821,47.0418],[29.3806,47.0289],[29.3795,47.0293],[29.3701,47.0332],[29.3639,47.0332],[29.369,47.0181],[29.3733,47.0116],[29.3736,47.0116],[29.3775,47.0127],[29.3772,47.0123],[29.3724,47.0043],[29.3702,47.0028],[29.3665,47.003],[29.3409,46.992],[29.3245,46.9884],[29.3089,46.9884],[29.295,46.9922],[29.303,46.975],[29.3159,46.9587],[29.3321,46.9454],[29.3353,46.9439],[29.3496,46.937],[29.3757,46.9352],[29.3967,46.9428],[29.4157,46.9526],[29.4355,46.9575],[29.4595,46.9534],[29.4597,46.9531],[29.4617,46.951],[29.4706,46.9416],[29.4737,46.9232],[29.4737,46.8992],[29.4762,46.8897],[29.4716,46.8774],[29.441,46.8593],[29.4504,46.8242],[29.4244,46.82],[29.399,46.8191],[29.3774,46.8214],[29.356,46.8174],[29.3286,46.7876],[29.3145,46.7885],[29.3019,46.7971],[29.2952,46.7853],[29.2909,46.7632],[29.2652,46.765],[29.2384,46.7641],[29.2171,46.7825],[29.1934,46.7679],[29.1728,46.7741],[29.1678,46.8001],[29.105,46.8115],[29.0933,46.821],[29.0955,46.8306],[29.1017,46.8451],[29.088,46.852],[29.0496,46.8601],[29.0429,46.8816],[29.0583,46.8955],[29.0617,46.9146],[29.0412,46.9268],[29.0159,46.9307],[28.9928,46.9371],[28.9712,46.9411],[28.9596,46.9322],[28.9505,46.9198],[28.9226,46.9289],[28.9081,46.9611],[28.9338,46.9966],[28.9744,47.0104],[28.9915,47.0077],[29.0081,47.0076],[29.0279,47.0305],[29.0566,47.0425],[29.0868,47.0374],[29.1152,46.9869],[29.1483,46.9912],[29.1818,47.0003],[29.2098,46.9862],[29.2404,46.9763]]]}},{"type":"Feature","properties":{"id":"MDA-1630","name":"Basarabeasca","nameBn":"বাশারাবিয়াস্কা জেলা","type":"District","bounds":[28.7046,46.1666,29.0646,46.558],"center":[28.8846,46.3726]},"geometry":{"type":"Polygon","coordinates":[[[29.0559,46.4987],[29.0203,46.4895],[28.9458,46.4548],[28.9254,46.4328],[28.9192,46.4047],[28.9273,46.368],[28.9449,46.3207],[28.9458,46.305],[28.9399,46.287],[28.9329,46.2726],[28.9335,46.259],[28.9506,46.2431],[28.9508,46.2431],[28.9841,46.2212],[28.9627,46.198],[28.9162,46.1666],[28.9106,46.191],[28.9148,46.2183],[28.884,46.2359],[28.8457,46.2284],[28.8248,46.2347],[28.8092,46.249],[28.8105,46.2613],[28.8139,46.2728],[28.8038,46.2961],[28.7755,46.3015],[28.7611,46.3209],[28.7381,46.3232],[28.7261,46.2993],[28.7046,46.2999],[28.7158,46.3279],[28.7437,46.3451],[28.7585,46.3797],[28.7634,46.4174],[28.7973,46.4214],[28.8094,46.4373],[28.8088,46.4649],[28.8383,46.4787],[28.8596,46.4808],[28.8744,46.4934],[28.8838,46.5092],[28.9177,46.5295],[28.9315,46.5459],[28.9523,46.5549],[28.9746,46.558],[29.0459,46.5555],[29.0646,46.5461],[29.0597,46.5195],[29.056,46.4991],[29.0559,46.4987]]]}},{"type":"Feature","properties":{"id":"MDA-1650","name":"Bender","nameBn":"বেন্ডার","type":"City","bounds":[29.441,46.5531,29.9526,46.9613],"center":[29.6966,46.7897]},"geometry":{"type":"Polygon","coordinates":[[[29.5606,46.9613],[29.5598,46.9588],[29.5587,46.9457],[29.5675,46.9347],[29.5732,46.9337],[29.5985,46.9354],[29.6076,46.932],[29.6233,46.9195],[29.6319,46.9144],[29.6481,46.9104],[29.6809,46.9086],[29.6962,46.9047],[29.7125,46.8934],[29.7358,46.8672],[29.7541,46.858],[29.7858,46.8547],[29.8152,46.8566],[29.8436,46.8541],[29.8722,46.8377],[29.8769,46.8308],[29.8849,46.8127],[29.8896,46.8072],[29.8985,46.8067],[29.9077,46.8109],[29.9174,46.814],[29.9282,46.8098],[29.9307,46.8031],[29.9305,46.7816],[29.9318,46.7724],[29.9357,46.7652],[29.9467,46.7507],[29.9511,46.7431],[29.9526,46.7247],[29.9444,46.6625],[29.9403,46.6508],[29.9354,46.6419],[29.9319,46.6324],[29.9313,46.6192],[29.9349,46.6088],[29.9474,46.5883],[29.9497,46.5789],[29.9381,46.5573],[29.9161,46.5544],[29.8988,46.5531],[29.8907,46.5581],[29.8703,46.5767],[29.8675,46.5804],[29.8673,46.5807],[29.8524,46.5808],[29.8399,46.5825],[29.83,46.5886],[29.8234,46.6009],[29.8232,46.6012],[29.7864,46.583],[29.7754,46.5807],[29.7426,46.5932],[29.7283,46.5943],[29.7276,46.5944],[29.7352,46.6076],[29.7475,46.6176],[29.7617,46.6247],[29.7754,46.6291],[29.7583,46.6588],[29.7491,46.6654],[29.7487,46.6657],[29.7276,46.6701],[29.7205,46.6683],[29.7111,46.6649],[29.7034,46.6649],[29.7031,46.6649],[29.6997,46.6732],[29.6957,46.6757],[29.6953,46.6759],[29.6852,46.677],[29.6668,46.6763],[29.6662,46.6763],[29.6516,46.6926],[29.6162,46.6986],[29.5951,46.7129],[29.5701,46.7238],[29.5533,46.7671],[29.5416,46.7765],[29.5323,46.7839],[29.5319,46.7842],[29.5305,46.7828],[29.5119,46.7871],[29.5116,46.7872],[29.5029,46.7963],[29.4951,46.7902],[29.4825,46.7929],[29.4695,46.8122],[29.4504,46.8242],[29.441,46.8593],[29.4716,46.8774],[29.4762,46.8897],[29.4737,46.8992],[29.4737,46.9232],[29.4706,46.9416],[29.4617,46.951],[29.4618,46.9511],[29.4784,46.9595],[29.56,46.9612],[29.5606,46.9613]]]}},{"type":"Feature","properties":{"id":"MDA-1613","name":"Briceni","nameBn":"ব্রিকেনি জেলা","type":"District","bounds":[26.6179,48.1214,27.3115,48.3997],"center":[26.9644,48.2646]},"geometry":{"type":"Polygon","coordinates":[[[26.7224,48.2598],[26.7115,48.2613],[26.6885,48.2748],[26.6657,48.2742],[26.6179,48.259],[26.6186,48.2672],[26.6251,48.2829],[26.6361,48.2949],[26.6691,48.3088],[26.674,48.3217],[26.6798,48.3302],[26.6994,48.3251],[26.713,48.3149],[26.7236,48.3026],[26.7359,48.2918],[26.7546,48.2861],[26.7744,48.2872],[26.7857,48.2941],[26.7901,48.3071],[26.7894,48.3259],[26.7841,48.3452],[26.7782,48.3572],[26.7775,48.3662],[26.7881,48.376],[26.7936,48.3763],[26.8101,48.3719],[26.8169,48.3717],[26.8256,48.3778],[26.8284,48.3851],[26.8319,48.3914],[26.8428,48.3937],[26.876,48.384],[26.9087,48.3652],[26.9432,48.3513],[26.9811,48.3557],[26.9906,48.3624],[26.9978,48.3615],[27.0046,48.3588],[27.0156,48.3594],[27.0277,48.3577],[27.0331,48.3602],[27.0318,48.3652],[27.0285,48.3708],[27.0278,48.3748],[27.0282,48.3814],[27.0254,48.3899],[27.0263,48.3971],[27.0374,48.3997],[27.048,48.3977],[27.0688,48.3889],[27.1758,48.3618],[27.2086,48.3606],[27.2465,48.3737],[27.2519,48.3783],[27.2536,48.3752],[27.2697,48.3312],[27.3115,48.3029],[27.294,48.2817],[27.3011,48.2492],[27.2755,48.2335],[27.243,48.2318],[27.2138,48.2236],[27.1852,48.2344],[27.1739,48.2532],[27.1501,48.2555],[27.1258,48.2389],[27.1221,48.2094],[27.1161,48.1809],[27.0947,48.1631],[27.0798,48.1361],[27.0569,48.1223],[27.048,48.1214],[27.048,48.1222],[27.0428,48.1273],[27.0337,48.1324],[27.0251,48.135],[27.0127,48.1281],[26.994,48.1324],[26.9666,48.1434],[26.9666,48.1496],[26.9862,48.1504],[26.9976,48.1579],[26.9976,48.1666],[26.9631,48.1754],[26.9556,48.186],[26.9506,48.1975],[26.9381,48.2048],[26.9291,48.199],[26.9177,48.188],[26.908,48.1845],[26.904,48.2015],[26.8977,48.209],[26.8555,48.2378],[26.8447,48.2333],[26.8219,48.2525],[26.8049,48.2583],[26.7637,48.2527],[26.744,48.2556],[26.7331,48.2707],[26.7224,48.2598]]]}},{"type":"Feature","properties":{"id":"MDA-1618","name":"Bălţi","nameBn":"বালতি","type":"City","bounds":[27.8484,47.7093,28.0549,47.8162],"center":[27.9516,47.7763]},"geometry":{"type":"Polygon","coordinates":[[[27.9528,47.8162],[27.9768,47.7889],[28.0136,47.7932],[28.0445,47.7822],[28.05,47.7439],[28.0549,47.7318],[28.0457,47.7198],[28.0297,47.7096],[28.0111,47.7093],[27.9924,47.738],[27.9646,47.7362],[27.9042,47.7387],[27.8601,47.7507],[27.8586,47.7694],[27.8484,47.7846],[27.9015,47.7985],[27.9528,47.8162]]]}},{"type":"Feature","properties":{"id":"MDA-1624","name":"Cahul","nameBn":"কাহোল জেলা","type":"District","bounds":[28.0621,45.4618,28.5676,46.1063],"center":[28.3144,45.64]},"geometry":{"type":"Polygon","coordinates":[[[28.1078,46.0961],[28.1105,46.1015],[28.1545,46.0906],[28.2017,46.0888],[28.2399,46.0762],[28.2552,46.0891],[28.2664,46.1058],[28.3061,46.1063],[28.3452,46.0856],[28.3934,46.0849],[28.4406,46.0969],[28.4471,46.0887],[28.4587,46.0879],[28.4522,46.0502],[28.439,46.0112],[28.4377,45.9792],[28.4453,45.9491],[28.4593,45.9381],[28.4682,45.9239],[28.4566,45.9077],[28.4378,45.8993],[28.4071,45.8918],[28.3917,45.8655],[28.38,45.8364],[28.3258,45.7918],[28.302,45.7606],[28.2966,45.7101],[28.3375,45.6705],[28.4009,45.6622],[28.46,45.6966],[28.4876,45.7219],[28.5005,45.7541],[28.499,45.7833],[28.5149,45.8027],[28.5406,45.7771],[28.5499,45.7374],[28.5631,45.7356],[28.5635,45.7355],[28.5676,45.7246],[28.5614,45.7166],[28.5325,45.7101],[28.5152,45.702],[28.5042,45.6937],[28.4809,45.6695],[28.474,45.6579],[28.4829,45.6508],[28.4985,45.6443],[28.5113,45.635],[28.5169,45.621],[28.5188,45.607],[28.5231,45.5932],[28.5369,45.5798],[28.5104,45.571],[28.5046,45.5672],[28.5037,45.5661],[28.5031,45.5663],[28.5012,45.5668],[28.4258,45.5672],[28.352,45.589],[28.2805,45.5853],[28.2715,45.5322],[28.2705,45.5217],[28.2704,45.5215],[28.2173,45.4933],[28.2172,45.4932],[28.2085,45.4814],[28.2016,45.4689],[28.1995,45.4618],[28.1729,45.4844],[28.1659,45.4946],[28.1654,45.5283],[28.164,45.5306],[28.1616,45.5327],[28.1577,45.5389],[28.1409,45.5602],[28.118,45.5727],[28.0621,45.5936],[28.0748,45.6049],[28.0912,45.616],[28.1077,45.6244],[28.1208,45.6277],[28.1537,45.6275],[28.168,45.6325],[28.1618,45.6454],[28.1637,45.6615],[28.155,45.7618],[28.1465,45.7712],[28.1289,45.795],[28.1133,45.8254],[28.1105,45.8543],[28.115,45.8597],[28.1282,45.8664],[28.1311,45.8714],[28.1291,45.8751],[28.1202,45.8878],[28.1174,45.8952],[28.1188,45.9031],[28.1228,45.9108],[28.125,45.9184],[28.1208,45.9263],[28.1149,45.9332],[28.1124,45.9392],[28.1105,45.9504],[28.0861,46.0006],[28.0827,46.0147],[28.0845,46.0246],[28.0969,46.0597],[28.0966,46.065],[28.0905,46.068],[28.0902,46.0734],[28.0928,46.0784],[28.1008,46.082],[28.1078,46.0961]]]}},{"type":"Feature","properties":{"id":"MDA-1652","name":"Camenca","nameBn":"ক্যামেংকা","type":"District","bounds":[28.4666,47.8421,28.9421,48.156],"center":[28.7044,48.0369]},"geometry":{"type":"Polygon","coordinates":[[[28.5416,48.156],[28.5736,48.155],[28.6656,48.1293],[28.7351,48.1287],[28.7712,48.1245],[28.7993,48.1118],[28.8059,48.1038],[28.8084,48.0966],[28.8092,48.0898],[28.8116,48.0829],[28.8276,48.057],[28.8308,48.0309],[28.8325,48.0248],[28.8393,48.0183],[28.8557,48.0079],[28.8621,48.0005],[28.8826,47.9768],[28.9148,47.9531],[28.9361,47.9422],[28.9311,47.9257],[28.9299,47.8947],[28.9362,47.8915],[28.9421,47.8832],[28.861,47.8997],[28.8409,47.9106],[28.8289,47.9171],[28.8303,47.9411],[28.8128,47.9654],[28.7851,47.9826],[28.7848,47.9828],[28.7845,47.9825],[28.776,47.9741],[28.7703,47.9708],[28.7556,47.9572],[28.7383,47.953],[28.7204,47.9527],[28.6832,47.9339],[28.6579,47.8987],[28.6568,47.8772],[28.6692,47.8581],[28.637,47.8421],[28.6008,47.863],[28.5692,47.8871],[28.5305,47.8929],[28.504,47.8833],[28.478,47.8886],[28.4962,47.9155],[28.5055,47.9587],[28.4965,47.9878],[28.4666,47.9972],[28.4813,48.0332],[28.5191,48.0523],[28.5434,48.088],[28.5007,48.1088],[28.4998,48.1089],[28.5011,48.1128],[28.5193,48.1491],[28.5416,48.156]]]}},{"type":"Feature","properties":{"id":"MDA-1631","name":"Cantemir","nameBn":"কান্তেমির জেলা","type":"District","bounds":[28.109,46.0762,28.5129,46.4351],"center":[28.3107,46.262]},"geometry":{"type":"Polygon","coordinates":[[[28.1105,46.1015],[28.1274,46.1353],[28.1332,46.16],[28.1447,46.1832],[28.1415,46.192],[28.1356,46.1988],[28.1293,46.2047],[28.111,46.2256],[28.109,46.2341],[28.1208,46.2379],[28.1321,46.2399],[28.1345,46.2453],[28.1311,46.2624],[28.1352,46.2693],[28.1449,46.2729],[28.1563,46.2754],[28.1658,46.2788],[28.1778,46.287],[28.1913,46.3078],[28.1929,46.3112],[28.192,46.3235],[28.1879,46.3438],[28.1904,46.3511],[28.2024,46.3539],[28.2071,46.3582],[28.2129,46.3887],[28.2195,46.3933],[28.2268,46.3955],[28.2294,46.3933],[28.249,46.3887],[28.2674,46.397],[28.2809,46.4121],[28.302,46.417],[28.3205,46.4237],[28.3379,46.4206],[28.3372,46.4107],[28.3383,46.3997],[28.3765,46.3886],[28.4102,46.4083],[28.4149,46.4266],[28.4291,46.4351],[28.4509,46.4327],[28.4721,46.4264],[28.4772,46.4055],[28.459,46.3896],[28.4656,46.3716],[28.5105,46.3479],[28.5129,46.3263],[28.5017,46.2974],[28.4933,46.2667],[28.5019,46.2367],[28.4982,46.2081],[28.4724,46.1865],[28.4434,46.1687],[28.4294,46.1514],[28.443,46.1354],[28.4464,46.1166],[28.4406,46.0969],[28.3934,46.0849],[28.3452,46.0856],[28.3061,46.1063],[28.2664,46.1058],[28.2552,46.0891],[28.2399,46.0762],[28.2017,46.0888],[28.1545,46.0906],[28.1105,46.1015]]]}},{"type":"Feature","properties":{"id":"MDA-1649","name":"Causeni","nameBn":"কাসেরি জেলা","type":"District","bounds":[28.9712,46.3571,29.5782,46.852],"center":[29.3728,46.6185]},"geometry":{"type":"Polygon","coordinates":[[[29.2007,46.3571],[29.1837,46.3672],[29.1834,46.3776],[29.1903,46.3872],[29.1993,46.3965],[29.2056,46.4061],[29.2076,46.4179],[29.2068,46.5025],[29.2002,46.524],[29.1842,46.538],[29.1831,46.538],[29.1831,46.5383],[29.1827,46.5645],[29.1675,46.5981],[29.1254,46.6238],[29.0726,46.6369],[29.0199,46.6941],[28.9891,46.7425],[28.9712,46.8036],[28.9981,46.8125],[29.0264,46.8178],[29.0583,46.8335],[29.088,46.852],[29.1017,46.8451],[29.0955,46.8306],[29.0933,46.821],[29.105,46.8115],[29.1678,46.8001],[29.1728,46.7741],[29.1934,46.7679],[29.2171,46.7825],[29.2384,46.7641],[29.2652,46.765],[29.2909,46.7632],[29.2952,46.7853],[29.3019,46.7971],[29.3145,46.7885],[29.3286,46.7876],[29.356,46.8174],[29.3774,46.8214],[29.399,46.8191],[29.4244,46.82],[29.4504,46.8242],[29.4695,46.8122],[29.4825,46.7929],[29.4951,46.7902],[29.5029,46.7963],[29.5116,46.7872],[29.5119,46.7871],[29.5305,46.7828],[29.5319,46.7842],[29.5323,46.7839],[29.5416,46.7765],[29.5533,46.7671],[29.5701,46.7238],[29.5782,46.6946],[29.5733,46.6663],[29.5586,46.6628],[29.5422,46.6626],[29.5311,46.6461],[29.5181,46.6298],[29.5012,46.6319],[29.4838,46.6354],[29.4554,46.623],[29.4299,46.6058],[29.4281,46.5919],[29.4284,46.5775],[29.4167,46.5592],[29.4211,46.5407],[29.4435,46.5214],[29.4538,46.4966],[29.4566,46.4848],[29.4567,46.4844],[29.4368,46.4767],[29.4182,46.4625],[29.3747,46.4162],[29.3621,46.4159],[29.3442,46.4342],[29.3208,46.4687],[29.3067,46.472],[29.2891,46.4516],[29.2859,46.4395],[29.2907,46.4193],[29.2901,46.4102],[29.2833,46.3974],[29.2782,46.3959],[29.2714,46.3974],[29.2592,46.3944],[29.2229,46.3665],[29.2007,46.3571]]]}},{"type":"Feature","properties":{"id":"MDA-1627","name":"Chişinău","nameBn":"কিশিনাউ","type":"City","bounds":[28.6618,46.9611,28.9821,47.1392],"center":[28.822,47.0348]},"geometry":{"type":"Polygon","coordinates":[[[28.8425,47.0953],[28.8675,47.0723],[28.9039,47.0705],[28.9493,47.0269],[28.9599,47.0404],[28.9674,47.0595],[28.9821,47.0432],[28.9744,47.0104],[28.9338,46.9966],[28.9081,46.9611],[28.8105,46.9839],[28.7933,46.9837],[28.7776,46.9881],[28.7803,46.999],[28.7899,47.0091],[28.7875,47.0355],[28.7718,47.0532],[28.7355,47.0634],[28.6626,47.1101],[28.6618,47.1392],[28.7094,47.1201],[28.7527,47.0867],[28.7985,47.0807],[28.8425,47.0953]]]}},{"type":"Feature","properties":{"id":"MDA-1633","name":"Cimişlia","nameBn":"কিমিসিলা জেলা","type":"District","bounds":[28.5734,46.4174,29.1831,46.8233],"center":[28.7794,46.5885]},"geometry":{"type":"Polygon","coordinates":[[[29.1831,46.538],[29.1627,46.5381],[29.0749,46.5037],[29.0559,46.4987],[29.056,46.4991],[29.0597,46.5195],[29.0646,46.5461],[29.0459,46.5555],[28.9746,46.558],[28.9523,46.5549],[28.9315,46.5459],[28.9177,46.5295],[28.8838,46.5092],[28.8744,46.4934],[28.8596,46.4808],[28.8383,46.4787],[28.8088,46.4649],[28.8094,46.4373],[28.7973,46.4214],[28.7634,46.4174],[28.7212,46.4398],[28.6303,46.4788],[28.5856,46.5026],[28.5885,46.5323],[28.579,46.5565],[28.5734,46.5676],[28.5875,46.5817],[28.5874,46.5968],[28.5897,46.6111],[28.5974,46.6218],[28.6025,46.633],[28.5862,46.6468],[28.5837,46.6685],[28.6071,46.6995],[28.6213,46.7438],[28.6499,46.7525],[28.6752,46.7671],[28.7028,46.7794],[28.7324,46.7861],[28.7274,46.8053],[28.7356,46.8233],[28.7801,46.7958],[28.8255,46.7948],[28.8492,46.7962],[28.8732,46.7936],[28.8903,46.8045],[28.907,46.812],[28.9399,46.7922],[28.9462,46.7893],[28.9527,46.7892],[28.9712,46.8036],[28.9891,46.7425],[29.0199,46.6941],[29.0726,46.6369],[29.1254,46.6238],[29.1675,46.5981],[29.1827,46.5645],[29.1831,46.5383],[29.1831,46.538]]]}},{"type":"Feature","properties":{"id":"MDA-1626","name":"Comrat","nameBn":"কোম্রাট","type":"Autonomous Territory","bounds":[28.2704,45.502,28.9162,46.5026],"center":[28.6386,46.191]},"geometry":{"type":"MultiPolygon","coordinates":[[[[28.5037,45.5661],[28.4982,45.5587],[28.498,45.5564],[28.5,45.5546],[28.5065,45.5206],[28.502,45.5087],[28.4809,45.502],[28.4168,45.5038],[28.3419,45.5176],[28.2705,45.5215],[28.2704,45.5215],[28.2705,45.5217],[28.2715,45.5322],[28.2805,45.5853],[28.352,45.589],[28.4258,45.5672],[28.5012,45.5668],[28.5031,45.5663],[28.5037,45.5661]]],[[[28.5856,46.5026],[28.6303,46.4788],[28.7212,46.4398],[28.7634,46.4174],[28.7585,46.3797],[28.7437,46.3451],[28.7158,46.3279],[28.7046,46.2999],[28.7261,46.2993],[28.7381,46.3232],[28.7611,46.3209],[28.7755,46.3015],[28.8038,46.2961],[28.8139,46.2728],[28.8105,46.2613],[28.8092,46.249],[28.8248,46.2347],[28.8457,46.2284],[28.884,46.2359],[28.9148,46.2183],[28.9106,46.191],[28.9162,46.1666],[28.8875,46.0766],[28.8283,46.0096],[28.663,45.9678],[28.6222,45.9667],[28.597,45.999],[28.5903,46.0121],[28.5873,46.0264],[28.6007,46.043],[28.5713,46.0644],[28.5345,46.0815],[28.497,46.0889],[28.4587,46.0879],[28.4471,46.0887],[28.4406,46.0969],[28.4464,46.1166],[28.443,46.1354],[28.4294,46.1514],[28.4434,46.1687],[28.4724,46.1865],[28.4982,46.2081],[28.5019,46.2367],[28.4933,46.2667],[28.5017,46.2974],[28.5129,46.3263],[28.5105,46.3479],[28.4656,46.3716],[28.459,46.3896],[28.4772,46.4055],[28.4721,46.4264],[28.5393,46.4639],[28.5457,46.4747],[28.5598,46.4762],[28.5755,46.4859],[28.5856,46.5026]]],[[[28.4009,45.6622],[28.3375,45.6705],[28.2966,45.7101],[28.302,45.7606],[28.3258,45.7918],[28.38,45.8364],[28.3917,45.8655],[28.4196,45.8493],[28.4422,45.8261],[28.4825,45.8215],[28.5149,45.8027],[28.499,45.7833],[28.5005,45.7541],[28.4876,45.7219],[28.46,45.6966],[28.4009,45.6622]]]]}},{"type":"Feature","properties":{"id":"MDA-1634","name":"Criuleni","nameBn":"ক্রিলেনি জেলা","type":"District","bounds":[28.7787,46.9763,29.2922,47.3331],"center":[29.0355,47.1782]},"geometry":{"type":"Polygon","coordinates":[[[28.8425,47.0953],[28.8191,47.1211],[28.7847,47.1386],[28.7787,47.1688],[28.7899,47.2025],[28.806,47.2104],[28.8018,47.2388],[28.827,47.2648],[28.8655,47.2605],[28.9064,47.2758],[28.9443,47.2988],[28.9865,47.3095],[29.0217,47.3331],[29.0711,47.2958],[29.0767,47.2698],[29.0737,47.2463],[29.1101,47.2336],[29.151,47.2448],[29.1633,47.2308],[29.1789,47.1971],[29.1632,47.1919],[29.1444,47.1629],[29.1119,47.1499],[29.0942,47.1349],[29.0784,47.1169],[29.0691,47.1015],[29.0696,47.1014],[29.0844,47.0989],[29.0985,47.0923],[29.0987,47.0921],[29.1189,47.078],[29.1243,47.0742],[29.13,47.0818],[29.1479,47.0966],[29.1561,47.1136],[29.1667,47.1127],[29.1791,47.1095],[29.1892,47.1118],[29.1938,47.1238],[29.1876,47.1348],[29.1797,47.1453],[29.1789,47.1561],[29.1876,47.1629],[29.2003,47.1631],[29.2126,47.1581],[29.2128,47.158],[29.2205,47.1493],[29.2208,47.1493],[29.2267,47.1493],[29.2365,47.1624],[29.2495,47.1585],[29.2499,47.1583],[29.2639,47.1483],[29.2644,47.1481],[29.2779,47.1424],[29.2908,47.1404],[29.2909,47.1402],[29.2922,47.1358],[29.2697,47.1289],[29.2535,47.1052],[29.2489,47.0645],[29.2493,47.0235],[29.2545,46.9948],[29.2404,46.9763],[29.2098,46.9862],[29.1818,47.0003],[29.1483,46.9912],[29.1152,46.9869],[29.0868,47.0374],[29.0566,47.0425],[29.0279,47.0305],[29.0081,47.0076],[28.9915,47.0077],[28.9744,47.0104],[28.9821,47.0432],[28.9674,47.0595],[28.9599,47.0404],[28.9493,47.0269],[28.9039,47.0705],[28.8675,47.0723],[28.8425,47.0953]]]}},{"type":"Feature","properties":{"id":"MDA-1632","name":"Călărași","nameBn":"কালারাসি কাউন্টি","type":"District","bounds":[28.0867,47.1572,28.5879,47.4405],"center":[28.3373,47.2892]},"geometry":{"type":"Polygon","coordinates":[[[28.5796,47.3319],[28.5607,47.3224],[28.5157,47.3189],[28.4556,47.2816],[28.4644,47.267],[28.4807,47.2545],[28.4851,47.2297],[28.4664,47.2135],[28.416,47.1816],[28.3906,47.1736],[28.3424,47.1704],[28.3269,47.1572],[28.2989,47.1578],[28.2713,47.162],[28.2438,47.1733],[28.2156,47.18],[28.149,47.2073],[28.091,47.2509],[28.1226,47.2797],[28.1577,47.2937],[28.1159,47.3015],[28.0867,47.3279],[28.1239,47.3407],[28.181,47.3732],[28.207,47.3786],[28.2247,47.3931],[28.2258,47.4194],[28.2651,47.4338],[28.3068,47.4145],[28.3227,47.4121],[28.3389,47.4125],[28.3662,47.4201],[28.3754,47.4198],[28.3862,47.4152],[28.4211,47.4214],[28.4564,47.4376],[28.4925,47.4405],[28.5207,47.4176],[28.5329,47.3803],[28.5879,47.3559],[28.5796,47.3319]]]}},{"type":"Feature","properties":{"id":"MDA-1614","name":"Donduseni","nameBn":"ডনডোসেনি জেলা","type":"District","bounds":[27.5099,48.0489,28.0164,48.3784],"center":[27.7632,48.2339]},"geometry":{"type":"Polygon","coordinates":[[[27.8854,48.3784],[27.8967,48.3672],[27.9045,48.3625],[27.9264,48.3394],[27.9671,48.3289],[28.0032,48.3259],[28.0035,48.3251],[28.0164,48.2832],[28.0161,48.2406],[27.9738,48.2282],[27.952,48.1955],[27.9164,48.1898],[27.8835,48.2035],[27.8531,48.2091],[27.8516,48.1899],[27.8753,48.1821],[27.8778,48.1668],[27.8818,48.1546],[27.8919,48.1475],[27.8899,48.1315],[27.8544,48.1264],[27.8151,48.1308],[27.7756,48.1257],[27.759,48.1113],[27.7533,48.0927],[27.7342,48.0846],[27.717,48.0741],[27.7174,48.0631],[27.723,48.0534],[27.7088,48.0489],[27.6883,48.0546],[27.6468,48.0718],[27.6044,48.0785],[27.5791,48.1056],[27.5462,48.1204],[27.5302,48.1478],[27.5547,48.1759],[27.5618,48.1862],[27.5529,48.2],[27.5099,48.2373],[27.5233,48.2547],[27.545,48.2957],[27.5634,48.3138],[27.5751,48.3395],[27.5916,48.3567],[27.6538,48.3485],[27.7029,48.3564],[27.8085,48.3502],[27.8614,48.3676],[27.8853,48.3784],[27.8854,48.3784]]]}},{"type":"Feature","properties":{"id":"MDA-1619","name":"Drochia","nameBn":"ড্রোকাইয়া জেলা","type":"District","bounds":[27.6721,47.848,28.111,48.2091],"center":[27.8915,48.0267]},"geometry":{"type":"Polygon","coordinates":[[[28.0684,47.9011],[28.0042,47.8538],[27.9768,47.8536],[27.951,47.848],[27.9217,47.8532],[27.9128,47.8807],[27.9096,47.8992],[27.8887,47.91],[27.8254,47.9634],[27.7954,47.9622],[27.7717,47.9409],[27.7393,47.9291],[27.7031,47.9424],[27.6847,47.9527],[27.6721,47.9689],[27.6754,47.9777],[27.6798,47.9846],[27.6787,47.9953],[27.6733,48.0049],[27.6753,48.0135],[27.6835,48.0204],[27.6883,48.0546],[27.7088,48.0489],[27.723,48.0534],[27.7174,48.0631],[27.717,48.0741],[27.7342,48.0846],[27.7533,48.0927],[27.759,48.1113],[27.7756,48.1257],[27.8151,48.1308],[27.8544,48.1264],[27.8899,48.1315],[27.8919,48.1475],[27.8818,48.1546],[27.8778,48.1668],[27.8753,48.1821],[27.8516,48.1899],[27.8531,48.2091],[27.8835,48.2035],[27.9164,48.1898],[27.952,48.1955],[28.0612,48.1471],[28.0992,48.116],[28.111,48.0733],[28.0903,48.0618],[28.0642,48.0537],[28.038,48.0212],[28.0273,48.0044],[28.0689,47.9851],[28.0648,47.9613],[28.0741,47.9381],[28.0806,47.9309],[28.0833,47.9215],[28.0767,47.9115],[28.0684,47.9011]]]}},{"type":"Feature","properties":{"id":"MDA-1615","name":"Edineţ","nameBn":"এডিনেত জেলা","type":"District","bounds":[27.0343,47.9421,27.5618,48.3029],"center":[27.2978,48.1332]},"geometry":{"type":"Polygon","coordinates":[[[27.0958,48.0056],[27.0934,48.0084],[27.0915,48.0119],[27.09,48.0156],[27.089,48.0198],[27.1093,48.0261],[27.1093,48.0335],[27.0832,48.0437],[27.0592,48.0581],[27.0417,48.0773],[27.0343,48.1018],[27.0369,48.1073],[27.0474,48.1165],[27.048,48.1214],[27.0569,48.1223],[27.0798,48.1361],[27.0947,48.1631],[27.1161,48.1809],[27.1221,48.2094],[27.1258,48.2389],[27.1501,48.2555],[27.1739,48.2532],[27.1852,48.2344],[27.2138,48.2236],[27.243,48.2318],[27.2755,48.2335],[27.3011,48.2492],[27.294,48.2817],[27.3115,48.3029],[27.4034,48.2475],[27.5099,48.2373],[27.5529,48.2],[27.5618,48.1862],[27.5547,48.1759],[27.5302,48.1478],[27.5462,48.1204],[27.5472,48.096],[27.5563,48.0705],[27.5573,48.0607],[27.4772,48.021],[27.4379,48.0115],[27.4157,48.0115],[27.3946,48.0129],[27.3774,48.0035],[27.3519,48.0116],[27.3339,48.0299],[27.3039,48.0241],[27.278,48.0031],[27.2625,47.9742],[27.242,47.9521],[27.2144,47.9447],[27.1861,47.9427],[27.1783,47.9421],[27.1783,47.9441],[27.172,47.9464],[27.151,47.9578],[27.1629,47.965],[27.1698,47.9738],[27.1688,47.9831],[27.1572,47.992],[27.1437,47.9868],[27.1346,48.0005],[27.1215,48.0132],[27.0958,48.0056]]]}},{"type":"Feature","properties":{"id":"MDA-1635","name":"Floreşti","nameBn":"ফ্লরেস্তি জেলা","type":"District","bounds":[28.0648,47.6879,28.5341,48.0151],"center":[28.2994,47.8707]},"geometry":{"type":"Polygon","coordinates":[[[28.478,47.8886],[28.4274,47.8462],[28.439,47.8059],[28.4472,47.8107],[28.4547,47.8176],[28.4696,47.8152],[28.4843,47.8068],[28.5194,47.7938],[28.5341,47.7556],[28.505,47.7203],[28.4756,47.6914],[28.4584,47.6977],[28.4412,47.7063],[28.4213,47.6999],[28.4053,47.6879],[28.3794,47.7069],[28.3513,47.7233],[28.2752,47.7328],[28.277,47.7539],[28.2905,47.7811],[28.2568,47.7859],[28.2201,47.7877],[28.2017,47.8079],[28.1831,47.8337],[28.1576,47.8281],[28.1387,47.827],[28.1319,47.8501],[28.1198,47.8528],[28.1087,47.8543],[28.103,47.8648],[28.0993,47.8781],[28.0848,47.8902],[28.0684,47.9011],[28.0767,47.9115],[28.0833,47.9215],[28.0806,47.9309],[28.0741,47.9381],[28.0648,47.9613],[28.0689,47.9851],[28.1375,47.9931],[28.2075,47.9931],[28.2408,47.9908],[28.2729,47.9958],[28.2796,48.0061],[28.2871,48.0151],[28.3048,48.0102],[28.3223,48.002],[28.3697,47.9889],[28.3892,47.9929],[28.4086,48.0001],[28.4373,47.9868],[28.4666,47.9972],[28.4965,47.9878],[28.5055,47.9587],[28.4962,47.9155],[28.478,47.8886]]]}},{"type":"Feature","properties":{"id":"MDA-1620","name":"Făleşti","nameBn":"ফালেস্তি জেলা","type":"District","bounds":[27.4294,47.3674,28.0171,47.7736],"center":[27.7231,47.57]},"geometry":{"type":"Polygon","coordinates":[[[27.4313,47.5726],[27.4294,47.5781],[27.4919,47.6161],[27.562,47.6383],[27.6009,47.6363],[27.6377,47.6449],[27.6514,47.6714],[27.6645,47.679],[27.6767,47.6878],[27.7016,47.7182],[27.717,47.7196],[27.733,47.7141],[27.7622,47.7254],[27.7857,47.7462],[27.7956,47.7702],[27.8124,47.7736],[27.8336,47.7573],[27.8601,47.7507],[27.9042,47.7387],[27.9646,47.7362],[27.9458,47.7075],[27.9417,47.676],[28.0023,47.673],[28.0171,47.6193],[28.0156,47.5997],[27.9901,47.5938],[27.9765,47.584],[27.9647,47.5709],[27.931,47.5543],[27.9288,47.5304],[27.9604,47.5201],[27.9877,47.5202],[28.0057,47.5033],[27.9977,47.4794],[27.9758,47.463],[27.9515,47.468],[27.9271,47.4666],[27.9143,47.4608],[27.9156,47.4377],[27.9026,47.4321],[27.8334,47.4267],[27.766,47.4276],[27.7002,47.4198],[27.6821,47.4036],[27.6226,47.3879],[27.5966,47.3716],[27.5887,47.3674],[27.5864,47.3688],[27.5724,47.3752],[27.5803,47.406],[27.5625,47.4165],[27.5655,47.4283],[27.5694,47.4386],[27.5748,47.4463],[27.583,47.4507],[27.5759,47.4604],[27.5632,47.4683],[27.5482,47.4743],[27.5345,47.478],[27.533,47.4774],[27.5072,47.478],[27.5015,47.4799],[27.4975,47.4824],[27.4926,47.4845],[27.4837,47.4854],[27.4731,47.4918],[27.4667,47.5064],[27.4595,47.5332],[27.4569,47.5339],[27.4461,47.5349],[27.4421,47.5366],[27.4401,47.541],[27.4403,47.5501],[27.439,47.5537],[27.4358,47.5599],[27.4313,47.5726]]]}},{"type":"Feature","properties":{"id":"MDA-1621","name":"Glodeni","nameBn":"গ্লুডেনি জেলা","type":"District","bounds":[27.272,47.5781,27.8601,47.8674],"center":[27.5658,47.7495]},"geometry":{"type":"Polygon","coordinates":[[[27.4294,47.5781],[27.4284,47.581],[27.3971,47.5891],[27.3692,47.6083],[27.304,47.6665],[27.2811,47.693],[27.272,47.715],[27.2951,47.7182],[27.2951,47.7244],[27.2896,47.7317],[27.2911,47.7424],[27.2881,47.7507],[27.2991,47.7541],[27.3171,47.7626],[27.3337,47.7728],[27.3424,47.791],[27.3477,47.8105],[27.3812,47.838],[27.4217,47.8446],[27.4554,47.8428],[27.4835,47.8645],[27.5276,47.8674],[27.5733,47.8597],[27.6648,47.8241],[27.6989,47.8264],[27.7282,47.8379],[27.7627,47.8364],[27.8158,47.7947],[27.8484,47.7846],[27.8586,47.7694],[27.8601,47.7507],[27.8336,47.7573],[27.8124,47.7736],[27.7956,47.7702],[27.7857,47.7462],[27.7622,47.7254],[27.733,47.7141],[27.717,47.7196],[27.7016,47.7182],[27.6767,47.6878],[27.6645,47.679],[27.6514,47.6714],[27.6377,47.6449],[27.6009,47.6363],[27.562,47.6383],[27.4919,47.6161],[27.4294,47.5781]]]}},{"type":"Feature","properties":{"id":"MDA-1637","name":"Grigoriopol","nameBn":"গ্রিগোরিওপোল","type":"Territorial Unit","bounds":[29.2766,46.9352,29.603,47.3398],"center":[29.4396,47.1194]},"geometry":{"type":"Polygon","coordinates":[[[29.3709,47.3044],[29.3808,47.293],[29.3945,47.2847],[29.4096,47.2798],[29.4256,47.2787],[29.4417,47.2821],[29.4592,47.2935],[29.4661,47.3074],[29.4706,47.3227],[29.4809,47.3383],[29.5011,47.3398],[29.521,47.3389],[29.5399,47.3342],[29.5566,47.324],[29.5701,47.3068],[29.5793,47.2836],[29.5802,47.2604],[29.5687,47.2431],[29.544,47.2343],[29.5404,47.2125],[29.5506,47.1602],[29.5448,47.1356],[29.5304,47.1237],[29.5087,47.1194],[29.4809,47.1175],[29.4786,47.1146],[29.4779,47.1115],[29.4787,47.1085],[29.4809,47.1052],[29.5115,47.066],[29.5201,47.0599],[29.531,47.066],[29.5397,47.0789],[29.5514,47.0902],[29.5702,47.0914],[29.5834,47.0852],[29.5949,47.0746],[29.6021,47.061],[29.603,47.0458],[29.5954,47.0321],[29.5834,47.0228],[29.5725,47.0118],[29.565,46.9745],[29.5606,46.9613],[29.56,46.9612],[29.4784,46.9595],[29.4618,46.9511],[29.4617,46.951],[29.4597,46.9531],[29.4595,46.9534],[29.4355,46.9575],[29.4157,46.9526],[29.3967,46.9428],[29.3757,46.9352],[29.3496,46.937],[29.3353,46.9439],[29.3321,46.9454],[29.3159,46.9587],[29.303,46.975],[29.295,46.9922],[29.3089,46.9884],[29.3245,46.9884],[29.3409,46.992],[29.3665,47.003],[29.3702,47.0028],[29.3724,47.0043],[29.3772,47.0123],[29.3775,47.0127],[29.3736,47.0116],[29.3733,47.0116],[29.369,47.0181],[29.3639,47.0332],[29.3701,47.0332],[29.3795,47.0293],[29.3806,47.0289],[29.3821,47.0418],[29.3775,47.0708],[29.3713,47.0787],[29.3638,47.084],[29.3293,47.1082],[29.3291,47.1083],[29.3047,47.1165],[29.2986,47.1199],[29.295,47.122],[29.291,47.1287],[29.2924,47.1354],[29.2922,47.1358],[29.2926,47.1359],[29.2988,47.1378],[29.2964,47.1438],[29.2945,47.15],[29.2766,47.1964],[29.3028,47.2219],[29.3358,47.2429],[29.3472,47.2519],[29.3554,47.2636],[29.3543,47.277],[29.3521,47.2872],[29.3695,47.3038],[29.3707,47.3043],[29.3709,47.3044]]]}},{"type":"Feature","properties":{"id":"MDA-1639","name":"Hîncesti","nameBn":"হিনকেস্তি জেলা","type":"District","bounds":[28.0969,46.6126,28.7356,47.0491],"center":[28.416,46.8298]},"geometry":{"type":"Polygon","coordinates":[[[28.1226,46.8423],[28.1243,46.8542],[28.1243,46.8616],[28.1131,46.8714],[28.1143,46.8834],[28.1136,46.8948],[28.0969,46.9026],[28.1054,46.9177],[28.105,46.9202],[28.114,46.9185],[28.2232,46.9054],[28.2561,46.9413],[28.3011,46.9728],[28.3259,46.9768],[28.3433,46.9938],[28.3364,47.0086],[28.3266,47.0222],[28.3425,47.0423],[28.3949,46.9933],[28.408,46.9737],[28.3979,46.9457],[28.424,46.9366],[28.4636,46.976],[28.4912,47.0171],[28.4614,47.0322],[28.4719,47.0429],[28.4868,47.0491],[28.5186,47.026],[28.5523,47.0109],[28.5493,46.9932],[28.5423,46.9771],[28.5882,46.9418],[28.638,46.9124],[28.6494,46.9031],[28.6539,46.8887],[28.6545,46.874],[28.6609,46.8617],[28.6789,46.87],[28.6946,46.8859],[28.724,46.865],[28.7356,46.8233],[28.7274,46.8053],[28.7324,46.7861],[28.7028,46.7794],[28.6752,46.7671],[28.6499,46.7525],[28.6213,46.7438],[28.6071,46.6995],[28.5837,46.6685],[28.5765,46.708],[28.5428,46.7175],[28.5041,46.7005],[28.4687,46.6952],[28.4355,46.7168],[28.3985,46.7235],[28.3926,46.7114],[28.387,46.6978],[28.3715,46.6971],[28.3596,46.6906],[28.3796,46.6714],[28.3762,46.6521],[28.3784,46.6416],[28.3859,46.6291],[28.3766,46.6211],[28.3255,46.6126],[28.3033,46.6202],[28.2949,46.642],[28.2628,46.6366],[28.2451,46.6315],[28.2443,46.6354],[28.2341,46.6624],[28.1781,46.7398],[28.1782,46.7586],[28.1378,46.8062],[28.1215,46.8343],[28.1226,46.8423]]]}},{"type":"Feature","properties":{"id":"MDA-1640","name":"Ialoveni","nameBn":"লালোভেনি জেলা","type":"District","bounds":[28.4868,46.7892,29.088,47.0637],"center":[28.7874,46.8905]},"geometry":{"type":"Polygon","coordinates":[[[28.6609,46.8617],[28.6545,46.874],[28.6539,46.8887],[28.6494,46.9031],[28.638,46.9124],[28.5882,46.9418],[28.5423,46.9771],[28.5493,46.9932],[28.5523,47.0109],[28.5186,47.026],[28.4868,47.0491],[28.4966,47.0558],[28.5046,47.0637],[28.5368,47.0614],[28.5654,47.0623],[28.5902,47.029],[28.6278,47.0123],[28.6418,47.0244],[28.6594,47.0332],[28.6845,47.0262],[28.7085,47.015],[28.7496,47.0165],[28.7718,47.0532],[28.7875,47.0355],[28.7899,47.0091],[28.7803,46.999],[28.7776,46.9881],[28.7933,46.9837],[28.8105,46.9839],[28.9081,46.9611],[28.9226,46.9289],[28.9505,46.9198],[28.9596,46.9322],[28.9712,46.9411],[28.9928,46.9371],[29.0159,46.9307],[29.0412,46.9268],[29.0617,46.9146],[29.0583,46.8955],[29.0429,46.8816],[29.0496,46.8601],[29.088,46.852],[29.0583,46.8335],[29.0264,46.8178],[28.9981,46.8125],[28.9712,46.8036],[28.9527,46.7892],[28.9462,46.7893],[28.9399,46.7922],[28.907,46.812],[28.8903,46.8045],[28.8732,46.7936],[28.8492,46.7962],[28.8255,46.7948],[28.7801,46.7958],[28.7356,46.8233],[28.724,46.865],[28.6946,46.8859],[28.6789,46.87],[28.6609,46.8617]]]}},{"type":"Feature","properties":{"id":"MDA-1641","name":"Leova","nameBn":"লিওভা জেলা","type":"District","bounds":[28.219,46.3886,28.6025,46.7235],"center":[28.4105,46.5654]},"geometry":{"type":"Polygon","coordinates":[[[28.2381,46.4756],[28.2341,46.4781],[28.2211,46.4958],[28.219,46.5037],[28.2211,46.5412],[28.2248,46.5487],[28.2341,46.5531],[28.2254,46.5696],[28.2305,46.5839],[28.2405,46.5964],[28.2471,46.6072],[28.2474,46.6208],[28.2451,46.6315],[28.2628,46.6366],[28.2949,46.642],[28.3033,46.6202],[28.3255,46.6126],[28.3766,46.6211],[28.3859,46.6291],[28.3784,46.6416],[28.3762,46.6521],[28.3796,46.6714],[28.3596,46.6906],[28.3715,46.6971],[28.387,46.6978],[28.3926,46.7114],[28.3985,46.7235],[28.4355,46.7168],[28.4687,46.6952],[28.5041,46.7005],[28.5428,46.7175],[28.5765,46.708],[28.5837,46.6685],[28.5862,46.6468],[28.6025,46.633],[28.5974,46.6218],[28.5897,46.6111],[28.5874,46.5968],[28.5875,46.5817],[28.5734,46.5676],[28.579,46.5565],[28.5885,46.5323],[28.5856,46.5026],[28.5755,46.4859],[28.5598,46.4762],[28.5457,46.4747],[28.5393,46.4639],[28.4721,46.4264],[28.4509,46.4327],[28.4291,46.4351],[28.4149,46.4266],[28.4102,46.4083],[28.3765,46.3886],[28.3383,46.3997],[28.3372,46.4107],[28.3379,46.4206],[28.3205,46.4237],[28.302,46.417],[28.2809,46.4121],[28.2674,46.397],[28.249,46.3887],[28.2294,46.3933],[28.2268,46.3955],[28.2286,46.3961],[28.2333,46.4018],[28.2261,46.4154],[28.2402,46.4203],[28.2461,46.4279],[28.2472,46.4362],[28.2471,46.4672],[28.2458,46.4755],[28.2423,46.4765],[28.2381,46.4756]]]}},{"type":"Feature","properties":{"id":"MDA-1642","name":"Nisporeni","nameBn":"নিস্পরেনি জেলা","type":"District","bounds":[27.9692,46.9054,28.5046,47.2509],"center":[28.2369,47.0476]},"geometry":{"type":"Polygon","coordinates":[[[28.105,46.9202],[28.1023,46.9351],[28.0827,46.9715],[28.0691,46.9885],[28.0381,47.0155],[28.0515,47.0246],[28.0648,47.042],[28.0469,47.0498],[28.0209,47.0521],[28.0111,47.0735],[28.0105,47.0872],[28.0075,47.1005],[27.9998,47.1037],[27.992,47.1051],[27.9765,47.1175],[27.9692,47.1393],[27.9776,47.1915],[28.0004,47.2368],[28.0276,47.241],[28.057,47.2418],[28.091,47.2509],[28.149,47.2073],[28.2156,47.18],[28.2438,47.1733],[28.2713,47.162],[28.2989,47.1578],[28.3269,47.1572],[28.3396,47.1473],[28.3517,47.1324],[28.3443,47.118],[28.3339,47.1055],[28.349,47.0791],[28.3797,47.0765],[28.3988,47.0837],[28.4187,47.0855],[28.4345,47.0771],[28.4527,47.0734],[28.4824,47.0819],[28.5046,47.0637],[28.4966,47.0558],[28.4868,47.0491],[28.4719,47.0429],[28.4614,47.0322],[28.4912,47.0171],[28.4636,46.976],[28.424,46.9366],[28.3979,46.9457],[28.408,46.9737],[28.3949,46.9933],[28.3425,47.0423],[28.3266,47.0222],[28.3364,47.0086],[28.3433,46.9938],[28.3259,46.9768],[28.3011,46.9728],[28.2561,46.9413],[28.2232,46.9054],[28.114,46.9185],[28.105,46.9202]]]}},{"type":"Feature","properties":{"id":"MDA-1616","name":"Ocniţa","nameBn":"ওকনিতা জেলা","type":"District","bounds":[27.2519,48.2373,27.8854,48.486],"center":[27.5685,48.4024]},"geometry":{"type":"Polygon","coordinates":[[[27.583,48.486],[27.6048,48.4841],[27.6069,48.4578],[27.627,48.4513],[27.7518,48.452],[27.7853,48.4416],[27.8499,48.4096],[27.8648,48.3989],[27.8854,48.3784],[27.8853,48.3784],[27.8614,48.3676],[27.8085,48.3502],[27.7029,48.3564],[27.6538,48.3485],[27.5916,48.3567],[27.5751,48.3395],[27.5634,48.3138],[27.545,48.2957],[27.5233,48.2547],[27.5099,48.2373],[27.4034,48.2475],[27.3115,48.3029],[27.2697,48.3312],[27.2536,48.3752],[27.2519,48.3783],[27.306,48.4237],[27.3422,48.4361],[27.3614,48.4328],[27.3898,48.415],[27.4035,48.4115],[27.4202,48.4171],[27.4809,48.4514],[27.5038,48.4724],[27.5452,48.4724],[27.5571,48.4744],[27.583,48.486]]]}},{"type":"Feature","properties":{"id":"MDA-1643","name":"Orhei","nameBn":"ওরহেয় জেলা","type":"District","bounds":[28.5207,47.2025,29.1105,47.5991],"center":[28.8156,47.3961]},"geometry":{"type":"Polygon","coordinates":[[[29.0217,47.3331],[28.9865,47.3095],[28.9443,47.2988],[28.9064,47.2758],[28.8655,47.2605],[28.827,47.2648],[28.8018,47.2388],[28.806,47.2104],[28.7899,47.2025],[28.7745,47.2231],[28.7621,47.2463],[28.7386,47.2484],[28.7075,47.2414],[28.6884,47.2611],[28.6754,47.286],[28.6668,47.31],[28.6551,47.3312],[28.6339,47.3324],[28.6158,47.3206],[28.5974,47.3225],[28.5796,47.3319],[28.5879,47.3559],[28.5329,47.3803],[28.5207,47.4176],[28.5772,47.4346],[28.5777,47.4461],[28.5703,47.4554],[28.5716,47.4647],[28.58,47.4737],[28.58,47.484],[28.5824,47.4941],[28.6028,47.5056],[28.6254,47.5138],[28.7093,47.5546],[28.729,47.5541],[28.748,47.5506],[28.7683,47.5371],[28.793,47.533],[28.8212,47.5408],[28.861,47.5752],[28.8856,47.5782],[28.8978,47.5872],[28.9049,47.5991],[28.9298,47.5945],[28.955,47.5798],[28.9878,47.5452],[29.0267,47.5295],[29.033,47.5187],[29.0486,47.5062],[29.0489,47.5061],[29.0928,47.4874],[29.093,47.4872],[29.1038,47.4782],[29.108,47.4694],[29.1105,47.464],[29.1071,47.4542],[29.0901,47.4373],[29.0824,47.4064],[29.0655,47.4021],[29.0514,47.3904],[29.0254,47.4009],[29.0084,47.3964],[28.9994,47.3766],[28.9819,47.3633],[29.0031,47.351],[29.0217,47.3331]]]}},{"type":"Feature","properties":{"id":"MDA-1645","name":"Rezina","nameBn":"রেজিনা","type":"District","bounds":[28.9299,47.4656,29.2386,47.9802],"center":[29.084,47.7344]},"geometry":{"type":"Polygon","coordinates":[[[28.9361,47.9422],[28.9504,47.9348],[28.9808,47.9264],[29.0172,47.9311],[29.061,47.9698],[29.0927,47.9802],[29.11,47.9797],[29.124,47.976],[29.1363,47.9682],[29.148,47.9554],[29.1558,47.9399],[29.1646,47.9056],[29.1726,47.891],[29.1866,47.8836],[29.226,47.8756],[29.236,47.8707],[29.2328,47.8571],[29.2174,47.8429],[29.1989,47.8295],[29.1867,47.8182],[29.1777,47.8007],[29.1778,47.7897],[29.1874,47.7832],[29.222,47.7748],[29.2347,47.7668],[29.2386,47.756],[29.2267,47.7432],[29.197,47.7175],[29.1915,47.6863],[29.1924,47.6509],[29.1821,47.6132],[29.1562,47.5828],[29.1305,47.5596],[29.1174,47.5333],[29.1304,47.4932],[29.1305,47.4931],[29.1306,47.493],[29.1307,47.4929],[29.1372,47.484],[29.1371,47.4837],[29.136,47.4794],[29.1268,47.4656],[29.1083,47.4694],[29.108,47.4694],[29.1038,47.4782],[29.093,47.4872],[29.0928,47.4874],[29.0489,47.5061],[29.0486,47.5062],[29.033,47.5187],[29.0267,47.5295],[29.0247,47.5331],[29.0213,47.5502],[29.0206,47.571],[29.0157,47.5821],[28.9929,47.6047],[28.9865,47.6223],[28.989,47.6271],[28.9935,47.6389],[28.9954,47.6509],[28.9903,47.6564],[28.988,47.6608],[28.9803,47.6874],[28.9756,47.7434],[28.9803,47.7656],[29.0175,47.8269],[29.0181,47.8535],[28.9806,47.8753],[28.9803,47.8755],[28.9421,47.8832],[28.9362,47.8915],[28.9299,47.8947],[28.9311,47.9257],[28.9361,47.9422]]]}},{"type":"Feature","properties":{"id":"MDA-1644","name":"Rezina","nameBn":"রেজিনা জেলা","type":"District","bounds":[28.6112,47.5295,29.0267,47.8832],"center":[28.819,47.6683]},"geometry":{"type":"Polygon","coordinates":[[[28.7093,47.5546],[28.7108,47.5823],[28.7185,47.6046],[28.69,47.6201],[28.6806,47.6354],[28.6673,47.6453],[28.6112,47.6666],[28.637,47.717],[28.693,47.7448],[28.7664,47.7355],[28.7916,47.7865],[28.8154,47.7955],[28.8403,47.802],[28.8397,47.8108],[28.824,47.815],[28.8415,47.8321],[28.9118,47.8243],[28.9164,47.8392],[28.9283,47.8494],[28.946,47.8462],[28.963,47.8417],[28.9554,47.8649],[28.9423,47.8831],[28.9421,47.8832],[28.9803,47.8755],[28.9806,47.8753],[29.0181,47.8535],[29.0175,47.8269],[28.9803,47.7656],[28.9756,47.7434],[28.9803,47.6874],[28.988,47.6608],[28.9903,47.6564],[28.9954,47.6509],[28.9935,47.6389],[28.989,47.6271],[28.9865,47.6223],[28.9929,47.6047],[29.0157,47.5821],[29.0206,47.571],[29.0213,47.5502],[29.0247,47.5331],[29.0267,47.5295],[28.9878,47.5452],[28.955,47.5798],[28.9298,47.5945],[28.9049,47.5991],[28.8978,47.5872],[28.8856,47.5782],[28.861,47.5752],[28.8212,47.5408],[28.793,47.533],[28.7683,47.5371],[28.748,47.5506],[28.729,47.5541],[28.7093,47.5546]]]}},{"type":"Feature","properties":{"id":"MDA-1617","name":"Rîşcani","nameBn":"রিসকানি জেলা","type":"District","bounds":[27.1607,47.7507,27.9528,48.1204],"center":[27.5565,47.9614]},"geometry":{"type":"Polygon","coordinates":[[[27.2881,47.7507],[27.2875,47.7523],[27.2824,47.7557],[27.2647,47.7646],[27.2608,47.7691],[27.2562,47.7775],[27.2449,47.7926],[27.2311,47.8071],[27.2192,47.8138],[27.2534,47.8281],[27.2458,47.8366],[27.2349,47.8402],[27.2228,47.8427],[27.2124,47.8479],[27.2132,47.8541],[27.2115,47.885],[27.2124,47.8895],[27.1942,47.9041],[27.1715,47.9126],[27.1607,47.9217],[27.1783,47.9379],[27.1783,47.9421],[27.1861,47.9427],[27.2144,47.9447],[27.242,47.9521],[27.2625,47.9742],[27.278,48.0031],[27.3039,48.0241],[27.3339,48.0299],[27.3519,48.0116],[27.3774,48.0035],[27.3946,48.0129],[27.4157,48.0115],[27.4379,48.0115],[27.4772,48.021],[27.5573,48.0607],[27.5563,48.0705],[27.5472,48.096],[27.5462,48.1204],[27.5791,48.1056],[27.6044,48.0785],[27.6468,48.0718],[27.6883,48.0546],[27.6835,48.0204],[27.6753,48.0135],[27.6733,48.0049],[27.6787,47.9953],[27.6798,47.9846],[27.6754,47.9777],[27.6721,47.9689],[27.6847,47.9527],[27.7031,47.9424],[27.7393,47.9291],[27.7717,47.9409],[27.7954,47.9622],[27.8254,47.9634],[27.8887,47.91],[27.9096,47.8992],[27.9128,47.8807],[27.9217,47.8532],[27.951,47.848],[27.9528,47.8162],[27.9015,47.7985],[27.8484,47.7846],[27.8158,47.7947],[27.7627,47.8364],[27.7282,47.8379],[27.6989,47.8264],[27.6648,47.8241],[27.5733,47.8597],[27.5276,47.8674],[27.4835,47.8645],[27.4554,47.8428],[27.4217,47.8446],[27.3812,47.838],[27.3477,47.8105],[27.3424,47.791],[27.3337,47.7728],[27.3171,47.7626],[27.2991,47.7541],[27.2881,47.7507]]]}},{"type":"Feature","properties":{"id":"MDA-1653","name":"Soroca","nameBn":"সরোকা জেলা","type":"District","bounds":[27.952,47.9851,28.5434,48.3259],"center":[28.2477,48.1034]},"geometry":{"type":"Polygon","coordinates":[[[28.0032,48.3259],[28.0559,48.3215],[28.0764,48.3149],[28.0928,48.3021],[28.0983,48.2841],[28.0787,48.2449],[28.0933,48.2374],[28.1156,48.2367],[28.1311,48.2396],[28.1621,48.2572],[28.1785,48.2589],[28.1858,48.2424],[28.1894,48.2231],[28.1999,48.2117],[28.217,48.2081],[28.2403,48.2116],[28.2617,48.22],[28.2775,48.2291],[28.2945,48.2365],[28.3406,48.2401],[28.3577,48.2386],[28.3682,48.2306],[28.37,48.2116],[28.3634,48.191],[28.3523,48.1819],[28.3379,48.1755],[28.3222,48.1632],[28.3156,48.1493],[28.3174,48.1354],[28.3286,48.127],[28.3496,48.1297],[28.365,48.1415],[28.3756,48.1566],[28.3886,48.1686],[28.4116,48.1707],[28.4273,48.1634],[28.4369,48.1499],[28.4357,48.1347],[28.419,48.1222],[28.4474,48.0828],[28.4594,48.0745],[28.4796,48.0649],[28.49,48.0655],[28.4937,48.0748],[28.4942,48.0918],[28.4998,48.1089],[28.5007,48.1088],[28.5434,48.088],[28.5191,48.0523],[28.4813,48.0332],[28.4666,47.9972],[28.4373,47.9868],[28.4086,48.0001],[28.3892,47.9929],[28.3697,47.9889],[28.3223,48.002],[28.3048,48.0102],[28.2871,48.0151],[28.2796,48.0061],[28.2729,47.9958],[28.2408,47.9908],[28.2075,47.9931],[28.1375,47.9931],[28.0689,47.9851],[28.0273,48.0044],[28.038,48.0212],[28.0642,48.0537],[28.0903,48.0618],[28.111,48.0733],[28.0992,48.116],[28.0612,48.1471],[27.952,48.1955],[27.9738,48.2282],[28.0161,48.2406],[28.0164,48.2832],[28.0035,48.3251],[28.0032,48.3259]]]}},{"type":"Feature","properties":{"id":"MDA-1647","name":"Străşeni","nameBn":"স্ট্রাসেনি জেলা","type":"District","bounds":[28.3269,47.0123,28.8425,47.3324],"center":[28.5847,47.1828]},"geometry":{"type":"Polygon","coordinates":[[[28.7899,47.2025],[28.7787,47.1688],[28.7847,47.1386],[28.8191,47.1211],[28.8425,47.0953],[28.7985,47.0807],[28.7527,47.0867],[28.7094,47.1201],[28.6618,47.1392],[28.6626,47.1101],[28.7355,47.0634],[28.7718,47.0532],[28.7496,47.0165],[28.7085,47.015],[28.6845,47.0262],[28.6594,47.0332],[28.6418,47.0244],[28.6278,47.0123],[28.5902,47.029],[28.5654,47.0623],[28.5368,47.0614],[28.5046,47.0637],[28.4824,47.0819],[28.4527,47.0734],[28.4345,47.0771],[28.4187,47.0855],[28.3988,47.0837],[28.3797,47.0765],[28.349,47.0791],[28.3339,47.1055],[28.3443,47.118],[28.3517,47.1324],[28.3396,47.1473],[28.3269,47.1572],[28.3424,47.1704],[28.3906,47.1736],[28.416,47.1816],[28.4664,47.2135],[28.4851,47.2297],[28.4807,47.2545],[28.4644,47.267],[28.4556,47.2816],[28.5157,47.3189],[28.5607,47.3224],[28.5796,47.3319],[28.5974,47.3225],[28.6158,47.3206],[28.6339,47.3324],[28.6551,47.3312],[28.6668,47.31],[28.6754,47.286],[28.6884,47.2611],[28.7075,47.2414],[28.7386,47.2484],[28.7621,47.2463],[28.7745,47.2231],[28.7899,47.2025]]]}},{"type":"Feature","properties":{"id":"MDA-1628","name":"Stîngă Nistrului","nameBn":"স্টাঙ্গা নিস্তরুলুই","type":"District","bounds":[28.9819,47.0742,29.3709,47.484],"center":[29.1763,47.1532]},"geometry":{"type":"Polygon","coordinates":[[[29.1372,47.484],[29.14,47.4802],[29.1556,47.45],[29.1639,47.4394],[29.1821,47.4299],[29.1924,47.4358],[29.2019,47.4466],[29.2184,47.4516],[29.2326,47.4463],[29.2507,47.4254],[29.2814,47.4115],[29.2882,47.4008],[29.2927,47.3889],[29.3008,47.3782],[29.3147,47.3727],[29.3304,47.3705],[29.3458,47.3658],[29.3589,47.3527],[29.3641,47.3369],[29.3645,47.3224],[29.3676,47.3082],[29.3709,47.3044],[29.3707,47.3043],[29.3695,47.3038],[29.3521,47.2872],[29.3543,47.277],[29.3554,47.2636],[29.3472,47.2519],[29.3358,47.2429],[29.3028,47.2219],[29.2766,47.1964],[29.2945,47.15],[29.2964,47.1438],[29.2988,47.1378],[29.2926,47.1359],[29.2922,47.1358],[29.2909,47.1402],[29.2908,47.1404],[29.2779,47.1424],[29.2644,47.1481],[29.2639,47.1483],[29.2499,47.1583],[29.2495,47.1585],[29.2365,47.1624],[29.2267,47.1493],[29.2208,47.1493],[29.2205,47.1493],[29.2128,47.158],[29.2126,47.1581],[29.2003,47.1631],[29.1876,47.1629],[29.1789,47.1561],[29.1797,47.1453],[29.1876,47.1348],[29.1938,47.1238],[29.1892,47.1118],[29.1791,47.1095],[29.1667,47.1127],[29.1561,47.1136],[29.1479,47.0966],[29.13,47.0818],[29.1243,47.0742],[29.1189,47.078],[29.0987,47.0921],[29.0985,47.0923],[29.0844,47.0989],[29.0696,47.1014],[29.0691,47.1015],[29.0784,47.1169],[29.0942,47.1349],[29.1119,47.1499],[29.1444,47.1629],[29.1632,47.1919],[29.1789,47.1971],[29.1633,47.2308],[29.1633,47.2309],[29.1896,47.2625],[29.1745,47.2903],[29.1335,47.2791],[29.1253,47.2743],[29.1252,47.2742],[29.151,47.2448],[29.1101,47.2336],[29.0737,47.2463],[29.0767,47.2698],[29.0711,47.2958],[29.0217,47.3331],[29.0031,47.351],[28.9819,47.3633],[28.9994,47.3766],[29.0084,47.3964],[29.0254,47.4009],[29.0514,47.3904],[29.0655,47.4021],[29.0824,47.4064],[29.0901,47.4373],[29.1071,47.4542],[29.1105,47.464],[29.108,47.4694],[29.1083,47.4694],[29.1268,47.4656],[29.136,47.4794],[29.1371,47.4837],[29.1372,47.484]]]}},{"type":"Feature","properties":{"id":"MDA-1622","name":"Sîngerei","nameBn":"সিঙ্গেরি জেলা","type":"District","bounds":[27.9288,47.4414,28.4167,47.9011],"center":[28.1728,47.6929]},"geometry":{"type":"Polygon","coordinates":[[[27.951,47.848],[27.9768,47.8536],[28.0042,47.8538],[28.0684,47.9011],[28.0848,47.8902],[28.0993,47.8781],[28.103,47.8648],[28.1087,47.8543],[28.1198,47.8528],[28.1319,47.8501],[28.1387,47.827],[28.1576,47.8281],[28.1831,47.8337],[28.2017,47.8079],[28.2201,47.7877],[28.2568,47.7859],[28.2905,47.7811],[28.277,47.7539],[28.2752,47.7328],[28.3513,47.7233],[28.3794,47.7069],[28.4053,47.6879],[28.4076,47.658],[28.4167,47.6295],[28.4127,47.6103],[28.3892,47.6076],[28.375,47.6016],[28.3638,47.59],[28.36,47.5786],[28.3552,47.5686],[28.3205,47.5636],[28.225,47.5713],[28.1709,47.5538],[28.1606,47.5337],[28.1711,47.5126],[28.1688,47.4826],[28.1513,47.458],[28.1048,47.4601],[28.0661,47.4445],[28.0479,47.4414],[28.0287,47.4564],[27.9758,47.463],[27.9977,47.4794],[28.0057,47.5033],[27.9877,47.5202],[27.9604,47.5201],[27.9288,47.5304],[27.931,47.5543],[27.9647,47.5709],[27.9765,47.584],[27.9901,47.5938],[28.0156,47.5997],[28.0171,47.6193],[28.0023,47.673],[27.9417,47.676],[27.9458,47.7075],[27.9646,47.7362],[27.9924,47.738],[28.0111,47.7093],[28.0297,47.7096],[28.0457,47.7198],[28.0549,47.7318],[28.05,47.7439],[28.0445,47.7822],[28.0136,47.7932],[27.9768,47.7889],[27.9528,47.8162],[27.951,47.848]]]}},{"type":"Feature","properties":{"id":"MDA-1625","name":"Taraclia","nameBn":"তারাকলিয়া জেলা","type":"District","bounds":[28.3917,45.7355,29.0154,46.2212],"center":[28.7033,45.8995]},"geometry":{"type":"Polygon","coordinates":[[[28.9841,46.2212],[29.0098,46.2044],[29.0154,46.1826],[29.0035,46.1589],[28.9808,46.1321],[28.9464,46.1051],[28.9388,46.0893],[28.9412,46.0647],[28.9589,46.021],[28.9569,46.0014],[28.932,45.9932],[28.7576,45.9612],[28.7402,45.9532],[28.7292,45.9386],[28.7284,45.922],[28.7423,45.8873],[28.7464,45.8706],[28.745,45.8505],[28.7383,45.8376],[28.7256,45.8288],[28.7064,45.8211],[28.6773,45.8166],[28.6698,45.812],[28.6694,45.8063],[28.6719,45.7973],[28.6733,45.7869],[28.6698,45.7773],[28.6436,45.7665],[28.5767,45.7619],[28.5606,45.7432],[28.5635,45.7355],[28.5631,45.7356],[28.5499,45.7374],[28.5406,45.7771],[28.5149,45.8027],[28.4825,45.8215],[28.4422,45.8261],[28.4196,45.8493],[28.3917,45.8655],[28.4071,45.8918],[28.4378,45.8993],[28.4566,45.9077],[28.4682,45.9239],[28.4593,45.9381],[28.4453,45.9491],[28.4377,45.9792],[28.439,46.0112],[28.4522,46.0502],[28.4587,46.0879],[28.497,46.0889],[28.5345,46.0815],[28.5713,46.0644],[28.6007,46.043],[28.5873,46.0264],[28.5903,46.0121],[28.597,45.999],[28.6222,45.9667],[28.663,45.9678],[28.8283,46.0096],[28.8875,46.0766],[28.9162,46.1666],[28.9627,46.198],[28.9841,46.2212]]]}},{"type":"Feature","properties":{"id":"MDA-1648","name":"Teleneşti","nameBn":"তেলেনেস্তি জেলা","type":"District","bounds":[28.1513,47.4121,28.7185,47.7556],"center":[28.4349,47.566]},"geometry":{"type":"Polygon","coordinates":[[[28.5341,47.7556],[28.5829,47.731],[28.637,47.717],[28.6112,47.6666],[28.6673,47.6453],[28.6806,47.6354],[28.69,47.6201],[28.7185,47.6046],[28.7108,47.5823],[28.7093,47.5546],[28.6254,47.5138],[28.6028,47.5056],[28.5824,47.4941],[28.58,47.484],[28.58,47.4737],[28.5716,47.4647],[28.5703,47.4554],[28.5777,47.4461],[28.5772,47.4346],[28.5207,47.4176],[28.4925,47.4405],[28.4564,47.4376],[28.4211,47.4214],[28.3862,47.4152],[28.3754,47.4198],[28.3662,47.4201],[28.3389,47.4125],[28.3227,47.4121],[28.3068,47.4145],[28.2651,47.4338],[28.2258,47.4194],[28.1875,47.4368],[28.1513,47.458],[28.1688,47.4826],[28.1711,47.5126],[28.1606,47.5337],[28.1709,47.5538],[28.225,47.5713],[28.3205,47.5636],[28.3552,47.5686],[28.36,47.5786],[28.3638,47.59],[28.375,47.6016],[28.3892,47.6076],[28.4127,47.6103],[28.4167,47.6295],[28.4076,47.658],[28.4053,47.6879],[28.4213,47.6999],[28.4412,47.7063],[28.4584,47.6977],[28.4756,47.6914],[28.505,47.7203],[28.5341,47.7556]]]}},{"type":"Feature","properties":{"id":"MDA-1638","name":"Transnistria","nameBn":"ট্রান্সনিস্ট্রিয়া","type":"District","bounds":[29.1252,47.2308,29.1896,47.2903],"center":[29.1574,47.2616]},"geometry":{"type":"Polygon","coordinates":[[[29.1633,47.2308],[29.151,47.2448],[29.1252,47.2742],[29.1253,47.2743],[29.1335,47.2791],[29.1745,47.2903],[29.1896,47.2625],[29.1633,47.2309],[29.1633,47.2308]]]}},{"type":"Feature","properties":{"id":"MDA-1623","name":"Ungheni","nameBn":"আনগেনি জেলা","type":"District","bounds":[27.5887,47.0155,28.2258,47.468],"center":[27.9072,47.2556]},"geometry":{"type":"Polygon","coordinates":[[[28.0083,47.0263],[27.9866,47.0332],[27.9631,47.0434],[27.9387,47.0466],[27.9384,47.0611],[27.9259,47.0688],[27.8976,47.0814],[27.867,47.1046],[27.8577,47.1093],[27.8482,47.1114],[27.8438,47.1144],[27.8499,47.1217],[27.8499,47.1285],[27.8066,47.1446],[27.7947,47.1558],[27.8059,47.1582],[27.8077,47.1625],[27.8048,47.1685],[27.8021,47.1763],[27.8003,47.177],[27.7883,47.2043],[27.763,47.2263],[27.7524,47.2389],[27.7536,47.2514],[27.7333,47.2756],[27.7228,47.2833],[27.6978,47.2875],[27.6899,47.2909],[27.6823,47.2953],[27.6717,47.2999],[27.6447,47.304],[27.6369,47.3067],[27.624,47.3214],[27.5999,47.3607],[27.5887,47.3674],[27.5966,47.3716],[27.6226,47.3879],[27.6821,47.4036],[27.7002,47.4198],[27.766,47.4276],[27.8334,47.4267],[27.9026,47.4321],[27.9156,47.4377],[27.9143,47.4608],[27.9271,47.4666],[27.9515,47.468],[27.9758,47.463],[28.0287,47.4564],[28.0479,47.4414],[28.0661,47.4445],[28.1048,47.4601],[28.1513,47.458],[28.1875,47.4368],[28.2258,47.4194],[28.2247,47.3931],[28.207,47.3786],[28.181,47.3732],[28.1239,47.3407],[28.0867,47.3279],[28.1159,47.3015],[28.1577,47.2937],[28.1226,47.2797],[28.091,47.2509],[28.057,47.2418],[28.0276,47.241],[28.0004,47.2368],[27.9776,47.1915],[27.9692,47.1393],[27.9765,47.1175],[27.992,47.1051],[27.9998,47.1037],[28.0075,47.1005],[28.0105,47.0872],[28.0111,47.0735],[28.0209,47.0521],[28.0469,47.0498],[28.0648,47.042],[28.0515,47.0246],[28.0381,47.0155],[28.037,47.0165],[28.028,47.033],[28.0083,47.0263]]]}},{"type":"Feature","properties":{"id":"MDA-1646","name":"Şoldăneşti","nameBn":"সোল্ডানেস্তি জেলা","type":"District","bounds":[28.4274,47.717,28.963,47.9828],"center":[28.6952,47.8423]},"geometry":{"type":"Polygon","coordinates":[[[28.637,47.717],[28.5829,47.731],[28.5341,47.7556],[28.5194,47.7938],[28.4843,47.8068],[28.4696,47.8152],[28.4547,47.8176],[28.4472,47.8107],[28.439,47.8059],[28.4274,47.8462],[28.478,47.8886],[28.504,47.8833],[28.5305,47.8929],[28.5692,47.8871],[28.6008,47.863],[28.637,47.8421],[28.6692,47.8581],[28.6568,47.8772],[28.6579,47.8987],[28.6832,47.9339],[28.7204,47.9527],[28.7383,47.953],[28.7556,47.9572],[28.7703,47.9708],[28.776,47.9741],[28.7845,47.9825],[28.7848,47.9828],[28.7851,47.9826],[28.8128,47.9654],[28.8303,47.9411],[28.8289,47.9171],[28.8409,47.9106],[28.861,47.8997],[28.9421,47.8832],[28.9423,47.8831],[28.9554,47.8649],[28.963,47.8417],[28.946,47.8462],[28.9283,47.8494],[28.9164,47.8392],[28.9118,47.8243],[28.8415,47.8321],[28.824,47.815],[28.8397,47.8108],[28.8403,47.802],[28.8154,47.7955],[28.7916,47.7865],[28.7664,47.7355],[28.693,47.7448],[28.637,47.717]]]}},{"type":"Feature","properties":{"id":"MDA-1651","name":"Ștefan Vodă","nameBn":"স্টেফান ভোদা জেলা","type":"District","bounds":[29.4167,46.3394,30.1316,46.7238],"center":[29.7739,46.5031]},"geometry":{"type":"Polygon","coordinates":[[[29.8988,46.5531],[29.9019,46.5308],[29.9161,46.5188],[29.9602,46.5059],[29.9621,46.5034],[29.967,46.4939],[29.9706,46.4917],[29.9771,46.4932],[29.9893,46.4987],[29.9949,46.4985],[30.0028,46.4942],[30.0094,46.4881],[30.0217,46.4707],[30.0141,46.462],[30.06,46.4368],[30.077,46.4228],[30.0869,46.4289],[30.102,46.4307],[30.1182,46.4287],[30.1316,46.4228],[30.1072,46.3919],[30.0811,46.3742],[30.0373,46.3689],[29.9187,46.3737],[29.9025,46.3712],[29.8847,46.3642],[29.8478,46.3415],[29.8281,46.3394],[29.8082,46.3547],[29.8062,46.3616],[29.8067,46.3809],[29.8051,46.39],[29.8003,46.3984],[29.7796,46.4211],[29.7269,46.4558],[29.7141,46.4712],[29.7138,46.4431],[29.7029,46.4283],[29.6827,46.4229],[29.6544,46.4227],[29.648,46.4164],[29.6529,46.3919],[29.6455,46.3756],[29.6321,46.3661],[29.6156,46.3618],[29.5986,46.3631],[29.583,46.3697],[29.5694,46.3823],[29.5556,46.4042],[29.5414,46.413],[29.5275,46.4167],[29.4961,46.4208],[29.4809,46.4252],[29.4751,46.4323],[29.4733,46.4398],[29.4753,46.4476],[29.4809,46.4555],[29.4862,46.4625],[29.4882,46.4694],[29.4864,46.4759],[29.4809,46.482],[29.4576,46.4847],[29.4567,46.4844],[29.4566,46.4848],[29.4538,46.4966],[29.4435,46.5214],[29.4211,46.5407],[29.4167,46.5592],[29.4284,46.5775],[29.4281,46.5919],[29.4299,46.6058],[29.4554,46.623],[29.4838,46.6354],[29.5012,46.6319],[29.5181,46.6298],[29.5311,46.6461],[29.5422,46.6626],[29.5586,46.6628],[29.5733,46.6663],[29.5782,46.6946],[29.5701,46.7238],[29.5951,46.7129],[29.6162,46.6986],[29.6516,46.6926],[29.6662,46.6763],[29.6668,46.6763],[29.6852,46.677],[29.6953,46.6759],[29.6957,46.6757],[29.6997,46.6732],[29.7031,46.6649],[29.7034,46.6649],[29.7111,46.6649],[29.7205,46.6683],[29.7276,46.6701],[29.7487,46.6657],[29.7491,46.6654],[29.7583,46.6588],[29.7754,46.6291],[29.7617,46.6247],[29.7475,46.6176],[29.7352,46.6076],[29.7276,46.5944],[29.7283,46.5943],[29.7426,46.5932],[29.7754,46.5807],[29.7864,46.583],[29.8232,46.6012],[29.8234,46.6009],[29.83,46.5886],[29.8399,46.5825],[29.8524,46.5808],[29.8673,46.5807],[29.8675,46.5804],[29.8703,46.5767],[29.8907,46.5581],[29.8988,46.5531]]]}}]}