{"type":"FeatureCollection","features":[{"type":"Feature","properties":{"id":"MRT-2795","name":"Adrar","nameBn":"আদরার অঞ্চল","type":"Region","bounds":[-14.2956,18.557,-6.3716,24.276],"center":[-10.3339,20.7634]},"geometry":{"type":"Polygon","coordinates":[[[-14.2956,21.3332],[-14.0155,21.3333],[-13.7369,21.3333],[-13.5014,21.3334],[-13.3199,21.3334],[-13.2031,21.3334],[-13.1617,21.3334],[-13.0152,21.3334],[-13.0262,21.4953],[-13.0321,21.5819],[-13.03,21.5814],[-13.005,21.5735],[-12.378,21.3516],[-10.7878,21.52],[-6.5069,24.2756],[-6.5063,24.276],[-6.5057,24.2703],[-6.4984,24.2084],[-6.4826,24.0723],[-6.4666,23.9362],[-6.4594,23.8744],[-6.4453,23.7537],[-6.4312,23.633],[-6.417,23.5123],[-6.4029,23.3917],[-6.3888,23.271],[-6.3747,23.1503],[-6.3716,23.124],[-6.3721,23.123],[-6.379,23.1076],[-7.9742,19.7538],[-7.9877,19.7254],[-11.0134,19.7115],[-11.0348,19.7114],[-11.4028,19.4242],[-11.4225,19.4088],[-11.4457,19.2393],[-11.4506,19.2031],[-11.6779,19.3198],[-11.8908,19.1798],[-12.3421,18.8996],[-12.4574,18.7782],[-12.6691,18.557],[-13.2442,19.0005],[-14.2218,19.0005],[-14.2207,19.2766],[-14.2197,19.4285],[-14.1545,21.1181],[-14.1732,21.1445],[-14.2956,21.3332]]]}},{"type":"Feature","properties":{"id":"MRT-2789","name":"Assaba","nameBn":"আসাবা অঞ্চল","type":"Region","bounds":[-12.8365,15.1029,-10.5847,18.3109],"center":[-11.7106,16.5835]},"geometry":{"type":"Polygon","coordinates":[[[-10.9152,15.1029],[-10.948,15.152],[-10.9852,15.1875],[-11.0127,15.2396],[-11.0454,15.2702],[-11.2982,15.451],[-11.3169,15.4717],[-11.4096,15.6022],[-11.4348,15.6234],[-11.4582,15.6329],[-11.5154,15.6444],[-11.5244,15.6435],[-11.5273,15.6426],[-11.5256,15.6383],[-11.523,15.6352],[-11.5196,15.6327],[-11.5154,15.6303],[-11.5131,15.6253],[-11.5123,15.6202],[-11.5131,15.615],[-11.5154,15.6101],[-11.5243,15.6003],[-11.536,15.5949],[-11.5626,15.5872],[-11.5792,15.578],[-11.6149,15.5412],[-11.6441,15.5264],[-11.6708,15.5284],[-11.6975,15.5368],[-11.7017,15.5374],[-11.6933,15.5797],[-11.6693,15.6257],[-11.6633,15.6767],[-11.651,15.7264],[-11.6127,15.7674],[-11.6036,15.7925],[-11.5982,15.8167],[-11.5976,15.8305],[-11.5918,15.8433],[-11.5687,15.8595],[-11.5565,15.8842],[-11.5594,15.8933],[-11.5611,15.9048],[-11.5538,15.9198],[-11.5425,15.9323],[-11.5165,15.9456],[-11.5003,15.9693],[-11.6073,15.9856],[-11.6772,16.0311],[-11.6919,16.0336],[-11.7068,16.0307],[-11.7243,16.0342],[-11.7371,16.0444],[-11.7896,16.0381],[-11.8007,16.0481],[-11.8126,16.0554],[-11.821,16.0396],[-11.8159,16.0164],[-11.8049,15.995],[-11.7962,15.9727],[-11.8034,15.9563],[-11.8178,15.9471],[-11.8314,15.9415],[-11.837,15.9254],[-11.8342,15.9091],[-11.8554,15.9092],[-11.8827,15.9123],[-11.9105,15.9087],[-11.9362,15.9018],[-11.9549,15.9125],[-11.9745,15.9342],[-12.0049,15.9394],[-12.0194,15.9795],[-12.0103,16.0521],[-12.0328,16.0508],[-12.0518,16.0561],[-12.0634,16.0713],[-12.0984,16.1067],[-12.1428,16.1205],[-12.1497,16.1134],[-12.1543,16.1075],[-12.1708,16.1126],[-12.187,16.1221],[-12.2222,16.1218],[-12.234,16.1414],[-12.2402,16.2205],[-12.256,16.2369],[-12.2789,16.2421],[-12.2948,16.2523],[-12.3124,16.2567],[-12.3326,16.2512],[-12.3509,16.2412],[-12.3884,16.209],[-12.4278,16.2055],[-12.4331,16.2354],[-12.4126,16.3043],[-12.4144,16.3448],[-12.42,16.361],[-12.423,16.3953],[-12.4306,16.4112],[-12.4294,16.4428],[-12.4671,16.4537],[-12.6576,16.4851],[-12.6826,16.4767],[-12.7049,16.4561],[-12.7192,16.4534],[-12.7319,16.459],[-12.749,16.46],[-12.7622,16.4589],[-12.7669,16.4767],[-12.7665,16.494],[-12.7471,16.5109],[-12.7361,16.5336],[-12.7357,16.553],[-12.7515,16.5654],[-12.759,16.5879],[-12.7632,16.612],[-12.7788,16.6422],[-12.8093,16.6581],[-12.8315,16.6737],[-12.8365,16.6977],[-12.8347,16.7424],[-12.821,16.7841],[-12.8016,16.8224],[-12.823,16.8583],[-12.8169,16.8929],[-12.8184,16.9286],[-12.8104,16.9493],[-12.7995,16.9675],[-12.7279,17.0471],[-12.6977,17.054],[-12.6865,17.0629],[-12.6777,17.072],[-12.6331,17.0848],[-12.6199,17.0848],[-12.6074,17.0818],[-12.5949,17.0876],[-12.5838,17.0954],[-12.5654,17.1047],[-12.5444,17.1097],[-12.5179,17.1212],[-12.4915,17.1681],[-12.4691,17.186],[-12.4384,17.1896],[-12.4198,17.2079],[-12.3872,17.2205],[-12.3482,17.2273],[-12.3387,17.2382],[-12.337,17.2564],[-12.3259,17.2675],[-12.3102,17.2754],[-12.2136,17.1868],[-12.0527,17.1294],[-11.9099,17.0862],[-11.7525,17.1391],[-11.5704,17.1239],[-11.5271,17.1772],[-11.5265,17.2428],[-11.5185,17.3823],[-11.4925,17.4381],[-11.5089,17.4932],[-11.4688,17.5097],[-11.4741,17.5478],[-11.5145,17.557],[-11.4845,17.5753],[-11.4527,17.5945],[-11.4218,17.6026],[-11.4152,17.633],[-11.43,17.6605],[-11.4246,17.667],[-11.425,17.675],[-11.4351,17.6918],[-11.454,17.717],[-11.4916,17.7549],[-11.497,17.7673],[-11.5293,17.8167],[-11.5065,17.8153],[-11.5444,17.8844],[-11.5692,17.9267],[-11.5743,17.9367],[-11.5953,17.9557],[-11.5811,17.9853],[-11.5493,18.0016],[-11.5479,18.0505],[-11.4918,18.0467],[-11.4864,18.0779],[-11.4573,18.0796],[-11.3938,18.0778],[-11.366,18.073],[-11.3555,18.0758],[-11.3466,18.0669],[-11.3234,18.0645],[-11.2983,18.0808],[-11.2401,18.0986],[-11.2125,18.0964],[-11.2037,18.1165],[-11.1689,18.1615],[-11.1942,18.1852],[-11.167,18.2047],[-11.1361,18.2411],[-11.1039,18.2632],[-11.0308,18.2924],[-11.0018,18.2904],[-10.9707,18.3109],[-11.0795,17.7228],[-11.0914,17.6904],[-11.0936,17.6576],[-11.0784,17.6252],[-11.0586,17.524],[-10.9914,17.3914],[-10.9867,17.3563],[-10.9939,17.3201],[-10.9805,17.2839],[-10.986,17.2648],[-10.9946,17.2466],[-11.0106,17.1608],[-11.0022,17.1405],[-10.9856,17.1251],[-10.9797,17.0998],[-10.9957,16.9795],[-10.9957,16.9516],[-10.9905,16.9245],[-10.99,16.9069],[-10.9932,16.8893],[-10.9796,16.8652],[-10.9872,16.8508],[-10.997,16.8378],[-10.9904,16.8164],[-10.9694,16.8027],[-10.9481,16.7776],[-10.943,16.7626],[-10.9352,16.75],[-10.9165,16.7484],[-10.8978,16.7402],[-10.8827,16.7236],[-10.8719,16.7065],[-10.8746,16.6729],[-10.8597,16.6427],[-10.8387,16.6141],[-10.809,16.6006],[-10.793,16.5981],[-10.7766,16.5935],[-10.7478,16.6084],[-10.7363,16.5954],[-10.72,16.6013],[-10.7054,16.6042],[-10.6998,16.595],[-10.7005,16.5823],[-10.7131,16.5681],[-10.7363,16.5664],[-10.737,16.5414],[-10.7593,16.527],[-10.7684,16.5093],[-10.8203,16.4816],[-10.841,16.4818],[-10.8586,16.4767],[-10.8724,16.4649],[-10.863,16.4421],[-10.822,16.4301],[-10.8096,16.4227],[-10.8079,16.4015],[-10.8161,16.3799],[-10.8243,16.3702],[-10.8308,16.3594],[-10.8355,16.3315],[-10.8417,16.317],[-10.8448,16.3019],[-10.8319,16.2786],[-10.8406,16.2645],[-10.8371,16.2483],[-10.8035,16.2367],[-10.7756,16.215],[-10.7599,16.1851],[-10.757,16.1515],[-10.7624,16.1243],[-10.7631,16.0961],[-10.7749,16.0792],[-10.7749,16.0512],[-10.7787,16.0449],[-10.7588,16.0244],[-10.6954,15.9763],[-10.6669,15.9381],[-10.5848,15.4285],[-10.5847,15.4281],[-10.5874,15.4273],[-10.6071,15.4244],[-10.6489,15.4249],[-10.7092,15.4339],[-10.7254,15.4331],[-10.7364,15.4226],[-10.7401,15.4036],[-10.7389,15.3622],[-10.7468,15.3411],[-10.7545,15.3336],[-10.7707,15.3247],[-10.7817,15.3084],[-10.7901,15.3068],[-10.8002,15.3068],[-10.811,15.3031],[-10.8272,15.2877],[-10.8344,15.2714],[-10.8441,15.2345],[-10.8553,15.2177],[-10.8823,15.1928],[-10.8909,15.1767],[-10.9062,15.1198],[-10.9152,15.1029]]]}},{"type":"Feature","properties":{"id":"MRT-2784","name":"Brakna","nameBn":"ব্রাকান অঞ্চল","type":"Region","bounds":[-14.9489,16.1185,-12.3102,18.557],"center":[-13.6298,17.0824]},"geometry":{"type":"Polygon","coordinates":[[[-14.9125,16.6406],[-14.9309,16.6434],[-14.9413,16.656],[-14.9489,16.6706],[-14.9326,16.6905],[-14.8348,16.7518],[-14.698,16.8243],[-14.6202,16.8556],[-14.5899,16.8819],[-14.5692,16.9094],[-14.5625,16.9142],[-14.3202,17.0881],[-13.9587,17.6035],[-13.7337,17.8],[-13.4531,17.9998],[-12.6691,18.557],[-12.4787,18.2742],[-12.5061,17.9977],[-12.5202,17.8299],[-12.5168,17.8299],[-12.5448,17.4919],[-12.4096,17.3556],[-12.3102,17.2754],[-12.3259,17.2675],[-12.337,17.2564],[-12.3387,17.2382],[-12.3482,17.2273],[-12.3872,17.2205],[-12.4198,17.2079],[-12.4384,17.1896],[-12.4691,17.186],[-12.4915,17.1681],[-12.5179,17.1212],[-12.5444,17.1097],[-12.5654,17.1047],[-12.5838,17.0954],[-12.5949,17.0876],[-12.6074,17.0818],[-12.6199,17.0848],[-12.6331,17.0848],[-12.6777,17.072],[-12.6865,17.0629],[-12.6977,17.054],[-12.7279,17.0471],[-12.7995,16.9675],[-12.8104,16.9493],[-12.8184,16.9286],[-12.8169,16.8929],[-12.823,16.8583],[-12.8254,16.8212],[-12.8727,16.7554],[-12.8918,16.7161],[-12.9073,16.6639],[-12.9315,16.6164],[-13.0161,16.5852],[-13.1101,16.5759],[-13.158,16.5204],[-13.1635,16.4403],[-13.1816,16.414],[-13.5899,16.3079],[-13.6325,16.2896],[-13.6442,16.2492],[-13.6494,16.2056],[-13.6686,16.1822],[-13.6977,16.1666],[-13.7183,16.1593],[-13.7126,16.1761],[-13.7106,16.1889],[-13.7201,16.19],[-13.7294,16.1895],[-13.7382,16.1871],[-13.7467,16.1824],[-13.7542,16.1753],[-13.772,16.1504],[-13.7788,16.1432],[-13.7949,16.1312],[-13.8113,16.1221],[-13.8192,16.1193],[-13.8273,16.1185],[-13.8358,16.1206],[-13.8448,16.126],[-13.8528,16.1335],[-13.8591,16.1423],[-13.8638,16.1518],[-13.8723,16.1788],[-13.8772,16.1869],[-13.8838,16.1937],[-13.8996,16.2053],[-13.9078,16.21],[-13.9471,16.2211],[-13.9641,16.2301],[-13.9678,16.246],[-13.9627,16.264],[-13.963,16.2724],[-13.9674,16.2814],[-13.9773,16.2938],[-13.9793,16.3004],[-13.9775,16.3088],[-13.9712,16.3242],[-13.9719,16.3312],[-13.9779,16.338],[-13.987,16.3429],[-14.0067,16.3503],[-14.0156,16.3559],[-14.0331,16.3761],[-14.0398,16.3821],[-14.073,16.4007],[-14.1324,16.4526],[-14.1664,16.4909],[-14.1901,16.5071],[-14.1972,16.5135],[-14.2142,16.535],[-14.2223,16.5396],[-14.2337,16.5416],[-14.2577,16.5432],[-14.2681,16.5479],[-14.2733,16.5556],[-14.2746,16.5735],[-14.278,16.5813],[-14.2876,16.5857],[-14.326,16.5824],[-14.3353,16.5865],[-14.337,16.5941],[-14.3318,16.6131],[-14.3313,16.6241],[-14.3355,16.6315],[-14.3433,16.6367],[-14.4066,16.6608],[-14.4262,16.6596],[-14.4358,16.656],[-14.4621,16.6408],[-14.472,16.6364],[-14.4824,16.6337],[-14.4931,16.6325],[-14.5039,16.6327],[-14.5445,16.6408],[-14.5551,16.6406],[-14.597,16.6292],[-14.6081,16.6288],[-14.6191,16.6307],[-14.6472,16.6435],[-14.656,16.6459],[-14.6659,16.6457],[-14.6997,16.6371],[-14.7112,16.6358],[-14.882,16.6477],[-14.9125,16.6406]]]}},{"type":"Feature","properties":{"id":"MRT-2785","name":"Dakhlet Nouadhibou","nameBn":"দাখলেট নৌয়াদহিবু","type":"Region","bounds":[-17.0812,19.4083,-14.1732,21.3332],"center":[-16.1354,20.8429]},"geometry":{"type":"MultiPolygon","coordinates":[[[[-17.0569,20.7669],[-17.0812,20.8747],[-17.0774,20.9045],[-17.054,20.9955],[-17.0474,21.0274],[-17.0049,21.1419],[-16.9857,21.2378],[-16.9683,21.3246],[-16.9588,21.3329],[-16.8428,21.3329],[-16.8014,21.3329],[-16.6846,21.3329],[-16.5031,21.3329],[-16.2677,21.3329],[-15.989,21.333],[-15.6781,21.3331],[-15.3455,21.3331],[-15.0023,21.3332],[-14.659,21.3332],[-14.3265,21.3332],[-14.2956,21.3332],[-14.1732,21.1445],[-15.8398,21.1508],[-15.5784,20.7374],[-16.2274,19.5915],[-16.283,19.4951],[-16.3192,19.4528],[-16.3232,19.4579],[-16.2995,19.4966],[-16.2939,19.5161],[-16.2849,19.5293],[-16.2828,19.5361],[-16.2859,19.5427],[-16.2926,19.5466],[-16.2991,19.547],[-16.3021,19.5432],[-16.3073,19.5436],[-16.3629,19.4858],[-16.3915,19.4641],[-16.3505,19.5466],[-16.3647,19.5393],[-16.4052,19.5071],[-16.4194,19.492],[-16.4263,19.4825],[-16.4322,19.4714],[-16.4342,19.4595],[-16.4294,19.4479],[-16.4289,19.4417],[-16.4375,19.4228],[-16.4399,19.4132],[-16.4425,19.4103],[-16.4484,19.4086],[-16.4551,19.4083],[-16.4604,19.4095],[-16.4651,19.4125],[-16.4657,19.4145],[-16.4654,19.4173],[-16.4672,19.4232],[-16.4689,19.4312],[-16.4685,19.4557],[-16.4672,19.4641],[-16.4578,19.4797],[-16.4316,19.5059],[-16.4263,19.523],[-16.4225,19.5438],[-16.4128,19.5542],[-16.3995,19.5618],[-16.3846,19.5739],[-16.2891,19.7111],[-16.2831,19.7164],[-16.2764,19.7204],[-16.2708,19.7259],[-16.2686,19.7353],[-16.2674,19.7553],[-16.2643,19.7628],[-16.258,19.7657],[-16.256,19.7695],[-16.2384,19.7877],[-16.2338,19.7936],[-16.2335,19.8043],[-16.236,19.8133],[-16.241,19.821],[-16.248,19.8278],[-16.2402,19.8345],[-16.2352,19.8424],[-16.2331,19.8516],[-16.2338,19.862],[-16.2496,19.8535],[-16.2549,19.8483],[-16.2578,19.8642],[-16.2435,19.8887],[-16.248,19.9029],[-16.2665,19.9137],[-16.2792,19.9052],[-16.2865,19.8904],[-16.2891,19.8825],[-16.3056,19.873],[-16.3127,19.8776],[-16.3133,19.8897],[-16.3096,19.9029],[-16.304,19.914],[-16.298,19.9225],[-16.2391,19.9792],[-16.2225,20.0036],[-16.214,20.0333],[-16.2184,20.0579],[-16.2486,20.1085],[-16.2611,20.1357],[-16.2532,20.1352],[-16.2461,20.1357],[-16.2396,20.1381],[-16.2338,20.1431],[-16.2117,20.1756],[-16.2031,20.1955],[-16.1997,20.2152],[-16.2023,20.2333],[-16.209,20.2484],[-16.2376,20.29],[-16.2437,20.2931],[-16.258,20.2939],[-16.2675,20.2982],[-16.2721,20.3076],[-16.2751,20.317],[-16.2792,20.3212],[-16.2951,20.3306],[-16.3232,20.3964],[-16.3324,20.4055],[-16.3412,20.4113],[-16.3479,20.4175],[-16.3505,20.4274],[-16.3477,20.4309],[-16.342,20.4328],[-16.338,20.4355],[-16.34,20.4411],[-16.3428,20.4451],[-16.3492,20.4574],[-16.3535,20.4764],[-16.3912,20.5695],[-16.401,20.5832],[-16.4157,20.5888],[-16.4239,20.6013],[-16.4252,20.6261],[-16.4296,20.6442],[-16.4467,20.6365],[-16.4672,20.6496],[-16.4672,20.6571],[-16.4219,20.6691],[-16.4087,20.675],[-16.4294,20.6776],[-16.4647,20.6719],[-16.4808,20.6751],[-16.4945,20.6911],[-16.487,20.698],[-16.5013,20.726],[-16.508,20.7306],[-16.5293,20.739],[-16.5363,20.6954],[-16.5284,20.5986],[-16.5423,20.5609],[-16.5525,20.5764],[-16.5655,20.5873],[-16.5907,20.6024],[-16.599,20.6111],[-16.6118,20.6345],[-16.6212,20.6465],[-16.6337,20.655],[-16.665,20.6706],[-16.6727,20.6776],[-16.6735,20.689],[-16.6687,20.6937],[-16.6623,20.6954],[-16.659,20.698],[-16.6593,20.7065],[-16.665,20.7147],[-16.6664,20.7222],[-16.6711,20.7371],[-16.6825,20.7492],[-16.7102,20.77],[-16.714,20.7777],[-16.7137,20.7962],[-16.7174,20.8041],[-16.7341,20.8215],[-16.7454,20.8686],[-16.7515,20.8799],[-16.762,20.892],[-16.769,20.9068],[-16.7731,20.9226],[-16.7751,20.9376],[-16.7794,20.9328],[-16.7858,20.928],[-16.7887,20.924],[-16.8032,20.9374],[-16.809,20.9526],[-16.8116,20.9689],[-16.8166,20.986],[-16.823,20.9931],[-16.8321,21.0001],[-16.8404,21.0095],[-16.844,21.0239],[-16.8494,21.0336],[-16.8733,21.0646],[-16.8787,21.0785],[-16.8808,21.0926],[-16.8858,21.1086],[-16.8985,21.1369],[-16.9176,21.1592],[-16.9312,21.1515],[-16.9573,21.1059],[-17.0001,21.051],[-17.0101,21.043],[-17.0159,21.0312],[-17.0084,21.0134],[-16.9972,21.0185],[-16.996,21.0014],[-17.0023,20.9649],[-17.0044,20.9324],[-17.0084,20.924],[-17.0181,20.9179],[-17.0412,20.9114],[-17.0494,20.9035],[-17.0501,20.8948],[-17.0455,20.8872],[-17.0358,20.8768],[-17.0286,20.8608],[-17.0279,20.8542],[-17.0289,20.842],[-17.0384,20.7998],[-17.0469,20.7778],[-17.0569,20.7669]]],[[[-16.3778,19.8135],[-16.3584,19.8532],[-16.3459,19.8684],[-16.3368,19.8557],[-16.3671,19.7211],[-16.3923,19.6584],[-16.4325,19.6013],[-16.4497,19.6228],[-16.453,19.6292],[-16.4527,19.6373],[-16.4503,19.6465],[-16.4502,19.6565],[-16.4567,19.6667],[-16.464,19.6846],[-16.4571,19.7034],[-16.4283,19.7446],[-16.4263,19.749],[-16.4274,19.778],[-16.4263,19.7869],[-16.4182,19.8056],[-16.4054,19.8211],[-16.3909,19.8261],[-16.3778,19.8135]]],[[[-16.3209,19.7285],[-16.3096,19.7308],[-16.3016,19.7226],[-16.3134,19.7047],[-16.3298,19.6899],[-16.3422,19.6764],[-16.3587,19.6479],[-16.3945,19.5999],[-16.3977,19.5999],[-16.3927,19.6171],[-16.3586,19.6774],[-16.3209,19.7285]]],[[[-16.4772,19.7315],[-16.4696,19.73],[-16.469,19.7197],[-16.4715,19.6997],[-16.4779,19.6855],[-16.4842,19.6777],[-16.4919,19.6841],[-16.4969,19.7055],[-16.4911,19.7251],[-16.4772,19.7315]]],[[[-16.4593,20.6147],[-16.4507,20.6125],[-16.4464,20.6073],[-16.4481,20.5745],[-16.4542,20.5711],[-16.4673,20.5762],[-16.4742,20.5942],[-16.4691,20.6091],[-16.4593,20.6147]]]]}},{"type":"Feature","properties":{"id":"MRT-2791","name":"Gorgol","nameBn":"গোরগল অঞ্চল","type":"Region","bounds":[-13.7228,15.1311,-12.0049,16.8583],"center":[-12.8565,16.0296]},"geometry":{"type":"Polygon","coordinates":[[[-13.669,16.1057],[-13.6759,16.1069],[-13.6781,16.1082],[-13.6847,16.1138],[-13.6875,16.1152],[-13.6936,16.1175],[-13.696,16.1189],[-13.6973,16.1204],[-13.6988,16.1239],[-13.7,16.1256],[-13.7045,16.1288],[-13.7148,16.1328],[-13.7196,16.1356],[-13.7228,16.1461],[-13.7183,16.1593],[-13.6977,16.1666],[-13.6686,16.1822],[-13.6494,16.2056],[-13.6442,16.2492],[-13.6325,16.2896],[-13.5899,16.3079],[-13.1816,16.414],[-13.1635,16.4403],[-13.158,16.5204],[-13.1101,16.5759],[-13.0161,16.5852],[-12.9315,16.6164],[-12.9073,16.6639],[-12.8918,16.7161],[-12.8727,16.7554],[-12.8254,16.8212],[-12.823,16.8583],[-12.8016,16.8224],[-12.821,16.7841],[-12.8347,16.7424],[-12.8365,16.6977],[-12.8315,16.6737],[-12.8093,16.6581],[-12.7788,16.6422],[-12.7632,16.612],[-12.759,16.5879],[-12.7515,16.5654],[-12.7357,16.553],[-12.7361,16.5336],[-12.7471,16.5109],[-12.7665,16.494],[-12.7669,16.4767],[-12.7622,16.4589],[-12.749,16.46],[-12.7319,16.459],[-12.7192,16.4534],[-12.7049,16.4561],[-12.6826,16.4767],[-12.6576,16.4851],[-12.4671,16.4537],[-12.4294,16.4428],[-12.4306,16.4112],[-12.423,16.3953],[-12.42,16.361],[-12.4144,16.3448],[-12.4126,16.3043],[-12.4331,16.2354],[-12.4278,16.2055],[-12.3884,16.209],[-12.3509,16.2412],[-12.3326,16.2512],[-12.3124,16.2567],[-12.2948,16.2523],[-12.2789,16.2421],[-12.256,16.2369],[-12.2402,16.2205],[-12.234,16.1414],[-12.2222,16.1218],[-12.187,16.1221],[-12.1708,16.1126],[-12.1543,16.1075],[-12.1497,16.1134],[-12.1428,16.1205],[-12.0984,16.1067],[-12.0634,16.0713],[-12.0518,16.0561],[-12.0328,16.0508],[-12.0103,16.0521],[-12.0194,15.9795],[-12.0049,15.9394],[-12.0746,15.9174],[-12.1418,15.8858],[-12.1926,15.8925],[-12.2375,15.8806],[-12.2594,15.8613],[-12.2716,15.8366],[-12.2927,15.808],[-12.4631,15.6585],[-12.4868,15.608],[-12.4941,15.5682],[-12.5112,15.5516],[-12.533,15.5402],[-12.5877,15.4739],[-12.6749,15.3365],[-12.7054,15.2709],[-12.7466,15.1311],[-12.7546,15.1386],[-12.7798,15.1464],[-12.7809,15.1491],[-12.784,15.1581],[-12.7847,15.166],[-12.7793,15.1914],[-12.7795,15.1996],[-12.782,15.2073],[-12.7872,15.2142],[-12.7963,15.2203],[-12.8064,15.2231],[-12.817,15.2231],[-12.8383,15.2188],[-12.8479,15.2189],[-12.8568,15.222],[-12.8655,15.2287],[-12.8884,15.2509],[-12.8944,15.2634],[-12.8842,15.2708],[-12.85,15.2674],[-12.8334,15.27],[-12.828,15.2839],[-12.8345,15.3002],[-12.8473,15.3133],[-12.9068,15.3527],[-12.919,15.3654],[-12.9272,15.3807],[-12.931,15.397],[-12.9312,15.4305],[-12.9331,15.4383],[-12.9376,15.4458],[-12.9476,15.4586],[-12.9509,15.4654],[-12.9549,15.4931],[-12.958,15.5017],[-12.9643,15.5092],[-12.9802,15.5163],[-12.9958,15.5142],[-13.0105,15.5063],[-13.0238,15.496],[-13.0389,15.4869],[-13.0532,15.4851],[-13.0838,15.4927],[-13.0896,15.497],[-13.0931,15.5062],[-13.095,15.5147],[-13.0951,15.5234],[-13.0895,15.561],[-13.0918,15.5751],[-13.099,15.5869],[-13.1097,15.5964],[-13.1222,15.6035],[-13.1452,15.6095],[-13.1526,15.6124],[-13.1711,15.6254],[-13.1782,15.6282],[-13.1928,15.629],[-13.2228,15.6239],[-13.2378,15.6234],[-13.2473,15.6483],[-13.2487,15.6567],[-13.2477,15.6656],[-13.244,15.6737],[-13.2289,15.6966],[-13.2271,15.704],[-13.2283,15.7113],[-13.2325,15.7196],[-13.2439,15.7358],[-13.2507,15.7428],[-13.2587,15.7488],[-13.274,15.7575],[-13.281,15.7628],[-13.2861,15.7696],[-13.2875,15.7782],[-13.2852,15.7866],[-13.2819,15.7951],[-13.2797,15.8035],[-13.28,15.8229],[-13.2848,15.8399],[-13.2937,15.8553],[-13.3118,15.8758],[-13.316,15.8818],[-13.3182,15.8885],[-13.3182,15.8967],[-13.3144,15.9136],[-13.3137,15.9221],[-13.3159,15.9305],[-13.3218,15.9382],[-13.347,15.9568],[-13.3558,15.9655],[-13.3633,15.9751],[-13.3698,15.9855],[-13.3837,16.0192],[-13.385,16.0269],[-13.3861,16.0444],[-13.3886,16.0521],[-13.3946,16.0593],[-13.4221,16.0772],[-13.427,16.0831],[-13.4351,16.0965],[-13.44,16.1019],[-13.4551,16.1022],[-13.4915,16.0884],[-13.5017,16.0951],[-13.4999,16.1106],[-13.4831,16.141],[-13.4849,16.155],[-13.4915,16.1563],[-13.4973,16.1561],[-13.5028,16.1544],[-13.5164,16.149],[-13.5691,16.1382],[-13.5994,16.1255],[-13.607,16.1233],[-13.6105,16.1229],[-13.6293,16.1228],[-13.635,16.1216],[-13.6624,16.1074],[-13.669,16.1057]]]}},{"type":"Feature","properties":{"id":"MRT-2790","name":"Guidimaka","nameBn":"গোইডিমাকা অঞ্চল","type":"Region","bounds":[-12.7466,14.7344,-11.5003,16.0554],"center":[-12.1235,15.3352]},"geometry":{"type":"Polygon","coordinates":[[[-12.6903,15.0924],[-12.717,15.1034],[-12.7466,15.1311],[-12.7054,15.2709],[-12.6749,15.3365],[-12.5877,15.4739],[-12.533,15.5402],[-12.5112,15.5516],[-12.4941,15.5682],[-12.4868,15.608],[-12.4631,15.6585],[-12.2927,15.808],[-12.2716,15.8366],[-12.2594,15.8613],[-12.2375,15.8806],[-12.1926,15.8925],[-12.1418,15.8858],[-12.0746,15.9174],[-12.0049,15.9394],[-11.9745,15.9342],[-11.9549,15.9125],[-11.9362,15.9018],[-11.9105,15.9087],[-11.8827,15.9123],[-11.8554,15.9092],[-11.8342,15.9091],[-11.837,15.9254],[-11.8314,15.9415],[-11.8178,15.9471],[-11.8034,15.9563],[-11.7962,15.9727],[-11.8049,15.995],[-11.8159,16.0164],[-11.821,16.0396],[-11.8126,16.0554],[-11.8007,16.0481],[-11.7896,16.0381],[-11.7371,16.0444],[-11.7243,16.0342],[-11.7068,16.0307],[-11.6919,16.0336],[-11.6772,16.0311],[-11.6073,15.9856],[-11.5003,15.9693],[-11.5165,15.9456],[-11.5425,15.9323],[-11.5538,15.9198],[-11.5611,15.9048],[-11.5594,15.8933],[-11.5565,15.8842],[-11.5687,15.8595],[-11.5918,15.8433],[-11.5976,15.8305],[-11.5982,15.8167],[-11.6036,15.7925],[-11.6127,15.7674],[-11.651,15.7264],[-11.6633,15.6767],[-11.6693,15.6257],[-11.6933,15.5797],[-11.7017,15.5374],[-11.7271,15.5412],[-11.7271,15.507],[-11.7294,15.4961],[-11.7549,15.4691],[-11.7677,15.4372],[-11.7835,15.3659],[-11.8169,15.2961],[-11.8211,15.2801],[-11.8268,15.2326],[-11.8457,15.1791],[-11.8482,15.1581],[-11.8473,15.1487],[-11.8442,15.1348],[-11.8451,15.1246],[-11.8568,15.0842],[-11.8591,15.0541],[-11.8609,15.049],[-11.851,15.042],[-11.8445,15.0443],[-11.8392,15.049],[-11.8328,15.049],[-11.8212,15.0398],[-11.8138,15.0285],[-11.8111,15.0143],[-11.8132,14.9961],[-11.8132,14.9959],[-11.8206,14.9803],[-11.8258,14.9625],[-11.8309,14.9264],[-11.8301,14.9203],[-11.8274,14.9156],[-11.8204,14.9064],[-11.8204,14.9],[-11.8261,14.8966],[-11.8331,14.8947],[-11.8371,14.8931],[-11.8405,14.8885],[-11.8456,14.8832],[-11.8508,14.8765],[-11.8547,14.8673],[-11.8626,14.8541],[-11.8775,14.8415],[-11.8957,14.8321],[-11.936,14.8236],[-11.9503,14.8116],[-11.974,14.7798],[-11.9915,14.768],[-12.0111,14.7627],[-12.0311,14.7628],[-12.0497,14.7672],[-12.0571,14.7619],[-12.0623,14.7463],[-12.0704,14.7344],[-12.0815,14.74],[-12.1237,14.7766],[-12.1389,14.7845],[-12.1602,14.781],[-12.2033,14.7662],[-12.2248,14.7634],[-12.2468,14.767],[-12.2641,14.7749],[-12.3196,14.8172],[-12.3825,14.846],[-12.4001,14.8604],[-12.4338,14.8994],[-12.4476,14.9074],[-12.4482,14.9182],[-12.4715,14.998],[-12.4763,15.0077],[-12.4849,15.0173],[-12.4956,15.023],[-12.519,15.0283],[-12.5296,15.0344],[-12.5471,15.0472],[-12.6021,15.0788],[-12.6151,15.0946],[-12.6229,15.1023],[-12.6323,15.1054],[-12.6476,15.1032],[-12.6793,15.0938],[-12.6896,15.0925],[-12.6903,15.0924]]]}},{"type":"Feature","properties":{"id":"MRT-2796","name":"Hodh ech Chargui","nameBn":"হোধ এক চারগুই অঞ্চল","type":"Region","bounds":[-9.1497,15.4934,-5.3533,23.124],"center":[-7.1916,18.0225]},"geometry":{"type":"Polygon","coordinates":[[[-6.3716,23.124],[-6.3606,23.0297],[-6.3465,22.909],[-6.3323,22.7883],[-6.3182,22.6677],[-6.3041,22.547],[-6.29,22.4263],[-6.2759,22.3056],[-6.2617,22.185],[-6.2476,22.0642],[-6.2335,21.9436],[-6.2194,21.8229],[-6.2052,21.7022],[-6.1911,21.5816],[-6.177,21.4609],[-6.1629,21.3402],[-6.1487,21.2195],[-6.1346,21.0989],[-6.1205,20.9782],[-6.1137,20.9196],[-6.0986,20.7907],[-6.0836,20.6619],[-6.0768,20.6033],[-6.0641,20.4954],[-6.0497,20.3705],[-6.0354,20.2455],[-6.0209,20.1205],[-6.0066,19.9955],[-5.9922,19.8706],[-5.9778,19.7456],[-5.9635,19.6206],[-5.9491,19.4956],[-5.9491,19.4955],[-5.934,19.3579],[-5.9276,19.2995],[-5.9212,19.2412],[-5.9148,19.1829],[-5.9084,19.1246],[-5.8982,19.0318],[-5.888,18.9391],[-5.8778,18.8463],[-5.8677,18.7536],[-5.8575,18.6608],[-5.8474,18.5681],[-5.8371,18.4753],[-5.827,18.3825],[-5.8168,18.2899],[-5.8065,18.1971],[-5.7964,18.1044],[-5.7862,18.0117],[-5.7764,17.9214],[-5.7664,17.8313],[-5.7565,17.741],[-5.7466,17.6508],[-5.7367,17.5606],[-5.7268,17.4704],[-5.7169,17.3802],[-5.707,17.29],[-5.697,17.1997],[-5.6872,17.1095],[-5.6773,17.0193],[-5.6673,16.9291],[-5.6575,16.8388],[-5.6476,16.7486],[-5.6376,16.6584],[-5.6277,16.5681],[-5.6233,16.5278],[-5.6146,16.5119],[-5.6059,16.4959],[-5.5665,16.4695],[-5.5297,16.445],[-5.4854,16.4154],[-5.4459,16.389],[-5.405,16.3617],[-5.3649,16.3349],[-5.3601,16.3299],[-5.3553,16.3248],[-5.3543,16.3184],[-5.3533,16.312],[-5.3589,16.2824],[-5.3772,16.1878],[-5.3955,16.0932],[-5.4138,15.9986],[-5.432,15.9039],[-5.4508,15.8068],[-5.4696,15.7098],[-5.4884,15.6127],[-5.5071,15.5155],[-5.5081,15.5107],[-5.5088,15.5069],[-5.509,15.5057],[-5.5099,15.5008],[-5.511,15.4959],[-5.511,15.4957],[-5.511,15.4954],[-5.511,15.4953],[-5.511,15.4951],[-5.511,15.4948],[-5.511,15.4947],[-5.511,15.4945],[-5.511,15.4943],[-5.511,15.4942],[-5.5111,15.494],[-5.5113,15.494],[-5.5113,15.4939],[-5.5114,15.4937],[-5.5115,15.4937],[-5.5116,15.4935],[-5.5117,15.4934],[-5.5119,15.4934],[-5.5122,15.4934],[-5.5123,15.4934],[-5.5126,15.4934],[-5.5128,15.4934],[-5.513,15.4934],[-5.5131,15.4934],[-5.5134,15.4934],[-5.5137,15.4935],[-5.5141,15.4936],[-5.5144,15.4937],[-5.5147,15.4938],[-5.515,15.4939],[-5.5153,15.494],[-5.5156,15.4941],[-5.516,15.4942],[-5.6732,15.4943],[-5.8073,15.4944],[-5.8703,15.4944],[-5.9382,15.4944],[-6.0108,15.4944],[-6.0878,15.4945],[-6.2216,15.4945],[-6.3201,15.4945],[-6.3647,15.4946],[-6.516,15.4946],[-6.6739,15.4947],[-6.8372,15.4947],[-7.0045,15.4948],[-7.1745,15.4948],[-7.3459,15.4949],[-7.5172,15.495],[-7.6872,15.495],[-7.8545,15.4951],[-8.0178,15.4951],[-8.1758,15.4952],[-8.327,15.4953],[-8.4702,15.4953],[-8.6039,15.4954],[-8.6893,15.4954],[-8.7693,15.4954],[-8.8434,15.4954],[-8.9112,15.4954],[-9.0032,15.4955],[-9.003,15.4957],[-9.0008,15.4974],[-8.9956,15.5036],[-8.9594,15.5391],[-8.9695,15.857],[-9.0255,15.9743],[-9.0675,16.0622],[-8.869,16.3216],[-8.8938,16.3917],[-8.7504,16.5317],[-8.6865,16.6012],[-8.5181,16.7808],[-8.2892,17.023],[-8.4602,17.2042],[-8.5983,17.3506],[-9.1497,17.2823],[-9.147,17.288],[-7.9877,19.7254],[-7.9742,19.7538],[-6.379,23.1076],[-6.3721,23.123],[-6.3716,23.124]]]}},{"type":"Feature","properties":{"id":"MRT-2797","name":"Hodh el Gharbi","nameBn":"হোদ এল গাব্রি অঞ্চল","type":"Region","bounds":[-11.0936,15.3647,-8.2892,17.7228],"center":[-9.6914,16.4832]},"geometry":{"type":"Polygon","coordinates":[[[-9.0032,15.4955],[-9.0186,15.4955],[-9.1414,15.4956],[-9.1758,15.4956],[-9.3492,15.4956],[-9.343,15.5869],[-9.3293,15.6552],[-9.3324,15.6876],[-9.3565,15.6979],[-9.3759,15.6859],[-9.437,15.6149],[-9.4517,15.5883],[-9.4518,15.5592],[-9.4359,15.496],[-9.4239,15.4405],[-9.6721,15.4307],[-9.7208,15.4209],[-9.7407,15.4126],[-9.7974,15.3803],[-9.8356,15.3711],[-9.9514,15.3812],[-10.0676,15.3647],[-10.1083,15.3659],[-10.1316,15.3726],[-10.168,15.3952],[-10.1884,15.4047],[-10.1961,15.4053],[-10.2145,15.402],[-10.2232,15.402],[-10.3087,15.4352],[-10.3226,15.4371],[-10.3708,15.4335],[-10.3984,15.4387],[-10.5004,15.4404],[-10.5155,15.4377],[-10.535,15.4417],[-10.5515,15.4392],[-10.5847,15.4281],[-10.5848,15.4285],[-10.6669,15.9381],[-10.6954,15.9763],[-10.7588,16.0244],[-10.7787,16.0449],[-10.7749,16.0512],[-10.7749,16.0792],[-10.7631,16.0961],[-10.7624,16.1243],[-10.757,16.1515],[-10.7599,16.1851],[-10.7756,16.215],[-10.8035,16.2367],[-10.8371,16.2483],[-10.8406,16.2645],[-10.8319,16.2786],[-10.8448,16.3019],[-10.8417,16.317],[-10.8355,16.3315],[-10.8308,16.3594],[-10.8243,16.3702],[-10.8161,16.3799],[-10.8079,16.4015],[-10.8096,16.4227],[-10.822,16.4301],[-10.863,16.4421],[-10.8724,16.4649],[-10.8586,16.4767],[-10.841,16.4818],[-10.8203,16.4816],[-10.7684,16.5093],[-10.7593,16.527],[-10.737,16.5414],[-10.7363,16.5664],[-10.7131,16.5681],[-10.7005,16.5823],[-10.6998,16.595],[-10.7054,16.6042],[-10.72,16.6013],[-10.7363,16.5954],[-10.7478,16.6084],[-10.7766,16.5935],[-10.793,16.5981],[-10.809,16.6006],[-10.8387,16.6141],[-10.8597,16.6427],[-10.8746,16.6729],[-10.8719,16.7065],[-10.8827,16.7236],[-10.8978,16.7402],[-10.9165,16.7484],[-10.9352,16.75],[-10.943,16.7626],[-10.9481,16.7776],[-10.9694,16.8027],[-10.9904,16.8164],[-10.997,16.8378],[-10.9872,16.8508],[-10.9796,16.8652],[-10.9932,16.8893],[-10.99,16.9069],[-10.9905,16.9245],[-10.9957,16.9516],[-10.9957,16.9795],[-10.9797,17.0998],[-10.9856,17.1251],[-11.0022,17.1405],[-11.0106,17.1608],[-10.9946,17.2466],[-10.986,17.2648],[-10.9805,17.2839],[-10.9939,17.3201],[-10.9867,17.3563],[-10.9914,17.3914],[-11.0586,17.524],[-11.0784,17.6252],[-11.0936,17.6576],[-11.0914,17.6904],[-11.0795,17.7228],[-10.76,17.6341],[-10.3325,17.5182],[-9.7227,17.5563],[-9.7151,17.5507],[-9.1497,17.2823],[-8.5983,17.3506],[-8.4602,17.2042],[-8.2892,17.023],[-8.5181,16.7808],[-8.6865,16.6012],[-8.7504,16.5317],[-8.8938,16.3917],[-8.869,16.3216],[-9.0675,16.0622],[-9.0255,15.9743],[-8.9695,15.857],[-8.9594,15.5391],[-8.9956,15.5036],[-9.0008,15.4974],[-9.003,15.4957],[-9.0032,15.4955]]]}},{"type":"Feature","properties":{"id":"MRT-2786","name":"Inchiri","nameBn":"ইনকিরি অঞ্চল","type":"Region","bounds":[-16.5355,18.9959,-14.1545,21.1508],"center":[-15.345,20.0734]},"geometry":{"type":"Polygon","coordinates":[[[-16.2104,18.9959],[-16.2389,19.061],[-16.2828,19.1304],[-16.3419,19.1957],[-16.3607,19.2125],[-16.3647,19.2146],[-16.3683,19.2215],[-16.3766,19.2236],[-16.3865,19.2246],[-16.3949,19.2285],[-16.4119,19.2392],[-16.4509,19.2502],[-16.4672,19.2593],[-16.4746,19.2708],[-16.4913,19.3131],[-16.4945,19.331],[-16.5048,19.35],[-16.5241,19.3659],[-16.5355,19.3808],[-16.5218,19.3964],[-16.4637,19.3815],[-16.4078,19.3892],[-16.3592,19.4158],[-16.3232,19.4579],[-16.3192,19.4528],[-16.283,19.4951],[-16.2274,19.5915],[-15.5784,20.7374],[-15.8398,21.1508],[-14.1732,21.1445],[-14.1545,21.1181],[-14.2197,19.4285],[-14.2207,19.2766],[-14.2218,19.0005],[-14.2622,19.0004],[-16.2104,18.9959]]]}},{"type":"Feature","properties":{"id":"MRT-2787","name":"Nouakchott","nameBn":"নুওয়াকশুত","type":"District","bounds":[-16.0601,17.8864,-15.78,18.3931],"center":[-15.92,18.139]},"geometry":{"type":"Polygon","coordinates":[[[-16.0321,17.8864],[-16.0242,17.9601],[-16.0352,18.1414],[-16.0601,18.3909],[-16.0502,18.3902],[-15.7811,18.3931],[-15.78,18.1648],[-15.7815,17.8866],[-16.0321,17.8864]]]}},{"type":"Feature","properties":{"id":"MRT-2798","name":"Tagant","nameBn":"তাগান্ট অঞ্চল","type":"Region","bounds":[-12.6691,17.0862,-7.9877,19.7254],"center":[-10.3284,18.6165]},"geometry":{"type":"Polygon","coordinates":[[[-11.4506,19.2031],[-11.4457,19.2393],[-11.4225,19.4088],[-11.4028,19.4242],[-11.0348,19.7114],[-11.0134,19.7115],[-7.9877,19.7254],[-9.147,17.288],[-9.1497,17.2823],[-9.7151,17.5507],[-9.7227,17.5563],[-10.3325,17.5182],[-10.76,17.6341],[-11.0795,17.7228],[-10.9707,18.3109],[-11.0018,18.2904],[-11.0308,18.2924],[-11.1039,18.2632],[-11.1361,18.2411],[-11.167,18.2047],[-11.1942,18.1852],[-11.1689,18.1615],[-11.2037,18.1165],[-11.2125,18.0964],[-11.2401,18.0986],[-11.2983,18.0808],[-11.3234,18.0645],[-11.3466,18.0669],[-11.3555,18.0758],[-11.366,18.073],[-11.3938,18.0778],[-11.4573,18.0796],[-11.4864,18.0779],[-11.4918,18.0467],[-11.5479,18.0505],[-11.5493,18.0016],[-11.5811,17.9853],[-11.5953,17.9557],[-11.5743,17.9367],[-11.5692,17.9267],[-11.5444,17.8844],[-11.5065,17.8153],[-11.5293,17.8167],[-11.497,17.7673],[-11.4916,17.7549],[-11.454,17.717],[-11.4351,17.6918],[-11.425,17.675],[-11.4246,17.667],[-11.43,17.6605],[-11.4152,17.633],[-11.4218,17.6026],[-11.4527,17.5945],[-11.4845,17.5753],[-11.5145,17.557],[-11.4741,17.5478],[-11.4688,17.5097],[-11.5089,17.4932],[-11.4925,17.4381],[-11.5185,17.3823],[-11.5265,17.2428],[-11.5271,17.1772],[-11.5704,17.1239],[-11.7525,17.1391],[-11.9099,17.0862],[-12.0527,17.1294],[-12.2136,17.1868],[-12.3102,17.2754],[-12.4096,17.3556],[-12.5448,17.4919],[-12.5168,17.8299],[-12.5202,17.8299],[-12.5061,17.9977],[-12.4787,18.2742],[-12.6691,18.557],[-12.4574,18.7782],[-12.3421,18.8996],[-11.8908,19.1798],[-11.6779,19.3198],[-11.4506,19.2031]]]}},{"type":"Feature","properties":{"id":"MRT-2783","name":"Tiris Zemmour","nameBn":"তাইরিশ জেমোর অঞ্চল","type":"Region","bounds":[-13.1655,21.3516,-4.8216,27.2854],"center":[-8.9942,24.3349]},"geometry":{"type":"Polygon","coordinates":[[[-8.6824,27.2854],[-8.4844,27.169],[-8.2864,27.0527],[-8.0886,26.9362],[-7.8908,26.8199],[-7.6928,26.7035],[-7.4949,26.5872],[-7.297,26.4707],[-7.0991,26.3544],[-6.9012,26.2379],[-6.7033,26.1216],[-6.5054,26.0052],[-6.3075,25.8888],[-6.1399,25.7902],[-5.9723,25.6916],[-5.8046,25.593],[-5.6615,25.5089],[-5.637,25.4945],[-5.516,25.4233],[-5.3423,25.3162],[-5.1688,25.2092],[-4.9952,25.1021],[-4.8216,24.9951],[-5.0431,24.9949],[-5.2645,24.9948],[-5.4859,24.9947],[-5.7073,24.9946],[-5.9288,24.9944],[-6.1502,24.9943],[-6.3717,24.9942],[-6.5931,24.9941],[-6.5834,24.9144],[-6.5738,24.8349],[-6.5642,24.7552],[-6.5545,24.6755],[-6.5448,24.596],[-6.5352,24.5164],[-6.5255,24.4367],[-6.5159,24.3571],[-6.5063,24.276],[-6.5069,24.2756],[-10.7878,21.52],[-12.378,21.3516],[-13.005,21.5735],[-13.03,21.5814],[-13.0321,21.5819],[-13.0603,21.9954],[-13.0768,22.2454],[-13.0933,22.4955],[-13.1064,22.5602],[-13.155,22.6888],[-13.1655,22.7527],[-13.1523,22.82],[-13.1199,22.8835],[-13.0343,22.9952],[-13.0152,23.018],[-12.9151,23.0821],[-12.7899,23.1619],[-12.6822,23.2308],[-12.6194,23.2708],[-12.5584,23.2903],[-12.3899,23.3125],[-12.3539,23.3225],[-12.1346,23.4193],[-12.0327,23.445],[-12.0193,23.461],[-12.0153,23.4952],[-12.0153,23.5759],[-12.0153,23.6515],[-12.0153,23.7271],[-12.0153,23.8027],[-12.0153,23.8783],[-12.0153,23.9539],[-12.0153,24.0295],[-12.0153,24.1051],[-12.0153,24.1807],[-12.0153,24.2563],[-12.0153,24.3319],[-12.0153,24.4075],[-12.0153,24.4831],[-12.0153,24.5586],[-12.0153,24.6343],[-12.0153,24.7099],[-12.0153,24.7855],[-12.0153,24.861],[-12.0153,24.9366],[-12.0153,25.0122],[-12.0153,25.0878],[-12.0153,25.1633],[-12.0153,25.2389],[-12.0153,25.3146],[-12.0153,25.3902],[-12.0153,25.4657],[-12.0153,25.5413],[-12.0153,25.6169],[-12.0153,25.6925],[-12.0153,25.7681],[-12.0153,25.8437],[-12.0153,25.9192],[-12.0153,25.9949],[-11.9146,25.995],[-11.8138,25.995],[-11.7132,25.995],[-11.6124,25.995],[-11.5117,25.995],[-11.411,25.995],[-11.3102,25.995],[-11.2095,25.995],[-11.1087,25.995],[-11.0081,25.995],[-10.9073,25.995],[-10.8066,25.995],[-10.7059,25.995],[-10.6052,25.995],[-10.5044,25.995],[-10.4037,25.995],[-10.303,25.995],[-10.2023,25.995],[-10.1015,25.995],[-10.0008,25.995],[-9.9,25.995],[-9.7994,25.995],[-9.6987,25.995],[-9.5979,25.995],[-9.4972,25.995],[-9.3964,25.995],[-9.2957,25.995],[-9.195,25.995],[-9.0942,25.995],[-8.9936,25.995],[-8.8929,25.995],[-8.792,25.995],[-8.7072,25.995],[-8.6877,26.0],[-8.6808,26.0131],[-8.6808,26.0584],[-8.6809,26.0722],[-8.6809,26.1111],[-8.6809,26.1716],[-8.681,26.2502],[-8.6811,26.343],[-8.6813,26.4466],[-8.6815,26.5574],[-8.6816,26.6719],[-8.6817,26.7863],[-8.6818,26.8972],[-8.6819,27.0008],[-8.6821,27.0937],[-8.6822,27.1721],[-8.6822,27.2327],[-8.6823,27.2717],[-8.6824,27.2854]]]}},{"type":"Feature","properties":{"id":"MRT-2788","name":"Trarza","nameBn":"ত্রারজা অঞ্চল","type":"Region","bounds":[-16.5423,15.8088,-12.6691,19.0005],"center":[-14.6057,17.9339]},"geometry":{"type":"Polygon","coordinates":[[[-14.9489,16.6706],[-14.9499,16.6723],[-14.9629,16.6858],[-14.9743,16.6914],[-14.9966,16.6824],[-15.0069,16.6758],[-15.0134,16.6666],[-15.0165,16.6526],[-15.0187,16.6461],[-15.0237,16.64],[-15.0299,16.6355],[-15.0369,16.6326],[-15.0444,16.6319],[-15.0516,16.6342],[-15.062,16.6438],[-15.0699,16.6553],[-15.0789,16.665],[-15.0933,16.6692],[-15.1076,16.6654],[-15.1163,16.6555],[-15.1183,16.6426],[-15.1123,16.6292],[-15.0962,16.614],[-15.0928,16.6076],[-15.0932,16.6002],[-15.0975,16.5945],[-15.104,16.5904],[-15.1251,16.5827],[-15.2325,16.5664],[-15.2486,16.5658],[-15.2959,16.573],[-15.328,16.572],[-15.3436,16.5687],[-15.3857,16.5518],[-15.3998,16.5483],[-15.4145,16.548],[-15.4269,16.5532],[-15.4337,16.5625],[-15.4394,16.5727],[-15.4488,16.5802],[-15.464,16.5815],[-15.4785,16.5752],[-15.4909,16.5645],[-15.5152,16.5309],[-15.5248,16.5222],[-15.5367,16.5165],[-15.5515,16.5151],[-15.5944,16.5236],[-15.6097,16.5213],[-15.6215,16.5142],[-15.6436,16.4947],[-15.6574,16.4862],[-15.6722,16.4814],[-15.6875,16.4805],[-15.7032,16.4844],[-15.7268,16.4953],[-15.7353,16.4977],[-15.7677,16.4995],[-15.813,16.5138],[-15.8289,16.5145],[-15.8536,16.5103],[-15.862,16.5103],[-15.8969,16.5184],[-15.911,16.5169],[-15.9507,16.4998],[-15.9581,16.4984],[-15.9644,16.499],[-15.9773,16.504],[-15.9856,16.5059],[-15.9931,16.5046],[-16.0002,16.5011],[-16.0073,16.4962],[-16.0312,16.4929],[-16.0538,16.4954],[-16.074,16.5049],[-16.091,16.5222],[-16.1031,16.5396],[-16.1105,16.5469],[-16.1197,16.5524],[-16.1323,16.5548],[-16.1443,16.5527],[-16.1558,16.5475],[-16.1852,16.5273],[-16.1954,16.5227],[-16.2067,16.5207],[-16.2179,16.5215],[-16.251,16.5276],[-16.2738,16.5232],[-16.2951,16.5106],[-16.3135,16.4933],[-16.3274,16.4746],[-16.3349,16.4558],[-16.3402,16.4159],[-16.3811,16.2467],[-16.3854,16.2349],[-16.3917,16.2247],[-16.4073,16.2148],[-16.4442,16.2063],[-16.4588,16.1942],[-16.466,16.1741],[-16.4704,16.1064],[-16.4878,16.066],[-16.5016,16.0219],[-16.5075,16.0104],[-16.5099,15.9015],[-16.5197,15.8464],[-16.5423,15.8088],[-16.5273,15.9774],[-16.5293,16.0658],[-16.5392,16.2672],[-16.5293,16.3327],[-16.5222,16.3505],[-16.4945,16.4016],[-16.4862,16.4517],[-16.4777,16.4665],[-16.4672,16.4929],[-16.4672,16.6002],[-16.4592,16.6439],[-16.3791,16.841],[-16.3578,16.8747],[-16.3431,16.9423],[-16.326,16.9752],[-16.2781,17.0407],[-16.1925,17.2193],[-16.1867,17.2438],[-16.1726,17.2624],[-16.079,17.5448],[-16.049,17.6672],[-16.0414,17.8],[-16.0321,17.8864],[-15.7815,17.8866],[-15.78,18.1648],[-15.7811,18.3931],[-16.0502,18.3902],[-16.0601,18.3909],[-16.0694,18.484],[-16.0806,18.5197],[-16.132,18.6286],[-16.1557,18.7525],[-16.173,18.7931],[-16.164,18.8168],[-16.1656,18.8442],[-16.2046,18.9827],[-16.2104,18.9959],[-14.2622,19.0004],[-14.2218,19.0005],[-13.2442,19.0005],[-12.6691,18.557],[-13.4531,17.9998],[-13.7337,17.8],[-13.9587,17.6035],[-14.3202,17.0881],[-14.5625,16.9142],[-14.5692,16.9094],[-14.5899,16.8819],[-14.6202,16.8556],[-14.698,16.8243],[-14.8348,16.7518],[-14.9326,16.6905],[-14.9489,16.6706]]]}}]}