{"type":"FeatureCollection","features":[{"type":"Feature","properties":{"id":"MSR-5087","name":"Saint Anthony","nameBn":"সেন্ট অ্যান্টনি","type":"Parish","bounds":[-62.2301,16.6754,-62.1405,16.7478],"center":[-62.1886,16.7048]},"geometry":{"type":"Polygon","coordinates":[[[-62.1508,16.7204],[-62.1476,16.7159],[-62.1439,16.709],[-62.1412,16.7019],[-62.1405,16.6965],[-62.144,16.6882],[-62.1498,16.6818],[-62.1578,16.6773],[-62.1679,16.6754],[-62.2189,16.6887],[-62.2301,16.7276],[-62.2255,16.7478],[-62.202,16.7449],[-62.1886,16.739],[-62.179,16.7293],[-62.1686,16.7234],[-62.1508,16.7204]]]}},{"type":"Feature","properties":{"id":"MSR-5088","name":"Saint Georges","nameBn":"সেন্ট জর্জ","type":"Parish","bounds":[-62.1886,16.7204,-62.1474,16.777],"center":[-62.1671,16.7442]},"geometry":{"type":"Polygon","coordinates":[[[-62.17,16.777],[-62.1563,16.7603],[-62.1474,16.7443],[-62.1477,16.737],[-62.1518,16.7245],[-62.1508,16.7204],[-62.1686,16.7234],[-62.179,16.7293],[-62.1886,16.739],[-62.1842,16.7546],[-62.1775,16.768],[-62.17,16.777]]]}},{"type":"Feature","properties":{"id":"MSR-5089","name":"Saint Peter","nameBn":"সেন্ট পিটার","type":"Parish","bounds":[-62.2255,16.739,-62.17,16.8193],"center":[-62.2017,16.7762]},"geometry":{"type":"Polygon","coordinates":[[[-62.2255,16.7478],[-62.2189,16.7763],[-62.202,16.8193],[-62.1894,16.8144],[-62.1829,16.8127],[-62.1747,16.8131],[-62.1793,16.7945],[-62.17,16.777],[-62.1775,16.768],[-62.1842,16.7546],[-62.1886,16.739],[-62.202,16.7449],[-62.2255,16.7478]]]}}]}