{"type":"FeatureCollection","features":[{"type":"Feature","properties":{"id":"NAM-3356","name":"Caprivi","nameBn":"জাম্বেজি অঞ্চল","type":"Region","bounds":[20.9865,-18.4782,25.2598,-17.4713],"center":[23.1229,-17.8491]},"geometry":{"type":"Polygon","coordinates":[[[21.3868,-18.0145],[21.4055,-18.0093],[21.4776,-17.9961],[21.7285,-17.9499],[21.9795,-17.9038],[22.2305,-17.8576],[22.4814,-17.8114],[22.6857,-17.7728],[22.8898,-17.7341],[23.0939,-17.6954],[23.298,-17.6569],[23.3817,-17.6411],[23.4224,-17.6335],[23.4574,-17.6268],[23.4762,-17.6264],[23.506,-17.6205],[23.5488,-17.612],[23.5918,-17.6035],[23.6346,-17.595],[23.6772,-17.5867],[23.72,-17.5782],[23.7628,-17.5697],[23.8056,-17.5614],[23.8485,-17.5529],[23.8914,-17.5444],[23.9342,-17.536],[23.977,-17.5276],[24.0196,-17.5191],[24.0625,-17.5107],[24.1053,-17.5022],[24.1481,-17.4938],[24.1909,-17.4853],[24.2205,-17.4795],[24.2388,-17.4782],[24.2574,-17.4808],[24.3103,-17.4826],[24.3213,-17.4887],[24.3294,-17.4851],[24.3713,-17.4737],[24.3889,-17.4713],[24.407,-17.4745],[24.4493,-17.4891],[24.4793,-17.4945],[24.4982,-17.5035],[24.5236,-17.5078],[24.5317,-17.5134],[24.5379,-17.5203],[24.5465,-17.5265],[24.5625,-17.5322],[24.5712,-17.5335],[24.5808,-17.5328],[24.5913,-17.5284],[24.6065,-17.5152],[24.6174,-17.5092],[24.6228,-17.5023],[24.6297,-17.4955],[24.6395,-17.4924],[24.6844,-17.4924],[24.7698,-17.5054],[24.7751,-17.5076],[24.78,-17.5123],[24.7868,-17.5169],[24.7974,-17.5191],[24.8295,-17.5177],[24.8983,-17.5311],[24.9249,-17.543],[24.9376,-17.5607],[24.958,-17.5517],[24.97,-17.56],[24.9711,-17.5607],[24.9826,-17.5765],[24.9985,-17.588],[25.008,-17.5885],[25.0267,-17.5828],[25.037,-17.5812],[25.0406,-17.5845],[25.0339,-17.6016],[25.0339,-17.6085],[25.0401,-17.6161],[25.0453,-17.62],[25.0526,-17.6214],[25.0642,-17.6215],[25.067,-17.6253],[25.0852,-17.6409],[25.0885,-17.6427],[25.0969,-17.6721],[25.0988,-17.6768],[25.108,-17.6789],[25.1151,-17.6842],[25.12,-17.6911],[25.1226,-17.6979],[25.1314,-17.6865],[25.1385,-17.6861],[25.1533,-17.701],[25.1564,-17.7067],[25.1553,-17.7194],[25.1568,-17.7252],[25.1612,-17.7294],[25.1724,-17.7351],[25.1778,-17.7388],[25.1907,-17.7553],[25.1982,-17.7584],[25.2151,-17.7593],[25.2289,-17.7625],[25.2424,-17.7703],[25.2535,-17.7815],[25.2598,-17.7941],[25.1942,-17.7823],[25.1539,-17.7818],[25.1209,-17.8135],[25.0879,-17.8268],[25.057,-17.8277],[25.0475,-17.8071],[25.0197,-17.8238],[25.0071,-17.8257],[24.9985,-17.8139],[24.9833,-17.8205],[24.9751,-17.8163],[24.9686,-17.8076],[24.9581,-17.8009],[24.9643,-17.7867],[24.9533,-17.7884],[24.9486,-17.7933],[24.9452,-17.8],[24.9376,-17.8071],[24.9311,-17.8105],[24.8574,-17.8336],[24.8381,-17.835],[24.8208,-17.8393],[24.7974,-17.8581],[24.7769,-17.8623],[24.7707,-17.8655],[24.7645,-17.8797],[24.756,-17.8828],[24.7468,-17.8842],[24.7382,-17.8876],[24.7307,-17.8919],[24.7253,-17.8959],[24.6985,-17.9289],[24.6641,-17.9499],[24.6492,-17.9628],[24.5986,-18.0208],[24.595,-18.0228],[24.5918,-18.0284],[24.5778,-18.0444],[24.5746,-18.0504],[24.5644,-18.0528],[24.5184,-18.0573],[24.5056,-18.0603],[24.4715,-18.03],[24.4698,-18.0145],[24.4651,-18.0087],[24.4585,-18.0058],[24.451,-17.999],[24.4339,-17.9672],[24.4216,-17.9565],[24.3995,-17.9523],[24.3653,-17.9508],[24.3506,-17.9561],[24.3343,-17.9716],[24.3058,-18.0194],[24.2964,-18.0262],[24.2874,-18.0245],[24.2701,-18.0158],[24.2592,-18.0126],[24.2382,-18.0099],[24.2183,-18.0126],[24.1831,-18.0294],[24.1351,-18.0855],[24.1016,-18.1088],[24.0651,-18.1152],[24.057,-18.119],[24.0281,-18.1458],[24.0203,-18.1516],[23.9917,-18.1634],[23.9797,-18.1719],[23.9749,-18.177],[23.9712,-18.1838],[23.9667,-18.1806],[23.962,-18.1779],[23.9566,-18.1766],[23.9508,-18.1776],[23.916,-18.2012],[23.9129,-18.2357],[23.897,-18.2502],[23.8675,-18.2694],[23.8552,-18.2801],[23.8372,-18.3058],[23.8256,-18.3171],[23.8098,-18.3217],[23.7158,-18.4191],[23.7009,-18.428],[23.6801,-18.4315],[23.6565,-18.4583],[23.6499,-18.4634],[23.6454,-18.466],[23.6099,-18.4777],[23.5922,-18.4782],[23.5792,-18.4679],[23.5713,-18.426],[23.5555,-18.3831],[23.5466,-18.3695],[23.5608,-18.3485],[23.5515,-18.3275],[23.5188,-18.2937],[23.5273,-18.2777],[23.5217,-18.2682],[23.5113,-18.2603],[23.5057,-18.2494],[23.5015,-18.2375],[23.4913,-18.2331],[23.4778,-18.2309],[23.4641,-18.2255],[23.4588,-18.2176],[23.4443,-18.2007],[23.4294,-18.1885],[23.4189,-18.1984],[23.4103,-18.1974],[23.4013,-18.1943],[23.3958,-18.1914],[23.3945,-18.1862],[23.3963,-18.1694],[23.3958,-18.1634],[23.3897,-18.1533],[23.3595,-18.1192],[23.3481,-18.0944],[23.3366,-18.0794],[23.3338,-18.074],[23.3326,-18.0671],[23.3338,-18.0433],[23.3306,-18.04],[23.3233,-18.0392],[23.3159,-18.0371],[23.3127,-18.03],[23.3128,-18.0165],[23.3115,-18.0098],[23.3057,-18.0055],[23.2928,-17.999],[23.2549,-17.9974],[23.1858,-18.0031],[23.0996,-18.0102],[22.9814,-18.02],[22.894,-18.0362],[22.8097,-18.0519],[22.7253,-18.0675],[22.6409,-18.0832],[22.5565,-18.0988],[22.4721,-18.1145],[22.3878,-18.1302],[22.3035,-18.1458],[22.219,-18.1615],[22.1346,-18.1772],[22.0503,-18.1928],[21.966,-18.2086],[21.8815,-18.2242],[21.7971,-18.2399],[21.7127,-18.2556],[21.6285,-18.2712],[21.544,-18.2868],[21.527,-18.29],[21.5098,-18.2932],[21.4929,-18.2964],[21.4757,-18.2995],[21.4568,-18.3002],[21.4379,-18.3011],[21.3909,-18.3029],[21.3439,-18.3048],[21.2968,-18.3066],[21.2499,-18.3085],[21.1935,-18.3108],[21.1369,-18.3129],[21.0806,-18.3152],[21.0242,-18.3174],[20.9934,-18.3186],[20.9934,-18.3185],[20.9933,-18.3184],[20.9865,-17.9658],[21.0007,-17.9621],[21.0931,-17.9381],[21.1094,-17.945],[21.1261,-17.9411],[21.1431,-17.9337],[21.1613,-17.9306],[21.1758,-17.9332],[21.2166,-17.9306],[21.2327,-17.9345],[21.2781,-17.9585],[21.3351,-17.978],[21.3648,-17.992],[21.3812,-18.0126],[21.3868,-18.0145]]]}},{"type":"Feature","properties":{"id":"NAM-3348","name":"Erongo","nameBn":"এরোংগু অঞ্চল","type":"Region","bounds":[13.6281,-23.8136,16.5366,-20.4872],"center":[15.0824,-22.2166]},"geometry":{"type":"Polygon","coordinates":[[[14.4841,-23.551],[14.447,-23.4604],[14.4343,-23.4152],[14.4351,-23.4055],[14.4431,-23.3967],[14.4675,-23.3561],[14.4797,-23.3448],[14.4795,-23.3658],[14.4844,-23.3749],[14.4904,-23.3697],[14.4934,-23.3478],[14.492,-23.3092],[14.4735,-23.1928],[14.4627,-23.1574],[14.4456,-23.1313],[14.4313,-23.1033],[14.4207,-23.071],[14.4138,-23.0362],[14.4102,-22.9708],[14.4114,-22.9612],[14.416,-22.9516],[14.429,-22.9325],[14.4319,-22.923],[14.4319,-22.8818],[14.4351,-22.8798],[14.4409,-22.8798],[14.4439,-22.8835],[14.4382,-22.8923],[14.4427,-22.8985],[14.4481,-22.9081],[14.4519,-22.9122],[14.446,-22.9324],[14.4443,-22.9528],[14.4517,-22.9633],[14.4729,-22.9538],[14.4714,-22.9651],[14.4592,-22.9953],[14.4743,-22.9822],[14.4968,-22.9418],[14.5105,-22.9333],[14.522,-22.9234],[14.5293,-22.9002],[14.5344,-22.8542],[14.5275,-22.6795],[14.5086,-22.548],[14.4851,-22.5124],[14.4743,-22.4679],[14.4382,-22.3989],[14.4187,-22.3398],[14.3865,-22.2765],[14.3804,-22.2685],[14.3152,-22.2003],[14.2943,-22.1674],[14.2935,-22.1433],[14.2914,-22.1345],[14.1372,-21.9464],[14.062,-21.881],[14.0542,-21.8647],[13.9717,-21.7927],[13.9523,-21.7839],[13.9522,-21.7734],[13.9564,-21.763],[13.959,-21.7584],[13.9652,-21.7332],[13.9658,-21.7267],[13.9627,-21.714],[13.9583,-21.7048],[13.8779,-21.5922],[13.8628,-21.528],[13.8317,-21.4565],[13.7293,-21.3303],[13.6668,-21.2324],[13.6281,-21.1876],[13.6921,-21.1498],[13.7265,-21.1385],[13.7354,-21.1341],[13.7445,-21.126],[13.7562,-21.1102],[13.7603,-21.1072],[13.7685,-21.1038],[13.803,-21.0957],[13.8151,-21.0947],[13.8248,-21.0927],[13.8305,-21.09],[13.8348,-21.082],[13.8373,-21.0759],[13.8414,-21.0713],[13.8465,-21.0687],[13.8628,-21.0673],[13.8707,-21.0648],[13.884,-21.0502],[13.9044,-21.0365],[13.9801,-21.0109],[14.0251,-21.0098],[14.031,-21.0089],[14.0386,-21.0061],[14.0654,-20.9929],[14.0793,-20.9877],[14.1012,-20.9827],[14.1292,-20.981],[14.1363,-20.9793],[14.1438,-20.976],[14.1542,-20.9693],[14.1632,-20.965],[14.1733,-20.9615],[14.1901,-20.9586],[14.2,-20.9584],[14.2081,-20.9593],[14.2709,-20.986],[14.2767,-20.9877],[14.2829,-20.9885],[14.2891,-20.9883],[14.2948,-20.987],[14.346,-20.9709],[14.3719,-20.9663],[14.4148,-20.9699],[14.4204,-20.9717],[14.4256,-20.9741],[14.447,-20.9889],[14.4516,-20.9914],[14.4584,-20.9925],[14.4822,-20.9884],[14.5097,-20.988],[14.5234,-20.9849],[14.5325,-20.984],[14.5407,-20.984],[14.5466,-20.9855],[14.5835,-21.0004],[14.5909,-21.0015],[14.647,-21.0007],[14.6782,-21.0042],[14.6847,-21.0039],[14.6996,-21.0007],[14.7088,-20.9996],[14.729,-20.9993],[14.737,-20.9973],[14.7626,-20.9862],[14.7802,-20.9807],[14.789,-20.9793],[14.7952,-20.9768],[14.8017,-20.9721],[14.8123,-20.9609],[14.82,-20.9543],[14.8425,-20.9425],[14.8669,-20.925],[14.8717,-20.9225],[14.8763,-20.9216],[14.8958,-20.9209],[14.9081,-20.9192],[14.9127,-20.9163],[14.9167,-20.912],[14.9212,-20.9044],[14.9264,-20.8987],[14.9354,-20.8936],[14.942,-20.8907],[14.948,-20.8866],[14.9523,-20.8818],[14.9589,-20.8693],[14.9616,-20.8659],[14.9653,-20.8637],[14.9815,-20.8574],[14.9883,-20.8532],[14.9974,-20.8432],[15.0508,-20.8023],[15.0728,-20.7919],[15.1203,-20.7641],[15.126,-20.7591],[15.131,-20.7458],[15.1411,-20.7338],[15.2803,-20.6106],[15.2887,-20.6048],[15.3445,-20.5335],[15.3684,-20.5086],[15.3749,-20.4967],[15.3844,-20.4872],[15.4561,-20.4946],[15.4645,-20.5007],[15.4708,-20.5078],[15.4785,-20.5184],[15.4933,-20.5306],[15.5137,-20.5396],[15.556,-20.5538],[15.6007,-20.5626],[15.5964,-20.6687],[15.5987,-20.679],[15.6057,-20.6934],[15.6564,-20.7081],[15.6645,-20.7092],[15.675,-20.708],[15.7094,-20.7008],[15.72,-20.7001],[15.7247,-20.7035],[15.7283,-20.7101],[15.7435,-20.7612],[15.7531,-20.7725],[15.8323,-20.8405],[16.0325,-20.9419],[16.0925,-20.9963],[16.1395,-21.0129],[16.1813,-21.0356],[16.1928,-21.04],[16.1999,-21.0381],[16.2065,-21.0334],[16.2492,-20.9898],[16.2553,-20.9855],[16.2587,-20.9875],[16.2608,-20.9934],[16.2683,-21.0269],[16.2751,-21.0396],[16.286,-21.0519],[16.3123,-21.0744],[16.3263,-21.0838],[16.3429,-21.0921],[16.351,-21.0971],[16.3847,-21.1291],[16.3885,-21.1339],[16.3956,-21.148],[16.4008,-21.1557],[16.4082,-21.1592],[16.4174,-21.1613],[16.5146,-21.1721],[16.5149,-21.2302],[16.5066,-21.2629],[16.5366,-21.3865],[16.533,-21.4161],[16.493,-21.4521],[16.4541,-21.5019],[16.4414,-21.5152],[16.4377,-21.5238],[16.434,-21.5363],[16.4233,-21.6154],[16.3934,-21.728],[16.4321,-21.8425],[16.4333,-21.8654],[16.4388,-21.8822],[16.443,-21.8845],[16.4513,-21.888],[16.4607,-21.8961],[16.4765,-21.9197],[16.4788,-21.9347],[16.477,-21.9476],[16.4713,-21.9571],[16.4672,-21.9664],[16.4663,-21.9753],[16.4717,-21.9845],[16.4788,-21.9937],[16.4812,-21.9988],[16.4807,-22.0029],[16.4773,-22.0087],[16.4698,-22.0364],[16.4688,-22.0651],[16.4611,-22.0749],[16.4518,-22.0794],[16.441,-22.0785],[16.4321,-22.0788],[16.4277,-22.0814],[16.4317,-22.0899],[16.4645,-22.1349],[16.4682,-22.1438],[16.4623,-22.1472],[16.4416,-22.1564],[16.4306,-22.1693],[16.3969,-22.1924],[16.3912,-22.1992],[16.3927,-22.2088],[16.4205,-22.2686],[16.4205,-22.2759],[16.4184,-22.2812],[16.4113,-22.2891],[16.4081,-22.2942],[16.406,-22.3024],[16.4087,-22.3126],[16.4143,-22.3239],[16.447,-22.3739],[16.406,-22.3902],[16.3586,-22.4228],[16.3482,-22.439],[16.3432,-22.4547],[16.3423,-22.4993],[16.3408,-22.5039],[16.3371,-22.5109],[16.3263,-22.5124],[16.3128,-22.5123],[16.2983,-22.5107],[16.2853,-22.5105],[16.274,-22.5128],[16.2643,-22.5226],[16.2291,-22.5503],[16.2161,-22.5688],[16.1868,-22.5928],[16.1721,-22.6007],[16.1591,-22.6058],[16.147,-22.6053],[16.0855,-22.589],[16.0706,-22.5891],[16.057,-22.5973],[15.9786,-22.673],[15.9607,-22.6948],[15.9643,-22.6998],[15.9687,-22.7023],[16.0436,-22.7003],[16.053,-22.7015],[16.0598,-22.704],[16.0625,-22.7123],[16.0631,-22.7206],[16.062,-22.8238],[16.0604,-22.8357],[16.0561,-22.8451],[16.0451,-22.8481],[15.9849,-22.8486],[15.9727,-22.85],[15.9558,-22.8537],[15.9404,-22.8644],[15.9128,-22.8768],[15.9021,-22.8906],[15.8954,-22.9042],[15.8839,-22.9953],[15.8837,-23.0001],[15.8846,-23.0044],[15.8874,-23.013],[15.8917,-23.0336],[15.8939,-23.0552],[15.8936,-23.0659],[15.8914,-23.0763],[15.8734,-23.1261],[15.871,-23.136],[15.8707,-23.1456],[15.8757,-23.1547],[15.9207,-23.2055],[15.9238,-23.2127],[15.9179,-23.2179],[15.908,-23.2219],[15.8264,-23.2471],[15.8507,-23.3684],[15.8511,-23.3736],[15.8502,-23.38],[15.845,-23.3828],[15.8364,-23.385],[15.8031,-23.3901],[15.7933,-23.3935],[15.7868,-23.4007],[15.7815,-23.4096],[15.7548,-23.4685],[15.7518,-23.4779],[15.7515,-23.4864],[15.7576,-23.4923],[15.7648,-23.4964],[15.8414,-23.5295],[15.8492,-23.535],[15.8514,-23.5429],[15.852,-23.5523],[15.84,-23.696],[15.8415,-23.7044],[15.8523,-23.7441],[15.8526,-23.75],[15.8462,-23.7884],[15.8264,-23.8057],[15.7424,-23.8136],[15.4522,-23.6939],[15.3379,-23.6653],[15.3239,-23.6642],[15.3027,-23.6662],[15.2018,-23.6505],[15.1287,-23.6562],[15.1066,-23.6547],[15.0953,-23.6526],[15.0871,-23.65],[15.0826,-23.6471],[15.0786,-23.644],[15.0715,-23.6366],[15.0466,-23.6016],[14.4841,-23.551]]]}},{"type":"Feature","properties":{"id":"NAM-3339","name":"Hardap","nameBn":"হারডাপ অঞ্চল","type":"Region","bounds":[14.4519,-25.8613,19.9821,-23.1809],"center":[17.2167,-24.5108]},"geometry":{"type":"Polygon","coordinates":[[[19.9814,-24.7525],[19.9818,-24.765],[19.9818,-24.821],[19.9818,-24.8771],[19.9818,-24.9333],[19.9819,-24.9893],[19.982,-25.0454],[19.982,-25.1014],[19.982,-25.1574],[19.982,-25.2136],[19.982,-25.2697],[19.982,-25.3257],[19.982,-25.3817],[19.9821,-25.4378],[19.9821,-25.4938],[19.9821,-25.55],[19.9821,-25.6061],[19.9821,-25.619],[19.9816,-25.6191],[19.9361,-25.6251],[19.9218,-25.6144],[19.9021,-25.6162],[19.8871,-25.6193],[19.7752,-25.6682],[19.7545,-25.6746],[19.742,-25.6729],[19.6991,-25.6556],[19.6031,-25.6388],[19.5874,-25.6341],[19.5725,-25.6275],[19.5483,-25.6105],[19.5232,-25.6028],[19.4681,-25.5952],[19.4206,-25.5947],[19.3942,-25.5991],[19.3857,-25.6032],[19.3548,-25.6249],[19.3428,-25.6306],[19.3345,-25.6282],[19.3251,-25.6183],[19.2372,-25.4974],[19.2311,-25.4918],[19.2223,-25.4868],[19.2127,-25.4912],[19.205,-25.4968],[19.1837,-25.5162],[19.093,-25.5592],[19.0776,-25.5638],[18.6412,-25.5292],[18.565,-25.4939],[18.5428,-25.4772],[18.4747,-25.4448],[18.2509,-25.462],[17.7677,-25.5663],[17.6366,-25.5769],[17.4451,-25.5595],[17.431,-25.5551],[17.4206,-25.5499],[17.4143,-25.549],[17.4067,-25.5519],[17.3894,-25.5607],[17.3604,-25.571],[17.3382,-25.5842],[17.3346,-25.7583],[17.1689,-25.6939],[17.1537,-25.6922],[17.1008,-25.7097],[17.0708,-25.7101],[16.996,-25.7303],[16.9768,-25.7325],[16.9709,-25.7265],[16.968,-25.7157],[16.9667,-25.703],[16.9631,-25.6908],[16.9532,-25.6818],[16.9254,-25.6657],[16.8802,-25.6517],[16.8376,-25.647],[16.813,-25.6306],[16.7957,-25.6236],[16.7879,-25.6188],[16.6118,-25.5863],[16.5946,-25.5877],[16.5814,-25.5874],[16.5734,-25.5838],[16.5654,-25.5734],[16.5413,-25.5317],[16.5326,-25.5228],[16.5243,-25.5204],[16.5122,-25.5375],[16.4744,-25.6121],[16.4584,-25.6328],[16.4163,-25.6603],[16.4014,-25.6134],[16.4011,-25.6038],[16.405,-25.5974],[16.41,-25.5904],[16.4087,-25.5855],[16.4019,-25.5788],[16.3924,-25.5717],[16.3816,-25.5653],[16.3702,-25.5612],[16.3574,-25.5624],[16.307,-25.5766],[16.2968,-25.5808],[16.2887,-25.5861],[16.2872,-25.5949],[16.2881,-25.6051],[16.341,-25.8538],[16.3343,-25.8596],[16.3194,-25.8613],[16.2742,-25.8467],[16.2497,-25.8458],[16.2296,-25.8482],[16.2167,-25.855],[16.2036,-25.8595],[16.1907,-25.8601],[16.1775,-25.8498],[15.9756,-25.6006],[15.9654,-25.5904],[15.9545,-25.5833],[15.941,-25.5837],[15.9283,-25.5859],[15.8911,-25.5967],[15.8797,-25.5986],[15.8701,-25.598],[15.8653,-25.5898],[15.8625,-25.58],[15.7827,-25.0868],[15.7587,-25.0061],[14.8325,-25.0001],[14.8294,-25.0001],[14.8088,-24.9611],[14.7962,-24.922],[14.793,-24.8419],[14.7808,-24.8034],[14.7235,-24.7035],[14.6995,-24.673],[14.6502,-24.6288],[14.6361,-24.5989],[14.6019,-24.5624],[14.5959,-24.5372],[14.5996,-24.5265],[14.6138,-24.5117],[14.617,-24.5058],[14.617,-24.4648],[14.6123,-24.4457],[14.5901,-24.4084],[14.5681,-24.3577],[14.5139,-24.2615],[14.4932,-24.1923],[14.4736,-24.1591],[14.4668,-24.1132],[14.4592,-24.0983],[14.4642,-24.0782],[14.4641,-24.0447],[14.4596,-24.0104],[14.4519,-23.9885],[14.4592,-23.9745],[14.4658,-23.9472],[14.4729,-23.9339],[14.4792,-23.9311],[14.4883,-23.9296],[14.4966,-23.926],[14.5003,-23.9164],[14.5139,-23.8923],[14.506,-23.8801],[14.5071,-23.8239],[14.4895,-23.7761],[14.4866,-23.7585],[14.5003,-23.6144],[14.4953,-23.5785],[14.4841,-23.551],[15.0466,-23.6016],[15.0715,-23.6366],[15.0786,-23.644],[15.0826,-23.6471],[15.0871,-23.65],[15.0953,-23.6526],[15.1066,-23.6547],[15.1287,-23.6562],[15.2018,-23.6505],[15.3027,-23.6662],[15.3239,-23.6642],[15.3379,-23.6653],[15.4522,-23.6939],[15.7424,-23.8136],[15.7347,-23.8922],[15.7397,-23.9171],[15.7509,-23.9446],[15.8116,-23.973],[15.8396,-23.975],[15.9139,-23.9715],[15.9232,-23.9691],[15.9285,-23.9632],[15.9331,-23.9548],[15.9369,-23.9452],[15.9458,-23.9368],[15.9584,-23.9305],[16.0047,-23.9297],[16.1334,-23.8925],[16.1402,-23.8919],[16.1712,-23.895],[16.1826,-23.8946],[16.1941,-23.8904],[16.2546,-23.8597],[16.2619,-23.8582],[16.2596,-23.8653],[16.2491,-23.8839],[16.245,-23.8961],[16.243,-23.9094],[16.2466,-23.9289],[16.2429,-23.9364],[16.2349,-23.9408],[16.2157,-23.9429],[16.2104,-23.9447],[16.2036,-23.9491],[16.2027,-23.9597],[16.2087,-23.9746],[16.2639,-24.0135],[16.3203,-24.025],[16.3101,-24.0001],[16.2919,-23.939],[16.3024,-23.9133],[16.3407,-23.8781],[16.3497,-23.8722],[16.3575,-23.8717],[16.39,-23.8797],[16.4794,-23.8856],[16.4884,-23.885],[16.4934,-23.8822],[16.4976,-23.8761],[16.5033,-23.864],[16.5054,-23.8565],[16.5048,-23.8503],[16.497,-23.8287],[16.4928,-23.8215],[16.4865,-23.8172],[16.4772,-23.8136],[16.4013,-23.7938],[16.3913,-23.7937],[16.3742,-23.8025],[16.3652,-23.8031],[16.2791,-23.7842],[16.2718,-23.7802],[16.2708,-23.7731],[16.2721,-23.7641],[16.2884,-23.7067],[16.3365,-23.6171],[16.3423,-23.6096],[16.3484,-23.6049],[16.362,-23.6134],[16.3713,-23.6225],[16.3733,-23.6283],[16.3769,-23.6779],[16.3795,-23.6854],[16.3869,-23.6881],[16.4537,-23.688],[16.4645,-23.686],[16.4739,-23.6803],[16.5769,-23.5861],[16.5802,-23.5778],[16.5803,-23.5678],[16.5732,-23.5369],[16.5698,-23.5281],[16.564,-23.5225],[16.4951,-23.4879],[16.4912,-23.4853],[16.4866,-23.4803],[16.488,-23.4733],[16.4914,-23.4649],[16.6066,-23.2541],[16.6212,-23.2355],[16.6331,-23.234],[16.657,-23.2447],[16.6748,-23.2594],[16.696,-23.265],[16.7156,-23.2663],[16.738,-23.2624],[16.775,-23.2611],[16.8193,-23.2719],[16.9004,-23.2539],[16.9502,-23.2336],[17.0102,-23.1931],[17.0769,-23.1809],[17.1186,-23.1811],[17.1625,-23.195],[17.1794,-23.2027],[17.1884,-23.2165],[17.1927,-23.2425],[17.1946,-23.2853],[17.2107,-23.3079],[17.2451,-23.3143],[17.3351,-23.3009],[17.4029,-23.2978],[17.4599,-23.2855],[17.4759,-23.2845],[17.4784,-23.2853],[17.4425,-23.3186],[17.4355,-23.3272],[17.4335,-23.3347],[17.4335,-23.3442],[17.4378,-23.3958],[17.4364,-23.404],[17.4313,-23.408],[17.3951,-23.4184],[17.3912,-23.4247],[17.3908,-23.4339],[17.4033,-23.4945],[17.4077,-23.4988],[17.4124,-23.5012],[17.4289,-23.5061],[17.437,-23.5094],[17.4403,-23.5134],[17.4422,-23.5216],[17.4502,-23.6103],[17.4564,-23.6059],[17.624,-23.6085],[17.6344,-23.6075],[17.6428,-23.6046],[17.6462,-23.5954],[17.6549,-23.5864],[17.6693,-23.5783],[17.8597,-23.5738],[17.9103,-23.5868],[17.9201,-23.5908],[17.928,-23.5974],[17.9637,-23.6395],[17.9724,-23.6454],[17.9809,-23.647],[18.0203,-23.6305],[18.0306,-23.6287],[18.0388,-23.634],[18.0556,-23.6382],[18.0705,-23.6363],[18.0894,-23.632],[18.1665,-23.6011],[18.2095,-23.5908],[18.2211,-23.5852],[18.2237,-23.5747],[18.2255,-23.5537],[18.2286,-23.5446],[18.2373,-23.538],[18.3234,-23.5008],[18.3918,-23.464],[18.4144,-23.4628],[18.4435,-23.5037],[18.4422,-23.517],[18.5341,-23.6837],[18.5402,-23.688],[18.5465,-23.6845],[18.5632,-23.6681],[18.5727,-23.6611],[18.5824,-23.6576],[18.5941,-23.6644],[18.6047,-23.673],[18.6544,-23.7209],[18.67,-23.7296],[18.6897,-23.7353],[18.7717,-23.7495],[18.7845,-23.7488],[18.9712,-23.6793],[18.9801,-23.6782],[19.0342,-23.6811],[19.0412,-23.6837],[19.0407,-23.6896],[19.0367,-23.6979],[19.0351,-23.7064],[19.0386,-23.7137],[19.0584,-23.7167],[19.1515,-23.72],[19.1564,-23.7181],[19.1608,-23.714],[19.2063,-23.6605],[19.2181,-23.6542],[19.2332,-23.6539],[19.257,-23.6583],[19.2662,-23.6664],[19.2707,-23.6762],[19.275,-23.8538],[19.3441,-23.8617],[19.9799,-23.8645],[19.9805,-23.8645],[19.9805,-23.8925],[19.9807,-24.0645],[19.9808,-24.2366],[19.9811,-24.4084],[19.9813,-24.5804],[19.9814,-24.7525]]]}},{"type":"Feature","properties":{"id":"NAM-3338","name":"Karas","nameBn":"কারাস অঞ্চল","type":"Region","bounds":[14.8013,-28.9594,19.9832,-25.0001],"center":[17.4903,-27.0276]},"geometry":{"type":"Polygon","coordinates":[[[17.2452,-28.2374],[17.2131,-28.2321],[17.192,-28.2088],[17.1871,-28.162],[17.1898,-28.1394],[17.19,-28.1168],[17.1809,-28.0995],[17.1558,-28.0925],[17.1363,-28.0847],[17.1232,-28.0665],[17.1118,-28.046],[17.0978,-28.0312],[17.0865,-28.027],[17.0764,-28.0268],[17.0567,-28.0312],[17.0454,-28.0363],[17.012,-28.0583],[16.9854,-28.0522],[16.9738,-28.055],[16.9595,-28.0686],[16.9475,-28.0727],[16.9375,-28.071],[16.9275,-28.0602],[16.9196,-28.0583],[16.9135,-28.0627],[16.8965,-28.0799],[16.893,-28.0826],[16.8855,-28.162],[16.8782,-28.172],[16.8738,-28.1715],[16.8687,-28.1679],[16.852,-28.1683],[16.8478,-28.1654],[16.8438,-28.1639],[16.8377,-28.1682],[16.8357,-28.1742],[16.8384,-28.1795],[16.856,-28.1994],[16.8564,-28.2066],[16.8411,-28.2099],[16.8198,-28.2097],[16.8143,-28.2135],[16.8103,-28.2229],[16.8133,-28.2299],[16.8208,-28.24],[16.8266,-28.2519],[16.8246,-28.2645],[16.8152,-28.2708],[16.8051,-28.2677],[16.7952,-28.2612],[16.7865,-28.2576],[16.7687,-28.2654],[16.7644,-28.2832],[16.7684,-28.3037],[16.7755,-28.3191],[16.7968,-28.3478],[16.8039,-28.3661],[16.7932,-28.3743],[16.7785,-28.383],[16.7734,-28.4029],[16.7721,-28.4258],[16.7693,-28.4426],[16.7584,-28.4597],[16.7404,-28.4809],[16.7205,-28.496],[16.7038,-28.4945],[16.6997,-28.4852],[16.6968,-28.4725],[16.6923,-28.4611],[16.6835,-28.4562],[16.6731,-28.4598],[16.5974,-28.5262],[16.5591,-28.5371],[16.5315,-28.5497],[16.5054,-28.5654],[16.4871,-28.5729],[16.4685,-28.5851],[16.4585,-28.6005],[16.4458,-28.6105],[16.4194,-28.607],[16.4079,-28.6005],[16.3469,-28.5561],[16.3159,-28.5243],[16.301,-28.5045],[16.1934,-28.4088],[16.1758,-28.4021],[16.168,-28.3958],[16.1077,-28.3233],[16.0436,-28.2571],[15.9111,-28.1713],[15.8843,-28.1476],[15.8332,-28.0893],[15.7615,-28.0383],[15.7478,-28.0246],[15.7168,-27.9804],[15.6843,-27.9499],[15.6789,-27.9428],[15.678,-27.9312],[15.6846,-27.9108],[15.6858,-27.9013],[15.673,-27.8699],[15.646,-27.8366],[15.5462,-27.7478],[15.5335,-27.7302],[15.5287,-27.7062],[15.5291,-27.6542],[15.5269,-27.6462],[15.5207,-27.6337],[15.4251,-27.4965],[15.4089,-27.4645],[15.3968,-27.4487],[15.3804,-27.442],[15.3718,-27.433],[15.3425,-27.3805],[15.3016,-27.3331],[15.2953,-27.3224],[15.2817,-27.2433],[15.2762,-27.2336],[15.2695,-27.2263],[15.2637,-27.2184],[15.2612,-27.2057],[15.2681,-27.1648],[15.2542,-27.1002],[15.2612,-27.0856],[15.2412,-27.0488],[15.2354,-27.0295],[15.2332,-27.0069],[15.2342,-26.9654],[15.2285,-26.9456],[15.2127,-26.928],[15.2057,-26.9256],[15.1875,-26.9242],[15.1786,-26.9212],[15.1766,-26.9168],[15.1697,-26.9062],[15.1624,-26.8971],[15.1589,-26.8971],[15.1559,-26.8751],[15.1489,-26.8564],[15.1169,-26.7962],[15.1117,-26.7792],[15.1162,-26.752],[15.1057,-26.7324],[15.0916,-26.7122],[15.083,-26.6952],[15.0808,-26.6721],[15.0835,-26.6521],[15.0918,-26.638],[15.1066,-26.6326],[15.117,-26.6303],[15.1271,-26.6267],[15.1346,-26.6271],[15.1377,-26.6367],[15.1377,-26.6749],[15.1445,-26.6749],[15.1484,-26.655],[15.1681,-26.6028],[15.1687,-26.5922],[15.1623,-26.579],[15.1419,-26.518],[15.1288,-26.4576],[15.1056,-26.4206],[15.0725,-26.3897],[15.0347,-26.3663],[14.9753,-26.3442],[14.9663,-26.3352],[14.9588,-26.257],[14.9627,-26.1813],[14.9426,-26.1539],[14.9391,-26.1471],[14.9431,-26.1353],[14.9491,-26.135],[14.9569,-26.1376],[14.9663,-26.1336],[14.9798,-26.1017],[14.979,-26.0588],[14.9683,-26.0158],[14.9526,-25.9827],[14.9077,-25.9153],[14.9021,-25.8825],[14.9186,-25.8455],[14.9111,-25.8455],[14.8599,-25.7903],[14.8428,-25.7636],[14.8403,-25.7517],[14.8403,-25.7433],[14.8428,-25.7294],[14.8428,-25.6503],[14.8469,-25.6298],[14.877,-25.5781],[14.8797,-25.5615],[14.8796,-25.5387],[14.8753,-25.5185],[14.8533,-25.4987],[14.847,-25.4733],[14.8428,-25.4278],[14.818,-25.367],[14.8125,-25.3201],[14.8024,-25.2829],[14.8013,-25.2628],[14.8323,-25.1882],[14.8294,-25.1764],[14.8496,-25.1051],[14.8533,-25.0642],[14.8433,-25.0261],[14.8294,-25.0001],[14.8325,-25.0001],[15.7587,-25.0061],[15.7827,-25.0868],[15.8625,-25.58],[15.8653,-25.5898],[15.8701,-25.598],[15.8797,-25.5986],[15.8911,-25.5967],[15.9283,-25.5859],[15.941,-25.5837],[15.9545,-25.5833],[15.9654,-25.5904],[15.9756,-25.6006],[16.1775,-25.8498],[16.1907,-25.8601],[16.2036,-25.8595],[16.2167,-25.855],[16.2296,-25.8482],[16.2497,-25.8458],[16.2742,-25.8467],[16.3194,-25.8613],[16.3343,-25.8596],[16.341,-25.8538],[16.2881,-25.6051],[16.2872,-25.5949],[16.2887,-25.5861],[16.2968,-25.5808],[16.307,-25.5766],[16.3574,-25.5624],[16.3702,-25.5612],[16.3816,-25.5653],[16.3924,-25.5717],[16.4019,-25.5788],[16.4087,-25.5855],[16.41,-25.5904],[16.405,-25.5974],[16.4011,-25.6038],[16.4014,-25.6134],[16.4163,-25.6603],[16.4584,-25.6328],[16.4744,-25.6121],[16.5122,-25.5375],[16.5243,-25.5204],[16.5326,-25.5228],[16.5413,-25.5317],[16.5654,-25.5734],[16.5734,-25.5838],[16.5814,-25.5874],[16.5946,-25.5877],[16.6118,-25.5863],[16.7879,-25.6188],[16.7957,-25.6236],[16.813,-25.6306],[16.8376,-25.647],[16.8802,-25.6517],[16.9254,-25.6657],[16.9532,-25.6818],[16.9631,-25.6908],[16.9667,-25.703],[16.968,-25.7157],[16.9709,-25.7265],[16.9768,-25.7325],[16.996,-25.7303],[17.0708,-25.7101],[17.1008,-25.7097],[17.1537,-25.6922],[17.1689,-25.6939],[17.3346,-25.7583],[17.3382,-25.5842],[17.3604,-25.571],[17.3894,-25.5607],[17.4067,-25.5519],[17.4143,-25.549],[17.4206,-25.5499],[17.431,-25.5551],[17.4451,-25.5595],[17.6366,-25.5769],[17.7677,-25.5663],[18.2509,-25.462],[18.4747,-25.4448],[18.5428,-25.4772],[18.565,-25.4939],[18.6412,-25.5292],[19.0776,-25.5638],[19.093,-25.5592],[19.1837,-25.5162],[19.205,-25.4968],[19.2127,-25.4912],[19.2223,-25.4868],[19.2311,-25.4918],[19.2372,-25.4974],[19.3251,-25.6183],[19.3345,-25.6282],[19.3428,-25.6306],[19.3548,-25.6249],[19.3857,-25.6032],[19.3942,-25.5991],[19.4206,-25.5947],[19.4681,-25.5952],[19.5232,-25.6028],[19.5483,-25.6105],[19.5725,-25.6275],[19.5874,-25.6341],[19.6031,-25.6388],[19.6991,-25.6556],[19.742,-25.6729],[19.7545,-25.6746],[19.7752,-25.6682],[19.8871,-25.6193],[19.9021,-25.6162],[19.9218,-25.6144],[19.9361,-25.6251],[19.9816,-25.6191],[19.9821,-25.619],[19.9821,-25.6621],[19.9821,-25.7181],[19.9821,-25.7741],[19.9821,-25.8303],[19.9822,-25.8863],[19.9823,-25.9424],[19.9823,-25.9985],[19.9823,-26.0545],[19.9823,-26.1105],[19.9823,-26.1667],[19.9824,-26.2227],[19.9824,-26.2788],[19.9824,-26.3348],[19.9824,-26.3909],[19.9824,-26.447],[19.9824,-26.5031],[19.9825,-26.5591],[19.9826,-26.6151],[19.9826,-26.6712],[19.9826,-26.7273],[19.9826,-26.7834],[19.9826,-26.8394],[19.9827,-26.8955],[19.9827,-26.9515],[19.9827,-27.0077],[19.9827,-27.0637],[19.9827,-27.1197],[19.9827,-27.1758],[19.9828,-27.2319],[19.9829,-27.2879],[19.9829,-27.3441],[19.9829,-27.4002],[19.9829,-27.4561],[19.9829,-27.5121],[19.9829,-27.5682],[19.9829,-27.6244],[19.983,-27.6804],[19.983,-27.7365],[19.983,-27.7926],[19.983,-27.8485],[19.983,-27.9047],[19.983,-27.9608],[19.983,-28.0168],[19.983,-28.0729],[19.9831,-28.129],[19.9832,-28.185],[19.9832,-28.2411],[19.9832,-28.2972],[19.9832,-28.3532],[19.9832,-28.3927],[19.9817,-28.4223],[19.9505,-28.4293],[19.9402,-28.4302],[19.9079,-28.4265],[19.8967,-28.4277],[19.8703,-28.4408],[19.8256,-28.4767],[19.7963,-28.4842],[19.7481,-28.4871],[19.7253,-28.4942],[19.7056,-28.508],[19.6883,-28.516],[19.588,-28.5227],[19.5792,-28.5252],[19.5688,-28.5312],[19.5624,-28.5381],[19.5565,-28.5462],[19.5476,-28.5559],[19.5422,-28.564],[19.5337,-28.5824],[19.5274,-28.586],[19.5178,-28.5894],[19.5117,-28.598],[19.4829,-28.6782],[19.4724,-28.6927],[19.4551,-28.7052],[19.4346,-28.7135],[19.3535,-28.7319],[19.339,-28.7375],[19.3284,-28.7358],[19.3045,-28.7187],[19.29,-28.7197],[19.2773,-28.7294],[19.2659,-28.7426],[19.2486,-28.7716],[19.245,-28.7925],[19.2516,-28.8143],[19.2889,-28.871],[19.2884,-28.8831],[19.2766,-28.8895],[19.2437,-28.8919],[19.2376,-28.8956],[19.2267,-28.9115],[19.2185,-28.9189],[19.1615,-28.9454],[19.1202,-28.9575],[19.0817,-28.9594],[19.0647,-28.9398],[19.0601,-28.9357],[19.049,-28.9324],[19.014,-28.9285],[19.0069,-28.9263],[18.9964,-28.9155],[18.9712,-28.8805],[18.9545,-28.8667],[18.7457,-28.8399],[18.5539,-28.8647],[18.5177,-28.8823],[18.4962,-28.8883],[18.4916,-28.8863],[18.4794,-28.8763],[18.475,-28.874],[18.4694,-28.8749],[18.4607,-28.8799],[18.4552,-28.8814],[18.4357,-28.8842],[18.4247,-28.8872],[18.417,-28.8917],[18.3976,-28.8989],[18.3731,-28.8952],[18.331,-28.8814],[18.3087,-28.88],[18.2207,-28.8913],[18.1851,-28.9022],[18.1665,-28.9019],[18.0824,-28.876],[18.0441,-28.8584],[17.9833,-28.8137],[17.9495,-28.7947],[17.9133,-28.7813],[17.7463,-28.7486],[17.7141,-28.7511],[17.7032,-28.7556],[17.6834,-28.7675],[17.6738,-28.7716],[17.661,-28.7723],[17.6287,-28.7641],[17.6071,-28.7557],[17.6026,-28.7354],[17.6034,-28.7108],[17.598,-28.6896],[17.5829,-28.6802],[17.566,-28.6835],[17.547,-28.6914],[17.5266,-28.6958],[17.4852,-28.7002],[17.4409,-28.7096],[17.4036,-28.7043],[17.4018,-28.6742],[17.4143,-28.6327],[17.4206,-28.5934],[17.4096,-28.5714],[17.373,-28.5594],[17.3653,-28.5425],[17.3595,-28.5198],[17.3324,-28.4886],[17.3242,-28.4705],[17.3282,-28.4561],[17.3412,-28.4428],[17.3586,-28.4328],[17.3754,-28.429],[17.3913,-28.4188],[17.3997,-28.3953],[17.4021,-28.3678],[17.4,-28.3464],[17.3948,-28.3351],[17.3789,-28.3163],[17.372,-28.3061],[17.3681,-28.2938],[17.367,-28.2835],[17.3641,-28.2733],[17.355,-28.261],[17.3512,-28.2514],[17.3498,-28.2387],[17.3457,-28.2276],[17.3345,-28.2229],[17.3086,-28.2241],[17.2452,-28.2374]]]}},{"type":"Feature","properties":{"id":"NAM-3354","name":"Kavango","nameBn":"কাভাঙ্গো অঞ্চল","type":"Region","bounds":[18.0002,-19.1889,20.9934,-17.3891],"center":[19.4968,-18.5224]},"geometry":{"type":"Polygon","coordinates":[[[18.0005,-17.3891],[18.1357,-17.3892],[18.3923,-17.3893],[18.4457,-17.3893],[18.4536,-17.3899],[18.455,-17.396],[18.4586,-17.4053],[18.4652,-17.4092],[18.4717,-17.4143],[18.4881,-17.4521],[18.4899,-17.4624],[18.4928,-17.4645],[18.5166,-17.4713],[18.5509,-17.5353],[18.5541,-17.5464],[18.5675,-17.5533],[18.6197,-17.5948],[18.6229,-17.6022],[18.6279,-17.6199],[18.6333,-17.6289],[18.6428,-17.638],[18.6613,-17.6467],[18.6709,-17.6531],[18.7283,-17.7109],[18.7482,-17.7363],[18.762,-17.7477],[18.8008,-17.7566],[18.89,-17.7993],[19.0206,-17.8223],[19.1051,-17.8182],[19.1393,-17.8053],[19.1608,-17.8009],[19.1721,-17.8012],[19.2019,-17.8071],[19.2466,-17.804],[19.2624,-17.8139],[19.4213,-17.8594],[19.5928,-17.8573],[19.6498,-17.845],[19.6726,-17.8427],[19.6932,-17.8477],[19.7022,-17.8657],[19.7113,-17.873],[19.7321,-17.8821],[19.7552,-17.8891],[19.771,-17.8903],[19.776,-17.8851],[19.7877,-17.8665],[19.794,-17.8623],[19.952,-17.8623],[19.9895,-17.8828],[20.0245,-17.8946],[20.0343,-17.8959],[20.0926,-17.8903],[20.1199,-17.8907],[20.133,-17.8888],[20.1471,-17.8828],[20.1546,-17.8903],[20.1692,-17.8781],[20.1931,-17.8721],[20.2199,-17.8734],[20.2434,-17.8828],[20.2782,-17.8549],[20.2889,-17.8616],[20.3028,-17.8608],[20.3362,-17.8549],[20.3477,-17.8589],[20.3868,-17.8903],[20.4126,-17.8841],[20.4375,-17.8945],[20.4601,-17.9137],[20.4795,-17.9344],[20.4895,-17.9421],[20.5239,-17.9585],[20.5529,-17.9791],[20.5655,-17.9852],[20.5907,-17.9788],[20.6301,-17.9769],[20.6663,-17.9802],[20.6822,-17.9886],[20.6896,-17.997],[20.7062,-18.0038],[20.7225,-18.0065],[20.7299,-18.0024],[20.7375,-17.9935],[20.7544,-17.9979],[20.7846,-18.0126],[20.8062,-18.0314],[20.8319,-18.0293],[20.8616,-18.0188],[20.8945,-18.0126],[20.9083,-17.9861],[20.9865,-17.9658],[20.9933,-18.3184],[20.9934,-18.3185],[20.9934,-18.3186],[20.9751,-18.3193],[20.9751,-18.3478],[20.9751,-18.3886],[20.9751,-18.4293],[20.9751,-18.4701],[20.9751,-18.5111],[20.9751,-18.552],[20.9751,-18.5927],[20.9751,-18.6335],[20.9751,-18.6744],[20.9751,-18.7152],[20.9751,-18.756],[20.9751,-18.7968],[20.9751,-18.8377],[20.9751,-18.8784],[20.9751,-18.9192],[20.9751,-18.96],[20.9751,-19.001],[20.9755,-19.1259],[20.9756,-19.1721],[20.9751,-19.1721],[19.2347,-19.1889],[19.236,-18.8151],[18.1946,-18.76],[18.0093,-18.749],[18.0002,-17.7659],[18.0005,-17.3891]]]}},{"type":"Feature","properties":{"id":"NAM-3340","name":"Khomas","nameBn":"খুমাস অঞ্চল","type":"Region","bounds":[15.7347,-24.025,18.5062,-21.7053],"center":[17.1204,-22.7056]},"geometry":{"type":"Polygon","coordinates":[[[16.3263,-22.5124],[16.3371,-22.5109],[16.3408,-22.5039],[16.3423,-22.4993],[16.3432,-22.4547],[16.3482,-22.439],[16.3586,-22.4228],[16.406,-22.3902],[16.447,-22.3739],[16.5267,-22.3561],[16.5372,-22.3621],[16.5512,-22.3677],[16.5572,-22.3735],[16.5639,-22.3695],[16.5712,-22.3621],[16.5859,-22.3432],[16.594,-22.3353],[16.6026,-22.3301],[16.6119,-22.3335],[16.6322,-22.3475],[16.6427,-22.3524],[16.652,-22.3493],[16.6617,-22.3451],[16.6713,-22.345],[16.701,-22.348],[16.732,-22.3465],[16.7417,-22.3391],[16.7458,-22.3295],[16.7425,-22.32],[16.7377,-22.3129],[16.7285,-22.3117],[16.6953,-22.3166],[16.6864,-22.3156],[16.6824,-22.3092],[16.6814,-22.3017],[16.6827,-22.2959],[16.6882,-22.2893],[16.7162,-22.2428],[16.7243,-22.2343],[16.7338,-22.2309],[16.7431,-22.2301],[16.7496,-22.2324],[16.7543,-22.2403],[16.762,-22.2612],[16.7707,-22.2703],[16.783,-22.2778],[16.8109,-22.2792],[16.823,-22.2862],[16.8369,-22.2971],[16.8468,-22.2957],[16.8926,-22.2798],[16.9058,-22.2795],[16.9172,-22.2733],[16.927,-22.266],[16.9471,-22.2473],[16.9577,-22.2392],[16.9695,-22.2331],[16.9779,-22.238],[16.9854,-22.2471],[16.9913,-22.2574],[16.9978,-22.2654],[17.0027,-22.266],[17.0112,-22.2608],[17.0776,-22.2085],[17.0882,-22.2015],[17.0981,-22.1981],[17.1051,-22.204],[17.1113,-22.2134],[17.117,-22.2245],[17.1234,-22.2339],[17.1309,-22.24],[17.1416,-22.2374],[17.2376,-22.1956],[17.2506,-22.1839],[17.2569,-22.1723],[17.2568,-22.1413],[17.2584,-22.1318],[17.2643,-22.1223],[17.2806,-22.1034],[17.2891,-22.0952],[17.2982,-22.0889],[17.3032,-22.0935],[17.3069,-22.102],[17.3123,-22.1231],[17.316,-22.1315],[17.3206,-22.1355],[17.3301,-22.134],[17.3775,-22.115],[17.388,-22.1095],[17.3956,-22.1032],[17.397,-22.0939],[17.3949,-22.0752],[17.3962,-22.0702],[17.4035,-22.0713],[17.444,-22.0874],[17.4533,-22.0887],[17.4587,-22.0827],[17.4633,-22.0743],[17.4734,-22.0469],[17.4737,-22.041],[17.471,-22.0319],[17.4505,-21.9779],[17.4496,-21.9687],[17.4562,-21.9665],[17.4768,-21.9671],[17.488,-21.9658],[17.4982,-21.9596],[17.5079,-21.9524],[17.5157,-21.9443],[17.5197,-21.9384],[17.5269,-21.9197],[17.5357,-21.9093],[17.5469,-21.9018],[17.5802,-21.8838],[17.5855,-21.8789],[17.5978,-21.8508],[17.6046,-21.8402],[17.6147,-21.8346],[17.6258,-21.8306],[17.6724,-21.8189],[17.6831,-21.8173],[17.6922,-21.8184],[17.7013,-21.8254],[17.7173,-21.8414],[17.7235,-21.8437],[17.7306,-21.8429],[17.76,-21.8336],[17.8073,-21.8242],[17.8344,-21.8124],[17.8461,-21.8038],[17.8668,-21.7845],[17.9013,-21.7583],[17.9491,-21.7381],[17.9906,-21.7296],[18.0126,-21.7326],[18.1179,-21.7053],[18.126,-21.7646],[18.1134,-21.788],[18.0881,-21.8159],[18.0723,-21.8425],[18.0681,-21.854],[18.0678,-21.8623],[18.0701,-21.8665],[18.073,-21.8706],[18.0764,-21.8742],[18.0918,-21.8875],[18.0986,-21.8951],[18.1067,-21.9081],[18.11,-21.9119],[18.1141,-21.9146],[18.1184,-21.9163],[18.1221,-21.9214],[18.1255,-21.9298],[18.1277,-21.9522],[18.1222,-21.9615],[18.1147,-21.967],[18.1079,-21.971],[18.0996,-21.9778],[18.0909,-21.995],[18.0633,-22.0339],[18.0599,-22.0425],[18.0631,-22.0491],[18.0687,-22.0576],[18.0714,-22.0657],[18.0715,-22.0825],[18.0661,-22.0907],[18.0565,-22.0981],[18.0213,-22.1118],[18.0113,-22.113],[17.9959,-22.1127],[17.9872,-22.1133],[17.9786,-22.1164],[17.9744,-22.125],[17.9634,-22.214],[17.966,-22.2295],[17.9718,-22.2451],[17.9992,-22.2976],[18.0318,-22.3381],[18.0438,-22.3481],[18.0565,-22.3507],[18.0965,-22.3507],[18.1041,-22.3558],[18.11,-22.3626],[18.1373,-22.4022],[18.1506,-22.4164],[18.1696,-22.431],[18.1776,-22.4385],[18.1738,-22.4446],[18.1404,-22.461],[18.1324,-22.4678],[18.1359,-22.4748],[18.1435,-22.4819],[18.1693,-22.5001],[18.1707,-22.5008],[18.1726,-22.4997],[18.2035,-22.476],[18.2122,-22.4712],[18.2165,-22.4744],[18.2196,-22.4812],[18.2479,-22.6111],[18.2604,-22.7156],[18.2654,-22.7355],[18.2937,-22.8141],[18.2968,-22.8432],[18.2989,-22.9498],[18.306,-22.9552],[18.3161,-22.9552],[18.3867,-22.9306],[18.3948,-22.9302],[18.3967,-22.9366],[18.3969,-22.9456],[18.3952,-22.9655],[18.3935,-22.9743],[18.3902,-22.9797],[18.3814,-22.9844],[18.3367,-23.0012],[18.3317,-23.0041],[18.3246,-23.01],[18.3239,-23.0192],[18.3254,-23.0294],[18.3296,-23.0393],[18.3345,-23.0469],[18.3499,-23.0555],[18.3712,-23.081],[18.3809,-23.0847],[18.3915,-23.0868],[18.4132,-23.0891],[18.4224,-23.0913],[18.4282,-23.0944],[18.4326,-23.1026],[18.4419,-23.1257],[18.45,-23.158],[18.4441,-23.165],[18.435,-23.1687],[18.3787,-23.1722],[18.3695,-23.175],[18.3603,-23.1818],[18.3537,-23.193],[18.3494,-23.2054],[18.3488,-23.2174],[18.3552,-23.2271],[18.4956,-23.3347],[18.5054,-23.3449],[18.5062,-23.3539],[18.5028,-23.366],[18.4435,-23.5037],[18.4144,-23.4628],[18.3918,-23.464],[18.3234,-23.5008],[18.2373,-23.538],[18.2286,-23.5446],[18.2255,-23.5537],[18.2237,-23.5747],[18.2211,-23.5852],[18.2095,-23.5908],[18.1665,-23.6011],[18.0894,-23.632],[18.0705,-23.6363],[18.0556,-23.6382],[18.0388,-23.634],[18.0306,-23.6287],[18.0203,-23.6305],[17.9809,-23.647],[17.9724,-23.6454],[17.9637,-23.6395],[17.928,-23.5974],[17.9201,-23.5908],[17.9103,-23.5868],[17.8597,-23.5738],[17.6693,-23.5783],[17.6549,-23.5864],[17.6462,-23.5954],[17.6428,-23.6046],[17.6344,-23.6075],[17.624,-23.6085],[17.4564,-23.6059],[17.4502,-23.6103],[17.4422,-23.5216],[17.4403,-23.5134],[17.437,-23.5094],[17.4289,-23.5061],[17.4124,-23.5012],[17.4077,-23.4988],[17.4033,-23.4945],[17.3908,-23.4339],[17.3912,-23.4247],[17.3951,-23.4184],[17.4313,-23.408],[17.4364,-23.404],[17.4378,-23.3958],[17.4335,-23.3442],[17.4335,-23.3347],[17.4355,-23.3272],[17.4425,-23.3186],[17.4784,-23.2853],[17.4759,-23.2845],[17.4599,-23.2855],[17.4029,-23.2978],[17.3351,-23.3009],[17.2451,-23.3143],[17.2107,-23.3079],[17.1946,-23.2853],[17.1927,-23.2425],[17.1884,-23.2165],[17.1794,-23.2027],[17.1625,-23.195],[17.1186,-23.1811],[17.0769,-23.1809],[17.0102,-23.1931],[16.9502,-23.2336],[16.9004,-23.2539],[16.8193,-23.2719],[16.775,-23.2611],[16.738,-23.2624],[16.7156,-23.2663],[16.696,-23.265],[16.6748,-23.2594],[16.657,-23.2447],[16.6331,-23.234],[16.6212,-23.2355],[16.6066,-23.2541],[16.4914,-23.4649],[16.488,-23.4733],[16.4866,-23.4803],[16.4912,-23.4853],[16.4951,-23.4879],[16.564,-23.5225],[16.5698,-23.5281],[16.5732,-23.5369],[16.5803,-23.5678],[16.5802,-23.5778],[16.5769,-23.5861],[16.4739,-23.6803],[16.4645,-23.686],[16.4537,-23.688],[16.3869,-23.6881],[16.3795,-23.6854],[16.3769,-23.6779],[16.3733,-23.6283],[16.3713,-23.6225],[16.362,-23.6134],[16.3484,-23.6049],[16.3423,-23.6096],[16.3365,-23.6171],[16.2884,-23.7067],[16.2721,-23.7641],[16.2708,-23.7731],[16.2718,-23.7802],[16.2791,-23.7842],[16.3652,-23.8031],[16.3742,-23.8025],[16.3913,-23.7937],[16.4013,-23.7938],[16.4772,-23.8136],[16.4865,-23.8172],[16.4928,-23.8215],[16.497,-23.8287],[16.5048,-23.8503],[16.5054,-23.8565],[16.5033,-23.864],[16.4976,-23.8761],[16.4934,-23.8822],[16.4884,-23.885],[16.4794,-23.8856],[16.39,-23.8797],[16.3575,-23.8717],[16.3497,-23.8722],[16.3407,-23.8781],[16.3024,-23.9133],[16.2919,-23.939],[16.3101,-24.0001],[16.3203,-24.025],[16.2639,-24.0135],[16.2087,-23.9746],[16.2027,-23.9597],[16.2036,-23.9491],[16.2104,-23.9447],[16.2157,-23.9429],[16.2349,-23.9408],[16.2429,-23.9364],[16.2466,-23.9289],[16.243,-23.9094],[16.245,-23.8961],[16.2491,-23.8839],[16.2596,-23.8653],[16.2619,-23.8582],[16.2546,-23.8597],[16.1941,-23.8904],[16.1826,-23.8946],[16.1712,-23.895],[16.1402,-23.8919],[16.1334,-23.8925],[16.0047,-23.9297],[15.9584,-23.9305],[15.9458,-23.9368],[15.9369,-23.9452],[15.9331,-23.9548],[15.9285,-23.9632],[15.9232,-23.9691],[15.9139,-23.9715],[15.8396,-23.975],[15.8116,-23.973],[15.7509,-23.9446],[15.7397,-23.9171],[15.7347,-23.8922],[15.7424,-23.8136],[15.8264,-23.8057],[15.8462,-23.7884],[15.8526,-23.75],[15.8523,-23.7441],[15.8415,-23.7044],[15.84,-23.696],[15.852,-23.5523],[15.8514,-23.5429],[15.8492,-23.535],[15.8414,-23.5295],[15.7648,-23.4964],[15.7576,-23.4923],[15.7515,-23.4864],[15.7518,-23.4779],[15.7548,-23.4685],[15.7815,-23.4096],[15.7868,-23.4007],[15.7933,-23.3935],[15.8031,-23.3901],[15.8364,-23.385],[15.845,-23.3828],[15.8502,-23.38],[15.8511,-23.3736],[15.8507,-23.3684],[15.8264,-23.2471],[15.908,-23.2219],[15.9179,-23.2179],[15.9238,-23.2127],[15.9207,-23.2055],[15.8757,-23.1547],[15.8707,-23.1456],[15.871,-23.136],[15.8734,-23.1261],[15.8914,-23.0763],[15.8936,-23.0659],[15.8939,-23.0552],[15.8917,-23.0336],[15.8874,-23.013],[15.8846,-23.0044],[15.8837,-23.0001],[15.8839,-22.9953],[15.8954,-22.9042],[15.9021,-22.8906],[15.9128,-22.8768],[15.9404,-22.8644],[15.9558,-22.8537],[15.9727,-22.85],[15.9849,-22.8486],[16.0451,-22.8481],[16.0561,-22.8451],[16.0604,-22.8357],[16.062,-22.8238],[16.0631,-22.7206],[16.0625,-22.7123],[16.0598,-22.704],[16.053,-22.7015],[16.0436,-22.7003],[15.9687,-22.7023],[15.9643,-22.6998],[15.9607,-22.6948],[15.9786,-22.673],[16.057,-22.5973],[16.0706,-22.5891],[16.0855,-22.589],[16.147,-22.6053],[16.1591,-22.6058],[16.1721,-22.6007],[16.1868,-22.5928],[16.2161,-22.5688],[16.2291,-22.5503],[16.2643,-22.5226],[16.274,-22.5128],[16.2853,-22.5105],[16.2983,-22.5107],[16.3128,-22.5123],[16.3263,-22.5124]]]}},{"type":"Feature","properties":{"id":"NAM-3347","name":"Kunene","nameBn":"কুনেনে অঞ্চল","type":"Region","bounds":[11.7176,-21.1876,16.7128,-16.9511],"center":[13.9847,-19.8757]},"geometry":{"type":"Polygon","coordinates":[[[13.1663,-16.9511],[13.1849,-16.9642],[13.1981,-16.9574],[13.2055,-16.963],[13.2121,-16.9728],[13.2228,-16.9779],[13.2453,-16.9813],[13.2572,-16.9816],[13.2675,-16.9779],[13.2675,-16.9854],[13.293,-16.9738],[13.3084,-16.9702],[13.3152,-16.9744],[13.3215,-16.9749],[13.3459,-16.9687],[13.3637,-16.9642],[13.382,-16.9704],[13.4172,-16.9937],[13.4351,-16.999],[13.4589,-17.0018],[13.4798,-17.0103],[13.4947,-17.024],[13.5078,-17.0635],[13.5223,-17.0769],[13.5309,-17.0933],[13.5213,-17.1219],[13.6065,-17.1674],[13.6941,-17.2366],[13.7904,-17.2881],[13.8844,-17.3385],[13.8969,-17.3491],[13.9427,-17.4082],[13.9573,-17.4191],[13.9806,-17.4236],[13.993,-17.4213],[14.0089,-17.4115],[14.0179,-17.4092],[14.0291,-17.4105],[14.0474,-17.416],[14.0691,-17.4186],[14.0854,-17.4236],[14.0973,-17.4236],[14.1082,-17.4205],[14.1239,-17.4116],[14.1307,-17.4092],[14.175,-17.4162],[14.1971,-17.4129],[14.2065,-17.3931],[14.2074,-17.388],[14.2188,-17.3881],[14.2191,-17.3881],[14.2182,-17.4094],[14.215,-17.4195],[14.2216,-17.4261],[14.216,-17.443],[14.1972,-17.4775],[14.1884,-17.498],[14.1566,-17.5433],[14.1366,-17.5667],[14.1395,-17.593],[14.1814,-17.617],[14.1865,-17.6397],[14.1835,-17.6656],[14.1793,-17.6849],[14.1704,-17.7009],[14.1509,-17.7209],[14.1644,-17.768],[14.2615,-17.9574],[14.2903,-18.0792],[14.3074,-18.4522],[14.2981,-18.5934],[14.3036,-18.6622],[14.3437,-18.7822],[14.3711,-18.8367],[14.3889,-18.8927],[14.371,-18.9953],[14.3639,-19.0982],[14.406,-19.2148],[14.426,-19.2419],[14.4539,-19.2637],[14.4771,-19.298],[14.4811,-19.3423],[14.4701,-19.3585],[14.4579,-19.3725],[14.449,-19.4145],[14.5742,-19.4176],[14.5926,-19.3804],[14.5944,-19.3267],[14.5384,-19.3291],[14.5341,-19.2863],[14.5362,-19.2467],[14.5832,-19.2378],[14.8588,-19.2358],[15.0891,-19.2062],[15.1508,-19.2186],[15.2108,-19.2228],[15.317,-19.1913],[15.3142,-19.2461],[15.5011,-19.244],[15.5369,-19.2393],[15.5775,-19.2446],[15.7044,-19.2747],[15.7886,-19.2839],[15.8256,-19.2823],[15.8609,-19.2895],[15.94,-19.3307],[16.0605,-19.3474],[16.131,-19.3651],[16.1879,-19.3709],[16.3222,-19.4093],[16.5076,-19.4351],[16.5679,-19.436],[16.6314,-19.4517],[16.6911,-19.4819],[16.703,-19.4913],[16.7041,-19.5073],[16.7128,-19.5512],[16.702,-19.9172],[16.7106,-19.955],[16.6548,-19.9902],[16.6272,-19.9973],[16.5388,-19.9981],[16.5332,-20.0002],[16.5302,-20.0032],[16.5292,-20.0597],[16.5302,-20.0698],[16.5465,-20.1129],[16.5478,-20.1218],[16.541,-20.1245],[16.5316,-20.1253],[16.5021,-20.1241],[16.3234,-20.2102],[16.3131,-20.2192],[16.308,-20.2265],[16.3107,-20.3076],[16.3162,-20.3419],[16.3166,-20.3529],[16.3144,-20.3653],[16.3091,-20.3785],[16.2974,-20.3874],[16.2835,-20.395],[16.2689,-20.4014],[16.2537,-20.4041],[16.2391,-20.4031],[16.2217,-20.3903],[16.2062,-20.3868],[16.1918,-20.3853],[16.1792,-20.3872],[16.1703,-20.3899],[16.1203,-20.412],[16.1108,-20.4133],[16.0487,-20.4139],[16.0391,-20.4154],[15.9688,-20.4424],[15.9356,-20.4638],[15.9216,-20.4752],[15.8577,-20.5457],[15.8421,-20.5553],[15.7813,-20.5795],[15.7669,-20.5833],[15.7521,-20.5828],[15.6696,-20.5662],[15.6007,-20.5626],[15.556,-20.5538],[15.5137,-20.5396],[15.4933,-20.5306],[15.4785,-20.5184],[15.4708,-20.5078],[15.4645,-20.5007],[15.4561,-20.4946],[15.3844,-20.4872],[15.3749,-20.4967],[15.3684,-20.5086],[15.3445,-20.5335],[15.2887,-20.6048],[15.2803,-20.6106],[15.1411,-20.7338],[15.131,-20.7458],[15.126,-20.7591],[15.1203,-20.7641],[15.0728,-20.7919],[15.0508,-20.8023],[14.9974,-20.8432],[14.9883,-20.8532],[14.9815,-20.8574],[14.9653,-20.8637],[14.9616,-20.8659],[14.9589,-20.8693],[14.9523,-20.8818],[14.948,-20.8866],[14.942,-20.8907],[14.9354,-20.8936],[14.9264,-20.8987],[14.9212,-20.9044],[14.9167,-20.912],[14.9127,-20.9163],[14.9081,-20.9192],[14.8958,-20.9209],[14.8763,-20.9216],[14.8717,-20.9225],[14.8669,-20.925],[14.8425,-20.9425],[14.82,-20.9543],[14.8123,-20.9609],[14.8017,-20.9721],[14.7952,-20.9768],[14.789,-20.9793],[14.7802,-20.9807],[14.7626,-20.9862],[14.737,-20.9973],[14.729,-20.9993],[14.7088,-20.9996],[14.6996,-21.0007],[14.6847,-21.0039],[14.6782,-21.0042],[14.647,-21.0007],[14.5909,-21.0015],[14.5835,-21.0004],[14.5466,-20.9855],[14.5407,-20.984],[14.5325,-20.984],[14.5234,-20.9849],[14.5097,-20.988],[14.4822,-20.9884],[14.4584,-20.9925],[14.4516,-20.9914],[14.447,-20.9889],[14.4256,-20.9741],[14.4204,-20.9717],[14.4148,-20.9699],[14.3719,-20.9663],[14.346,-20.9709],[14.2948,-20.987],[14.2891,-20.9883],[14.2829,-20.9885],[14.2767,-20.9877],[14.2709,-20.986],[14.2081,-20.9593],[14.2,-20.9584],[14.1901,-20.9586],[14.1733,-20.9615],[14.1632,-20.965],[14.1542,-20.9693],[14.1438,-20.976],[14.1363,-20.9793],[14.1292,-20.981],[14.1012,-20.9827],[14.0793,-20.9877],[14.0654,-20.9929],[14.0386,-21.0061],[14.031,-21.0089],[14.0251,-21.0098],[13.9801,-21.0109],[13.9044,-21.0365],[13.884,-21.0502],[13.8707,-21.0648],[13.8628,-21.0673],[13.8465,-21.0687],[13.8414,-21.0713],[13.8373,-21.0759],[13.8348,-21.082],[13.8305,-21.09],[13.8248,-21.0927],[13.8151,-21.0947],[13.803,-21.0957],[13.7685,-21.1038],[13.7603,-21.1072],[13.7562,-21.1102],[13.7445,-21.126],[13.7354,-21.1341],[13.7265,-21.1385],[13.6921,-21.1498],[13.6281,-21.1876],[13.6027,-21.1581],[13.5134,-21.0079],[13.4719,-20.955],[13.4592,-20.9181],[13.4448,-20.9041],[13.4177,-20.8839],[13.3976,-20.8493],[13.3872,-20.8161],[13.3767,-20.7336],[13.3495,-20.6445],[13.2627,-20.4851],[13.239,-20.3971],[13.2336,-20.3547],[13.2131,-20.2734],[13.1777,-20.1892],[13.1546,-20.1542],[13.1144,-20.1426],[13.0709,-20.1142],[13.0373,-20.0595],[13.0054,-19.9355],[12.9277,-19.7947],[12.9185,-19.7656],[12.876,-19.712],[12.8025,-19.5847],[12.794,-19.5617],[12.7831,-19.547],[12.7576,-19.4968],[12.7493,-19.486],[12.7046,-19.4108],[12.6911,-19.379],[12.686,-19.3598],[12.6797,-19.3141],[12.6683,-19.2924],[12.6362,-19.2526],[12.6157,-19.2175],[12.5674,-19.1023],[12.5467,-19.0715],[12.5164,-19.0375],[12.4803,-19.011],[12.4704,-18.9977],[12.4587,-18.9256],[12.45,-18.9046],[12.2869,-18.6977],[12.1747,-18.6279],[12.1257,-18.5748],[12.1196,-18.5695],[12.1021,-18.546],[12.0916,-18.5407],[12.082,-18.5344],[12.0319,-18.5053],[12.016,-18.4529],[12.0125,-18.4345],[11.9995,-18.4035],[11.9982,-18.3919],[11.9985,-18.3818],[11.9976,-18.372],[11.9995,-18.3619],[11.9761,-18.3298],[11.9373,-18.2321],[11.9312,-18.2254],[11.8491,-18.1432],[11.8336,-18.098],[11.8265,-18.0392],[11.8085,-17.9915],[11.7969,-17.9561],[11.784,-17.8596],[11.7609,-17.7864],[11.7456,-17.6839],[11.734,-17.6327],[11.7267,-17.5999],[11.7176,-17.5463],[11.7217,-17.4679],[11.7551,-17.2667],[11.7661,-17.2527],[11.7662,-17.2528],[11.7795,-17.2549],[11.7969,-17.2638],[11.8076,-17.2659],[11.8224,-17.2644],[11.8275,-17.2601],[11.8296,-17.2535],[11.8355,-17.2454],[11.8539,-17.2334],[11.895,-17.2146],[11.9421,-17.1805],[11.983,-17.1619],[12.0289,-17.149],[12.0752,-17.143],[12.0822,-17.1413],[12.0881,-17.1392],[12.0953,-17.1397],[12.1056,-17.1461],[12.1399,-17.156],[12.1513,-17.1536],[12.1567,-17.1491],[12.1615,-17.1463],[12.1707,-17.1492],[12.1771,-17.1548],[12.1795,-17.1616],[12.1811,-17.1692],[12.1851,-17.1771],[12.1907,-17.1826],[12.2005,-17.1893],[12.2117,-17.1952],[12.2223,-17.1977],[12.2318,-17.2019],[12.2365,-17.2113],[12.2393,-17.2207],[12.2426,-17.2248],[12.3147,-17.2181],[12.3795,-17.2204],[12.394,-17.2147],[12.4076,-17.2041],[12.4179,-17.2034],[12.4417,-17.217],[12.4605,-17.2231],[12.5192,-17.2278],[12.5546,-17.2356],[12.5672,-17.2346],[12.5915,-17.2226],[12.6362,-17.1852],[12.6607,-17.1771],[12.6859,-17.1736],[12.7047,-17.1643],[12.7399,-17.1355],[12.7843,-17.1151],[12.8183,-17.1048],[12.8249,-17.0964],[12.8331,-17.0818],[12.8423,-17.074],[12.8499,-17.0708],[12.8677,-17.0656],[12.8764,-17.0598],[12.8805,-17.0508],[12.8823,-17.0395],[12.8872,-17.0298],[12.911,-17.0235],[12.9305,-17.0142],[12.9617,-17.0074],[13.0143,-16.9779],[13.1218,-16.9598],[13.1445,-16.9524],[13.1663,-16.9511]]]}},{"type":"Feature","properties":{"id":"NAM-3352","name":"Ohangwena","nameBn":"ওহাংয়েনা অঞ্চল","type":"Region","bounds":[15.5591,-17.9145,18.0005,-17.3885],"center":[16.7798,-17.5789]},"geometry":{"type":"Polygon","coordinates":[[[15.5591,-17.3885],[15.5702,-17.3885],[15.8268,-17.3887],[16.0834,-17.3887],[16.3398,-17.3887],[16.5963,-17.3888],[16.8529,-17.3888],[17.1095,-17.3889],[17.279,-17.3889],[17.3661,-17.389],[17.6226,-17.389],[17.8791,-17.3891],[18.0005,-17.3891],[18.0002,-17.7659],[16.7495,-17.769],[16.3897,-17.9145],[16.308,-17.8836],[15.9993,-17.6956],[15.9988,-17.6954],[15.8171,-17.7197],[15.6658,-17.739],[15.6476,-17.6853],[15.6469,-17.6792],[15.6389,-17.5977],[15.6258,-17.5664],[15.6153,-17.5482],[15.5908,-17.5149],[15.561,-17.4552],[15.5592,-17.3888],[15.5591,-17.3885]]]}},{"type":"Feature","properties":{"id":"NAM-3353","name":"Omaheke","nameBn":"ওমাহেকে","type":"Region","bounds":[17.9634,-23.8645,20.9848,-20.2427],"center":[19.4738,-22.0526]},"geometry":{"type":"Polygon","coordinates":[[[20.9794,-20.351],[20.9794,-20.3758],[20.9798,-20.5007],[20.9802,-20.6258],[20.9807,-20.7507],[20.9811,-20.8758],[20.9815,-21.0],[20.9815,-21.0007],[20.9816,-21.0584],[20.9819,-21.1161],[20.9821,-21.1736],[20.9822,-21.2312],[20.9824,-21.2889],[20.9826,-21.3464],[20.9828,-21.4041],[20.983,-21.4618],[20.9831,-21.5194],[20.9835,-21.577],[20.9837,-21.6347],[20.9839,-21.6924],[20.9841,-21.75],[20.9843,-21.8076],[20.9845,-21.8652],[20.9847,-21.9228],[20.9848,-21.964],[20.972,-22.0007],[20.9147,-22.0007],[20.6806,-22.0007],[20.4465,-22.0007],[20.2124,-22.0007],[19.9783,-22.0007],[19.9784,-22.0868],[19.9787,-22.2372],[19.9789,-22.3876],[19.979,-22.5381],[19.9792,-22.6886],[19.9793,-22.8607],[19.9796,-23.0325],[19.9798,-23.2045],[19.9799,-23.3086],[19.9799,-23.3765],[19.9801,-23.5486],[19.9803,-23.7206],[19.9805,-23.8645],[19.9799,-23.8645],[19.3441,-23.8617],[19.275,-23.8538],[19.2707,-23.6762],[19.2662,-23.6664],[19.257,-23.6583],[19.2332,-23.6539],[19.2181,-23.6542],[19.2063,-23.6605],[19.1608,-23.714],[19.1564,-23.7181],[19.1515,-23.72],[19.0584,-23.7167],[19.0386,-23.7137],[19.0351,-23.7064],[19.0367,-23.6979],[19.0407,-23.6896],[19.0412,-23.6837],[19.0342,-23.6811],[18.9801,-23.6782],[18.9712,-23.6793],[18.7845,-23.7488],[18.7717,-23.7495],[18.6897,-23.7353],[18.67,-23.7296],[18.6544,-23.7209],[18.6047,-23.673],[18.5941,-23.6644],[18.5824,-23.6576],[18.5727,-23.6611],[18.5632,-23.6681],[18.5465,-23.6845],[18.5402,-23.688],[18.5341,-23.6837],[18.4422,-23.517],[18.4435,-23.5037],[18.5028,-23.366],[18.5062,-23.3539],[18.5054,-23.3449],[18.4956,-23.3347],[18.3552,-23.2271],[18.3488,-23.2174],[18.3494,-23.2054],[18.3537,-23.193],[18.3603,-23.1818],[18.3695,-23.175],[18.3787,-23.1722],[18.435,-23.1687],[18.4441,-23.165],[18.45,-23.158],[18.4419,-23.1257],[18.4326,-23.1026],[18.4282,-23.0944],[18.4224,-23.0913],[18.4132,-23.0891],[18.3915,-23.0868],[18.3809,-23.0847],[18.3712,-23.081],[18.3499,-23.0555],[18.3345,-23.0469],[18.3296,-23.0393],[18.3254,-23.0294],[18.3239,-23.0192],[18.3246,-23.01],[18.3317,-23.0041],[18.3367,-23.0012],[18.3814,-22.9844],[18.3902,-22.9797],[18.3935,-22.9743],[18.3952,-22.9655],[18.3969,-22.9456],[18.3967,-22.9366],[18.3948,-22.9302],[18.3867,-22.9306],[18.3161,-22.9552],[18.306,-22.9552],[18.2989,-22.9498],[18.2968,-22.8432],[18.2937,-22.8141],[18.2654,-22.7355],[18.2604,-22.7156],[18.2479,-22.6111],[18.2196,-22.4812],[18.2165,-22.4744],[18.2122,-22.4712],[18.2035,-22.476],[18.1726,-22.4997],[18.1707,-22.5008],[18.1693,-22.5001],[18.1435,-22.4819],[18.1359,-22.4748],[18.1324,-22.4678],[18.1404,-22.461],[18.1738,-22.4446],[18.1776,-22.4385],[18.1696,-22.431],[18.1506,-22.4164],[18.1373,-22.4022],[18.11,-22.3626],[18.1041,-22.3558],[18.0965,-22.3507],[18.0565,-22.3507],[18.0438,-22.3481],[18.0318,-22.3381],[17.9992,-22.2976],[17.9718,-22.2451],[17.966,-22.2295],[17.9634,-22.214],[17.9744,-22.125],[17.9786,-22.1164],[17.9872,-22.1133],[17.9959,-22.1127],[18.0113,-22.113],[18.0213,-22.1118],[18.0565,-22.0981],[18.0661,-22.0907],[18.0715,-22.0825],[18.0714,-22.0657],[18.0687,-22.0576],[18.0631,-22.0491],[18.0599,-22.0425],[18.0633,-22.0339],[18.0909,-21.995],[18.0996,-21.9778],[18.1079,-21.971],[18.1147,-21.967],[18.1222,-21.9615],[18.1277,-21.9522],[18.1255,-21.9298],[18.1221,-21.9214],[18.1184,-21.9163],[18.1141,-21.9146],[18.11,-21.9119],[18.1067,-21.9081],[18.0986,-21.8951],[18.0918,-21.8875],[18.0764,-21.8742],[18.073,-21.8706],[18.0701,-21.8665],[18.0678,-21.8623],[18.0681,-21.854],[18.0723,-21.8425],[18.0881,-21.8159],[18.1134,-21.788],[18.126,-21.7646],[18.1179,-21.7053],[18.1297,-21.695],[18.1931,-21.6675],[18.2146,-21.6549],[18.2417,-21.6228],[18.2451,-21.6093],[18.2457,-21.597],[18.2371,-21.5552],[18.2397,-21.5262],[18.2395,-21.5192],[18.238,-21.5109],[18.2348,-21.4997],[18.2348,-21.4961],[18.2357,-21.4895],[18.2617,-21.476],[18.2641,-21.4674],[18.2642,-21.4575],[18.2589,-21.4149],[18.2587,-21.4049],[18.2607,-21.3957],[18.2759,-21.3829],[18.2776,-21.3739],[18.2765,-21.3636],[18.2688,-21.3323],[18.2657,-21.3247],[18.262,-21.3227],[18.2447,-21.3267],[18.2236,-21.3285],[18.2144,-21.3276],[18.209,-21.3253],[18.2075,-21.3179],[18.2088,-21.2721],[18.2123,-21.2534],[18.2209,-21.2444],[18.2312,-21.2379],[18.242,-21.235],[18.251,-21.2334],[18.2611,-21.2347],[18.3662,-21.2617],[18.3716,-21.2608],[18.3688,-21.2531],[18.3541,-21.2276],[18.351,-21.2182],[18.3497,-21.2086],[18.3505,-21.1987],[18.3586,-21.1912],[18.3945,-21.1711],[18.4072,-21.1621],[18.4126,-21.1522],[18.4155,-21.142],[18.4177,-21.122],[18.4177,-21.1141],[18.4149,-21.1104],[18.4066,-21.1104],[18.3738,-21.1166],[18.365,-21.1175],[18.3612,-21.1157],[18.3611,-21.1074],[18.3654,-21.077],[18.3759,-21.0386],[18.3957,-21.0267],[18.4678,-21.0113],[18.4839,-21.0109],[18.4941,-21.0177],[18.501,-21.0248],[18.5085,-21.0367],[18.5349,-20.985],[18.5417,-20.9648],[18.5735,-20.8262],[18.5787,-20.8123],[18.7569,-20.5336],[18.7864,-20.5038],[18.8213,-20.4764],[18.8314,-20.4708],[19.3122,-20.2997],[19.3428,-20.2845],[19.3749,-20.2559],[19.3947,-20.2475],[19.4223,-20.2434],[19.4824,-20.2427],[19.5087,-20.2457],[20.3199,-20.3316],[20.3377,-20.3365],[20.3631,-20.3483],[20.3826,-20.3537],[20.4284,-20.3622],[20.4486,-20.3629],[20.4838,-20.3575],[20.5245,-20.3569],[20.6317,-20.3707],[20.6828,-20.3843],[20.7202,-20.3874],[20.79,-20.3851],[20.8041,-20.3823],[20.8581,-20.3667],[20.9222,-20.3636],[20.9363,-20.3604],[20.9539,-20.3527],[20.9789,-20.3511],[20.9794,-20.351]]]}},{"type":"Feature","properties":{"id":"NAM-3350","name":"Omusati","nameBn":"ওমোসাথি অঞ্চল","type":"Region","bounds":[14.1366,-19.4176,15.6469,-17.3881],"center":[14.8918,-18.3099]},"geometry":{"type":"Polygon","coordinates":[[[14.2874,-17.3881],[14.5439,-17.3882],[14.8006,-17.3883],[15.0572,-17.3883],[15.3137,-17.3884],[15.5591,-17.3885],[15.5592,-17.3888],[15.561,-17.4552],[15.5908,-17.5149],[15.6153,-17.5482],[15.6258,-17.5664],[15.6389,-17.5977],[15.6469,-17.6792],[15.2879,-18.0246],[15.286,-18.0403],[15.3043,-18.0484],[15.4197,-18.1123],[15.4627,-18.1273],[15.4998,-18.1512],[15.5116,-18.1996],[15.5128,-18.2513],[15.5633,-18.6232],[15.5441,-18.6789],[15.5123,-18.7244],[15.5177,-18.7799],[15.5619,-18.8874],[15.5547,-18.9461],[15.5136,-18.983],[15.5308,-19.0141],[15.5545,-19.0415],[15.5807,-19.0501],[15.6026,-19.0641],[15.5694,-19.0795],[15.5315,-19.0836],[15.4904,-19.1029],[15.4514,-19.1269],[15.4157,-19.1384],[15.379,-19.1459],[15.3481,-19.157],[15.3173,-19.1635],[15.3165,-19.177],[15.317,-19.1913],[15.2108,-19.2228],[15.1508,-19.2186],[15.0891,-19.2062],[14.8588,-19.2358],[14.5832,-19.2378],[14.5362,-19.2467],[14.5341,-19.2863],[14.5384,-19.3291],[14.5944,-19.3267],[14.5926,-19.3804],[14.5742,-19.4176],[14.449,-19.4145],[14.4579,-19.3725],[14.4701,-19.3585],[14.4811,-19.3423],[14.4771,-19.298],[14.4539,-19.2637],[14.426,-19.2419],[14.406,-19.2148],[14.3639,-19.0982],[14.371,-18.9953],[14.3889,-18.8927],[14.3711,-18.8367],[14.3437,-18.7822],[14.3036,-18.6622],[14.2981,-18.5934],[14.3074,-18.4522],[14.2903,-18.0792],[14.2615,-17.9574],[14.1644,-17.768],[14.1509,-17.7209],[14.1704,-17.7009],[14.1793,-17.6849],[14.1835,-17.6656],[14.1865,-17.6397],[14.1814,-17.617],[14.1395,-17.593],[14.1366,-17.5667],[14.1566,-17.5433],[14.1884,-17.498],[14.1972,-17.4775],[14.216,-17.443],[14.2216,-17.4261],[14.215,-17.4195],[14.2182,-17.4094],[14.2191,-17.3881],[14.2874,-17.3881]]]}},{"type":"Feature","properties":{"id":"NAM-3351","name":"Oshana","nameBn":"ওশানা অঞ্চল","type":"Region","bounds":[15.286,-19.3307,16.0379,-17.6792],"center":[15.662,-18.4961]},"geometry":{"type":"Polygon","coordinates":[[[15.6469,-17.6792],[15.6476,-17.6853],[15.6658,-17.739],[15.8171,-17.7197],[15.9988,-17.6954],[15.9993,-17.6956],[15.9993,-18.0227],[16.0125,-18.0247],[16.0269,-18.0395],[16.0322,-18.0605],[16.0379,-18.1409],[16.0302,-18.199],[16.0189,-18.2257],[15.9733,-18.2858],[15.9558,-18.2967],[15.943,-18.3138],[15.944,-18.3582],[15.9547,-18.4024],[15.9486,-18.4752],[15.9574,-18.5008],[15.9703,-18.5243],[15.9867,-18.5762],[16.0309,-18.626],[16.0356,-18.6525],[16.0157,-18.6677],[15.994,-18.668],[15.9732,-18.6756],[15.9422,-18.7124],[15.8979,-18.7546],[15.8603,-18.8028],[15.8462,-18.8336],[15.8412,-18.8663],[15.8421,-18.9282],[15.8482,-18.9411],[15.8509,-18.9681],[15.8836,-19.0367],[15.9017,-19.0666],[15.912,-19.0929],[15.9296,-19.1128],[15.9624,-19.1332],[15.9546,-19.1639],[15.934,-19.173],[15.9185,-19.1851],[15.9196,-19.2123],[15.9313,-19.2842],[15.941,-19.3074],[15.94,-19.3307],[15.8609,-19.2895],[15.8256,-19.2823],[15.7886,-19.2839],[15.7044,-19.2747],[15.5775,-19.2446],[15.5369,-19.2393],[15.5011,-19.244],[15.3142,-19.2461],[15.317,-19.1913],[15.3165,-19.177],[15.3173,-19.1635],[15.3481,-19.157],[15.379,-19.1459],[15.4157,-19.1384],[15.4514,-19.1269],[15.4904,-19.1029],[15.5315,-19.0836],[15.5694,-19.0795],[15.6026,-19.0641],[15.5807,-19.0501],[15.5545,-19.0415],[15.5308,-19.0141],[15.5136,-18.983],[15.5547,-18.9461],[15.5619,-18.8874],[15.5177,-18.7799],[15.5123,-18.7244],[15.5441,-18.6789],[15.5633,-18.6232],[15.5128,-18.2513],[15.5116,-18.1996],[15.4998,-18.1512],[15.4627,-18.1273],[15.4197,-18.1123],[15.3043,-18.0484],[15.286,-18.0403],[15.2879,-18.0246],[15.6469,-17.6792]]]}},{"type":"Feature","properties":{"id":"NAM-3355","name":"Oshikoto","nameBn":"ওসিকোতো অঞ্চল","type":"Region","bounds":[15.8412,-19.5222,18.1946,-17.6956],"center":[17.0179,-18.5381]},"geometry":{"type":"Polygon","coordinates":[[[16.7029,-19.4896],[16.703,-19.4913],[16.6911,-19.4819],[16.6314,-19.4517],[16.5679,-19.436],[16.5076,-19.4351],[16.3222,-19.4093],[16.1879,-19.3709],[16.131,-19.3651],[16.0605,-19.3474],[15.94,-19.3307],[15.941,-19.3074],[15.9313,-19.2842],[15.9196,-19.2123],[15.9185,-19.1851],[15.934,-19.173],[15.9546,-19.1639],[15.9624,-19.1332],[15.9296,-19.1128],[15.912,-19.0929],[15.9017,-19.0666],[15.8836,-19.0367],[15.8509,-18.9681],[15.8482,-18.9411],[15.8421,-18.9282],[15.8412,-18.8663],[15.8462,-18.8336],[15.8603,-18.8028],[15.8979,-18.7546],[15.9422,-18.7124],[15.9732,-18.6756],[15.994,-18.668],[16.0157,-18.6677],[16.0356,-18.6525],[16.0309,-18.626],[15.9867,-18.5762],[15.9703,-18.5243],[15.9574,-18.5008],[15.9486,-18.4752],[15.9547,-18.4024],[15.944,-18.3582],[15.943,-18.3138],[15.9558,-18.2967],[15.9733,-18.2858],[16.0189,-18.2257],[16.0302,-18.199],[16.0379,-18.1409],[16.0322,-18.0605],[16.0269,-18.0395],[16.0125,-18.0247],[15.9993,-18.0227],[15.9993,-17.6956],[16.308,-17.8836],[16.3897,-17.9145],[16.7495,-17.769],[18.0002,-17.7659],[18.0093,-18.749],[18.1946,-18.76],[18.1788,-18.8463],[18.1716,-18.9511],[18.1609,-18.9626],[18.1311,-18.976],[18.1128,-18.9873],[18.0883,-19.016],[18.0699,-19.0261],[18.0534,-19.0317],[18.0394,-19.0317],[18.0275,-19.0331],[18.0206,-19.037],[18.0192,-19.0471],[18.0281,-19.1156],[18.0284,-19.1289],[18.0266,-19.1428],[18.0186,-19.1506],[18.0155,-19.1623],[18.0136,-19.1747],[18.0135,-19.2109],[18.0093,-19.24],[18.0045,-19.2584],[17.998,-19.2659],[17.9884,-19.2703],[17.9755,-19.2725],[17.9629,-19.2758],[17.9526,-19.2812],[17.9492,-19.2921],[17.9467,-19.3039],[17.9432,-19.315],[17.9071,-19.3324],[17.8999,-19.3457],[17.8957,-19.352],[17.89,-19.359],[17.8864,-19.3814],[17.887,-19.3946],[17.8894,-19.4068],[17.8985,-19.4204],[17.9337,-19.4622],[17.9392,-19.4745],[17.9321,-19.4838],[17.9215,-19.4916],[17.8752,-19.5167],[17.8627,-19.522],[17.8542,-19.5222],[17.849,-19.5144],[17.8424,-19.4958],[17.8378,-19.4881],[17.8313,-19.482],[17.8194,-19.4818],[17.7944,-19.4873],[17.7629,-19.5005],[17.7488,-19.5046],[17.6864,-19.5015],[17.6814,-19.4996],[17.6766,-19.4964],[17.6409,-19.467],[17.6245,-19.4578],[17.6068,-19.4511],[17.5824,-19.4531],[17.5672,-19.4494],[17.5546,-19.4444],[17.5359,-19.4304],[17.5294,-19.4229],[17.5276,-19.4068],[17.5239,-19.4013],[17.5181,-19.3966],[17.4839,-19.3761],[17.4718,-19.3725],[17.4577,-19.3697],[17.4361,-19.3733],[17.4224,-19.3698],[17.4113,-19.3649],[17.4038,-19.3583],[17.4007,-19.3525],[17.3992,-19.3439],[17.397,-19.3035],[17.3986,-19.2955],[17.4035,-19.2922],[17.4217,-19.2895],[17.4293,-19.2867],[17.4308,-19.2792],[17.4305,-19.2697],[17.4257,-19.2389],[17.4227,-19.2317],[17.4168,-19.2301],[17.3955,-19.2333],[17.3697,-19.2403],[17.3652,-19.2463],[17.363,-19.2552],[17.3629,-19.2641],[17.3608,-19.272],[17.3555,-19.2748],[17.3464,-19.2759],[17.3373,-19.2748],[17.3298,-19.2721],[17.3286,-19.2646],[17.3332,-19.2357],[17.3333,-19.2267],[17.3305,-19.2194],[17.3174,-19.1987],[17.3042,-19.1899],[17.2872,-19.1832],[17.254,-19.185],[17.2393,-19.1786],[17.2299,-19.1703],[17.225,-19.1597],[17.2122,-19.1527],[17.1987,-19.1487],[17.1268,-19.1659],[17.0853,-19.2289],[16.9897,-19.3409],[16.7165,-19.474],[16.7087,-19.4805],[16.7029,-19.4896]]]}},{"type":"Feature","properties":{"id":"NAM-3349","name":"Otjozondjupa","nameBn":"অতজুন্ডজুপা অঞ্চল","type":"Region","bounds":[15.5964,-22.3739,20.9794,-18.76],"center":[18.2876,-20.0032]},"geometry":{"type":"Polygon","coordinates":[[[20.9756,-19.1721],[20.9758,-19.2509],[20.9763,-19.3758],[20.9767,-19.5009],[20.977,-19.6258],[20.9776,-19.7508],[20.978,-19.8758],[20.9783,-20.0008],[20.9787,-20.1259],[20.9791,-20.2508],[20.9794,-20.351],[20.9789,-20.3511],[20.9539,-20.3527],[20.9363,-20.3604],[20.9222,-20.3636],[20.8581,-20.3667],[20.8041,-20.3823],[20.79,-20.3851],[20.7202,-20.3874],[20.6828,-20.3843],[20.6317,-20.3707],[20.5245,-20.3569],[20.4838,-20.3575],[20.4486,-20.3629],[20.4284,-20.3622],[20.3826,-20.3537],[20.3631,-20.3483],[20.3377,-20.3365],[20.3199,-20.3316],[19.5087,-20.2457],[19.4824,-20.2427],[19.4223,-20.2434],[19.3947,-20.2475],[19.3749,-20.2559],[19.3428,-20.2845],[19.3122,-20.2997],[18.8314,-20.4708],[18.8213,-20.4764],[18.7864,-20.5038],[18.7569,-20.5336],[18.5787,-20.8123],[18.5735,-20.8262],[18.5417,-20.9648],[18.5349,-20.985],[18.5085,-21.0367],[18.501,-21.0248],[18.4941,-21.0177],[18.4839,-21.0109],[18.4678,-21.0113],[18.3957,-21.0267],[18.3759,-21.0386],[18.3654,-21.077],[18.3611,-21.1074],[18.3612,-21.1157],[18.365,-21.1175],[18.3738,-21.1166],[18.4066,-21.1104],[18.4149,-21.1104],[18.4177,-21.1141],[18.4177,-21.122],[18.4155,-21.142],[18.4126,-21.1522],[18.4072,-21.1621],[18.3945,-21.1711],[18.3586,-21.1912],[18.3505,-21.1987],[18.3497,-21.2086],[18.351,-21.2182],[18.3541,-21.2276],[18.3688,-21.2531],[18.3716,-21.2608],[18.3662,-21.2617],[18.2611,-21.2347],[18.251,-21.2334],[18.242,-21.235],[18.2312,-21.2379],[18.2209,-21.2444],[18.2123,-21.2534],[18.2088,-21.2721],[18.2075,-21.3179],[18.209,-21.3253],[18.2144,-21.3276],[18.2236,-21.3285],[18.2447,-21.3267],[18.262,-21.3227],[18.2657,-21.3247],[18.2688,-21.3323],[18.2765,-21.3636],[18.2776,-21.3739],[18.2759,-21.3829],[18.2607,-21.3957],[18.2587,-21.4049],[18.2589,-21.4149],[18.2642,-21.4575],[18.2641,-21.4674],[18.2617,-21.476],[18.2357,-21.4895],[18.2348,-21.4961],[18.2348,-21.4997],[18.238,-21.5109],[18.2395,-21.5192],[18.2397,-21.5262],[18.2371,-21.5552],[18.2457,-21.597],[18.2451,-21.6093],[18.2417,-21.6228],[18.2146,-21.6549],[18.1931,-21.6675],[18.1297,-21.695],[18.1179,-21.7053],[18.0126,-21.7326],[17.9906,-21.7296],[17.9491,-21.7381],[17.9013,-21.7583],[17.8668,-21.7845],[17.8461,-21.8038],[17.8344,-21.8124],[17.8073,-21.8242],[17.76,-21.8336],[17.7306,-21.8429],[17.7235,-21.8437],[17.7173,-21.8414],[17.7013,-21.8254],[17.6922,-21.8184],[17.6831,-21.8173],[17.6724,-21.8189],[17.6258,-21.8306],[17.6147,-21.8346],[17.6046,-21.8402],[17.5978,-21.8508],[17.5855,-21.8789],[17.5802,-21.8838],[17.5469,-21.9018],[17.5357,-21.9093],[17.5269,-21.9197],[17.5197,-21.9384],[17.5157,-21.9443],[17.5079,-21.9524],[17.4982,-21.9596],[17.488,-21.9658],[17.4768,-21.9671],[17.4562,-21.9665],[17.4496,-21.9687],[17.4505,-21.9779],[17.471,-22.0319],[17.4737,-22.041],[17.4734,-22.0469],[17.4633,-22.0743],[17.4587,-22.0827],[17.4533,-22.0887],[17.444,-22.0874],[17.4035,-22.0713],[17.3962,-22.0702],[17.3949,-22.0752],[17.397,-22.0939],[17.3956,-22.1032],[17.388,-22.1095],[17.3775,-22.115],[17.3301,-22.134],[17.3206,-22.1355],[17.316,-22.1315],[17.3123,-22.1231],[17.3069,-22.102],[17.3032,-22.0935],[17.2982,-22.0889],[17.2891,-22.0952],[17.2806,-22.1034],[17.2643,-22.1223],[17.2584,-22.1318],[17.2568,-22.1413],[17.2569,-22.1723],[17.2506,-22.1839],[17.2376,-22.1956],[17.1416,-22.2374],[17.1309,-22.24],[17.1234,-22.2339],[17.117,-22.2245],[17.1113,-22.2134],[17.1051,-22.204],[17.0981,-22.1981],[17.0882,-22.2015],[17.0776,-22.2085],[17.0112,-22.2608],[17.0027,-22.266],[16.9978,-22.2654],[16.9913,-22.2574],[16.9854,-22.2471],[16.9779,-22.238],[16.9695,-22.2331],[16.9577,-22.2392],[16.9471,-22.2473],[16.927,-22.266],[16.9172,-22.2733],[16.9058,-22.2795],[16.8926,-22.2798],[16.8468,-22.2957],[16.8369,-22.2971],[16.823,-22.2862],[16.8109,-22.2792],[16.783,-22.2778],[16.7707,-22.2703],[16.762,-22.2612],[16.7543,-22.2403],[16.7496,-22.2324],[16.7431,-22.2301],[16.7338,-22.2309],[16.7243,-22.2343],[16.7162,-22.2428],[16.6882,-22.2893],[16.6827,-22.2959],[16.6814,-22.3017],[16.6824,-22.3092],[16.6864,-22.3156],[16.6953,-22.3166],[16.7285,-22.3117],[16.7377,-22.3129],[16.7425,-22.32],[16.7458,-22.3295],[16.7417,-22.3391],[16.732,-22.3465],[16.701,-22.348],[16.6713,-22.345],[16.6617,-22.3451],[16.652,-22.3493],[16.6427,-22.3524],[16.6322,-22.3475],[16.6119,-22.3335],[16.6026,-22.3301],[16.594,-22.3353],[16.5859,-22.3432],[16.5712,-22.3621],[16.5639,-22.3695],[16.5572,-22.3735],[16.5512,-22.3677],[16.5372,-22.3621],[16.5267,-22.3561],[16.447,-22.3739],[16.4143,-22.3239],[16.4087,-22.3126],[16.406,-22.3024],[16.4081,-22.2942],[16.4113,-22.2891],[16.4184,-22.2812],[16.4205,-22.2759],[16.4205,-22.2686],[16.3927,-22.2088],[16.3912,-22.1992],[16.3969,-22.1924],[16.4306,-22.1693],[16.4416,-22.1564],[16.4623,-22.1472],[16.4682,-22.1438],[16.4645,-22.1349],[16.4317,-22.0899],[16.4277,-22.0814],[16.4321,-22.0788],[16.441,-22.0785],[16.4518,-22.0794],[16.4611,-22.0749],[16.4688,-22.0651],[16.4698,-22.0364],[16.4773,-22.0087],[16.4807,-22.0029],[16.4812,-21.9988],[16.4788,-21.9937],[16.4717,-21.9845],[16.4663,-21.9753],[16.4672,-21.9664],[16.4713,-21.9571],[16.477,-21.9476],[16.4788,-21.9347],[16.4765,-21.9197],[16.4607,-21.8961],[16.4513,-21.888],[16.443,-21.8845],[16.4388,-21.8822],[16.4333,-21.8654],[16.4321,-21.8425],[16.3934,-21.728],[16.4233,-21.6154],[16.434,-21.5363],[16.4377,-21.5238],[16.4414,-21.5152],[16.4541,-21.5019],[16.493,-21.4521],[16.533,-21.4161],[16.5366,-21.3865],[16.5066,-21.2629],[16.5149,-21.2302],[16.5146,-21.1721],[16.4174,-21.1613],[16.4082,-21.1592],[16.4008,-21.1557],[16.3956,-21.148],[16.3885,-21.1339],[16.3847,-21.1291],[16.351,-21.0971],[16.3429,-21.0921],[16.3263,-21.0838],[16.3123,-21.0744],[16.286,-21.0519],[16.2751,-21.0396],[16.2683,-21.0269],[16.2608,-20.9934],[16.2587,-20.9875],[16.2553,-20.9855],[16.2492,-20.9898],[16.2065,-21.0334],[16.1999,-21.0381],[16.1928,-21.04],[16.1813,-21.0356],[16.1395,-21.0129],[16.0925,-20.9963],[16.0325,-20.9419],[15.8323,-20.8405],[15.7531,-20.7725],[15.7435,-20.7612],[15.7283,-20.7101],[15.7247,-20.7035],[15.72,-20.7001],[15.7094,-20.7008],[15.675,-20.708],[15.6645,-20.7092],[15.6564,-20.7081],[15.6057,-20.6934],[15.5987,-20.679],[15.5964,-20.6687],[15.6007,-20.5626],[15.6696,-20.5662],[15.7521,-20.5828],[15.7669,-20.5833],[15.7813,-20.5795],[15.8421,-20.5553],[15.8577,-20.5457],[15.9216,-20.4752],[15.9356,-20.4638],[15.9688,-20.4424],[16.0391,-20.4154],[16.0487,-20.4139],[16.1108,-20.4133],[16.1203,-20.412],[16.1703,-20.3899],[16.1792,-20.3872],[16.1918,-20.3853],[16.2062,-20.3868],[16.2217,-20.3903],[16.2391,-20.4031],[16.2537,-20.4041],[16.2689,-20.4014],[16.2835,-20.395],[16.2974,-20.3874],[16.3091,-20.3785],[16.3144,-20.3653],[16.3166,-20.3529],[16.3162,-20.3419],[16.3107,-20.3076],[16.308,-20.2265],[16.3131,-20.2192],[16.3234,-20.2102],[16.5021,-20.1241],[16.5316,-20.1253],[16.541,-20.1245],[16.5478,-20.1218],[16.5465,-20.1129],[16.5302,-20.0698],[16.5292,-20.0597],[16.5302,-20.0032],[16.5332,-20.0002],[16.5388,-19.9981],[16.6272,-19.9973],[16.6548,-19.9902],[16.7106,-19.955],[16.702,-19.9172],[16.7128,-19.5512],[16.7041,-19.5073],[16.703,-19.4913],[16.7029,-19.4896],[16.7087,-19.4805],[16.7165,-19.474],[16.9897,-19.3409],[17.0853,-19.2289],[17.1268,-19.1659],[17.1987,-19.1487],[17.2122,-19.1527],[17.225,-19.1597],[17.2299,-19.1703],[17.2393,-19.1786],[17.254,-19.185],[17.2872,-19.1832],[17.3042,-19.1899],[17.3174,-19.1987],[17.3305,-19.2194],[17.3333,-19.2267],[17.3332,-19.2357],[17.3286,-19.2646],[17.3298,-19.2721],[17.3373,-19.2748],[17.3464,-19.2759],[17.3555,-19.2748],[17.3608,-19.272],[17.3629,-19.2641],[17.363,-19.2552],[17.3652,-19.2463],[17.3697,-19.2403],[17.3955,-19.2333],[17.4168,-19.2301],[17.4227,-19.2317],[17.4257,-19.2389],[17.4305,-19.2697],[17.4308,-19.2792],[17.4293,-19.2867],[17.4217,-19.2895],[17.4035,-19.2922],[17.3986,-19.2955],[17.397,-19.3035],[17.3992,-19.3439],[17.4007,-19.3525],[17.4038,-19.3583],[17.4113,-19.3649],[17.4224,-19.3698],[17.4361,-19.3733],[17.4577,-19.3697],[17.4718,-19.3725],[17.4839,-19.3761],[17.5181,-19.3966],[17.5239,-19.4013],[17.5276,-19.4068],[17.5294,-19.4229],[17.5359,-19.4304],[17.5546,-19.4444],[17.5672,-19.4494],[17.5824,-19.4531],[17.6068,-19.4511],[17.6245,-19.4578],[17.6409,-19.467],[17.6766,-19.4964],[17.6814,-19.4996],[17.6864,-19.5015],[17.7488,-19.5046],[17.7629,-19.5005],[17.7944,-19.4873],[17.8194,-19.4818],[17.8313,-19.482],[17.8378,-19.4881],[17.8424,-19.4958],[17.849,-19.5144],[17.8542,-19.5222],[17.8627,-19.522],[17.8752,-19.5167],[17.9215,-19.4916],[17.9321,-19.4838],[17.9392,-19.4745],[17.9337,-19.4622],[17.8985,-19.4204],[17.8894,-19.4068],[17.887,-19.3946],[17.8864,-19.3814],[17.89,-19.359],[17.8957,-19.352],[17.8999,-19.3457],[17.9071,-19.3324],[17.9432,-19.315],[17.9467,-19.3039],[17.9492,-19.2921],[17.9526,-19.2812],[17.9629,-19.2758],[17.9755,-19.2725],[17.9884,-19.2703],[17.998,-19.2659],[18.0045,-19.2584],[18.0093,-19.24],[18.0135,-19.2109],[18.0136,-19.1747],[18.0155,-19.1623],[18.0186,-19.1506],[18.0266,-19.1428],[18.0284,-19.1289],[18.0281,-19.1156],[18.0192,-19.0471],[18.0206,-19.037],[18.0275,-19.0331],[18.0394,-19.0317],[18.0534,-19.0317],[18.0699,-19.0261],[18.0883,-19.016],[18.1128,-18.9873],[18.1311,-18.976],[18.1609,-18.9626],[18.1716,-18.9511],[18.1788,-18.8463],[18.1946,-18.76],[19.236,-18.8151],[19.2347,-19.1889],[20.9751,-19.1721],[20.9756,-19.1721]]]}}]}