{"type":"FeatureCollection","features":[{"type":"Feature","properties":{"id":"NCL-559","name":"Nord","nameBn":"নর্থ প্রদেশ","type":"Province","bounds":[163.6157,-21.607,166.0823,-19.6237],"center":[165.058,-21.0082]},"geometry":{"type":"MultiPolygon","coordinates":[[[[163.9851,-20.0476],[163.9861,-20.0575],[163.9854,-20.0667],[163.9829,-20.0753],[163.9782,-20.0831],[163.9714,-20.0688],[163.9564,-20.0737],[163.9471,-20.066],[163.9373,-20.0416],[163.9373,-20.0339],[163.9441,-20.026],[163.9497,-20.0022],[163.9577,-19.9999],[163.9671,-20.0081],[163.9751,-20.0354],[163.9851,-20.0476]]],[[[165.1117,-21.3731],[165.1091,-21.371],[165.1022,-21.3712],[165.0933,-21.3744],[165.0871,-21.3776],[165.0879,-21.3772],[165.0845,-21.3914],[165.0757,-21.3961],[165.0667,-21.3912],[165.0619,-21.3772],[165.0544,-21.3834],[165.0466,-21.3884],[165.0379,-21.3894],[165.0266,-21.384],[165.0454,-21.3647],[165.0431,-21.3481],[165.0275,-21.3391],[165.0055,-21.343],[165.0139,-21.3281],[165.0093,-21.318],[164.9855,-21.302],[164.9766,-21.3155],[164.9797,-21.3366],[164.9719,-21.3499],[164.9612,-21.3561],[164.9514,-21.3538],[164.9434,-21.3463],[164.9378,-21.3356],[164.9417,-21.3277],[164.9424,-21.3191],[164.9456,-21.3105],[164.9514,-21.302],[164.9439,-21.2934],[164.9368,-21.2913],[164.9292,-21.2902],[164.9204,-21.2851],[164.9148,-21.2787],[164.908,-21.2673],[164.8342,-21.1833],[164.8293,-21.1695],[164.8278,-21.1481],[164.8285,-21.1324],[164.8272,-21.1147],[164.8192,-21.1041],[164.8001,-21.1103],[164.8013,-21.0973],[164.8029,-21.0942],[164.8074,-21.0898],[164.8074,-21.0823],[164.8008,-21.0822],[164.7961,-21.0807],[164.7864,-21.0763],[164.7922,-21.0685],[164.791,-21.0644],[164.7839,-21.0644],[164.7727,-21.0694],[164.7703,-21.081],[164.759,-21.0825],[164.7498,-21.0748],[164.7459,-21.0592],[164.7396,-21.0584],[164.7273,-21.0602],[164.7192,-21.0659],[164.7254,-21.0763],[164.719,-21.0834],[164.7118,-21.0898],[164.6934,-21.0429],[164.6807,-21.0237],[164.6641,-21.0141],[164.6833,-21.0012],[164.6746,-20.9926],[164.6536,-20.9845],[164.6367,-20.9724],[164.6525,-20.9711],[164.6608,-20.9648],[164.6619,-20.9557],[164.6566,-20.9459],[164.6442,-20.9391],[164.6314,-20.9378],[164.6228,-20.9335],[164.6224,-20.9179],[164.6162,-20.9179],[164.6006,-20.9277],[164.585,-20.9206],[164.561,-20.898],[164.5505,-20.8953],[164.53,-20.8947],[164.5194,-20.8906],[164.5151,-20.8853],[164.5026,-20.8632],[164.4803,-20.8591],[164.4624,-20.8486],[164.4188,-20.8062],[164.3889,-20.7874],[164.3755,-20.774],[164.3656,-20.7581],[164.3721,-20.7573],[164.3869,-20.7597],[164.4027,-20.7541],[164.4104,-20.7385],[164.4043,-20.7254],[164.3897,-20.7164],[164.3721,-20.7131],[164.3572,-20.7023],[164.3351,-20.6554],[164.3167,-20.6448],[164.2866,-20.5759],[164.281,-20.5795],[164.2764,-20.5805],[164.2717,-20.5812],[164.2661,-20.5827],[164.256,-20.565],[164.1926,-20.5258],[164.1774,-20.504],[164.1659,-20.4631],[164.1637,-20.449],[164.1587,-20.4325],[164.147,-20.4251],[164.1335,-20.4201],[164.1234,-20.4108],[164.1187,-20.3903],[164.1301,-20.3881],[164.157,-20.3971],[164.1665,-20.3867],[164.1704,-20.3697],[164.1706,-20.3391],[164.1665,-20.3321],[164.1563,-20.319],[164.1438,-20.3066],[164.1325,-20.301],[164.0855,-20.2988],[164.0737,-20.2941],[164.0804,-20.2809],[164.0812,-20.2678],[164.0749,-20.2612],[164.0607,-20.2668],[164.065,-20.2768],[164.0593,-20.288],[164.0495,-20.2971],[164.0402,-20.301],[164.0254,-20.2971],[164.0208,-20.2878],[164.0181,-20.2785],[164.0095,-20.2742],[163.9948,-20.2643],[163.9982,-20.2446],[164.0166,-20.2311],[164.0471,-20.2394],[164.0564,-20.2276],[164.0525,-20.2155],[164.0335,-20.1923],[164.0452,-20.1876],[164.0525,-20.1778],[164.0537,-20.165],[164.0471,-20.1515],[164.0322,-20.1403],[164.0203,-20.1423],[164.0077,-20.1489],[163.992,-20.1515],[163.992,-20.1438],[163.9971,-20.1398],[164.0003,-20.1353],[164.0055,-20.1235],[163.9911,-20.1189],[163.986,-20.1096],[163.9872,-20.0973],[163.992,-20.0831],[163.9997,-20.0842],[164.0135,-20.0831],[164.0322,-20.0938],[164.0518,-20.1093],[164.0674,-20.1261],[164.0774,-20.1498],[164.0868,-20.1554],[164.1091,-20.165],[164.183,-20.2473],[164.1979,-20.2605],[164.2443,-20.2853],[164.2643,-20.2887],[164.2866,-20.281],[164.2928,-20.281],[164.3059,-20.3088],[164.3166,-20.3191],[164.3345,-20.3215],[164.3254,-20.3092],[164.3109,-20.2752],[164.3044,-20.2428],[164.3065,-20.235],[164.3158,-20.2348],[164.4956,-20.3002],[164.5275,-20.3266],[164.5808,-20.3909],[164.5952,-20.4036],[164.6152,-20.4171],[164.6362,-20.4275],[164.6535,-20.4318],[164.6846,-20.4586],[164.6948,-20.4631],[164.7254,-20.4728],[164.7398,-20.4855],[164.7678,-20.5208],[164.7832,-20.5281],[164.7918,-20.5351],[164.8278,-20.5827],[164.8796,-20.6266],[164.8894,-20.6274],[164.9198,-20.6451],[164.9352,-20.6591],[164.9303,-20.6721],[164.9479,-20.6837],[164.9885,-20.6853],[165.0055,-20.6994],[165.0244,-20.7057],[165.0615,-20.7341],[165.1672,-20.7541],[165.1702,-20.756],[165.1782,-20.7653],[165.1841,-20.7682],[165.1875,-20.767],[165.1926,-20.7636],[165.1986,-20.7605],[165.2053,-20.7602],[165.2175,-20.7644],[165.222,-20.768],[165.2251,-20.7729],[165.2327,-20.7807],[165.2568,-20.8001],[165.2644,-20.8132],[165.2599,-20.8285],[165.27,-20.8696],[165.2804,-20.8839],[165.2956,-20.8942],[165.311,-20.9026],[165.3233,-20.9128],[165.3283,-20.9284],[165.3367,-20.9316],[165.3897,-20.9384],[165.4077,-20.9439],[165.4131,-20.9492],[165.4089,-20.9825],[165.4025,-21.0051],[165.3999,-21.011],[165.3955,-21.0182],[165.3971,-21.0248],[165.4011,-21.0313],[165.4033,-21.0383],[165.4067,-21.0554],[165.4151,-21.0663],[165.4481,-21.0895],[165.4762,-21.1038],[165.4893,-21.1137],[165.5022,-21.1271],[165.5098,-21.13],[165.5357,-21.1315],[165.543,-21.1347],[165.5449,-21.1412],[165.541,-21.152],[165.5469,-21.1497],[165.5495,-21.1492],[165.5513,-21.1481],[165.5549,-21.1445],[165.5855,-21.1684],[165.5986,-21.1817],[165.6026,-21.1922],[165.6078,-21.1954],[165.6105,-21.1983],[165.6154,-21.2065],[165.5986,-21.2062],[165.5833,-21.2023],[165.5689,-21.1955],[165.5549,-21.1861],[165.5593,-21.1956],[165.5686,-21.207],[165.5806,-21.2162],[165.5923,-21.2201],[165.6026,-21.2265],[165.6101,-21.2411],[165.6165,-21.2573],[165.6231,-21.268],[165.6463,-21.2776],[165.7066,-21.2922],[165.7254,-21.3095],[165.7544,-21.3023],[165.7813,-21.3162],[165.8011,-21.3403],[165.8086,-21.3635],[165.8262,-21.3596],[165.8367,-21.402],[165.8563,-21.4187],[165.8459,-21.3989],[165.8449,-21.3914],[165.8496,-21.384],[165.8587,-21.3788],[165.8682,-21.3792],[165.8768,-21.3854],[165.8836,-21.3977],[165.8892,-21.3888],[165.8904,-21.378],[165.8864,-21.3668],[165.8761,-21.3567],[165.8941,-21.3611],[165.9084,-21.378],[165.9431,-21.4387],[165.9499,-21.4557],[165.9453,-21.4643],[165.9241,-21.4597],[165.9313,-21.4701],[165.9723,-21.4938],[165.9665,-21.503],[165.9745,-21.504],[165.9867,-21.5007],[165.9929,-21.4972],[165.9904,-21.4845],[165.9845,-21.475],[165.9777,-21.4674],[165.9723,-21.4597],[165.964,-21.4358],[165.9619,-21.4174],[165.9694,-21.4104],[165.9895,-21.4216],[166.0203,-21.4529],[166.0306,-21.4557],[166.0554,-21.4586],[166.0646,-21.4631],[166.0667,-21.4699],[166.0597,-21.4731],[166.051,-21.4754],[166.0482,-21.4797],[166.0525,-21.484],[166.0593,-21.4859],[166.068,-21.4871],[166.0705,-21.4977],[166.0723,-21.5162],[166.0749,-21.528],[166.0823,-21.5246],[166.0743,-21.5464],[166.059,-21.5592],[166.0462,-21.5668],[166.0368,-21.5814],[166.0291,-21.6018],[166.0138,-21.607],[165.9805,-21.6052],[165.9626,-21.6001],[165.9473,-21.5933],[165.9336,-21.5848],[165.9225,-21.5856],[165.9055,-21.5899],[165.8918,-21.5958],[165.8705,-21.5958],[165.8603,-21.5873],[165.8449,-21.5737],[165.8296,-21.5668],[165.8194,-21.5583],[165.8048,-21.5473],[165.7733,-21.5293],[165.7503,-21.5285],[165.7153,-21.5132],[165.6974,-21.5225],[165.6684,-21.5217],[165.6531,-21.508],[165.6283,-21.4988],[165.6075,-21.4799],[165.6007,-21.4753],[165.5757,-21.4618],[165.5701,-21.456],[165.5669,-21.4502],[165.558,-21.429],[165.5546,-21.4251],[165.5477,-21.4222],[165.5392,-21.4216],[165.5193,-21.4279],[165.5116,-21.4279],[165.504,-21.423],[165.4979,-21.4176],[165.4911,-21.4131],[165.4834,-21.4115],[165.4716,-21.416],[165.4481,-21.431],[165.4412,-21.4343],[165.4305,-21.4346],[165.4224,-21.4338],[165.3783,-21.4138],[165.365,-21.3696],[165.3631,-21.3592],[165.3435,-21.3469],[165.3231,-21.3392],[165.2907,-21.329],[165.2805,-21.3188],[165.2617,-21.3153],[165.2029,-21.3196],[165.1773,-21.3281],[165.1517,-21.3477],[165.1355,-21.3546],[165.1167,-21.3673],[165.1117,-21.3731]]],[[[164.2246,-20.1376],[164.2402,-20.1583],[164.221,-20.1535],[164.1926,-20.1391],[164.1692,-20.1233],[164.1643,-20.1051],[164.1637,-20.0619],[164.1706,-20.0619],[164.215,-20.1179],[164.2246,-20.1376]]],[[[163.6828,-19.7398],[163.6939,-19.7575],[163.6961,-19.7651],[163.6697,-19.7877],[163.64,-19.7237],[163.6361,-19.7016],[163.6379,-19.6606],[163.6323,-19.6459],[163.6157,-19.6362],[163.6218,-19.6237],[163.6379,-19.6318],[163.6497,-19.6463],[163.6702,-19.6933],[163.6771,-19.7255],[163.6828,-19.7398]]]]}},{"type":"Feature","properties":{"id":"NCL-1259","name":"Sud","nameBn":"দক্ষিন প্রদেশ","type":"Province","bounds":[165.1117,-22.6707,167.5552,-21.3153],"center":[167.487,-22.608]},"geometry":{"type":"MultiPolygon","coordinates":[[[[167.521,-22.5696],[167.5315,-22.5871],[167.5447,-22.5982],[167.5547,-22.6122],[167.5552,-22.6384],[167.543,-22.6301],[167.5309,-22.6056],[167.521,-22.6037],[167.5161,-22.6113],[167.5166,-22.6241],[167.521,-22.6487],[167.5073,-22.6707],[167.4758,-22.6671],[167.4187,-22.6453],[167.424,-22.6203],[167.4245,-22.5617],[167.4323,-22.5422],[167.4502,-22.538],[167.4769,-22.5434],[167.5034,-22.5549],[167.521,-22.5696]]],[[[166.8018,-22.3989],[166.8148,-22.3951],[166.8254,-22.3957],[166.8343,-22.4015],[166.8433,-22.4125],[166.8434,-22.4244],[166.8406,-22.4312],[166.8357,-22.4321],[166.8289,-22.4256],[166.8213,-22.4314],[166.8158,-22.4348],[166.8018,-22.4399],[166.8018,-22.446],[166.821,-22.4488],[166.8189,-22.4558],[166.8081,-22.4623],[166.8018,-22.4631],[166.7944,-22.4605],[166.7803,-22.4576],[166.7708,-22.4506],[166.7777,-22.4365],[166.7852,-22.4247],[166.7864,-22.4151],[166.7894,-22.4067],[166.8018,-22.3989]]],[[[166.0823,-21.5246],[166.098,-21.5173],[166.1165,-21.5173],[166.1331,-21.526],[166.1847,-21.5696],[166.1909,-21.5727],[166.2041,-21.5761],[166.2088,-21.5795],[166.2188,-21.5969],[166.2539,-21.6187],[166.291,-21.6354],[166.3704,-21.6589],[166.3704,-21.6652],[166.3425,-21.6652],[166.3425,-21.6721],[166.3496,-21.6765],[166.3518,-21.6823],[166.353,-21.6882],[166.3567,-21.6931],[166.3633,-21.696],[166.377,-21.697],[166.4113,-21.7055],[166.4255,-21.7123],[166.437,-21.7315],[166.4758,-21.7584],[166.4802,-21.7654],[166.4837,-21.7835],[166.4898,-21.7922],[166.4958,-21.7961],[166.5137,-21.803],[166.5062,-21.8093],[166.5291,-21.8279],[166.5734,-21.8749],[166.5925,-21.8844],[166.6106,-21.8976],[166.6375,-21.9234],[166.6614,-21.9396],[166.6712,-21.9252],[166.7061,-21.948],[166.7191,-21.9526],[166.7191,-21.9601],[166.7114,-21.9649],[166.7033,-21.9687],[166.6945,-21.9714],[166.6851,-21.9731],[166.6851,-21.9806],[166.6932,-21.9841],[166.7225,-21.9806],[166.7355,-21.9832],[166.7461,-21.9881],[166.7542,-21.9908],[166.76,-21.9867],[166.7673,-22.0048],[166.7783,-22.0146],[166.7942,-22.0191],[166.8154,-22.0216],[166.8737,-22.0351],[166.8879,-22.0426],[166.9388,-22.0798],[166.9483,-22.0921],[166.9593,-22.1109],[166.9608,-22.1192],[166.9593,-22.145],[166.9553,-22.1506],[166.9483,-22.1578],[166.948,-22.1637],[166.9627,-22.1661],[166.9715,-22.1702],[166.9797,-22.1801],[166.9934,-22.2003],[167.0288,-22.2268],[167.0344,-22.2375],[167.0317,-22.2467],[167.0256,-22.2481],[167.0183,-22.2485],[167.0134,-22.2548],[167.0158,-22.2612],[167.0221,-22.2682],[167.0271,-22.2765],[167.0239,-22.2856],[167.0205,-22.2922],[167.0134,-22.3163],[167.0059,-22.3298],[167.0007,-22.3367],[166.9934,-22.3443],[166.9915,-22.3395],[166.9885,-22.3351],[166.9827,-22.3376],[166.9776,-22.3425],[166.9656,-22.3473],[166.9608,-22.3508],[166.9619,-22.3559],[166.9662,-22.3647],[166.9346,-22.3884],[166.9157,-22.3956],[166.891,-22.392],[166.9116,-22.385],[166.9197,-22.3801],[166.9253,-22.3709],[166.9098,-22.3713],[166.9031,-22.3733],[166.8953,-22.3649],[166.8898,-22.352],[166.8816,-22.3377],[166.8775,-22.3337],[166.8743,-22.322],[166.8679,-22.3293],[166.8618,-22.343],[166.86,-22.3505],[166.8518,-22.3464],[166.8465,-22.3371],[166.8418,-22.3259],[166.8358,-22.3163],[166.8402,-22.3151],[166.8495,-22.3102],[166.8403,-22.2979],[166.8314,-22.3009],[166.8247,-22.3142],[166.821,-22.343],[166.8192,-22.3481],[166.8189,-22.3536],[166.8223,-22.3647],[166.825,-22.366],[166.8433,-22.3784],[166.8323,-22.3808],[166.8185,-22.3786],[166.8067,-22.3752],[166.8018,-22.3747],[166.7991,-22.3798],[166.7927,-22.3855],[166.7848,-22.3901],[166.7777,-22.392],[166.7526,-22.3867],[166.7393,-22.3743],[166.7406,-22.3604],[166.76,-22.3505],[166.76,-22.3443],[166.742,-22.3461],[166.72,-22.3438],[166.7061,-22.3347],[166.7123,-22.3163],[166.7056,-22.3102],[166.6906,-22.3151],[166.6675,-22.3072],[166.6465,-22.2927],[166.6372,-22.2787],[166.6328,-22.277],[166.61,-22.2863],[166.5996,-22.289],[166.5916,-22.2872],[166.5666,-22.2771],[166.558,-22.2719],[166.5545,-22.2621],[166.5612,-22.2565],[166.5657,-22.2507],[166.5545,-22.2407],[166.5456,-22.2376],[166.5163,-22.2336],[166.5062,-22.2345],[166.4951,-22.2491],[166.4883,-22.2714],[166.4784,-22.2872],[166.4585,-22.2822],[166.4583,-22.2862],[166.4578,-22.288],[166.4561,-22.2887],[166.4523,-22.289],[166.4601,-22.3077],[166.4499,-22.3124],[166.4367,-22.308],[166.4347,-22.2992],[166.4377,-22.2906],[166.4393,-22.2652],[166.4461,-22.2548],[166.4461,-22.2481],[166.4314,-22.249],[166.4181,-22.2457],[166.4067,-22.2384],[166.3976,-22.2268],[166.43,-22.2281],[166.4441,-22.2244],[166.4523,-22.214],[166.4343,-22.213],[166.4282,-22.2043],[166.4318,-22.1723],[166.4219,-22.173],[166.4002,-22.1697],[166.3909,-22.1723],[166.3875,-22.1782],[166.3833,-22.1964],[166.3805,-22.2003],[166.3679,-22.2021],[166.363,-22.2071],[166.3601,-22.2145],[166.3533,-22.2238],[166.344,-22.2275],[166.3394,-22.2214],[166.341,-22.2106],[166.3499,-22.2003],[166.3396,-22.1944],[166.3151,-22.1723],[166.3151,-22.1661],[166.3215,-22.1628],[166.3249,-22.1591],[166.3268,-22.1535],[166.3281,-22.145],[166.322,-22.145],[166.312,-22.1547],[166.2859,-22.1493],[166.2878,-22.1586],[166.2687,-22.1658],[166.2521,-22.1599],[166.2362,-22.1518],[166.2188,-22.1518],[166.2179,-22.1327],[166.2088,-22.1178],[166.1953,-22.1077],[166.1813,-22.1041],[166.169,-22.0976],[166.1575,-22.0867],[166.1453,-22.0846],[166.1301,-22.1041],[166.1193,-22.0981],[166.1089,-22.0904],[166.1135,-22.0852],[166.1159,-22.0798],[166.1165,-22.0727],[166.1165,-22.0624],[166.1227,-22.0624],[166.1311,-22.0715],[166.1421,-22.0759],[166.1504,-22.072],[166.1506,-22.0562],[166.1445,-22.0466],[166.125,-22.0385],[166.1165,-22.0284],[166.1437,-22.0286],[166.155,-22.0307],[166.1643,-22.0351],[166.1633,-22.0246],[166.1589,-22.0183],[166.1512,-22.0154],[166.1404,-22.0147],[166.1353,-22.0086],[166.1369,-21.9955],[166.141,-21.9836],[166.1438,-21.9806],[166.1358,-21.9583],[166.1231,-21.9488],[166.0886,-21.9389],[166.0764,-21.9459],[166.07,-21.943],[166.0713,-21.9348],[166.0823,-21.9252],[166.0718,-21.9205],[166.0645,-21.913],[166.0607,-21.9033],[166.0612,-21.8912],[166.0456,-21.9006],[166.0399,-21.9099],[166.0408,-21.9355],[166.0361,-21.9416],[166.0256,-21.9415],[166.014,-21.9394],[166.0066,-21.9389],[166.0104,-21.9438],[166.0096,-21.9558],[166.0032,-21.964],[165.9895,-21.9563],[165.9751,-21.9377],[165.966,-21.9289],[165.9349,-21.9177],[165.9143,-21.8849],[165.8999,-21.8775],[165.8931,-21.8757],[165.8855,-21.8714],[165.8728,-21.861],[165.8667,-21.8578],[165.8616,-21.8596],[165.8562,-21.8632],[165.8496,-21.8644],[165.8206,-21.8639],[165.8109,-21.8586],[165.8086,-21.8434],[165.8296,-21.8521],[165.8229,-21.8422],[165.7949,-21.8167],[165.7949,-21.8089],[165.7992,-21.7996],[165.8003,-21.7921],[165.7913,-21.7888],[165.7808,-21.7911],[165.7766,-21.7971],[165.7771,-21.8061],[165.7808,-21.8167],[165.764,-21.8112],[165.7606,-21.7999],[165.762,-21.7851],[165.7595,-21.7688],[165.7511,-21.7587],[165.7407,-21.7503],[165.7329,-21.7389],[165.7329,-21.7198],[165.7254,-21.7198],[165.7173,-21.7355],[165.7069,-21.7483],[165.6939,-21.7574],[165.6777,-21.7614],[165.6786,-21.7409],[165.6775,-21.7294],[165.6699,-21.7253],[165.6509,-21.7267],[165.6502,-21.7289],[165.6506,-21.7337],[165.6494,-21.7385],[165.6434,-21.7409],[165.6379,-21.7402],[165.5046,-21.6782],[165.4739,-21.6518],[165.4858,-21.631],[165.4858,-21.6236],[165.4715,-21.6285],[165.4631,-21.6259],[165.4646,-21.6205],[165.479,-21.6169],[165.4631,-21.6056],[165.4465,-21.6093],[165.4299,-21.6186],[165.4134,-21.6236],[165.396,-21.6205],[165.2908,-21.5768],[165.277,-21.5662],[165.2688,-21.5527],[165.2595,-21.5212],[165.2568,-21.5151],[165.238,-21.513],[165.2256,-21.5071],[165.1978,-21.4871],[165.1897,-21.485],[165.1807,-21.4848],[165.1735,-21.483],[165.1706,-21.4765],[165.157,-21.4622],[165.1538,-21.4597],[165.1165,-21.3977],[165.1148,-21.3884],[165.118,-21.3834],[165.1185,-21.3788],[165.1117,-21.3731],[165.1167,-21.3673],[165.1355,-21.3546],[165.1517,-21.3477],[165.1773,-21.3281],[165.2029,-21.3196],[165.2617,-21.3153],[165.2805,-21.3188],[165.2907,-21.329],[165.3231,-21.3392],[165.3435,-21.3469],[165.3631,-21.3592],[165.365,-21.3696],[165.3783,-21.4138],[165.4224,-21.4338],[165.4305,-21.4346],[165.4412,-21.4343],[165.4481,-21.431],[165.4716,-21.416],[165.4834,-21.4115],[165.4911,-21.4131],[165.4979,-21.4176],[165.504,-21.423],[165.5116,-21.4279],[165.5193,-21.4279],[165.5392,-21.4216],[165.5477,-21.4222],[165.5546,-21.4251],[165.558,-21.429],[165.5669,-21.4502],[165.5701,-21.456],[165.5757,-21.4618],[165.6007,-21.4753],[165.6075,-21.4799],[165.6283,-21.4988],[165.6531,-21.508],[165.6684,-21.5217],[165.6974,-21.5225],[165.7153,-21.5132],[165.7503,-21.5285],[165.7733,-21.5293],[165.8048,-21.5473],[165.8194,-21.5583],[165.8296,-21.5668],[165.8449,-21.5737],[165.8603,-21.5873],[165.8705,-21.5958],[165.8918,-21.5958],[165.9055,-21.5899],[165.9225,-21.5856],[165.9336,-21.5848],[165.9473,-21.5933],[165.9626,-21.6001],[165.9805,-21.6052],[166.0138,-21.607],[166.0291,-21.6018],[166.0368,-21.5814],[166.0462,-21.5668],[166.059,-21.5592],[166.0743,-21.5464],[166.0823,-21.5246]]]]}},{"type":"Feature","properties":{"id":"NCL-1258","name":"Îles Loyauté","nameBn":"লয়্যাল্টি দ্বীপপুঞ্জ প্রদেশ","type":"Province","bounds":[166.3909,-21.6585,168.1442,-20.3835],"center":[167.976,-21.5326]},"geometry":{"type":"MultiPolygon","coordinates":[[[[168.1375,-21.4318],[168.1442,-21.4527],[168.1437,-21.4887],[168.1365,-21.5273],[168.1238,-21.5554],[168.1291,-21.6013],[168.1268,-21.6222],[168.1141,-21.631],[168.1019,-21.633],[168.0642,-21.643],[168.0354,-21.6585],[167.9929,-21.655],[167.9582,-21.6384],[167.96,-21.6106],[167.939,-21.6017],[167.9126,-21.5956],[167.8858,-21.5954],[167.8636,-21.6037],[167.8612,-21.6007],[167.8592,-21.5973],[167.8578,-21.5938],[167.8568,-21.5895],[167.8674,-21.5828],[167.8799,-21.5727],[167.8895,-21.559],[167.8916,-21.5417],[167.8864,-21.5335],[167.8639,-21.5107],[167.8568,-21.5007],[167.8508,-21.4828],[167.8479,-21.4562],[167.8439,-21.4392],[167.8361,-21.4226],[167.8084,-21.384],[167.823,-21.377],[167.8359,-21.3743],[167.8488,-21.3748],[167.8636,-21.3772],[167.8892,-21.3886],[167.905,-21.3928],[167.9222,-21.3782],[167.9878,-21.3356],[167.9904,-21.3487],[167.9719,-21.3753],[167.9666,-21.3943],[167.9719,-21.4112],[167.9837,-21.4294],[167.9973,-21.4446],[168.0077,-21.4529],[168.0387,-21.4597],[168.0745,-21.4557],[168.1092,-21.445],[168.1375,-21.4318]]],[[[166.425,-20.7199],[166.433,-20.719],[166.4585,-20.7199],[166.4534,-20.7289],[166.4435,-20.7335],[166.4181,-20.7404],[166.4126,-20.7351],[166.4074,-20.7315],[166.4006,-20.7289],[166.3909,-20.7267],[166.3984,-20.7219],[166.4064,-20.7197],[166.4152,-20.719],[166.425,-20.7199]]],[[[167.4323,-21.0278],[167.4448,-21.0368],[167.4595,-21.0509],[167.4647,-21.0637],[167.4318,-21.0749],[167.4253,-21.0891],[167.4255,-21.1274],[167.4233,-21.1476],[167.417,-21.1601],[167.4061,-21.169],[167.3908,-21.1786],[167.3739,-21.1718],[167.3511,-21.1718],[167.3311,-21.1642],[167.3224,-21.1342],[167.315,-21.1296],[167.2986,-21.1274],[167.2821,-21.1235],[167.2747,-21.1137],[167.273,-21.0969],[167.2676,-21.0915],[167.176,-21.0822],[167.1463,-21.073],[167.1201,-21.0519],[167.0964,-21.0278],[167.0939,-21.0208],[167.0923,-21.0117],[167.0884,-21.0038],[167.0674,-20.9964],[167.0615,-20.9863],[167.062,-20.9731],[167.0686,-20.9596],[167.0285,-20.9254],[167.0208,-20.9117],[167.0822,-20.9162],[167.1027,-20.9117],[167.1216,-20.9015],[167.1335,-20.8901],[167.1511,-20.8632],[167.1812,-20.8298],[167.1909,-20.81],[167.1853,-20.7882],[167.1729,-20.7814],[167.1201,-20.7602],[167.0444,-20.7682],[167.0425,-20.7586],[167.047,-20.7372],[167.0588,-20.716],[167.0791,-20.7062],[167.1131,-20.7011],[167.1201,-20.7028],[167.127,-20.7087],[167.1343,-20.7117],[167.1431,-20.713],[167.1543,-20.7131],[167.1643,-20.7101],[167.1719,-20.7026],[167.1768,-20.6926],[167.1785,-20.6821],[167.2126,-20.6721],[167.2878,-20.7115],[167.3013,-20.7131],[167.3083,-20.7309],[167.3005,-20.7481],[167.2879,-20.7656],[167.2815,-20.7844],[167.2822,-20.7963],[167.2883,-20.8224],[167.3013,-20.8497],[167.2975,-20.8622],[167.2844,-20.8823],[167.2815,-20.8943],[167.2847,-20.9018],[167.2925,-20.9057],[167.3025,-20.9091],[167.3123,-20.9148],[167.3225,-20.9238],[167.3311,-20.9295],[167.3567,-20.9384],[167.3684,-20.9395],[167.3782,-20.9391],[167.3855,-20.9417],[167.3908,-20.9527],[167.3944,-20.9577],[167.4004,-20.9679],[167.405,-20.9724],[167.3939,-20.9899],[167.3904,-20.9994],[167.3908,-21.0079],[167.3992,-21.0192],[167.4098,-21.0232],[167.4214,-21.0245],[167.4323,-21.0278]]],[[[166.6372,-20.4251],[166.6483,-20.4328],[166.6733,-20.4457],[166.6782,-20.4524],[166.6738,-20.4636],[166.6631,-20.4674],[166.6335,-20.466],[166.6208,-20.4693],[166.6113,-20.4772],[166.6057,-20.4874],[166.6038,-20.4972],[166.6009,-20.4999],[166.5857,-20.538],[166.5793,-20.5496],[166.5786,-20.5649],[166.582,-20.5929],[166.5877,-20.5999],[166.6009,-20.6002],[166.6297,-20.5964],[166.5915,-20.6651],[166.5752,-20.6852],[166.5596,-20.6951],[166.5373,-20.7047],[166.5135,-20.7115],[166.4939,-20.7131],[166.4858,-20.7062],[166.4797,-20.6994],[166.4951,-20.6935],[166.509,-20.6835],[166.5342,-20.6585],[166.5508,-20.6371],[166.5583,-20.6244],[166.5614,-20.6066],[166.5596,-20.5457],[166.565,-20.5315],[166.5765,-20.5173],[166.5889,-20.4977],[166.5989,-20.4767],[166.6038,-20.4586],[166.5994,-20.4396],[166.5803,-20.4147],[166.5715,-20.4059],[166.5672,-20.4073],[166.5614,-20.4108],[166.5637,-20.402],[166.5746,-20.3923],[166.5895,-20.3854],[166.6038,-20.3835],[166.616,-20.3894],[166.6235,-20.4006],[166.6296,-20.4138],[166.6372,-20.4251]]]]}}]}