{"type":"FeatureCollection","features":[{"type":"Feature","properties":{"id":"NLD-5149","name":"Bonaire","nameBn":"বোনাইর","type":"Special Municipality","bounds":[-68.4174,12.022,-68.19,12.3102],"center":[-68.3029,12.2314]},"geometry":{"type":"Polygon","coordinates":[[[-68.2115,12.2281],[-68.2047,12.2232],[-68.1942,12.2139],[-68.19,12.2048],[-68.2016,12.2008],[-68.2108,12.1901],[-68.2036,12.1378],[-68.2053,12.1182],[-68.2139,12.1118],[-68.2322,12.1107],[-68.2388,12.1046],[-68.2384,12.0958],[-68.2283,12.07],[-68.2258,12.0602],[-68.2275,12.0507],[-68.2318,12.038],[-68.2373,12.0268],[-68.2425,12.022],[-68.2542,12.0236],[-68.2597,12.0281],[-68.2806,12.0722],[-68.2854,12.0901],[-68.2873,12.1083],[-68.2828,12.1396],[-68.2822,12.1599],[-68.2873,12.1803],[-68.3026,12.2029],[-68.3213,12.2139],[-68.3698,12.2213],[-68.3918,12.2278],[-68.4107,12.2403],[-68.4174,12.257],[-68.4033,12.2765],[-68.4108,12.2827],[-68.4065,12.2946],[-68.4001,12.3044],[-68.3905,12.3102],[-68.3766,12.31],[-68.3615,12.3022],[-68.3404,12.275],[-68.3319,12.269],[-68.3148,12.2648],[-68.2525,12.2355],[-68.2205,12.2311],[-68.2115,12.2281]]]}},{"type":"Feature","properties":{"id":"NLD-894","name":"Drenthe","nameBn":"ড্রেন্তে","type":"Province","bounds":[6.1295,52.6115,7.0722,53.2045],"center":[6.6006,52.9046]},"geometry":{"type":"Polygon","coordinates":[[[7.0722,52.8413],[7.062,52.824],[7.0533,52.7906],[7.044,52.6826],[7.0367,52.6474],[7.0185,52.626],[6.9828,52.6328],[6.9677,52.6367],[6.9184,52.6322],[6.8654,52.642],[6.7705,52.641],[6.737,52.6347],[6.7191,52.6268],[6.7184,52.627],[6.7078,52.6309],[6.7054,52.6393],[6.7058,52.6466],[6.7021,52.6493],[6.6964,52.6522],[6.6242,52.6723],[6.6112,52.6726],[6.582,52.6694],[6.5333,52.6539],[6.5208,52.6459],[6.5187,52.6412],[6.5216,52.6115],[6.4802,52.6237],[6.4742,52.6243],[6.4667,52.6243],[6.4623,52.6214],[6.4541,52.6183],[6.4484,52.6179],[6.4431,52.6194],[6.4392,52.622],[6.4344,52.6265],[6.4313,52.6277],[6.429,52.628],[6.4237,52.6252],[6.4166,52.6228],[6.3933,52.6184],[6.3866,52.6185],[6.3826,52.6196],[6.3815,52.6211],[6.3734,52.6344],[6.3654,52.6417],[6.348,52.6525],[6.3328,52.6601],[6.325,52.6678],[6.3213,52.6683],[6.273,52.6679],[6.2647,52.6697],[6.2338,52.6826],[6.2179,52.6862],[6.211,52.6852],[6.2052,52.682],[6.1972,52.6789],[6.1913,52.6786],[6.1833,52.68],[6.1791,52.6821],[6.1765,52.6838],[6.1697,52.691],[6.1649,52.6934],[6.1303,52.7485],[6.1399,52.7587],[6.1663,52.7665],[6.2024,52.7882],[6.2069,52.7967],[6.1978,52.8054],[6.1874,52.8126],[6.1798,52.8168],[6.1295,52.8534],[6.2142,52.8929],[6.2476,52.9162],[6.2546,52.9205],[6.2654,52.9257],[6.2921,52.9257],[6.3145,52.9222],[6.348,52.9084],[6.3958,52.9278],[6.402,52.9319],[6.4295,52.9594],[6.4321,52.9649],[6.4338,52.9693],[6.4217,52.9846],[6.3675,53.0285],[6.3638,53.0397],[6.3584,53.0497],[6.3593,53.0552],[6.357,53.0607],[6.3546,53.0636],[6.3264,53.0709],[6.3108,53.0766],[6.3077,53.0784],[6.3095,53.0921],[6.3301,53.0881],[6.338,53.0909],[6.3542,53.1084],[6.3584,53.1184],[6.3624,53.1249],[6.375,53.1408],[6.3779,53.146],[6.3787,53.1484],[6.3854,53.1582],[6.4004,53.1697],[6.4137,53.1778],[6.4321,53.1848],[6.4684,53.2045],[6.5014,53.1951],[6.5197,53.1904],[6.5306,53.1912],[6.5477,53.1772],[6.564,53.16],[6.5671,53.1584],[6.5725,53.1572],[6.5829,53.152],[6.617,53.1245],[6.6277,53.1091],[6.6296,53.1076],[6.6315,53.1056],[6.6369,53.1067],[6.6987,53.119],[6.7254,53.1175],[6.7348,53.1144],[6.7405,53.1119],[6.7756,53.0892],[6.8194,53.0601],[6.8431,53.046],[6.862,53.0352],[6.8968,53.0131],[6.9355,52.9884],[6.9822,52.9502],[7.0312,52.9132],[7.0382,52.9122],[7.0394,52.9079],[7.039,52.9039],[7.0178,52.8704],[7.0377,52.8662],[7.0481,52.8611],[7.0663,52.8474],[7.0718,52.8417],[7.0722,52.8413]]]}},{"type":"Feature","properties":{"id":"NLD-902","name":"Flevoland","nameBn":"ফ্রিলে ফ্লেভোল্যান্ড","type":"Province","bounds":[5.0952,52.2639,6.0198,52.8387],"center":[5.5575,52.5508]},"geometry":{"type":"Polygon","coordinates":[[[5.7405,52.8387],[5.7501,52.8351],[5.7751,52.819],[5.7852,52.8037],[5.8584,52.7794],[5.9048,52.7565],[5.9165,52.7471],[5.9234,52.7399],[5.9377,52.7145],[5.9453,52.6888],[5.9397,52.6834],[5.9357,52.6776],[5.9284,52.6734],[5.9265,52.6717],[5.9293,52.6701],[5.9379,52.6676],[5.9782,52.6604],[5.9978,52.6538],[6.0198,52.6376],[5.9878,52.6268],[5.9396,52.6167],[5.9301,52.6163],[5.9138,52.618],[5.9082,52.62],[5.895,52.6195],[5.8442,52.6053],[5.8433,52.6047],[5.8325,52.5971],[5.8325,52.5852],[5.8465,52.5777],[5.8669,52.5218],[5.867,52.5216],[5.8659,52.5055],[5.8551,52.4807],[5.8379,52.4623],[5.8153,52.4408],[5.7958,52.4267],[5.771,52.4138],[5.7333,52.403],[5.6891,52.3901],[5.6546,52.3815],[5.6276,52.3718],[5.6007,52.3577],[5.5791,52.3448],[5.5629,52.32],[5.5522,52.2984],[5.5327,52.2769],[5.4972,52.2693],[5.426,52.2639],[5.4089,52.2677],[5.4066,52.2682],[5.3661,52.2832],[5.3676,52.2833],[5.2828,52.3185],[5.2489,52.325],[5.2278,52.325],[5.1906,52.3234],[5.1599,52.3282],[5.1049,52.3638],[5.1033,52.3962],[5.1599,52.4285],[5.1939,52.4285],[5.168,52.4722],[5.1194,52.5159],[5.0952,52.5822],[5.2618,52.6486],[5.278,52.6858],[5.3087,52.6987],[5.3589,52.689],[5.3702,52.7893],[5.3703,52.7903],[5.3718,52.7893],[5.5579,52.7926],[5.6,52.812],[5.6323,52.8281],[5.6566,52.8346],[5.6808,52.8379],[5.7035,52.8379],[5.7174,52.8365],[5.72,52.8368],[5.7405,52.8387]]]}},{"type":"Feature","properties":{"id":"NLD-895","name":"Friesland","nameBn":"ফ্রাইসল্যান্ড","type":"Province","bounds":[4.8789,52.7893,6.4338,53.5141],"center":[5.7735,53.0792]},"geometry":{"type":"MultiPolygon","coordinates":[[[[5.1798,53.009],[5.2795,53.0629],[5.2942,53.0734],[5.3128,53.0828],[5.3589,53.0893],[5.3792,53.0974],[5.3998,53.1221],[5.4271,53.1903],[5.4474,53.2209],[5.4826,53.2456],[5.5042,53.257],[5.541,53.2666],[5.5579,53.278],[5.5735,53.2917],[5.5916,53.3028],[5.6118,53.3071],[5.6597,53.312],[5.6946,53.3301],[5.8547,53.3688],[5.8908,53.3843],[5.9137,53.3854],[5.9808,53.4061],[6.0773,53.4089],[6.186,53.411],[6.1753,53.3981],[6.1703,53.3861],[6.1801,53.3643],[6.1944,53.3606],[6.2133,53.3573],[6.2169,53.356],[6.2207,53.3539],[6.2265,53.3488],[6.2307,53.346],[6.2341,53.3449],[6.2369,53.3443],[6.24,53.3444],[6.2435,53.3453],[6.2492,53.3475],[6.2519,53.3483],[6.2552,53.3484],[6.2737,53.3447],[6.2772,53.3414],[6.2789,53.3359],[6.2766,53.3234],[6.2761,53.3136],[6.2778,53.3124],[6.2805,53.3115],[6.2871,53.3099],[6.2871,53.3089],[6.2844,53.3069],[6.2676,53.2975],[6.254,53.2882],[6.2502,53.2837],[6.2452,53.2708],[6.2303,53.2555],[6.2179,53.2406],[6.22,53.2359],[6.2209,53.2317],[6.2229,53.2292],[6.2246,53.2262],[6.2257,53.2233],[6.226,53.2206],[6.2234,53.2165],[6.1863,53.1868],[6.176,53.1744],[6.1691,53.1529],[6.1737,53.1315],[6.183,53.1243],[6.1962,53.1171],[6.2049,53.1154],[6.2476,53.1129],[6.2648,53.1092],[6.3008,53.095],[6.3095,53.0921],[6.3077,53.0784],[6.3108,53.0766],[6.3264,53.0709],[6.3546,53.0636],[6.357,53.0607],[6.3593,53.0552],[6.3584,53.0497],[6.3638,53.0397],[6.3675,53.0285],[6.4217,52.9846],[6.4338,52.9693],[6.4321,52.9649],[6.4295,52.9594],[6.402,52.9319],[6.3958,52.9278],[6.348,52.9084],[6.3145,52.9222],[6.2921,52.9257],[6.2654,52.9257],[6.2546,52.9205],[6.2476,52.9162],[6.2142,52.8929],[6.1295,52.8534],[6.0875,52.8433],[6.0682,52.8421],[6.0519,52.8393],[6.0496,52.8381],[6.0485,52.837],[6.0476,52.8326],[6.0466,52.831],[6.0324,52.8211],[5.9931,52.8228],[5.9881,52.8243],[5.979,52.8292],[5.9672,52.8398],[5.9619,52.8413],[5.9593,52.8416],[5.9568,52.8397],[5.9531,52.8382],[5.9329,52.8352],[5.9279,52.8334],[5.9244,52.8309],[5.9219,52.8276],[5.9183,52.8237],[5.9138,52.8196],[5.909,52.8167],[5.8794,52.8059],[5.8718,52.805],[5.8662,52.8048],[5.8379,52.8077],[5.8342,52.8088],[5.8224,52.815],[5.7852,52.8037],[5.7751,52.819],[5.7501,52.8351],[5.7405,52.8387],[5.72,52.8368],[5.7174,52.8365],[5.7035,52.8379],[5.6808,52.8379],[5.6566,52.8346],[5.6323,52.8281],[5.6,52.812],[5.5579,52.7926],[5.3718,52.7893],[5.3703,52.7903],[5.2602,52.8654],[5.1875,52.9913],[5.1874,52.9915],[5.186,52.9951],[5.1821,53.0049],[5.1801,53.008],[5.1798,53.009]]],[[[4.8789,53.2209],[4.9212,53.2537],[4.9865,53.29],[5.0545,53.3138],[5.1048,53.3096],[5.1048,53.3028],[5.0781,53.3028],[5.0656,53.2985],[5.0365,53.2918],[4.9575,53.2456],[4.9357,53.226],[4.9102,53.2125],[4.8789,53.2209]]],[[[5.4236,53.4304],[5.437,53.4365],[5.5853,53.4536],[5.562,53.4343],[5.5337,53.4284],[5.4754,53.4269],[5.4774,53.4235],[5.4797,53.4162],[5.4817,53.4127],[5.4686,53.4085],[5.427,53.4064],[5.3825,53.3947],[5.3469,53.3892],[5.2083,53.3527],[5.1799,53.3531],[5.1677,53.3682],[5.1789,53.3854],[5.2324,53.3967],[5.2502,53.4064],[5.273,53.4061],[5.4072,53.4226],[5.4236,53.4304]]],[[[5.674,53.4679],[5.9138,53.4739],[5.9546,53.4611],[5.8556,53.4474],[5.7528,53.4474],[5.7271,53.4433],[5.679,53.4301],[5.6536,53.4337],[5.6361,53.4487],[5.6419,53.4634],[5.6589,53.4719],[5.674,53.4679]]],[[[6.2118,53.5089],[6.3108,53.5141],[6.3387,53.5089],[6.3387,53.502],[6.325,53.502],[6.1532,53.4688],[6.1333,53.4536],[6.1275,53.4599],[6.1271,53.4631],[6.1333,53.4679],[6.1228,53.4816],[6.148,53.4949],[6.1854,53.5049],[6.2118,53.5089]]]]}},{"type":"Feature","properties":{"id":"NLD-896","name":"Gelderland","nameBn":"গেল্ডারল্যান্ড","type":"Province","bounds":[5.0045,51.7348,6.8117,52.5218],"center":[5.96,52.0635]},"geometry":{"type":"Polygon","coordinates":[[[6.7716,52.1088],[6.7659,52.1084],[6.7499,52.1029],[6.7329,52.092],[6.7276,52.0863],[6.7195,52.0736],[6.7114,52.0673],[6.6994,52.0636],[6.6889,52.0631],[6.6799,52.0605],[6.673,52.0501],[6.675,52.0348],[6.6909,52.0279],[6.7129,52.0239],[6.7782,52.0013],[6.804,51.9844],[6.8092,51.9795],[6.8117,51.9728],[6.8107,51.9606],[6.8057,51.9575],[6.798,51.9567],[6.7898,51.9511],[6.767,51.9255],[6.7438,51.9083],[6.7167,51.8993],[6.6282,51.8975],[6.5286,51.8764],[6.4794,51.853],[6.4629,51.8484],[6.4425,51.8484],[6.3785,51.8601],[6.3866,51.8376],[6.3825,51.8276],[6.345,51.8211],[6.342,51.8367],[6.3257,51.8425],[6.2874,51.8462],[6.2829,51.8496],[6.2718,51.8619],[6.2647,51.8662],[6.2564,51.8668],[6.2252,51.8625],[6.1914,51.8712],[6.1592,51.8873],[6.127,51.8967],[6.093,51.8853],[6.1054,51.8795],[6.1427,51.8552],[6.1561,51.8421],[6.14,51.8445],[6.1165,51.8483],[6.084,51.8537],[6.0433,51.8469],[6.0289,51.8421],[6.0082,51.8326],[5.9889,51.8275],[5.9481,51.823],[5.9315,51.8156],[5.928,51.8067],[5.9508,51.7959],[5.9641,51.7766],[5.9624,51.7564],[5.9461,51.7463],[5.9446,51.746],[5.9414,51.7453],[5.9158,51.7561],[5.9123,51.7581],[5.8944,51.7734],[5.8899,51.7773],[5.887,51.7779],[5.8822,51.7779],[5.8722,51.7766],[5.8632,51.7728],[5.8628,51.7594],[5.7599,51.7626],[5.6901,51.7927],[5.6708,51.7959],[5.6613,51.8002],[5.6489,51.8195],[5.6432,51.8238],[5.5985,51.83],[5.5346,51.8239],[5.52,51.8269],[5.5008,51.835],[5.4816,51.8302],[5.462,51.8211],[5.4415,51.8164],[5.401,51.8182],[5.3811,51.8116],[5.3726,51.7921],[5.3675,51.7754],[5.3546,51.7626],[5.337,51.7534],[5.3179,51.7474],[5.1349,51.7348],[5.126,51.7367],[5.1372,51.7531],[5.1373,51.7692],[5.1004,51.7848],[5.0892,51.7826],[5.065,51.7831],[5.0278,51.8008],[5.0121,51.8115],[5.0101,51.8195],[5.0093,51.8252],[5.008,51.8349],[5.0107,51.8429],[5.0108,51.8449],[5.0045,51.8509],[5.0334,51.852],[5.1102,51.8721],[5.1205,51.8762],[5.1215,51.8784],[5.1215,51.8814],[5.1196,51.8859],[5.1179,51.8915],[5.153,51.9304],[5.1576,51.9352],[5.1826,51.9669],[5.1974,51.9656],[5.2214,51.9685],[5.2395,51.9771],[5.2543,51.9791],[5.3105,51.9597],[5.3312,51.963],[5.3606,51.977],[5.3828,51.9802],[5.4091,51.9743],[5.4204,51.974],[5.4297,51.9767],[5.4495,51.9855],[5.462,51.9876],[5.5051,51.982],[5.5821,51.9533],[5.6157,51.9483],[5.6193,51.953],[5.6197,51.9687],[5.6183,51.9738],[5.6165,51.9778],[5.6123,51.9824],[5.6055,51.9913],[5.5849,52.0051],[5.5722,52.019],[5.5634,52.0494],[5.5648,52.0733],[5.5628,52.0791],[5.5619,52.0846],[5.5533,52.1048],[5.5369,52.1025],[5.5412,52.0951],[5.5406,52.0911],[5.5392,52.0872],[5.535,52.0823],[5.5312,52.0795],[5.5271,52.0779],[5.5231,52.0776],[5.5197,52.0769],[5.5093,52.0718],[5.5001,52.0698],[5.4722,52.0784],[5.4702,52.0801],[5.4686,52.0823],[5.4762,52.0863],[5.481,52.0898],[5.484,52.0931],[5.4899,52.1038],[5.4976,52.114],[5.5085,52.1135],[5.5088,52.1146],[5.5088,52.1165],[5.5079,52.12],[5.5077,52.1267],[5.5127,52.1327],[5.5128,52.1362],[5.5102,52.1385],[5.5024,52.1439],[5.4944,52.1471],[5.4903,52.1494],[5.4815,52.1575],[5.4745,52.1609],[5.4539,52.1638],[5.4301,52.1686],[5.4241,52.1754],[5.4249,52.1774],[5.4267,52.1787],[5.4332,52.182],[5.4367,52.1861],[5.4387,52.1959],[5.4025,52.214],[5.3969,52.2199],[5.3992,52.2308],[5.4028,52.2479],[5.4088,52.2672],[5.4089,52.2677],[5.426,52.2639],[5.4972,52.2693],[5.5327,52.2769],[5.5522,52.2984],[5.5629,52.32],[5.5791,52.3448],[5.6007,52.3577],[5.6276,52.3718],[5.6546,52.3815],[5.6891,52.3901],[5.7333,52.403],[5.771,52.4138],[5.7958,52.4267],[5.8153,52.4408],[5.8379,52.4623],[5.8551,52.4807],[5.8659,52.5055],[5.867,52.5216],[5.8669,52.5218],[5.881,52.5211],[5.8915,52.5204],[5.9039,52.5088],[5.925,52.484],[5.9313,52.4806],[5.9394,52.4793],[5.9697,52.485],[6.0016,52.5016],[6.0307,52.511],[6.0428,52.5079],[6.0496,52.5053],[6.0564,52.4987],[6.0638,52.4894],[6.0816,52.4777],[6.089,52.4738],[6.0954,52.4679],[6.1042,52.452],[6.112,52.4398],[6.1327,52.4213],[6.1348,52.4187],[6.1362,52.4156],[6.1348,52.4044],[6.12,52.3804],[6.0867,52.3735],[6.0836,52.372],[6.0816,52.3706],[6.0865,52.3637],[6.0873,52.3594],[6.078,52.351],[6.0693,52.329],[6.068,52.3218],[6.0707,52.3184],[6.081,52.3093],[6.0861,52.3055],[6.1065,52.2997],[6.1245,52.2709],[6.1241,52.2625],[6.1223,52.2595],[6.1241,52.2562],[6.1279,52.2545],[6.1391,52.2513],[6.1441,52.2488],[6.146,52.2439],[6.1422,52.2375],[6.1419,52.2365],[6.1419,52.2351],[6.1433,52.2328],[6.1461,52.2303],[6.1543,52.2256],[6.1577,52.2251],[6.1599,52.2253],[6.167,52.2321],[6.1765,52.2369],[6.1796,52.2377],[6.1892,52.2374],[6.2592,52.2289],[6.3225,52.2295],[6.3325,52.2313],[6.3473,52.2382],[6.3817,52.2468],[6.4114,52.2446],[6.4174,52.2384],[6.4185,52.237],[6.4659,52.1944],[6.4952,52.1772],[6.5191,52.1788],[6.5576,52.1759],[6.5857,52.1796],[6.5918,52.1793],[6.5974,52.1781],[6.6008,52.1734],[6.6017,52.1691],[6.6017,52.1659],[6.606,52.1649],[6.6101,52.1645],[6.6456,52.1698],[6.6535,52.1685],[6.6633,52.1659],[6.6667,52.1645],[6.6693,52.1616],[6.671,52.1576],[6.6721,52.1476],[6.6718,52.1423],[6.6619,52.1273],[6.7595,52.1145],[6.7709,52.1091],[6.7716,52.1088]]]}},{"type":"Feature","properties":{"id":"NLD-897","name":"Groningen","nameBn":"গ্রোনিনজেন","type":"Province","bounds":[6.1691,52.8413,7.1985,53.5581],"center":[6.7307,53.279]},"geometry":{"type":"MultiPolygon","coordinates":[[[[7.1946,53.245],[7.1975,53.2166],[7.1985,53.2006],[7.1954,53.185],[7.1886,53.1678],[7.1744,53.1458],[7.1719,53.1377],[7.1727,53.1258],[7.1765,53.1194],[7.1813,53.1142],[7.1851,53.1054],[7.1944,53.0338],[7.1928,52.998],[7.1836,52.9661],[7.1619,52.9326],[7.0799,52.8544],[7.0722,52.8413],[7.0718,52.8417],[7.0663,52.8474],[7.0481,52.8611],[7.0377,52.8662],[7.0178,52.8704],[7.039,52.9039],[7.0394,52.9079],[7.0382,52.9122],[7.0312,52.9132],[6.9822,52.9502],[6.9355,52.9884],[6.8968,53.0131],[6.862,53.0352],[6.8431,53.046],[6.8194,53.0601],[6.7756,53.0892],[6.7405,53.1119],[6.7348,53.1144],[6.7254,53.1175],[6.6987,53.119],[6.6369,53.1067],[6.6315,53.1056],[6.6296,53.1076],[6.6277,53.1091],[6.617,53.1245],[6.5829,53.152],[6.5725,53.1572],[6.5671,53.1584],[6.564,53.16],[6.5477,53.1772],[6.5306,53.1912],[6.5197,53.1904],[6.5014,53.1951],[6.4684,53.2045],[6.4321,53.1848],[6.4137,53.1778],[6.4004,53.1697],[6.3854,53.1582],[6.3787,53.1484],[6.3779,53.146],[6.375,53.1408],[6.3624,53.1249],[6.3584,53.1184],[6.3542,53.1084],[6.338,53.0909],[6.3301,53.0881],[6.3095,53.0921],[6.3008,53.095],[6.2648,53.1092],[6.2476,53.1129],[6.2049,53.1154],[6.1962,53.1171],[6.183,53.1243],[6.1737,53.1315],[6.1691,53.1529],[6.176,53.1744],[6.1863,53.1868],[6.2234,53.2165],[6.226,53.2206],[6.2257,53.2233],[6.2246,53.2262],[6.2229,53.2292],[6.2209,53.2317],[6.22,53.2359],[6.2179,53.2406],[6.2303,53.2555],[6.2452,53.2708],[6.2502,53.2837],[6.254,53.2882],[6.2676,53.2975],[6.2844,53.3069],[6.2871,53.3089],[6.2871,53.3099],[6.2805,53.3115],[6.2778,53.3124],[6.2761,53.3136],[6.2766,53.3234],[6.2789,53.3359],[6.2772,53.3414],[6.2737,53.3447],[6.2552,53.3484],[6.2519,53.3483],[6.2492,53.3475],[6.2435,53.3453],[6.24,53.3444],[6.2369,53.3443],[6.2341,53.3449],[6.2307,53.346],[6.2265,53.3488],[6.2207,53.3539],[6.2169,53.356],[6.2133,53.3573],[6.1944,53.3606],[6.1801,53.3643],[6.1703,53.3861],[6.1753,53.3981],[6.186,53.411],[6.2739,53.4127],[6.2844,53.4105],[6.3019,53.4011],[6.3115,53.399],[6.3201,53.4007],[6.3456,53.4127],[6.4944,53.4387],[6.7302,53.4606],[6.8291,53.4506],[6.8498,53.4449],[6.8669,53.4343],[6.9006,53.3518],[6.9058,53.3505],[6.93,53.3401],[6.9319,53.3376],[6.9367,53.3354],[6.9417,53.3307],[6.9486,53.3261],[6.9802,53.3198],[7.02,53.3061],[7.0378,53.3096],[7.0462,53.3039],[7.0583,53.3019],[7.0701,53.3039],[7.0786,53.3096],[7.0855,53.3096],[7.0855,53.3028],[7.0775,53.2987],[7.0735,53.2956],[7.0737,53.2913],[7.0786,53.2829],[7.0807,53.2668],[7.1111,53.2563],[7.1834,53.2451],[7.1946,53.245]]],[[[6.4412,53.5566],[6.4551,53.5581],[6.5101,53.5436],[6.5056,53.5438],[6.502,53.5425],[6.4989,53.54],[6.4964,53.5362],[6.4607,53.5434],[6.443,53.55],[6.4412,53.5566]]]]}},{"type":"Feature","properties":{"id":"NLD-898","name":"Limburg","nameBn":"লিম্বার্গ","type":"Province","bounds":[5.5514,50.7475,6.2078,51.7779],"center":[5.9316,51.2248]},"geometry":{"type":"Polygon","coordinates":[[[5.9461,51.7463],[5.9401,51.7426],[5.9393,51.7319],[5.9492,51.7294],[5.9783,51.7298],[5.9897,51.7264],[6.0121,51.7159],[6.022,51.7095],[6.0086,51.6812],[6.0315,51.663],[6.0992,51.6445],[6.0875,51.6221],[6.0821,51.6078],[6.0865,51.5955],[6.153,51.5384],[6.1933,51.5093],[6.2005,51.4766],[6.2053,51.4584],[6.2017,51.4386],[6.1941,51.4174],[6.1927,51.399],[6.2078,51.3877],[6.202,51.3789],[6.1989,51.357],[6.1936,51.3445],[6.1836,51.3357],[6.1582,51.3246],[6.1478,51.3182],[6.0965,51.2588],[6.0754,51.2427],[6.0652,51.2316],[6.0566,51.2117],[6.0537,51.1894],[6.0608,51.1709],[6.0843,51.1627],[6.1341,51.1842],[6.1571,51.1793],[6.1491,51.1763],[6.1263,51.1646],[6.1473,51.1523],[6.1324,51.1398],[6.0754,51.1204],[5.9829,51.0747],[5.9695,51.0649],[5.9503,51.0395],[5.938,51.0309],[5.9196,51.0297],[5.9062,51.0374],[5.8943,51.0471],[5.8805,51.0521],[5.8525,51.0428],[5.8582,51.0193],[5.8736,50.9906],[5.8746,50.9654],[5.8883,50.9671],[5.9142,50.9752],[5.9277,50.9777],[5.9416,50.9765],[5.9678,50.971],[6.0037,50.9737],[6.0058,50.9685],[5.9997,50.9601],[5.9958,50.9518],[5.9973,50.9374],[5.9999,50.9294],[6.0075,50.9241],[6.0311,50.9147],[6.0637,50.9075],[6.0618,50.9035],[6.0565,50.8981],[6.0546,50.8915],[6.0631,50.8709],[6.0628,50.8629],[6.0567,50.8527],[6.0456,50.8442],[6.023,50.8454],[6.0093,50.8405],[6.0005,50.8304],[6.0014,50.8218],[6.0036,50.8126],[5.9983,50.8007],[5.984,50.7922],[5.9688,50.7946],[5.973,50.7818],[5.9806,50.7734],[5.9906,50.769],[5.9971,50.7629],[5.9949,50.7499],[5.9748,50.7475],[5.9022,50.749],[5.8913,50.7512],[5.8799,50.7535],[5.7932,50.7521],[5.7829,50.7567],[5.7625,50.771],[5.7524,50.7734],[5.7436,50.7691],[5.7328,50.7589],[5.7278,50.7542],[5.7174,50.7528],[5.7066,50.7542],[5.6884,50.7608],[5.6987,50.7838],[5.7005,50.7956],[5.6849,50.7985],[5.6633,50.8051],[5.6574,50.8076],[5.6407,50.815],[5.6245,50.8303],[5.6223,50.8527],[5.6945,50.9037],[5.706,50.9066],[5.7176,50.9092],[5.7224,50.9117],[5.7353,50.924],[5.7525,50.9472],[5.764,50.9594],[5.7543,50.9631],[5.7447,50.9632],[5.7224,50.9594],[5.7617,50.9992],[5.7776,51.0236],[5.764,51.0352],[5.7664,51.0484],[5.7715,51.0581],[5.7796,51.0613],[5.7913,51.055],[5.7988,51.0615],[5.8043,51.0686],[5.8118,51.0823],[5.809,51.0863],[5.8074,51.0894],[5.8049,51.0966],[5.8159,51.0959],[5.8267,51.0969],[5.8368,51.0995],[5.846,51.1034],[5.8232,51.1187],[5.8264,51.1302],[5.8405,51.1389],[5.838,51.1437],[5.8291,51.1565],[5.8121,51.1573],[5.7814,51.1524],[5.7681,51.1595],[5.7472,51.1776],[5.7308,51.1838],[5.718,51.1846],[5.6762,51.1792],[5.659,51.1791],[5.6482,51.184],[5.6385,51.1909],[5.625,51.1969],[5.5684,51.2077],[5.5514,51.2168],[5.5516,51.2168],[5.5684,51.221],[5.5923,51.2255],[5.601,51.225],[5.6084,51.2271],[5.6154,51.232],[5.621,51.239],[5.63,51.2727],[5.6477,51.2923],[5.6545,51.2991],[5.6758,51.3164],[5.7731,51.335],[5.8441,51.3491],[5.875,51.3541],[5.8981,51.3661],[5.9344,51.3849],[5.9101,51.4173],[5.876,51.4468],[5.8533,51.5041],[5.8378,51.567],[5.8736,51.5648],[5.9118,51.5568],[5.9236,51.5566],[5.9506,51.5594],[5.9996,51.57],[6.0094,51.5684],[6.0338,51.5579],[6.0493,51.5665],[6.0495,51.5745],[6.0435,51.5829],[6.0313,51.6127],[6.0271,51.6171],[6.026,51.6207],[6.0063,51.6413],[5.9973,51.6469],[5.9872,51.6507],[5.9822,51.6559],[5.9889,51.6655],[5.9733,51.6763],[5.96,51.7124],[5.9445,51.7202],[5.9042,51.7227],[5.8882,51.729],[5.8797,51.7412],[5.8827,51.7533],[5.8628,51.7594],[5.8632,51.7728],[5.8722,51.7766],[5.8822,51.7779],[5.887,51.7779],[5.8899,51.7773],[5.8944,51.7734],[5.9123,51.7581],[5.9158,51.7561],[5.9414,51.7453],[5.9446,51.746],[5.9461,51.7463]]]}},{"type":"Feature","properties":{"id":"NLD-3483","name":"Noord-Brabant","nameBn":"উত্তর ব্রাবান্ট","type":"Province","bounds":[4.1861,51.2168,6.0495,51.835],"center":[5.1612,51.6008]},"geometry":{"type":"Polygon","coordinates":[[[4.8227,51.4137],[4.8154,51.4311],[4.8199,51.4462],[4.8261,51.4606],[4.8239,51.4756],[4.8136,51.4841],[4.7968,51.491],[4.7787,51.4954],[4.7642,51.4962],[4.7312,51.4856],[4.6539,51.4262],[4.6436,51.4214],[4.6301,51.4182],[4.6146,51.4176],[4.5827,51.4226],[4.5539,51.4193],[4.5406,51.4201],[4.5215,51.4286],[4.5234,51.4384],[4.5318,51.4509],[4.5332,51.4676],[4.5252,51.4759],[4.5126,51.4774],[4.4831,51.4743],[4.4294,51.462],[4.3771,51.4429],[4.3892,51.4346],[4.3872,51.4275],[4.3806,51.4197],[4.3799,51.4095],[4.3877,51.4005],[4.4101,51.3838],[4.4162,51.374],[4.4112,51.3567],[4.3922,51.3504],[4.3456,51.3523],[4.3263,51.3564],[4.2901,51.3688],[4.2811,51.3689],[4.2811,51.3693],[4.2798,51.3768],[4.2761,51.3831],[4.2666,51.3881],[4.2628,51.4075],[4.2621,51.4189],[4.264,51.4219],[4.2651,51.4253],[4.2687,51.4293],[4.2642,51.444],[4.2639,51.4444],[4.2638,51.4445],[4.2832,51.4477],[4.2967,51.4705],[4.2886,51.4921],[4.2678,51.5083],[4.2398,51.5185],[4.2305,51.5196],[4.2426,51.5393],[4.2439,51.5434],[4.244,51.5553],[4.237,51.568],[4.2338,51.5709],[4.2075,51.5896],[4.2068,51.5906],[4.2069,51.5905],[4.2073,51.5903],[4.2026,51.6091],[4.19,51.6167],[4.1861,51.6168],[4.1974,51.6372],[4.1978,51.6379],[4.2389,51.6461],[4.2802,51.6482],[4.3337,51.6569],[4.3727,51.6735],[4.4031,51.7083],[4.5065,51.6952],[4.5449,51.696],[4.5796,51.7025],[4.6208,51.7148],[4.644,51.7191],[4.6756,51.7194],[4.7256,51.7569],[4.7399,51.7744],[4.7618,51.789],[4.7904,51.8027],[4.8455,51.8032],[4.8703,51.8081],[4.909,51.8299],[4.9348,51.8302],[4.9856,51.8238],[5.0093,51.8252],[5.0101,51.8195],[5.0121,51.8115],[5.0278,51.8008],[5.065,51.7831],[5.0892,51.7826],[5.1004,51.7848],[5.1373,51.7692],[5.1372,51.7531],[5.126,51.7367],[5.1349,51.7348],[5.3179,51.7474],[5.337,51.7534],[5.3546,51.7626],[5.3675,51.7754],[5.3726,51.7921],[5.3811,51.8116],[5.401,51.8182],[5.4415,51.8164],[5.462,51.8211],[5.4816,51.8302],[5.5008,51.835],[5.52,51.8269],[5.5346,51.8239],[5.5985,51.83],[5.6432,51.8238],[5.6489,51.8195],[5.6613,51.8002],[5.6708,51.7959],[5.6901,51.7927],[5.7599,51.7626],[5.8628,51.7594],[5.8827,51.7533],[5.8797,51.7412],[5.8882,51.729],[5.9042,51.7227],[5.9445,51.7202],[5.96,51.7124],[5.9733,51.6763],[5.9889,51.6655],[5.9822,51.6559],[5.9872,51.6507],[5.9973,51.6469],[6.0063,51.6413],[6.026,51.6207],[6.0271,51.6171],[6.0313,51.6127],[6.0435,51.5829],[6.0495,51.5745],[6.0493,51.5665],[6.0338,51.5579],[6.0094,51.5684],[5.9996,51.57],[5.9506,51.5594],[5.9236,51.5566],[5.9118,51.5568],[5.8736,51.5648],[5.8378,51.567],[5.8533,51.5041],[5.876,51.4468],[5.9101,51.4173],[5.9344,51.3849],[5.8981,51.3661],[5.875,51.3541],[5.8441,51.3491],[5.7731,51.335],[5.6758,51.3164],[5.6545,51.2991],[5.6477,51.2923],[5.63,51.2727],[5.621,51.239],[5.6154,51.232],[5.6084,51.2271],[5.601,51.225],[5.5923,51.2255],[5.5684,51.221],[5.5516,51.2168],[5.5514,51.2168],[5.5455,51.2199],[5.5423,51.2427],[5.5352,51.262],[5.5167,51.2772],[5.4932,51.2865],[5.4716,51.2881],[5.4519,51.2821],[5.4099,51.2635],[5.3891,51.2587],[5.2707,51.2618],[5.2395,51.2569],[5.233,51.2559],[5.2154,51.2587],[5.2149,51.2943],[5.1973,51.3083],[5.1788,51.3095],[5.1402,51.3074],[5.1229,51.3134],[5.1181,51.3199],[5.1078,51.342],[5.1026,51.3507],[5.0681,51.3745],[5.0617,51.3843],[5.0653,51.4059],[5.0764,51.4219],[5.0799,51.4385],[5.0603,51.462],[5.0303,51.4744],[5.0275,51.4768],[5.0121,51.4743],[5.0061,51.4683],[5.0027,51.459],[4.9958,51.4467],[4.9802,51.4305],[4.9571,51.411],[4.9319,51.3956],[4.9103,51.3919],[4.8717,51.403],[4.8533,51.4061],[4.7833,51.4076],[4.7621,51.4134],[4.7678,51.4254],[4.7791,51.4264],[4.8227,51.4137]]]}},{"type":"Feature","properties":{"id":"NLD-3486","name":"Noord-Holland","nameBn":"উত্তর হল্যান্ড","type":"Province","bounds":[4.499,52.1681,5.3703,53.1877],"center":[4.8974,52.5748]},"geometry":{"type":"MultiPolygon","coordinates":[[[[4.5081,52.3364],[4.5686,52.4453],[4.5773,52.4736],[4.5773,52.4809],[4.5969,52.5066],[4.6393,52.7007],[4.6571,52.7502],[4.6598,52.7653],[4.6694,52.7966],[4.7117,52.8631],[4.7214,52.8959],[4.7224,52.9145],[4.7264,52.9383],[4.7339,52.9589],[4.7455,52.9676],[4.807,52.9618],[4.8169,52.9676],[4.8244,52.9601],[4.8094,52.9296],[4.8328,52.9113],[4.8738,52.904],[4.9131,52.9056],[4.9358,52.9134],[4.9783,52.9357],[4.999,52.9403],[5.0389,52.9435],[5.0781,52.954],[5.1798,53.009],[5.1801,53.008],[5.1821,53.0049],[5.186,52.9951],[5.1874,52.9915],[5.1875,52.9913],[5.2602,52.8654],[5.3703,52.7903],[5.3702,52.7893],[5.3589,52.689],[5.3087,52.6987],[5.278,52.6858],[5.2618,52.6486],[5.0952,52.5822],[5.1194,52.5159],[5.168,52.4722],[5.1939,52.4285],[5.1599,52.4285],[5.1033,52.3962],[5.1049,52.3638],[5.1599,52.3282],[5.1906,52.3234],[5.2278,52.325],[5.2489,52.325],[5.2828,52.3185],[5.3676,52.2833],[5.3661,52.2832],[5.3322,52.2794],[5.2762,52.2793],[5.2683,52.2775],[5.2638,52.2759],[5.2457,52.2572],[5.2253,52.2262],[5.2219,52.2144],[5.2163,52.207],[5.2093,52.1965],[5.202,52.1874],[5.1824,52.179],[5.1268,52.1809],[5.0891,52.1766],[5.0713,52.1715],[5.045,52.1681],[5.0399,52.1893],[5.034,52.2045],[5.0416,52.2248],[5.0582,52.2374],[5.0534,52.2435],[5.0507,52.2458],[5.0487,52.2477],[5.0464,52.2495],[5.043,52.2514],[5.0402,52.2523],[5.038,52.2538],[5.0365,52.2559],[5.0354,52.2597],[5.0338,52.2627],[5.0304,52.2671],[5.0352,52.2718],[5.0658,52.2792],[5.0253,52.2816],[5.0091,52.2772],[5.0045,52.2816],[4.9997,52.2839],[4.9936,52.2854],[4.9863,52.2855],[4.9615,52.2771],[4.9424,52.275],[4.9331,52.2755],[4.9285,52.2738],[4.9252,52.272],[4.9113,52.2556],[4.8715,52.2522],[4.8497,52.2456],[4.8346,52.236],[4.8144,52.2296],[4.7679,52.2212],[4.7362,52.2083],[4.7256,52.2115],[4.7222,52.2162],[4.7179,52.231],[4.7154,52.2325],[4.7103,52.2346],[4.6695,52.2265],[4.6482,52.2202],[4.6055,52.2132],[4.5809,52.2128],[4.5741,52.2136],[4.5693,52.2151],[4.5594,52.2209],[4.5481,52.2204],[4.5467,52.2278],[4.5593,52.2409],[4.5641,52.2544],[4.5651,52.2637],[4.5663,52.2681],[4.5677,52.2705],[4.6097,52.3134],[4.5872,52.3168],[4.5665,52.3101],[4.5486,52.3125],[4.5429,52.3139],[4.499,52.3261],[4.5081,52.3364]]],[[[4.8926,53.111],[4.8926,53.1048],[4.9131,53.1048],[4.9061,53.0917],[4.8931,53.0761],[4.8652,53.0502],[4.8181,53.0268],[4.7957,53.0003],[4.762,52.9943],[4.7268,53.0031],[4.7077,53.0285],[4.7139,53.0546],[4.7337,53.0842],[4.7585,53.1085],[4.8057,53.133],[4.8293,53.163],[4.8543,53.1877],[4.8858,53.1867],[4.8898,53.1809],[4.8921,53.1757],[4.8914,53.171],[4.8858,53.1662],[4.8999,53.1523],[4.9102,53.1346],[4.9099,53.1188],[4.8926,53.111]]]]}},{"type":"Feature","properties":{"id":"NLD-899","name":"Overijssel","nameBn":"ওভেরিসসেল","type":"Province","bounds":[5.7852,52.1088,7.0482,52.8534],"center":[6.4165,52.4311]},"geometry":{"type":"Polygon","coordinates":[[[6.7191,52.6268],[6.7018,52.6191],[6.7102,52.6086],[6.7082,52.5997],[6.7037,52.5914],[6.704,52.5831],[6.711,52.5766],[6.7438,52.5597],[6.6883,52.5426],[6.6717,52.5417],[6.684,52.526],[6.6875,52.5081],[6.689,52.4905],[6.6951,52.4756],[6.7148,52.4616],[6.7412,52.4537],[6.8203,52.4468],[6.872,52.4347],[6.9002,52.4319],[6.9265,52.433],[6.9515,52.4375],[6.9608,52.4428],[6.967,52.4496],[6.9733,52.4514],[7.0342,52.3908],[7.0482,52.3651],[7.0398,52.3286],[7.0197,52.3],[7.0125,52.2849],[7.0119,52.2666],[7.0207,52.2453],[7.0266,52.2386],[7.0291,52.2358],[7.0263,52.2306],[6.9819,52.214],[6.9711,52.2063],[6.9477,52.1828],[6.9277,52.1719],[6.8848,52.1603],[6.8654,52.1478],[6.8433,52.12],[6.8307,52.1129],[6.7716,52.1088],[6.7709,52.1091],[6.7595,52.1145],[6.6619,52.1273],[6.6718,52.1423],[6.6721,52.1476],[6.671,52.1576],[6.6693,52.1616],[6.6667,52.1645],[6.6633,52.1659],[6.6535,52.1685],[6.6456,52.1698],[6.6101,52.1645],[6.606,52.1649],[6.6017,52.1659],[6.6017,52.1691],[6.6008,52.1734],[6.5974,52.1781],[6.5918,52.1793],[6.5857,52.1796],[6.5576,52.1759],[6.5191,52.1788],[6.4952,52.1772],[6.4659,52.1944],[6.4185,52.237],[6.4174,52.2384],[6.4114,52.2446],[6.3817,52.2468],[6.3473,52.2382],[6.3325,52.2313],[6.3225,52.2295],[6.2592,52.2289],[6.1892,52.2374],[6.1796,52.2377],[6.1765,52.2369],[6.167,52.2321],[6.1599,52.2253],[6.1577,52.2251],[6.1543,52.2256],[6.1461,52.2303],[6.1433,52.2328],[6.1419,52.2351],[6.1419,52.2365],[6.1422,52.2375],[6.146,52.2439],[6.1441,52.2488],[6.1391,52.2513],[6.1279,52.2545],[6.1241,52.2562],[6.1223,52.2595],[6.1241,52.2625],[6.1245,52.2709],[6.1065,52.2997],[6.0861,52.3055],[6.081,52.3093],[6.0707,52.3184],[6.068,52.3218],[6.0693,52.329],[6.078,52.351],[6.0873,52.3594],[6.0865,52.3637],[6.0816,52.3706],[6.0836,52.372],[6.0867,52.3735],[6.12,52.3804],[6.1348,52.4044],[6.1362,52.4156],[6.1348,52.4187],[6.1327,52.4213],[6.112,52.4398],[6.1042,52.452],[6.0954,52.4679],[6.089,52.4738],[6.0816,52.4777],[6.0638,52.4894],[6.0564,52.4987],[6.0496,52.5053],[6.0428,52.5079],[6.0307,52.511],[6.0016,52.5016],[5.9697,52.485],[5.9394,52.4793],[5.9313,52.4806],[5.925,52.484],[5.9039,52.5088],[5.8915,52.5204],[5.881,52.5211],[5.8669,52.5218],[5.8465,52.5777],[5.8325,52.5852],[5.8325,52.5971],[5.8433,52.6047],[5.8442,52.6053],[5.895,52.6195],[5.9082,52.62],[5.9138,52.618],[5.9301,52.6163],[5.9396,52.6167],[5.9878,52.6268],[6.0198,52.6376],[5.9978,52.6538],[5.9782,52.6604],[5.9379,52.6676],[5.9293,52.6701],[5.9265,52.6717],[5.9284,52.6734],[5.9357,52.6776],[5.9397,52.6834],[5.9453,52.6888],[5.9377,52.7145],[5.9234,52.7399],[5.9165,52.7471],[5.9048,52.7565],[5.8584,52.7794],[5.7852,52.8037],[5.8224,52.815],[5.8342,52.8088],[5.8379,52.8077],[5.8662,52.8048],[5.8718,52.805],[5.8794,52.8059],[5.909,52.8167],[5.9138,52.8196],[5.9183,52.8237],[5.9219,52.8276],[5.9244,52.8309],[5.9279,52.8334],[5.9329,52.8352],[5.9531,52.8382],[5.9568,52.8397],[5.9593,52.8416],[5.9619,52.8413],[5.9672,52.8398],[5.979,52.8292],[5.9881,52.8243],[5.9931,52.8228],[6.0324,52.8211],[6.0466,52.831],[6.0476,52.8326],[6.0485,52.837],[6.0496,52.8381],[6.0519,52.8393],[6.0682,52.8421],[6.0875,52.8433],[6.1295,52.8534],[6.1798,52.8168],[6.1874,52.8126],[6.1978,52.8054],[6.2069,52.7967],[6.2024,52.7882],[6.1663,52.7665],[6.1399,52.7587],[6.1303,52.7485],[6.1649,52.6934],[6.1697,52.691],[6.1765,52.6838],[6.1791,52.6821],[6.1833,52.68],[6.1913,52.6786],[6.1972,52.6789],[6.2052,52.682],[6.211,52.6852],[6.2179,52.6862],[6.2338,52.6826],[6.2647,52.6697],[6.273,52.6679],[6.3213,52.6683],[6.325,52.6678],[6.3328,52.6601],[6.348,52.6525],[6.3654,52.6417],[6.3734,52.6344],[6.3815,52.6211],[6.3826,52.6196],[6.3866,52.6185],[6.3933,52.6184],[6.4166,52.6228],[6.4237,52.6252],[6.429,52.628],[6.4313,52.6277],[6.4344,52.6265],[6.4392,52.622],[6.4431,52.6194],[6.4484,52.6179],[6.4541,52.6183],[6.4623,52.6214],[6.4667,52.6243],[6.4742,52.6243],[6.4802,52.6237],[6.5216,52.6115],[6.5187,52.6412],[6.5208,52.6459],[6.5333,52.6539],[6.582,52.6694],[6.6112,52.6726],[6.6242,52.6723],[6.6964,52.6522],[6.7021,52.6493],[6.7058,52.6466],[6.7054,52.6393],[6.7078,52.6309],[6.7184,52.627],[6.7191,52.6268]]]}},{"type":"Feature","properties":{"id":"NLD-5147","name":"Saba","nameBn":"সাবা","type":"Special Municipality","bounds":[-63.2513,17.6147,-63.2237,17.6469],"center":[-63.2371,17.6325]},"geometry":{"type":"Polygon","coordinates":[[[-63.2384,17.6469],[-63.2303,17.6423],[-63.2237,17.6292],[-63.2295,17.6182],[-63.2384,17.6147],[-63.2513,17.6238],[-63.2489,17.6404],[-63.2384,17.6469]]]}},{"type":"Feature","properties":{"id":"NLD-5148","name":"St. Eustatius","nameBn":"সিন্ট এউস্তাতিউস","type":"Special Municipality","bounds":[-62.9971,17.4646,-62.9451,17.5256],"center":[-62.9719,17.4852]},"geometry":{"type":"Polygon","coordinates":[[[-62.9971,17.5256],[-62.9838,17.5177],[-62.9773,17.5041],[-62.9653,17.4989],[-62.9451,17.4854],[-62.9489,17.4724],[-62.9587,17.4646],[-62.9811,17.4677],[-62.9947,17.4921],[-62.9971,17.5256]]]}},{"type":"Feature","properties":{"id":"NLD-3484","name":"Utrecht","nameBn":"উট্রেখট","type":"Province","bounds":[4.7679,51.9412,5.6197,52.2855],"center":[5.1938,52.0749]},"geometry":{"type":"Polygon","coordinates":[[[5.4089,52.2677],[5.4088,52.2672],[5.4028,52.2479],[5.3992,52.2308],[5.3969,52.2199],[5.4025,52.214],[5.4387,52.1959],[5.4367,52.1861],[5.4332,52.182],[5.4267,52.1787],[5.4249,52.1774],[5.4241,52.1754],[5.4301,52.1686],[5.4539,52.1638],[5.4745,52.1609],[5.4815,52.1575],[5.4903,52.1494],[5.4944,52.1471],[5.5024,52.1439],[5.5102,52.1385],[5.5128,52.1362],[5.5127,52.1327],[5.5077,52.1267],[5.5079,52.12],[5.5088,52.1165],[5.5088,52.1146],[5.5085,52.1135],[5.4976,52.114],[5.4899,52.1038],[5.484,52.0931],[5.481,52.0898],[5.4762,52.0863],[5.4686,52.0823],[5.4702,52.0801],[5.4722,52.0784],[5.5001,52.0698],[5.5093,52.0718],[5.5197,52.0769],[5.5231,52.0776],[5.5271,52.0779],[5.5312,52.0795],[5.535,52.0823],[5.5392,52.0872],[5.5406,52.0911],[5.5412,52.0951],[5.5369,52.1025],[5.5533,52.1048],[5.5619,52.0846],[5.5628,52.0791],[5.5648,52.0733],[5.5634,52.0494],[5.5722,52.019],[5.5849,52.0051],[5.6055,51.9913],[5.6123,51.9824],[5.6165,51.9778],[5.6183,51.9738],[5.6197,51.9687],[5.6193,51.953],[5.6157,51.9483],[5.5821,51.9533],[5.5051,51.982],[5.462,51.9876],[5.4495,51.9855],[5.4297,51.9767],[5.4204,51.974],[5.4091,51.9743],[5.3828,51.9802],[5.3606,51.977],[5.3312,51.963],[5.3105,51.9597],[5.2543,51.9791],[5.2395,51.9771],[5.2214,51.9685],[5.1974,51.9656],[5.1826,51.9669],[5.1729,51.9678],[5.1541,51.974],[5.1447,51.9812],[5.1309,51.9961],[5.1187,52.0019],[5.1049,52.0038],[5.0956,52.0009],[5.0867,51.9967],[5.0639,51.9928],[5.055,51.9886],[5.0405,51.9771],[5.0304,51.9743],[4.989,51.9802],[4.9869,51.9786],[4.9548,51.9672],[4.9268,51.9493],[4.9167,51.9467],[4.894,51.9475],[4.8873,51.9412],[4.8653,51.962],[4.8333,51.9873],[4.8243,51.9968],[4.8276,51.9998],[4.8341,52.0011],[4.8414,52.0032],[4.854,52.0081],[4.8496,52.0202],[4.8038,52.0164],[4.7994,52.0227],[4.8312,52.0525],[4.8705,52.0646],[4.8777,52.0714],[4.8325,52.0716],[4.8198,52.1088],[4.8046,52.1123],[4.7908,52.1197],[4.7969,52.1239],[4.8208,52.1395],[4.8256,52.1405],[4.831,52.1412],[4.8343,52.1397],[4.8377,52.1387],[4.8426,52.138],[4.8591,52.1331],[4.8633,52.1339],[4.8655,52.1356],[4.8656,52.138],[4.8641,52.1414],[4.8577,52.1524],[4.8537,52.1634],[4.8627,52.168],[4.8139,52.1937],[4.7919,52.1991],[4.7858,52.2028],[4.7809,52.2071],[4.7679,52.2212],[4.8144,52.2296],[4.8346,52.236],[4.8497,52.2456],[4.8715,52.2522],[4.9113,52.2556],[4.9252,52.272],[4.9285,52.2738],[4.9331,52.2755],[4.9424,52.275],[4.9615,52.2771],[4.9863,52.2855],[4.9936,52.2854],[4.9997,52.2839],[5.0045,52.2816],[5.0091,52.2772],[5.0253,52.2816],[5.0658,52.2792],[5.0352,52.2718],[5.0304,52.2671],[5.0338,52.2627],[5.0354,52.2597],[5.0365,52.2559],[5.038,52.2538],[5.0402,52.2523],[5.043,52.2514],[5.0464,52.2495],[5.0487,52.2477],[5.0507,52.2458],[5.0534,52.2435],[5.0582,52.2374],[5.0416,52.2248],[5.034,52.2045],[5.0399,52.1893],[5.045,52.1681],[5.0713,52.1715],[5.0891,52.1766],[5.1268,52.1809],[5.1824,52.179],[5.202,52.1874],[5.2093,52.1965],[5.2163,52.207],[5.2219,52.2144],[5.2253,52.2262],[5.2457,52.2572],[5.2638,52.2759],[5.2683,52.2775],[5.2762,52.2793],[5.3322,52.2794],[5.3661,52.2832],[5.4066,52.2682],[5.4089,52.2677]]]}},{"type":"Feature","properties":{"id":"NLD-903","name":"Zeeland","nameBn":"জিল্যান্ড","type":"Province","bounds":[3.3494,51.2053,4.2811,51.7482],"center":[3.7851,51.2837]},"geometry":{"type":"MultiPolygon","coordinates":[[[[3.4539,51.2356],[3.4219,51.238],[3.3988,51.2447],[3.3917,51.2468],[3.3674,51.2635],[3.3532,51.2886],[3.3539,51.3119],[3.3581,51.3367],[3.3494,51.3752],[3.5109,51.4079],[3.5257,51.4156],[3.5414,51.4167],[3.6047,51.3911],[3.7022,51.3736],[3.7342,51.3558],[3.7555,51.3501],[3.7959,51.3501],[3.834,51.3432],[3.8582,51.3454],[3.9558,51.3718],[3.9692,51.3817],[3.9746,51.4016],[3.9841,51.4105],[4.0057,51.4098],[4.0291,51.4042],[4.0435,51.3985],[4.0501,51.3922],[4.0613,51.3767],[4.0702,51.3706],[4.0813,51.3681],[4.1055,51.3661],[4.1155,51.361],[4.1219,51.3594],[4.1565,51.3576],[4.1737,51.3737],[4.18,51.3774],[4.1996,51.376],[4.2215,51.368],[4.221,51.3638],[4.2135,51.3405],[4.2079,51.3306],[4.1686,51.2969],[4.119,51.2724],[3.995,51.2332],[3.9495,51.2108],[3.927,51.2063],[3.8087,51.2053],[3.7963,51.2088],[3.7814,51.2199],[3.7797,51.2303],[3.7814,51.2414],[3.7762,51.2545],[3.7573,51.2623],[3.6351,51.2878],[3.6095,51.2904],[3.5848,51.2895],[3.545,51.2839],[3.529,51.2833],[3.5143,51.281],[3.5034,51.274],[3.5015,51.2624],[3.5041,51.2497],[3.5012,51.2403],[3.4539,51.2356]]],[[[4.2811,51.3689],[4.2611,51.3694],[4.2571,51.3725],[4.249,51.3842],[4.2463,51.3964],[4.2468,51.4067],[4.2449,51.4145],[4.2347,51.419],[4.223,51.4095],[4.201,51.4053],[4.1111,51.407],[4.0903,51.4113],[4.0702,51.419],[4.0151,51.4489],[3.9988,51.4531],[3.957,51.4558],[3.9431,51.4504],[3.9134,51.4153],[3.9021,51.4049],[3.8867,51.3998],[3.8508,51.3974],[3.8379,51.3922],[3.8272,51.3911],[3.8164,51.3941],[3.7891,51.4122],[3.7288,51.4308],[3.6897,51.4543],[3.674,51.4554],[3.6326,51.4457],[3.61,51.4451],[3.5534,51.4531],[3.5354,51.4592],[3.5202,51.4734],[3.5068,51.4893],[3.4948,51.5009],[3.4619,51.519],[3.451,51.5297],[3.447,51.546],[3.4575,51.5551],[3.5604,51.5946],[3.8289,51.6127],[3.8511,51.6108],[3.8661,51.6054],[3.8822,51.5961],[3.8965,51.5838],[3.9058,51.5692],[3.8953,51.5666],[3.8783,51.5594],[3.8716,51.5556],[3.8716,51.5494],[3.9673,51.5431],[4.0159,51.5308],[4.0571,51.5084],[4.0703,51.4927],[4.09,51.4582],[4.1048,51.4457],[4.1288,51.4414],[4.1808,51.4459],[4.2005,51.4395],[4.2202,51.4435],[4.2528,51.4425],[4.2638,51.4445],[4.2639,51.4444],[4.2642,51.444],[4.2687,51.4293],[4.2651,51.4253],[4.264,51.4219],[4.2621,51.4189],[4.2628,51.4075],[4.2666,51.3881],[4.2761,51.3831],[4.2798,51.3768],[4.2811,51.3693],[4.2811,51.3689]]],[[[4.2305,51.5196],[4.1947,51.5236],[4.1533,51.5351],[4.138,51.5359],[4.1063,51.5335],[4.0913,51.5351],[4.0672,51.544],[3.9881,51.5903],[4.0412,51.606],[4.0677,51.6107],[4.1572,51.6079],[4.1834,51.6029],[4.2068,51.5906],[4.2075,51.5896],[4.2338,51.5709],[4.237,51.568],[4.244,51.5553],[4.2439,51.5434],[4.2426,51.5393],[4.2305,51.5196]]],[[[4.1861,51.6168],[4.1467,51.6179],[4.136,51.6204],[4.126,51.6247],[4.118,51.6307],[4.113,51.6394],[4.1109,51.647],[4.1111,51.6471],[4.1138,51.6493],[4.1307,51.6583],[4.1531,51.6529],[4.1744,51.6433],[4.197,51.6377],[4.1978,51.6379],[4.1974,51.6372],[4.1861,51.6168]]],[[[4.0366,51.6859],[4.0784,51.6786],[4.0973,51.6702],[4.0994,51.6541],[4.089,51.644],[4.0726,51.6369],[4.0549,51.6326],[3.978,51.6233],[3.9603,51.6238],[3.9231,51.6325],[3.9015,51.642],[3.8919,51.6555],[3.8856,51.6684],[3.8698,51.6761],[3.8306,51.6859],[3.8239,51.6899],[3.8176,51.6953],[3.8093,51.6995],[3.7959,51.7001],[3.7713,51.6818],[3.7654,51.6784],[3.7206,51.6768],[3.7,51.6806],[3.6867,51.6927],[3.6895,51.725],[3.7258,51.7397],[3.8101,51.7473],[3.8142,51.7482],[3.8306,51.7473],[3.8438,51.7428],[3.9396,51.7412],[3.9618,51.7381],[3.978,51.7303],[4.0154,51.7017],[4.0203,51.6965],[4.0266,51.6911],[4.0366,51.6859]]]]}},{"type":"Feature","properties":{"id":"NLD-3485","name":"Zuid-Holland","nameBn":"দক্ষিণ হল্যান্ড","type":"Province","bounds":[3.8623,51.6377,5.1826,52.3364],"center":[4.5225,52.0075]},"geometry":{"type":"Polygon","coordinates":[[[4.1109,51.647],[4.1099,51.6509],[4.1096,51.6623],[4.1126,51.6708],[4.1257,51.6796],[4.1429,51.6841],[4.1769,51.6859],[4.1664,51.6927],[4.1411,51.7039],[4.0715,51.7172],[4.0571,51.7303],[4.0508,51.7635],[4.0339,51.7842],[4.0098,51.7979],[3.9815,51.81],[3.9626,51.8012],[3.9372,51.7963],[3.9114,51.7964],[3.8919,51.793],[3.8882,51.7889],[3.8811,51.7881],[3.8716,51.7883],[3.8623,51.8161],[3.8914,51.8283],[3.9541,51.8402],[3.9627,51.8474],[3.9822,51.8483],[4.0156,51.8436],[4.0435,51.8342],[4.0476,51.8337],[4.055,51.8342],[4.0654,51.8371],[4.0776,51.8436],[4.0701,51.8527],[4.0446,51.8745],[4.0379,51.8779],[4.0321,51.882],[4.0298,51.8883],[4.032,51.8961],[4.0366,51.9016],[4.0413,51.9055],[4.0435,51.9087],[4.0402,51.9241],[4.0212,51.9633],[4.01,51.9801],[4.0156,51.9877],[4.0225,51.9944],[4.069,51.9879],[4.1077,51.9919],[4.1419,52.0056],[4.2847,52.1129],[4.4069,52.2235],[4.5081,52.3364],[4.499,52.3261],[4.5429,52.3139],[4.5486,52.3125],[4.5665,52.3101],[4.5872,52.3168],[4.6097,52.3134],[4.5677,52.2705],[4.5663,52.2681],[4.5651,52.2637],[4.5641,52.2544],[4.5593,52.2409],[4.5467,52.2278],[4.5481,52.2204],[4.5594,52.2209],[4.5693,52.2151],[4.5741,52.2136],[4.5809,52.2128],[4.6055,52.2132],[4.6482,52.2202],[4.6695,52.2265],[4.7103,52.2346],[4.7154,52.2325],[4.7179,52.231],[4.7222,52.2162],[4.7256,52.2115],[4.7362,52.2083],[4.7679,52.2212],[4.7809,52.2071],[4.7858,52.2028],[4.7919,52.1991],[4.8139,52.1937],[4.8627,52.168],[4.8537,52.1634],[4.8577,52.1524],[4.8641,52.1414],[4.8656,52.138],[4.8655,52.1356],[4.8633,52.1339],[4.8591,52.1331],[4.8426,52.138],[4.8377,52.1387],[4.8343,52.1397],[4.831,52.1412],[4.8256,52.1405],[4.8208,52.1395],[4.7969,52.1239],[4.7908,52.1197],[4.8046,52.1123],[4.8198,52.1088],[4.8325,52.0716],[4.8777,52.0714],[4.8705,52.0646],[4.8312,52.0525],[4.7994,52.0227],[4.8038,52.0164],[4.8496,52.0202],[4.854,52.0081],[4.8414,52.0032],[4.8341,52.0011],[4.8276,51.9998],[4.8243,51.9968],[4.8333,51.9873],[4.8653,51.962],[4.8873,51.9412],[4.894,51.9475],[4.9167,51.9467],[4.9268,51.9493],[4.9548,51.9672],[4.9869,51.9786],[4.989,51.9802],[5.0304,51.9743],[5.0405,51.9771],[5.055,51.9886],[5.0639,51.9928],[5.0867,51.9967],[5.0956,52.0009],[5.1049,52.0038],[5.1187,52.0019],[5.1309,51.9961],[5.1447,51.9812],[5.1541,51.974],[5.1729,51.9678],[5.1826,51.9669],[5.1576,51.9352],[5.153,51.9304],[5.1179,51.8915],[5.1196,51.8859],[5.1215,51.8814],[5.1215,51.8784],[5.1205,51.8762],[5.1102,51.8721],[5.0334,51.852],[5.0045,51.8509],[5.0108,51.8449],[5.0107,51.8429],[5.008,51.8349],[5.0093,51.8252],[4.9856,51.8238],[4.9348,51.8302],[4.909,51.8299],[4.8703,51.8081],[4.8455,51.8032],[4.7904,51.8027],[4.7618,51.789],[4.7399,51.7744],[4.7256,51.7569],[4.6756,51.7194],[4.644,51.7191],[4.6208,51.7148],[4.5796,51.7025],[4.5449,51.696],[4.5065,51.6952],[4.4031,51.7083],[4.3727,51.6735],[4.3337,51.6569],[4.2802,51.6482],[4.2389,51.6461],[4.1978,51.6379],[4.197,51.6377],[4.1744,51.6433],[4.1531,51.6529],[4.1307,51.6583],[4.1138,51.6493],[4.1111,51.6471],[4.1109,51.647]]]}}]}