{"type":"FeatureCollection","features":[{"type":"Feature","properties":{"id":"OMN-2404","name":"Ad Dakhliyah","nameBn":"আদ দাখিলিয়া গভর্নোরেট","type":"Region","bounds":[56.3256,21.0956,58.5877,23.504],"center":[57.3411,22.474]},"geometry":{"type":"Polygon","coordinates":[[[58.0823,21.7106],[58.178,21.3974],[58.2899,21.0956],[57.9721,21.2481],[56.3256,22.0153],[56.5237,22.2538],[56.6828,22.6975],[56.8747,23.4907],[57.1637,23.504],[57.4601,23.2252],[57.5755,23.213],[57.6138,23.1957],[57.8702,23.2343],[57.9004,23.2961],[58.1183,23.4622],[58.1188,23.4619],[58.335,23.4886],[58.5877,23.2494],[58.5411,23.0223],[58.3899,22.9875],[58.2236,22.8883],[58.1621,22.8815],[57.9328,22.7141],[57.8343,22.5231],[58.0823,21.7106]]]}},{"type":"Feature","properties":{"id":"OMN-2424","name":"Al Batnah North","nameBn":"আল বাতনাহ নর্থ","type":"Region","bounds":[56.0754,23.4907,57.5327,24.9782],"center":[56.8199,23.9794]},"geometry":{"type":"Polygon","coordinates":[[[56.078,24.7298],[56.0991,24.7305],[56.1183,24.7354],[56.1273,24.7457],[56.1333,24.7628],[56.1548,24.7867],[56.1712,24.824],[56.1714,24.8241],[56.1863,24.8302],[56.2237,24.8345],[56.2417,24.8424],[56.2747,24.8719],[56.2803,24.877],[56.3083,24.8952],[56.3136,24.9051],[56.3143,24.912],[56.3161,24.9299],[56.3193,24.9625],[56.3245,24.9679],[56.329,24.9727],[56.3833,24.9782],[56.4054,24.8973],[56.4696,24.7753],[56.4803,24.7651],[56.4868,24.7418],[56.4935,24.7002],[56.6112,24.4963],[56.6356,24.4714],[56.6921,24.4252],[56.8014,24.303],[56.8231,24.2711],[56.8323,24.2525],[56.8411,24.2238],[56.9395,24.1159],[57.0583,24.0231],[57.1515,23.9536],[57.1843,23.9343],[57.3263,23.884],[57.5096,23.8391],[57.5327,23.8296],[57.4165,23.6426],[57.2868,23.541],[57.1637,23.504],[56.8747,23.4907],[56.8571,23.5118],[56.7647,23.8365],[56.4681,24.0772],[56.3127,24.1403],[56.3063,24.227],[56.2081,24.5323],[56.0754,24.6892],[56.0763,24.73],[56.078,24.7298]]]}},{"type":"Feature","properties":{"id":"OMN-5497","name":"Al Batnah South","nameBn":"আল বাতিনাহ দক্ষিন গভর্নোরেট","type":"Region","bounds":[57.1637,23.1957,58.1316,23.8296],"center":[57.6472,23.4299]},"geometry":{"type":"Polygon","coordinates":[[[57.5327,23.8296],[57.5864,23.8074],[57.6452,23.7904],[57.6868,23.7834],[57.7097,23.7822],[57.7774,23.786],[57.7957,23.7822],[57.8244,23.7476],[57.835,23.7401],[57.8592,23.7341],[57.8877,23.7209],[57.9128,23.7178],[58.0431,23.7246],[58.0868,23.7221],[58.1316,23.7133],[58.1231,23.7062],[58.1229,23.7038],[58.1248,23.7034],[58.0928,23.5608],[58.1183,23.4622],[57.9004,23.2961],[57.8702,23.2343],[57.6138,23.1957],[57.5755,23.213],[57.4601,23.2252],[57.1637,23.504],[57.2868,23.541],[57.4165,23.6426],[57.5327,23.8296]]]}},{"type":"Feature","properties":{"id":"OMN-4836","name":"Al Buraymi","nameBn":"আল বুরাইমি গভর্নোরেট","type":"Province","bounds":[55.4453,23.5396,56.3127,24.9777],"center":[55.9933,24.3888]},"geometry":{"type":"Polygon","coordinates":[[[55.9354,24.9777],[55.9759,24.9721],[55.9784,24.9718],[56.0056,24.9562],[56.017,24.9266],[56.0253,24.8826],[56.0293,24.8612],[56.0053,24.877],[55.9924,24.883],[55.9784,24.8861],[55.9609,24.8812],[55.9576,24.8687],[55.9648,24.8539],[56.0021,24.823],[56.0315,24.7541],[56.0621,24.7318],[56.0763,24.73],[56.0754,24.6892],[56.2081,24.5323],[56.3063,24.227],[56.3127,24.1403],[56.2787,24.0408],[56.1604,24.0408],[56.0142,24.0129],[55.9585,23.9781],[55.9585,23.8946],[55.8958,23.8667],[55.8541,23.818],[55.8889,23.6718],[55.8193,23.6301],[55.687,23.5953],[55.5826,23.5396],[55.4453,23.5523],[55.4783,23.6764],[55.4874,23.6933],[55.5341,23.7568],[55.5383,23.77],[55.5351,23.8459],[55.5306,23.8747],[55.5146,23.8966],[55.4783,23.9166],[55.4616,23.9306],[55.4528,23.9486],[55.4568,23.9632],[55.4998,23.9706],[55.5423,23.9854],[55.5617,23.9952],[55.5911,24.01],[55.6183,24.0201],[55.6469,24.025],[55.68,24.0243],[55.7126,24.0192],[55.728,24.0196],[55.7444,24.0253],[55.7624,24.0281],[55.7885,24.0096],[55.8071,24.0075],[55.9235,24.0511],[55.9868,24.0654],[55.9979,24.0813],[55.9607,24.1424],[55.949,24.1848],[55.9332,24.2207],[55.9032,24.2322],[55.8472,24.2114],[55.8303,24.2123],[55.7677,24.2249],[55.7557,24.2303],[55.7541,24.2455],[55.7621,24.263],[55.801,24.3263],[55.8074,24.3408],[55.8109,24.3892],[55.8086,24.3976],[55.8011,24.4065],[55.781,24.4189],[55.7746,24.4259],[55.7714,24.4411],[55.7737,24.4952],[55.7612,24.5374],[55.7598,24.5585],[55.77,24.5724],[55.784,24.5863],[55.7902,24.6199],[55.8182,24.6434],[55.8149,24.6627],[55.7999,24.6932],[55.7948,24.7039],[55.7927,24.7223],[55.797,24.7595],[55.797,24.7784],[55.7887,24.8552],[55.7991,24.8861],[55.8294,24.9212],[55.8578,24.9449],[55.8622,24.9485],[55.897,24.9686],[55.9354,24.9777]]]}},{"type":"Feature","properties":{"id":"OMN-2414","name":"Al Dhahira","nameBn":"আদ দাহিরা গভর্নোরেট","type":"Region","bounds":[55.1868,21.8661,56.8747,24.1403],"center":[55.9327,22.9127]},"geometry":{"type":"Polygon","coordinates":[[[55.1868,22.7036],[55.1976,22.8495],[55.1913,22.9954],[55.1913,22.9955],[55.1948,23.0251],[55.2259,23.1213],[55.3211,23.2751],[55.3432,23.3363],[55.3641,23.436],[55.3753,23.4693],[55.394,23.4952],[55.3942,23.4953],[55.4315,23.5329],[55.4453,23.5523],[55.5826,23.5396],[55.687,23.5953],[55.8193,23.6301],[55.8889,23.6718],[55.8541,23.818],[55.8958,23.8667],[55.9585,23.8946],[55.9585,23.9781],[56.0142,24.0129],[56.1604,24.0408],[56.2787,24.0408],[56.3127,24.1403],[56.4681,24.0772],[56.7647,23.8365],[56.8571,23.5118],[56.8747,23.4907],[56.6828,22.6975],[56.5237,22.2538],[56.3256,22.0153],[55.6241,21.8701],[55.6002,21.8661],[55.6376,21.979],[55.637,22.0019],[55.6267,22.0238],[55.5736,22.1059],[55.4928,22.2308],[55.412,22.3557],[55.3311,22.4806],[55.2504,22.6055],[55.1868,22.7036]]]}},{"type":"Feature","properties":{"id":"OMN-2405","name":"Al Wusta","nameBn":"আল উস্তা গভর্নোরেট","type":"Region","bounds":[55.3446,18.944,58.3968,22.0153],"center":[56.8705,20.4263]},"geometry":{"type":"Polygon","coordinates":[[[55.3446,21.0969],[55.3575,21.1356],[55.4102,21.2945],[55.4596,21.443],[55.5038,21.5762],[55.5412,21.6887],[55.5701,21.7754],[55.5886,21.8312],[55.5952,21.851],[55.6002,21.8661],[55.6241,21.8701],[56.3256,22.0153],[57.9721,21.2481],[58.2899,21.0956],[58.3968,21.0442],[58.2551,20.6093],[58.2349,20.6157],[58.2057,20.6133],[58.1763,20.6047],[58.1442,20.5852],[58.1035,20.5751],[58.0908,20.5668],[58.0845,20.5581],[58.0672,20.5111],[58.0666,20.4998],[58.0731,20.4892],[58.0759,20.48],[58.0676,20.4725],[58.0553,20.4672],[58.0308,20.4619],[58.0125,20.4534],[57.9944,20.4423],[57.9707,20.4212],[57.9621,20.4109],[57.9558,20.3996],[57.9534,20.3864],[57.9566,20.3769],[57.9707,20.3619],[57.9739,20.3523],[57.9666,20.3302],[57.9487,20.3176],[57.905,20.3008],[57.8884,20.2907],[57.8705,20.277],[57.8561,20.2606],[57.8504,20.2424],[57.8449,20.2312],[57.8335,20.2183],[57.8237,20.2011],[57.823,20.1767],[57.842,20.1361],[57.848,20.1118],[57.8317,20.0753],[57.8163,20.0207],[57.8157,20.0066],[57.8137,19.977],[57.7904,19.924],[57.7737,19.8679],[57.7621,19.843],[57.6989,19.7544],[57.6892,19.7282],[57.6934,19.6975],[57.7004,19.686],[57.7092,19.6767],[57.7168,19.6668],[57.72,19.6531],[57.7206,19.6226],[57.7189,19.608],[57.7139,19.595],[57.7066,19.5688],[57.7044,19.5487],[57.7118,19.5295],[57.7603,19.4541],[57.7678,19.4374],[57.7739,19.4097],[57.7738,19.3829],[57.7691,19.3576],[57.7522,19.3116],[57.7483,19.291],[57.7507,19.2681],[57.7708,19.2169],[57.7805,19.2011],[57.8057,19.173],[57.8119,19.1569],[57.803,19.1151],[57.802,19.0948],[57.8399,19.03],[57.8401,19.0153],[57.8157,18.9918],[57.8011,18.9807],[57.7971,18.9792],[57.7523,18.973],[57.7473,18.9678],[57.7428,18.9619],[57.7319,18.9538],[57.7194,18.9469],[57.7097,18.944],[57.5015,18.9537],[57.4453,18.9453],[56.5772,19.1656],[55.3579,21.0784],[55.3446,21.0969]]]}},{"type":"Feature","properties":{"id":"OMN-5496","name":"Ash Sharqiyah North","nameBn":"আশ শারকিয়াহ গভর্নোরেট","type":"Region","bounds":[57.8343,21.7106,59.4839,23.0223],"center":[58.565,22.2943]},"geometry":{"type":"Polygon","coordinates":[[[59.2591,22.8904],[59.2861,22.8265],[59.2898,22.8121],[59.2975,22.7927],[59.3157,22.7795],[59.3518,22.7612],[59.3916,22.7022],[59.3972,22.6861],[59.4107,22.6708],[59.4525,22.6341],[59.4839,22.6188],[59.4294,22.5653],[59.4307,22.5162],[59.4498,22.4636],[59.4402,22.3298],[59.3915,22.2098],[59.2682,22.1482],[59.0514,22.0386],[58.8282,21.963],[58.5935,21.8836],[58.3401,21.7979],[58.0823,21.7106],[57.8343,22.5231],[57.9328,22.7141],[58.1621,22.8815],[58.2236,22.8883],[58.3899,22.9875],[58.5411,23.0223],[58.841,22.8341],[59.1698,22.7939],[59.2358,22.8614],[59.2591,22.8903],[59.2591,22.8904]]]}},{"type":"Feature","properties":{"id":"OMN-2406","name":"Ash Sharqiyah South","nameBn":"আশ শারকুইয়া সাউথ","type":"Region","bounds":[58.0823,20.1705,59.8446,22.6188],"center":[58.9632,21.5958]},"geometry":{"type":"MultiPolygon","coordinates":[[[[59.4839,22.6188],[59.5068,22.6001],[59.5298,22.5879],[59.5355,22.5831],[59.5365,22.5726],[59.5304,22.5701],[59.522,22.5722],[59.5156,22.5756],[59.5158,22.5615],[59.5231,22.5551],[59.5352,22.5539],[59.5498,22.5551],[59.6268,22.5798],[59.6535,22.5697],[59.6939,22.5414],[59.7,22.5409],[59.7157,22.5429],[59.7212,22.5414],[59.724,22.5368],[59.7258,22.5261],[59.7285,22.521],[59.7284,22.5181],[59.7272,22.5136],[59.728,22.5076],[59.7347,22.5005],[59.7398,22.4978],[59.7461,22.4956],[59.7528,22.4942],[59.759,22.4936],[59.7625,22.4986],[59.756,22.5094],[59.7415,22.5247],[59.7458,22.5382],[59.7564,22.5385],[59.7764,22.5414],[59.8032,22.5347],[59.8249,22.5089],[59.8394,22.4753],[59.8446,22.4453],[59.8249,22.2814],[59.8118,22.2374],[59.7918,22.1981],[59.7347,22.1231],[59.7049,22.0996],[59.6882,22.0827],[59.6807,22.0651],[59.678,22.0419],[59.6597,21.994],[59.655,21.9457],[59.6453,21.9258],[59.6056,21.9102],[59.5934,21.8928],[59.577,21.8563],[59.4979,21.7563],[59.4676,21.6664],[59.4486,21.6249],[59.355,21.4857],[59.3475,21.4536],[59.3442,21.4447],[59.3362,21.4377],[59.1953,21.3791],[59.1663,21.3628],[59.0544,21.2771],[58.9192,21.1437],[58.8781,21.0838],[58.8679,21.0748],[58.8543,21.0656],[58.8386,21.0445],[58.8079,20.9908],[58.8045,20.9816],[58.8019,20.9462],[58.7988,20.936],[58.793,20.9274],[58.7349,20.883],[58.739,20.8622],[58.7222,20.848],[58.6803,20.8284],[58.6815,20.8265],[58.6738,20.8082],[58.6727,20.8078],[58.6658,20.8016],[58.6613,20.7963],[58.659,20.7908],[58.6615,20.7816],[58.6677,20.7723],[58.6764,20.7644],[58.6865,20.7595],[58.7013,20.766],[58.7181,20.7808],[58.7293,20.7868],[58.728,20.7669],[58.7181,20.7536],[58.6999,20.7408],[58.6818,20.7359],[58.6727,20.7464],[58.6665,20.7464],[58.6609,20.7323],[58.6533,20.7053],[58.6454,20.6911],[58.6375,20.6844],[58.6154,20.6724],[58.6045,20.6633],[58.5918,20.6439],[58.5808,20.6185],[58.5733,20.5906],[58.5705,20.5643],[58.5451,20.5164],[58.5313,20.4814],[58.5325,20.4653],[58.5269,20.4577],[58.5215,20.4244],[58.5186,20.4168],[58.5104,20.4152],[58.4971,20.4108],[58.4836,20.4042],[58.4741,20.3964],[58.4675,20.3695],[58.4458,20.3586],[58.4177,20.3596],[58.3916,20.3685],[58.3726,20.3774],[58.3591,20.3816],[58.3264,20.3827],[58.3138,20.3808],[58.2901,20.3714],[58.2756,20.3685],[58.2787,20.3774],[58.2845,20.382],[58.2796,20.3848],[58.2442,20.3942],[58.2243,20.3964],[58.2029,20.4047],[58.2005,20.4244],[58.2134,20.4653],[58.2132,20.4527],[58.2173,20.4416],[58.2248,20.4318],[58.2346,20.4237],[58.2385,20.4438],[58.2283,20.4888],[58.238,20.5093],[58.2513,20.5292],[58.2616,20.5581],[58.2642,20.5876],[58.2551,20.6093],[58.3968,21.0442],[58.2899,21.0956],[58.178,21.3974],[58.0823,21.7106],[58.3401,21.7979],[58.5935,21.8836],[58.8282,21.963],[59.0514,22.0386],[59.2682,22.1482],[59.3915,22.2098],[59.4402,22.3298],[59.4498,22.4636],[59.4307,22.5162],[59.4294,22.5653],[59.4839,22.6188]]],[[[58.9063,20.626],[58.9084,20.6047],[58.9143,20.5878],[58.9451,20.5352],[58.9539,20.5199],[58.95,20.5089],[58.9412,20.5009],[58.9028,20.4741],[58.8623,20.4528],[58.8441,20.4373],[58.8202,20.403],[58.8083,20.3796],[58.7966,20.3315],[58.7876,20.3145],[58.7876,20.3144],[58.7876,20.3033],[58.7878,20.3024],[58.7893,20.2932],[58.7894,20.2865],[58.7852,20.2795],[58.7515,20.248],[58.7334,20.2246],[58.7243,20.2152],[58.7153,20.2121],[58.7026,20.2104],[58.6913,20.2078],[58.6865,20.2015],[58.6831,20.1909],[58.6746,20.1795],[58.6636,20.1714],[58.6524,20.1705],[58.6522,20.1705],[58.647,20.1797],[58.6426,20.1872],[58.6375,20.2185],[58.6365,20.2497],[58.6387,20.2666],[58.6384,20.2678],[58.6359,20.277],[58.6429,20.3561],[58.6482,20.3688],[58.659,20.3827],[58.6646,20.3878],[58.6824,20.4006],[58.69,20.4032],[58.6919,20.4052],[58.6939,20.4072],[58.6983,20.4257],[58.7007,20.4311],[58.7176,20.437],[58.7342,20.4376],[58.7512,20.4401],[58.7689,20.4516],[58.7771,20.4622],[58.7808,20.467],[58.7845,20.4794],[58.7852,20.4816],[58.7894,20.5199],[58.7956,20.5384],[58.8049,20.5535],[58.8529,20.6133],[58.8713,20.6496],[58.8826,20.6825],[58.8913,20.6943],[58.9063,20.698],[58.9183,20.6815],[58.9183,20.6813],[58.917,20.6643],[58.9102,20.6459],[58.9063,20.626]]]]}},{"type":"Feature","properties":{"id":"OMN-2411","name":"Dhofar","nameBn":"ধোফার গভর্নোরেট","type":"Province","bounds":[51.9786,16.6424,57.4453,21.0969],"center":[54.2927,18.4966]},"geometry":{"type":"MultiPolygon","coordinates":[[[[51.9857,18.9797],[51.9786,18.9956],[52.0899,19.0326],[52.2611,19.0897],[52.4321,19.1467],[52.6031,19.2038],[52.7744,19.2608],[52.9455,19.3179],[53.1166,19.3749],[53.2878,19.4319],[53.4589,19.489],[53.63,19.546],[53.8011,19.6031],[53.9722,19.6601],[54.1435,19.7171],[54.3146,19.7742],[54.4856,19.8312],[54.6567,19.8882],[54.8279,19.9453],[54.9784,19.9954],[55.0105,20.092],[55.0171,20.1117],[55.0357,20.1676],[55.0645,20.2543],[55.1019,20.3668],[55.1462,20.5],[55.1955,20.6486],[55.2483,20.8074],[55.3029,20.9715],[55.3446,21.0969],[55.3579,21.0784],[56.5772,19.1656],[57.4453,18.9453],[57.2075,18.91],[57.0838,18.8764],[56.9151,18.8103],[56.8504,18.7658],[56.8078,18.7456],[56.7847,18.7286],[56.7747,18.7072],[56.7664,18.6968],[56.6597,18.5954],[56.6411,18.5593],[56.6369,18.5119],[56.6434,18.4792],[56.6443,18.4676],[56.6411,18.4549],[56.6266,18.4359],[56.6213,18.4196],[56.6123,18.3996],[56.6096,18.3891],[56.6096,18.3475],[56.6006,18.3054],[56.5488,18.1898],[56.5637,18.1702],[56.5613,18.1492],[56.5472,18.1297],[56.5276,18.1147],[56.4841,18.0965],[56.4626,18.0844],[56.432,18.0322],[56.4256,18.0274],[56.4113,18.0232],[56.4041,18.0191],[56.3577,17.9698],[56.355,17.9623],[56.3563,17.94],[56.3449,17.9378],[56.1885,17.9571],[56.1682,17.9541],[56.1384,17.9406],[56.1162,17.9366],[56.0311,17.9434],[56.0108,17.9404],[55.9461,17.9155],[55.9094,17.9066],[55.6535,17.8953],[55.5529,17.8703],[55.5305,17.8683],[55.5225,17.8664],[55.5173,17.8622],[55.5129,17.8575],[55.5066,17.854],[55.4883,17.8535],[55.4868,17.854],[55.4539,17.8454],[55.4452,17.841],[55.4317,17.8247],[55.4173,17.7852],[55.408,17.7687],[55.3931,17.7521],[55.3887,17.7443],[55.3734,17.7033],[55.3695,17.6964],[55.3557,17.6816],[55.2632,17.6077],[55.235,17.5588],[55.2282,17.5388],[55.2254,17.5154],[55.2295,17.4886],[55.2401,17.4752],[55.2738,17.4574],[55.2932,17.4377],[55.3008,17.4168],[55.3011,17.3712],[55.2942,17.3521],[55.2534,17.2991],[55.2512,17.29],[55.2495,17.2761],[55.2507,17.2636],[55.2568,17.2582],[55.2648,17.2548],[55.2651,17.2471],[55.2603,17.2343],[55.2547,17.2287],[55.2285,17.2161],[55.2192,17.2104],[55.2131,17.2021],[55.2093,17.1935],[55.2051,17.1762],[55.1955,17.1608],[55.1987,17.1557],[55.1892,17.1448],[55.1589,17.1358],[55.1436,17.1278],[55.1384,17.1189],[55.133,17.105],[55.1248,17.0925],[55.1126,17.0869],[55.0718,17.0422],[55.0269,17.0111],[55.0207,17.0111],[55.0109,17.0263],[54.9992,17.0197],[54.987,17.0054],[54.9754,16.9975],[54.9596,16.9949],[54.9451,16.99],[54.9313,16.9871],[54.917,16.9907],[54.9014,16.9749],[54.8828,16.9691],[54.8418,16.9639],[54.8084,16.9515],[54.7918,16.9514],[54.7805,16.9639],[54.7691,16.9579],[54.7507,16.9605],[54.7394,16.9565],[54.7053,16.9776],[54.6979,16.9702],[54.6898,16.9893],[54.6853,17.0069],[54.6741,17.0198],[54.6331,17.0269],[54.6043,17.0363],[54.5921,17.0385],[54.5803,17.0373],[54.5597,17.0327],[54.5477,17.0316],[54.5124,17.0384],[54.4993,17.0385],[54.4885,17.0356],[54.4676,17.0267],[54.4617,17.0248],[54.4146,17.0378],[54.39,17.0395],[54.3695,17.0248],[54.3601,17.0296],[54.3504,17.0317],[54.1641,17.0111],[54.085,17.0111],[54.0676,17.0067],[54.0234,16.9853],[54.0127,16.9776],[54.009,16.9687],[54.0093,16.9609],[54.0114,16.9537],[54.0127,16.946],[54.0095,16.9374],[53.9954,16.9254],[53.9922,16.9193],[53.9811,16.9088],[53.9559,16.9039],[53.9102,16.9013],[53.8504,16.8891],[53.8307,16.8876],[53.8127,16.8818],[53.792,16.8703],[53.7713,16.8626],[53.7532,16.8677],[53.7346,16.8561],[53.7093,16.836],[53.687,16.8136],[53.6775,16.7951],[53.6693,16.7841],[53.6506,16.7732],[53.6154,16.7579],[53.5827,16.7499],[53.423,16.7468],[53.3386,16.7348],[53.1753,16.6845],[53.0903,16.6424],[53.0279,16.7775],[52.9653,16.9129],[52.9027,17.0483],[52.8403,17.1837],[52.8016,17.2674],[52.791,17.2812],[52.7739,17.2871],[52.7362,17.2892],[52.7215,17.2982],[52.723,17.2987],[52.7283,17.2994],[52.7301,17.2999],[52.6984,17.3714],[52.6556,17.468],[52.6128,17.5646],[52.5702,17.6611],[52.5274,17.7576],[52.4845,17.8542],[52.4417,17.9506],[52.399,18.0473],[52.3562,18.1438],[52.3133,18.2403],[52.2707,18.3369],[52.2278,18.4334],[52.185,18.5299],[52.1423,18.6265],[52.0995,18.723],[52.0568,18.8196],[52.014,18.9162],[51.9857,18.9797]]],[[[55.8362,17.4909],[55.8324,17.5004],[55.8317,17.5023],[55.8317,17.5023],[55.8371,17.5101],[55.8488,17.5153],[55.863,17.5189],[55.8831,17.5071],[55.8909,17.5046],[55.8908,17.5045],[55.8758,17.4959],[55.8457,17.4961],[55.8363,17.491],[55.8362,17.4909]]],[[[56.0553,17.5598],[56.0553,17.5597],[56.0582,17.5458],[56.0584,17.5443],[56.0679,17.5322],[56.0811,17.5236],[56.0956,17.5189],[56.0638,17.4996],[56.0469,17.4934],[56.0311,17.4909],[55.9868,17.4929],[55.9728,17.4984],[55.9642,17.5199],[55.9906,17.5354],[56.0288,17.5477],[56.0553,17.5598]]]]}},{"type":"Feature","properties":{"id":"OMN-2425","name":"Musandam","nameBn":"মুসান্দাম গভর্নোরেট","type":"Province","bounds":[56.0774,25.2112,56.5111,26.386],"center":[56.2943,25.9744]},"geometry":{"type":"MultiPolygon","coordinates":[[[[56.3491,25.294],[56.3444,25.2665],[56.3164,25.2534],[56.2931,25.2458],[56.2818,25.2369],[56.2522,25.2176],[56.2358,25.2112],[56.22,25.2153],[56.2076,25.2208],[56.2067,25.2267],[56.2061,25.2306],[56.2084,25.2554],[56.2351,25.2675],[56.2449,25.278],[56.2389,25.2862],[56.2357,25.2963],[56.2336,25.3125],[56.2606,25.3311],[56.2907,25.3275],[56.3094,25.3013],[56.3491,25.294]],[[56.263,25.2492],[56.283,25.2555],[56.2883,25.2719],[56.2738,25.2813],[56.2651,25.2812],[56.2596,25.276],[56.263,25.2492]]],[[[56.1525,25.658],[56.1508,25.6588],[56.1451,25.6708],[56.1404,25.7155],[56.1412,25.7327],[56.152,25.7431],[56.1649,25.7522],[56.172,25.7653],[56.1674,25.7777],[56.1441,25.8059],[56.1397,25.823],[56.1445,25.8379],[56.1638,25.8625],[56.1706,25.8768],[56.1747,25.9665],[56.1813,25.9962],[56.1835,26.0145],[56.1784,26.035],[56.1627,26.0736],[56.1513,26.0748],[56.1006,26.0629],[56.0774,26.061],[56.0775,26.0613],[56.082,26.0707],[56.0915,26.1065],[56.1577,26.2011],[56.1818,26.246],[56.1919,26.2551],[56.2083,26.2631],[56.2092,26.2576],[56.2083,26.244],[56.2199,26.2277],[56.2168,26.2221],[56.2124,26.2078],[56.2199,26.2078],[56.2295,26.2168],[56.2555,26.2181],[56.2608,26.2246],[56.2669,26.2275],[56.28,26.2231],[56.2918,26.2119],[56.2949,26.1942],[56.3019,26.2053],[56.3088,26.2047],[56.3174,26.2006],[56.3291,26.2011],[56.3563,26.2191],[56.367,26.2215],[56.3975,26.2139],[56.4041,26.2147],[56.4069,26.2231],[56.4024,26.2321],[56.3945,26.2392],[56.3874,26.242],[56.3678,26.2441],[56.3557,26.2434],[56.3469,26.2386],[56.3412,26.2323],[56.3313,26.2235],[56.3196,26.2179],[56.3084,26.2215],[56.3083,26.2326],[56.3159,26.2746],[56.3159,26.2904],[56.3452,26.2692],[56.3584,26.265],[56.3638,26.2795],[56.3591,26.2873],[56.3478,26.2974],[56.334,26.3061],[56.3223,26.3096],[56.3265,26.3189],[56.332,26.3207],[56.3381,26.3207],[56.344,26.3239],[56.3563,26.3376],[56.3618,26.3495],[56.3605,26.3713],[56.3638,26.386],[56.37,26.386],[56.3836,26.3587],[56.3991,26.3679],[56.4041,26.3723],[56.4116,26.3649],[56.4069,26.3574],[56.4065,26.3548],[56.4087,26.3524],[56.4116,26.345],[56.4211,26.3521],[56.4269,26.3496],[56.4319,26.343],[56.439,26.3376],[56.4622,26.3319],[56.4744,26.3308],[56.4873,26.3314],[56.4852,26.3359],[56.4818,26.3474],[56.4798,26.3519],[56.501,26.3587],[56.5111,26.3335],[56.509,26.3237],[56.495,26.3227],[56.4696,26.3239],[56.4528,26.3183],[56.4229,26.2946],[56.4063,26.2849],[56.4075,26.2849],[56.4072,26.2791],[56.3986,26.2687],[56.4209,26.2476],[56.4323,26.2394],[56.4458,26.2352],[56.4549,26.2393],[56.4653,26.2473],[56.4762,26.2492],[56.4873,26.2352],[56.4688,26.2055],[56.4596,26.2021],[56.4533,26.2215],[56.443,26.2204],[56.432,26.2215],[56.4358,26.2116],[56.4369,26.2053],[56.4354,26.2001],[56.432,26.1942],[56.4446,26.1824],[56.4597,26.1743],[56.4729,26.164],[56.4798,26.1458],[56.4681,26.146],[56.4574,26.1484],[56.4478,26.1531],[56.439,26.1601],[56.4246,26.1538],[56.4124,26.1584],[56.405,26.1706],[56.4041,26.1868],[56.3983,26.1834],[56.3831,26.177],[56.3775,26.1737],[56.377,26.1844],[56.3789,26.1925],[56.3836,26.1981],[56.3911,26.2011],[56.3684,26.2045],[56.3436,26.1914],[56.3288,26.1728],[56.3359,26.1601],[56.3309,26.1493],[56.3298,26.1371],[56.3317,26.1242],[56.3359,26.1116],[56.3447,26.1318],[56.353,26.1426],[56.3638,26.1458],[56.3701,26.1395],[56.3711,26.1278],[56.3683,26.1149],[56.3638,26.1049],[56.3833,26.0975],[56.473,26.0986],[56.4644,26.0854],[56.4492,26.0736],[56.4183,26.0571],[56.3892,26.0471],[56.3801,26.0382],[56.3836,26.0223],[56.4089,26.0344],[56.4229,26.0231],[56.4233,26.0046],[56.4004,25.9905],[56.405,25.9805],[56.4183,25.9639],[56.4221,25.9566],[56.4312,25.9527],[56.4533,25.9472],[56.4455,25.9425],[56.4426,25.9393],[56.439,25.9261],[56.4242,25.9332],[56.4079,25.9374],[56.3933,25.9359],[56.3836,25.9261],[56.3994,25.9023],[56.3926,25.8804],[56.3762,25.8593],[56.3638,25.838],[56.3626,25.8306],[56.3638,25.8069],[56.344,25.7895],[56.3274,25.7624],[56.3163,25.7496],[56.3018,25.7418],[56.3018,25.7629],[56.2879,25.7416],[56.2738,25.7091],[56.2666,25.6726],[56.2738,25.6393],[56.2791,25.6274],[56.2375,25.6166],[56.2215,25.6138],[56.2058,25.6178],[56.1988,25.6253],[56.1888,25.6454],[56.1799,25.6521],[56.1564,25.6559],[56.1525,25.658]]]]}},{"type":"Feature","properties":{"id":"OMN-2426","name":"Muscat","nameBn":"মুস্কাট গভর্নোরেট","type":"Province","bounds":[58.0928,22.7939,59.2591,23.7133],"center":[58.6759,23.2505]},"geometry":{"type":"Polygon","coordinates":[[[58.1316,23.7133],[58.1932,23.6894],[58.2103,23.686],[58.2274,23.6791],[58.2642,23.6448],[58.2824,23.6314],[58.3172,23.6209],[58.3635,23.6155],[58.412,23.6162],[58.453,23.624],[58.4749,23.6315],[58.4837,23.6381],[58.4909,23.6566],[58.4995,23.6569],[58.5186,23.6519],[58.5614,23.6511],[58.5842,23.647],[58.6045,23.6376],[58.6133,23.6251],[58.6333,23.5853],[58.6421,23.5768],[58.6471,23.5749],[58.6515,23.5705],[58.6555,23.5657],[58.659,23.5625],[58.6613,23.5631],[58.6668,23.5639],[58.674,23.564],[58.6803,23.5625],[58.6946,23.5514],[58.7024,23.543],[58.7069,23.5351],[58.7144,23.5351],[58.7206,23.5488],[58.7229,23.5434],[58.7249,23.5401],[58.7268,23.5361],[58.728,23.5284],[58.7349,23.5284],[58.736,23.5327],[58.741,23.5421],[58.7463,23.5377],[58.7495,23.5364],[58.7621,23.5421],[58.7861,23.5121],[58.793,23.4957],[58.7894,23.4806],[58.7974,23.4668],[58.8076,23.4211],[58.8206,23.4018],[58.8792,23.3513],[58.9152,23.3361],[58.9295,23.3181],[58.9465,23.2751],[58.9562,23.2594],[58.9865,23.2325],[59.0017,23.2124],[59.0101,23.1533],[59.0737,23.0932],[59.0779,23.0851],[59.0837,23.0554],[59.0879,23.0484],[59.0925,23.0436],[59.1205,23.0228],[59.1737,22.994],[59.2075,22.9704],[59.2323,22.943],[59.25,22.912],[59.2591,22.8904],[59.2591,22.8903],[59.2358,22.8614],[59.1698,22.7939],[58.841,22.8341],[58.5411,23.0223],[58.5877,23.2494],[58.335,23.4886],[58.1188,23.4619],[58.1183,23.4622],[58.0928,23.5608],[58.1248,23.7034],[58.1229,23.7038],[58.1231,23.7062],[58.1316,23.7133]]]}}]}