{"type":"FeatureCollection","features":[{"type":"Feature","properties":{"id":"PLW-5244","name":"Aimeliik","nameBn":"এইমেলিক","type":null,"bounds":[134.4829,7.3974,134.5657,7.4703],"center":[134.533,7.4324]},"geometry":{"type":"Polygon","coordinates":[[[134.5105,7.4042],[134.5059,7.424],[134.4993,7.4382],[134.4912,7.4446],[134.4855,7.4442],[134.4829,7.4458],[134.4844,7.4587],[134.4876,7.4699],[134.5228,7.4703],[134.5424,7.461],[134.5499,7.4413],[134.5657,7.432],[134.5527,7.4124],[134.5302,7.3974],[134.5105,7.4042]]]}},{"type":"Feature","properties":{"id":"PLW-5245","name":"Airai","nameBn":"এইরায়","type":null,"bounds":[134.5105,7.3557,134.6011,7.432],"center":[134.571,7.3995]},"geometry":{"type":"Polygon","coordinates":[[[134.5942,7.4211],[134.6011,7.3836],[134.5962,7.3699],[134.5916,7.3669],[134.5867,7.3686],[134.575,7.3696],[134.5656,7.3753],[134.5593,7.3762],[134.5547,7.3725],[134.5442,7.3585],[134.5388,7.3557],[134.528,7.3576],[134.5238,7.361],[134.5223,7.367],[134.5134,7.3918],[134.5105,7.4042],[134.5302,7.3974],[134.5527,7.4124],[134.5657,7.432],[134.5942,7.4211]]]}},{"type":"Feature","properties":{"id":"PLW-5246","name":"Angaur","nameBn":"এঙ্গুয়ার","type":null,"bounds":[134.1367,6.8845,134.1777,6.935],"center":[134.158,6.9139]},"geometry":{"type":"Polygon","coordinates":[[[134.1597,6.8845],[134.1453,6.8992],[134.1367,6.9191],[134.1397,6.9343],[134.1598,6.935],[134.1732,6.9249],[134.1777,6.9092],[134.1733,6.8937],[134.1597,6.8845]]]}},{"type":"Feature","properties":{"id":"PLW-5247","name":"Hatobohei","nameBn":"হাতোহবেই","type":null,"bounds":[131.1311,2.949,131.813,3.0603],"center":[131.794,2.9632]},"geometry":{"type":"MultiPolygon","coordinates":[[[[131.1421,3.0473],[131.1609,3.0588],[131.1836,3.0603],[131.1921,3.0488],[131.1804,3.0333],[131.1605,3.0228],[131.1384,3.0189],[131.1311,3.0295],[131.1421,3.0473]]],[[[131.7915,2.9777],[131.8064,2.9743],[131.813,2.9604],[131.7952,2.949],[131.7788,2.9528],[131.7754,2.9641],[131.785,2.9741],[131.7915,2.9777]]]]}},{"type":"Feature","properties":{"id":"PLW-5248","name":"Kayangel","nameBn":"কায়ানজেল","type":null,"bounds":[134.6925,8.0502,134.7273,8.0966],"center":[134.711,8.0705]},"geometry":{"type":"Polygon","coordinates":[[[134.7097,8.0966],[134.7222,8.0965],[134.7273,8.0829],[134.7181,8.0587],[134.7012,8.0502],[134.6925,8.0608],[134.6928,8.0755],[134.7097,8.0966]]]}},{"type":"Feature","properties":{"id":"PLW-5249","name":"Koror","nameBn":"কোরা","type":null,"bounds":[134.3472,7.2191,134.5274,7.3627],"center":[134.446,7.2658]},"geometry":{"type":"MultiPolygon","coordinates":[[[[134.4639,7.2943],[134.4492,7.29],[134.4509,7.2816],[134.459,7.2719],[134.4639,7.2636],[134.4583,7.2567],[134.4461,7.2538],[134.426,7.2533],[134.4165,7.248],[134.3929,7.2245],[134.3779,7.2191],[134.3649,7.2215],[134.3552,7.228],[134.3491,7.2378],[134.3472,7.2499],[134.3479,7.2678],[134.3508,7.2712],[134.3826,7.2379],[134.389,7.2389],[134.4017,7.2465],[134.4369,7.2779],[134.4439,7.2874],[134.4446,7.2992],[134.4414,7.3102],[134.4411,7.3167],[134.4495,7.3148],[134.4548,7.3116],[134.459,7.3077],[134.4622,7.3022],[134.4639,7.2943]]],[[[134.4714,7.3625],[134.4886,7.3579],[134.5119,7.3473],[134.5274,7.3315],[134.5222,7.3113],[134.5119,7.3086],[134.5033,7.3193],[134.4966,7.3338],[134.4912,7.3427],[134.4778,7.3469],[134.468,7.3438],[134.4495,7.3284],[134.4478,7.3432],[134.4496,7.3554],[134.4569,7.3627],[134.4714,7.3625]]]]}},{"type":"Feature","properties":{"id":"PLW-5250","name":"Melekeok","nameBn":"মেলেকেওক","type":null,"bounds":[134.5947,7.488,134.636,7.5422],"center":[134.613,7.5168]},"geometry":{"type":"Polygon","coordinates":[[[134.6257,7.5305],[134.6248,7.5239],[134.636,7.5095],[134.636,7.5032],[134.6314,7.4987],[134.6282,7.489],[134.619,7.4918],[134.6096,7.488],[134.605,7.4983],[134.5947,7.5123],[134.6078,7.5422],[134.6257,7.5305]]]}},{"type":"Feature","properties":{"id":"PLW-5251","name":"Ngaraard","nameBn":"নাগারার্দ","type":null,"bounds":[134.6229,7.5911,134.6633,7.686],"center":[134.65,7.6505]},"geometry":{"type":"Polygon","coordinates":[[[134.6602,7.686],[134.6633,7.6386],[134.6582,7.5911],[134.6236,7.6001],[134.6229,7.6259],[134.635,7.6293],[134.641,7.646],[134.6351,7.6841],[134.6602,7.686]]]}},{"type":"Feature","properties":{"id":"PLW-5252","name":"Ngarchelong","nameBn":"গারচেলং","type":null,"bounds":[134.6214,7.6841,134.6602,7.7341],"center":[134.641,7.7069]},"geometry":{"type":"Polygon","coordinates":[[[134.6351,7.6841],[134.633,7.6982],[134.6237,7.718],[134.6214,7.7297],[134.6253,7.7341],[134.6343,7.7322],[134.6433,7.7265],[134.6482,7.7194],[134.6602,7.686],[134.6351,7.6841]]]}},{"type":"Feature","properties":{"id":"PLW-5253","name":"Ngardmau","nameBn":"গার্ডমাউ","type":null,"bounds":[134.5464,7.573,134.6236,7.6259],"center":[134.597,7.6013]},"geometry":{"type":"Polygon","coordinates":[[[134.5471,7.5804],[134.5464,7.5816],[134.557,7.6011],[134.5691,7.6137],[134.5861,7.6206],[134.6112,7.6225],[134.6229,7.6259],[134.6236,7.6001],[134.6199,7.573],[134.6115,7.574],[134.5984,7.5898],[134.5853,7.5758],[134.5471,7.5804]]]}},{"type":"Feature","properties":{"id":"PLW-5254","name":"Ngatpang","nameBn":"নাগাপাং","type":null,"bounds":[134.4876,7.432,134.5807,7.5235],"center":[134.552,7.4793]},"geometry":{"type":"Polygon","coordinates":[[[134.4876,7.4699],[134.4933,7.4801],[134.5013,7.4883],[134.5116,7.4935],[134.5155,7.4805],[134.5244,7.4788],[134.5339,7.486],[134.5388,7.4997],[134.5361,7.508],[134.5283,7.5161],[134.5443,7.5235],[134.5807,7.474],[134.5657,7.432],[134.5499,7.4413],[134.5424,7.461],[134.5228,7.4703],[134.4876,7.4699]]]}},{"type":"Feature","properties":{"id":"PLW-5255","name":"Ngchesar","nameBn":"গচেসার","type":null,"bounds":[134.5657,7.4211,134.6282,7.5123],"center":[134.597,7.4629]},"geometry":{"type":"Polygon","coordinates":[[[134.6282,7.489],[134.6229,7.4728],[134.5996,7.4426],[134.5942,7.4211],[134.5657,7.432],[134.5807,7.474],[134.5947,7.5123],[134.605,7.4983],[134.6096,7.488],[134.619,7.4918],[134.6282,7.489]]]}},{"type":"Feature","properties":{"id":"PLW-5256","name":"Ngeremlengui","nameBn":"গেরেম্লেঙ্গুই","type":null,"bounds":[134.5116,7.474,134.6199,7.5898],"center":[134.575,7.5379]},"geometry":{"type":"Polygon","coordinates":[[[134.5283,7.5161],[134.5116,7.5277],[134.5193,7.5349],[134.5327,7.5537],[134.5448,7.5618],[134.5464,7.5612],[134.5472,7.5667],[134.5471,7.5804],[134.5853,7.5758],[134.5984,7.5898],[134.6115,7.574],[134.6199,7.573],[134.6078,7.5422],[134.5947,7.5123],[134.5807,7.474],[134.5443,7.5235],[134.5283,7.5161]]]}},{"type":"Feature","properties":{"id":"PLW-5257","name":"Ngiwal","nameBn":"গিবাল","type":null,"bounds":[134.6078,7.5305,134.6582,7.6001],"center":[134.636,7.5731]},"geometry":{"type":"Polygon","coordinates":[[[134.6582,7.5911],[134.6454,7.5574],[134.6257,7.5305],[134.6078,7.5422],[134.6199,7.573],[134.6236,7.6001],[134.6582,7.5911]]]}},{"type":"Feature","properties":{"id":"PLW-5258","name":"Peleliu","nameBn":"পেলেলিউ","type":null,"bounds":[134.2305,6.9843,134.285,7.0745],"center":[134.259,7.0265]},"geometry":{"type":"Polygon","coordinates":[[[134.2715,7.0745],[134.2793,7.0727],[134.2832,7.0688],[134.2844,7.0626],[134.285,7.0546],[134.2809,7.0496],[134.2715,7.0336],[134.28,7.0205],[134.2761,7.0169],[134.2664,7.0164],[134.2578,7.0131],[134.2433,6.9928],[134.2344,6.9843],[134.2305,6.9892],[134.2357,7.0085],[134.2715,7.0745]]]}},{"type":"Feature","properties":{"id":"PLW-5259","name":"Sonsorol","nameBn":"সন্সোরোল","type":null,"bounds":[132.2139,5.2922,132.2267,5.3102],"center":[132.204,5.2888]},"geometry":{"type":"Polygon","coordinates":[[[132.2204,5.2922],[132.2139,5.3071],[132.2202,5.3102],[132.2267,5.3043],[132.2204,5.2922]]]}}]}