{"type":"FeatureCollection","features":[{"type":"Feature","properties":{"id":"POL-3144","name":"Greater Poland","nameBn":"গ্রেটার পোল্যান্ড ভয়ভোডেশিপ","type":"Voivodeship|Province","bounds":[15.8257,51.0658,19.0786,53.5952],"center":[17.4521,52.1454]},"geometry":{"type":"Polygon","coordinates":[[[19.0402,52.2784],[19.0419,52.2462],[19.0611,52.2212],[19.0759,52.2185],[19.0786,52.2088],[19.0166,52.1723],[18.9169,52.1461],[18.9065,52.1181],[18.8973,52.0555],[18.8466,52.0187],[18.7797,52.0089],[18.7451,52.0114],[18.7135,52.0097],[18.6998,51.9789],[18.6926,51.9448],[18.7039,51.9096],[18.7227,51.8774],[18.7187,51.8459],[18.6706,51.7934],[18.6593,51.7857],[18.5145,51.7955],[18.4572,51.7787],[18.4314,51.7568],[18.3849,51.6879],[18.3591,51.6269],[18.3542,51.5606],[18.3641,51.5058],[18.3657,51.4526],[18.3378,51.405],[18.2903,51.3837],[18.2358,51.4005],[18.1859,51.3911],[18.1693,51.3597],[18.1441,51.3348],[18.071,51.3247],[18.0548,51.3025],[18.0576,51.2701],[18.0763,51.2424],[18.1336,51.2103],[18.1438,51.1828],[18.1501,51.1361],[18.0358,51.0932],[17.9174,51.0658],[17.8537,51.068],[17.8012,51.0948],[17.7955,51.1192],[17.7822,51.1407],[17.7492,51.1514],[17.7146,51.1502],[17.7016,51.2],[17.6902,51.3026],[17.7184,51.3447],[17.6824,51.3628],[17.6443,51.3694],[17.583,51.3617],[17.5239,51.3703],[17.5007,51.407],[17.4952,51.4503],[17.5085,51.4716],[17.5328,51.4816],[17.5467,51.5063],[17.5566,51.535],[17.4573,51.5751],[17.3468,51.594],[17.2293,51.5943],[17.1874,51.5889],[17.1496,51.5354],[16.943,51.5127],[16.8277,51.5383],[16.7731,51.5759],[16.6761,51.6095],[16.6328,51.6571],[16.6295,51.6897],[16.6118,51.7149],[16.4991,51.7529],[16.4585,51.7596],[16.3711,51.7492],[16.3399,51.8237],[16.2747,51.8682],[16.2015,51.8375],[16.1562,51.8467],[16.1132,51.8649],[16.0984,51.8917],[16.1029,51.9261],[16.112,51.9454],[16.1105,51.9654],[16.0939,51.9718],[16.0767,51.9672],[16.0394,51.9676],[16.0039,51.9896],[15.9809,52.0156],[15.963,52.0468],[15.9079,52.0649],[15.8805,52.0824],[15.857,52.1037],[15.8492,52.1353],[15.8498,52.169],[15.8613,52.1984],[15.8636,52.2136],[15.8687,52.2281],[15.9012,52.287],[15.899,52.3485],[15.8791,52.3782],[15.8366,52.4242],[15.858,52.4333],[15.8849,52.4333],[15.885,52.4633],[15.8771,52.4998],[15.8649,52.5348],[15.8296,52.5938],[15.8257,52.6497],[15.8301,52.6709],[15.8311,52.6933],[15.838,52.7027],[15.8532,52.7016],[15.9479,52.7198],[15.9672,52.7274],[15.9768,52.7431],[15.9553,52.7923],[15.9246,52.8096],[16.0219,52.8853],[16.0186,52.9491],[16.0385,53.0067],[16.0938,52.9956],[16.155,52.9736],[16.2174,52.9787],[16.2788,52.9932],[16.3753,53.0482],[16.4562,53.1247],[16.601,53.1755],[16.6747,53.1893],[16.7036,53.2058],[16.7272,53.2309],[16.7579,53.2537],[16.7516,53.2824],[16.7204,53.3064],[16.6833,53.318],[16.6078,53.3296],[16.5451,53.366],[16.5296,53.4017],[16.5285,53.4415],[16.5511,53.4606],[16.7351,53.4577],[16.7653,53.4612],[16.7908,53.525],[16.8102,53.5579],[16.8365,53.5852],[16.8722,53.5946],[16.9103,53.5952],[16.9477,53.5882],[16.9958,53.5529],[17.0372,53.5093],[17.0957,53.4881],[17.2993,53.4831],[17.3528,53.4656],[17.3972,53.4338],[17.3695,53.397],[17.2975,53.3403],[17.3089,53.3104],[17.3939,53.2706],[17.4421,53.2055],[17.3507,53.1591],[17.3594,53.1168],[17.3904,53.081],[17.3762,53.0187],[17.3313,52.9562],[17.4126,52.9385],[17.4885,52.9042],[17.5375,52.8389],[17.5161,52.7681],[17.5042,52.7545],[17.4881,52.7509],[17.4702,52.7516],[17.4533,52.7438],[17.4466,52.718],[17.4826,52.697],[17.4983,52.6735],[17.5182,52.654],[17.5589,52.6493],[17.599,52.6574],[17.6165,52.6672],[17.6477,52.6512],[17.6564,52.6378],[17.6608,52.6211],[17.6686,52.6151],[17.6799,52.6112],[17.7437,52.598],[17.8132,52.5957],[17.8886,52.5708],[17.9909,52.5136],[18.0265,52.5024],[18.0635,52.5008],[18.0973,52.4925],[18.1263,52.4704],[18.1586,52.4518],[18.2599,52.4354],[18.2941,52.4449],[18.3523,52.4866],[18.3715,52.4834],[18.3859,52.4773],[18.3936,52.459],[18.4059,52.4428],[18.4248,52.4256],[18.449,52.4209],[18.4641,52.4264],[18.4737,52.4375],[18.4921,52.4423],[18.5114,52.4435],[18.5461,52.4336],[18.5761,52.4119],[18.7415,52.329],[18.7689,52.2911],[18.8049,52.2929],[18.9097,52.32],[18.9451,52.323],[19.0402,52.2784]]]}},{"type":"Feature","properties":{"id":"POL-3145","name":"Kuyavian-Pomeranian","nameBn":"কুয়েভিয়ান-পোমারানিয়ান ভয়ভোডেশিপ","type":"Voivodeship|Province","bounds":[17.2975,52.2784,19.7479,53.696],"center":[18.5227,53.0334]},"geometry":{"type":"Polygon","coordinates":[[[19.7479,53.0931],[19.6999,53.0698],[19.6487,53.0553],[19.6546,53.0364],[19.6555,53.0167],[19.6635,52.9872],[19.6606,52.9675],[19.6554,52.948],[19.6458,52.9309],[19.6267,52.9323],[19.6082,52.9402],[19.5889,52.9451],[19.5677,52.9328],[19.549,52.9157],[19.5073,52.8945],[19.4584,52.8983],[19.4739,52.8573],[19.4688,52.8204],[19.4489,52.807],[19.4404,52.7868],[19.4515,52.7659],[19.4682,52.747],[19.497,52.7048],[19.4979,52.6717],[19.455,52.6647],[19.3877,52.5455],[19.3611,52.5124],[19.3559,52.474],[19.3764,52.4612],[19.3804,52.4426],[19.3066,52.3681],[19.3025,52.3513],[19.2959,52.3342],[19.2763,52.3347],[19.2573,52.3325],[19.2449,52.3212],[19.2357,52.3099],[19.1978,52.3029],[19.0744,52.3014],[19.057,52.2955],[19.0497,52.2861],[19.0402,52.2784],[18.9451,52.323],[18.9097,52.32],[18.8049,52.2929],[18.7689,52.2911],[18.7415,52.329],[18.5761,52.4119],[18.5461,52.4336],[18.5114,52.4435],[18.4921,52.4423],[18.4737,52.4375],[18.4641,52.4264],[18.449,52.4209],[18.4248,52.4256],[18.4059,52.4428],[18.3936,52.459],[18.3859,52.4773],[18.3715,52.4834],[18.3523,52.4866],[18.2941,52.4449],[18.2599,52.4354],[18.1586,52.4518],[18.1263,52.4704],[18.0973,52.4925],[18.0635,52.5008],[18.0265,52.5024],[17.9909,52.5136],[17.8886,52.5708],[17.8132,52.5957],[17.7437,52.598],[17.6799,52.6112],[17.6686,52.6151],[17.6608,52.6211],[17.6564,52.6378],[17.6477,52.6512],[17.6165,52.6672],[17.599,52.6574],[17.5589,52.6493],[17.5182,52.654],[17.4983,52.6735],[17.4826,52.697],[17.4466,52.718],[17.4533,52.7438],[17.4702,52.7516],[17.4881,52.7509],[17.5042,52.7545],[17.5161,52.7681],[17.5375,52.8389],[17.4885,52.9042],[17.4126,52.9385],[17.3313,52.9562],[17.3762,53.0187],[17.3904,53.081],[17.3594,53.1168],[17.3507,53.1591],[17.4421,53.2055],[17.3939,53.2706],[17.3089,53.3104],[17.2975,53.3403],[17.3695,53.397],[17.3972,53.4338],[17.4252,53.444],[17.4554,53.5069],[17.4797,53.5386],[17.5076,53.5616],[17.5445,53.5639],[17.6832,53.5424],[17.7455,53.5573],[17.746,53.5785],[17.7501,53.5928],[17.7556,53.6058],[17.7877,53.6236],[17.8564,53.6388],[17.8971,53.6832],[17.9241,53.6956],[18.0511,53.681],[18.2205,53.696],[18.2557,53.6942],[18.2852,53.6717],[18.3179,53.6532],[18.4978,53.6354],[18.583,53.6053],[18.6203,53.6199],[18.6779,53.6321],[18.7594,53.6252],[18.7791,53.6186],[18.7927,53.609],[18.8088,53.6027],[18.8746,53.5623],[18.9056,53.5504],[18.9601,53.5375],[19.0741,53.5416],[19.1283,53.5559],[19.2148,53.4552],[19.2396,53.4122],[19.2699,53.378],[19.2855,53.3645],[19.3089,53.3585],[19.3278,53.358],[19.4045,53.3429],[19.5115,53.3043],[19.6256,53.2864],[19.6813,53.263],[19.7329,53.1846],[19.7479,53.0931]]]}},{"type":"Feature","properties":{"id":"POL-3170","name":"Lesser Poland","nameBn":"লেসার পোল্যান্ড ভয়ভোডেশিপ","type":"Voivodeship|Province","bounds":[19.1124,49.1732,21.5144,50.4845],"center":[20.3133,49.8761]},"geometry":{"type":"Polygon","coordinates":[[[19.7063,49.3875],[19.6845,49.3891],[19.627,49.4019],[19.6271,49.4022],[19.6292,49.4139],[19.6286,49.4296],[19.6302,49.435],[19.6348,49.4413],[19.5948,49.4416],[19.5739,49.4453],[19.5568,49.4539],[19.5516,49.461],[19.5355,49.4928],[19.5173,49.5433],[19.5052,49.5634],[19.4817,49.5735],[19.4742,49.5787],[19.4573,49.5981],[19.4489,49.6004],[19.4437,49.612],[19.4201,49.6223],[19.4074,49.6403],[19.4159,49.6612],[19.433,49.6836],[19.4364,49.7099],[19.3688,49.7176],[19.3314,49.7286],[19.2989,49.7483],[19.2837,49.779],[19.2635,49.8031],[19.2125,49.816],[19.1826,49.8506],[19.1805,49.884],[19.1591,49.9015],[19.1325,49.9032],[19.1124,49.9202],[19.1237,49.9537],[19.1459,49.9831],[19.1679,50.0039],[19.405,50.175],[19.3584,50.2165],[19.3053,50.2505],[19.3368,50.2662],[19.4036,50.26],[19.447,50.2997],[19.4748,50.3355],[19.5017,50.3611],[19.5571,50.3407],[19.5827,50.3408],[19.6081,50.3445],[19.6967,50.3885],[19.7515,50.394],[19.8076,50.3911],[19.8392,50.3943],[19.9656,50.4449],[19.9631,50.4628],[19.9563,50.4845],[20.0507,50.4844],[20.09,50.4709],[20.1237,50.4483],[20.2076,50.4314],[20.2846,50.3986],[20.3303,50.3409],[20.3471,50.2949],[20.3644,50.2716],[20.4097,50.2306],[20.4287,50.205],[20.5021,50.1767],[20.6335,50.1744],[20.6635,50.1949],[20.6674,50.2055],[20.6797,50.2179],[20.712,50.2278],[20.726,50.2365],[20.7289,50.2418],[20.7301,50.2524],[20.7335,50.2573],[20.7377,50.2592],[20.7466,50.2595],[20.75,50.2608],[20.7711,50.2744],[20.7774,50.2916],[20.7839,50.2978],[20.8222,50.2744],[20.8387,50.2793],[20.8522,50.2885],[20.8654,50.2939],[20.8809,50.2874],[20.8946,50.2932],[20.9219,50.2949],[20.9312,50.2983],[20.941,50.3066],[20.9493,50.3113],[20.9597,50.3138],[21.0339,50.3154],[21.0491,50.318],[21.0602,50.3241],[21.0695,50.3309],[21.079,50.3358],[21.1202,50.3486],[21.1301,50.3501],[21.1449,50.3463],[21.1538,50.3389],[21.1636,50.3334],[21.1813,50.3358],[21.1813,50.3375],[21.1987,50.3532],[21.2059,50.3566],[21.2112,50.3569],[21.2149,50.3588],[21.2161,50.3672],[21.2214,50.3725],[21.2329,50.3763],[21.2448,50.3831],[21.2502,50.3973],[21.2595,50.3923],[21.2663,50.392],[21.2775,50.3973],[21.2787,50.4003],[21.2775,50.4052],[21.277,50.4096],[21.2809,50.4116],[21.2953,50.4108],[21.284,50.3267],[21.2535,50.2795],[21.2162,50.2382],[21.2101,50.1821],[21.237,50.0312],[21.2288,49.9869],[21.228,49.9482],[21.237,49.9367],[21.2449,49.9231],[21.2662,49.9066],[21.2949,49.9051],[21.3322,49.8921],[21.3455,49.8635],[21.2463,49.8139],[21.229,49.7891],[21.2586,49.7715],[21.3662,49.7417],[21.4263,49.6997],[21.4609,49.6299],[21.4644,49.5944],[21.4588,49.5597],[21.4772,49.4868],[21.513,49.4204],[21.5143,49.4176],[21.5144,49.4172],[21.4962,49.4124],[21.4815,49.4152],[21.4444,49.4099],[21.4279,49.4098],[21.3304,49.4278],[21.2744,49.4473],[21.2605,49.4494],[21.2425,49.4413],[21.2112,49.4111],[21.1941,49.4006],[21.1726,49.3983],[21.1573,49.4052],[21.143,49.4155],[21.1249,49.4237],[21.1094,49.4246],[21.0688,49.4192],[21.0535,49.4145],[21.0333,49.3997],[21.0455,49.3906],[21.0685,49.3814],[21.0807,49.3663],[21.0725,49.3572],[21.054,49.3548],[21.033,49.3546],[21.0172,49.3524],[20.9967,49.3394],[20.964,49.3081],[20.9424,49.2959],[20.919,49.2903],[20.9006,49.2926],[20.8843,49.3003],[20.868,49.3114],[20.8493,49.3205],[20.8336,49.3221],[20.8165,49.3214],[20.7941,49.3237],[20.7783,49.3312],[20.6895,49.4005],[20.6739,49.4023],[20.6361,49.3983],[20.6145,49.4004],[20.6053,49.4],[20.5951,49.3963],[20.5791,49.3834],[20.5677,49.3764],[20.544,49.3708],[20.5221,49.3744],[20.4375,49.4025],[20.4219,49.4002],[20.4221,49.383],[20.3705,49.3817],[20.3295,49.3918],[20.3177,49.3916],[20.3074,49.3866],[20.3037,49.3804],[20.3016,49.3712],[20.2965,49.3569],[20.2893,49.3431],[20.2844,49.3386],[20.2072,49.3342],[20.192,49.3286],[20.1702,49.3116],[20.1604,49.3056],[20.1383,49.3073],[20.1359,49.3089],[20.1302,49.3039],[20.1111,49.2759],[20.1054,49.264],[20.0984,49.2529],[20.086,49.243],[20.0804,49.2081],[20.07,49.1831],[20.0505,49.1732],[20.0173,49.1839],[19.9657,49.2157],[19.9379,49.2251],[19.9059,49.2228],[19.8878,49.214],[19.8683,49.2008],[19.8542,49.1913],[19.832,49.1859],[19.7859,49.1882],[19.7607,49.1942],[19.7478,49.2059],[19.7478,49.206],[19.7518,49.2191],[19.7896,49.2595],[19.7941,49.2619],[19.8005,49.263],[19.8063,49.2653],[19.8086,49.2709],[19.8068,49.2752],[19.8064,49.2755],[19.7988,49.2807],[19.7986,49.2811],[19.797,49.2833],[19.7969,49.2834],[19.7832,49.29],[19.7797,49.2934],[19.7797,49.2935],[19.7803,49.2976],[19.788,49.3051],[19.7895,49.3092],[19.7836,49.3576],[19.7786,49.3742],[19.7693,49.3931],[19.7691,49.3932],[19.7601,49.3977],[19.7266,49.3889],[19.7063,49.3875]]]}},{"type":"Feature","properties":{"id":"POL-3141","name":"Lower Silesian","nameBn":"লোয়ার সিলেসিয়ান ভৈভেডেশিপ","type":"Voivodeship|Province","bounds":[14.8104,50.093,17.7184,51.7699],"center":[16.4623,51.0127]},"geometry":{"type":"Polygon","coordinates":[[[15.1079,50.981],[15.0939,50.9854],[15.0821,50.9928],[15.0736,51.0026],[15.023,51.0097],[15.004,51.0207],[15.0012,51.0124],[14.9965,51.0078],[14.9821,51.0012],[14.9764,51.0004],[14.9707,50.9987],[14.9656,50.9961],[14.9611,50.9927],[14.961,50.9927],[14.9652,50.9813],[14.9814,50.9732],[14.9966,50.9592],[14.9978,50.9302],[14.9947,50.9251],[14.9849,50.9181],[14.9821,50.9147],[14.9811,50.9091],[14.9818,50.9053],[14.9829,50.9024],[14.9841,50.8677],[14.9821,50.8591],[14.8679,50.8644],[14.8317,50.858],[14.8104,50.8584],[14.8105,50.8771],[14.8247,50.8918],[14.8602,50.9168],[14.9106,50.9927],[14.9553,51.064],[14.9583,51.0755],[14.9585,51.0947],[14.9603,51.1046],[14.9656,51.1115],[14.9734,51.1161],[14.98,51.1228],[14.9821,51.1356],[14.9832,51.1609],[14.9914,51.189],[15.0049,51.2156],[15.0221,51.2368],[15.0179,51.2396],[15.0143,51.2427],[15.0195,51.2717],[15.0049,51.2913],[14.9823,51.308],[14.9638,51.3284],[14.961,51.3353],[14.9566,51.3532],[14.9566,51.3542],[14.9506,51.3965],[14.9695,51.4035],[15.1294,51.4556],[15.1583,51.456],[15.2171,51.4241],[15.2462,51.4226],[15.2968,51.4771],[15.3301,51.5019],[15.4033,51.5178],[15.5439,51.4695],[15.6147,51.4804],[15.7254,51.5716],[15.8238,51.6912],[15.8453,51.7011],[15.8804,51.7083],[15.9105,51.7272],[15.9252,51.7531],[15.9448,51.7699],[16.0965,51.7523],[16.1232,51.7345],[16.1265,51.6999],[16.182,51.6558],[16.2612,51.6668],[16.3221,51.6999],[16.3711,51.7492],[16.4585,51.7596],[16.4991,51.7529],[16.6118,51.7149],[16.6295,51.6897],[16.6328,51.6571],[16.6761,51.6095],[16.7731,51.5759],[16.8277,51.5383],[16.943,51.5127],[17.1496,51.5354],[17.1874,51.5889],[17.2293,51.5943],[17.3468,51.594],[17.4573,51.5751],[17.5566,51.535],[17.5467,51.5063],[17.5328,51.4816],[17.5085,51.4716],[17.4952,51.4503],[17.5007,51.407],[17.5239,51.3703],[17.583,51.3617],[17.6443,51.3694],[17.6824,51.3628],[17.7184,51.3447],[17.6902,51.3026],[17.7016,51.2],[17.7146,51.1502],[17.6814,51.1374],[17.6466,51.132],[17.6123,51.1335],[17.5797,51.1268],[17.5538,51.1091],[17.4956,51.0248],[17.4851,51.0003],[17.4787,50.9744],[17.4625,50.944],[17.4308,50.9306],[17.3833,50.8917],[17.3475,50.8392],[17.2642,50.7611],[17.1924,50.6742],[17.1693,50.618],[17.1334,50.5787],[17.0728,50.5724],[17.0204,50.5468],[16.9482,50.4322],[16.944,50.4203],[16.9158,50.4311],[16.893,50.4329],[16.8658,50.4224],[16.8659,50.4084],[16.8979,50.3782],[16.9093,50.3599],[16.9167,50.3386],[16.9265,50.3193],[16.9452,50.3069],[16.9696,50.2978],[16.9878,50.2849],[16.9984,50.267],[16.9998,50.2427],[17.0128,50.2317],[17.0148,50.2185],[17.0084,50.21],[16.9963,50.2129],[16.9857,50.2231],[16.981,50.2292],[16.975,50.2318],[16.9603,50.232],[16.9575,50.2292],[16.9578,50.2171],[16.9553,50.2135],[16.9463,50.2131],[16.9278,50.2173],[16.919,50.2171],[16.907,50.2118],[16.8904,50.1969],[16.881,50.1916],[16.8698,50.1897],[16.8576,50.1877],[16.8376,50.1886],[16.8177,50.1868],[16.7953,50.1744],[16.7773,50.1569],[16.7664,50.1434],[16.7543,50.1323],[16.732,50.122],[16.7012,50.0949],[16.6606,50.093],[16.6187,50.107],[16.5842,50.1274],[16.5667,50.1422],[16.5573,50.1547],[16.5459,50.1888],[16.535,50.2077],[16.5048,50.228],[16.492,50.2427],[16.4776,50.2553],[16.4522,50.285],[16.4378,50.298],[16.4156,50.3079],[16.371,50.3184],[16.3532,50.3335],[16.3507,50.3423],[16.3515,50.3513],[16.3508,50.3606],[16.3437,50.37],[16.3342,50.3719],[16.2886,50.3719],[16.277,50.3694],[16.2698,50.3655],[16.2625,50.3644],[16.2497,50.371],[16.2449,50.3768],[16.232,50.4026],[16.1996,50.4063],[16.1902,50.4242],[16.198,50.44],[16.218,50.4371],[16.2161,50.4402],[16.2112,50.4513],[16.2173,50.4517],[16.2265,50.4554],[16.232,50.4568],[16.2474,50.465],[16.265,50.4716],[16.28,50.4799],[16.2877,50.4928],[16.3034,50.496],[16.3355,50.4904],[16.3526,50.4928],[16.362,50.5012],[16.3826,50.5142],[16.3912,50.5218],[16.3884,50.5213],[16.3883,50.5271],[16.3896,50.5348],[16.3912,50.5399],[16.3955,50.5457],[16.3983,50.5485],[16.3983,50.5518],[16.3945,50.5593],[16.4259,50.5676],[16.4168,50.5866],[16.3316,50.644],[16.3009,50.6551],[16.2683,50.6604],[16.232,50.6609],[16.2191,50.6591],[16.2118,50.6491],[16.2045,50.6363],[16.1923,50.6266],[16.1755,50.6241],[16.1603,50.6286],[16.1287,50.644],[16.0865,50.6468],[16.0245,50.6086],[15.982,50.6036],[15.9799,50.6066],[15.9792,50.6098],[15.98,50.613],[15.982,50.6162],[15.9964,50.6237],[15.9986,50.6356],[15.9932,50.6494],[15.9845,50.6629],[15.9715,50.6786],[15.958,50.6869],[15.9415,50.6884],[15.8823,50.6742],[15.8546,50.6737],[15.8482,50.6752],[15.7976,50.7298],[15.7944,50.7359],[15.7922,50.7427],[15.7674,50.7442],[15.6843,50.7314],[15.6738,50.7335],[15.6665,50.7381],[15.6532,50.751],[15.6419,50.7558],[15.5221,50.7824],[15.4418,50.8002],[15.4001,50.798],[15.3908,50.7906],[15.3813,50.78],[15.3703,50.7726],[15.3686,50.7729],[15.3561,50.7755],[15.3497,50.7837],[15.3505,50.7932],[15.3533,50.8033],[15.353,50.813],[15.341,50.8317],[15.3258,50.8397],[15.3077,50.8448],[15.2878,50.8549],[15.2771,50.8657],[15.2654,50.8823],[15.2561,50.8999],[15.2531,50.9141],[15.2601,50.9325],[15.2688,50.943],[15.2698,50.9527],[15.2538,50.969],[15.2271,50.9774],[15.1702,50.978],[15.1608,50.9927],[15.1561,51.0078],[15.1444,51.0116],[15.1315,51.0058],[15.1225,50.9928],[15.1225,50.9927],[15.1192,50.9825],[15.1079,50.981]]]}},{"type":"Feature","properties":{"id":"POL-3151","name":"Lublin","nameBn":"লুব্লিন ভয়ভোডেশিপ","type":"Voivodeship|Province","bounds":[21.6459,50.3125,24.1432,52.296],"center":[22.8943,51.2088]},"geometry":{"type":"Polygon","coordinates":[[[23.1761,52.2851],[23.1835,52.2813],[23.1945,52.2715],[23.1977,52.2583],[23.1897,52.2405],[23.2123,52.2317],[23.2842,52.2197],[23.2996,52.2234],[23.3127,52.2153],[23.3748,52.2009],[23.3958,52.1996],[23.3958,52.1934],[23.3885,52.1842],[23.3914,52.1825],[23.4057,52.1859],[23.4182,52.1825],[23.4272,52.1768],[23.4367,52.1757],[23.4505,52.1859],[23.4544,52.1815],[23.4643,52.1764],[23.4709,52.1716],[23.4877,52.1816],[23.4915,52.1741],[23.4887,52.1621],[23.4847,52.1586],[23.5125,52.1244],[23.5319,52.1206],[23.5794,52.1215],[23.5982,52.1145],[23.6048,52.1068],[23.6099,52.0986],[23.6158,52.0923],[23.6253,52.0897],[23.6375,52.0845],[23.6415,52.0729],[23.6425,52.0614],[23.6508,52.0489],[23.6649,52.0112],[23.6764,51.9941],[23.6607,51.9869],[23.6476,51.9741],[23.6287,51.9463],[23.6222,51.9279],[23.6214,51.8956],[23.6149,51.8843],[23.6188,51.8833],[23.6206,51.8832],[23.6213,51.882],[23.6218,51.8774],[23.6099,51.8733],[23.6057,51.8516],[23.5946,51.8433],[23.6103,51.8252],[23.6287,51.8098],[23.6175,51.7865],[23.5983,51.7747],[23.5773,51.7667],[23.5603,51.7545],[23.5563,51.7474],[23.5523,51.7366],[23.5466,51.7136],[23.5502,51.7084],[23.5569,51.7014],[23.5592,51.6952],[23.55,51.6924],[23.5461,51.6896],[23.5493,51.6832],[23.5554,51.6763],[23.5603,51.672],[23.5475,51.6621],[23.5414,51.6597],[23.5324,51.659],[23.5324,51.6515],[23.5438,51.6438],[23.5452,51.6341],[23.5399,51.6071],[23.5434,51.5927],[23.5521,51.5788],[23.574,51.5553],[23.5672,51.5549],[23.5603,51.5553],[23.5728,51.5397],[23.5887,51.5359],[23.6023,51.5308],[23.6062,51.5174],[23.6081,51.5112],[23.6148,51.4972],[23.6305,51.4904],[23.6486,51.4862],[23.6628,51.4802],[23.6472,51.4602],[23.6487,51.454],[23.6894,51.4164],[23.6976,51.4044],[23.686,51.401],[23.6789,51.3941],[23.6777,51.3838],[23.6839,51.3703],[23.6656,51.3658],[23.6478,51.354],[23.634,51.3393],[23.6287,51.326],[23.6352,51.3047],[23.6509,51.2996],[23.6702,51.2994],[23.6873,51.2924],[23.7427,51.2163],[23.7652,51.199],[23.816,51.1788],[23.8636,51.1483],[23.8747,51.1361],[23.8582,51.1307],[23.8545,51.1215],[23.8693,51.1017],[23.8955,51.0761],[23.9042,51.0627],[23.916,51.0209],[23.916,51.0147],[23.9117,51.0068],[23.9191,51.0027],[23.9318,50.9995],[23.944,50.9942],[23.9551,50.9836],[23.9578,50.9753],[23.9589,50.9663],[23.9644,50.9532],[23.9793,50.9375],[24.0469,50.898],[24.1302,50.8689],[24.1432,50.8564],[24.1309,50.8391],[24.1005,50.835],[24.0673,50.8348],[24.0469,50.8291],[24.0205,50.8386],[23.9929,50.8362],[23.9699,50.8252],[23.9576,50.808],[23.9595,50.7889],[23.9743,50.7762],[23.9979,50.7692],[24.0259,50.767],[24.0259,50.7608],[24.0128,50.7433],[24.0269,50.728],[24.0542,50.7172],[24.081,50.713],[24.0749,50.6902],[24.0828,50.6692],[24.1082,50.6303],[24.1084,50.6299],[24.0853,50.6044],[24.0954,50.5569],[24.1025,50.5436],[24.1077,50.5408],[24.1065,50.5386],[24.094,50.5271],[24.075,50.5143],[24.0107,50.4928],[24.0079,50.4807],[24.0094,50.4615],[24.0078,50.4485],[24.0032,50.4377],[23.9813,50.4048],[23.9287,50.3908],[23.7475,50.3894],[23.713,50.3824],[23.6957,50.3768],[23.6822,50.3682],[23.6712,50.3536],[23.6587,50.327],[23.6581,50.3272],[23.558,50.3647],[23.5255,50.3957],[23.4626,50.4215],[23.3889,50.4267],[23.3318,50.4232],[23.3055,50.4158],[23.2231,50.3562],[23.1584,50.3227],[23.0828,50.3125],[22.8581,50.3171],[22.7212,50.342],[22.7114,50.3567],[22.7454,50.3621],[22.7611,50.3679],[22.7343,50.3797],[22.5949,50.3621],[22.5598,50.3725],[22.5339,50.3981],[22.5266,50.4229],[22.5434,50.4437],[22.5681,50.4646],[22.5995,50.4713],[22.6305,50.4689],[22.6579,50.479],[22.6464,50.5034],[22.6227,50.5315],[22.6203,50.5453],[22.6213,50.5589],[22.6121,50.5681],[22.4547,50.622],[22.2215,50.6596],[22.203,50.6801],[22.2485,50.7345],[22.2624,50.7599],[22.2305,50.7777],[22.1951,50.7917],[22.1568,50.8009],[22.1174,50.7998],[22.0513,50.7704],[21.9764,50.7728],[21.8443,50.8298],[21.8392,50.8513],[21.8138,50.9124],[21.8119,50.9218],[21.8098,50.9253],[21.8051,50.9271],[21.8005,50.9297],[21.7983,50.9354],[21.7994,50.9417],[21.802,50.9446],[21.8046,50.9465],[21.8057,50.9497],[21.8131,50.9929],[21.81,51.0124],[21.7915,51.0211],[21.7915,51.0279],[21.7986,51.0288],[21.8074,51.0315],[21.8151,51.0357],[21.8194,51.0416],[21.8154,51.0551],[21.7909,51.0936],[21.7831,51.1257],[21.7738,51.1436],[21.7716,51.1515],[21.7732,51.1629],[21.7769,51.1716],[21.7853,51.1862],[21.8035,51.2484],[21.8157,51.2644],[21.8251,51.2694],[21.836,51.2705],[21.8342,51.2914],[21.8463,51.3217],[21.8524,51.3504],[21.8124,51.3803],[21.8145,51.4047],[21.838,51.4165],[21.8622,51.4375],[21.8632,51.4784],[21.8324,51.4804],[21.8324,51.4872],[21.8476,51.4984],[21.8442,51.5108],[21.8262,51.5282],[21.824,51.5424],[21.8248,51.5538],[21.8212,51.5626],[21.8057,51.5692],[21.7962,51.5697],[21.7716,51.563],[21.7541,51.5618],[21.7026,51.5686],[21.6748,51.5766],[21.66,51.5875],[21.6473,51.6009],[21.6459,51.6112],[21.6563,51.6367],[21.6925,51.6427],[21.7282,51.6336],[21.8011,51.6266],[21.872,51.6421],[21.8969,51.6568],[21.9036,51.6796],[21.8532,51.7277],[21.8917,51.7614],[21.9468,51.7821],[21.9118,51.8152],[21.8875,51.8524],[21.8834,51.8789],[21.8637,51.905],[21.8476,51.9331],[21.8413,51.9584],[21.9123,51.991],[21.9884,52.0045],[22.1332,52.004],[22.2701,52.0208],[22.3208,52.0149],[22.3559,52.0219],[22.4514,52.066],[22.4898,52.0687],[22.5997,52.0623],[22.6553,52.0902],[22.66,52.1051],[22.6665,52.1178],[22.683,52.1286],[22.7012,52.1361],[22.7421,52.1303],[22.8593,52.0932],[22.8983,52.1021],[22.9313,52.1282],[22.96,52.1693],[23.055,52.2554],[23.087,52.2923],[23.1005,52.296],[23.1188,52.2932],[23.1502,52.2816],[23.1681,52.2817],[23.1761,52.2851]]]}},{"type":"Feature","properties":{"id":"POL-3143","name":"Lubusz","nameBn":"লুবুজ ভয়ভোডেশিপ","type":"Voivodeship|Province","bounds":[14.5398,51.3965,16.3711,53.1099],"center":[15.4552,52.2372]},"geometry":{"type":"Polygon","coordinates":[[[14.9506,51.3965],[14.9469,51.4229],[14.9554,51.4354],[14.9451,51.4492],[14.9266,51.4613],[14.911,51.469],[14.8883,51.4757],[14.8414,51.4844],[14.8186,51.4926],[14.8186,51.4927],[14.7975,51.5021],[14.7322,51.5158],[14.71,51.5302],[14.7068,51.5408],[14.7046,51.548],[14.7127,51.5674],[14.7322,51.5866],[14.7439,51.6066],[14.7423,51.633],[14.7325,51.6583],[14.7195,51.6756],[14.671,51.7008],[14.6484,51.7172],[14.6381,51.7426],[14.6342,51.769],[14.6203,51.7805],[14.6022,51.7883],[14.5858,51.8039],[14.5828,51.8251],[14.5959,51.8424],[14.6533,51.8786],[14.6717,51.8939],[14.6871,51.9119],[14.6956,51.9315],[14.6991,51.9925],[14.7045,52.0022],[14.7261,52.0264],[14.7303,52.0359],[14.7322,52.0451],[14.7354,52.054],[14.743,52.0625],[14.7614,52.0767],[14.6964,52.1067],[14.6864,52.121],[14.6925,52.147],[14.7032,52.1652],[14.707,52.1795],[14.6926,52.1934],[14.6926,52.1996],[14.7121,52.2154],[14.7124,52.2359],[14.6969,52.2535],[14.6689,52.261],[14.6405,52.2651],[14.6066,52.2758],[14.5842,52.2912],[14.5901,52.3094],[14.5692,52.3385],[14.5454,52.3822],[14.5398,52.4219],[14.5916,52.4498],[14.6158,52.4733],[14.6323,52.4967],[14.6277,52.5074],[14.6091,52.5178],[14.6168,52.541],[14.6448,52.5769],[14.6137,52.5925],[14.608,52.5965],[14.6324,52.6499],[14.6543,52.6699],[14.7394,52.6782],[14.7899,52.6911],[14.8683,52.7581],[14.9319,52.8426],[15.0298,52.8753],[15.1958,52.842],[15.2487,52.8465],[15.3101,52.8896],[15.3481,52.9333],[15.3208,52.9361],[15.301,52.9523],[15.3575,52.9542],[15.527,52.9893],[15.7331,52.9889],[15.7836,53.0112],[15.8733,53.0803],[15.9258,53.1053],[15.9801,53.1099],[16.0304,53.1032],[16.0567,53.0543],[16.0385,53.0067],[16.0186,52.9491],[16.0219,52.8853],[15.9246,52.8096],[15.9553,52.7923],[15.9768,52.7431],[15.9672,52.7274],[15.9479,52.7198],[15.8532,52.7016],[15.838,52.7027],[15.8311,52.6933],[15.8301,52.6709],[15.8257,52.6497],[15.8296,52.5938],[15.8649,52.5348],[15.8771,52.4998],[15.885,52.4633],[15.8849,52.4333],[15.858,52.4333],[15.8366,52.4242],[15.8791,52.3782],[15.899,52.3485],[15.9012,52.287],[15.8687,52.2281],[15.8636,52.2136],[15.8613,52.1984],[15.8498,52.169],[15.8492,52.1353],[15.857,52.1037],[15.8805,52.0824],[15.9079,52.0649],[15.963,52.0468],[15.9809,52.0156],[16.0039,51.9896],[16.0394,51.9676],[16.0767,51.9672],[16.0939,51.9718],[16.1105,51.9654],[16.112,51.9454],[16.1029,51.9261],[16.0984,51.8917],[16.1132,51.8649],[16.1562,51.8467],[16.2015,51.8375],[16.2747,51.8682],[16.3399,51.8237],[16.3711,51.7492],[16.3221,51.6999],[16.2612,51.6668],[16.182,51.6558],[16.1265,51.6999],[16.1232,51.7345],[16.0965,51.7523],[15.9448,51.7699],[15.9252,51.7531],[15.9105,51.7272],[15.8804,51.7083],[15.8453,51.7011],[15.8238,51.6912],[15.7254,51.5716],[15.6147,51.4804],[15.5439,51.4695],[15.4033,51.5178],[15.3301,51.5019],[15.2968,51.4771],[15.2462,51.4226],[15.2171,51.4241],[15.1583,51.456],[15.1294,51.4556],[14.9695,51.4035],[14.9506,51.3965]]]}},{"type":"Feature","properties":{"id":"POL-3148","name":"Masovian","nameBn":"মেসোভিয়ান ভয়ভোডেশিপ","type":"Voivodeship|Province","bounds":[19.2959,51.0132,23.087,53.4435],"center":[21.1915,52.2269]},"geometry":{"type":"Polygon","coordinates":[[[21.523,53.4435],[21.5363,53.4088],[21.5592,53.3764],[21.5753,53.337],[21.6004,53.2221],[21.656,53.138],[21.6928,53.0953],[21.7459,53.0778],[21.8009,53.073],[21.8468,53.0516],[21.8305,53.0336],[21.8347,53.0082],[21.8602,52.9806],[21.8983,52.968],[21.9228,52.9528],[21.9374,52.9279],[21.9511,52.8912],[21.9776,52.862],[22.0489,52.8396],[22.1248,52.8464],[22.1747,52.879],[22.2231,52.8569],[22.2073,52.8017],[22.2324,52.7803],[22.2636,52.7671],[22.3199,52.7842],[22.3779,52.7941],[22.3935,52.7471],[22.3997,52.695],[22.4118,52.6597],[22.415,52.6223],[22.4119,52.6006],[22.4678,52.5643],[22.4886,52.5468],[22.5107,52.5353],[22.5176,52.5294],[22.5201,52.5195],[22.5167,52.5113],[22.5124,52.5034],[22.5114,52.4946],[22.515,52.4818],[22.5198,52.4733],[22.5282,52.4687],[22.5422,52.4673],[22.5448,52.4625],[22.5388,52.4294],[22.5458,52.4187],[22.5627,52.4041],[22.5829,52.3945],[22.6002,52.399],[22.6119,52.3873],[22.6363,52.3836],[22.689,52.3854],[22.8446,52.3656],[22.9228,52.3723],[22.952,52.3665],[22.9751,52.3528],[22.9845,52.3301],[23.0058,52.337],[23.0239,52.3305],[23.0521,52.3096],[23.0471,52.3042],[23.042,52.2938],[23.039,52.2892],[23.0557,52.2829],[23.0719,52.286],[23.087,52.2923],[23.055,52.2554],[22.96,52.1693],[22.9313,52.1282],[22.8983,52.1021],[22.8593,52.0932],[22.7421,52.1303],[22.7012,52.1361],[22.683,52.1286],[22.6665,52.1178],[22.66,52.1051],[22.6553,52.0902],[22.5997,52.0623],[22.4898,52.0687],[22.4514,52.066],[22.3559,52.0219],[22.3208,52.0149],[22.2701,52.0208],[22.1332,52.004],[21.9884,52.0045],[21.9123,51.991],[21.8413,51.9584],[21.8476,51.9331],[21.8637,51.905],[21.8834,51.8789],[21.8875,51.8524],[21.9118,51.8152],[21.9468,51.7821],[21.8917,51.7614],[21.8532,51.7277],[21.9036,51.6796],[21.8969,51.6568],[21.872,51.6421],[21.8011,51.6266],[21.7282,51.6336],[21.6925,51.6427],[21.6563,51.6367],[21.6459,51.6112],[21.6473,51.6009],[21.66,51.5875],[21.6748,51.5766],[21.7026,51.5686],[21.7541,51.5618],[21.7716,51.563],[21.7962,51.5697],[21.8057,51.5692],[21.8212,51.5626],[21.8248,51.5538],[21.824,51.5424],[21.8262,51.5282],[21.8442,51.5108],[21.8476,51.4984],[21.8324,51.4872],[21.8324,51.4804],[21.8632,51.4784],[21.8622,51.4375],[21.838,51.4165],[21.8145,51.4047],[21.8124,51.3803],[21.8524,51.3504],[21.8463,51.3217],[21.8342,51.2914],[21.836,51.2705],[21.8251,51.2694],[21.8157,51.2644],[21.8035,51.2484],[21.7853,51.1862],[21.7769,51.1716],[21.7732,51.1629],[21.7716,51.1515],[21.7738,51.1436],[21.7831,51.1257],[21.7909,51.0936],[21.8154,51.0551],[21.4956,51.0132],[21.33,51.0458],[21.2531,51.05],[21.1847,51.078],[21.1783,51.0932],[21.174,51.1099],[21.1441,51.1311],[21.1357,51.1647],[21.1055,51.1712],[21.0741,51.1525],[21.0447,51.1268],[21.0117,51.1149],[20.8728,51.101],[20.7517,51.1168],[20.726,51.129],[20.7048,51.1502],[20.6816,51.1669],[20.5169,51.2304],[20.4873,51.2775],[20.4321,51.2899],[20.4287,51.3194],[20.4414,51.3466],[20.5054,51.3841],[20.5222,51.4116],[20.5223,51.4437],[20.5094,51.4529],[20.4725,51.4639],[20.4649,51.4801],[20.4612,51.512],[20.4514,51.5428],[20.4216,51.5872],[20.4476,51.6435],[20.5255,51.6435],[20.5854,51.6234],[20.6581,51.6171],[20.671,51.6335],[20.6736,51.6574],[20.6583,51.6828],[20.6045,51.7177],[20.5952,51.7462],[20.6004,51.7589],[20.6105,51.7681],[20.6193,51.7796],[20.6129,51.796],[20.554,51.8448],[20.4816,51.8795],[20.4151,51.8985],[20.3091,51.891],[20.2731,51.8982],[20.2644,51.9144],[20.2669,51.9332],[20.2431,51.9553],[20.2162,51.9743],[20.2079,51.9955],[20.2413,52.0076],[20.2517,52.0577],[20.2379,52.0684],[20.1988,52.0845],[20.1301,52.1016],[20.1146,52.0992],[20.1002,52.104],[20.0799,52.1318],[20.0764,52.1669],[20.0638,52.1925],[20.0362,52.2043],[20.0009,52.2107],[19.9695,52.2207],[19.9454,52.2464],[19.9182,52.2677],[19.881,52.2656],[19.8492,52.2456],[19.6414,52.2192],[19.5489,52.2651],[19.4975,52.2799],[19.3923,52.2935],[19.2959,52.3342],[19.3025,52.3513],[19.3066,52.3681],[19.3804,52.4426],[19.3764,52.4612],[19.3559,52.474],[19.3611,52.5124],[19.3877,52.5455],[19.455,52.6647],[19.4979,52.6717],[19.497,52.7048],[19.4682,52.747],[19.4515,52.7659],[19.4404,52.7868],[19.4489,52.807],[19.4688,52.8204],[19.4739,52.8573],[19.4584,52.8983],[19.5073,52.8945],[19.549,52.9157],[19.5677,52.9328],[19.5889,52.9451],[19.6082,52.9402],[19.6267,52.9323],[19.6458,52.9309],[19.6554,52.948],[19.6606,52.9675],[19.6635,52.9872],[19.6555,53.0167],[19.6546,53.0364],[19.6487,53.0553],[19.6999,53.0698],[19.7479,53.0931],[19.7824,53.0984],[19.8112,53.1129],[19.8371,53.1437],[19.8768,53.1511],[19.8939,53.1489],[19.9095,53.1424],[19.916,53.1336],[19.9248,53.1273],[20.2406,53.098],[20.3158,53.1063],[20.346,53.1155],[20.3719,53.1337],[20.3889,53.1675],[20.4198,53.182],[20.4582,53.1795],[20.4948,53.1861],[20.6346,53.2346],[20.6678,53.2583],[20.704,53.2759],[20.7756,53.2754],[20.8391,53.2834],[20.9123,53.3086],[21.0079,53.3084],[21.0979,53.3256],[21.1737,53.3796],[21.2626,53.3746],[21.308,53.3788],[21.3488,53.3961],[21.3774,53.4299],[21.402,53.4379],[21.523,53.4435]]]}},{"type":"Feature","properties":{"id":"POL-3167","name":"Opole","nameBn":"ওপোল ভয়ভোডেশিপ","type":"Voivodeship|Province","bounds":[16.944,49.9687,18.6556,51.1514],"center":[17.7998,50.5498]},"geometry":{"type":"Polygon","coordinates":[[[16.9588,50.4146],[16.944,50.4203],[16.9482,50.4322],[17.0204,50.5468],[17.0728,50.5724],[17.1334,50.5787],[17.1693,50.618],[17.1924,50.6742],[17.2642,50.7611],[17.3475,50.8392],[17.3833,50.8917],[17.4308,50.9306],[17.4625,50.944],[17.4787,50.9744],[17.4851,51.0003],[17.4956,51.0248],[17.5538,51.1091],[17.5797,51.1268],[17.6123,51.1335],[17.6466,51.132],[17.6814,51.1374],[17.7146,51.1502],[17.7492,51.1514],[17.7822,51.1407],[17.7955,51.1192],[17.8012,51.0948],[17.8537,51.068],[17.9174,51.0658],[18.0358,51.0932],[18.1501,51.1361],[18.1726,51.1108],[18.202,51.0959],[18.4257,51.0596],[18.4964,51.0608],[18.5094,51.068],[18.5186,51.0784],[18.5305,51.0826],[18.5573,51.0619],[18.5806,51.0334],[18.6556,50.9952],[18.6211,50.9183],[18.6086,50.9089],[18.6012,50.8934],[18.6074,50.8707],[18.6208,50.8522],[18.6136,50.8167],[18.5354,50.7848],[18.5087,50.7491],[18.4909,50.6864],[18.467,50.6456],[18.4864,50.6076],[18.513,50.5847],[18.5453,50.5688],[18.5774,50.5469],[18.5887,50.511],[18.4433,50.5118],[18.4141,50.5074],[18.4009,50.4848],[18.412,50.4672],[18.4101,50.4492],[18.3881,50.4426],[18.3666,50.4399],[18.3575,50.4195],[18.3744,50.2912],[18.3736,50.24],[18.3628,50.2109],[18.2661,50.1818],[18.2061,50.1526],[18.08,50.1357],[18.0205,50.0609],[18.0191,50.0442],[18.0191,50.0441],[18.0024,50.0468],[18.0069,50.0241],[18.0122,50.0227],[18.0201,50.0243],[18.0287,50.0241],[18.0357,50.0172],[18.0375,50.0072],[18.0324,50.0028],[17.9999,49.9966],[17.9598,49.9958],[17.9416,49.9928],[17.9121,49.9758],[17.8757,49.9687],[17.8394,49.9736],[17.7746,50.0152],[17.7633,50.0252],[17.7554,50.0372],[17.7499,50.0495],[17.743,50.0606],[17.732,50.0691],[17.7226,50.0751],[17.7195,50.0809],[17.7227,50.0864],[17.732,50.0915],[17.7324,50.0922],[17.7326,50.093],[17.7324,50.0939],[17.732,50.0949],[17.7179,50.0968],[17.6907,50.1055],[17.6776,50.1077],[17.667,50.1061],[17.6585,50.103],[17.6484,50.1018],[17.6328,50.1063],[17.5842,50.1459],[17.5821,50.1532],[17.5894,50.1632],[17.6004,50.1668],[17.6487,50.168],[17.6753,50.1747],[17.7179,50.1911],[17.7382,50.2024],[17.7476,50.2175],[17.732,50.236],[17.7214,50.2427],[17.7192,50.2528],[17.7211,50.2619],[17.732,50.2807],[17.7342,50.2838],[17.735,50.2868],[17.7345,50.2895],[17.732,50.2918],[17.7136,50.3077],[17.708,50.311],[17.691,50.3151],[17.6845,50.3124],[17.6819,50.3056],[17.6764,50.2974],[17.6467,50.2711],[17.6295,50.2621],[17.6064,50.2582],[17.517,50.2684],[17.4694,50.2656],[17.44,50.2427],[17.4348,50.2405],[17.4296,50.2398],[17.4242,50.2406],[17.4191,50.2427],[17.4098,50.2613],[17.388,50.2726],[17.3659,50.2716],[17.355,50.2533],[17.3417,50.2597],[17.3348,50.27],[17.3328,50.2827],[17.3341,50.2957],[17.3295,50.2982],[17.3254,50.3011],[17.3219,50.3045],[17.3191,50.3082],[17.3375,50.313],[17.3168,50.3186],[17.2699,50.3178],[17.2461,50.3221],[17.2109,50.3364],[17.201,50.3432],[17.1951,50.3519],[17.1889,50.3648],[17.1854,50.3757],[17.1876,50.3785],[17.1759,50.3807],[17.1454,50.3767],[17.1317,50.3768],[17.1189,50.3812],[17.0956,50.3937],[17.0847,50.398],[16.9819,50.4164],[16.9588,50.4146]]]}},{"type":"Feature","properties":{"id":"POL-3150","name":"Podlachian","nameBn":"পোদলাস্কি ভয়ভোডেশিপ","type":"Voivodeship|Province","bounds":[21.523,52.2816,23.9225,54.4009],"center":[22.7225,53.3396]},"geometry":{"type":"Polygon","coordinates":[[[22.8376,54.4009],[22.8589,54.3992],[22.9188,54.3811],[22.9297,54.3803],[22.9524,54.3831],[22.9627,54.3817],[22.9733,54.3754],[22.979,54.3676],[22.9834,54.3598],[22.9897,54.3534],[23.001,54.3489],[23.0353,54.3465],[23.0416,54.341],[23.038,54.3315],[23.0322,54.3201],[23.0321,54.3096],[23.0501,54.2948],[23.073,54.2949],[23.0969,54.3008],[23.1171,54.3035],[23.1353,54.2983],[23.1973,54.2679],[23.2354,54.2542],[23.316,54.2363],[23.336,54.2263],[23.3545,54.2171],[23.3641,54.2083],[23.3823,54.1879],[23.3915,54.1801],[23.4018,54.176],[23.4233,54.1725],[23.4325,54.1693],[23.449,54.1549],[23.463,54.1349],[23.4739,54.1126],[23.4816,54.0912],[23.4962,54.0446],[23.4965,54.022],[23.4816,54.0066],[23.4695,54.0007],[23.4641,53.9968],[23.4593,53.9923],[23.4586,53.9816],[23.4629,53.9725],[23.4709,53.9653],[23.4816,53.9601],[23.4875,53.9556],[23.4904,53.9506],[23.4898,53.9451],[23.4856,53.9393],[23.4869,53.91],[23.4972,53.8855],[23.5104,53.8625],[23.5207,53.8373],[23.5299,53.7842],[23.5404,53.7636],[23.5647,53.7424],[23.5648,53.7424],[23.5671,53.681],[23.5909,53.6113],[23.6758,53.4557],[23.7229,53.3971],[23.743,53.3655],[23.783,53.2709],[23.8006,53.2425],[23.8186,53.228],[23.8284,53.2138],[23.8362,53.1993],[23.8481,53.1838],[23.866,53.172],[23.8831,53.164],[23.8937,53.152],[23.8914,53.1277],[23.8824,53.1133],[23.8703,53.1013],[23.8607,53.0875],[23.8593,53.068],[23.8679,53.051],[23.8982,53.0275],[23.9097,53.0127],[23.9113,53.0051],[23.909,52.993],[23.9091,52.9867],[23.9175,52.9588],[23.918,52.9508],[23.915,52.9446],[23.9039,52.9311],[23.9011,52.9233],[23.902,52.9125],[23.9054,52.9065],[23.9095,52.9015],[23.9121,52.8939],[23.9204,52.7726],[23.9225,52.7426],[23.9088,52.6999],[23.869,52.67],[23.7362,52.6149],[23.569,52.5859],[23.4805,52.5544],[23.3923,52.5096],[23.2705,52.3951],[23.2304,52.3651],[23.2121,52.3475],[23.1656,52.2894],[23.1687,52.2889],[23.1761,52.2851],[23.1681,52.2817],[23.1502,52.2816],[23.1188,52.2932],[23.1005,52.296],[23.087,52.2923],[23.0719,52.286],[23.0557,52.2829],[23.039,52.2892],[23.042,52.2938],[23.0471,52.3042],[23.0521,52.3096],[23.0239,52.3305],[23.0058,52.337],[22.9845,52.3301],[22.9751,52.3528],[22.952,52.3665],[22.9228,52.3723],[22.8446,52.3656],[22.689,52.3854],[22.6363,52.3836],[22.6119,52.3873],[22.6002,52.399],[22.5829,52.3945],[22.5627,52.4041],[22.5458,52.4187],[22.5388,52.4294],[22.5448,52.4625],[22.5422,52.4673],[22.5282,52.4687],[22.5198,52.4733],[22.515,52.4818],[22.5114,52.4946],[22.5124,52.5034],[22.5167,52.5113],[22.5201,52.5195],[22.5176,52.5294],[22.5107,52.5353],[22.4886,52.5468],[22.4678,52.5643],[22.4119,52.6006],[22.415,52.6223],[22.4118,52.6597],[22.3997,52.695],[22.3935,52.7471],[22.3779,52.7941],[22.3199,52.7842],[22.2636,52.7671],[22.2324,52.7803],[22.2073,52.8017],[22.2231,52.8569],[22.1747,52.879],[22.1248,52.8464],[22.0489,52.8396],[21.9776,52.862],[21.9511,52.8912],[21.9374,52.9279],[21.9228,52.9528],[21.8983,52.968],[21.8602,52.9806],[21.8347,53.0082],[21.8305,53.0336],[21.8468,53.0516],[21.8009,53.073],[21.7459,53.0778],[21.6928,53.0953],[21.656,53.138],[21.6004,53.2221],[21.5753,53.337],[21.5592,53.3764],[21.5363,53.4088],[21.523,53.4435],[21.5957,53.4626],[21.7388,53.4576],[21.8016,53.4708],[21.8309,53.4846],[21.8626,53.4927],[21.9373,53.4993],[22.1099,53.5699],[22.207,53.6352],[22.4856,53.7379],[22.543,53.7739],[22.5779,53.8322],[22.6185,53.8782],[22.6221,53.9248],[22.516,54.0124],[22.4652,54.0417],[22.4546,54.0694],[22.4491,54.0992],[22.3481,54.1786],[22.4422,54.257],[22.6653,54.2753],[22.7317,54.3017],[22.7887,54.3366],[22.8139,54.385],[22.8113,54.3926],[22.8127,54.3941],[22.8376,54.4009]]]}},{"type":"Feature","properties":{"id":"POL-3140","name":"Pomeranian","nameBn":"পোমেরানিয়ান ভয়ভোডেশিপ","type":"Voivodeship|Province","bounds":[16.7852,53.4338,19.7583,54.8383],"center":[18.272,54.26]},"geometry":{"type":"Polygon","coordinates":[[[19.6095,54.4567],[19.6308,54.4467],[19.6803,54.4367],[19.7583,54.4343],[19.7542,54.433],[19.7432,54.4336],[19.745,54.4292],[19.7476,54.4183],[19.7494,54.4138],[19.7336,54.4119],[19.7259,54.402],[19.7205,54.391],[19.7118,54.3858],[19.6974,54.3846],[19.6839,54.3814],[19.6192,54.3535],[19.5798,54.3503],[19.5634,54.3463],[19.4856,54.3176],[19.4728,54.3157],[19.46,54.3109],[19.4347,54.2971],[19.4094,54.2729],[19.4031,54.2691],[19.3963,54.2632],[19.3785,54.2359],[19.3652,54.2282],[19.3658,54.2429],[19.3698,54.255],[19.3769,54.2639],[19.3863,54.2691],[19.3863,54.2766],[19.3629,54.2749],[19.2739,54.2816],[19.2497,54.2654],[19.2428,54.2313],[19.2648,54.1929],[19.2853,54.1716],[19.2958,54.1465],[19.2844,54.1282],[19.2688,54.112],[19.2252,54.0861],[19.2093,54.0721],[19.2119,54.0525],[19.2301,54.0095],[19.2636,53.9769],[19.3118,53.9601],[19.3632,53.9561],[19.3892,53.9352],[19.3698,53.8958],[19.4054,53.8855],[19.5044,53.8903],[19.5544,53.8822],[19.5504,53.866],[19.5504,53.8493],[19.5384,53.836],[19.5201,53.8251],[19.5044,53.7966],[19.4924,53.7856],[19.4904,53.7693],[19.4339,53.7546],[19.3532,53.7578],[19.3113,53.7421],[19.2759,53.7193],[19.1283,53.5559],[19.0741,53.5416],[18.9601,53.5375],[18.9056,53.5504],[18.8746,53.5623],[18.8088,53.6027],[18.7927,53.609],[18.7791,53.6186],[18.7594,53.6252],[18.6779,53.6321],[18.6203,53.6199],[18.583,53.6053],[18.4978,53.6354],[18.3179,53.6532],[18.2852,53.6717],[18.2557,53.6942],[18.2205,53.696],[18.0511,53.681],[17.9241,53.6956],[17.8971,53.6832],[17.8564,53.6388],[17.7877,53.6236],[17.7556,53.6058],[17.7501,53.5928],[17.746,53.5785],[17.7455,53.5573],[17.6832,53.5424],[17.5445,53.5639],[17.5076,53.5616],[17.4797,53.5386],[17.4554,53.5069],[17.4252,53.444],[17.3972,53.4338],[17.3528,53.4656],[17.2993,53.4831],[17.0957,53.4881],[17.0372,53.5093],[16.9958,53.5529],[16.9477,53.5882],[16.9303,53.6967],[16.972,53.722],[17.0018,53.7533],[16.9906,53.7744],[16.9734,53.7915],[16.9533,53.7971],[16.9522,53.8168],[17.0024,53.8308],[17.0577,53.8264],[17.0388,53.8502],[17.0157,53.8698],[16.9876,53.8846],[16.9498,53.9299],[16.9257,53.9469],[16.8831,53.965],[16.8828,54.02],[16.875,54.0751],[16.8113,54.1888],[16.9507,54.209],[16.9666,54.2234],[16.9628,54.2483],[16.9439,54.2637],[16.933,54.2782],[16.9402,54.296],[16.9666,54.3119],[16.9773,54.3388],[16.9701,54.3866],[16.9392,54.4234],[16.8568,54.4929],[16.7872,54.5746],[16.7853,54.5766],[16.7852,54.5767],[16.8596,54.5939],[16.9022,54.5981],[16.94,54.606],[17.0358,54.6671],[17.3374,54.749],[17.7157,54.7904],[17.8854,54.8241],[18.1524,54.8383],[18.3169,54.8383],[18.3395,54.8335],[18.3758,54.8151],[18.3892,54.8111],[18.4102,54.8083],[18.7517,54.6901],[18.814,54.6432],[18.8241,54.6322],[18.8343,54.6167],[18.8353,54.6031],[18.8176,54.5981],[18.8132,54.6015],[18.8084,54.6088],[18.8023,54.616],[18.784,54.6235],[18.7718,54.6423],[18.7554,54.6545],[18.7078,54.7012],[18.6985,54.7038],[18.6634,54.708],[18.6546,54.7101],[18.645,54.7195],[18.6167,54.7252],[18.557,54.749],[18.4982,54.7654],[18.4888,54.7732],[18.4563,54.7877],[18.4478,54.79],[18.4356,54.7868],[18.4292,54.7817],[18.4151,54.7531],[18.4131,54.7465],[18.4131,54.7319],[18.4185,54.7282],[18.4424,54.722],[18.4478,54.7182],[18.4598,54.706],[18.4745,54.6876],[18.4739,54.6799],[18.4701,54.6733],[18.4704,54.6667],[18.4819,54.6596],[18.4759,54.6401],[18.4873,54.6318],[18.5064,54.6341],[18.523,54.6466],[18.5171,54.63],[18.5252,54.6167],[18.5376,54.6055],[18.5628,54.56],[18.5706,54.5504],[18.5667,54.5274],[18.5676,54.4879],[18.5741,54.4504],[18.5881,54.4337],[18.6038,54.4306],[18.6343,54.4169],[18.6499,54.4138],[18.6633,54.413],[18.68,54.41],[18.6943,54.4045],[18.7005,54.3958],[18.7173,54.382],[18.8859,54.3502],[18.9232,54.3485],[18.9544,54.3586],[18.9629,54.3535],[18.9746,54.3498],[19.0021,54.3449],[19.3772,54.3776],[19.46,54.401],[19.4993,54.4064],[19.531,54.4149],[19.5925,54.4524],[19.6095,54.4567]]]}},{"type":"Feature","properties":{"id":"POL-3146","name":"Silesian","nameBn":"সিলেসিয়ান ভয়ভোডেশিপ","type":"Voivodeship|Province","bounds":[18.0191,49.3868,19.9656,51.0371],"center":[18.9924,50.1978]},"geometry":{"type":"Polygon","coordinates":[[[19.4489,49.6004],[19.4434,49.6018],[19.4376,49.6001],[19.4338,49.5952],[19.3471,49.533],[19.3395,49.5288],[19.3254,49.525],[19.315,49.524],[19.2842,49.5242],[19.265,49.5215],[19.2487,49.5163],[19.2341,49.5072],[19.2205,49.493],[19.2044,49.4605],[19.2062,49.4594],[19.2094,49.4564],[19.2114,49.4517],[19.209,49.445],[19.2045,49.4428],[19.1922,49.4426],[19.1894,49.4422],[19.1823,49.4227],[19.1797,49.4103],[19.1725,49.4023],[19.1417,49.3942],[19.1166,49.3909],[19.1063,49.3914],[19.0966,49.3946],[19.0768,49.4041],[19.0676,49.4061],[19.0458,49.4028],[19.0071,49.3881],[18.9818,49.3868],[18.9623,49.3892],[18.9567,49.4004],[18.9608,49.4333],[18.9583,49.4481],[18.9534,49.4617],[18.9524,49.4759],[18.9611,49.4928],[18.9322,49.5043],[18.8332,49.5103],[18.8374,49.527],[18.8345,49.5476],[18.8202,49.5903],[18.8157,49.5993],[18.8039,49.6168],[18.7993,49.6264],[18.7926,49.6608],[18.7884,49.6686],[18.7735,49.6758],[18.7579,49.6741],[18.7422,49.6697],[18.7277,49.6689],[18.7151,49.6738],[18.6954,49.6889],[18.6824,49.6958],[18.6681,49.6986],[18.6373,49.7003],[18.624,49.7064],[18.6177,49.7139],[18.6077,49.743],[18.5841,49.7744],[18.5668,49.8048],[18.5663,49.8316],[18.5938,49.8522],[18.5673,49.8615],[18.5629,49.8737],[18.5654,49.889],[18.5592,49.9072],[18.5444,49.913],[18.5051,49.8967],[18.4818,49.8966],[18.4075,49.9232],[18.3688,49.932],[18.3285,49.9288],[18.3307,49.9288],[18.3325,49.9283],[18.3338,49.9271],[18.3349,49.9254],[18.3069,49.9097],[18.2925,49.9078],[18.2726,49.9183],[18.267,49.9251],[18.2601,49.9406],[18.2559,49.946],[18.244,49.9517],[18.2205,49.9549],[18.2087,49.9583],[18.1772,49.9758],[18.162,49.9812],[18.0982,49.989],[18.0851,49.9988],[18.0916,50.0172],[18.0332,50.0418],[18.0191,50.0441],[18.0191,50.0442],[18.0205,50.0609],[18.08,50.1357],[18.2061,50.1526],[18.2661,50.1818],[18.3628,50.2109],[18.3736,50.24],[18.3744,50.2912],[18.3575,50.4195],[18.3666,50.4399],[18.3881,50.4426],[18.4101,50.4492],[18.412,50.4672],[18.4009,50.4848],[18.4141,50.5074],[18.4433,50.5118],[18.5887,50.511],[18.5774,50.5469],[18.5453,50.5688],[18.513,50.5847],[18.4864,50.6076],[18.467,50.6456],[18.4909,50.6864],[18.5087,50.7491],[18.5354,50.7848],[18.6136,50.8167],[18.6208,50.8522],[18.6074,50.8707],[18.6012,50.8934],[18.6086,50.9089],[18.6211,50.9183],[18.6556,50.9952],[18.7058,51.0107],[18.847,51.0137],[18.8797,51.0233],[18.9114,51.0371],[18.9466,51.0328],[18.9773,51.0131],[19.108,50.9685],[19.1728,50.96],[19.2526,50.9603],[19.287,50.9792],[19.3543,50.9714],[19.4146,50.9364],[19.5079,50.8423],[19.5417,50.8359],[19.6418,50.8393],[19.7506,50.8043],[19.8361,50.7937],[19.8486,50.7894],[19.8524,50.7782],[19.8526,50.7659],[19.8478,50.758],[19.7793,50.7509],[19.7417,50.7057],[19.7692,50.6849],[19.8445,50.6712],[19.879,50.6545],[19.9069,50.615],[19.9544,50.5781],[19.9143,50.5743],[19.8453,50.5373],[19.8253,50.5096],[19.8603,50.498],[19.9283,50.4914],[19.9563,50.4845],[19.9631,50.4628],[19.9656,50.4449],[19.8392,50.3943],[19.8076,50.3911],[19.7515,50.394],[19.6967,50.3885],[19.6081,50.3445],[19.5827,50.3408],[19.5571,50.3407],[19.5017,50.3611],[19.4748,50.3355],[19.447,50.2997],[19.4036,50.26],[19.3368,50.2662],[19.3053,50.2505],[19.3584,50.2165],[19.405,50.175],[19.1679,50.0039],[19.1459,49.9831],[19.1237,49.9537],[19.1124,49.9202],[19.1325,49.9032],[19.1591,49.9015],[19.1805,49.884],[19.1826,49.8506],[19.2125,49.816],[19.2635,49.8031],[19.2837,49.779],[19.2989,49.7483],[19.3314,49.7286],[19.3688,49.7176],[19.4364,49.7099],[19.433,49.6836],[19.4159,49.6612],[19.4074,49.6403],[19.4201,49.6223],[19.4437,49.612],[19.4489,49.6004]]]}},{"type":"Feature","properties":{"id":"POL-3152","name":"Subcarpathian","nameBn":"পোডকারপ্যাকি ভয়ভোডেশিপ","type":"Voivodeship|Province","bounds":[21.2101,48.994,23.6587,50.8298],"center":[22.4341,49.8555]},"geometry":{"type":"Polygon","coordinates":[[[21.6663,49.4018],[21.6588,49.4025],[21.6486,49.4071],[21.63,49.4189],[21.6199,49.4233],[21.6012,49.4265],[21.5296,49.4212],[21.5144,49.4172],[21.5143,49.4176],[21.513,49.4204],[21.4772,49.4868],[21.4588,49.5597],[21.4644,49.5944],[21.4609,49.6299],[21.4263,49.6997],[21.3662,49.7417],[21.2586,49.7715],[21.229,49.7891],[21.2463,49.8139],[21.3455,49.8635],[21.3322,49.8921],[21.2949,49.9051],[21.2662,49.9066],[21.2449,49.9231],[21.237,49.9367],[21.228,49.9482],[21.2288,49.9869],[21.237,50.0312],[21.2101,50.1821],[21.2162,50.2382],[21.2535,50.2795],[21.284,50.3267],[21.2953,50.4108],[21.2987,50.4116],[21.3601,50.4457],[21.3789,50.4404],[21.4043,50.4439],[21.4298,50.4535],[21.4489,50.4662],[21.439,50.4821],[21.4352,50.4867],[21.5308,50.514],[21.5949,50.5245],[21.6133,50.5345],[21.644,50.558],[21.6566,50.5736],[21.6618,50.5928],[21.6688,50.6085],[21.7163,50.6444],[21.745,50.6747],[21.7621,50.6826],[21.7884,50.6853],[21.8062,50.6914],[21.8215,50.7061],[21.8333,50.724],[21.8405,50.7399],[21.8486,50.7792],[21.8475,50.8162],[21.8443,50.8298],[21.9764,50.7728],[22.0513,50.7704],[22.1174,50.7998],[22.1568,50.8009],[22.1951,50.7917],[22.2305,50.7777],[22.2624,50.7599],[22.2485,50.7345],[22.203,50.6801],[22.2215,50.6596],[22.4547,50.622],[22.6121,50.5681],[22.6213,50.5589],[22.6203,50.5453],[22.6227,50.5315],[22.6464,50.5034],[22.6579,50.479],[22.6305,50.4689],[22.5995,50.4713],[22.5681,50.4646],[22.5434,50.4437],[22.5266,50.4229],[22.5339,50.3981],[22.5598,50.3725],[22.5949,50.3621],[22.7343,50.3797],[22.7611,50.3679],[22.7454,50.3621],[22.7114,50.3567],[22.7212,50.342],[22.8581,50.3171],[23.0828,50.3125],[23.1584,50.3227],[23.2231,50.3562],[23.3055,50.4158],[23.3318,50.4232],[23.3889,50.4267],[23.4626,50.4215],[23.5255,50.3957],[23.558,50.3647],[23.6581,50.3272],[23.6587,50.327],[23.658,50.3256],[23.6442,50.3127],[23.5653,50.2578],[23.5364,50.2428],[23.5363,50.2428],[23.5362,50.2428],[23.5361,50.2428],[23.4816,50.216],[23.4364,50.1935],[23.2079,50.0339],[23.1778,50.004],[23.1413,49.9855],[23.1015,49.9571],[22.993,49.8544],[22.9512,49.8266],[22.9459,49.8184],[22.9378,49.7982],[22.9331,49.7911],[22.9244,49.7854],[22.9067,49.7812],[22.898,49.7774],[22.8882,49.7697],[22.8266,49.6974],[22.8098,49.6863],[22.7988,49.6833],[22.7773,49.6805],[22.7662,49.6742],[22.759,49.6656],[22.7417,49.6337],[22.6658,49.5674],[22.6409,49.5288],[22.6601,49.493],[22.6669,49.4784],[22.6731,49.4358],[22.6768,49.4245],[22.6796,49.4189],[22.6926,49.4055],[22.7142,49.3906],[22.7198,49.383],[22.7242,49.3671],[22.7378,49.2754],[22.7339,49.2609],[22.7171,49.2304],[22.7029,49.195],[22.6871,49.1734],[22.6817,49.1612],[22.6878,49.1559],[22.6925,49.1579],[22.7057,49.1688],[22.7214,49.1616],[22.7202,49.1612],[22.7164,49.1606],[22.7488,49.1456],[22.7781,49.1203],[22.7965,49.1114],[22.8413,49.0949],[22.8534,49.0848],[22.8535,49.0763],[22.8444,49.0567],[22.8432,49.0431],[22.8475,49.0337],[22.8638,49.0154],[22.865,49.0132],[22.867,49.01],[22.8553,48.994],[22.835,48.9997],[22.8129,49.0129],[22.795,49.019],[22.784,49.0213],[22.7655,49.0384],[22.7553,49.0447],[22.7445,49.0455],[22.722,49.041],[22.6858,49.0428],[22.6644,49.0415],[22.6429,49.0432],[22.6183,49.0542],[22.5808,49.0814],[22.5607,49.0855],[22.5396,49.0722],[22.505,49.0834],[22.4268,49.0856],[22.3901,49.093],[22.3394,49.1265],[22.3182,49.132],[22.2629,49.1306],[22.2159,49.14],[22.2085,49.1442],[22.2062,49.1505],[22.209,49.1569],[22.2089,49.164],[22.198,49.172],[22.1897,49.173],[22.1657,49.1711],[22.1557,49.1715],[22.1441,49.1749],[22.1115,49.1886],[22.0408,49.1975],[22.0124,49.2111],[22.0058,49.2429],[21.9932,49.2782],[21.9645,49.3086],[21.9284,49.3308],[21.8746,49.3484],[21.8379,49.3704],[21.8196,49.3772],[21.7994,49.3748],[21.7822,49.3645],[21.768,49.3535],[21.7576,49.3489],[21.7422,49.3571],[21.7086,49.3909],[21.6917,49.4022],[21.6818,49.4041],[21.6663,49.4018]]]}},{"type":"Feature","properties":{"id":"POL-3139","name":"Warmian-Masurian","nameBn":"ওয়ারমিয়া-মাসুরিয়ান ভয়ভোডেশিপ","type":"Voivodeship|Province","bounds":[19.1283,53.0931,22.8139,54.4343],"center":[20.9711,53.8526]},"geometry":{"type":"Polygon","coordinates":[[[22.7672,54.3563],[22.786,54.3652],[22.8113,54.3926],[22.8139,54.385],[22.7887,54.3366],[22.7317,54.3017],[22.6653,54.2753],[22.4422,54.257],[22.3481,54.1786],[22.4491,54.0992],[22.4546,54.0694],[22.4652,54.0417],[22.516,54.0124],[22.6221,53.9248],[22.6185,53.8782],[22.5779,53.8322],[22.543,53.7739],[22.4856,53.7379],[22.207,53.6352],[22.1099,53.5699],[21.9373,53.4993],[21.8626,53.4927],[21.8309,53.4846],[21.8016,53.4708],[21.7388,53.4576],[21.5957,53.4626],[21.523,53.4435],[21.402,53.4379],[21.3774,53.4299],[21.3488,53.3961],[21.308,53.3788],[21.2626,53.3746],[21.1737,53.3796],[21.0979,53.3256],[21.0079,53.3084],[20.9123,53.3086],[20.8391,53.2834],[20.7756,53.2754],[20.704,53.2759],[20.6678,53.2583],[20.6346,53.2346],[20.4948,53.1861],[20.4582,53.1795],[20.4198,53.182],[20.3889,53.1675],[20.3719,53.1337],[20.346,53.1155],[20.3158,53.1063],[20.2406,53.098],[19.9248,53.1273],[19.916,53.1336],[19.9095,53.1424],[19.8939,53.1489],[19.8768,53.1511],[19.8371,53.1437],[19.8112,53.1129],[19.7824,53.0984],[19.7479,53.0931],[19.7329,53.1846],[19.6813,53.263],[19.6256,53.2864],[19.5115,53.3043],[19.4045,53.3429],[19.3278,53.358],[19.3089,53.3585],[19.2855,53.3645],[19.2699,53.378],[19.2396,53.4122],[19.2148,53.4552],[19.1283,53.5559],[19.2759,53.7193],[19.3113,53.7421],[19.3532,53.7578],[19.4339,53.7546],[19.4904,53.7693],[19.4924,53.7856],[19.5044,53.7966],[19.5201,53.8251],[19.5384,53.836],[19.5504,53.8493],[19.5504,53.866],[19.5544,53.8822],[19.5044,53.8903],[19.4054,53.8855],[19.3698,53.8958],[19.3892,53.9352],[19.3632,53.9561],[19.3118,53.9601],[19.2636,53.9769],[19.2301,54.0095],[19.2119,54.0525],[19.2093,54.0721],[19.2252,54.0861],[19.2688,54.112],[19.2844,54.1282],[19.2958,54.1465],[19.2853,54.1716],[19.2648,54.1929],[19.2428,54.2313],[19.2497,54.2654],[19.2739,54.2816],[19.3629,54.2749],[19.3863,54.2766],[19.3863,54.2691],[19.3769,54.2639],[19.3698,54.255],[19.3658,54.2429],[19.3652,54.2282],[19.3785,54.2359],[19.3963,54.2632],[19.4031,54.2691],[19.4094,54.2729],[19.4347,54.2971],[19.46,54.3109],[19.4728,54.3157],[19.4856,54.3176],[19.5634,54.3463],[19.5798,54.3503],[19.6192,54.3535],[19.6839,54.3814],[19.6974,54.3846],[19.7118,54.3858],[19.7205,54.391],[19.7259,54.402],[19.7336,54.4119],[19.7494,54.4138],[19.7476,54.4183],[19.745,54.4292],[19.7432,54.4336],[19.7542,54.433],[19.7583,54.4343],[19.9647,54.4278],[20.3521,54.4157],[20.6408,54.4068],[20.9296,54.3978],[21.2874,54.3868],[21.7208,54.3733],[21.9989,54.3647],[22.2771,54.3561],[22.5104,54.3488],[22.6984,54.3429],[22.7672,54.3563]]]}},{"type":"Feature","properties":{"id":"POL-3142","name":"West Pomeranian","nameBn":"পশ্চিম পেমারানিয়ান ভয়ভোডেশিপ","type":"Voivodeship|Province","bounds":[14.1239,52.5965,17.0577,54.5767],"center":[15.5906,53.5878]},"geometry":{"type":"Polygon","coordinates":[[[14.608,52.5965],[14.5499,52.6362],[14.4901,52.6506],[14.4614,52.6746],[14.4424,52.68],[14.4319,52.6861],[14.3977,52.7271],[14.3822,52.7382],[14.276,52.7857],[14.2487,52.7946],[14.216,52.818],[14.196,52.8234],[14.1737,52.8243],[14.1528,52.8283],[14.1354,52.8366],[14.1239,52.8507],[14.1505,52.8646],[14.1608,52.8767],[14.165,52.8957],[14.1627,52.9082],[14.1505,52.9436],[14.1445,52.9537],[14.1445,52.9599],[14.1929,52.9817],[14.2537,53.0009],[14.3126,53.0292],[14.3433,53.0486],[14.3568,53.0667],[14.3596,53.0751],[14.3895,53.1317],[14.3875,53.1461],[14.3815,53.1603],[14.3779,53.1765],[14.3807,53.1899],[14.3878,53.2021],[14.3977,53.211],[14.4082,53.2144],[14.4156,53.221],[14.4416,53.2518],[14.4286,53.2591],[14.4247,53.2647],[14.4094,53.2724],[14.4033,53.2788],[14.4002,53.2886],[14.3996,53.3067],[14.398,53.3152],[14.3913,53.334],[14.3703,53.3923],[14.3599,53.4441],[14.3389,53.4652],[14.3285,53.4861],[14.3042,53.5085],[14.2969,53.5291],[14.2962,53.5513],[14.2989,53.5879],[14.297,53.5978],[14.2761,53.6366],[14.261,53.6562],[14.2651,53.6718],[14.2639,53.6999],[14.2639,53.7],[14.2737,53.7006],[14.2917,53.7053],[14.3049,53.7126],[14.3062,53.7207],[14.2886,53.728],[14.2983,53.7314],[14.3016,53.7348],[14.2983,53.7383],[14.2886,53.7416],[14.2942,53.7491],[14.304,53.7439],[14.318,53.7397],[14.3304,53.7342],[14.3421,53.7149],[14.3562,53.7084],[14.3836,53.7006],[14.4036,53.6878],[14.4146,53.6824],[14.4587,53.6779],[14.5124,53.6664],[14.531,53.6578],[14.5462,53.6448],[14.5791,53.6072],[14.5906,53.5984],[14.5959,53.6013],[14.597,53.6173],[14.6016,53.6267],[14.61,53.6328],[14.6238,53.6392],[14.6231,53.643],[14.6228,53.647],[14.6238,53.6528],[14.613,53.6547],[14.5874,53.6561],[14.5759,53.6597],[14.5449,53.704],[14.5514,53.7261],[14.5759,53.7695],[14.5874,53.7635],[14.5973,53.7652],[14.6082,53.769],[14.6238,53.7695],[14.6167,53.7947],[14.6204,53.8148],[14.6273,53.8327],[14.6306,53.8515],[14.6238,53.8515],[14.6213,53.8395],[14.6135,53.8316],[14.5896,53.8173],[14.5959,53.8105],[14.5871,53.8126],[14.5801,53.8153],[14.5745,53.8191],[14.5691,53.8242],[14.5742,53.8271],[14.5833,53.8342],[14.5896,53.8378],[14.5759,53.8548],[14.5521,53.8628],[14.4412,53.8696],[14.4255,53.8798],[14.4382,53.8993],[14.4349,53.9013],[14.4341,53.9016],[14.4338,53.9024],[14.4319,53.9062],[14.422,53.8961],[14.4142,53.8947],[14.4058,53.8974],[14.3938,53.8993],[14.3851,53.8973],[14.3783,53.8923],[14.3716,53.8859],[14.363,53.8794],[14.3929,53.876],[14.4092,53.8716],[14.4177,53.8651],[14.4157,53.853],[14.4053,53.8442],[14.3926,53.8407],[14.3836,53.8447],[14.3562,53.8345],[14.3426,53.8319],[14.3283,53.831],[14.3283,53.8242],[14.3421,53.821],[14.3413,53.8189],[14.3283,53.8173],[14.3189,53.8182],[14.3031,53.8231],[14.2914,53.8242],[14.2747,53.8308],[14.2266,53.872],[14.2031,53.8783],[14.2008,53.8782],[14.1928,53.8938],[14.1753,53.9065],[14.1848,53.9081],[14.1931,53.9115],[14.2101,53.9385],[14.2266,53.934],[14.2375,53.9287],[14.2681,53.9218],[14.367,53.917],[14.4067,53.9218],[14.4456,53.934],[14.5173,53.9652],[14.7819,54.0346],[15.0101,54.0698],[15.2883,54.1389],[15.4685,54.1671],[15.6658,54.1984],[15.8597,54.25],[16.0208,54.2618],[16.1315,54.2835],[16.1189,54.276],[16.0693,54.263],[16.0911,54.254],[16.1792,54.263],[16.1792,54.2692],[16.1724,54.2692],[16.1724,54.2766],[16.2201,54.2766],[16.2196,54.2815],[16.2185,54.2824],[16.2166,54.282],[16.2132,54.2835],[16.2152,54.2996],[16.1921,54.3003],[16.1377,54.2903],[16.1721,54.3002],[16.2136,54.3161],[16.2754,54.3586],[16.2629,54.3437],[16.2405,54.33],[16.2318,54.3226],[16.2409,54.3245],[16.259,54.3267],[16.2749,54.3305],[16.2888,54.3402],[16.3239,54.3499],[16.3368,54.3586],[16.3249,54.3731],[16.305,54.3735],[16.2962,54.3673],[16.2816,54.3586],[16.324,54.4013],[16.4398,54.4883],[16.4398,54.4821],[16.4344,54.4724],[16.4445,54.4699],[16.4606,54.4735],[16.4734,54.4821],[16.4797,54.4956],[16.4739,54.4997],[16.4609,54.4965],[16.4461,54.4883],[16.4666,54.5122],[16.5013,54.5324],[16.5696,54.5572],[16.7785,54.5751],[16.7852,54.5767],[16.7853,54.5766],[16.7872,54.5746],[16.8568,54.4929],[16.9392,54.4234],[16.9701,54.3866],[16.9773,54.3388],[16.9666,54.3119],[16.9402,54.296],[16.933,54.2782],[16.9439,54.2637],[16.9628,54.2483],[16.9666,54.2234],[16.9507,54.209],[16.8113,54.1888],[16.875,54.0751],[16.8828,54.02],[16.8831,53.965],[16.9257,53.9469],[16.9498,53.9299],[16.9876,53.8846],[17.0157,53.8698],[17.0388,53.8502],[17.0577,53.8264],[17.0024,53.8308],[16.9522,53.8168],[16.9533,53.7971],[16.9734,53.7915],[16.9906,53.7744],[17.0018,53.7533],[16.972,53.722],[16.9303,53.6967],[16.9477,53.5882],[16.9103,53.5952],[16.8722,53.5946],[16.8365,53.5852],[16.8102,53.5579],[16.7908,53.525],[16.7653,53.4612],[16.7351,53.4577],[16.5511,53.4606],[16.5285,53.4415],[16.5296,53.4017],[16.5451,53.366],[16.6078,53.3296],[16.6833,53.318],[16.7204,53.3064],[16.7516,53.2824],[16.7579,53.2537],[16.7272,53.2309],[16.7036,53.2058],[16.6747,53.1893],[16.601,53.1755],[16.4562,53.1247],[16.3753,53.0482],[16.2788,52.9932],[16.2174,52.9787],[16.155,52.9736],[16.0938,52.9956],[16.0385,53.0067],[16.0567,53.0543],[16.0304,53.1032],[15.9801,53.1099],[15.9258,53.1053],[15.8733,53.0803],[15.7836,53.0112],[15.7331,52.9889],[15.527,52.9893],[15.3575,52.9542],[15.301,52.9523],[15.3208,52.9361],[15.3481,52.9333],[15.3101,52.8896],[15.2487,52.8465],[15.1958,52.842],[15.0298,52.8753],[14.9319,52.8426],[14.8683,52.7581],[14.7899,52.6911],[14.7394,52.6782],[14.6543,52.6699],[14.6324,52.6499],[14.608,52.5965]]]}},{"type":"Feature","properties":{"id":"POL-3147","name":"Łódź","nameBn":"লোজ ভয়ভোডেশিপ","type":"Voivodeship|Province","bounds":[18.0548,50.8043,20.6736,52.3347],"center":[19.3642,51.6355]},"geometry":{"type":"Polygon","coordinates":[[[19.2959,52.3342],[19.3923,52.2935],[19.4975,52.2799],[19.5489,52.2651],[19.6414,52.2192],[19.8492,52.2456],[19.881,52.2656],[19.9182,52.2677],[19.9454,52.2464],[19.9695,52.2207],[20.0009,52.2107],[20.0362,52.2043],[20.0638,52.1925],[20.0764,52.1669],[20.0799,52.1318],[20.1002,52.104],[20.1146,52.0992],[20.1301,52.1016],[20.1988,52.0845],[20.2379,52.0684],[20.2517,52.0577],[20.2413,52.0076],[20.2079,51.9955],[20.2162,51.9743],[20.2431,51.9553],[20.2669,51.9332],[20.2644,51.9144],[20.2731,51.8982],[20.3091,51.891],[20.4151,51.8985],[20.4816,51.8795],[20.554,51.8448],[20.6129,51.796],[20.6193,51.7796],[20.6105,51.7681],[20.6004,51.7589],[20.5952,51.7462],[20.6045,51.7177],[20.6583,51.6828],[20.6736,51.6574],[20.671,51.6335],[20.6581,51.6171],[20.5854,51.6234],[20.5255,51.6435],[20.4476,51.6435],[20.4216,51.5872],[20.4514,51.5428],[20.4612,51.512],[20.4649,51.4801],[20.4725,51.4639],[20.5094,51.4529],[20.5223,51.4437],[20.5222,51.4116],[20.5054,51.3841],[20.4414,51.3466],[20.4287,51.3194],[20.4321,51.2899],[20.4034,51.2766],[20.3666,51.2196],[20.3335,51.2101],[20.3002,51.2068],[20.2685,51.1971],[20.199,51.1556],[20.1669,51.1498],[20.0563,51.1595],[20.0251,51.1523],[20.0006,51.1321],[19.9758,51.0717],[20.0214,51.0281],[20.0523,51.0125],[20.0621,50.979],[20.0541,50.9463],[20.0315,50.9294],[19.8994,50.9905],[19.8639,50.9864],[19.8511,50.9542],[19.8504,50.9222],[19.8544,50.8907],[19.8374,50.8607],[19.8027,50.8459],[19.7738,50.829],[19.7506,50.8043],[19.6418,50.8393],[19.5417,50.8359],[19.5079,50.8423],[19.4146,50.9364],[19.3543,50.9714],[19.287,50.9792],[19.2526,50.9603],[19.1728,50.96],[19.108,50.9685],[18.9773,51.0131],[18.9466,51.0328],[18.9114,51.0371],[18.8797,51.0233],[18.847,51.0137],[18.7058,51.0107],[18.6556,50.9952],[18.5806,51.0334],[18.5573,51.0619],[18.5305,51.0826],[18.5186,51.0784],[18.5094,51.068],[18.4964,51.0608],[18.4257,51.0596],[18.202,51.0959],[18.1726,51.1108],[18.1501,51.1361],[18.1438,51.1828],[18.1336,51.2103],[18.0763,51.2424],[18.0576,51.2701],[18.0548,51.3025],[18.071,51.3247],[18.1441,51.3348],[18.1693,51.3597],[18.1859,51.3911],[18.2358,51.4005],[18.2903,51.3837],[18.3378,51.405],[18.3657,51.4526],[18.3641,51.5058],[18.3542,51.5606],[18.3591,51.6269],[18.3849,51.6879],[18.4314,51.7568],[18.4572,51.7787],[18.5145,51.7955],[18.6593,51.7857],[18.6706,51.7934],[18.7187,51.8459],[18.7227,51.8774],[18.7039,51.9096],[18.6926,51.9448],[18.6998,51.9789],[18.7135,52.0097],[18.7451,52.0114],[18.7797,52.0089],[18.8466,52.0187],[18.8973,52.0555],[18.9065,52.1181],[18.9169,52.1461],[19.0166,52.1723],[19.0786,52.2088],[19.0759,52.2185],[19.0611,52.2212],[19.0419,52.2462],[19.0402,52.2784],[19.0497,52.2861],[19.057,52.2955],[19.0744,52.3014],[19.1978,52.3029],[19.2357,52.3099],[19.2449,52.3212],[19.2573,52.3325],[19.2763,52.3347],[19.2959,52.3342]]]}},{"type":"Feature","properties":{"id":"POL-3149","name":"Świętokrzyskie","nameBn":"সুইটোকিজিস্কি ভয়ভোডেশিপ","type":"Voivodeship|Province","bounds":[19.7417,50.1744,21.8486,51.2899],"center":[20.7951,50.701]},"geometry":{"type":"Polygon","coordinates":[[[20.4321,51.2899],[20.4873,51.2775],[20.5169,51.2304],[20.6816,51.1669],[20.7048,51.1502],[20.726,51.129],[20.7517,51.1168],[20.8728,51.101],[21.0117,51.1149],[21.0447,51.1268],[21.0741,51.1525],[21.1055,51.1712],[21.1357,51.1647],[21.1441,51.1311],[21.174,51.1099],[21.1783,51.0932],[21.1847,51.078],[21.2531,51.05],[21.33,51.0458],[21.4956,51.0132],[21.8154,51.0551],[21.8194,51.0416],[21.8151,51.0357],[21.8074,51.0315],[21.7986,51.0288],[21.7915,51.0279],[21.7915,51.0211],[21.81,51.0124],[21.8131,50.9929],[21.8057,50.9497],[21.8046,50.9465],[21.802,50.9446],[21.7994,50.9417],[21.7983,50.9354],[21.8005,50.9297],[21.8051,50.9271],[21.8098,50.9253],[21.8119,50.9218],[21.8138,50.9124],[21.8392,50.8513],[21.8443,50.8298],[21.8475,50.8162],[21.8486,50.7792],[21.8405,50.7399],[21.8333,50.724],[21.8215,50.7061],[21.8062,50.6914],[21.7884,50.6853],[21.7621,50.6826],[21.745,50.6747],[21.7163,50.6444],[21.6688,50.6085],[21.6618,50.5928],[21.6566,50.5736],[21.644,50.558],[21.6133,50.5345],[21.5949,50.5245],[21.5308,50.514],[21.4352,50.4867],[21.439,50.4821],[21.4489,50.4662],[21.4298,50.4535],[21.4043,50.4439],[21.3789,50.4404],[21.3601,50.4457],[21.2987,50.4116],[21.2953,50.4108],[21.2809,50.4116],[21.277,50.4096],[21.2775,50.4052],[21.2787,50.4003],[21.2775,50.3973],[21.2663,50.392],[21.2595,50.3923],[21.2502,50.3973],[21.2448,50.3831],[21.2329,50.3763],[21.2214,50.3725],[21.2161,50.3672],[21.2149,50.3588],[21.2112,50.3569],[21.2059,50.3566],[21.1987,50.3532],[21.1813,50.3375],[21.1813,50.3358],[21.1636,50.3334],[21.1538,50.3389],[21.1449,50.3463],[21.1301,50.3501],[21.1202,50.3486],[21.079,50.3358],[21.0695,50.3309],[21.0602,50.3241],[21.0491,50.318],[21.0339,50.3154],[20.9597,50.3138],[20.9493,50.3113],[20.941,50.3066],[20.9312,50.2983],[20.9219,50.2949],[20.8946,50.2932],[20.8809,50.2874],[20.8654,50.2939],[20.8522,50.2885],[20.8387,50.2793],[20.8222,50.2744],[20.7839,50.2978],[20.7774,50.2916],[20.7711,50.2744],[20.75,50.2608],[20.7466,50.2595],[20.7377,50.2592],[20.7335,50.2573],[20.7301,50.2524],[20.7289,50.2418],[20.726,50.2365],[20.712,50.2278],[20.6797,50.2179],[20.6674,50.2055],[20.6635,50.1949],[20.6335,50.1744],[20.5021,50.1767],[20.4287,50.205],[20.4097,50.2306],[20.3644,50.2716],[20.3471,50.2949],[20.3303,50.3409],[20.2846,50.3986],[20.2076,50.4314],[20.1237,50.4483],[20.09,50.4709],[20.0507,50.4844],[19.9563,50.4845],[19.9283,50.4914],[19.8603,50.498],[19.8253,50.5096],[19.8453,50.5373],[19.9143,50.5743],[19.9544,50.5781],[19.9069,50.615],[19.879,50.6545],[19.8445,50.6712],[19.7692,50.6849],[19.7417,50.7057],[19.7793,50.7509],[19.8478,50.758],[19.8526,50.7659],[19.8524,50.7782],[19.8486,50.7894],[19.8361,50.7937],[19.7506,50.8043],[19.7738,50.829],[19.8027,50.8459],[19.8374,50.8607],[19.8544,50.8907],[19.8504,50.9222],[19.8511,50.9542],[19.8639,50.9864],[19.8994,50.9905],[20.0315,50.9294],[20.0541,50.9463],[20.0621,50.979],[20.0523,51.0125],[20.0214,51.0281],[19.9758,51.0717],[20.0006,51.1321],[20.0251,51.1523],[20.0563,51.1595],[20.1669,51.1498],[20.199,51.1556],[20.2685,51.1971],[20.3002,51.2068],[20.3335,51.2101],[20.3666,51.2196],[20.4034,51.2766],[20.4321,51.2899]]]}}]}