{"type":"FeatureCollection","features":[{"type":"Feature","properties":{"id":"PRK-3310","name":"Chagang-do","nameBn":"চ্যাগাং প্রদেশ","type":"Province","bounds":[125.4152,39.9911,127.3929,41.801],"center":[126.404,40.6548]},"geometry":{"type":"Polygon","coordinates":[[[126.9298,41.801],[126.9396,41.7937],[126.9407,41.7718],[126.9461,41.7662],[126.9586,41.7668],[126.9812,41.7633],[126.9996,41.752],[126.9964,41.7462],[126.9782,41.7207],[126.9628,41.694],[126.9561,41.6634],[126.957,41.6398],[126.9614,41.6176],[126.967,41.603],[126.9687,41.5959],[126.9684,41.5875],[126.9596,41.5725],[126.9441,41.5641],[126.9265,41.5577],[126.9115,41.5484],[126.9011,41.5347],[126.8945,41.5232],[126.8855,41.515],[126.8675,41.5117],[126.8387,41.5149],[126.8259,41.5127],[126.8146,41.502],[126.812,41.4894],[126.8147,41.4734],[126.8207,41.4581],[126.8277,41.4473],[126.846,41.4359],[126.8636,41.4362],[126.9,41.4488],[126.9089,41.4504],[126.9196,41.4506],[126.9291,41.4477],[126.9343,41.4396],[126.9323,41.4319],[126.919,41.421],[126.9158,41.4141],[126.9186,41.4076],[126.9369,41.3848],[126.944,41.3687],[126.9491,41.3518],[126.9558,41.3171],[126.9664,41.2975],[126.9999,41.2767],[127.0072,41.261],[127.0044,41.2513],[127.0001,41.245],[127.001,41.2385],[127.0133,41.2279],[127.0235,41.2171],[127.0279,41.2048],[127.0333,41.177],[127.0459,41.1577],[127.0645,41.145],[127.1222,41.1161],[127.1353,41.1128],[127.1657,41.1102],[127.2049,41.102],[127.2183,41.1033],[127.2388,41.1129],[127.2511,41.1261],[127.2611,41.1411],[127.2753,41.1558],[127.2977,41.1678],[127.3267,41.1757],[127.3556,41.1756],[127.3773,41.1637],[127.3861,41.145],[127.3911,41.1194],[127.3929,41.0927],[127.3917,41.0713],[127.3871,41.0341],[127.3728,41.01],[127.323,40.9679],[127.3065,40.9415],[127.2988,40.9055],[127.3039,40.8708],[127.3258,40.8487],[127.3639,40.8348],[127.3759,40.8229],[127.3772,40.8024],[127.3724,40.7892],[127.3645,40.7782],[127.3539,40.7697],[127.3415,40.7637],[127.2982,40.7534],[127.2204,40.7181],[127.1992,40.6951],[127.1843,40.6364],[127.1659,40.6137],[127.1535,40.609],[127.1092,40.6045],[127.0906,40.6003],[127.0759,40.5943],[127.0625,40.5859],[127.0473,40.5745],[127.0169,40.558],[126.9923,40.548],[126.9798,40.5311],[126.9861,40.4942],[126.9851,40.4661],[126.9669,40.4449],[126.9426,40.4252],[126.924,40.4015],[126.918,40.3848],[126.9136,40.3668],[126.9116,40.3485],[126.912,40.3347],[126.9109,40.3347],[126.8873,40.2949],[126.8723,40.2803],[126.8347,40.256],[126.827,40.2487],[126.8222,40.2431],[126.814,40.2205],[126.8075,40.2073],[126.8005,40.2006],[126.7927,40.1973],[126.7764,40.1962],[126.7618,40.1937],[126.7537,40.1913],[126.7454,40.1878],[126.7319,40.1799],[126.7221,40.1715],[126.7097,40.1587],[126.7013,40.1524],[126.6937,40.1484],[126.6714,40.1449],[126.6626,40.1425],[126.6534,40.1385],[126.5899,40.1037],[126.5785,40.0961],[126.5705,40.089],[126.5676,40.0837],[126.5654,40.0781],[126.5618,40.0588],[126.5596,40.051],[126.5537,40.0409],[126.5463,40.0358],[126.5389,40.0329],[126.5091,40.0314],[126.4976,40.0274],[126.4385,39.9953],[126.4259,39.9911],[126.4182,39.9914],[126.4105,39.9925],[126.4037,39.9945],[126.3601,40.0175],[126.3217,40.0315],[126.3019,40.0359],[126.2096,40.0445],[126.1885,40.0513],[126.1443,40.0736],[126.1301,40.0846],[126.0874,40.1268],[126.0214,40.174],[125.9945,40.2019],[125.9769,40.2162],[125.9689,40.2196],[125.9623,40.2204],[125.949,40.2196],[125.9357,40.2223],[125.9258,40.2272],[125.9138,40.2345],[125.9048,40.2375],[125.8964,40.2384],[125.8818,40.2382],[125.8674,40.2362],[125.8531,40.2311],[125.8394,40.2245],[125.8314,40.2224],[125.8217,40.2219],[125.807,40.2236],[125.7974,40.2268],[125.7896,40.2308],[125.7739,40.2423],[125.6572,40.3017],[125.625,40.3248],[125.6176,40.332],[125.6139,40.3383],[125.6151,40.3439],[125.6193,40.3489],[125.6244,40.3538],[125.6286,40.3589],[125.63,40.3643],[125.6286,40.3697],[125.6243,40.3748],[125.5825,40.4085],[125.5792,40.4134],[125.5771,40.4185],[125.5758,40.4238],[125.5761,40.4295],[125.5782,40.435],[125.5854,40.4461],[125.5876,40.4519],[125.5923,40.48],[125.5928,40.4813],[125.594,40.4839],[125.6054,40.498],[125.6083,40.5033],[125.6107,40.5087],[125.6122,40.5139],[125.6122,40.5196],[125.6101,40.5246],[125.6026,40.5375],[125.6012,40.5411],[125.5952,40.5638],[125.5909,40.5707],[125.5847,40.5741],[125.5772,40.5743],[125.5608,40.5708],[125.5522,40.5711],[125.5416,40.5741],[125.5347,40.5786],[125.5036,40.6094],[125.494,40.6166],[125.4856,40.6215],[125.4152,40.6527],[125.4189,40.6666],[125.4263,40.6712],[125.4437,40.6687],[125.453,40.6734],[125.4563,40.6797],[125.4569,40.6937],[125.4598,40.7013],[125.4691,40.7129],[125.4788,40.7188],[125.4916,40.7209],[125.5331,40.7218],[125.5465,40.7259],[125.5533,40.7371],[125.5554,40.7588],[125.5601,40.7783],[125.5717,40.7849],[125.5865,40.7819],[125.6003,40.7727],[125.6081,40.7642],[125.6099,40.7613],[125.6687,40.7622],[125.6826,40.7689],[125.6733,40.7841],[125.6448,40.8106],[125.6832,40.8479],[125.7041,40.8592],[125.7064,40.8605],[125.737,40.8652],[125.7459,40.8682],[125.7508,40.8748],[125.7547,40.8817],[125.7609,40.8857],[125.7708,40.8862],[125.7792,40.8846],[125.822,40.8698],[125.8317,40.8708],[125.8727,40.8927],[125.8852,40.8975],[125.9015,40.8993],[125.9123,40.8941],[125.924,40.8841],[125.9362,40.8774],[125.9496,40.8826],[125.9643,40.8913],[125.9951,40.8941],[126.0078,40.8993],[126.0153,40.9091],[126.01,40.9139],[125.9966,40.9149],[125.9806,40.9136],[125.992,40.9284],[126.0095,40.9327],[126.0286,40.9353],[126.0455,40.9447],[126.0658,40.9686],[126.072,40.9806],[126.0693,40.9894],[126.0756,40.9971],[126.0837,41.0025],[126.0934,41.0062],[126.1041,41.0092],[126.1013,41.0221],[126.1115,41.0324],[126.1264,41.0432],[126.1382,41.057],[126.1238,41.0755],[126.1474,41.0923],[126.2607,41.1431],[126.2748,41.1526],[126.2844,41.1641],[126.3095,41.2078],[126.321,41.2189],[126.3462,41.2377],[126.3573,41.2494],[126.3806,41.2908],[126.3915,41.3034],[126.4409,41.3484],[126.4725,41.3665],[126.5013,41.3661],[126.4982,41.3618],[126.4965,41.358],[126.4938,41.3548],[126.4877,41.3518],[126.4877,41.3444],[126.5221,41.3519],[126.5221,41.3776],[126.5083,41.4092],[126.5013,41.4344],[126.5076,41.4472],[126.5422,41.489],[126.5588,41.5342],[126.5773,41.5618],[126.5809,41.5752],[126.5773,41.5883],[126.5665,41.6019],[126.567,41.6142],[126.6021,41.6421],[126.6179,41.6659],[126.634,41.6686],[126.6693,41.6671],[126.6801,41.6719],[126.7122,41.6942],[126.728,41.7013],[126.7142,41.7099],[126.6996,41.7164],[126.6871,41.724],[126.6795,41.736],[126.6966,41.7412],[126.7125,41.7412],[126.7273,41.7369],[126.7415,41.7292],[126.7714,41.7045],[126.7886,41.6959],[126.7963,41.7049],[126.8089,41.7298],[126.8648,41.7473],[126.8775,41.7736],[126.8871,41.7849],[126.9085,41.7962],[126.9298,41.801]]]}},{"type":"Feature","properties":{"id":"PRK-3307","name":"Hamgyŏng-bukto","nameBn":"হামইয়ং-বুক্তো","type":"Province","bounds":[128.7049,40.5646,130.4522,43.0103],"center":[129.417,41.8666]},"geometry":{"type":"Polygon","coordinates":[[[129.9207,43.0103],[129.9341,43.0084],[129.9416,43.0036],[129.9717,42.9737],[129.9813,42.9667],[129.9957,42.9619],[130.0082,42.9606],[130.0473,42.9619],[130.0943,42.9769],[130.1215,42.9818],[130.1336,42.9727],[130.1305,42.9595],[130.1225,42.9433],[130.1116,42.9291],[130.0988,42.9215],[130.1404,42.9071],[130.1938,42.9082],[130.239,42.9022],[130.2565,42.8669],[130.2422,42.782],[130.243,42.7434],[130.2627,42.7086],[130.3171,42.6674],[130.3248,42.6503],[130.393,42.6062],[130.404,42.6041],[130.4127,42.6046],[130.4205,42.6043],[130.4277,42.5994],[130.43,42.5915],[130.4264,42.5721],[130.4312,42.5615],[130.4522,42.5496],[130.4486,42.5033],[130.433,42.4527],[130.3902,42.4371],[130.3163,42.4216],[130.2618,42.4177],[130.2579,42.3904],[130.2812,42.371],[130.2735,42.3321],[130.219,42.2815],[130.1917,42.2348],[130.2023,42.1736],[130.2043,42.1596],[130.1993,42.1013],[130.1939,42.101],[130.1853,42.1039],[130.1739,42.0988],[130.1602,42.0851],[130.1636,42.0835],[130.1666,42.0771],[130.1594,42.0728],[130.1501,42.0741],[130.1332,42.0847],[130.1201,42.0901],[130.0928,42.0898],[130.073,42.0785],[130.068,42.0594],[130.067,42.0519],[130.0522,42.0504],[130.0497,42.0423],[130.0449,42.036],[130.0365,42.0116],[130.0339,41.9955],[130.0268,41.9927],[130.0149,42.0144],[130.0029,42.0109],[130.0013,41.9905],[129.9822,41.9827],[129.989,41.9782],[129.9942,41.973],[130.0027,41.9622],[129.9929,41.9598],[129.9856,41.9553],[129.9749,41.9416],[129.9783,41.9438],[129.9757,41.934],[129.971,41.9221],[129.9686,41.9175],[129.9647,41.8987],[129.9544,41.892],[129.9468,41.8949],[129.9374,41.9039],[129.9136,41.9112],[129.8967,41.9043],[129.8904,41.883],[129.8834,41.8574],[129.8845,41.8242],[129.8697,41.7915],[129.8552,41.7818],[129.8525,41.7649],[129.8428,41.7588],[129.8265,41.7784],[129.8133,41.7777],[129.7748,41.7594],[129.7628,41.731],[129.7498,41.6963],[129.7414,41.684],[129.715,41.6753],[129.6908,41.6497],[129.6832,41.6177],[129.6694,41.576],[129.6488,41.5494],[129.6607,41.5259],[129.6577,41.5092],[129.6527,41.4941],[129.6594,41.4646],[129.6817,41.4431],[129.7017,41.4287],[129.7146,41.4196],[129.7361,41.4213],[129.7442,41.407],[129.7582,41.3926],[129.7693,41.3862],[129.7756,41.3855],[129.7911,41.3878],[129.7966,41.3862],[129.8062,41.376],[129.8052,41.3728],[129.7999,41.3686],[129.7966,41.3555],[129.7947,41.3523],[129.7869,41.3301],[129.7861,41.3248],[129.7704,41.3151],[129.7591,41.2929],[129.7196,41.1669],[129.7119,41.1226],[129.7283,41.0851],[129.722,41.0718],[129.7198,41.0562],[129.7208,41.0237],[129.7283,40.9787],[129.7325,40.9689],[129.7508,40.9517],[129.7649,40.9444],[129.7556,40.939],[129.7492,40.917],[129.753,40.9099],[129.7343,40.8911],[129.7373,40.8715],[129.7252,40.8478],[129.7166,40.8346],[129.7061,40.8357],[129.6984,40.8456],[129.6846,40.8418],[129.6629,40.8388],[129.6439,40.8416],[129.6262,40.8383],[129.6098,40.8409],[129.598,40.8385],[129.5718,40.8397],[129.5539,40.8289],[129.5511,40.8101],[129.532,40.8073],[129.5181,40.7955],[129.5062,40.7921],[129.4765,40.7939],[129.427,40.7813],[129.3892,40.7608],[129.3517,40.7453],[129.3398,40.7344],[129.3278,40.7181],[129.3112,40.6875],[129.3032,40.6737],[129.2962,40.6763],[129.2866,40.6836],[129.2779,40.698],[129.2701,40.708],[129.2532,40.7091],[129.2335,40.7057],[129.2177,40.6964],[129.2124,40.686],[129.2064,40.6755],[129.2064,40.6701],[129.207,40.6636],[129.2017,40.6562],[129.2004,40.6508],[129.1978,40.638],[129.1934,40.6326],[129.1905,40.6225],[129.187,40.6165],[129.1792,40.6096],[129.1746,40.6037],[129.1737,40.5935],[129.1726,40.5689],[129.1612,40.5655],[129.1606,40.5646],[129.1082,40.5674],[129.0897,40.5712],[129.0734,40.5789],[129.0622,40.5922],[129.0596,40.6101],[129.0631,40.6244],[129.0622,40.638],[129.047,40.6539],[129.0071,40.6783],[128.9882,40.6931],[128.9759,40.7111],[128.9728,40.724],[128.9719,40.7495],[128.9696,40.762],[128.964,40.7726],[128.9557,40.7826],[128.9373,40.8],[128.9245,40.8154],[128.9178,40.8313],[128.9199,40.8468],[128.933,40.8611],[128.9392,40.8749],[128.9306,40.8909],[128.9191,40.9078],[128.9169,40.924],[128.9269,40.9408],[128.9495,40.9697],[128.9556,40.9882],[128.9551,41.0152],[128.9478,41.0407],[128.9233,41.0883],[128.9367,41.1152],[128.9263,41.1417],[128.9099,41.1688],[128.9054,41.1978],[128.9129,41.2116],[128.9347,41.2382],[128.9386,41.254],[128.933,41.2692],[128.9212,41.2806],[128.907,41.2905],[128.8944,41.3011],[128.8513,41.3553],[128.8353,41.3867],[128.8284,41.4203],[128.8394,41.4527],[128.8658,41.4731],[128.8951,41.4913],[128.9147,41.5172],[128.9136,41.545],[128.8978,41.5738],[128.8735,41.5979],[128.8468,41.6115],[128.7942,41.6154],[128.7807,41.6214],[128.7757,41.633],[128.7837,41.6426],[128.7954,41.6528],[128.8021,41.6662],[128.7998,41.678],[128.785,41.6967],[128.7795,41.7078],[128.7772,41.7214],[128.7767,41.7557],[128.7782,41.7693],[128.7842,41.7955],[128.7832,41.8065],[128.7754,41.815],[128.7662,41.8156],[128.7421,41.8095],[128.7337,41.8108],[128.7294,41.8177],[128.7281,41.8265],[128.7276,41.8438],[128.7256,41.853],[128.7227,41.8614],[128.7104,41.8879],[128.7079,41.8974],[128.7049,41.919],[128.7187,41.9222],[128.7446,41.9141],[128.7586,41.9148],[128.7685,41.921],[128.7756,41.9298],[128.7875,41.9494],[128.8059,41.9651],[128.8503,41.9852],[128.8685,42.0],[128.8806,42.0217],[128.8832,42.0304],[128.9035,42.0263],[128.9401,42.0354],[128.9548,42.0752],[128.9638,42.0885],[128.985,42.0929],[129.0089,42.0951],[129.0266,42.1019],[129.0533,42.1229],[129.0635,42.1361],[129.0647,42.1538],[129.0885,42.1432],[129.1055,42.1421],[129.1198,42.1494],[129.148,42.1737],[129.1777,42.1934],[129.1964,42.2092],[129.2042,42.2143],[129.2112,42.22],[129.2143,42.2257],[129.2093,42.2347],[129.1869,42.236],[129.1808,42.2431],[129.1834,42.2546],[129.1921,42.2599],[129.2029,42.2627],[129.2112,42.267],[129.2148,42.2756],[129.2142,42.2837],[129.2161,42.2911],[129.228,42.2977],[129.2207,42.3037],[129.2124,42.3078],[129.2037,42.3102],[129.1939,42.3108],[129.1939,42.3182],[129.2261,42.3181],[129.2363,42.3239],[129.2423,42.3387],[129.2403,42.344],[129.2342,42.3466],[129.2286,42.3502],[129.228,42.3592],[129.2311,42.3676],[129.2361,42.3744],[129.2431,42.3787],[129.2966,42.3872],[129.3038,42.3896],[129.3071,42.4076],[129.3154,42.4223],[129.3265,42.4268],[129.3379,42.4144],[129.3521,42.4206],[129.3438,42.4292],[129.3386,42.4384],[129.3401,42.4455],[129.3521,42.448],[129.3631,42.445],[129.3721,42.4326],[129.3862,42.4281],[129.3954,42.4302],[129.4062,42.436],[129.4188,42.4411],[129.4341,42.4411],[129.4825,42.4107],[129.4889,42.4026],[129.5171,42.391],[129.5234,42.3834],[129.5268,42.3731],[129.5352,42.3696],[129.5453,42.3713],[129.5542,42.3769],[129.5595,42.387],[129.5603,42.3968],[129.5632,42.4041],[129.5877,42.4114],[129.5945,42.4222],[129.5956,42.4356],[129.5917,42.448],[129.6335,42.4454],[129.6712,42.4379],[129.7033,42.4424],[129.7289,42.4759],[129.7336,42.5118],[129.7314,42.5509],[129.7365,42.5852],[129.7631,42.6062],[129.7631,42.6124],[129.7462,42.6155],[129.7416,42.629],[129.7511,42.6429],[129.7767,42.6472],[129.7723,42.6617],[129.7794,42.6704],[129.7876,42.6769],[129.7865,42.6847],[129.7745,42.6933],[129.7644,42.6969],[129.7576,42.7036],[129.7556,42.7223],[129.7573,42.7347],[129.7613,42.746],[129.7735,42.767],[129.7895,42.7925],[129.795,42.8065],[129.799,42.8367],[129.8342,42.9075],[129.8415,42.9178],[129.8467,42.9282],[129.8476,42.9513],[129.8517,42.9619],[129.8631,42.969],[129.8933,42.9715],[129.907,42.9761],[129.8977,42.9787],[129.8901,42.9828],[129.8841,42.9885],[129.8798,42.996],[129.8907,42.9994],[129.9092,43.0084],[129.9207,43.0103]]]}},{"type":"Feature","properties":{"id":"PRK-3311","name":"Hamgyŏng-namdo","nameBn":"দক্ষিন হ্যামইয়ং প্রদেশ","type":"Province","bounds":[126.6726,39.2044,129.1606,41.1736],"center":[127.922,40.234]},"geometry":{"type":"Polygon","coordinates":[[[129.1606,40.5646],[129.1553,40.5566],[129.1509,40.5459],[129.1151,40.5112],[129.0776,40.4726],[129.0301,40.474],[128.9758,40.4599],[128.8998,40.3982],[128.8605,40.3718],[128.8305,40.3674],[128.8136,40.355],[128.781,40.347],[128.764,40.3465],[128.752,40.3351],[128.7216,40.3389],[128.6878,40.3312],[128.6697,40.3108],[128.6567,40.3108],[128.6553,40.3202],[128.6365,40.3132],[128.6189,40.2973],[128.6164,40.2714],[128.6288,40.266],[128.6567,40.2571],[128.6606,40.2477],[128.6678,40.2403],[128.6626,40.2254],[128.6646,40.2012],[128.6509,40.1971],[128.6418,40.1907],[128.6347,40.1842],[128.6289,40.1803],[128.6217,40.1808],[128.6081,40.1857],[128.5886,40.1867],[128.5776,40.1802],[128.5432,40.1668],[128.5361,40.1514],[128.5277,40.1434],[128.5102,40.1355],[128.4798,40.1347],[128.4663,40.1244],[128.4486,40.1095],[128.4349,40.104],[128.4114,40.0964],[128.3918,40.0996],[128.3648,40.0969],[128.3378,40.067],[128.3278,40.0282],[128.3021,40.0334],[128.2801,40.0655],[128.2634,40.0771],[128.2363,40.0679],[128.2278,40.0562],[128.2344,40.0294],[128.2251,40.0276],[128.2032,40.0296],[128.1934,40.0294],[128.1824,40.0261],[128.1643,40.018],[128.1551,40.0163],[128.1468,40.0183],[128.1436,40.0229],[128.1394,40.0273],[128.0068,40.0452],[128.0023,40.0405],[128.001,40.0259],[127.9978,40.0204],[127.9898,40.0148],[127.9798,40.0106],[127.9706,40.0089],[127.9637,40.0041],[127.9473,39.9816],[127.94,39.9748],[127.9303,39.9719],[127.9067,39.9839],[127.891,39.9612],[127.8913,39.9438],[127.884,39.9021],[127.8746,39.8928],[127.7818,39.8854],[127.7964,39.8756],[127.794,39.8657],[127.7624,39.8535],[127.7274,39.8572],[127.6958,39.8482],[127.6796,39.8164],[127.6633,39.8068],[127.6487,39.8209],[127.6237,39.8309],[127.6072,39.8102],[127.593,39.8062],[127.576,39.7963],[127.5619,39.784],[127.5494,39.7611],[127.5208,39.747],[127.5144,39.7386],[127.5125,39.7311],[127.5038,39.7155],[127.5013,39.7072],[127.5017,39.6985],[127.5064,39.6838],[127.5086,39.6601],[127.5122,39.6495],[127.5186,39.6448],[127.5281,39.6458],[127.5527,39.6368],[127.5703,39.6179],[127.5746,39.595],[127.5368,39.552],[127.5204,39.5105],[127.5354,39.4438],[127.563,39.3437],[127.5621,39.3162],[127.5545,39.306],[127.5435,39.3019],[127.5318,39.3051],[127.5218,39.3162],[127.5206,39.3294],[127.5269,39.3442],[127.5422,39.3715],[127.5076,39.4092],[127.504,39.4228],[127.4951,39.4334],[127.4829,39.437],[127.47,39.4298],[127.4404,39.4079],[127.4381,39.4052],[127.4244,39.4098],[127.4177,39.4106],[127.411,39.4106],[127.4032,39.4094],[127.3782,39.4105],[127.33,39.4053],[127.2804,39.4125],[127.2474,39.4139],[127.1969,39.4077],[127.1604,39.4125],[127.153,39.4122],[127.1461,39.4108],[127.1387,39.408],[127.1307,39.4036],[127.1213,39.3968],[127.1145,39.391],[127.1095,39.3834],[127.1062,39.375],[127.101,39.3434],[127.0942,39.3222],[127.0932,39.3152],[127.0923,39.3023],[127.0904,39.2955],[127.0858,39.2888],[127.0752,39.2818],[127.0666,39.2785],[127.0371,39.2718],[127.0317,39.2664],[127.0291,39.258],[127.0324,39.2421],[127.0393,39.2252],[127.0394,39.2191],[127.0375,39.2123],[127.0252,39.2044],[127.0038,39.2133],[126.9993,39.2146],[126.9938,39.2154],[126.9793,39.2158],[126.9508,39.2114],[126.9436,39.2114],[126.9364,39.2127],[126.9294,39.2155],[126.9245,39.2201],[126.9232,39.2258],[126.9254,39.2334],[126.9301,39.2454],[126.931,39.252],[126.9301,39.2599],[126.926,39.2702],[126.9212,39.2771],[126.9151,39.2821],[126.9089,39.2848],[126.9018,39.2864],[126.8942,39.287],[126.8867,39.2866],[126.8794,39.2849],[126.8728,39.2816],[126.862,39.2725],[126.8562,39.2698],[126.8505,39.2701],[126.8461,39.2738],[126.8436,39.2789],[126.8401,39.2899],[126.8379,39.295],[126.835,39.3001],[126.8307,39.3049],[126.8258,39.3086],[126.8211,39.3111],[126.8181,39.3123],[126.8138,39.3134],[126.8103,39.314],[126.7963,39.3145],[126.7888,39.3134],[126.7819,39.3117],[126.7491,39.2992],[126.7437,39.2982],[126.7373,39.2978],[126.7299,39.2985],[126.7226,39.3006],[126.7156,39.304],[126.7091,39.3091],[126.7041,39.3143],[126.7001,39.32],[126.6976,39.3254],[126.6977,39.3373],[126.7008,39.3544],[126.7217,39.42],[126.7367,39.4508],[126.7382,39.4571],[126.7379,39.4645],[126.7336,39.475],[126.728,39.4816],[126.7214,39.4869],[126.7144,39.4909],[126.6897,39.5086],[126.6793,39.5186],[126.6754,39.524],[126.6728,39.5293],[126.6726,39.5374],[126.6748,39.5477],[126.6837,39.566],[126.6909,39.5753],[126.6983,39.5822],[126.7048,39.5863],[126.71,39.5922],[126.7132,39.5997],[126.7137,39.611],[126.7128,39.6186],[126.7106,39.625],[126.7029,39.6408],[126.7023,39.6475],[126.7041,39.6549],[126.7113,39.6651],[126.75,39.6974],[126.7527,39.7018],[126.7537,39.707],[126.7515,39.7137],[126.7482,39.7164],[126.7425,39.7178],[126.7353,39.7186],[126.728,39.72],[126.7223,39.7228],[126.7193,39.7287],[126.7212,39.7369],[126.7347,39.758],[126.7515,39.7769],[126.7547,39.7821],[126.7577,39.7879],[126.7714,39.8244],[126.7763,39.8332],[126.7822,39.8399],[126.7883,39.8441],[126.7949,39.8477],[126.802,39.8509],[126.8155,39.8549],[126.871,39.8657],[126.9353,39.8657],[126.9507,39.8633],[126.9639,39.8594],[126.9697,39.8567],[126.9758,39.8525],[126.9805,39.8475],[126.9935,39.8309],[126.9982,39.8273],[127.0021,39.8262],[127.0083,39.8261],[127.0147,39.8285],[127.0208,39.832],[127.0294,39.8405],[127.0353,39.8438],[127.0427,39.8453],[127.0827,39.8479],[127.0891,39.8503],[127.095,39.854],[127.0997,39.8588],[127.1032,39.8636],[127.1091,39.8735],[127.1114,39.8793],[127.1129,39.8859],[127.1114,39.896],[127.1072,39.9054],[127.0774,39.9471],[127.0731,39.956],[127.061,39.9955],[127.0582,40.0085],[127.0578,40.014],[127.0585,40.0196],[127.0628,40.0241],[127.0691,40.0263],[127.0765,40.0278],[127.0824,40.0301],[127.0857,40.0352],[127.0853,40.0421],[127.083,40.0523],[127.083,40.0597],[127.0852,40.0656],[127.0892,40.0699],[127.0933,40.073],[127.1622,40.1155],[127.1724,40.1254],[127.1757,40.1305],[127.1777,40.136],[127.1782,40.1419],[127.1779,40.148],[127.1727,40.1551],[127.1631,40.1627],[127.1259,40.1807],[127.116,40.1872],[127.1104,40.197],[127.1063,40.2113],[127.1021,40.2397],[127.1022,40.2409],[127.1047,40.2473],[127.1104,40.2579],[127.1123,40.2633],[127.1129,40.2685],[127.112,40.2735],[127.1098,40.2788],[127.1047,40.2848],[127.0569,40.3207],[127.0484,40.3255],[127.035,40.3305],[127.0165,40.3349],[127.003,40.3366],[126.912,40.3347],[126.9116,40.3485],[126.9136,40.3668],[126.918,40.3848],[126.924,40.4015],[126.9426,40.4252],[126.9669,40.4449],[126.9851,40.4661],[126.9861,40.4942],[126.9798,40.5311],[126.9923,40.548],[127.0169,40.558],[127.0473,40.5745],[127.0625,40.5859],[127.0759,40.5943],[127.0906,40.6003],[127.1092,40.6045],[127.1535,40.609],[127.1659,40.6137],[127.1843,40.6364],[127.1992,40.6951],[127.2204,40.7181],[127.2982,40.7534],[127.3415,40.7637],[127.3539,40.7697],[127.3645,40.7782],[127.3724,40.7892],[127.3772,40.8024],[127.3759,40.8229],[127.3639,40.8348],[127.3258,40.8487],[127.3039,40.8708],[127.2988,40.9055],[127.3065,40.9415],[127.323,40.9679],[127.3728,41.01],[127.3871,41.0341],[127.3917,41.0713],[127.4329,41.0642],[127.4745,41.062],[127.4941,41.0671],[127.5052,41.0791],[127.5112,41.0961],[127.5155,41.1158],[127.5317,41.1455],[127.5579,41.1536],[127.6253,41.1427],[127.6615,41.1292],[127.6746,41.1048],[127.6735,41.0723],[127.6669,41.0343],[127.6625,41.0201],[127.6548,41.0089],[127.6435,41.0012],[127.6289,40.9972],[127.599,40.9954],[127.5854,40.9898],[127.5899,40.978],[127.6147,40.9479],[127.6178,40.9222],[127.6011,40.8993],[127.5393,40.8622],[127.5256,40.8518],[127.5174,40.8406],[127.5195,40.8281],[127.533,40.8232],[127.5506,40.8194],[127.5646,40.8097],[127.5703,40.7969],[127.5758,40.7701],[127.5809,40.7578],[127.6215,40.7031],[127.6322,40.6916],[127.6432,40.6859],[127.6547,40.6813],[127.6667,40.6733],[127.6756,40.6587],[127.6821,40.6219],[127.6877,40.6059],[127.6955,40.5962],[127.7044,40.5902],[127.7148,40.5869],[127.7273,40.5851],[127.7592,40.5843],[127.7716,40.58],[127.7652,40.5692],[127.7547,40.5577],[127.7546,40.5478],[127.7587,40.537],[127.7611,40.5226],[127.7585,40.5091],[127.7525,40.5008],[127.7337,40.4845],[127.7257,40.4724],[127.7225,40.4604],[127.7215,40.4332],[127.7229,40.4142],[127.7292,40.4041],[127.741,40.4016],[127.7586,40.4055],[127.8231,40.4337],[127.9143,40.4892],[127.9274,40.5024],[127.9361,40.5178],[127.9419,40.5334],[127.9488,40.547],[127.9584,40.5582],[127.9726,40.567],[128.0505,40.5882],[128.0658,40.5891],[128.0804,40.5865],[128.0927,40.579],[128.1184,40.5597],[128.147,40.5494],[128.1757,40.5521],[128.2016,40.5721],[128.2413,40.6186],[128.2565,40.6319],[128.3034,40.6626],[128.3152,40.6753],[128.3201,40.6871],[128.3255,40.7255],[128.3313,40.7375],[128.3468,40.7578],[128.3535,40.7694],[128.3592,40.7869],[128.3622,40.8041],[128.3649,40.8398],[128.3686,40.8574],[128.3811,40.8913],[128.3837,40.9077],[128.3764,40.9343],[128.3636,40.9654],[128.3587,40.9924],[128.375,41.0068],[128.4071,41.0079],[128.4435,41.0059],[128.4789,41.0072],[128.5077,41.0183],[128.52,41.0308],[128.5383,41.0589],[128.5495,41.0716],[128.5661,41.0797],[128.6072,41.0908],[128.6196,41.1014],[128.6235,41.1138],[128.6266,41.1307],[128.628,41.1476],[128.627,41.16],[128.6302,41.1723],[128.6454,41.1736],[128.6873,41.1635],[128.6986,41.1637],[128.7232,41.1693],[128.7384,41.1703],[128.7532,41.1672],[128.8578,41.1307],[128.8956,41.1129],[128.9233,41.0883],[128.9478,41.0407],[128.9551,41.0152],[128.9556,40.9882],[128.9495,40.9697],[128.9269,40.9408],[128.9169,40.924],[128.9191,40.9078],[128.9306,40.8909],[128.9392,40.8749],[128.933,40.8611],[128.9199,40.8468],[128.9178,40.8313],[128.9245,40.8154],[128.9373,40.8],[128.9557,40.7826],[128.964,40.7726],[128.9696,40.762],[128.9719,40.7495],[128.9728,40.724],[128.9759,40.7111],[128.9882,40.6931],[129.0071,40.6783],[129.047,40.6539],[129.0622,40.638],[129.0631,40.6244],[129.0596,40.6101],[129.0622,40.5922],[129.0734,40.5789],[129.0897,40.5712],[129.1082,40.5674],[129.1606,40.5646]]]}},{"type":"Feature","properties":{"id":"PRK-3303","name":"Hwanghae-bukto","nameBn":"নর্থ হোয়াংঘে প্রদেশ","type":"Province","bounds":[125.5739,37.7744,127.0192,39.1676],"center":[126.297,38.5962]},"geometry":{"type":"Polygon","coordinates":[[[126.9401,38.1742],[126.9198,38.1346],[126.9033,38.1196],[126.8648,38.096],[126.8473,38.082],[126.7619,37.979],[126.7221,37.9539],[126.6963,37.9462],[126.6778,37.9446],[126.6658,37.9376],[126.6605,37.9138],[126.6675,37.8278],[126.667,37.8276],[126.6558,37.8145],[126.6516,37.7993],[126.6421,37.798],[126.6208,37.7877],[126.5933,37.7744],[126.5762,37.7775],[126.4366,37.8484],[126.4285,37.8542],[126.4043,37.8872],[126.4016,37.889],[126.4017,37.8891],[126.4076,37.8975],[126.4096,37.9017],[126.411,37.9076],[126.4095,37.9128],[126.4034,37.9182],[126.3973,37.9219],[126.3924,37.9283],[126.3909,37.9382],[126.3947,37.97],[126.3971,37.9772],[126.3997,37.9816],[126.4014,37.9875],[126.4008,37.9956],[126.3939,38.0067],[126.39,38.0227],[126.398,38.039],[126.3868,38.0605],[126.3899,38.0861],[126.3868,38.0936],[126.3817,38.0977],[126.3753,38.1042],[126.3748,38.1115],[126.3783,38.1231],[126.3835,38.1294],[126.3962,38.1363],[126.4017,38.1403],[126.4065,38.1446],[126.4113,38.1475],[126.4158,38.1468],[126.4184,38.1437],[126.4237,38.1293],[126.4263,38.1245],[126.4302,38.1207],[126.4331,38.1194],[126.4376,38.1216],[126.4392,38.1272],[126.4394,38.1371],[126.4363,38.1443],[126.429,38.1551],[126.4216,38.1704],[126.4151,38.1801],[126.4058,38.19],[126.4002,38.1945],[126.3943,38.1984],[126.3882,38.2011],[126.3368,38.2185],[126.3081,38.2313],[126.2851,38.2386],[126.2721,38.2408],[126.2498,38.2403],[126.2062,38.233],[126.201,38.2311],[126.1951,38.2282],[126.1638,38.2079],[126.1576,38.2046],[126.1514,38.2034],[126.1449,38.2041],[126.1325,38.207],[126.1261,38.207],[126.1198,38.2053],[126.1137,38.2024],[126.1084,38.1982],[126.0986,38.1884],[126.0901,38.1852],[126.0793,38.1839],[126.0477,38.1899],[126.0382,38.1901],[126.0317,38.188],[126.0074,38.1775],[125.9703,38.1701],[125.962,38.1696],[125.9519,38.1702],[125.9363,38.1726],[125.9276,38.1766],[125.9218,38.1813],[125.919,38.1862],[125.9169,38.1912],[125.9079,38.2302],[125.9042,38.2399],[125.8985,38.2457],[125.8708,38.264],[125.8633,38.2713],[125.858,38.2781],[125.8572,38.2831],[125.8552,38.2881],[125.8429,38.3005],[125.8379,38.3106],[125.833,38.3165],[125.827,38.3186],[125.8211,38.318],[125.8159,38.3157],[125.8107,38.3127],[125.8051,38.3109],[125.7826,38.3145],[125.7748,38.314],[125.7585,38.3091],[125.7439,38.3108],[125.7414,38.3143],[125.7433,38.3179],[125.7478,38.3213],[125.7501,38.3237],[125.7512,38.3273],[125.7495,38.3321],[125.7435,38.3374],[125.7311,38.3462],[125.7109,38.3543],[125.704,38.3601],[125.704,38.3635],[125.7118,38.3675],[125.7166,38.3712],[125.7208,38.3757],[125.7237,38.3806],[125.7252,38.3848],[125.7239,38.3887],[125.7221,38.3918],[125.7043,38.4096],[125.7018,38.4127],[125.6999,38.4163],[125.6984,38.4207],[125.6965,38.4303],[125.6961,38.4463],[125.6965,38.4517],[125.6977,38.4571],[125.7,38.4623],[125.7011,38.4675],[125.7003,38.4725],[125.6924,38.4859],[125.6838,38.4972],[125.6809,38.5057],[125.6768,38.5139],[125.6685,38.5242],[125.6649,38.531],[125.6633,38.5374],[125.6646,38.5584],[125.6643,38.5638],[125.6625,38.5692],[125.6572,38.5795],[125.6559,38.5846],[125.6555,38.6119],[125.6524,38.6244],[125.6472,38.6286],[125.6578,38.631],[125.6485,38.6385],[125.6368,38.654],[125.6306,38.6589],[125.6301,38.659],[125.6176,38.6884],[125.6157,38.7142],[125.6138,38.7217],[125.6101,38.7273],[125.5918,38.7418],[125.5806,38.7532],[125.5761,38.7613],[125.5739,38.7675],[125.5751,38.7805],[125.6046,38.7887],[125.6768,38.8262],[125.7092,38.8388],[125.7358,38.8412],[125.8014,38.8384],[125.8168,38.8354],[125.9177,38.7943],[125.9234,38.7908],[125.9287,38.7867],[125.9329,38.7821],[125.9353,38.7771],[125.9363,38.772],[125.9351,38.7561],[125.9376,38.7507],[125.943,38.7457],[125.9815,38.7315],[125.9984,38.7228],[126.0379,38.7091],[126.0636,38.7047],[126.0784,38.7058],[126.0995,38.7094],[126.1078,38.7122],[126.1149,38.7159],[126.1202,38.7204],[126.1376,38.7404],[126.1427,38.7452],[126.1509,38.7501],[126.1616,38.754],[126.2004,38.7622],[126.2063,38.7647],[126.212,38.7687],[126.2156,38.7734],[126.2182,38.7783],[126.2192,38.7834],[126.2186,38.8161],[126.2177,38.8212],[126.2164,38.8259],[126.2142,38.8308],[126.2112,38.8356],[126.1753,38.8769],[126.1719,38.8797],[126.1665,38.883],[126.1424,38.8931],[126.1304,38.8994],[126.1251,38.9038],[126.1212,38.9085],[126.1183,38.9134],[126.1165,38.9185],[126.1154,38.9235],[126.1151,38.9288],[126.118,38.9493],[126.1193,38.9544],[126.1214,38.9603],[126.126,38.9665],[126.1346,38.974],[126.14,38.9756],[126.1469,38.9704],[126.1551,38.9696],[126.1662,38.9743],[126.1732,38.9807],[126.182,38.984],[126.1867,38.9894],[126.1948,38.99],[126.2001,38.9884],[126.2312,38.9847],[126.2363,38.9832],[126.2427,38.9763],[126.2541,38.9685],[126.2576,38.965],[126.2702,38.9592],[126.2887,38.9545],[126.2959,38.9575],[126.3025,38.9576],[126.3226,38.9547],[126.3293,38.953],[126.3609,38.9418],[126.3674,38.9383],[126.3734,38.9358],[126.3784,38.9342],[126.3873,38.9305],[126.4577,38.912],[126.4692,38.9112],[126.4853,38.9119],[126.4915,38.916],[126.4962,38.9204],[126.4986,38.9247],[126.4996,38.9282],[126.5001,38.9315],[126.5001,38.9354],[126.4992,38.9423],[126.497,38.951],[126.4927,38.9607],[126.4861,38.9704],[126.485,38.977],[126.4873,38.9846],[126.4992,38.9967],[126.5073,39.0009],[126.5148,39.0023],[126.5217,39.0004],[126.5714,38.9752],[126.5841,38.9737],[126.6015,38.9735],[126.6379,38.9766],[126.6521,38.9809],[126.6596,38.9858],[126.6585,38.9908],[126.6565,38.9951],[126.6529,39.0004],[126.6451,39.0074],[126.6361,39.0176],[126.6324,39.0232],[126.6295,39.0284],[126.6234,39.0444],[126.6203,39.0494],[126.616,39.0543],[126.5927,39.0725],[126.5885,39.0776],[126.5854,39.0828],[126.5806,39.0934],[126.577,39.099],[126.5637,39.1148],[126.5609,39.1199],[126.559,39.1255],[126.5579,39.1312],[126.5581,39.1387],[126.5606,39.1472],[126.5673,39.1597],[126.5769,39.1665],[126.585,39.1676],[126.5922,39.164],[126.6075,39.1482],[126.6134,39.1437],[126.6202,39.1402],[126.6278,39.1374],[126.6354,39.1357],[126.6516,39.1353],[126.6664,39.1369],[126.7142,39.1468],[126.7219,39.1468],[126.7299,39.1458],[126.7375,39.1434],[126.7491,39.1381],[126.7642,39.1277],[126.771,39.1243],[126.7778,39.1222],[126.8097,39.1179],[126.8242,39.113],[126.8391,39.1065],[126.8907,39.0731],[126.9043,39.0662],[126.9258,39.0635],[126.9817,39.0691],[126.9862,39.0323],[126.9933,39.0164],[127.0032,39.0053],[127.0092,39.0003],[127.0106,38.9987],[127.0147,38.9919],[127.017,38.9872],[127.0185,38.9824],[127.0192,38.9774],[127.018,38.9704],[127.0154,38.9619],[127.0086,38.948],[127.0002,38.9352],[126.9834,38.9184],[126.9777,38.9142],[126.9716,38.9111],[126.9654,38.9089],[126.9592,38.9078],[126.9119,38.9052],[126.9059,38.9039],[126.8998,38.9016],[126.8935,38.8981],[126.8876,38.8939],[126.8819,38.8892],[126.8776,38.8844],[126.8741,38.8792],[126.8726,38.8713],[126.8725,38.8613],[126.8751,38.8425],[126.8754,38.8161],[126.8725,38.7961],[126.8698,38.7855],[126.8669,38.7773],[126.8524,38.7566],[126.8184,38.7168],[126.8001,38.6857],[126.7911,38.6758],[126.7852,38.6711],[126.7726,38.6631],[126.7599,38.6575],[126.7007,38.643],[126.6943,38.6403],[126.6884,38.6369],[126.6834,38.6323],[126.6801,38.6273],[126.6781,38.6192],[126.6779,38.6176],[126.6835,38.6087],[126.7049,38.5835],[126.7088,38.5772],[126.7117,38.5697],[126.7129,38.5578],[126.7114,38.5504],[126.7094,38.5442],[126.7069,38.5391],[126.7033,38.5285],[126.7008,38.5183],[126.7004,38.5133],[126.7014,38.4983],[126.7069,38.4788],[126.7144,38.4662],[126.7812,38.3745],[126.7849,38.3679],[126.7859,38.361],[126.7893,38.3552],[126.7964,38.3496],[126.8026,38.3471],[126.8104,38.3453],[126.819,38.3424],[126.8279,38.3379],[126.8397,38.3291],[126.8477,38.3275],[126.8532,38.3282],[126.8639,38.3353],[126.8689,38.3375],[126.8745,38.339],[126.8806,38.3392],[126.8843,38.3348],[126.8851,38.3279],[126.8787,38.3132],[126.8729,38.3061],[126.8689,38.2992],[126.8676,38.2938],[126.8706,38.2865],[126.8731,38.2826],[126.881,38.2738],[126.8822,38.2685],[126.8815,38.2618],[126.8756,38.2513],[126.8706,38.2399],[126.8734,38.2263],[126.8902,38.2076],[126.8962,38.2047],[126.8964,38.2046],[126.9052,38.2013],[126.9218,38.1993],[126.9255,38.1955],[126.9286,38.1912],[126.931,38.1866],[126.9399,38.1745],[126.9401,38.1742]]]}},{"type":"Feature","properties":{"id":"PRK-3304","name":"Hwanghae-namdo","nameBn":"দক্ষিন হয়াংহে প্রদেশ","type":"Province","bounds":[124.6672,37.6756,126.4394,38.7073],"center":[125.279,37.7337]},"geometry":{"type":"MultiPolygon","coordinates":[[[[126.4016,37.889],[126.3977,37.8918],[126.3787,37.8896],[126.358,37.8843],[126.2796,37.8513],[126.2595,37.8454],[126.2369,37.8433],[126.2,37.8442],[126.1785,37.8405],[126.1582,37.8297],[126.1492,37.8222],[126.1477,37.819],[126.1497,37.8153],[126.1528,37.7997],[126.1597,37.7789],[126.1654,37.7683],[126.1643,37.7546],[126.1612,37.7407],[126.1582,37.7335],[126.1104,37.7409],[126.0969,37.7814],[126.0869,37.8004],[126.0721,37.7993],[126.0628,37.8022],[126.0586,37.8247],[126.0558,37.8706],[126.0261,37.8537],[126.0128,37.8543],[126.0073,37.8743],[126.0007,37.8856],[125.9859,37.8984],[125.9698,37.9087],[125.9595,37.9122],[125.9441,37.9019],[125.9505,37.8894],[125.9646,37.8786],[125.9725,37.8743],[125.9745,37.8642],[125.9837,37.8371],[125.9862,37.8228],[125.9779,37.8293],[125.9671,37.8354],[125.9559,37.8403],[125.9459,37.8433],[125.9334,37.8446],[125.927,37.844],[125.9216,37.8449],[125.9116,37.8508],[125.8955,37.8648],[125.8455,37.9265],[125.8411,37.9363],[125.835,37.9435],[125.8113,37.9476],[125.8052,37.9516],[125.8025,37.9589],[125.8018,37.9702],[125.804,37.989],[125.7993,37.9929],[125.7842,37.9941],[125.7738,37.9961],[125.7564,38.0051],[125.7466,38.0078],[125.7052,38.0093],[125.6873,38.0123],[125.6473,38.0273],[125.6222,38.0319],[125.5969,38.0322],[125.5789,38.0251],[125.5782,38.009],[125.5965,37.9923],[125.6214,37.979],[125.6407,37.9736],[125.6754,37.9776],[125.6853,37.9721],[125.6783,37.9525],[125.6888,37.956],[125.699,37.9582],[125.7088,37.9574],[125.7193,37.9525],[125.7075,37.9398],[125.6988,37.9252],[125.7175,37.9253],[125.7252,37.9275],[125.7329,37.9327],[125.7398,37.9252],[125.7278,37.9159],[125.7153,37.9083],[125.7015,37.9025],[125.6851,37.8986],[125.669,37.8992],[125.6571,37.9058],[125.6455,37.9155],[125.6306,37.9252],[125.6275,37.9022],[125.6368,37.8786],[125.6412,37.8564],[125.6231,37.8371],[125.6378,37.8253],[125.6441,37.8228],[125.6401,37.8134],[125.6336,37.8096],[125.6135,37.8091],[125.6092,37.8063],[125.6111,37.7998],[125.617,37.7887],[125.6204,37.7741],[125.6201,37.7653],[125.6135,37.7614],[125.6028,37.7618],[125.593,37.7636],[125.584,37.7675],[125.5752,37.7744],[125.5794,37.7767],[125.5801,37.7777],[125.5804,37.7788],[125.5828,37.7819],[125.5706,37.7871],[125.5596,37.7877],[125.5516,37.7827],[125.5486,37.7713],[125.5418,37.7705],[125.5289,37.7725],[125.5205,37.7802],[125.5276,37.7961],[125.5035,37.7788],[125.491,37.7541],[125.4746,37.7312],[125.4387,37.7198],[125.4037,37.7191],[125.3853,37.7164],[125.3773,37.7101],[125.3727,37.6935],[125.3616,37.6801],[125.3475,37.6756],[125.3351,37.6863],[125.3486,37.738],[125.3638,37.7609],[125.3904,37.7545],[125.4449,37.7744],[125.4295,37.7816],[125.3951,37.7764],[125.3773,37.7819],[125.3899,37.7961],[125.411,37.8094],[125.4349,37.819],[125.4558,37.8228],[125.5051,37.8132],[125.5242,37.8178],[125.5276,37.8433],[125.5108,37.8377],[125.4973,37.8397],[125.4867,37.8471],[125.4791,37.8576],[125.5086,37.8837],[125.5101,37.8943],[125.4832,37.8986],[125.4639,37.9041],[125.4551,37.9146],[125.4456,37.9204],[125.4244,37.9122],[125.4275,37.9084],[125.43,37.902],[125.4319,37.8986],[125.4063,37.8986],[125.3945,37.8967],[125.3836,37.8918],[125.4028,37.8856],[125.428,37.8745],[125.4463,37.86],[125.4449,37.8433],[125.4263,37.856],[125.3997,37.8655],[125.3718,37.8691],[125.3494,37.8644],[125.354,37.857],[125.3604,37.8511],[125.368,37.8466],[125.3773,37.8433],[125.346,37.8226],[125.3267,37.813],[125.3084,37.8091],[125.3091,37.8111],[125.3081,37.8155],[125.3054,37.8202],[125.301,37.8228],[125.2395,37.8228],[125.2517,37.8378],[125.2949,37.8598],[125.3084,37.8781],[125.3006,37.8952],[125.2571,37.9146],[125.26,37.9327],[125.2401,37.9296],[125.2285,37.9152],[125.2196,37.8967],[125.2085,37.8812],[125.1931,37.8718],[125.1766,37.8676],[125.1582,37.8676],[125.1004,37.8751],[125.0894,37.8781],[125.0621,37.8961],[125.0515,37.8986],[125.0294,37.9001],[125.0132,37.906],[125.0066,37.9184],[125.0135,37.9395],[124.989,37.9274],[124.9795,37.9252],[124.9837,37.9423],[124.9922,37.9529],[125.0055,37.9584],[125.0242,37.96],[125.0366,37.9636],[125.062,37.9786],[125.0757,37.9805],[125.0896,37.9758],[125.116,37.9627],[125.1338,37.96],[125.1499,37.9608],[125.1638,37.9638],[125.1754,37.9699],[125.1849,37.9805],[125.1775,37.9879],[125.1665,37.9813],[125.1553,37.98],[125.1443,37.9835],[125.1233,37.9984],[125.1185,37.9995],[125.1153,38.0024],[125.1097,38.0153],[125.1067,38.0346],[125.1162,38.0419],[125.1576,38.0425],[125.2017,38.0494],[125.2132,38.0457],[125.2173,38.0372],[125.2196,38.0278],[125.2252,38.0214],[125.2463,38.0201],[125.2532,38.0539],[125.2737,38.0624],[125.2649,38.0779],[125.2483,38.0838],[125.2085,38.0835],[125.1904,38.0858],[125.1559,38.0955],[125.1406,38.0978],[125.1245,38.0951],[125.0757,38.0761],[125.0274,38.069],[125.0135,38.0624],[124.9378,38.0978],[124.9049,38.1248],[124.8853,38.1317],[124.8765,38.114],[124.8655,38.1071],[124.8401,38.102],[124.7938,38.0978],[124.6771,38.1154],[124.6672,38.1257],[124.6736,38.1372],[124.6978,38.145],[124.7451,38.1479],[124.7651,38.1561],[124.7733,38.176],[124.78,38.1786],[124.8218,38.1859],[124.8291,38.1938],[124.8455,38.2184],[124.856,38.227],[124.8792,38.2307],[124.8953,38.2215],[124.9209,38.1894],[124.931,38.1929],[124.993,38.227],[124.9676,38.2353],[124.915,38.2291],[124.8866,38.2446],[124.8723,38.2576],[124.8701,38.2654],[124.8696,38.2821],[124.8797,38.3452],[124.8839,38.3553],[124.928,38.4091],[124.9351,38.4206],[124.9473,38.4505],[124.959,38.4609],[124.9666,38.4634],[124.9722,38.4621],[124.9749,38.4551],[124.9727,38.4404],[124.9852,38.4514],[125.002,38.4736],[125.0164,38.498],[125.021,38.5149],[125.0147,38.525],[124.9968,38.5359],[124.993,38.5459],[124.9949,38.5577],[124.9971,38.5661],[124.9957,38.574],[124.9809,38.5842],[124.9839,38.5919],[124.9977,38.5925],[125.0177,38.5835],[125.0292,38.5895],[125.0376,38.5913],[125.043,38.5817],[125.0582,38.5685],[125.0797,38.584],[125.1028,38.5935],[125.128,38.5803],[125.1345,38.5913],[125.134,38.61],[125.1372,38.6247],[125.1261,38.6332],[125.1184,38.6452],[125.1165,38.6572],[125.1234,38.6663],[125.1376,38.6623],[125.1482,38.6461],[125.1566,38.6317],[125.1796,38.6347],[125.1835,38.6424],[125.1782,38.6568],[125.1798,38.67],[125.189,38.667],[125.1935,38.6574],[125.2035,38.6526],[125.2204,38.6561],[125.2357,38.6578],[125.2596,38.6697],[125.2673,38.6703],[125.278,38.6631],[125.301,38.6568],[125.3113,38.665],[125.3198,38.6686],[125.3306,38.6787],[125.346,38.6871],[125.3691,38.6948],[125.3972,38.6937],[125.4067,38.6929],[125.4297,38.6875],[125.4419,38.6862],[125.4444,38.6895],[125.4461,38.6967],[125.451,38.704],[125.4627,38.7073],[125.5071,38.6862],[125.5118,38.6767],[125.5147,38.6579],[125.5208,38.6527],[125.5327,38.6541],[125.5379,38.6636],[125.5408,38.6743],[125.5452,38.6794],[125.5552,38.6767],[125.565,38.6701],[125.5724,38.6623],[125.5752,38.6557],[125.5859,38.6419],[125.6104,38.6311],[125.638,38.6264],[125.6472,38.6286],[125.6524,38.6244],[125.6555,38.6119],[125.6559,38.5846],[125.6572,38.5795],[125.6625,38.5692],[125.6643,38.5638],[125.6646,38.5584],[125.6633,38.5374],[125.6649,38.531],[125.6685,38.5242],[125.6768,38.5139],[125.6809,38.5057],[125.6838,38.4972],[125.6924,38.4859],[125.7003,38.4725],[125.7011,38.4675],[125.7,38.4623],[125.6977,38.4571],[125.6965,38.4517],[125.6961,38.4463],[125.6965,38.4303],[125.6984,38.4207],[125.6999,38.4163],[125.7018,38.4127],[125.7043,38.4096],[125.7221,38.3918],[125.7239,38.3887],[125.7252,38.3848],[125.7237,38.3806],[125.7208,38.3757],[125.7166,38.3712],[125.7118,38.3675],[125.704,38.3635],[125.704,38.3601],[125.7109,38.3543],[125.7311,38.3462],[125.7435,38.3374],[125.7495,38.3321],[125.7512,38.3273],[125.7501,38.3237],[125.7478,38.3213],[125.7433,38.3179],[125.7414,38.3143],[125.7439,38.3108],[125.7585,38.3091],[125.7748,38.314],[125.7826,38.3145],[125.8051,38.3109],[125.8107,38.3127],[125.8159,38.3157],[125.8211,38.318],[125.827,38.3186],[125.833,38.3165],[125.8379,38.3106],[125.8429,38.3005],[125.8552,38.2881],[125.8572,38.2831],[125.858,38.2781],[125.8633,38.2713],[125.8708,38.264],[125.8985,38.2457],[125.9042,38.2399],[125.9079,38.2302],[125.9169,38.1912],[125.919,38.1862],[125.9218,38.1813],[125.9276,38.1766],[125.9363,38.1726],[125.9519,38.1702],[125.962,38.1696],[125.9703,38.1701],[126.0074,38.1775],[126.0317,38.188],[126.0382,38.1901],[126.0477,38.1899],[126.0793,38.1839],[126.0901,38.1852],[126.0986,38.1884],[126.1084,38.1982],[126.1137,38.2024],[126.1198,38.2053],[126.1261,38.207],[126.1325,38.207],[126.1449,38.2041],[126.1514,38.2034],[126.1576,38.2046],[126.1638,38.2079],[126.1951,38.2282],[126.201,38.2311],[126.2062,38.233],[126.2498,38.2403],[126.2721,38.2408],[126.2851,38.2386],[126.3081,38.2313],[126.3368,38.2185],[126.3882,38.2011],[126.3943,38.1984],[126.4002,38.1945],[126.4058,38.19],[126.4151,38.1801],[126.4216,38.1704],[126.429,38.1551],[126.4363,38.1443],[126.4394,38.1371],[126.4392,38.1272],[126.4376,38.1216],[126.4331,38.1194],[126.4302,38.1207],[126.4263,38.1245],[126.4237,38.1293],[126.4184,38.1437],[126.4158,38.1468],[126.4113,38.1475],[126.4065,38.1446],[126.4017,38.1403],[126.3962,38.1363],[126.3835,38.1294],[126.3783,38.1231],[126.3748,38.1115],[126.3753,38.1042],[126.3817,38.0977],[126.3868,38.0936],[126.3899,38.0861],[126.3868,38.0605],[126.398,38.039],[126.39,38.0227],[126.3939,38.0067],[126.4008,37.9956],[126.4014,37.9875],[126.3997,37.9816],[126.3971,37.9772],[126.3947,37.97],[126.3909,37.9382],[126.3924,37.9283],[126.3973,37.9219],[126.4034,37.9182],[126.4095,37.9128],[126.411,37.9076],[126.4096,37.9017],[126.4076,37.8975],[126.4017,37.8891],[126.4016,37.889]]],[[[124.8835,38.5286],[124.9004,38.5053],[124.904,38.4944],[124.8611,38.5039],[124.8408,38.5107],[124.822,38.5224],[124.7995,38.5085],[124.7903,38.5174],[124.7944,38.5339],[124.8322,38.553],[124.8442,38.5552],[124.8494,38.5459],[124.8657,38.5415],[124.8772,38.5363],[124.8835,38.5286]]],[[[125.3288,37.7667],[125.3377,37.7687],[125.3128,37.7414],[125.2957,37.7276],[125.2694,37.7141],[125.261,37.7074],[125.2468,37.6999],[125.2263,37.6964],[125.2206,37.7038],[125.2502,37.7317],[125.2643,37.7372],[125.2746,37.7338],[125.2771,37.7405],[125.2795,37.7494],[125.2848,37.7495],[125.2874,37.7507],[125.2887,37.7536],[125.2927,37.7554],[125.2993,37.7562],[125.3288,37.7667]]],[[[125.1477,37.7856],[125.1428,37.7941],[125.1414,37.7995],[125.1465,37.8022],[125.1662,37.8137],[125.1838,37.8188],[125.1885,37.8191],[125.1914,37.8155],[125.1929,37.8111],[125.1903,37.809],[125.1851,37.8082],[125.1717,37.7972],[125.1563,37.7867],[125.1477,37.7856]]],[[[125.0304,37.8362],[125.0408,37.8345],[125.0446,37.8246],[125.0418,37.8173],[125.0396,37.8176],[125.0364,37.8175],[125.0256,37.8083],[125.0159,37.8056],[125.0051,37.8056],[124.9977,37.8084],[124.9978,37.8131],[125.0026,37.8154],[125.0068,37.8193],[125.012,37.8218],[125.0191,37.8203],[125.0254,37.8179],[125.0285,37.8188],[125.0295,37.823],[125.0301,37.8251],[125.0278,37.83],[125.0304,37.8362]]]]}},{"type":"Feature","properties":{"id":"PRK-3308","name":"Kangwŏn-do","nameBn":"কাংওন প্রদেশ","type":"Province","bounds":[126.6779,38.1742,128.3649,39.4139],"center":[127.521,38.7273]},"geometry":{"type":"Polygon","coordinates":[[[128.3649,38.6243],[128.3084,38.6013],[128.2811,38.5844],[128.2748,38.5715],[128.277,38.5541],[128.2854,38.5198],[128.2811,38.4844],[128.2681,38.4535],[128.2487,38.4258],[128.2256,38.3998],[128.1724,38.356],[128.1085,38.3235],[128.0399,38.3043],[127.9718,38.3],[127.8669,38.3048],[127.8008,38.2939],[127.787,38.2967],[127.7747,38.3064],[127.7619,38.321],[127.7537,38.3254],[127.5608,38.3121],[127.5021,38.2981],[127.4719,38.2959],[127.3771,38.3185],[127.2538,38.31],[127.222,38.3127],[127.1575,38.3072],[127.0905,38.2859],[127.0267,38.2545],[126.9719,38.2189],[126.9661,38.213],[126.9537,38.2007],[126.9401,38.1742],[126.9399,38.1745],[126.931,38.1866],[126.9286,38.1912],[126.9255,38.1955],[126.9218,38.1993],[126.9052,38.2013],[126.8964,38.2046],[126.8962,38.2047],[126.8902,38.2076],[126.8734,38.2263],[126.8706,38.2399],[126.8756,38.2513],[126.8815,38.2618],[126.8822,38.2685],[126.881,38.2738],[126.8731,38.2826],[126.8706,38.2865],[126.8676,38.2938],[126.8689,38.2992],[126.8729,38.3061],[126.8787,38.3132],[126.8851,38.3279],[126.8843,38.3348],[126.8806,38.3392],[126.8745,38.339],[126.8689,38.3375],[126.8639,38.3353],[126.8532,38.3282],[126.8477,38.3275],[126.8397,38.3291],[126.8279,38.3379],[126.819,38.3424],[126.8104,38.3453],[126.8026,38.3471],[126.7964,38.3496],[126.7893,38.3552],[126.7859,38.361],[126.7849,38.3679],[126.7812,38.3745],[126.7144,38.4662],[126.7069,38.4788],[126.7014,38.4983],[126.7004,38.5133],[126.7008,38.5183],[126.7033,38.5285],[126.7069,38.5391],[126.7094,38.5442],[126.7114,38.5504],[126.7129,38.5578],[126.7117,38.5697],[126.7088,38.5772],[126.7049,38.5835],[126.6835,38.6087],[126.6779,38.6176],[126.6781,38.6192],[126.6801,38.6273],[126.6834,38.6323],[126.6884,38.6369],[126.6943,38.6403],[126.7007,38.643],[126.7599,38.6575],[126.7726,38.6631],[126.7852,38.6711],[126.7911,38.6758],[126.8001,38.6857],[126.8184,38.7168],[126.8524,38.7566],[126.8669,38.7773],[126.8698,38.7855],[126.8725,38.7961],[126.8754,38.8161],[126.8751,38.8425],[126.8725,38.8613],[126.8726,38.8713],[126.8741,38.8792],[126.8776,38.8844],[126.8819,38.8892],[126.8876,38.8939],[126.8935,38.8981],[126.8998,38.9016],[126.9059,38.9039],[126.9119,38.9052],[126.9592,38.9078],[126.9654,38.9089],[126.9716,38.9111],[126.9777,38.9142],[126.9834,38.9184],[127.0002,38.9352],[127.0086,38.948],[127.0154,38.9619],[127.018,38.9704],[127.0192,38.9774],[127.0185,38.9824],[127.017,38.9872],[127.0147,38.9919],[127.0106,38.9987],[127.0092,39.0003],[127.0032,39.0053],[126.9933,39.0164],[126.9862,39.0323],[126.9817,39.0691],[126.9936,39.1107],[127.0137,39.1336],[127.0214,39.1378],[127.0551,39.1513],[127.0606,39.1555],[127.0634,39.1605],[127.0609,39.169],[127.0573,39.1753],[127.0252,39.2044],[127.0375,39.2123],[127.0394,39.2191],[127.0393,39.2252],[127.0324,39.2421],[127.0291,39.258],[127.0317,39.2664],[127.0371,39.2718],[127.0666,39.2785],[127.0752,39.2818],[127.0858,39.2888],[127.0904,39.2955],[127.0923,39.3023],[127.0932,39.3152],[127.0942,39.3222],[127.101,39.3434],[127.1062,39.375],[127.1095,39.3834],[127.1145,39.391],[127.1213,39.3968],[127.1307,39.4036],[127.1387,39.408],[127.1461,39.4108],[127.153,39.4122],[127.1604,39.4125],[127.1969,39.4077],[127.2474,39.4139],[127.2804,39.4125],[127.33,39.4053],[127.3782,39.4105],[127.4032,39.4094],[127.411,39.4106],[127.4177,39.4106],[127.4244,39.4098],[127.4381,39.4052],[127.431,39.3973],[127.4255,39.3925],[127.3784,39.3789],[127.3784,39.3715],[127.3899,39.367],[127.4141,39.3618],[127.4255,39.3571],[127.4378,39.3642],[127.4539,39.368],[127.4675,39.3638],[127.4734,39.3476],[127.4668,39.3402],[127.4354,39.3348],[127.4255,39.3305],[127.4203,39.3364],[127.4146,39.3406],[127.4083,39.3432],[127.4014,39.3441],[127.3919,39.3419],[127.3927,39.3364],[127.397,39.3297],[127.3983,39.3237],[127.3867,39.2972],[127.3784,39.269],[127.372,39.2404],[127.3829,39.222],[127.3934,39.2017],[127.4085,39.1933],[127.4202,39.1892],[127.4413,39.1708],[127.4522,39.166],[127.4719,39.1683],[127.4761,39.1771],[127.4736,39.1872],[127.4734,39.1933],[127.4913,39.1949],[127.5117,39.1564],[127.5317,39.1461],[127.6069,39.152],[127.6317,39.1461],[127.6431,39.1386],[127.6517,39.1293],[127.6614,39.1215],[127.6756,39.1181],[127.7442,39.1186],[127.7593,39.117],[127.7696,39.1092],[127.7926,39.0775],[127.8237,39.043],[127.8303,39.0329],[127.8365,39.0185],[127.8516,39.0014],[127.8855,38.9742],[127.8887,38.9614],[127.8929,38.9575],[127.9022,38.9639],[127.9087,38.9672],[127.9143,38.9642],[127.9182,38.9577],[127.9215,38.9423],[127.9263,38.9345],[127.9338,38.9287],[127.9436,38.9264],[127.9618,38.9179],[127.9955,38.8753],[128.0147,38.8581],[128.0912,38.8437],[128.2102,38.7277],[128.2251,38.7323],[128.2704,38.7517],[128.2828,38.7551],[128.3132,38.7172],[128.3211,38.7114],[128.3381,38.7036],[128.3477,38.6967],[128.3596,38.6787],[128.36,38.6754],[128.3613,38.6607],[128.3604,38.6428],[128.3646,38.6247],[128.3649,38.6243]]]}},{"type":"Feature","properties":{"id":"PRK-3312","name":"P'yŏngan-bukto","nameBn":"নর্থ পিয়ংগান প্রদেশ","type":"Province","bounds":[124.2113,39.4274,126.3705,40.6527],"center":[124.698,39.5177]},"geometry":{"type":"MultiPolygon","coordinates":[[[[125.4133,40.6318],[125.4171,40.6393],[125.415,40.6519],[125.4152,40.6527],[125.4856,40.6215],[125.494,40.6166],[125.5036,40.6094],[125.5347,40.5786],[125.5416,40.5741],[125.5522,40.5711],[125.5608,40.5708],[125.5772,40.5743],[125.5847,40.5741],[125.5909,40.5707],[125.5952,40.5638],[125.6012,40.5411],[125.6026,40.5375],[125.6101,40.5246],[125.6122,40.5196],[125.6122,40.5139],[125.6107,40.5087],[125.6083,40.5033],[125.6054,40.498],[125.594,40.4839],[125.5928,40.4813],[125.5923,40.48],[125.5876,40.4519],[125.5854,40.4461],[125.5782,40.435],[125.5761,40.4295],[125.5758,40.4238],[125.5771,40.4185],[125.5792,40.4134],[125.5825,40.4085],[125.6243,40.3748],[125.6286,40.3697],[125.63,40.3643],[125.6286,40.3589],[125.6244,40.3538],[125.6193,40.3489],[125.6151,40.3439],[125.6139,40.3383],[125.6176,40.332],[125.625,40.3248],[125.6572,40.3017],[125.7739,40.2423],[125.7896,40.2308],[125.7974,40.2268],[125.807,40.2236],[125.8217,40.2219],[125.8314,40.2224],[125.8394,40.2245],[125.8531,40.2311],[125.8674,40.2362],[125.8818,40.2382],[125.8964,40.2384],[125.9048,40.2375],[125.9138,40.2345],[125.9258,40.2272],[125.9357,40.2223],[125.949,40.2196],[125.9623,40.2204],[125.9689,40.2196],[125.9769,40.2162],[125.9945,40.2019],[126.0214,40.174],[126.0874,40.1268],[126.1301,40.0846],[126.1443,40.0736],[126.1885,40.0513],[126.2096,40.0445],[126.3019,40.0359],[126.3217,40.0315],[126.3601,40.0175],[126.3462,40.0002],[126.3457,39.9991],[126.3433,39.9922],[126.3412,39.9806],[126.34,39.9684],[126.3414,39.9625],[126.3438,39.9571],[126.3649,39.9292],[126.3681,39.9231],[126.3699,39.9172],[126.3705,39.9111],[126.3703,39.905],[126.3688,39.8992],[126.3629,39.8937],[126.3528,39.8885],[126.33,39.8818],[126.2594,39.8527],[126.1007,39.8204],[126.0923,39.8201],[126.0848,39.8212],[126.0777,39.823],[126.0709,39.8255],[126.057,39.8324],[126.051,39.8367],[126.0271,39.857],[126.0214,39.8589],[126.0154,39.8588],[126.0087,39.853],[126.0048,39.8474],[126.0026,39.8411],[126.0015,39.8359],[126.0003,39.8321],[125.9978,39.8303],[125.9922,39.8272],[125.9788,39.8219],[125.9673,39.812],[125.9555,39.796],[125.9475,39.7878],[125.9281,39.775],[125.91,39.76],[125.9029,39.7551],[125.8942,39.7515],[125.8621,39.7467],[125.8565,39.7416],[125.8547,39.7381],[125.8543,39.735],[125.8541,39.7324],[125.8521,39.7266],[125.8472,39.72],[125.8139,39.6866],[125.7667,39.6609],[125.7052,39.6373],[125.6879,39.6332],[125.6701,39.6335],[125.6492,39.6365],[125.6411,39.636],[125.6334,39.6335],[125.6131,39.6202],[125.5622,39.5971],[125.504,39.5786],[125.4513,39.5725],[125.4518,39.5713],[125.4449,39.5844],[125.4297,39.5754],[125.3257,39.5332],[125.3036,39.5273],[125.2949,39.523],[125.286,39.5212],[125.2771,39.526],[125.2507,39.5512],[125.2463,39.5536],[125.2371,39.5629],[125.2196,39.5665],[125.2103,39.5731],[125.2252,39.5912],[125.1576,39.5912],[125.161,39.5852],[125.1678,39.5698],[125.1712,39.5639],[125.1268,39.5639],[125.117,39.5659],[125.1143,39.571],[125.1135,39.5776],[125.1097,39.5844],[125.1038,39.5925],[125.1017,39.5987],[125.0975,39.6027],[125.0855,39.6042],[125.0701,39.6015],[125.0603,39.6011],[125.0477,39.6042],[125.04,39.6085],[125.0181,39.624],[125.0135,39.6287],[125.0106,39.6353],[125.0033,39.6369],[124.9944,39.6369],[124.9863,39.639],[124.9583,39.662],[124.9473,39.663],[124.9378,39.6458],[124.9265,39.653],[124.9131,39.6562],[124.9016,39.6621],[124.8927,39.692],[124.8816,39.7042],[124.8663,39.7139],[124.8491,39.7215],[124.8336,39.726],[124.8113,39.7283],[124.8031,39.7305],[124.7992,39.7398],[124.7707,39.7418],[124.7604,39.748],[124.7564,39.7707],[124.7461,39.7829],[124.7402,39.7722],[124.7395,39.7621],[124.7429,39.753],[124.7495,39.7451],[124.7547,39.7337],[124.7503,39.7224],[124.75,39.7099],[124.7442,39.7013],[124.7446,39.6914],[124.7571,39.6879],[124.753,39.6725],[124.7405,39.6718],[124.7298,39.6653],[124.7342,39.655],[124.7439,39.6444],[124.7351,39.6416],[124.7164,39.6471],[124.695,39.6375],[124.6749,39.6221],[124.6491,39.6121],[124.6406,39.5946],[124.6375,39.5905],[124.6238,39.598],[124.6241,39.6022],[124.6253,39.6052],[124.6294,39.6116],[124.6219,39.6131],[124.6187,39.6147],[124.6157,39.6179],[124.6108,39.6287],[124.6286,39.6447],[124.6321,39.6629],[124.6451,39.6695],[124.6499,39.6837],[124.647,39.6976],[124.6399,39.6981],[124.6314,39.6939],[124.6238,39.6935],[124.6199,39.6979],[124.6134,39.7098],[124.6095,39.7147],[124.6004,39.7193],[124.5916,39.7209],[124.5848,39.7236],[124.5823,39.7318],[124.5833,39.7405],[124.5879,39.7563],[124.5891,39.7659],[124.5847,39.7709],[124.566,39.7789],[124.5616,39.7867],[124.5654,39.8071],[124.5641,39.8143],[124.5549,39.8171],[124.5198,39.8181],[124.4344,39.8308],[124.43,39.8293],[124.4264,39.8265],[124.4226,39.8242],[124.4177,39.8245],[124.4137,39.8278],[124.4098,39.8359],[124.4072,39.8376],[124.4036,39.8415],[124.3992,39.8598],[124.3966,39.8655],[124.3897,39.8679],[124.3626,39.8717],[124.3489,39.8928],[124.3418,39.9],[124.3348,39.9056],[124.328,39.9097],[124.3215,39.9127],[124.3321,39.9251],[124.3457,39.9302],[124.3594,39.9335],[124.37,39.94],[124.3761,39.9541],[124.3831,40.0027],[124.4058,40.0278],[124.4341,40.0246],[124.4658,40.0153],[124.4996,40.0225],[124.4793,40.0307],[124.4329,40.0328],[124.4102,40.0362],[124.3914,40.0483],[124.3844,40.0649],[124.3804,40.0827],[124.37,40.0983],[124.3856,40.1105],[124.5282,40.2141],[124.5324,40.216],[124.543,40.2176],[124.5487,40.2209],[124.5502,40.2247],[124.5518,40.2362],[124.5549,40.2414],[124.5709,40.2524],[124.6112,40.2722],[124.6272,40.2861],[124.6426,40.2943],[124.693,40.3028],[124.7125,40.3103],[124.723,40.3267],[124.7313,40.3497],[124.7412,40.3704],[124.7568,40.3792],[124.7799,40.3835],[124.8008,40.3941],[124.8499,40.4316],[124.8838,40.4655],[124.8906,40.4779],[124.8955,40.4836],[124.9056,40.4765],[124.9151,40.4659],[124.9179,40.4611],[124.9259,40.4579],[124.9353,40.4556],[124.9596,40.4537],[124.9866,40.4574],[125.0066,40.4561],[125.0263,40.4574],[125.0413,40.4611],[125.0463,40.4711],[125.0389,40.4835],[125.0277,40.4959],[125.0153,40.5083],[125.0153,40.522],[125.0251,40.5344],[125.05,40.5418],[125.0736,40.548],[125.0897,40.5555],[125.1146,40.5641],[125.1331,40.5729],[125.1531,40.584],[125.1815,40.594],[125.2164,40.6026],[125.2424,40.6113],[125.2561,40.615],[125.2648,40.6225],[125.271,40.6325],[125.2772,40.6436],[125.2933,40.6486],[125.3082,40.6498],[125.3232,40.6449],[125.3367,40.6411],[125.356,40.646],[125.3636,40.6467],[125.3725,40.6439],[125.3846,40.6351],[125.3909,40.6325],[125.4133,40.6318]]],[[[124.9267,39.6048],[124.9222,39.5983],[124.9097,39.5936],[124.9203,39.5723],[124.9336,39.5505],[124.9121,39.5408],[124.8832,39.5275],[124.8617,39.5076],[124.8427,39.5052],[124.8186,39.4954],[124.8369,39.5209],[124.8498,39.5165],[124.857,39.5279],[124.8428,39.5384],[124.845,39.5432],[124.8566,39.5442],[124.8571,39.5483],[124.8597,39.5531],[124.8544,39.5566],[124.8545,39.5738],[124.8705,39.5809],[124.8697,39.5957],[124.8818,39.6039],[124.8805,39.6125],[124.8992,39.6141],[124.9267,39.6048]]],[[[124.6877,39.5272],[124.6936,39.5351],[124.7047,39.5371],[124.7078,39.5304],[124.7077,39.5193],[124.7048,39.5087],[124.6978,39.5026],[124.6846,39.5032],[124.6801,39.5077],[124.6838,39.5161],[124.682,39.5212],[124.6877,39.5272]]],[[[124.687,39.5447],[124.6755,39.5385],[124.6616,39.5384],[124.6448,39.5477],[124.6035,39.5385],[124.6004,39.5362],[124.5959,39.5379],[124.5974,39.5446],[124.6047,39.5493],[124.6143,39.5534],[124.6309,39.5651],[124.635,39.564],[124.6488,39.5653],[124.6738,39.5706],[124.6913,39.5696],[124.6981,39.5629],[124.6956,39.5538],[124.687,39.5447]]],[[[124.596,39.4302],[124.5931,39.439],[124.5929,39.4468],[124.6017,39.4493],[124.6126,39.4571],[124.6144,39.4492],[124.6151,39.4475],[124.6178,39.4443],[124.6191,39.433],[124.6066,39.428],[124.6021,39.4274],[124.596,39.4302]]],[[[124.2147,39.8072],[124.2193,39.8109],[124.2176,39.8149],[124.2203,39.8153],[124.2231,39.8168],[124.221,39.819],[124.2234,39.82],[124.2271,39.8213],[124.23,39.8212],[124.2319,39.8192],[124.2344,39.8176],[124.2359,39.8135],[124.2399,39.8126],[124.2396,39.8098],[124.2396,39.8077],[124.2428,39.8073],[124.2428,39.8046],[124.2416,39.8019],[124.2378,39.801],[124.2353,39.7984],[124.2304,39.7983],[124.2274,39.7946],[124.226,39.7914],[124.2232,39.7916],[124.2212,39.7938],[124.2161,39.7947],[124.2117,39.7952],[124.2115,39.7956],[124.2113,39.7995],[124.2126,39.804],[124.2147,39.8072]]]]}},{"type":"Feature","properties":{"id":"PRK-3313","name":"P'yŏngan-namdo","nameBn":"দক্ষিণ পঙ্গান প্রদেশ","type":"Province","bounds":[125.1372,38.659,127.1782,40.3366],"center":[126.158,39.5005]},"geometry":{"type":"Polygon","coordinates":[[[125.6301,38.659],[125.6199,38.6614],[125.5996,38.6623],[125.589,38.6663],[125.5437,38.7111],[125.5276,38.7209],[125.5147,38.7228],[125.491,38.7229],[125.4791,38.7277],[125.4729,38.7343],[125.447,38.7716],[125.448,38.7762],[125.4478,38.7772],[125.4387,38.7756],[125.4359,38.7713],[125.4321,38.7631],[125.4246,38.7559],[125.4109,38.7551],[125.42,38.7502],[125.4278,38.7441],[125.4342,38.7368],[125.4193,38.7293],[125.3892,38.7174],[125.3731,38.7205],[125.363,38.7346],[125.3562,38.7346],[125.3504,38.7213],[125.3411,38.7175],[125.3145,38.7209],[125.3128,38.7239],[125.3103,38.7298],[125.3064,38.7346],[125.301,38.7346],[125.2959,38.7285],[125.2979,38.7221],[125.3035,38.7167],[125.3084,38.7135],[125.3084,38.7073],[125.2937,38.7032],[125.2777,38.7033],[125.2625,38.7079],[125.2498,38.7172],[125.2435,38.7283],[125.2469,38.7367],[125.2669,38.7551],[125.2598,38.7583],[125.2532,38.7625],[125.2578,38.7719],[125.2527,38.7836],[125.241,38.7931],[125.2252,38.7961],[125.2305,38.7719],[125.2166,38.7397],[125.1881,38.7386],[125.1767,38.7512],[125.1721,38.7632],[125.1568,38.7693],[125.1453,38.7771],[125.1372,38.8035],[125.1433,38.8204],[125.1476,38.8371],[125.1507,38.8746],[125.152,38.8915],[125.1636,38.9155],[125.173,38.9388],[125.19,38.9585],[125.2009,38.9753],[125.1986,38.9861],[125.2122,39.0015],[125.2334,39.0299],[125.252,39.0496],[125.26,39.0664],[125.2708,39.0806],[125.2911,39.0805],[125.316,39.0795],[125.3351,39.0834],[125.2841,39.0896],[125.2867,39.097],[125.2906,39.1045],[125.2903,39.1113],[125.2862,39.117],[125.2882,39.1235],[125.2874,39.1318],[125.2892,39.1391],[125.2933,39.1435],[125.2944,39.1474],[125.2874,39.1523],[125.2967,39.1615],[125.3071,39.1654],[125.332,39.166],[125.3435,39.1689],[125.3401,39.176],[125.332,39.185],[125.3289,39.1933],[125.3436,39.2129],[125.3651,39.2209],[125.389,39.2203],[125.4109,39.2138],[125.4049,39.2289],[125.396,39.2366],[125.3936,39.2458],[125.4319,39.3007],[125.4449,39.3106],[125.4292,39.3122],[125.4163,39.3203],[125.4111,39.3335],[125.4182,39.351],[125.4134,39.3544],[125.4046,39.3647],[125.4148,39.362],[125.419,39.3605],[125.4244,39.3571],[125.4456,39.3669],[125.4542,39.3743],[125.4592,39.3851],[125.4385,39.385],[125.3765,39.3925],[125.357,39.3987],[125.36,39.4132],[125.3836,39.4403],[125.3726,39.441],[125.3618,39.4399],[125.3517,39.4374],[125.3425,39.4335],[125.346,39.4596],[125.3604,39.4747],[125.3794,39.4863],[125.3972,39.5018],[125.4026,39.5137],[125.4066,39.5275],[125.4137,39.5387],[125.442,39.5476],[125.4503,39.5579],[125.4518,39.5713],[125.4513,39.5725],[125.504,39.5786],[125.5622,39.5971],[125.6131,39.6202],[125.6334,39.6335],[125.6411,39.636],[125.6492,39.6365],[125.6701,39.6335],[125.6879,39.6332],[125.7052,39.6373],[125.7667,39.6609],[125.8139,39.6866],[125.8472,39.72],[125.8521,39.7266],[125.8541,39.7324],[125.8543,39.735],[125.8547,39.7381],[125.8565,39.7416],[125.8621,39.7467],[125.8942,39.7515],[125.9029,39.7551],[125.91,39.76],[125.9281,39.775],[125.9475,39.7878],[125.9555,39.796],[125.9673,39.812],[125.9788,39.8219],[125.9922,39.8272],[125.9978,39.8303],[126.0003,39.8321],[126.0015,39.8359],[126.0026,39.8411],[126.0048,39.8474],[126.0087,39.853],[126.0154,39.8588],[126.0214,39.8589],[126.0271,39.857],[126.051,39.8367],[126.057,39.8324],[126.0709,39.8255],[126.0777,39.823],[126.0848,39.8212],[126.0923,39.8201],[126.1007,39.8204],[126.2594,39.8527],[126.33,39.8818],[126.3528,39.8885],[126.3629,39.8937],[126.3688,39.8992],[126.3703,39.905],[126.3705,39.9111],[126.3699,39.9172],[126.3681,39.9231],[126.3649,39.9292],[126.3438,39.9571],[126.3414,39.9625],[126.34,39.9684],[126.3412,39.9806],[126.3433,39.9922],[126.3457,39.9991],[126.3462,40.0002],[126.3601,40.0175],[126.4037,39.9945],[126.4105,39.9925],[126.4182,39.9914],[126.4259,39.9911],[126.4385,39.9953],[126.4976,40.0274],[126.5091,40.0314],[126.5389,40.0329],[126.5463,40.0358],[126.5537,40.0409],[126.5596,40.051],[126.5618,40.0588],[126.5654,40.0781],[126.5676,40.0837],[126.5705,40.089],[126.5785,40.0961],[126.5899,40.1037],[126.6534,40.1385],[126.6626,40.1425],[126.6714,40.1449],[126.6937,40.1484],[126.7013,40.1524],[126.7097,40.1587],[126.7221,40.1715],[126.7319,40.1799],[126.7454,40.1878],[126.7537,40.1913],[126.7618,40.1937],[126.7764,40.1962],[126.7927,40.1973],[126.8005,40.2006],[126.8075,40.2073],[126.814,40.2205],[126.8222,40.2431],[126.827,40.2487],[126.8347,40.256],[126.8723,40.2803],[126.8873,40.2949],[126.9109,40.3347],[126.912,40.3347],[127.003,40.3366],[127.0165,40.3349],[127.035,40.3305],[127.0484,40.3255],[127.0569,40.3207],[127.1047,40.2848],[127.1098,40.2788],[127.112,40.2735],[127.1129,40.2685],[127.1123,40.2633],[127.1104,40.2579],[127.1047,40.2473],[127.1022,40.2409],[127.1021,40.2397],[127.1063,40.2113],[127.1104,40.197],[127.116,40.1872],[127.1259,40.1807],[127.1631,40.1627],[127.1727,40.1551],[127.1779,40.148],[127.1782,40.1419],[127.1777,40.136],[127.1757,40.1305],[127.1724,40.1254],[127.1622,40.1155],[127.0933,40.073],[127.0892,40.0699],[127.0852,40.0656],[127.083,40.0597],[127.083,40.0523],[127.0853,40.0421],[127.0857,40.0352],[127.0824,40.0301],[127.0765,40.0278],[127.0691,40.0263],[127.0628,40.0241],[127.0585,40.0196],[127.0578,40.014],[127.0582,40.0085],[127.061,39.9955],[127.0731,39.956],[127.0774,39.9471],[127.1072,39.9054],[127.1114,39.896],[127.1129,39.8859],[127.1114,39.8793],[127.1091,39.8735],[127.1032,39.8636],[127.0997,39.8588],[127.095,39.854],[127.0891,39.8503],[127.0827,39.8479],[127.0427,39.8453],[127.0353,39.8438],[127.0294,39.8405],[127.0208,39.832],[127.0147,39.8285],[127.0083,39.8261],[127.0021,39.8262],[126.9982,39.8273],[126.9935,39.8309],[126.9805,39.8475],[126.9758,39.8525],[126.9697,39.8567],[126.9639,39.8594],[126.9507,39.8633],[126.9353,39.8657],[126.871,39.8657],[126.8155,39.8549],[126.802,39.8509],[126.7949,39.8477],[126.7883,39.8441],[126.7822,39.8399],[126.7763,39.8332],[126.7714,39.8244],[126.7577,39.7879],[126.7547,39.7821],[126.7515,39.7769],[126.7347,39.758],[126.7212,39.7369],[126.7193,39.7287],[126.7223,39.7228],[126.728,39.72],[126.7353,39.7186],[126.7425,39.7178],[126.7482,39.7164],[126.7515,39.7137],[126.7537,39.707],[126.7527,39.7018],[126.75,39.6974],[126.7113,39.6651],[126.7041,39.6549],[126.7023,39.6475],[126.7029,39.6408],[126.7106,39.625],[126.7128,39.6186],[126.7137,39.611],[126.7132,39.5997],[126.71,39.5922],[126.7048,39.5863],[126.6983,39.5822],[126.6909,39.5753],[126.6837,39.566],[126.6748,39.5477],[126.6726,39.5374],[126.6728,39.5293],[126.6754,39.524],[126.6793,39.5186],[126.6897,39.5086],[126.7144,39.4909],[126.7214,39.4869],[126.728,39.4816],[126.7336,39.475],[126.7379,39.4645],[126.7382,39.4571],[126.7367,39.4508],[126.7217,39.42],[126.7008,39.3544],[126.6977,39.3373],[126.6976,39.3254],[126.7001,39.32],[126.7041,39.3143],[126.7091,39.3091],[126.7156,39.304],[126.7226,39.3006],[126.7299,39.2985],[126.7373,39.2978],[126.7437,39.2982],[126.7491,39.2992],[126.7819,39.3117],[126.7888,39.3134],[126.7963,39.3145],[126.8103,39.314],[126.8138,39.3134],[126.8181,39.3123],[126.8211,39.3111],[126.8258,39.3086],[126.8307,39.3049],[126.835,39.3001],[126.8379,39.295],[126.8401,39.2899],[126.8436,39.2789],[126.8461,39.2738],[126.8505,39.2701],[126.8562,39.2698],[126.862,39.2725],[126.8728,39.2816],[126.8794,39.2849],[126.8867,39.2866],[126.8942,39.287],[126.9018,39.2864],[126.9089,39.2848],[126.9151,39.2821],[126.9212,39.2771],[126.926,39.2702],[126.9301,39.2599],[126.931,39.252],[126.9301,39.2454],[126.9254,39.2334],[126.9232,39.2258],[126.9245,39.2201],[126.9294,39.2155],[126.9364,39.2127],[126.9436,39.2114],[126.9508,39.2114],[126.9793,39.2158],[126.9938,39.2154],[126.9993,39.2146],[127.0038,39.2133],[127.0252,39.2044],[127.0573,39.1753],[127.0609,39.169],[127.0634,39.1605],[127.0606,39.1555],[127.0551,39.1513],[127.0214,39.1378],[127.0137,39.1336],[126.9936,39.1107],[126.9817,39.0691],[126.9258,39.0635],[126.9043,39.0662],[126.8907,39.0731],[126.8391,39.1065],[126.8242,39.113],[126.8097,39.1179],[126.7778,39.1222],[126.771,39.1243],[126.7642,39.1277],[126.7491,39.1381],[126.7375,39.1434],[126.7299,39.1458],[126.7219,39.1468],[126.7142,39.1468],[126.6664,39.1369],[126.6516,39.1353],[126.6354,39.1357],[126.6278,39.1374],[126.6202,39.1402],[126.6134,39.1437],[126.6075,39.1482],[126.5922,39.164],[126.585,39.1676],[126.5769,39.1665],[126.5673,39.1597],[126.5606,39.1472],[126.5581,39.1387],[126.5579,39.1312],[126.559,39.1255],[126.5609,39.1199],[126.5637,39.1148],[126.577,39.099],[126.5806,39.0934],[126.5854,39.0828],[126.5885,39.0776],[126.5927,39.0725],[126.616,39.0543],[126.6203,39.0494],[126.6234,39.0444],[126.6295,39.0284],[126.6324,39.0232],[126.6361,39.0176],[126.6451,39.0074],[126.6529,39.0004],[126.6565,38.9951],[126.6585,38.9908],[126.6596,38.9858],[126.6521,38.9809],[126.6379,38.9766],[126.6015,38.9735],[126.5841,38.9737],[126.5714,38.9752],[126.5217,39.0004],[126.5148,39.0023],[126.5073,39.0009],[126.4992,38.9967],[126.4873,38.9846],[126.485,38.977],[126.4861,38.9704],[126.4927,38.9607],[126.497,38.951],[126.4992,38.9423],[126.5001,38.9354],[126.5001,38.9315],[126.4996,38.9282],[126.4986,38.9247],[126.4962,38.9204],[126.4915,38.916],[126.4853,38.9119],[126.4692,38.9112],[126.4577,38.912],[126.3873,38.9305],[126.3848,38.9702],[126.3822,38.9821],[126.3759,38.993],[126.3705,39.0003],[126.3699,39.0011],[126.3443,39.0451],[126.3399,39.0509],[126.337,39.0525],[126.3303,39.0544],[126.2875,39.0605],[126.281,39.0639],[126.2561,39.0836],[126.2449,39.0952],[126.242,39.1013],[126.2408,39.1045],[126.24,39.1078],[126.2395,39.1138],[126.2404,39.1184],[126.2424,39.1235],[126.2427,39.1292],[126.2417,39.1358],[126.2368,39.1489],[126.2332,39.1542],[126.2299,39.1573],[126.2243,39.1585],[126.2148,39.1587],[126.1847,39.1558],[126.1786,39.1559],[126.1764,39.1561],[126.1647,39.1635],[126.1431,39.1806],[126.1381,39.1833],[126.1047,39.1819],[126.0966,39.1829],[126.0926,39.1845],[126.0898,39.1865],[126.088,39.1886],[126.0868,39.1907],[126.0859,39.193],[126.0852,39.1979],[126.083,39.2028],[126.0793,39.2093],[126.0693,39.2223],[126.0638,39.2278],[126.0591,39.2312],[126.0533,39.2327],[126.0454,39.2337],[126.0428,39.2335],[126.0403,39.2329],[126.0381,39.2315],[126.0363,39.2297],[126.0341,39.2258],[126.0325,39.222],[126.0314,39.2203],[126.0298,39.2185],[126.0271,39.217],[126.0233,39.2141],[126.0122,39.2102],[125.9728,39.2044],[125.9685,39.2072],[125.9529,39.222],[125.9443,39.2289],[125.9366,39.2318],[125.9298,39.2338],[125.9246,39.2344],[125.9196,39.2341],[125.9008,39.2307],[125.8967,39.2293],[125.8929,39.2271],[125.8857,39.2217],[125.8794,39.2152],[125.8772,39.2124],[125.8739,39.2057],[125.8714,39.1983],[125.871,39.1962],[125.8708,39.1919],[125.8713,39.1878],[125.8745,39.1725],[125.8747,39.166],[125.8744,39.164],[125.873,39.1621],[125.8704,39.1607],[125.8645,39.1602],[125.8614,39.1609],[125.8593,39.1622],[125.8568,39.1671],[125.8556,39.1707],[125.8534,39.1811],[125.8481,39.1961],[125.845,39.2028],[125.8432,39.2055],[125.8406,39.2089],[125.8348,39.215],[125.8314,39.2178],[125.8283,39.2195],[125.7979,39.2262],[125.7918,39.2283],[125.7883,39.23],[125.7852,39.2325],[125.7816,39.2364],[125.7742,39.2466],[125.7731,39.248],[125.7691,39.2538],[125.7679,39.255],[125.737,39.2763],[125.7281,39.2809],[125.7219,39.2832],[125.7171,39.2824],[125.7129,39.2812],[125.7094,39.2793],[125.702,39.2737],[125.672,39.2581],[125.6308,39.2472],[125.6271,39.2449],[125.622,39.2402],[125.621,39.2387],[125.6202,39.2371],[125.6197,39.2354],[125.6191,39.2312],[125.6194,39.2273],[125.621,39.2239],[125.6293,39.2121],[125.6392,39.1905],[125.6402,39.1869],[125.6407,39.1836],[125.6408,39.1784],[125.6402,39.1742],[125.6362,39.1586],[125.6354,39.1568],[125.634,39.151],[125.6339,39.1489],[125.6343,39.1468],[125.6358,39.1447],[125.6374,39.1432],[125.6527,39.1341],[125.6606,39.1308],[125.6642,39.1284],[125.6651,39.1275],[125.6658,39.1262],[125.6663,39.1246],[125.6658,39.1227],[125.6648,39.121],[125.6608,39.1179],[125.6571,39.1159],[125.6552,39.1151],[125.5825,39.0696],[125.5786,39.0652],[125.577,39.0621],[125.5755,39.058],[125.5751,39.0541],[125.5801,38.9986],[125.585,38.9836],[125.5922,38.9759],[125.5974,38.9665],[125.6041,38.9492],[125.6045,38.9446],[125.6039,38.9385],[125.5881,38.8932],[125.5832,38.8842],[125.5782,38.8778],[125.5677,38.8725],[125.5369,38.864],[125.5316,38.8612],[125.5273,38.8574],[125.524,38.8526],[125.5222,38.8461],[125.5222,38.8386],[125.525,38.8287],[125.5278,38.8223],[125.5328,38.8167],[125.5398,38.8124],[125.5525,38.8073],[125.5618,38.8026],[125.5677,38.7985],[125.5751,38.7805],[125.5739,38.7675],[125.5761,38.7613],[125.5806,38.7532],[125.5918,38.7418],[125.6101,38.7273],[125.6138,38.7217],[125.6157,38.7142],[125.6176,38.6884],[125.6301,38.659]]]}},{"type":"Feature","properties":{"id":"PRK-3305","name":"P'yŏngyang","nameBn":"পিয়ং ইয়াং","type":"Special City","bounds":[125.5222,38.7047,126.3873,39.2832],"center":[125.955,38.9808]},"geometry":{"type":"Polygon","coordinates":[[[125.7219,39.2832],[125.7281,39.2809],[125.737,39.2763],[125.7679,39.255],[125.7691,39.2538],[125.7731,39.248],[125.7742,39.2466],[125.7816,39.2364],[125.7852,39.2325],[125.7883,39.23],[125.7918,39.2283],[125.7979,39.2262],[125.8283,39.2195],[125.8314,39.2178],[125.8348,39.215],[125.8406,39.2089],[125.8432,39.2055],[125.845,39.2028],[125.8481,39.1961],[125.8534,39.1811],[125.8556,39.1707],[125.8568,39.1671],[125.8593,39.1622],[125.8614,39.1609],[125.8645,39.1602],[125.8704,39.1607],[125.873,39.1621],[125.8744,39.164],[125.8747,39.166],[125.8745,39.1725],[125.8713,39.1878],[125.8708,39.1919],[125.871,39.1962],[125.8714,39.1983],[125.8739,39.2057],[125.8772,39.2124],[125.8794,39.2152],[125.8857,39.2217],[125.8929,39.2271],[125.8967,39.2293],[125.9008,39.2307],[125.9196,39.2341],[125.9246,39.2344],[125.9298,39.2338],[125.9366,39.2318],[125.9443,39.2289],[125.9529,39.222],[125.9685,39.2072],[125.9728,39.2044],[126.0122,39.2102],[126.0233,39.2141],[126.0271,39.217],[126.0298,39.2185],[126.0314,39.2203],[126.0325,39.222],[126.0341,39.2258],[126.0363,39.2297],[126.0381,39.2315],[126.0403,39.2329],[126.0428,39.2335],[126.0454,39.2337],[126.0533,39.2327],[126.0591,39.2312],[126.0638,39.2278],[126.0693,39.2223],[126.0793,39.2093],[126.083,39.2028],[126.0852,39.1979],[126.0859,39.193],[126.0868,39.1907],[126.088,39.1886],[126.0898,39.1865],[126.0926,39.1845],[126.0966,39.1829],[126.1047,39.1819],[126.1381,39.1833],[126.1431,39.1806],[126.1647,39.1635],[126.1764,39.1561],[126.1786,39.1559],[126.1847,39.1558],[126.2148,39.1587],[126.2243,39.1585],[126.2299,39.1573],[126.2332,39.1542],[126.2368,39.1489],[126.2417,39.1358],[126.2427,39.1292],[126.2424,39.1235],[126.2404,39.1184],[126.2395,39.1138],[126.24,39.1078],[126.2408,39.1045],[126.242,39.1013],[126.2449,39.0952],[126.2561,39.0836],[126.281,39.0639],[126.2875,39.0605],[126.3303,39.0544],[126.337,39.0525],[126.3399,39.0509],[126.3443,39.0451],[126.3699,39.0011],[126.3705,39.0003],[126.3759,38.993],[126.3822,38.9821],[126.3848,38.9702],[126.3873,38.9305],[126.3784,38.9342],[126.3734,38.9358],[126.3674,38.9383],[126.3609,38.9418],[126.3293,38.953],[126.3226,38.9547],[126.3025,38.9576],[126.2959,38.9575],[126.2887,38.9545],[126.2702,38.9592],[126.2576,38.965],[126.2541,38.9685],[126.2427,38.9763],[126.2363,38.9832],[126.2312,38.9847],[126.2001,38.9884],[126.1948,38.99],[126.1867,38.9894],[126.182,38.984],[126.1732,38.9807],[126.1662,38.9743],[126.1551,38.9696],[126.1469,38.9704],[126.14,38.9756],[126.1346,38.974],[126.126,38.9665],[126.1214,38.9603],[126.1193,38.9544],[126.118,38.9493],[126.1151,38.9288],[126.1154,38.9235],[126.1165,38.9185],[126.1183,38.9134],[126.1212,38.9085],[126.1251,38.9038],[126.1304,38.8994],[126.1424,38.8931],[126.1665,38.883],[126.1719,38.8797],[126.1753,38.8769],[126.2112,38.8356],[126.2142,38.8308],[126.2164,38.8259],[126.2177,38.8212],[126.2186,38.8161],[126.2192,38.7834],[126.2182,38.7783],[126.2156,38.7734],[126.212,38.7687],[126.2063,38.7647],[126.2004,38.7622],[126.1616,38.754],[126.1509,38.7501],[126.1427,38.7452],[126.1376,38.7404],[126.1202,38.7204],[126.1149,38.7159],[126.1078,38.7122],[126.0995,38.7094],[126.0784,38.7058],[126.0636,38.7047],[126.0379,38.7091],[125.9984,38.7228],[125.9815,38.7315],[125.943,38.7457],[125.9376,38.7507],[125.9351,38.7561],[125.9363,38.772],[125.9353,38.7771],[125.9329,38.7821],[125.9287,38.7867],[125.9234,38.7908],[125.9177,38.7943],[125.8168,38.8354],[125.8014,38.8384],[125.7358,38.8412],[125.7092,38.8388],[125.6768,38.8262],[125.6046,38.7887],[125.5751,38.7805],[125.5677,38.7985],[125.5618,38.8026],[125.5525,38.8073],[125.5398,38.8124],[125.5328,38.8167],[125.5278,38.8223],[125.525,38.8287],[125.5222,38.8386],[125.5222,38.8461],[125.524,38.8526],[125.5273,38.8574],[125.5316,38.8612],[125.5369,38.864],[125.5677,38.8725],[125.5782,38.8778],[125.5832,38.8842],[125.5881,38.8932],[125.6039,38.9385],[125.6045,38.9446],[125.6041,38.9492],[125.5974,38.9665],[125.5922,38.9759],[125.585,38.9836],[125.5801,38.9986],[125.5751,39.0541],[125.5755,39.058],[125.577,39.0621],[125.5786,39.0652],[125.5825,39.0696],[125.6552,39.1151],[125.6571,39.1159],[125.6608,39.1179],[125.6648,39.121],[125.6658,39.1227],[125.6663,39.1246],[125.6658,39.1262],[125.6651,39.1275],[125.6642,39.1284],[125.6606,39.1308],[125.6527,39.1341],[125.6374,39.1432],[125.6358,39.1447],[125.6343,39.1468],[125.6339,39.1489],[125.634,39.151],[125.6354,39.1568],[125.6362,39.1586],[125.6402,39.1742],[125.6408,39.1784],[125.6407,39.1836],[125.6402,39.1869],[125.6392,39.1905],[125.6293,39.2121],[125.621,39.2239],[125.6194,39.2273],[125.6191,39.2312],[125.6197,39.2354],[125.6202,39.2371],[125.621,39.2387],[125.622,39.2402],[125.6271,39.2449],[125.6308,39.2472],[125.672,39.2581],[125.702,39.2737],[125.7094,39.2793],[125.7129,39.2812],[125.7171,39.2824],[125.7219,39.2832]]]}},{"type":"Feature","properties":{"id":"PRK-5495","name":"Rasŏn","nameBn":"রাসোন","type":"Province","bounds":[130.1917,42.1736,130.7,42.6108],"center":[130.373,42.3414]},"geometry":{"type":"Polygon","coordinates":[[[130.5014,42.6108],[130.5165,42.5994],[130.5195,42.5886],[130.5252,42.5492],[130.5308,42.5305],[130.5427,42.5105],[130.5445,42.5063],[130.5461,42.4953],[130.5499,42.4904],[130.5547,42.4876],[130.5588,42.4827],[130.5756,42.4457],[130.5874,42.432],[130.6059,42.4206],[130.6285,42.4148],[130.6458,42.4009],[130.6567,42.3833],[130.6606,42.3592],[130.6603,42.3339],[130.6628,42.3206],[130.6729,42.3111],[130.7,42.2951],[130.6956,42.289],[130.6671,42.2831],[130.6316,42.2744],[130.6166,42.2723],[130.6038,42.2633],[130.5975,42.2628],[130.5985,42.281],[130.5977,42.2919],[130.595,42.2982],[130.582,42.3079],[130.5694,42.3153],[130.5405,42.3184],[130.5191,42.3276],[130.5102,42.3358],[130.4807,42.3398],[130.4657,42.3348],[130.4694,42.3221],[130.4565,42.3118],[130.4401,42.3091],[130.4318,42.3181],[130.4192,42.3244],[130.4075,42.3246],[130.407,42.3157],[130.4059,42.3071],[130.394,42.3],[130.3842,42.2912],[130.3863,42.2777],[130.3862,42.2707],[130.3911,42.2641],[130.3993,42.2632],[130.4059,42.2608],[130.406,42.2496],[130.4009,42.2425],[130.3933,42.2441],[130.3782,42.2579],[130.368,42.2557],[130.3607,42.2437],[130.3698,42.232],[130.3588,42.2293],[130.3515,42.2161],[130.3351,42.214],[130.3306,42.1915],[130.3188,42.1847],[130.307,42.1832],[130.3082,42.1976],[130.3156,42.2189],[130.3074,42.2363],[130.2942,42.237],[130.2514,42.2053],[130.229,42.1825],[130.2149,42.1746],[130.2023,42.1736],[130.1917,42.2348],[130.219,42.2815],[130.2735,42.3321],[130.2812,42.371],[130.2579,42.3904],[130.2618,42.4177],[130.3163,42.4216],[130.3902,42.4371],[130.433,42.4527],[130.4486,42.5033],[130.4522,42.5496],[130.4525,42.5493],[130.4679,42.5549],[130.471,42.5698],[130.4551,42.5852],[130.4678,42.6004],[130.4842,42.61],[130.5014,42.6108]]]}},{"type":"Feature","properties":{"id":"PRK-3314","name":"Ryanggang","nameBn":"রিয়াংগাং","type":"Province","bounds":[126.812,40.4016,128.9386,42.0476],"center":[127.875,40.9611]},"geometry":{"type":"Polygon","coordinates":[[[128.721,42.0476],[128.8171,42.0439],[128.8832,42.0304],[128.8806,42.0217],[128.8685,42.0],[128.8503,41.9852],[128.8059,41.9651],[128.7875,41.9494],[128.7756,41.9298],[128.7685,41.921],[128.7586,41.9148],[128.7446,41.9141],[128.7187,41.9222],[128.7049,41.919],[128.7079,41.8974],[128.7104,41.8879],[128.7227,41.8614],[128.7256,41.853],[128.7276,41.8438],[128.7281,41.8265],[128.7294,41.8177],[128.7337,41.8108],[128.7421,41.8095],[128.7662,41.8156],[128.7754,41.815],[128.7832,41.8065],[128.7842,41.7955],[128.7782,41.7693],[128.7767,41.7557],[128.7772,41.7214],[128.7795,41.7078],[128.785,41.6967],[128.7998,41.678],[128.8021,41.6662],[128.7954,41.6528],[128.7837,41.6426],[128.7757,41.633],[128.7807,41.6214],[128.7942,41.6154],[128.8468,41.6115],[128.8735,41.5979],[128.8978,41.5738],[128.9136,41.545],[128.9147,41.5172],[128.8951,41.4913],[128.8658,41.4731],[128.8394,41.4527],[128.8284,41.4203],[128.8353,41.3867],[128.8513,41.3553],[128.8944,41.3011],[128.907,41.2905],[128.9212,41.2806],[128.933,41.2692],[128.9386,41.254],[128.9347,41.2382],[128.9129,41.2116],[128.9054,41.1978],[128.9099,41.1688],[128.9263,41.1417],[128.9367,41.1152],[128.9233,41.0883],[128.8956,41.1129],[128.8578,41.1307],[128.7532,41.1672],[128.7384,41.1703],[128.7232,41.1693],[128.6986,41.1637],[128.6873,41.1635],[128.6454,41.1736],[128.6302,41.1723],[128.627,41.16],[128.628,41.1476],[128.6266,41.1307],[128.6235,41.1138],[128.6196,41.1014],[128.6072,41.0908],[128.5661,41.0797],[128.5495,41.0716],[128.5383,41.0589],[128.52,41.0308],[128.5077,41.0183],[128.4789,41.0072],[128.4435,41.0059],[128.4071,41.0079],[128.375,41.0068],[128.3587,40.9924],[128.3636,40.9654],[128.3764,40.9343],[128.3837,40.9077],[128.3811,40.8913],[128.3686,40.8574],[128.3649,40.8398],[128.3622,40.8041],[128.3592,40.7869],[128.3535,40.7694],[128.3468,40.7578],[128.3313,40.7375],[128.3255,40.7255],[128.3201,40.6871],[128.3152,40.6753],[128.3034,40.6626],[128.2565,40.6319],[128.2413,40.6186],[128.2016,40.5721],[128.1757,40.5521],[128.147,40.5494],[128.1184,40.5597],[128.0927,40.579],[128.0804,40.5865],[128.0658,40.5891],[128.0505,40.5882],[127.9726,40.567],[127.9584,40.5582],[127.9488,40.547],[127.9419,40.5334],[127.9361,40.5178],[127.9274,40.5024],[127.9143,40.4892],[127.8231,40.4337],[127.7586,40.4055],[127.741,40.4016],[127.7292,40.4041],[127.7229,40.4142],[127.7215,40.4332],[127.7225,40.4604],[127.7257,40.4724],[127.7337,40.4845],[127.7525,40.5008],[127.7585,40.5091],[127.7611,40.5226],[127.7587,40.537],[127.7546,40.5478],[127.7547,40.5577],[127.7652,40.5692],[127.7716,40.58],[127.7592,40.5843],[127.7273,40.5851],[127.7148,40.5869],[127.7044,40.5902],[127.6955,40.5962],[127.6877,40.6059],[127.6821,40.6219],[127.6756,40.6587],[127.6667,40.6733],[127.6547,40.6813],[127.6432,40.6859],[127.6322,40.6916],[127.6215,40.7031],[127.5809,40.7578],[127.5758,40.7701],[127.5703,40.7969],[127.5646,40.8097],[127.5506,40.8194],[127.533,40.8232],[127.5195,40.8281],[127.5174,40.8406],[127.5256,40.8518],[127.5393,40.8622],[127.6011,40.8993],[127.6178,40.9222],[127.6147,40.9479],[127.5899,40.978],[127.5854,40.9898],[127.599,40.9954],[127.6289,40.9972],[127.6435,41.0012],[127.6548,41.0089],[127.6625,41.0201],[127.6669,41.0343],[127.6735,41.0723],[127.6746,41.1048],[127.6615,41.1292],[127.6253,41.1427],[127.5579,41.1536],[127.5317,41.1455],[127.5155,41.1158],[127.5112,41.0961],[127.5052,41.0791],[127.4941,41.0671],[127.4745,41.062],[127.4329,41.0642],[127.3917,41.0713],[127.3929,41.0927],[127.3911,41.1194],[127.3861,41.145],[127.3773,41.1637],[127.3556,41.1756],[127.3267,41.1757],[127.2977,41.1678],[127.2753,41.1558],[127.2611,41.1411],[127.2511,41.1261],[127.2388,41.1129],[127.2183,41.1033],[127.2049,41.102],[127.1657,41.1102],[127.1353,41.1128],[127.1222,41.1161],[127.0645,41.145],[127.0459,41.1577],[127.0333,41.177],[127.0279,41.2048],[127.0235,41.2171],[127.0133,41.2279],[127.001,41.2385],[127.0001,41.245],[127.0044,41.2513],[127.0072,41.261],[126.9999,41.2767],[126.9664,41.2975],[126.9558,41.3171],[126.9491,41.3518],[126.944,41.3687],[126.9369,41.3848],[126.9186,41.4076],[126.9158,41.4141],[126.919,41.421],[126.9323,41.4319],[126.9343,41.4396],[126.9291,41.4477],[126.9196,41.4506],[126.9089,41.4504],[126.9,41.4488],[126.8636,41.4362],[126.846,41.4359],[126.8277,41.4473],[126.8207,41.4581],[126.8147,41.4734],[126.812,41.4894],[126.8146,41.502],[126.8259,41.5127],[126.8387,41.5149],[126.8675,41.5117],[126.8855,41.515],[126.8945,41.5232],[126.9011,41.5347],[126.9115,41.5484],[126.9265,41.5577],[126.9441,41.5641],[126.9596,41.5725],[126.9684,41.5875],[126.9687,41.5959],[126.967,41.603],[126.9614,41.6176],[126.957,41.6398],[126.9561,41.6634],[126.9628,41.694],[126.9782,41.7207],[126.9964,41.7462],[126.9996,41.752],[127.0332,41.7316],[127.0427,41.7326],[127.0468,41.7192],[127.0683,41.6936],[127.0766,41.6808],[127.0596,41.6822],[127.049,41.6777],[127.0455,41.668],[127.0494,41.6534],[127.059,41.6433],[127.074,41.6357],[127.1047,41.6262],[127.1019,41.6223],[127.0972,41.6124],[127.114,41.6104],[127.1661,41.595],[127.1797,41.5852],[127.1578,41.5786],[127.1365,41.5692],[127.118,41.5558],[127.1047,41.5374],[127.112,41.5366],[127.1209,41.5348],[127.1282,41.5316],[127.1346,41.522],[127.1424,41.5239],[127.1559,41.5305],[127.1651,41.5285],[127.1704,41.5239],[127.1743,41.5193],[127.1797,41.517],[127.1873,41.5215],[127.2003,41.5421],[127.2071,41.5459],[127.222,41.5408],[127.2445,41.528],[127.2583,41.5255],[127.2675,41.5273],[127.2747,41.5304],[127.2815,41.5311],[127.289,41.5255],[127.2898,41.5186],[127.2836,41.5122],[127.2752,41.5073],[127.2691,41.505],[127.2864,41.499],[127.3051,41.4947],[127.3442,41.4913],[127.3537,41.4927],[127.3711,41.4981],[127.379,41.4988],[127.3885,41.496],[127.3959,41.4914],[127.4013,41.4868],[127.4051,41.4845],[127.4273,41.4831],[127.4431,41.488],[127.4571,41.4947],[127.4741,41.4988],[127.491,41.4954],[127.5085,41.4882],[127.5258,41.4843],[127.5429,41.4913],[127.5448,41.4689],[127.5588,41.4582],[127.5975,41.4503],[127.6307,41.4329],[127.6383,41.4299],[127.6471,41.433],[127.6581,41.4466],[127.6627,41.447],[127.6903,41.439],[127.7846,41.4369],[127.8104,41.4436],[127.8289,41.434],[127.8489,41.4313],[127.8651,41.4374],[127.8719,41.4537],[127.8815,41.4609],[127.9036,41.4663],[127.9442,41.4709],[127.9742,41.4503],[127.9845,41.454],[127.9927,41.4611],[128.0014,41.4709],[128.0124,41.4601],[128.0131,41.4423],[128.0115,41.4243],[128.0152,41.4133],[128.0238,41.4115],[128.0337,41.4138],[128.0506,41.4207],[128.0469,41.3988],[128.0642,41.3884],[128.0881,41.3889],[128.1039,41.3996],[128.1182,41.3934],[128.1039,41.3791],[128.1461,41.3763],[128.1857,41.4045],[128.2876,41.5447],[128.303,41.5834],[128.2833,41.6051],[128.2814,41.623],[128.269,41.6434],[128.2509,41.6601],[128.2241,41.6694],[128.186,41.6929],[128.1591,41.7118],[128.1549,41.7338],[128.1442,41.7547],[128.097,41.8226],[128.091,41.8417],[128.0576,41.8499],[128.0478,41.864],[128.04,41.8796],[128.0204,41.9651],[128.0215,41.9798],[128.0346,41.9937],[128.0546,41.9983],[128.1005,41.9991],[128.262,42.0329],[128.3638,42.0265],[128.3871,42.0207],[128.4076,42.0083],[128.454,42.0103],[128.4883,41.9975],[128.5024,41.9961],[128.5437,42.0081],[128.5533,42.0066],[128.5644,42.0008],[128.5737,42.0043],[128.5877,42.02],[128.5976,42.0271],[128.6079,42.0302],[128.6825,42.0257],[128.7093,42.0302],[128.721,42.0476]]]}}]}