{"type":"FeatureCollection","features":[{"type":"Feature","properties":{"id":"GAZ+00?","name":"Gaza Strip","nameBn":"গাজা গভর্নরেট","type":null,"bounds":[34.2003,31.2114,34.556,31.5831],"center":[34.3654,31.4263]},"geometry":{"type":"Polygon","coordinates":[[[34.4812,31.5831],[34.5201,31.5583],[34.556,31.5398],[34.5283,31.5201],[34.4957,31.4944],[34.4955,31.4944],[34.4804,31.4856],[34.3673,31.3928],[34.3458,31.3577],[34.3455,31.3407],[34.3538,31.3064],[34.3509,31.2893],[34.3159,31.2569],[34.2644,31.2242],[34.2484,31.2114],[34.2304,31.2592],[34.2246,31.2757],[34.2003,31.3143],[34.2227,31.3266],[34.2367,31.3424],[34.2814,31.3767],[34.3016,31.4077],[34.3484,31.4376],[34.3682,31.4682],[34.4434,31.5346],[34.4788,31.5783],[34.4812,31.5831]]]}},{"type":"Feature","properties":{"id":"ISR-3053","name":"HaDarom","nameBn":"হাদারোম","type":"District","bounds":[34.2484,29.4897,35.4585,31.878],"center":[34.8419,30.935]},"geometry":{"type":"Polygon","coordinates":[[[34.2484,31.2114],[34.2644,31.2242],[34.3159,31.2569],[34.3509,31.2893],[34.3538,31.3064],[34.3455,31.3407],[34.3458,31.3577],[34.3673,31.3928],[34.4804,31.4856],[34.4955,31.4944],[34.4957,31.4944],[34.5283,31.5201],[34.556,31.5398],[34.5201,31.5583],[34.4812,31.5831],[34.4895,31.6004],[34.5139,31.6271],[34.6027,31.7578],[34.6096,31.7655],[34.6659,31.8739],[34.6699,31.875],[34.6785,31.8772],[34.6805,31.878],[34.6846,31.878],[34.6892,31.8773],[34.6974,31.8745],[34.7015,31.874],[34.7046,31.874],[34.7066,31.8745],[34.7086,31.8739],[34.7104,31.8721],[34.7113,31.8675],[34.7108,31.8652],[34.7099,31.8634],[34.7071,31.8609],[34.706,31.8597],[34.7055,31.8582],[34.7057,31.8567],[34.7067,31.8506],[34.7066,31.8487],[34.7061,31.847],[34.7049,31.8436],[34.7049,31.8351],[34.7044,31.8332],[34.7032,31.8319],[34.7018,31.8311],[34.6999,31.8307],[34.6982,31.8306],[34.6965,31.8307],[34.6925,31.8313],[34.6864,31.8332],[34.6823,31.8338],[34.6801,31.8336],[34.6782,31.8331],[34.6768,31.8323],[34.6761,31.8316],[34.6745,31.8296],[34.674,31.8285],[34.6736,31.8274],[34.6734,31.8257],[34.6736,31.8241],[34.674,31.8226],[34.6743,31.8216],[34.6762,31.8197],[34.6792,31.8174],[34.6858,31.8133],[34.69,31.8097],[34.6905,31.8083],[34.6903,31.8066],[34.6897,31.8049],[34.6886,31.8035],[34.6874,31.8023],[34.6858,31.8012],[34.6843,31.8004],[34.6785,31.7982],[34.6753,31.7966],[34.6739,31.7954],[34.6728,31.7941],[34.672,31.7925],[34.6717,31.7907],[34.672,31.7894],[34.6723,31.7884],[34.673,31.7872],[34.6737,31.7864],[34.6978,31.7793],[34.7023,31.7789],[34.7058,31.7801],[34.7161,31.7867],[34.7201,31.7886],[34.7257,31.79],[34.7273,31.7916],[34.7273,31.7929],[34.726,31.7941],[34.7245,31.7952],[34.7235,31.7966],[34.7226,31.7982],[34.722,31.8],[34.7209,31.8014],[34.7194,31.8024],[34.7175,31.8032],[34.7154,31.8038],[34.7139,31.8047],[34.713,31.8057],[34.7135,31.8069],[34.7164,31.8076],[34.7328,31.8097],[34.7352,31.8109],[34.7383,31.8142],[34.7412,31.8136],[34.7463,31.8121],[34.7632,31.8036],[34.7665,31.8014],[34.7698,31.7973],[34.7723,31.7923],[34.7789,31.7751],[34.7811,31.7714],[34.7828,31.7692],[34.7853,31.7668],[34.7865,31.7658],[34.7948,31.7695],[34.8278,31.792],[34.8548,31.7626],[34.864,31.7566],[34.8663,31.7563],[34.87,31.755],[34.8714,31.7539],[34.8726,31.7521],[34.8734,31.7495],[34.8731,31.745],[34.8723,31.7424],[34.8706,31.7387],[34.8702,31.7369],[34.8702,31.7351],[34.8706,31.7333],[34.8746,31.7229],[34.8753,31.7188],[34.8753,31.7166],[34.8751,31.7146],[34.8746,31.7127],[34.8722,31.7078],[34.8717,31.7059],[34.8714,31.7039],[34.8714,31.7017],[34.8726,31.6889],[34.872,31.6831],[34.8722,31.681],[34.8739,31.6757],[34.8742,31.6737],[34.874,31.6649],[34.8729,31.6591],[34.8815,31.6523],[34.9528,31.6086],[34.9532,31.6083],[34.9373,31.582],[34.9329,31.5549],[34.9325,31.527],[34.9268,31.4944],[34.8817,31.4299],[34.8672,31.3964],[34.8788,31.3628],[34.9009,31.3485],[34.9274,31.3449],[34.9549,31.3486],[34.9803,31.3562],[35.0402,31.3632],[35.1649,31.3623],[35.2233,31.381],[35.3323,31.4588],[35.3901,31.4871],[35.4581,31.4919],[35.4585,31.4916],[35.4571,31.4335],[35.4569,31.4235],[35.4529,31.4008],[35.4351,31.3606],[35.4165,31.3318],[35.4239,31.3246],[35.4223,31.303],[35.4082,31.282],[35.3957,31.2577],[35.4012,31.2303],[35.4107,31.2046],[35.4213,31.1845],[35.4362,31.1595],[35.4432,31.1322],[35.4385,31.1037],[35.3916,31.0239],[35.3852,30.9946],[35.3853,30.9633],[35.3741,30.9451],[35.3471,30.9227],[35.3349,30.9126],[35.3222,30.8899],[35.3195,30.8673],[35.32,30.8449],[35.3166,30.8228],[35.3108,30.8133],[35.2939,30.8002],[35.2861,30.7923],[35.2795,30.7802],[35.2761,30.769],[35.2716,30.7437],[35.2639,30.72],[35.2638,30.7198],[35.2053,30.6171],[35.1621,30.4947],[35.1574,30.4709],[35.14,30.4302],[35.14,30.4062],[35.145,30.3959],[35.1593,30.3756],[35.1621,30.3614],[35.16,30.3475],[35.1545,30.3368],[35.1478,30.3265],[35.1418,30.314],[35.1324,30.2619],[35.1252,30.2447],[35.1248,30.2161],[35.1453,30.1549],[35.1453,30.1234],[35.129,30.0897],[35.0863,30.034],[35.0747,29.9946],[35.0741,29.9826],[35.0703,29.9737],[35.0654,29.966],[35.0615,29.9573],[35.0541,29.9234],[35.0532,29.8626],[35.049,29.8423],[35.0025,29.7331],[34.9951,29.7082],[34.9898,29.652],[34.9803,29.627],[34.967,29.6081],[34.9599,29.5862],[34.9556,29.559],[34.9513,29.5456],[34.945,29.5369],[34.9277,29.518],[34.9198,29.5074],[34.9158,29.5002],[34.9141,29.4938],[34.9108,29.4899],[34.903,29.4897],[34.8937,29.4905],[34.8867,29.4901],[34.8781,29.5043],[34.8553,29.5457],[34.8482,29.5696],[34.8501,29.6388],[34.8244,29.7417],[34.7852,29.8357],[34.7414,29.9402],[34.7351,29.9946],[34.7356,30.0007],[34.735,30.0067],[34.7332,30.0126],[34.7304,30.0182],[34.6917,30.1145],[34.6326,30.262],[34.5995,30.3445],[34.5884,30.3588],[34.5338,30.4002],[34.5269,30.4096],[34.5247,30.4211],[34.5265,30.4387],[34.536,30.4686],[34.5362,30.4822],[34.5263,30.4946],[34.5104,30.5133],[34.5044,30.5303],[34.5022,30.5717],[34.4804,30.6512],[34.4188,30.7913],[34.3679,30.9074],[34.3295,30.9945],[34.298,31.0788],[34.2586,31.1841],[34.2484,31.2114]]]}},{"type":"Feature","properties":{"id":"ISR-3055","name":"HaMerkaz","nameBn":"সেন্ট্রাল জেলা","type":"District","bounds":[34.6659,31.7658,35.039,32.409],"center":[34.8491,31.9068]},"geometry":{"type":"Polygon","coordinates":[[[35.0327,32.3822],[35.0288,32.3652],[35.0216,32.3446],[35.0178,32.3422],[35.0045,32.3381],[35.0007,32.3357],[34.9966,32.323],[34.993,32.2916],[34.9899,32.2785],[35.0024,32.2751],[35.0094,32.2676],[35.0111,32.2571],[35.0076,32.2444],[35.0003,32.232],[34.9614,32.2016],[34.9582,32.1865],[34.9627,32.1735],[34.977,32.15],[34.9869,32.124],[34.9842,32.0896],[35.0072,32.0208],[34.9968,32.0111],[34.9988,31.9939],[34.9978,31.9788],[34.9867,31.9672],[35.0012,31.9496],[35.0077,31.9449],[35.0038,31.9392],[35.0054,31.9338],[35.0164,31.9266],[35.0299,31.9244],[35.039,31.9086],[35.0343,31.8611],[35.0301,31.857],[35.0066,31.8561],[34.9985,31.8538],[34.9924,31.8548],[34.9713,31.8549],[34.9592,31.854],[34.9433,31.8474],[34.9313,31.8405],[34.9213,31.8407],[34.9113,31.8324],[34.9087,31.8293],[34.9012,31.8145],[34.8949,31.8094],[34.8887,31.8063],[34.8278,31.792],[34.7948,31.7695],[34.7865,31.7658],[34.7853,31.7668],[34.7828,31.7692],[34.7811,31.7714],[34.7789,31.7751],[34.7723,31.7923],[34.7698,31.7973],[34.7665,31.8014],[34.7632,31.8036],[34.7463,31.8121],[34.7412,31.8136],[34.7383,31.8142],[34.7352,31.8109],[34.7328,31.8097],[34.7164,31.8076],[34.7135,31.8069],[34.713,31.8057],[34.7139,31.8047],[34.7154,31.8038],[34.7175,31.8032],[34.7194,31.8024],[34.7209,31.8014],[34.722,31.8],[34.7226,31.7982],[34.7235,31.7966],[34.7245,31.7952],[34.726,31.7941],[34.7273,31.7929],[34.7273,31.7916],[34.7257,31.79],[34.7201,31.7886],[34.7161,31.7867],[34.7058,31.7801],[34.7023,31.7789],[34.6978,31.7793],[34.6737,31.7864],[34.673,31.7872],[34.6723,31.7884],[34.672,31.7894],[34.6717,31.7907],[34.672,31.7925],[34.6728,31.7941],[34.6739,31.7954],[34.6753,31.7966],[34.6785,31.7982],[34.6843,31.8004],[34.6858,31.8012],[34.6874,31.8023],[34.6886,31.8035],[34.6897,31.8049],[34.6903,31.8066],[34.6905,31.8083],[34.69,31.8097],[34.6858,31.8133],[34.6792,31.8174],[34.6762,31.8197],[34.6743,31.8216],[34.674,31.8226],[34.6736,31.8241],[34.6734,31.8257],[34.6736,31.8274],[34.674,31.8285],[34.6745,31.8296],[34.6761,31.8316],[34.6768,31.8323],[34.6782,31.8331],[34.6801,31.8336],[34.6823,31.8338],[34.6864,31.8332],[34.6925,31.8313],[34.6965,31.8307],[34.6982,31.8306],[34.6999,31.8307],[34.7018,31.8311],[34.7032,31.8319],[34.7044,31.8332],[34.7049,31.8351],[34.7049,31.8436],[34.7061,31.847],[34.7066,31.8487],[34.7067,31.8506],[34.7057,31.8567],[34.7055,31.8582],[34.706,31.8597],[34.7071,31.8609],[34.7099,31.8634],[34.7108,31.8652],[34.7113,31.8675],[34.7104,31.8721],[34.7086,31.8739],[34.7066,31.8745],[34.7046,31.874],[34.7015,31.874],[34.6974,31.8745],[34.6892,31.8773],[34.6846,31.878],[34.6805,31.878],[34.6785,31.8772],[34.6699,31.875],[34.6659,31.8739],[34.6932,31.9265],[34.7119,31.9516],[34.7339,32.0133],[34.7339,32.0133],[34.7429,32.0046],[34.7479,32.002],[34.78,31.9984],[34.8005,31.998],[34.8039,31.9985],[34.8073,31.9996],[34.8081,31.9999],[34.8084,32.0],[34.8084,32.0001],[34.8086,32.0001],[34.8236,32.0139],[34.8246,32.015],[34.8262,32.0163],[34.8289,32.0179],[34.8351,32.0209],[34.8388,32.0218],[34.8418,32.0219],[34.8436,32.0213],[34.8452,32.0203],[34.8491,32.0167],[34.8531,32.0138],[34.8557,32.0131],[34.8602,32.0138],[34.8777,32.0199],[34.8821,32.0228],[34.8843,32.0254],[34.884,32.0271],[34.8834,32.0285],[34.8828,32.0292],[34.8804,32.0312],[34.8788,32.0323],[34.8698,32.036],[34.8683,32.0369],[34.8675,32.0383],[34.8669,32.0401],[34.8626,32.0638],[34.8618,32.0655],[34.861,32.0671],[34.8599,32.0684],[34.8571,32.0707],[34.8525,32.0735],[34.8509,32.0746],[34.848,32.0763],[34.8471,32.0772],[34.8463,32.0779],[34.8453,32.079],[34.8446,32.0804],[34.844,32.0822],[34.8436,32.0841],[34.8436,32.0859],[34.8446,32.0896],[34.8457,32.0931],[34.8463,32.1031],[34.8471,32.1076],[34.848,32.1096],[34.8545,32.1166],[34.8567,32.1197],[34.8635,32.1316],[34.8661,32.1393],[34.8661,32.1413],[34.8658,32.1434],[34.864,32.1477],[34.8636,32.1491],[34.8638,32.1513],[34.8647,32.1547],[34.8655,32.1589],[34.8655,32.1664],[34.8653,32.1684],[34.8647,32.1702],[34.8638,32.1717],[34.8626,32.1728],[34.8571,32.1752],[34.8556,32.176],[34.8543,32.1772],[34.852,32.1799],[34.8472,32.1826],[34.8413,32.1869],[34.8396,32.1879],[34.836,32.1894],[34.8317,32.1903],[34.8106,32.1927],[34.8044,32.1925],[34.8377,32.2807],[34.8678,32.4075],[34.8683,32.4075],[34.9094,32.4067],[34.9209,32.4075],[34.9231,32.4079],[34.9327,32.409],[34.9825,32.4055],[34.9858,32.4044],[34.9899,32.4023],[35.0058,32.39],[35.0091,32.3883],[35.0111,32.3869],[35.0123,32.3854],[35.0134,32.384],[35.0145,32.3826],[35.0213,32.3812],[35.0323,32.3822],[35.0327,32.3822]]]}},{"type":"Feature","properties":{"id":"ISR-3056","name":"HaZafon","nameBn":"নর্দান জেলা","type":"District","bounds":[35.0249,32.3847,35.8881,33.4067],"center":[35.4202,32.8235]},"geometry":{"type":"Polygon","coordinates":[[[35.561,32.3847],[35.4801,32.4024],[35.4567,32.4076],[35.4328,32.4083],[35.4069,32.4148],[35.4014,32.44],[35.4018,32.471],[35.3929,32.4945],[35.3631,32.5101],[35.3334,32.5131],[35.2704,32.5105],[35.2522,32.5159],[35.2237,32.5359],[35.2104,32.5419],[35.208,32.5464],[35.1797,32.5691],[35.1765,32.571],[35.172,32.5732],[35.1703,32.5726],[35.1687,32.5718],[35.1663,32.5694],[35.1635,32.5648],[35.1623,32.5634],[35.1611,32.5621],[35.1595,32.5612],[35.1505,32.5573],[35.149,32.5563],[35.1476,32.5551],[35.1468,32.5535],[35.1464,32.5518],[35.1461,32.5498],[35.145,32.5479],[35.1433,32.5463],[35.1378,32.5434],[35.1361,32.5421],[35.1352,32.5408],[35.1343,32.5392],[35.1323,32.5371],[35.1293,32.5346],[35.1226,32.5304],[35.1186,32.529],[35.1155,32.5286],[35.1133,32.529],[35.1113,32.5297],[35.0823,32.5345],[35.0778,32.5362],[35.0745,32.5382],[35.0682,32.5412],[35.0652,32.5432],[35.0634,32.5453],[35.0621,32.5472],[35.0603,32.5491],[35.0538,32.5526],[35.0521,32.5541],[35.0514,32.5558],[35.0512,32.5577],[35.0515,32.5595],[35.0539,32.5666],[35.0545,32.5706],[35.0539,32.5728],[35.0524,32.5745],[35.039,32.5821],[35.0348,32.5851],[35.034,32.5866],[35.0334,32.5883],[35.0331,32.5903],[35.0331,32.5923],[35.0322,32.5952],[35.0306,32.5987],[35.0263,32.6045],[35.0249,32.6079],[35.0249,32.6102],[35.026,32.6114],[35.0278,32.6122],[35.0298,32.6127],[35.0345,32.6129],[35.0367,32.6128],[35.0394,32.6121],[35.045,32.6102],[35.0496,32.6096],[35.0499,32.611],[35.0483,32.6138],[35.0404,32.6211],[35.0374,32.6252],[35.0357,32.6283],[35.0359,32.6304],[35.0368,32.6341],[35.0374,32.6357],[35.0394,32.6386],[35.0405,32.6399],[35.0433,32.6423],[35.0449,32.6432],[35.0468,32.6438],[35.049,32.6443],[35.0512,32.6445],[35.0538,32.6443],[35.0581,32.6435],[35.0711,32.6386],[35.0731,32.6384],[35.0752,32.6387],[35.0769,32.6396],[35.0784,32.6406],[35.0815,32.6448],[35.0889,32.6591],[35.0911,32.6618],[35.0924,32.663],[35.0938,32.6641],[35.1081,32.6706],[35.1088,32.6731],[35.1087,32.6772],[35.1038,32.695],[35.1038,32.6968],[35.1048,32.7028],[35.1062,32.7062],[35.1072,32.7075],[35.1088,32.7082],[35.1107,32.7083],[35.1123,32.7076],[35.1136,32.7065],[35.1166,32.7022],[35.1178,32.7009],[35.1191,32.6997],[35.1208,32.6991],[35.1225,32.6992],[35.1242,32.6999],[35.1257,32.7009],[35.1284,32.7031],[35.1307,32.7059],[35.1323,32.7087],[35.1324,32.7107],[35.1324,32.713],[35.1318,32.7181],[35.1324,32.7207],[35.1335,32.7226],[35.1385,32.7252],[35.1399,32.7272],[35.1403,32.7303],[35.1386,32.7443],[35.1389,32.7462],[35.1403,32.749],[35.1412,32.7502],[35.1414,32.7502],[35.1513,32.7633],[35.1524,32.7661],[35.1536,32.7699],[35.1547,32.778],[35.1547,32.782],[35.1544,32.7849],[35.144,32.8039],[35.142,32.8087],[35.1409,32.8124],[35.1411,32.8144],[35.1437,32.8268],[35.1436,32.83],[35.1426,32.8321],[35.1411,32.8332],[35.1375,32.8349],[35.1228,32.8385],[35.1191,32.8398],[35.1175,32.8407],[35.1144,32.8428],[35.113,32.844],[35.1102,32.8461],[35.102,32.8509],[35.1004,32.8529],[35.1,32.8548],[35.1024,32.8672],[35.1021,32.8703],[35.1012,32.8723],[35.0972,32.8744],[35.0955,32.8764],[35.0934,32.8794],[35.0899,32.8862],[35.0874,32.8889],[35.0848,32.8906],[35.0776,32.8925],[35.0755,32.8931],[35.0796,32.9058],[35.0778,32.9179],[35.0654,32.9231],[35.0715,32.9379],[35.0785,32.9988],[35.092,33.0312],[35.0962,33.0504],[35.0921,33.0677],[35.0964,33.0714],[35.1018,33.0776],[35.1065,33.0808],[35.0996,33.0876],[35.1043,33.0885],[35.1052,33.089],[35.1853,33.084],[35.1896,33.0855],[35.2007,33.0927],[35.2072,33.0948],[35.2132,33.0944],[35.2273,33.0914],[35.2345,33.0909],[35.2715,33.1012],[35.2837,33.1012],[35.2888,33.0992],[35.2946,33.097],[35.3058,33.0894],[35.3157,33.0792],[35.3226,33.0674],[35.3319,33.0572],[35.3452,33.0556],[35.4016,33.0679],[35.4494,33.0852],[35.4801,33.0874],[35.4851,33.1026],[35.5037,33.1306],[35.5123,33.1474],[35.5177,33.1729],[35.52,33.2222],[35.5278,33.2443],[35.5369,33.2579],[35.5428,33.2715],[35.5495,33.281],[35.5612,33.2821],[35.567,33.2762],[35.585,33.2522],[35.5978,33.2444],[35.5979,33.2444],[35.5981,33.2443],[35.6039,33.2401],[35.6039,33.2403],[35.6046,33.2443],[35.6046,33.2444],[35.6181,33.2561],[35.6201,33.2695],[35.6311,33.2746],[35.6521,33.2767],[35.6605,33.2893],[35.6985,33.3227],[35.7162,33.3267],[35.7294,33.3278],[35.7437,33.3312],[35.7575,33.3363],[35.7694,33.3426],[35.7858,33.3579],[35.8057,33.3913],[35.8211,33.4067],[35.8224,33.4014],[35.817,33.3952],[35.8154,33.3789],[35.8123,33.3734],[35.8099,33.36],[35.7935,33.3499],[35.7858,33.3429],[35.7638,33.3344],[35.8021,33.3125],[35.7686,33.2727],[35.7756,33.2649],[35.8036,33.2485],[35.8077,33.2017],[35.8302,33.19],[35.8334,33.1611],[35.8224,33.1416],[35.8115,33.1268],[35.8115,33.1119],[35.8489,33.0987],[35.8458,33.0854],[35.859,32.9902],[35.8646,32.9777],[35.8881,32.9449],[35.874,32.9223],[35.8669,32.9208],[35.8497,32.8958],[35.8381,32.866],[35.8419,32.8536],[35.8342,32.8279],[35.7842,32.7779],[35.7576,32.7443],[35.7574,32.7443],[35.7402,32.7405],[35.6852,32.7112],[35.652,32.6862],[35.636,32.6791],[35.6123,32.6815],[35.6123,32.6816],[35.5938,32.6704],[35.5787,32.6534],[35.5698,32.6468],[35.5627,32.6442],[35.5605,32.6409],[35.56,32.6327],[35.5641,32.6255],[35.5725,32.6212],[35.5725,32.615],[35.5656,32.615],[35.5656,32.6075],[35.5713,32.5986],[35.5744,32.5728],[35.58,32.5604],[35.5758,32.555],[35.5744,32.5544],[35.5739,32.5567],[35.5725,32.5604],[35.5702,32.5568],[35.5656,32.5461],[35.5594,32.553],[35.5628,32.532],[35.5656,32.5256],[35.552,32.5256],[35.552,32.5188],[35.5572,32.5193],[35.5614,32.5192],[35.5685,32.5103],[35.5706,32.506],[35.58,32.4977],[35.58,32.4915],[35.571,32.4892],[35.565,32.4839],[35.5613,32.4771],[35.5594,32.4704],[35.5631,32.4682],[35.5654,32.4663],[35.5681,32.465],[35.5725,32.4642],[35.5725,32.4567],[35.5662,32.4531],[35.5594,32.4505],[35.5656,32.4437],[35.552,32.4362],[35.5541,32.4345],[35.5562,32.4348],[35.5579,32.4341],[35.5594,32.4294],[35.552,32.4294],[35.552,32.4232],[35.5582,32.418],[35.5591,32.414],[35.5549,32.4112],[35.5451,32.4096],[35.5496,32.3985],[35.552,32.3953],[35.5568,32.3909],[35.561,32.3847]]]}},{"type":"Feature","properties":{"id":"ISR-3054","name":"Haifa","nameBn":"হাইফা জেলা","type":"District","bounds":[34.8678,32.3812,35.2104,32.8931],"center":[34.9727,32.5523]},"geometry":{"type":"Polygon","coordinates":[[[35.2104,32.5419],[35.2086,32.5426],[35.1908,32.5417],[35.1768,32.5327],[35.1517,32.5079],[35.1207,32.4913],[35.0907,32.4792],[35.0643,32.4631],[35.0447,32.4341],[35.0327,32.3822],[35.0323,32.3822],[35.0213,32.3812],[35.0145,32.3826],[35.0134,32.384],[35.0123,32.3854],[35.0111,32.3869],[35.0091,32.3883],[35.0058,32.39],[34.9899,32.4023],[34.9858,32.4044],[34.9825,32.4055],[34.9327,32.409],[34.9231,32.4079],[34.9209,32.4075],[34.9094,32.4067],[34.8683,32.4075],[34.8678,32.4075],[34.8732,32.4303],[34.9041,32.5606],[34.9098,32.5703],[34.9159,32.6149],[34.9209,32.6282],[34.9191,32.643],[34.9421,32.7245],[34.9475,32.8142],[34.9556,32.8344],[34.9705,32.8414],[34.9832,32.8388],[35.0034,32.8275],[35.0187,32.825],[35.0277,32.8266],[35.0628,32.8583],[35.0671,32.8668],[35.0755,32.8931],[35.0776,32.8925],[35.0848,32.8906],[35.0874,32.8889],[35.0899,32.8862],[35.0934,32.8794],[35.0955,32.8764],[35.0972,32.8744],[35.1012,32.8723],[35.1021,32.8703],[35.1024,32.8672],[35.1,32.8548],[35.1004,32.8529],[35.102,32.8509],[35.1102,32.8461],[35.113,32.844],[35.1144,32.8428],[35.1175,32.8407],[35.1191,32.8398],[35.1228,32.8385],[35.1375,32.8349],[35.1411,32.8332],[35.1426,32.8321],[35.1436,32.83],[35.1437,32.8268],[35.1411,32.8144],[35.1409,32.8124],[35.142,32.8087],[35.144,32.8039],[35.1544,32.7849],[35.1547,32.782],[35.1547,32.778],[35.1536,32.7699],[35.1524,32.7661],[35.1513,32.7633],[35.1414,32.7502],[35.1412,32.7502],[35.1403,32.749],[35.1389,32.7462],[35.1386,32.7443],[35.1403,32.7303],[35.1399,32.7272],[35.1385,32.7252],[35.1335,32.7226],[35.1324,32.7207],[35.1318,32.7181],[35.1324,32.713],[35.1324,32.7107],[35.1323,32.7087],[35.1307,32.7059],[35.1284,32.7031],[35.1257,32.7009],[35.1242,32.6999],[35.1225,32.6992],[35.1208,32.6991],[35.1191,32.6997],[35.1178,32.7009],[35.1166,32.7022],[35.1136,32.7065],[35.1123,32.7076],[35.1107,32.7083],[35.1088,32.7082],[35.1072,32.7075],[35.1062,32.7062],[35.1048,32.7028],[35.1038,32.6968],[35.1038,32.695],[35.1087,32.6772],[35.1088,32.6731],[35.1081,32.6706],[35.0938,32.6641],[35.0924,32.663],[35.0911,32.6618],[35.0889,32.6591],[35.0815,32.6448],[35.0784,32.6406],[35.0769,32.6396],[35.0752,32.6387],[35.0731,32.6384],[35.0711,32.6386],[35.0581,32.6435],[35.0538,32.6443],[35.0512,32.6445],[35.049,32.6443],[35.0468,32.6438],[35.0449,32.6432],[35.0433,32.6423],[35.0405,32.6399],[35.0394,32.6386],[35.0374,32.6357],[35.0368,32.6341],[35.0359,32.6304],[35.0357,32.6283],[35.0374,32.6252],[35.0404,32.6211],[35.0483,32.6138],[35.0499,32.611],[35.0496,32.6096],[35.045,32.6102],[35.0394,32.6121],[35.0367,32.6128],[35.0345,32.6129],[35.0298,32.6127],[35.0278,32.6122],[35.026,32.6114],[35.0249,32.6102],[35.0249,32.6079],[35.0263,32.6045],[35.0306,32.5987],[35.0322,32.5952],[35.0331,32.5923],[35.0331,32.5903],[35.0334,32.5883],[35.034,32.5866],[35.0348,32.5851],[35.039,32.5821],[35.0524,32.5745],[35.0539,32.5728],[35.0545,32.5706],[35.0539,32.5666],[35.0515,32.5595],[35.0512,32.5577],[35.0514,32.5558],[35.0521,32.5541],[35.0538,32.5526],[35.0603,32.5491],[35.0621,32.5472],[35.0634,32.5453],[35.0652,32.5432],[35.0682,32.5412],[35.0745,32.5382],[35.0778,32.5362],[35.0823,32.5345],[35.1113,32.5297],[35.1133,32.529],[35.1155,32.5286],[35.1186,32.529],[35.1226,32.5304],[35.1293,32.5346],[35.1323,32.5371],[35.1343,32.5392],[35.1352,32.5408],[35.1361,32.5421],[35.1378,32.5434],[35.1433,32.5463],[35.145,32.5479],[35.1461,32.5498],[35.1464,32.5518],[35.1468,32.5535],[35.1476,32.5551],[35.149,32.5563],[35.1505,32.5573],[35.1595,32.5612],[35.1611,32.5621],[35.1623,32.5634],[35.1635,32.5648],[35.1663,32.5694],[35.1687,32.5718],[35.1703,32.5726],[35.172,32.5732],[35.1765,32.571],[35.1797,32.5691],[35.208,32.5464],[35.2104,32.5419]]]}},{"type":"Feature","properties":{"id":"ISR-3058","name":"Jerusalem","nameBn":"জেরুজালেম","type":"District","bounds":[34.8278,31.6083,35.2649,31.8815],"center":[35.0176,31.7397]},"geometry":{"type":"Polygon","coordinates":[[[35.1862,31.8087],[35.1858,31.8141],[35.1822,31.8199],[35.1836,31.8251],[35.1899,31.8267],[35.1966,31.8264],[35.2133,31.8188],[35.2158,31.8201],[35.2161,31.8237],[35.2161,31.8391],[35.213,31.8534],[35.2093,31.8634],[35.2048,31.8711],[35.2053,31.8773],[35.2121,31.8815],[35.222,31.8792],[35.2266,31.8672],[35.2256,31.8572],[35.2275,31.8503],[35.2334,31.8426],[35.2448,31.8451],[35.25,31.8444],[35.2537,31.8415],[35.2572,31.8386],[35.2516,31.8313],[35.2536,31.8294],[35.2602,31.8288],[35.2649,31.8263],[35.2606,31.8188],[35.2559,31.8122],[35.2588,31.8007],[35.26,31.7926],[35.2629,31.7897],[35.2581,31.7837],[35.2527,31.7696],[35.2532,31.7625],[35.2597,31.7569],[35.2628,31.7486],[35.2581,31.7424],[35.2525,31.7381],[35.2492,31.7236],[35.2443,31.7194],[35.2424,31.7109],[35.238,31.7093],[35.2314,31.7126],[35.228,31.7174],[35.2241,31.7192],[35.2194,31.7151],[35.2053,31.7232],[35.1794,31.7201],[35.1667,31.7321],[35.1544,31.7334],[35.149,31.7373],[35.1257,31.7331],[35.1142,31.7177],[35.0934,31.7024],[35.0592,31.6768],[34.9736,31.6304],[34.9553,31.6119],[34.9532,31.6083],[34.9528,31.6086],[34.8815,31.6523],[34.8729,31.6591],[34.874,31.6649],[34.8742,31.6737],[34.8739,31.6757],[34.8722,31.681],[34.872,31.6831],[34.8726,31.6889],[34.8714,31.7017],[34.8714,31.7039],[34.8717,31.7059],[34.8722,31.7078],[34.8746,31.7127],[34.8751,31.7146],[34.8753,31.7166],[34.8753,31.7188],[34.8746,31.7229],[34.8706,31.7333],[34.8702,31.7351],[34.8702,31.7369],[34.8706,31.7387],[34.8723,31.7424],[34.8731,31.745],[34.8734,31.7495],[34.8726,31.7521],[34.8714,31.7539],[34.87,31.755],[34.8663,31.7563],[34.864,31.7566],[34.8548,31.7626],[34.8278,31.792],[34.8887,31.8063],[34.8949,31.8094],[34.9012,31.8145],[34.9087,31.8293],[34.9113,31.8324],[34.9213,31.8407],[34.9313,31.8405],[34.9433,31.8474],[34.9592,31.854],[34.9713,31.8549],[34.9924,31.8548],[34.9985,31.8538],[34.9898,31.8456],[34.9787,31.8373],[34.9774,31.8334],[34.9803,31.8313],[35.0016,31.8285],[35.0129,31.8293],[35.0275,31.8327],[35.0456,31.8483],[35.056,31.8533],[35.0644,31.8546],[35.0763,31.8542],[35.0881,31.8481],[35.0976,31.8313],[35.1125,31.824],[35.1214,31.8248],[35.137,31.8143],[35.1739,31.8076],[35.1862,31.8087]]]}},{"type":"Feature","properties":{"id":"ISR-3057","name":"Tel Aviv","nameBn":"তেল আবিব জেলা","type":"District","bounds":[34.7339,31.998,34.8843,32.1927],"center":[34.8091,32.0966]},"geometry":{"type":"Polygon","coordinates":[[[34.7339,32.0133],[34.7433,32.0399],[34.744,32.0446],[34.7427,32.0556],[34.7433,32.0604],[34.757,32.0666],[34.8044,32.1925],[34.8106,32.1927],[34.8317,32.1903],[34.836,32.1894],[34.8396,32.1879],[34.8413,32.1869],[34.8472,32.1826],[34.852,32.1799],[34.8543,32.1772],[34.8556,32.176],[34.8571,32.1752],[34.8626,32.1728],[34.8638,32.1717],[34.8647,32.1702],[34.8653,32.1684],[34.8655,32.1664],[34.8655,32.1589],[34.8647,32.1547],[34.8638,32.1513],[34.8636,32.1491],[34.864,32.1477],[34.8658,32.1434],[34.8661,32.1413],[34.8661,32.1393],[34.8635,32.1316],[34.8567,32.1197],[34.8545,32.1166],[34.848,32.1096],[34.8471,32.1076],[34.8463,32.1031],[34.8457,32.0931],[34.8446,32.0896],[34.8436,32.0859],[34.8436,32.0841],[34.844,32.0822],[34.8446,32.0804],[34.8453,32.079],[34.8463,32.0779],[34.8471,32.0772],[34.848,32.0763],[34.8509,32.0746],[34.8525,32.0735],[34.8571,32.0707],[34.8599,32.0684],[34.861,32.0671],[34.8618,32.0655],[34.8626,32.0638],[34.8669,32.0401],[34.8675,32.0383],[34.8683,32.0369],[34.8698,32.036],[34.8788,32.0323],[34.8804,32.0312],[34.8828,32.0292],[34.8834,32.0285],[34.884,32.0271],[34.8843,32.0254],[34.8821,32.0228],[34.8777,32.0199],[34.8602,32.0138],[34.8557,32.0131],[34.8531,32.0138],[34.8491,32.0167],[34.8452,32.0203],[34.8436,32.0213],[34.8418,32.0219],[34.8388,32.0218],[34.8351,32.0209],[34.8289,32.0179],[34.8262,32.0163],[34.8246,32.015],[34.8236,32.0139],[34.8086,32.0001],[34.8084,32.0001],[34.8084,32.0],[34.8081,31.9999],[34.8073,31.9996],[34.8039,31.9985],[34.8005,31.998],[34.78,31.9984],[34.7479,32.002],[34.7429,32.0046],[34.7339,32.0133],[34.7339,32.0133]]]}},{"type":"Feature","properties":{"id":"WEB+00?","name":"West Bank","nameBn":"ওয়েস্ট ব্যাংক","type":null,"bounds":[34.8672,31.3449,35.5725,32.5426],"center":[35.2918,32.003]},"geometry":{"type":"Polygon","coordinates":[[[35.2104,32.5419],[35.2237,32.5359],[35.2522,32.5159],[35.2704,32.5105],[35.3334,32.5131],[35.3631,32.5101],[35.3929,32.4945],[35.4018,32.471],[35.4014,32.44],[35.4069,32.4148],[35.4328,32.4083],[35.4567,32.4076],[35.4801,32.4024],[35.561,32.3847],[35.564,32.377],[35.5656,32.3679],[35.5594,32.3679],[35.5594,32.3748],[35.552,32.3748],[35.552,32.3679],[35.5573,32.3582],[35.5565,32.3282],[35.5656,32.3134],[35.5612,32.3017],[35.5609,32.2826],[35.5646,32.2636],[35.5725,32.2519],[35.5676,32.2495],[35.5638,32.2468],[35.5611,32.2431],[35.5594,32.2376],[35.5725,32.2376],[35.5596,32.1904],[35.5552,32.1744],[35.5594,32.1625],[35.5594,32.1551],[35.5512,32.1515],[35.5467,32.147],[35.5467,32.1416],[35.552,32.1352],[35.5352,32.1108],[35.5346,32.0992],[35.5451,32.0868],[35.5283,32.0751],[35.5228,32.0578],[35.5247,32.0117],[35.5355,31.9882],[35.5377,31.9776],[35.5383,31.9639],[35.54,31.9556],[35.5459,31.9446],[35.5451,31.9366],[35.5406,31.932],[35.5337,31.9303],[35.5275,31.9274],[35.5247,31.9192],[35.5491,31.8392],[35.5383,31.8267],[35.5383,31.8193],[35.5594,31.7653],[35.5276,31.7351],[35.5025,31.6854],[35.4801,31.6411],[35.4642,31.5686],[35.4587,31.4944],[35.4591,31.4928],[35.4592,31.4919],[35.4587,31.4916],[35.4581,31.4919],[35.3901,31.4871],[35.3323,31.4588],[35.2233,31.381],[35.1649,31.3623],[35.0402,31.3632],[34.9803,31.3562],[34.9549,31.3486],[34.9274,31.3449],[34.9009,31.3485],[34.8788,31.3628],[34.8672,31.3964],[34.8817,31.4299],[34.9268,31.4944],[34.9325,31.527],[34.9329,31.5549],[34.9373,31.582],[34.9532,31.6083],[34.9553,31.6119],[34.9736,31.6304],[35.0592,31.6768],[35.0934,31.7024],[35.1142,31.7177],[35.1257,31.7331],[35.149,31.7373],[35.1544,31.7334],[35.1667,31.7321],[35.1794,31.7201],[35.2053,31.7232],[35.2194,31.7151],[35.2241,31.7192],[35.228,31.7174],[35.2314,31.7126],[35.238,31.7093],[35.2424,31.7109],[35.2443,31.7194],[35.2492,31.7236],[35.2525,31.7381],[35.2581,31.7424],[35.2628,31.7486],[35.2597,31.7569],[35.2532,31.7625],[35.2527,31.7696],[35.2581,31.7837],[35.2629,31.7897],[35.26,31.7926],[35.2588,31.8007],[35.2559,31.8122],[35.2606,31.8188],[35.2649,31.8263],[35.2602,31.8288],[35.2536,31.8294],[35.2516,31.8313],[35.2572,31.8386],[35.2537,31.8415],[35.25,31.8444],[35.2448,31.8451],[35.2334,31.8426],[35.2275,31.8503],[35.2256,31.8572],[35.2266,31.8672],[35.222,31.8792],[35.2121,31.8815],[35.2053,31.8773],[35.2048,31.8711],[35.2093,31.8634],[35.213,31.8534],[35.2161,31.8391],[35.2161,31.8237],[35.2158,31.8201],[35.2133,31.8188],[35.1966,31.8264],[35.1899,31.8267],[35.1836,31.8251],[35.1822,31.8199],[35.1858,31.8141],[35.1862,31.8087],[35.1739,31.8076],[35.137,31.8143],[35.1214,31.8248],[35.1125,31.824],[35.0976,31.8313],[35.0881,31.8481],[35.0763,31.8542],[35.0644,31.8546],[35.056,31.8533],[35.0456,31.8483],[35.0275,31.8327],[35.0129,31.8293],[35.0016,31.8285],[34.9803,31.8313],[34.9774,31.8334],[34.9787,31.8373],[34.9898,31.8456],[34.9985,31.8538],[35.0066,31.8561],[35.0301,31.857],[35.0343,31.8611],[35.039,31.9086],[35.0299,31.9244],[35.0164,31.9266],[35.0054,31.9338],[35.0038,31.9392],[35.0077,31.9449],[35.0012,31.9496],[34.9867,31.9672],[34.9978,31.9788],[34.9988,31.9939],[34.9968,32.0111],[35.0072,32.0208],[34.9842,32.0896],[34.9869,32.124],[34.977,32.15],[34.9627,32.1735],[34.9582,32.1865],[34.9614,32.2016],[35.0003,32.232],[35.0076,32.2444],[35.0111,32.2571],[35.0094,32.2676],[35.0024,32.2751],[34.9899,32.2785],[34.993,32.2916],[34.9966,32.323],[35.0007,32.3357],[35.0045,32.3381],[35.0178,32.3422],[35.0216,32.3446],[35.0288,32.3652],[35.0327,32.3822],[35.0447,32.4341],[35.0643,32.4631],[35.0907,32.4792],[35.1207,32.4913],[35.1517,32.5079],[35.1768,32.5327],[35.1908,32.5417],[35.2086,32.5426],[35.2104,32.5419]]]}}]}