{"type":"FeatureCollection","features":[{"type":"Feature","properties":{"id":"RWA-3493","name":"Eastern","nameBn":"ইস্টার্ন প্রদেশ","type":"Province","bounds":[29.9568,-2.4315,30.8878,-1.0587],"center":[30.4223,-1.6906]},"geometry":{"type":"Polygon","coordinates":[[[30.4151,-2.3131],[30.3834,-2.3055],[30.3786,-2.3031],[30.3625,-2.3078],[30.3528,-2.3169],[30.3486,-2.3224],[30.344,-2.3284],[30.3312,-2.3403],[30.3168,-2.3476],[30.298,-2.3537],[30.2789,-2.3576],[30.2627,-2.3584],[30.2503,-2.3556],[30.2191,-2.3404],[30.2075,-2.3392],[30.2039,-2.346],[30.2034,-2.3554],[30.2013,-2.3624],[30.1562,-2.419],[30.1391,-2.4308],[30.1168,-2.4315],[30.0939,-2.4226],[30.073,-2.4088],[30.0565,-2.3944],[30.0255,-2.3577],[30.0133,-2.3483],[30.0019,-2.3443],[29.9923,-2.344],[29.9839,-2.3448],[29.9761,-2.3437],[29.9585,-2.3285],[29.9568,-2.327],[29.9591,-2.3243],[29.9605,-2.3215],[29.9616,-2.319],[29.964,-2.2998],[29.9676,-2.2811],[29.9679,-2.2792],[29.9685,-2.2776],[29.9804,-2.2429],[29.9859,-2.1938],[29.9843,-2.1607],[29.995,-2.1399],[30.0099,-2.1236],[30.0165,-2.1115],[30.0166,-2.0999],[30.0167,-2.0818],[30.0178,-2.0721],[30.0224,-2.0683],[30.032,-2.064],[30.0382,-2.0606],[30.0434,-2.0551],[30.0506,-2.0532],[30.0542,-2.0575],[30.0589,-2.0636],[30.0675,-2.0645],[30.0736,-2.0638],[30.0764,-2.0629],[30.0798,-2.0621],[30.0857,-2.0609],[30.0923,-2.0595],[30.098,-2.0577],[30.107,-2.0558],[30.1151,-2.055],[30.118,-2.0549],[30.1214,-2.0543],[30.1238,-2.0506],[30.1298,-2.0455],[30.1368,-2.0404],[30.1425,-2.0374],[30.1532,-2.0327],[30.1654,-2.0284],[30.1776,-2.0319],[30.1882,-2.0457],[30.1949,-2.0561],[30.2025,-2.0656],[30.2091,-2.0747],[30.2158,-2.0651],[30.2237,-2.047],[30.2303,-2.0109],[30.2333,-1.9748],[30.234,-1.9633],[30.2394,-1.9571],[30.2538,-1.951],[30.2674,-1.9444],[30.2721,-1.936],[30.2725,-1.9164],[30.2704,-1.9],[30.2645,-1.8941],[30.2583,-1.8865],[30.259,-1.8727],[30.2552,-1.8582],[30.2484,-1.8485],[30.2471,-1.8432],[30.2511,-1.8403],[30.2581,-1.8328],[30.2667,-1.8269],[30.2724,-1.8235],[30.2721,-1.8083],[30.2643,-1.7776],[30.254,-1.7433],[30.2504,-1.7223],[30.2543,-1.7112],[30.2576,-1.6997],[30.2517,-1.6863],[30.2375,-1.6708],[30.218,-1.6467],[30.1999,-1.6231],[30.1869,-1.6094],[30.177,-1.5916],[30.1693,-1.5712],[30.1651,-1.5489],[30.1704,-1.5321],[30.1784,-1.5249],[30.1788,-1.5203],[30.1733,-1.5174],[30.1635,-1.5174],[30.1516,-1.5216],[30.1425,-1.5243],[30.1418,-1.5151],[30.1393,-1.4997],[30.135,-1.4903],[30.1264,-1.4715],[30.1177,-1.4552],[30.1065,-1.4384],[30.0939,-1.4173],[30.0874,-1.4121],[30.0819,-1.4045],[30.0787,-1.3943],[30.0731,-1.3899],[30.0702,-1.3891],[30.066,-1.3869],[30.0955,-1.3711],[30.1363,-1.3552],[30.1472,-1.3451],[30.1523,-1.3299],[30.1584,-1.2911],[30.1656,-1.2775],[30.1734,-1.2728],[30.1814,-1.2715],[30.1894,-1.2709],[30.1967,-1.2687],[30.2122,-1.2595],[30.2567,-1.2172],[30.2698,-1.2005],[30.2805,-1.1824],[30.2824,-1.1758],[30.2846,-1.1614],[30.2875,-1.1554],[30.2909,-1.1526],[30.2946,-1.1496],[30.3113,-1.1421],[30.3174,-1.137],[30.3226,-1.1218],[30.329,-1.0805],[30.3375,-1.0662],[30.3528,-1.0608],[30.3693,-1.0632],[30.3863,-1.0682],[30.4032,-1.0704],[30.4189,-1.0664],[30.432,-1.0606],[30.4456,-1.0587],[30.4608,-1.0634],[30.4718,-1.0668],[30.4639,-1.0751],[30.4562,-1.0861],[30.453,-1.0973],[30.4563,-1.1081],[30.4709,-1.1181],[30.4742,-1.1318],[30.4721,-1.1377],[30.4683,-1.1433],[30.4656,-1.1493],[30.4673,-1.1553],[30.4761,-1.1612],[30.484,-1.16],[30.4905,-1.1565],[30.4947,-1.1553],[30.507,-1.1642],[30.5112,-1.1704],[30.5151,-1.1963],[30.5212,-1.2108],[30.5394,-1.241],[30.5453,-1.2614],[30.5546,-1.2735],[30.5566,-1.2816],[30.5556,-1.2847],[30.5534,-1.2891],[30.551,-1.295],[30.5499,-1.3024],[30.5553,-1.3184],[30.5682,-1.3281],[30.5977,-1.3403],[30.6082,-1.3478],[30.6232,-1.362],[30.6324,-1.3676],[30.6985,-1.3921],[30.7181,-1.3949],[30.7375,-1.4067],[30.7432,-1.4328],[30.7414,-1.4589],[30.7383,-1.4707],[30.7329,-1.4764],[30.7389,-1.4895],[30.7554,-1.5116],[30.7678,-1.5248],[30.7723,-1.5325],[30.782,-1.5684],[30.7916,-1.591],[30.8072,-1.6033],[30.831,-1.5942],[30.8383,-1.6154],[30.8375,-1.6411],[30.8246,-1.7199],[30.8242,-1.7307],[30.8265,-1.7359],[30.8354,-1.7495],[30.8379,-1.7587],[30.8264,-1.7862],[30.8299,-1.7967],[30.8379,-1.8368],[30.8324,-1.8538],[30.8222,-1.8688],[30.8166,-1.8842],[30.8242,-1.9021],[30.808,-1.9148],[30.8019,-1.9213],[30.797,-1.9293],[30.8269,-1.9341],[30.8299,-1.9606],[30.8168,-2.0187],[30.8355,-2.0147],[30.8535,-2.0237],[30.8687,-2.039],[30.8794,-2.0535],[30.8878,-2.0825],[30.8534,-2.1938],[30.8447,-2.2378],[30.8489,-2.3063],[30.8447,-2.3266],[30.8344,-2.3453],[30.8214,-2.3547],[30.8046,-2.3622],[30.7891,-2.3711],[30.7752,-2.3745],[30.7679,-2.3786],[30.7588,-2.3811],[30.7507,-2.3791],[30.6985,-2.3534],[30.6877,-2.35],[30.6748,-2.3517],[30.6633,-2.3607],[30.6491,-2.3876],[30.6379,-2.397],[30.6169,-2.3981],[30.5952,-2.3919],[30.5739,-2.3893],[30.5546,-2.4006],[30.5217,-2.3994],[30.4885,-2.3838],[30.4341,-2.3392],[30.4284,-2.3314],[30.4232,-2.3173],[30.4185,-2.3118],[30.4151,-2.3131]]]}},{"type":"Feature","properties":{"id":"RWA-3495","name":"Kigali City","nameBn":"কিগালি","type":"Province","bounds":[29.9781,-2.0747,30.2725,-1.7794],"center":[30.1253,-1.9264]},"geometry":{"type":"Polygon","coordinates":[[[30.0178,-2.0721],[30.0155,-2.0703],[30.0092,-2.0684],[30.0035,-2.0665],[29.9991,-2.0659],[29.9906,-2.0606],[29.9845,-2.0484],[29.9864,-2.0388],[29.9937,-2.0313],[30.0018,-2.0281],[30.0053,-2.0242],[30.0099,-2.0166],[30.0034,-2.0012],[29.9939,-1.9863],[29.9973,-1.9811],[29.9992,-1.9748],[30.0,-1.9685],[30.0001,-1.9646],[30.0004,-1.9628],[30.0021,-1.9584],[29.9992,-1.9512],[29.9962,-1.9436],[29.9932,-1.9374],[29.9904,-1.9335],[29.9883,-1.9302],[29.9856,-1.9226],[29.9826,-1.9141],[29.9806,-1.9107],[29.9811,-1.9094],[29.9837,-1.9084],[29.9875,-1.9055],[29.9835,-1.8935],[29.9781,-1.8783],[29.9825,-1.8682],[29.9907,-1.8545],[29.9983,-1.8424],[30.0079,-1.8391],[30.0213,-1.8478],[30.0336,-1.8561],[30.0467,-1.8483],[30.0575,-1.8358],[30.0631,-1.8285],[30.0834,-1.8194],[30.1079,-1.815],[30.1174,-1.8165],[30.1229,-1.8095],[30.1298,-1.7925],[30.1348,-1.7794],[30.1426,-1.7829],[30.1592,-1.7926],[30.1922,-1.8145],[30.2234,-1.8367],[30.2397,-1.8421],[30.2471,-1.8432],[30.2484,-1.8485],[30.2552,-1.8582],[30.259,-1.8727],[30.2583,-1.8865],[30.2645,-1.8941],[30.2704,-1.9],[30.2725,-1.9164],[30.2721,-1.936],[30.2674,-1.9444],[30.2538,-1.951],[30.2394,-1.9571],[30.234,-1.9633],[30.2333,-1.9748],[30.2303,-2.0109],[30.2237,-2.047],[30.2158,-2.0651],[30.2091,-2.0747],[30.2025,-2.0656],[30.1949,-2.0561],[30.1882,-2.0457],[30.1776,-2.0319],[30.1654,-2.0284],[30.1532,-2.0327],[30.1425,-2.0374],[30.1368,-2.0404],[30.1298,-2.0455],[30.1238,-2.0506],[30.1214,-2.0543],[30.118,-2.0549],[30.1151,-2.055],[30.107,-2.0558],[30.098,-2.0577],[30.0923,-2.0595],[30.0857,-2.0609],[30.0798,-2.0621],[30.0764,-2.0629],[30.0736,-2.0638],[30.0675,-2.0645],[30.0589,-2.0636],[30.0542,-2.0575],[30.0506,-2.0532],[30.0434,-2.0551],[30.0382,-2.0606],[30.032,-2.064],[30.0224,-2.0683],[30.0178,-2.0721]]]}},{"type":"Feature","properties":{"id":"RWA-3494","name":"Northern","nameBn":"নর্দান প্রদেশ","type":"Province","bounds":[29.4451,-1.9094,30.2724,-1.3226],"center":[29.8587,-1.6115]},"geometry":{"type":"Polygon","coordinates":[[[29.9174,-1.4752],[29.9385,-1.4729],[29.9604,-1.4648],[30.0283,-1.4271],[30.0387,-1.425],[30.0478,-1.4032],[30.0608,-1.3897],[30.066,-1.3869],[30.0702,-1.3891],[30.0731,-1.3899],[30.0787,-1.3943],[30.0819,-1.4045],[30.0874,-1.4121],[30.0939,-1.4173],[30.1065,-1.4384],[30.1177,-1.4552],[30.1264,-1.4715],[30.135,-1.4903],[30.1393,-1.4997],[30.1418,-1.5151],[30.1425,-1.5243],[30.1516,-1.5216],[30.1635,-1.5174],[30.1733,-1.5174],[30.1788,-1.5203],[30.1784,-1.5249],[30.1704,-1.5321],[30.1651,-1.5489],[30.1693,-1.5712],[30.177,-1.5916],[30.1869,-1.6094],[30.1999,-1.6231],[30.218,-1.6467],[30.2375,-1.6708],[30.2517,-1.6863],[30.2576,-1.6997],[30.2543,-1.7112],[30.2504,-1.7223],[30.254,-1.7433],[30.2643,-1.7776],[30.2721,-1.8083],[30.2724,-1.8235],[30.2667,-1.8269],[30.2581,-1.8328],[30.2511,-1.8403],[30.2471,-1.8432],[30.2397,-1.8421],[30.2234,-1.8367],[30.1922,-1.8145],[30.1592,-1.7926],[30.1426,-1.7829],[30.1348,-1.7794],[30.1298,-1.7925],[30.1229,-1.8095],[30.1174,-1.8165],[30.1079,-1.815],[30.0834,-1.8194],[30.0631,-1.8285],[30.0575,-1.8358],[30.0467,-1.8483],[30.0336,-1.8561],[30.0213,-1.8478],[30.0079,-1.8391],[29.9983,-1.8424],[29.9907,-1.8545],[29.9825,-1.8682],[29.9781,-1.8783],[29.9835,-1.8935],[29.9875,-1.9055],[29.9837,-1.9084],[29.9811,-1.9094],[29.9785,-1.9077],[29.9705,-1.9061],[29.9608,-1.8995],[29.9512,-1.8892],[29.943,-1.881],[29.9367,-1.875],[29.9293,-1.87],[29.9214,-1.8659],[29.9145,-1.8609],[29.9024,-1.8573],[29.8849,-1.8569],[29.8651,-1.8605],[29.8458,-1.8607],[29.8185,-1.8514],[29.7995,-1.8393],[29.7945,-1.825],[29.7805,-1.8117],[29.7688,-1.7935],[29.7554,-1.7737],[29.7452,-1.7577],[29.7416,-1.7484],[29.7339,-1.7472],[29.7214,-1.7495],[29.7026,-1.7426],[29.6862,-1.7317],[29.675,-1.7297],[29.6636,-1.7313],[29.6577,-1.7331],[29.6469,-1.7249],[29.6345,-1.7099],[29.6357,-1.6881],[29.6361,-1.6591],[29.6347,-1.6182],[29.6306,-1.5879],[29.6109,-1.5865],[29.5907,-1.5876],[29.5722,-1.5784],[29.556,-1.5708],[29.5506,-1.5692],[29.5467,-1.5667],[29.54,-1.5694],[29.5319,-1.5696],[29.513,-1.5636],[29.4914,-1.5561],[29.4673,-1.5278],[29.4494,-1.5035],[29.4451,-1.4973],[29.4643,-1.4669],[29.4987,-1.4311],[29.5386,-1.4023],[29.5779,-1.3884],[29.6181,-1.3906],[29.6391,-1.389],[29.6577,-1.3839],[29.6783,-1.3724],[29.6938,-1.3612],[29.7105,-1.3525],[29.7348,-1.3482],[29.7467,-1.3509],[29.768,-1.3638],[29.7749,-1.3663],[29.7832,-1.3614],[29.7892,-1.3417],[29.7982,-1.3309],[29.8075,-1.3251],[29.8161,-1.3226],[29.825,-1.3239],[29.8251,-1.3239],[29.8361,-1.3295],[29.8642,-1.3703],[29.8686,-1.3913],[29.871,-1.4324],[29.8807,-1.4536],[29.8979,-1.4696],[29.9174,-1.4752]]]}},{"type":"Feature","properties":{"id":"RWA-3491","name":"Southern","nameBn":"সাউদার্ন প্রদেশ","type":"Province","bounds":[29.2669,-2.8269,30.0178,-1.7297],"center":[29.6424,-2.3839]},"geometry":{"type":"Polygon","coordinates":[[[29.9568,-2.327],[29.9499,-2.3211],[29.9419,-2.3166],[29.9317,-2.3169],[29.9288,-2.3225],[29.9289,-2.3318],[29.9224,-2.383],[29.9296,-2.4598],[29.9079,-2.5354],[29.9037,-2.6379],[29.9033,-2.6491],[29.8979,-2.6711],[29.8884,-2.6929],[29.8762,-2.7136],[29.8629,-2.7317],[29.8424,-2.7524],[29.8236,-2.7635],[29.8034,-2.7673],[29.7785,-2.7666],[29.7562,-2.7599],[29.7447,-2.76],[29.7373,-2.7693],[29.734,-2.7903],[29.7296,-2.7996],[29.7199,-2.8055],[29.6975,-2.8083],[29.6787,-2.8054],[29.6371,-2.7916],[29.6264,-2.7881],[29.6193,-2.7877],[29.5895,-2.7984],[29.582,-2.803],[29.5741,-2.8061],[29.5638,-2.8057],[29.5418,-2.8086],[29.5231,-2.8204],[29.5041,-2.8269],[29.4809,-2.8137],[29.4447,-2.807],[29.4254,-2.8034],[29.4074,-2.8055],[29.3643,-2.8242],[29.3397,-2.8264],[29.3309,-2.8074],[29.3297,-2.7949],[29.3204,-2.7741],[29.3181,-2.7626],[29.3215,-2.7521],[29.3353,-2.7352],[29.3375,-2.7238],[29.3314,-2.7114],[29.3097,-2.691],[29.3095,-2.6901],[29.3284,-2.6802],[29.3334,-2.6787],[29.3425,-2.6739],[29.3566,-2.6487],[29.36,-2.6126],[29.3483,-2.5955],[29.3433,-2.588],[29.3419,-2.5809],[29.3431,-2.5717],[29.345,-2.5619],[29.3409,-2.5557],[29.3359,-2.5459],[29.3284,-2.5359],[29.3224,-2.5234],[29.3202,-2.5082],[29.3119,-2.4971],[29.2985,-2.491],[29.2799,-2.4851],[29.2678,-2.4786],[29.2669,-2.4719],[29.2714,-2.4587],[29.2801,-2.446],[29.3012,-2.4347],[29.3217,-2.4235],[29.3258,-2.4144],[29.3228,-2.4031],[29.3199,-2.3937],[29.3283,-2.3802],[29.3383,-2.3644],[29.3391,-2.3552],[29.3323,-2.3412],[29.3257,-2.3248],[29.3284,-2.3112],[29.3385,-2.2992],[29.3536,-2.2914],[29.3685,-2.2891],[29.3797,-2.2925],[29.3925,-2.2868],[29.4111,-2.2728],[29.4313,-2.2695],[29.4486,-2.2691],[29.4604,-2.2686],[29.4665,-2.2694],[29.4811,-2.2543],[29.5059,-2.2349],[29.5193,-2.2274],[29.5302,-2.2178],[29.5429,-2.2099],[29.5487,-2.2038],[29.5529,-2.1979],[29.5582,-2.1998],[29.5645,-2.2022],[29.5719,-2.1993],[29.58,-2.1969],[29.5869,-2.1931],[29.5976,-2.1866],[29.6058,-2.1823],[29.6054,-2.1686],[29.6017,-2.1548],[29.5988,-2.1486],[29.5998,-2.1384],[29.609,-2.1216],[29.6147,-2.1077],[29.6147,-2.1003],[29.6184,-2.094],[29.6209,-2.0891],[29.6258,-2.0821],[29.6327,-2.0715],[29.6343,-2.0622],[29.6351,-2.0535],[29.6363,-2.0451],[29.6333,-2.0384],[29.6298,-2.0272],[29.6308,-2.006],[29.6272,-1.984],[29.6227,-1.974],[29.6329,-1.974],[29.6479,-1.9746],[29.6595,-1.971],[29.6687,-1.9627],[29.671,-1.9522],[29.6666,-1.9441],[29.6627,-1.9329],[29.6625,-1.9218],[29.6663,-1.9141],[29.6715,-1.9012],[29.6687,-1.8747],[29.664,-1.8501],[29.6643,-1.838],[29.6676,-1.8264],[29.6703,-1.7986],[29.667,-1.765],[29.6631,-1.7468],[29.6602,-1.7367],[29.6577,-1.7331],[29.6636,-1.7313],[29.675,-1.7297],[29.6862,-1.7317],[29.7026,-1.7426],[29.7214,-1.7495],[29.7339,-1.7472],[29.7416,-1.7484],[29.7452,-1.7577],[29.7554,-1.7737],[29.7688,-1.7935],[29.7805,-1.8117],[29.7945,-1.825],[29.7995,-1.8393],[29.8185,-1.8514],[29.8458,-1.8607],[29.8651,-1.8605],[29.8849,-1.8569],[29.9024,-1.8573],[29.9145,-1.8609],[29.9214,-1.8659],[29.9293,-1.87],[29.9367,-1.875],[29.943,-1.881],[29.9512,-1.8892],[29.9608,-1.8995],[29.9705,-1.9061],[29.9785,-1.9077],[29.9811,-1.9094],[29.9806,-1.9107],[29.9826,-1.9141],[29.9856,-1.9226],[29.9883,-1.9302],[29.9904,-1.9335],[29.9932,-1.9374],[29.9962,-1.9436],[29.9992,-1.9512],[30.0021,-1.9584],[30.0004,-1.9628],[30.0001,-1.9646],[30.0,-1.9685],[29.9992,-1.9748],[29.9973,-1.9811],[29.9939,-1.9863],[30.0034,-2.0012],[30.0099,-2.0166],[30.0053,-2.0242],[30.0018,-2.0281],[29.9937,-2.0313],[29.9864,-2.0388],[29.9845,-2.0484],[29.9906,-2.0606],[29.9991,-2.0659],[30.0035,-2.0665],[30.0092,-2.0684],[30.0155,-2.0703],[30.0178,-2.0721],[30.0167,-2.0818],[30.0166,-2.0999],[30.0165,-2.1115],[30.0099,-2.1236],[29.995,-2.1399],[29.9843,-2.1607],[29.9859,-2.1938],[29.9804,-2.2429],[29.9685,-2.2776],[29.9679,-2.2792],[29.9676,-2.2811],[29.964,-2.2998],[29.9616,-2.319],[29.9605,-2.3215],[29.9591,-2.3243],[29.9568,-2.327]]]}},{"type":"Feature","properties":{"id":"RWA-3492","name":"Western","nameBn":"ওয়েস্টার্ন প্রদেশ","type":"Province","bounds":[28.8572,-2.7207,29.6715,-1.4973],"center":[29.2644,-2.1316]},"geometry":{"type":"Polygon","coordinates":[[[29.3095,-2.6901],[29.306,-2.6766],[29.3073,-2.6648],[29.3066,-2.6601],[29.2944,-2.6511],[29.2761,-2.6406],[29.255,-2.6355],[29.2128,-2.6303],[29.1904,-2.6235],[29.1297,-2.597],[29.1134,-2.5946],[29.0553,-2.5984],[29.0326,-2.6207],[29.0154,-2.7207],[29.0001,-2.7037],[28.9796,-2.6935],[28.9497,-2.6903],[28.9364,-2.6851],[28.8991,-2.6607],[28.8913,-2.6527],[28.8981,-2.5763],[28.8913,-2.5531],[28.8811,-2.5426],[28.8698,-2.5373],[28.861,-2.5312],[28.8572,-2.5183],[28.8609,-2.5052],[28.8782,-2.4897],[28.8747,-2.4775],[28.8646,-2.4594],[28.8609,-2.4396],[28.8588,-2.4182],[28.8663,-2.3919],[28.8804,-2.3799],[28.9073,-2.3706],[28.9281,-2.3645],[28.9454,-2.3542],[28.9597,-2.3398],[28.9712,-2.3217],[28.9788,-2.3068],[28.9822,-2.296],[28.9834,-2.2874],[28.9937,-2.2777],[29.0021,-2.2747],[29.0309,-2.2757],[29.0754,-2.2639],[29.1098,-2.2367],[29.1348,-2.1977],[29.1506,-2.1504],[29.1563,-2.1087],[29.1543,-2.0727],[29.1277,-1.9157],[29.1255,-1.8791],[29.1305,-1.8433],[29.1493,-1.7993],[29.1866,-1.7396],[29.2123,-1.6987],[29.2333,-1.6587],[29.2454,-1.641],[29.2937,-1.601],[29.3038,-1.5879],[29.3312,-1.5314],[29.3428,-1.5165],[29.3585,-1.5099],[29.4349,-1.5068],[29.4374,-1.5062],[29.4396,-1.5048],[29.4417,-1.5026],[29.4451,-1.4973],[29.4494,-1.5035],[29.4673,-1.5278],[29.4914,-1.5561],[29.513,-1.5636],[29.5319,-1.5696],[29.54,-1.5694],[29.5467,-1.5667],[29.5506,-1.5692],[29.556,-1.5708],[29.5722,-1.5784],[29.5907,-1.5876],[29.6109,-1.5865],[29.6306,-1.5879],[29.6347,-1.6182],[29.6361,-1.6591],[29.6357,-1.6881],[29.6345,-1.7099],[29.6469,-1.7249],[29.6577,-1.7331],[29.6602,-1.7367],[29.6631,-1.7468],[29.667,-1.765],[29.6703,-1.7986],[29.6676,-1.8264],[29.6643,-1.838],[29.664,-1.8501],[29.6687,-1.8747],[29.6715,-1.9012],[29.6663,-1.9141],[29.6625,-1.9218],[29.6627,-1.9329],[29.6666,-1.9441],[29.671,-1.9522],[29.6687,-1.9627],[29.6595,-1.971],[29.6479,-1.9746],[29.6329,-1.974],[29.6227,-1.974],[29.6272,-1.984],[29.6308,-2.006],[29.6298,-2.0272],[29.6333,-2.0384],[29.6363,-2.0451],[29.6351,-2.0535],[29.6343,-2.0622],[29.6327,-2.0715],[29.6258,-2.0821],[29.6209,-2.0891],[29.6184,-2.094],[29.6147,-2.1003],[29.6147,-2.1077],[29.609,-2.1216],[29.5998,-2.1384],[29.5988,-2.1486],[29.6017,-2.1548],[29.6054,-2.1686],[29.6058,-2.1823],[29.5976,-2.1866],[29.5869,-2.1931],[29.58,-2.1969],[29.5719,-2.1993],[29.5645,-2.2022],[29.5582,-2.1998],[29.5529,-2.1979],[29.5487,-2.2038],[29.5429,-2.2099],[29.5302,-2.2178],[29.5193,-2.2274],[29.5059,-2.2349],[29.4811,-2.2543],[29.4665,-2.2694],[29.4604,-2.2686],[29.4486,-2.2691],[29.4313,-2.2695],[29.4111,-2.2728],[29.3925,-2.2868],[29.3797,-2.2925],[29.3685,-2.2891],[29.3536,-2.2914],[29.3385,-2.2992],[29.3284,-2.3112],[29.3257,-2.3248],[29.3323,-2.3412],[29.3391,-2.3552],[29.3383,-2.3644],[29.3283,-2.3802],[29.3199,-2.3937],[29.3228,-2.4031],[29.3258,-2.4144],[29.3217,-2.4235],[29.3012,-2.4347],[29.2801,-2.446],[29.2714,-2.4587],[29.2669,-2.4719],[29.2678,-2.4786],[29.2799,-2.4851],[29.2985,-2.491],[29.3119,-2.4971],[29.3202,-2.5082],[29.3224,-2.5234],[29.3284,-2.5359],[29.3359,-2.5459],[29.3409,-2.5557],[29.345,-2.5619],[29.3431,-2.5717],[29.3419,-2.5809],[29.3433,-2.588],[29.3483,-2.5955],[29.36,-2.6126],[29.3566,-2.6487],[29.3425,-2.6739],[29.3334,-2.6787],[29.3284,-2.6802],[29.3095,-2.6901]]]}}]}