{"type":"FeatureCollection","features":[{"type":"Feature","properties":{"id":"SAU-885","name":"Al Bahah","nameBn":"আল বাহা অঞ্চল","type":"Region","bounds":[40.799,19.3647,42.0339,20.7629],"center":[41.4165,20.1605]},"geometry":{"type":"Polygon","coordinates":[[[42.032,20.6249],[41.9844,20.4714],[41.9863,20.4454],[41.9934,20.4151],[42.018,20.3912],[42.0306,20.373],[42.0339,20.35],[42.0273,20.3251],[42.0042,20.2947],[41.9835,20.2757],[41.8648,20.1975],[41.8435,20.1783],[41.8278,20.1514],[41.8199,20.1246],[41.8145,20.0531],[41.7998,20.0037],[41.6987,19.7971],[41.6712,19.7845],[41.6365,19.7798],[41.5428,19.78],[41.5226,19.7767],[41.5054,19.7687],[41.4951,19.7609],[41.4835,19.7472],[41.4565,19.7037],[41.3922,19.5435],[41.3687,19.4361],[41.3609,19.4166],[41.3486,19.3985],[41.3302,19.3836],[41.3099,19.3741],[41.2884,19.3678],[41.2658,19.3647],[41.2424,19.3649],[41.2158,19.37],[41.1919,19.3807],[41.1705,19.3969],[41.1077,19.4766],[41.0838,19.4976],[41.0068,19.5366],[40.9953,19.5449],[40.98,19.5601],[40.9691,19.5796],[40.9645,19.5999],[40.9632,19.6193],[40.9691,19.7021],[40.9665,19.7228],[40.9481,19.7876],[40.9467,19.8088],[40.958,19.9113],[40.9567,19.9328],[40.9508,19.9543],[40.9413,19.9739],[40.9291,19.9899],[40.9207,19.9972],[40.9162,20.0003],[40.8412,20.0209],[40.8215,20.0307],[40.8056,20.0467],[40.799,20.0649],[40.802,20.0841],[40.8156,20.103],[40.8921,20.1772],[40.9145,20.1937],[40.9401,20.2056],[40.9707,20.2141],[41.0681,20.2285],[41.0914,20.2348],[41.1148,20.245],[41.1389,20.265],[41.1513,20.2849],[41.1789,20.3505],[41.2498,20.4694],[41.2566,20.4959],[41.2571,20.506],[41.2548,20.5359],[41.2371,20.5955],[41.2288,20.637],[41.2274,20.6588],[41.2291,20.6776],[41.2341,20.6947],[41.2397,20.7063],[41.2497,20.721],[41.2653,20.7374],[41.2852,20.752],[41.3068,20.7604],[41.3308,20.7629],[41.3554,20.7589],[41.3854,20.746],[41.4071,20.7288],[41.4233,20.7086],[41.4543,20.6263],[41.4659,20.6065],[41.479,20.5893],[41.494,20.577],[41.5071,20.573],[41.5279,20.5722],[41.5578,20.5807],[41.6068,20.5996],[41.6337,20.606],[41.6663,20.6103],[41.7733,20.6112],[41.7951,20.6172],[41.8168,20.6262],[41.9097,20.6754],[41.9316,20.6809],[41.9564,20.6773],[41.9759,20.6707],[42.032,20.6249]]]}},{"type":"Feature","properties":{"id":"SAU-861","name":"Al Hudud ash Shamaliyah","nameBn":"আল হুদুদ অ্যাশ শামালিয়াহ","type":"Region","bounds":[37.8616,27.4582,46.4273,32.1213],"center":[43.3124,29.227]},"geometry":{"type":"Polygon","coordinates":[[[39.1577,32.1213],[39.3556,32.0926],[39.5533,32.0637],[39.751,32.0349],[39.9486,32.0061],[40.0288,31.9945],[40.029,31.9945],[40.0291,31.9944],[40.0293,31.9944],[40.3703,31.9385],[40.4241,31.9205],[40.4798,31.8928],[40.5827,31.8404],[40.6703,31.7957],[40.7582,31.7511],[40.8459,31.7063],[40.9336,31.6616],[41.0213,31.6169],[41.109,31.5723],[41.1967,31.5276],[41.2845,31.4828],[41.3722,31.4381],[41.4598,31.3934],[41.5476,31.3487],[41.6354,31.304],[41.7231,31.2594],[41.8107,31.2147],[41.8986,31.17],[41.9862,31.1253],[42.0754,31.0799],[42.1416,31.0304],[42.2263,30.9675],[42.3107,30.9045],[42.3952,30.8416],[42.4797,30.7786],[42.5745,30.7076],[42.6692,30.6367],[42.7639,30.5656],[42.7834,30.551],[42.8587,30.4947],[42.8588,30.4946],[42.8589,30.4946],[42.859,30.4945],[42.9647,30.42],[43.0529,30.3578],[43.141,30.2957],[43.2291,30.2335],[43.3172,30.1713],[43.4317,30.0906],[43.5464,30.0098],[43.661,29.929],[43.7755,29.8482],[43.824,29.814],[43.8901,29.7674],[44.0046,29.6866],[44.1191,29.6058],[44.2337,29.525],[44.329,29.4578],[44.4243,29.3905],[44.5197,29.3233],[44.6149,29.2561],[44.6918,29.2018],[44.6982,29.1997],[44.7046,29.1975],[44.7109,29.1953],[44.7175,29.1931],[44.8089,29.1859],[44.8887,29.1795],[44.9683,29.1733],[45.0478,29.1669],[45.1275,29.1606],[45.23,29.1525],[45.3324,29.1444],[45.4349,29.1362],[45.5374,29.1281],[45.6399,29.12],[45.7424,29.1119],[45.8449,29.1038],[45.9474,29.0956],[46.0236,29.0896],[46.0997,29.0836],[46.1759,29.0775],[46.2521,29.0715],[46.3575,29.0631],[46.4012,29.0713],[46.4273,29.0761],[46.4144,29.0629],[45.9409,28.9063],[45.801,28.8382],[45.7023,28.7583],[45.6247,28.6815],[45.5648,28.6023],[45.2127,28.0165],[45.1636,27.9532],[44.9953,27.773],[44.9744,27.7398],[44.9488,27.6834],[44.9412,27.6542],[44.9389,27.6379],[44.9387,27.6195],[44.9424,27.5997],[44.9511,27.5795],[44.9772,27.5455],[44.99,27.5326],[44.9485,27.4799],[44.9277,27.4684],[44.9016,27.4582],[44.8788,27.4605],[44.8576,27.4691],[44.8396,27.4815],[44.8239,27.4985],[44.8225,27.5006],[44.8173,27.5056],[44.7989,27.5204],[44.7853,27.5494],[44.759,27.5765],[44.5934,27.7095],[44.5706,27.7233],[44.525,27.7455],[44.4908,27.7576],[44.1824,27.7991],[44.1551,27.8074],[44.1206,27.8225],[44.0938,27.8403],[44.0699,27.8605],[44.0353,27.9035],[43.9512,28.1008],[43.7824,28.3708],[43.7648,28.3906],[43.7417,28.4066],[43.7155,28.4154],[43.6812,28.4129],[43.6531,28.4024],[43.5366,28.3359],[43.4961,28.3184],[43.474,28.3156],[43.4474,28.3178],[43.409,28.3297],[43.3026,28.3789],[43.2753,28.3862],[43.2408,28.3888],[43.1413,28.3801],[43.1151,28.3826],[43.0872,28.3895],[43.0529,28.4087],[43.0301,28.4321],[43.0143,28.4619],[43.0076,28.4834],[43.0048,28.4972],[43.0005,28.5716],[42.9981,28.5797],[42.989,28.5888],[42.9682,28.5987],[42.9333,28.5988],[42.9042,28.5932],[42.8765,28.5825],[42.7958,28.5427],[42.7672,28.533],[42.7377,28.5266],[42.7044,28.5251],[42.6682,28.5299],[42.6184,28.5461],[42.5843,28.5647],[42.5551,28.5868],[42.4336,28.7151],[42.4112,28.7316],[42.3885,28.7443],[42.3424,28.7606],[42.001,28.8309],[41.9759,28.8323],[41.8671,28.8264],[41.7462,28.7988],[41.7209,28.7955],[41.6939,28.7958],[41.659,28.8009],[41.4166,28.8704],[41.3834,28.875],[41.3424,28.876],[41.2706,28.8679],[40.7396,28.7601],[40.7165,28.7604],[40.658,28.7739],[40.5436,28.8163],[40.6845,28.9392],[40.7014,28.9605],[40.7106,28.979],[40.7149,28.9933],[40.7165,29.0004],[40.7418,29.3336],[40.7458,29.3546],[40.7534,29.376],[40.7674,29.3968],[40.7871,29.4174],[40.8113,29.4383],[40.9196,29.511],[41.7547,29.9642],[41.838,30.0217],[41.8827,30.0618],[41.8998,30.0827],[41.9048,30.1025],[41.8976,30.122],[41.8792,30.1399],[41.7296,30.2407],[41.6813,30.2815],[41.6632,30.3032],[41.6351,30.3477],[41.589,30.4382],[41.577,30.4548],[41.5518,30.4821],[41.5314,30.5006],[41.4943,30.521],[41.4643,30.5299],[41.3464,30.5441],[41.2655,30.5448],[41.2112,30.5508],[41.1772,30.5604],[41.1505,30.5723],[40.9511,30.711],[40.9188,30.7238],[40.88,30.7328],[40.7821,30.7318],[40.7222,30.7247],[40.1754,30.7363],[40.0812,30.7536],[40.0475,30.7652],[40.0215,30.7773],[39.9484,30.8345],[39.9248,30.8494],[39.9011,30.8606],[39.8678,30.8682],[39.1919,30.9581],[39.0589,30.9609],[38.7512,30.9215],[38.3057,30.883],[38.2577,30.8859],[38.2129,30.8945],[38.1906,30.9027],[38.1686,30.9143],[38.1473,30.9301],[38.1296,30.9487],[38.0959,31.0002],[38.0778,31.035],[38.0494,31.0781],[38.0163,31.1179],[37.9859,31.1438],[37.8998,31.1971],[37.8838,31.2146],[37.8765,31.2311],[37.8731,31.244],[37.8721,31.2502],[37.8672,31.2765],[37.8616,31.3384],[37.8661,31.3719],[37.9865,31.7534],[38.1754,31.7999],[38.4002,31.8554],[38.6249,31.9109],[38.8498,31.9663],[38.9633,31.9944],[38.9634,31.9943],[38.9634,31.9945],[38.9981,32.0069],[39.1168,32.1029],[39.1362,32.1154],[39.1464,32.1181],[39.1493,32.1189],[39.1522,32.1197],[39.155,32.1206],[39.1577,32.1213]]]}},{"type":"Feature","properties":{"id":"SAU-862","name":"Al Jawf","nameBn":"আল যাফ অঞ্চল","type":"Region","bounds":[34.8254,28.1368,41.9048,31.7534],"center":[38.3651,29.5589]},"geometry":{"type":"Polygon","coordinates":[[[36.0164,29.19],[36.0438,29.1909],[36.0695,29.2],[36.178,29.2784],[36.2837,29.3548],[36.4,29.4389],[36.4771,29.4946],[36.5413,29.5894],[36.6036,29.6815],[36.6496,29.7494],[36.7049,29.8312],[36.7287,29.8535],[36.7562,29.8655],[36.843,29.8812],[36.9319,29.8972],[37.0758,29.9233],[37.2185,29.9491],[37.3524,29.9733],[37.4702,29.9946],[37.4917,30.0112],[37.5361,30.1053],[37.5692,30.175],[37.6052,30.2507],[37.6345,30.3128],[37.6476,30.3309],[37.6707,30.3476],[37.7793,30.4004],[37.9001,30.4591],[37.9733,30.4945],[37.98,30.4981],[37.981,30.4984],[37.9814,30.4988],[37.9811,30.4995],[37.9316,30.5497],[37.8219,30.6609],[37.712,30.772],[37.6023,30.8832],[37.4926,30.9945],[37.4894,30.9977],[37.4863,31.0009],[37.4831,31.0041],[37.48,31.0073],[37.3499,31.1282],[37.2217,31.2473],[37.2198,31.2491],[37.0897,31.3701],[36.9595,31.491],[36.9979,31.5008],[37.2073,31.5544],[37.455,31.6177],[37.7027,31.6811],[37.7614,31.6961],[37.9505,31.7445],[37.9865,31.7534],[37.8661,31.3719],[37.8616,31.3384],[37.8672,31.2765],[37.8721,31.2502],[37.8731,31.244],[37.8765,31.2311],[37.8838,31.2146],[37.8998,31.1971],[37.9859,31.1438],[38.0163,31.1179],[38.0494,31.0781],[38.0778,31.035],[38.0959,31.0002],[38.1296,30.9487],[38.1473,30.9301],[38.1686,30.9143],[38.1906,30.9027],[38.2129,30.8945],[38.2577,30.8859],[38.3057,30.883],[38.7512,30.9215],[39.0589,30.9609],[39.1919,30.9581],[39.8678,30.8682],[39.9011,30.8606],[39.9248,30.8494],[39.9484,30.8345],[40.0215,30.7773],[40.0475,30.7652],[40.0812,30.7536],[40.1754,30.7363],[40.7222,30.7247],[40.7821,30.7318],[40.88,30.7328],[40.9188,30.7238],[40.9511,30.711],[41.1505,30.5723],[41.1772,30.5604],[41.2112,30.5508],[41.2655,30.5448],[41.3464,30.5441],[41.4643,30.5299],[41.4943,30.521],[41.5314,30.5006],[41.5518,30.4821],[41.577,30.4548],[41.589,30.4382],[41.6351,30.3477],[41.6632,30.3032],[41.6813,30.2815],[41.7296,30.2407],[41.8792,30.1399],[41.8976,30.122],[41.9048,30.1025],[41.8998,30.0827],[41.8827,30.0618],[41.838,30.0217],[41.7547,29.9642],[40.9196,29.511],[40.8113,29.4383],[40.7871,29.4174],[40.7674,29.3968],[40.7534,29.376],[40.7458,29.3546],[40.7418,29.3336],[40.7165,29.0004],[40.7149,28.9933],[40.7106,28.979],[40.7014,28.9605],[40.6845,28.9392],[40.5436,28.8163],[40.4809,28.8293],[40.4589,28.8272],[40.0804,28.6904],[39.7095,28.504],[39.5347,28.4613],[39.1563,28.3027],[39.132,28.2894],[39.1094,28.2739],[39.0001,28.1679],[38.961,28.1959],[38.9471,28.2018],[38.929,28.2068],[38.9038,28.2079],[38.8693,28.2034],[38.8406,28.1959],[38.7359,28.1487],[38.7104,28.1405],[38.6857,28.1368],[38.6619,28.1395],[38.6398,28.1527],[38.6248,28.168],[38.5965,28.2279],[38.5525,28.227],[38.534,28.2286],[38.5126,28.236],[38.4793,28.253],[38.4561,28.2582],[38.4235,28.2507],[38.3971,28.2386],[38.3639,28.2294],[38.3279,28.2282],[38.1282,28.2461],[38.0664,28.2575],[37.9566,28.2912],[37.9102,28.314],[37.8444,28.3631],[37.8261,28.3826],[37.8107,28.4035],[37.7988,28.4239],[37.7834,28.4577],[37.7726,28.5005],[37.7654,28.5582],[37.7626,28.6461],[37.7724,28.8071],[37.7679,28.8299],[37.7565,28.8494],[37.7381,28.863],[37.7164,28.8674],[37.6945,28.8599],[37.6327,28.8083],[37.5654,28.7704],[37.5454,28.7543],[37.5301,28.7348],[37.5182,28.7139],[37.4782,28.6223],[37.4656,28.602],[37.4496,28.5847],[37.4259,28.5741],[37.3983,28.5685],[37.2259,28.5774],[37.1427,28.5926],[36.9911,28.6373],[36.9337,28.6449],[36.8545,28.6446],[36.6143,28.5987],[36.5051,28.5618],[36.4887,28.561],[36.4646,28.5623],[36.423,28.5741],[36.4162,28.5775],[36.41,28.5831],[36.1524,28.8794],[36.1201,28.9051],[36.0751,28.9317],[36.0512,28.9419],[35.8552,28.9843],[35.79,28.9841],[35.7115,28.9712],[35.5788,28.9639],[35.3737,28.9293],[35.3311,28.9175],[35.2966,28.902],[35.262,28.8733],[35.2448,28.8651],[35.2199,28.8612],[35.0777,28.8731],[34.9965,28.8908],[34.9617,28.8919],[34.9276,28.8862],[34.843,28.8846],[34.8428,28.8846],[34.842,28.8896],[34.8254,28.8942],[34.8254,28.9004],[34.8401,28.9224],[34.8563,28.9638],[34.8638,29.0063],[34.8526,29.0314],[34.8526,29.0451],[34.864,29.0637],[34.8735,29.0853],[34.8936,29.1747],[34.8982,29.1877],[34.9094,29.2101],[34.9079,29.2164],[34.9094,29.2307],[34.919,29.2391],[34.9421,29.2505],[34.9352,29.2673],[34.9326,29.2893],[34.9364,29.3039],[34.9481,29.2983],[34.9492,29.3015],[34.9494,29.3043],[34.9507,29.3057],[34.9556,29.3051],[34.948,29.32],[34.9453,29.3369],[34.9494,29.3517],[35.0603,29.3347],[35.1791,29.3167],[35.3346,29.2931],[35.4736,29.2721],[35.622,29.2497],[35.7403,29.2317],[35.7972,29.2231],[35.9125,29.2057],[36.0164,29.19]]]}},{"type":"Feature","properties":{"id":"SAU-845","name":"Al Madinah","nameBn":"মদিনা অঞ্চল","type":"Region","bounds":[36.7791,22.4912,42.0964,27.3944],"center":[39.4378,24.9279]},"geometry":{"type":"Polygon","coordinates":[[[38.6438,23.4195],[38.6409,23.4401],[38.6371,23.4682],[38.6312,23.49],[38.6289,23.5079],[38.6122,23.5243],[38.6047,23.5354],[38.6016,23.5519],[38.6002,23.5682],[38.5779,23.5566],[38.568,23.5625],[38.5599,23.5625],[38.5609,23.5457],[38.5703,23.5369],[38.5955,23.5284],[38.5955,23.5215],[38.562,23.5244],[38.5401,23.5432],[38.5392,23.5919],[38.4948,23.6446],[38.4714,23.7133],[38.4644,23.7361],[38.46,23.7608],[38.4526,23.784],[38.437,23.8021],[38.4271,23.8067],[38.4163,23.8089],[38.3996,23.8141],[38.3901,23.8241],[38.3855,23.8385],[38.3775,23.856],[38.3653,23.8704],[38.3489,23.8752],[38.3327,23.8794],[38.3191,23.8864],[38.3093,23.8934],[38.2996,23.9102],[38.2833,23.9278],[38.2754,23.9338],[38.2589,23.9448],[38.2385,23.9506],[38.2221,23.9526],[38.1983,23.9671],[38.1854,23.9759],[38.1656,23.9929],[38.1466,24.0149],[38.1262,24.0294],[38.1091,24.0439],[38.0791,24.0704],[38.0711,24.0741],[38.0629,24.076],[38.054,24.0723],[38.0457,24.0674],[38.0232,24.0816],[38.0076,24.0931],[37.9664,24.1171],[37.9353,24.139],[37.9411,24.151],[37.9584,24.1621],[37.9831,24.1657],[37.9733,24.1747],[37.9585,24.1703],[37.9395,24.1614],[37.9322,24.1742],[37.9438,24.1914],[37.9479,24.207],[37.9373,24.2109],[37.9307,24.2034],[37.9184,24.2012],[37.9126,24.1915],[37.9183,24.1863],[37.9215,24.1773],[37.9231,24.1645],[37.9239,24.1555],[37.9181,24.1496],[37.896,24.1572],[37.8656,24.1499],[37.8202,24.1817],[37.8064,24.1933],[37.7676,24.2214],[37.7587,24.2416],[37.7456,24.2499],[37.7284,24.2574],[37.7104,24.2665],[37.6957,24.2792],[37.6761,24.2912],[37.6523,24.2906],[37.641,24.2917],[37.626,24.2814],[37.6227,24.2682],[37.6284,24.248],[37.5858,24.2467],[37.5752,24.2616],[37.5457,24.2744],[37.5227,24.2677],[37.5006,24.2887],[37.4868,24.3111],[37.4647,24.3396],[37.4294,24.3673],[37.418,24.401],[37.4279,24.4211],[37.4352,24.4189],[37.455,24.4069],[37.4632,24.4225],[37.4567,24.4412],[37.3828,24.5396],[37.385,24.5462],[37.3972,24.6045],[37.404,24.6232],[37.4149,24.6411],[37.4313,24.657],[37.4518,24.6663],[37.4716,24.6709],[37.5538,24.6707],[37.5921,24.6754],[37.6143,24.6812],[37.638,24.6895],[37.6624,24.7044],[37.6867,24.7258],[37.7134,24.7567],[37.7348,24.7772],[37.7568,24.7892],[37.7788,24.7927],[37.8009,24.7916],[37.8461,24.7845],[37.894,24.7825],[37.9195,24.7865],[37.9437,24.797],[37.9668,24.8139],[37.9867,24.8395],[37.9965,24.8584],[38.0005,24.8726],[37.9881,25.2017],[38.0234,25.4291],[38.0213,25.4489],[38.0137,25.4667],[38.0008,25.4787],[37.9873,25.4856],[37.9662,25.4896],[37.903,25.4923],[37.8872,25.4964],[37.8809,25.4988],[37.8776,25.5017],[37.8687,25.5215],[37.8335,25.6436],[37.8031,25.719],[37.7874,25.747],[37.7732,25.7658],[37.7548,25.7858],[37.6248,25.8843],[37.6078,25.9032],[37.5955,25.9234],[37.5868,25.9445],[37.5714,25.9991],[37.5686,26.003],[37.5623,26.0089],[37.5463,26.0197],[37.3677,26.1123],[37.3453,26.1154],[37.3243,26.1081],[37.2881,26.0815],[37.2723,26.0778],[37.2647,26.0898],[37.2584,26.1071],[37.2482,26.1476],[37.2338,26.1885],[37.1756,26.294],[37.1689,26.3151],[37.1669,26.3355],[37.1686,26.3561],[37.1731,26.3765],[37.1914,26.4172],[37.2527,26.5079],[37.2605,26.5238],[37.2653,26.5447],[37.2641,26.5684],[37.2539,26.5927],[37.2361,26.6102],[37.2146,26.6213],[37.0997,26.6516],[37.076,26.6608],[37.0538,26.6741],[37.0322,26.6926],[37.0154,26.7125],[37.0021,26.7331],[36.9927,26.754],[36.9855,26.776],[36.9813,26.7997],[36.9795,26.8416],[37.0006,26.9776],[37.0026,27.0333],[37.0003,27.0587],[36.9851,27.1199],[36.9765,27.138],[36.9684,27.1493],[36.9534,27.164],[36.9357,27.1746],[36.9177,27.1808],[36.9057,27.1826],[36.8871,27.1819],[36.8218,27.1708],[36.8004,27.1722],[36.7833,27.1824],[36.7791,27.1986],[36.7855,27.2162],[36.8028,27.2314],[36.8241,27.2407],[36.9391,27.2664],[37.1957,27.3745],[37.2184,27.3808],[37.2456,27.3815],[37.2766,27.376],[37.3212,27.359],[37.4057,27.3115],[37.4352,27.3004],[37.4769,27.2937],[37.4993,27.2928],[37.5227,27.296],[37.5451,27.303],[37.7322,27.3933],[37.7496,27.3944],[37.7682,27.3895],[37.7947,27.3721],[37.8088,27.3549],[37.8176,27.3385],[37.8456,27.247],[37.865,27.2053],[37.8849,27.1715],[37.9405,27.0953],[37.9631,27.0776],[37.992,27.0644],[38.0352,27.0572],[38.1363,27.0534],[38.158,27.0503],[38.1788,27.0439],[38.1957,27.0326],[38.2047,27.018],[38.2065,27.0063],[38.2067,27.0013],[38.2061,26.997],[38.2058,26.9893],[38.2075,26.9732],[38.215,26.9557],[38.2312,26.9399],[38.2925,26.905],[38.3096,26.8884],[38.3166,26.8697],[38.3167,26.8493],[38.3139,26.8284],[38.3138,26.8091],[38.3231,26.7941],[38.3434,26.7886],[38.3746,26.7958],[38.4007,26.8106],[38.4907,26.8747],[38.5047,26.8808],[38.5257,26.8845],[38.5502,26.8829],[38.5835,26.8741],[38.6573,26.8424],[38.6817,26.8353],[38.7048,26.8335],[38.73,26.8436],[38.7346,26.8598],[38.7321,26.879],[38.7273,26.8986],[38.7287,26.9163],[38.7407,26.9276],[38.7594,26.9261],[38.7826,26.9083],[38.7937,26.8883],[38.8103,26.8481],[38.8333,26.8291],[38.8687,26.8131],[38.9953,26.7718],[39.1159,26.6888],[39.1539,26.6773],[39.204,26.6715],[39.3039,26.6719],[39.7196,26.7296],[39.7422,26.7269],[39.7649,26.7145],[39.7823,26.7013],[39.8162,26.6568],[39.8341,26.6141],[39.8383,26.5949],[39.8413,26.5697],[39.8404,26.5473],[39.8315,26.511],[39.8272,26.4992],[39.791,26.4395],[39.7788,26.4088],[39.7801,26.3847],[39.7907,26.3635],[39.8095,26.3481],[39.8309,26.3403],[39.8537,26.3385],[39.9017,26.3474],[39.9254,26.3464],[39.9473,26.3302],[39.9565,26.31],[39.9597,26.2884],[39.9042,25.9528],[39.9034,25.9223],[39.9074,25.8982],[39.9389,25.7881],[39.9565,25.6879],[39.9475,25.4221],[39.9528,25.3948],[39.9642,25.3706],[39.9775,25.3525],[39.9937,25.3374],[40.0053,25.3294],[40.0235,25.321],[40.0447,25.315],[40.0673,25.312],[40.0903,25.3128],[40.1138,25.3164],[40.3621,25.3956],[40.4122,25.4036],[40.5314,25.4009],[40.5745,25.4045],[40.595,25.4082],[40.6147,25.4136],[40.6282,25.4186],[40.6463,25.4276],[40.6657,25.4409],[40.6861,25.4582],[40.7593,25.5408],[40.7821,25.5591],[40.809,25.5743],[40.8431,25.5858],[40.8713,25.5915],[41.0443,25.5981],[41.3235,25.5584],[41.4098,25.5365],[41.434,25.5286],[41.5659,25.5002],[41.6101,25.486],[41.6295,25.4736],[41.6449,25.4543],[41.6531,25.4298],[41.6564,25.4064],[41.6374,25.1472],[41.6413,25.1248],[41.65,25.1021],[41.67,25.0746],[41.6914,25.058],[41.7144,25.0467],[41.8439,25.0153],[41.8602,25.0078],[41.8716,25.0008],[41.8734,24.999],[41.8907,24.9713],[41.9076,24.9323],[41.96,24.7442],[41.9793,24.7031],[41.9921,24.6854],[42.0087,24.6708],[42.0963,24.6115],[42.0964,24.5766],[42.0845,24.5328],[42.0711,24.5038],[42.0688,24.5001],[42.0224,24.4447],[42.007,24.4213],[42.0013,24.4052],[41.9999,24.3904],[42.0018,24.3827],[42.016,24.3499],[42.017,24.3264],[42.0134,24.288],[41.9956,24.2126],[41.9833,24.0419],[41.9864,23.9493],[41.8555,23.9673],[41.7924,23.964],[41.7696,23.9548],[41.7499,23.9413],[41.7364,23.9232],[41.7316,23.9027],[41.7336,23.8818],[41.7595,23.8163],[41.764,23.7956],[41.7664,23.7744],[41.7645,23.7304],[41.7572,23.7058],[41.7438,23.6791],[41.7176,23.6419],[41.693,23.6194],[41.6688,23.6024],[41.4909,23.5307],[41.3614,23.4633],[41.317,23.4332],[41.2861,23.4027],[41.2755,23.3783],[41.2817,23.3574],[41.2993,23.3401],[41.3212,23.3251],[41.4301,23.2708],[41.4465,23.2544],[41.4527,23.2323],[41.4427,23.2045],[41.4234,23.1854],[41.4003,23.1733],[41.2841,23.1335],[41.2574,23.1171],[41.2267,23.0941],[41.0872,22.9648],[40.8023,22.7572],[40.7624,22.7149],[40.6907,22.6121],[40.6649,22.5863],[40.6412,22.5762],[40.6168,22.5749],[40.4636,22.6189],[40.4395,22.6217],[40.4089,22.6163],[40.3676,22.5924],[40.2658,22.5125],[40.2449,22.5011],[40.2403,22.4992],[40.2148,22.4933],[40.1928,22.4912],[40.1695,22.4912],[40.1049,22.4998],[40.1004,22.5009],[40.0804,22.5127],[40.0685,22.5293],[40.0643,22.5488],[40.0669,22.569],[40.077,22.609],[40.0829,22.6526],[40.0821,22.6741],[40.0772,22.6954],[40.0674,22.7155],[40.0517,22.7348],[40.0326,22.7514],[40.0146,22.7638],[39.9842,22.778],[39.918,22.7968],[39.8984,22.8051],[39.885,22.8211],[39.8818,22.8409],[39.8871,22.8615],[39.9421,22.9812],[39.9476,22.9993],[39.9543,23.0472],[39.9534,23.0777],[39.9497,23.0959],[39.9426,23.1148],[39.9308,23.1326],[39.9127,23.1464],[39.8916,23.1524],[39.8697,23.1535],[39.7763,23.1428],[39.5628,23.0812],[39.4867,23.0681],[39.4638,23.0776],[39.4529,23.0941],[39.4495,23.1351],[39.4447,23.1545],[39.4341,23.1711],[39.4154,23.1808],[39.3854,23.1816],[39.2788,23.1639],[39.2395,23.1611],[39.2068,23.1665],[39.1826,23.1809],[39.1601,23.1991],[39.0819,23.2844],[39.0014,23.3494],[38.9883,23.3623],[38.946,23.4247],[38.9264,23.4419],[38.9002,23.4492],[38.8696,23.4466],[38.7992,23.4316],[38.6746,23.4229],[38.6438,23.4195]]]}},{"type":"Feature","properties":{"id":"SAU-846","name":"Al Quassim","nameBn":"আল কাসিম অঞ্চল","type":"Region","bounds":[41.4098,24.6115,44.8455,27.3279],"center":[43.2716,25.9478]},"geometry":{"type":"Polygon","coordinates":[[[44.6276,27.2224],[44.6923,27.1968],[44.7371,27.1695],[44.7784,27.1378],[44.7983,27.119],[44.8153,27.0985],[44.8281,27.077],[44.8374,27.0556],[44.8431,27.0349],[44.8455,27.0171],[44.8451,27.0015],[44.845,26.9993],[44.8413,26.9863],[44.8341,26.9709],[44.8209,26.9542],[44.8011,26.9401],[44.7781,26.93],[44.7295,26.9139],[44.7045,26.9019],[44.6797,26.8862],[44.6349,26.8495],[44.5975,26.812],[44.5245,26.7163],[44.5075,26.7025],[44.4955,26.6967],[44.4566,26.6895],[44.4325,26.6828],[44.4102,26.6707],[44.3917,26.6483],[44.3888,26.6254],[44.3962,26.5801],[44.397,26.5359],[44.3757,26.4062],[44.3762,26.385],[44.3807,26.3648],[44.3917,26.3445],[44.4082,26.3248],[44.4874,26.254],[44.5111,26.2268],[44.5999,26.093],[44.676,26.0009],[44.6777,25.9967],[44.6835,25.9654],[44.6721,25.9188],[44.668,25.8904],[44.6748,25.8667],[44.7027,25.8215],[44.7162,25.7924],[44.7269,25.7569],[44.7361,25.6972],[44.7375,25.6621],[44.7354,25.6334],[44.7306,25.6124],[44.7235,25.5939],[44.7121,25.5785],[44.6937,25.5716],[44.6724,25.5692],[44.5812,25.5767],[44.3432,25.5612],[44.1303,25.5868],[44.0839,25.5865],[44.0611,25.5825],[44.0392,25.5761],[44.0193,25.5673],[44.0029,25.5577],[43.9898,25.548],[43.9741,25.5331],[43.9472,25.4998],[43.9102,25.4322],[43.8905,25.4042],[43.8694,25.3849],[43.7985,25.3432],[43.7448,25.2971],[43.72,25.2806],[43.6798,25.2637],[43.3459,25.1915],[43.3223,25.1813],[43.2976,25.1659],[43.2031,25.0789],[43.1063,24.9619],[43.0926,24.9343],[43.0876,24.9102],[43.092,24.8899],[43.1018,24.8696],[43.1278,24.8286],[43.1351,24.8048],[43.134,24.7784],[43.1181,24.7411],[43.0978,24.7162],[43.0737,24.6975],[43.0503,24.6869],[43.0293,24.682],[43.0099,24.6822],[42.9319,24.7022],[42.8844,24.7048],[42.7424,24.6855],[42.6926,24.6842],[42.5118,24.7018],[42.4407,24.7179],[42.3965,24.7327],[42.2904,24.7823],[42.2688,24.7859],[42.2454,24.7825],[42.2223,24.7727],[42.1954,24.7535],[42.1816,24.7411],[42.1152,24.6497],[42.0963,24.6115],[42.0087,24.6708],[41.9921,24.6854],[41.9793,24.7031],[41.96,24.7442],[41.9076,24.9323],[41.8907,24.9713],[41.8734,24.999],[41.8716,25.0008],[41.8602,25.0078],[41.8439,25.0153],[41.7144,25.0467],[41.6914,25.058],[41.67,25.0746],[41.65,25.1021],[41.6413,25.1248],[41.6374,25.1472],[41.6564,25.4064],[41.6531,25.4298],[41.6449,25.4543],[41.6295,25.4736],[41.6101,25.486],[41.5659,25.5002],[41.434,25.5286],[41.4098,25.5365],[41.4486,25.5686],[41.4888,25.5807],[41.5487,25.5871],[41.5834,25.5956],[41.7434,25.6747],[41.7811,25.689],[41.8126,25.6973],[41.9091,25.7061],[41.9321,25.7123],[41.9498,25.7259],[41.9552,25.7422],[41.9524,25.7577],[41.9465,25.7703],[41.9,25.8487],[41.8928,25.8706],[41.8905,25.8925],[41.8961,25.9158],[41.9091,25.9382],[41.9344,25.9629],[41.9585,25.9728],[41.9796,25.975],[41.9966,25.9708],[42.0754,25.9431],[42.0994,25.9382],[42.1223,25.9371],[42.1416,25.9427],[42.1537,25.958],[42.1569,25.9758],[42.1566,25.9914],[42.1555,26.0001],[42.1377,26.0816],[42.1362,26.1016],[42.1378,26.1219],[42.1421,26.1424],[42.1582,26.1848],[42.1807,26.226],[42.1951,26.2423],[42.2147,26.251],[42.2365,26.2514],[42.2603,26.249],[42.2849,26.2509],[42.3324,26.2611],[42.352,26.271],[42.3655,26.2889],[42.3725,26.31],[42.3894,26.3457],[42.4178,26.3893],[42.5351,26.5105],[42.7984,26.7018],[42.9183,26.7712],[43.1471,26.8589],[43.1814,26.8807],[43.2027,26.9032],[43.2174,26.926],[43.2588,27.0053],[43.2942,27.0458],[43.3429,27.0879],[43.4175,27.1313],[43.7969,27.3046],[43.846,27.3216],[43.8694,27.3263],[43.8925,27.3279],[43.915,27.3249],[43.938,27.3178],[43.9607,27.3062],[43.9974,27.2787],[44.0688,27.2098],[44.1965,27.118],[44.2404,27.0939],[44.2651,27.0873],[44.3686,27.0829],[44.4357,27.0702],[44.4578,27.0693],[44.4783,27.0735],[44.496,27.0831],[44.5086,27.0933],[44.5861,27.188],[44.6276,27.2224]]]}},{"type":"Feature","properties":{"id":"SAU-1097","name":"Ar Riyad","nameBn":"আর রিয়াধ","type":"Region","bounds":[41.9762,19.2569,48.3046,27.5326],"center":[45.1404,23.3432]},"geometry":{"type":"Polygon","coordinates":[[[44.6724,25.5692],[44.6937,25.5716],[44.7121,25.5785],[44.7235,25.5939],[44.7306,25.6124],[44.7354,25.6334],[44.7375,25.6621],[44.7361,25.6972],[44.7269,25.7569],[44.7162,25.7924],[44.7027,25.8215],[44.6748,25.8667],[44.668,25.8904],[44.6721,25.9188],[44.6835,25.9654],[44.6777,25.9967],[44.676,26.0009],[44.5999,26.093],[44.5111,26.2268],[44.4874,26.254],[44.4082,26.3248],[44.3917,26.3445],[44.3807,26.3648],[44.3762,26.385],[44.3757,26.4062],[44.397,26.5359],[44.3962,26.5801],[44.3888,26.6254],[44.3917,26.6483],[44.4102,26.6707],[44.4325,26.6828],[44.4566,26.6895],[44.4955,26.6967],[44.5075,26.7025],[44.5245,26.7163],[44.5975,26.812],[44.6349,26.8495],[44.6797,26.8862],[44.7045,26.9019],[44.7295,26.9139],[44.7781,26.93],[44.8011,26.9401],[44.8209,26.9542],[44.8341,26.9709],[44.8413,26.9863],[44.845,26.9993],[44.8451,27.0015],[44.8455,27.0171],[44.8431,27.0349],[44.8374,27.0556],[44.8281,27.077],[44.8153,27.0985],[44.7983,27.119],[44.7784,27.1378],[44.7371,27.1695],[44.6923,27.1968],[44.6276,27.2224],[44.6215,27.2354],[44.6112,27.2705],[44.6098,27.2914],[44.6107,27.3123],[44.6139,27.332],[44.6245,27.3633],[44.6405,27.3946],[44.6676,27.4349],[44.6935,27.4641],[44.7254,27.4908],[44.7385,27.4999],[44.7407,27.501],[44.7989,27.5204],[44.8173,27.5056],[44.8225,27.5006],[44.8239,27.4985],[44.8396,27.4815],[44.8576,27.4691],[44.8788,27.4605],[44.9016,27.4582],[44.9277,27.4684],[44.9485,27.4799],[44.99,27.5326],[45.0002,27.5278],[45.0857,27.472],[45.1277,27.4362],[45.1451,27.4153],[45.1583,27.3917],[45.1853,27.3052],[45.1982,27.2788],[45.2224,27.2508],[45.2453,27.2319],[45.5285,27.0857],[45.5746,27.0734],[45.6475,27.0677],[45.6706,27.0637],[45.6924,27.0534],[45.7119,27.0372],[45.7738,26.9694],[45.8691,26.8883],[45.9126,26.8617],[45.9343,26.8528],[45.9773,26.8446],[46.1425,26.8402],[46.1866,26.8322],[46.2304,26.8185],[46.2938,26.7861],[46.5406,26.6271],[46.5636,26.6178],[46.5879,26.6106],[46.6108,26.6074],[46.6338,26.6066],[46.7829,26.6306],[46.8073,26.6296],[46.8302,26.6231],[46.8518,26.6101],[47.0171,26.4652],[47.0438,26.4274],[47.0621,26.4088],[47.083,26.398],[47.403,26.2826],[47.4154,26.2744],[47.43,26.2617],[47.443,26.2438],[47.4525,26.2254],[47.459,26.2065],[47.465,26.1746],[47.4876,24.8337],[47.4963,24.7891],[47.5035,24.7736],[47.5169,24.7534],[47.5346,24.7346],[47.8885,24.5021],[48.1412,24.2701],[48.1812,24.2226],[48.2232,24.1587],[48.2653,24.071],[48.2896,23.9999],[48.3046,23.8782],[48.2991,23.655],[48.0142,21.5002],[47.7451,19.5313],[47.615,19.4961],[45.2726,19.2569],[45.0143,19.2737],[44.9199,19.2954],[44.8665,19.3142],[44.795,19.3477],[44.5168,19.5126],[44.4994,19.5243],[44.1064,19.867],[44.01,20.0186],[43.9524,20.0826],[43.9368,20.1069],[43.9294,20.1383],[43.9297,20.1631],[43.9687,20.3343],[43.9881,20.3725],[44.0467,20.4594],[44.0552,20.477],[44.0628,20.4976],[44.0635,20.5017],[44.0639,20.5208],[44.062,20.5391],[44.0559,20.5607],[44.0427,20.5847],[43.9597,20.6704],[43.9005,20.745],[43.8688,20.7931],[43.8137,20.8535],[43.6675,20.9762],[43.4064,21.3412],[43.3947,21.3617],[43.3889,21.3821],[43.3876,21.403],[43.3892,21.423],[43.4292,21.5689],[43.4362,21.6116],[43.4237,21.7786],[43.4258,21.7993],[43.4337,21.8186],[43.4463,21.8374],[43.4763,21.8744],[43.4885,21.8934],[43.4981,21.9135],[43.5046,21.9341],[43.5077,21.956],[43.5083,21.9756],[43.4584,22.3096],[43.4585,22.3512],[43.4862,22.4977],[43.4852,22.5018],[43.4703,22.5175],[43.4514,22.5269],[43.4298,22.533],[43.3109,22.5541],[43.2886,22.5549],[43.2667,22.5522],[43.1486,22.5222],[43.1252,22.5202],[43.1021,22.5223],[43.0588,22.536],[43.0365,22.5491],[43.0153,22.5674],[42.9933,22.604],[42.9868,22.6301],[42.9859,22.654],[42.9915,22.7557],[43.0065,22.7995],[43.0105,22.8176],[43.0062,22.8381],[42.9921,22.8596],[42.9647,22.8802],[42.9399,22.8923],[42.9159,22.9003],[42.8707,22.909],[42.6527,22.9257],[42.4977,22.923],[42.4614,22.9287],[42.44,22.9351],[42.4179,22.9444],[42.3964,22.9565],[42.3773,22.9716],[42.363,22.9868],[42.3531,23.0007],[42.2243,23.2844],[42.1948,23.427],[42.1858,23.4523],[42.1599,23.5042],[42.107,23.6626],[42.0879,23.6932],[42.0675,23.7131],[42.0463,23.7281],[42.0094,23.7484],[41.9983,23.7575],[41.9866,23.7717],[41.9793,23.7919],[41.9762,23.8546],[41.9864,23.9493],[41.9833,24.0419],[41.9956,24.2126],[42.0134,24.288],[42.017,24.3264],[42.016,24.3499],[42.0018,24.3827],[41.9999,24.3904],[42.0013,24.4052],[42.007,24.4213],[42.0224,24.4447],[42.0688,24.5001],[42.0711,24.5038],[42.0845,24.5328],[42.0964,24.5766],[42.0963,24.6115],[42.1152,24.6497],[42.1816,24.7411],[42.1954,24.7535],[42.2223,24.7727],[42.2454,24.7825],[42.2688,24.7859],[42.2904,24.7823],[42.3965,24.7327],[42.4407,24.7179],[42.5118,24.7018],[42.6926,24.6842],[42.7424,24.6855],[42.8844,24.7048],[42.9319,24.7022],[43.0099,24.6822],[43.0293,24.682],[43.0503,24.6869],[43.0737,24.6975],[43.0978,24.7162],[43.1181,24.7411],[43.134,24.7784],[43.1351,24.8048],[43.1278,24.8286],[43.1018,24.8696],[43.092,24.8899],[43.0876,24.9102],[43.0926,24.9343],[43.1063,24.9619],[43.2031,25.0789],[43.2976,25.1659],[43.3223,25.1813],[43.3459,25.1915],[43.6798,25.2637],[43.72,25.2806],[43.7448,25.2971],[43.7985,25.3432],[43.8694,25.3849],[43.8905,25.4042],[43.9102,25.4322],[43.9472,25.4998],[43.9741,25.5331],[43.9898,25.548],[44.0029,25.5577],[44.0193,25.5673],[44.0392,25.5761],[44.0611,25.5825],[44.0839,25.5865],[44.1303,25.5868],[44.3432,25.5612],[44.5812,25.5767],[44.6724,25.5692]]]}},{"type":"Feature","properties":{"id":"SAU-1098","name":"Ash Sharqiyah","nameBn":"ইস্টার্ন প্রদেশ","type":"Region","bounds":[44.9387,17.0931,55.6376,29.0957],"center":[50.1714,22.9875]},"geometry":{"type":"MultiPolygon","coordinates":[[[[50.8079,24.7466],[50.881,24.6364],[50.9286,24.5872],[50.9789,24.5677],[51.0389,24.5599],[51.0955,24.5602],[51.1475,24.5763],[51.2153,24.6258],[51.2176,24.6177],[51.2688,24.6245],[51.2782,24.6189],[51.2864,24.6084],[51.2952,24.6026],[51.3064,24.6108],[51.3075,24.6031],[51.3063,24.5941],[51.3024,24.5866],[51.2959,24.5836],[51.2903,24.5785],[51.2922,24.5678],[51.2969,24.5581],[51.2996,24.5562],[51.2966,24.5219],[51.3024,24.5172],[51.3201,24.5227],[51.3337,24.5321],[51.3611,24.5761],[51.3752,24.5891],[51.3879,24.5971],[51.3958,24.6083],[51.3953,24.6313],[51.41,24.6243],[51.4284,24.6229],[51.4439,24.6197],[51.4504,24.6074],[51.4553,24.5942],[51.4675,24.5924],[51.4831,24.5922],[51.4983,24.5836],[51.4983,24.5761],[51.4821,24.5692],[51.4614,24.5635],[51.4437,24.5548],[51.4362,24.5388],[51.4323,24.5388],[51.4095,24.5159],[51.4048,24.5078],[51.3997,24.4946],[51.3953,24.4879],[51.3362,24.4479],[51.3269,24.4361],[51.3242,24.4313],[51.3114,24.4149],[51.3064,24.406],[51.3044,24.3962],[51.3023,24.374],[51.2996,24.3644],[51.2991,24.3587],[51.3,24.352],[51.2997,24.3463],[51.2959,24.3439],[51.2852,24.3445],[51.2804,24.3436],[51.2786,24.3405],[51.2778,24.319],[51.2788,24.3078],[51.2822,24.303],[51.345,24.2978],[51.3678,24.303],[51.3801,24.31],[51.3885,24.3166],[51.3978,24.3215],[51.4129,24.3235],[51.479,24.3109],[51.4969,24.2983],[51.5261,24.2683],[51.5693,24.2562],[51.5755,24.2177],[51.5752,24.1919],[51.5732,24.1278],[51.5785,24.1018],[51.5935,24.0783],[51.6505,24.0106],[51.7026,23.9486],[51.7548,23.8866],[51.8068,23.8245],[51.859,23.7625],[51.9112,23.7005],[51.9634,23.6386],[52.0155,23.5765],[52.0677,23.5145],[52.1198,23.4525],[52.172,23.3905],[52.2241,23.3284],[52.2763,23.2664],[52.3283,23.2045],[52.3805,23.1424],[52.4326,23.0804],[52.4848,23.0183],[52.5385,22.9548],[52.5585,22.9386],[52.5831,22.9311],[52.7438,22.9113],[52.8828,22.8942],[53.0218,22.8771],[53.1609,22.8601],[53.2999,22.843],[53.4389,22.8259],[53.5781,22.8088],[53.7171,22.7917],[53.8561,22.7746],[53.9953,22.7574],[54.1343,22.7403],[54.2733,22.7233],[54.4124,22.7062],[54.5513,22.689],[54.6903,22.672],[54.8294,22.6549],[54.9686,22.6377],[55.1053,22.6209],[55.1204,22.6234],[55.1868,22.7036],[55.2504,22.6055],[55.3311,22.4806],[55.412,22.3557],[55.4928,22.2308],[55.5736,22.1059],[55.6267,22.0238],[55.637,22.0019],[55.6376,21.979],[55.6002,21.8661],[55.5952,21.851],[55.5886,21.8312],[55.5701,21.7754],[55.5412,21.6887],[55.5038,21.5762],[55.4596,21.443],[55.4102,21.2945],[55.3575,21.1356],[55.3446,21.0969],[55.3029,20.9715],[55.2483,20.8074],[55.1955,20.6486],[55.1462,20.5],[55.1019,20.3668],[55.0645,20.2543],[55.0357,20.1676],[55.0171,20.1117],[55.0105,20.092],[54.9784,19.9954],[54.8279,19.9453],[54.6567,19.8882],[54.4856,19.8312],[54.3146,19.7742],[54.1435,19.7171],[53.9722,19.6601],[53.8011,19.6031],[53.63,19.546],[53.4589,19.489],[53.2878,19.4319],[53.1166,19.3749],[52.9455,19.3179],[52.7744,19.2608],[52.6031,19.2038],[52.4321,19.1467],[52.2611,19.0897],[52.0899,19.0326],[51.9786,18.9956],[51.8207,18.9744],[51.6605,18.9528],[51.5003,18.9312],[51.3401,18.9097],[51.1799,18.8882],[51.0198,18.8666],[50.8597,18.845],[50.6994,18.8235],[50.5393,18.8019],[50.3791,18.7804],[50.2189,18.7589],[50.0587,18.7373],[49.8985,18.7157],[49.7384,18.6942],[49.5782,18.6726],[49.418,18.6511],[49.2579,18.6295],[49.1288,18.6121],[49.0358,18.5797],[48.9913,18.5579],[48.8475,18.4877],[48.676,18.404],[48.4844,18.3104],[48.3126,18.2266],[48.1844,18.1639],[48.1619,18.1489],[48.0844,18.0559],[47.9936,17.9476],[47.8355,17.7582],[47.6863,17.5797],[47.589,17.4633],[47.5721,17.4323],[47.5248,17.3076],[47.458,17.1309],[47.4286,17.0931],[47.4287,17.0938],[47.7451,19.5313],[48.0142,21.5002],[48.2991,23.655],[48.3046,23.8782],[48.2896,23.9999],[48.2653,24.071],[48.2232,24.1587],[48.1812,24.2226],[48.1412,24.2701],[47.8885,24.5021],[47.5346,24.7346],[47.5169,24.7534],[47.5035,24.7736],[47.4963,24.7891],[47.4876,24.8337],[47.465,26.1746],[47.459,26.2065],[47.4525,26.2254],[47.443,26.2438],[47.43,26.2617],[47.4154,26.2744],[47.403,26.2826],[47.083,26.398],[47.0621,26.4088],[47.0438,26.4274],[47.0171,26.4652],[46.8518,26.6101],[46.8302,26.6231],[46.8073,26.6296],[46.7829,26.6306],[46.6338,26.6066],[46.6108,26.6074],[46.5879,26.6106],[46.5636,26.6178],[46.5406,26.6271],[46.2938,26.7861],[46.2304,26.8185],[46.1866,26.8322],[46.1425,26.8402],[45.9773,26.8446],[45.9343,26.8528],[45.9126,26.8617],[45.8691,26.8883],[45.7738,26.9694],[45.7119,27.0372],[45.6924,27.0534],[45.6706,27.0637],[45.6475,27.0677],[45.5746,27.0734],[45.5285,27.0857],[45.2453,27.2319],[45.2224,27.2508],[45.1982,27.2788],[45.1853,27.3052],[45.1583,27.3917],[45.1451,27.4153],[45.1277,27.4362],[45.0857,27.472],[45.0002,27.5278],[44.99,27.5326],[44.9772,27.5455],[44.9511,27.5795],[44.9424,27.5997],[44.9387,27.6195],[44.9389,27.6379],[44.9412,27.6542],[44.9488,27.6834],[44.9744,27.7398],[44.9953,27.773],[45.1636,27.9532],[45.2127,28.0165],[45.5648,28.6023],[45.6247,28.6815],[45.7023,28.7583],[45.801,28.8382],[45.9409,28.9063],[46.4144,29.0629],[46.4273,29.0761],[46.4449,29.0794],[46.4886,29.0876],[46.5324,29.0957],[46.6442,29.0836],[46.7558,29.0715],[46.8674,29.0594],[46.9792,29.0472],[47.0788,29.0357],[47.1784,29.0242],[47.278,29.0127],[47.3776,29.0012],[47.4334,28.9947],[47.4335,28.9947],[47.434,28.9946],[47.4341,28.9946],[47.4463,28.9762],[47.4945,28.904],[47.5499,28.7706],[47.5546,28.7454],[47.5584,28.6915],[47.568,28.661],[47.5817,28.6315],[47.5968,28.6088],[47.6182,28.5915],[47.6411,28.5772],[47.6598,28.56],[47.6681,28.5335],[47.7218,28.534],[47.8996,28.5356],[48.0774,28.5373],[48.2552,28.5389],[48.4328,28.5405],[48.4564,28.5185],[48.4688,28.5106],[48.4946,28.5001],[48.4985,28.4929],[48.5077,28.4492],[48.5078,28.4157],[48.499,28.3934],[48.4761,28.4008],[48.4712,28.3942],[48.47,28.3913],[48.4688,28.3871],[48.4883,28.3859],[48.5049,28.3896],[48.5173,28.399],[48.5239,28.4145],[48.5355,28.4076],[48.5349,28.3987],[48.5239,28.3803],[48.5178,28.3542],[48.5171,28.3424],[48.5222,28.3188],[48.5349,28.2988],[48.6184,28.2173],[48.6235,28.2053],[48.6091,28.1861],[48.6017,28.1674],[48.6008,28.1478],[48.6065,28.1265],[48.6165,28.1105],[48.6481,28.072],[48.6548,28.0616],[48.6533,28.0499],[48.6521,28.0461],[48.6678,28.0377],[48.702,28.024],[48.7129,28.0229],[48.7471,28.024],[48.7559,28.0217],[48.7759,28.0119],[48.7879,28.0097],[48.792,28.007],[48.7915,28.0008],[48.7883,27.9939],[48.7845,27.9892],[48.7781,27.9866],[48.7713,27.987],[48.764,27.9892],[48.7468,27.9816],[48.7424,27.9752],[48.7437,27.9613],[48.7533,27.948],[48.7733,27.9298],[48.7962,27.9136],[48.8147,27.9067],[48.8152,27.9022],[48.8377,27.8723],[48.8779,27.8368],[48.8827,27.8267],[48.8738,27.8066],[48.8726,27.7939],[48.8734,27.7821],[48.8767,27.777],[48.8745,27.7699],[48.8655,27.7541],[48.8528,27.7375],[48.8392,27.7286],[48.8462,27.7403],[48.8477,27.7487],[48.8455,27.7733],[48.8485,27.7873],[48.8543,27.7954],[48.8576,27.8035],[48.8529,27.8179],[48.8381,27.804],[48.8218,27.7668],[48.805,27.7565],[48.8234,27.7996],[48.8255,27.8111],[48.8206,27.83],[48.8125,27.8286],[48.804,27.815],[48.7852,27.7447],[48.7845,27.7286],[48.7822,27.7261],[48.7788,27.7196],[48.78,27.7141],[48.7914,27.7149],[48.7969,27.7197],[48.804,27.7365],[48.8113,27.7428],[48.8113,27.6982],[48.8153,27.6876],[48.8246,27.689],[48.834,27.6975],[48.8392,27.7081],[48.8462,27.6971],[48.8473,27.6838],[48.8455,27.6671],[48.8581,27.6628],[48.8677,27.6678],[48.875,27.6775],[48.8801,27.6876],[48.8805,27.6703],[48.8784,27.6642],[48.8733,27.6597],[48.8782,27.6506],[48.8771,27.6445],[48.8706,27.6412],[48.8596,27.6404],[48.8698,27.6186],[48.8733,27.6125],[48.849,27.6234],[48.8389,27.6232],[48.8318,27.6125],[48.8528,27.6046],[48.8708,27.6056],[48.8848,27.6151],[48.8938,27.633],[48.9006,27.633],[48.9075,27.6187],[48.8953,27.6077],[48.8911,27.5881],[48.8967,27.572],[48.9143,27.5715],[48.9216,27.5788],[48.9172,27.5858],[48.9095,27.5927],[48.9075,27.5994],[48.9153,27.6086],[48.926,27.6138],[48.9491,27.6187],[48.9685,27.6203],[48.9817,27.6146],[49.0173,27.5852],[49.0542,27.5683],[49.064,27.5563],[49.0447,27.5442],[49.0589,27.5382],[49.0716,27.5395],[49.0776,27.5465],[49.072,27.5578],[49.0889,27.5511],[49.1063,27.5469],[49.1443,27.5442],[49.1527,27.5463],[49.1704,27.5557],[49.1785,27.5578],[49.189,27.5567],[49.2088,27.5516],[49.2196,27.5504],[49.2398,27.5451],[49.2551,27.5324],[49.2781,27.5032],[49.2853,27.4976],[49.2925,27.4941],[49.2991,27.4899],[49.3053,27.4821],[49.3079,27.4745],[49.3098,27.4567],[49.3128,27.4486],[49.3001,27.4481],[49.2927,27.4529],[49.2899,27.4623],[49.2918,27.4753],[49.2849,27.4753],[49.2639,27.4529],[49.2088,27.4581],[49.1892,27.4411],[49.1819,27.4411],[49.1751,27.4583],[49.1577,27.4585],[49.1198,27.4411],[49.1281,27.4369],[49.1501,27.4313],[49.1614,27.4269],[49.1703,27.421],[49.1761,27.4158],[49.1831,27.4111],[49.1955,27.4064],[49.202,27.3987],[49.207,27.3952],[49.2126,27.3968],[49.2295,27.4118],[49.2297,27.4139],[49.235,27.4182],[49.2373,27.424],[49.2402,27.4272],[49.2469,27.4238],[49.2546,27.4178],[49.2638,27.4139],[49.2568,27.4001],[49.2473,27.3931],[49.2375,27.3881],[49.2297,27.3797],[49.2267,27.3687],[49.2261,27.3428],[49.2234,27.3313],[49.2341,27.3339],[49.2458,27.3394],[49.2573,27.3469],[49.2674,27.3552],[49.2788,27.3588],[49.2922,27.3555],[49.3128,27.345],[49.3049,27.3255],[49.3079,27.3063],[49.3151,27.2868],[49.319,27.2664],[49.3171,27.2237],[49.3226,27.2057],[49.3395,27.2078],[49.3384,27.1896],[49.3452,27.1828],[49.356,27.185],[49.3669,27.1942],[49.3618,27.2091],[49.3709,27.2187],[49.3864,27.2196],[49.4009,27.2078],[49.4071,27.2153],[49.4124,27.204],[49.4094,27.1939],[49.404,27.1833],[49.4009,27.1702],[49.3975,27.1626],[49.3888,27.1593],[49.3777,27.1592],[49.3669,27.1606],[49.3748,27.1491],[49.3991,27.1447],[49.4071,27.1327],[49.4172,27.1381],[49.4236,27.1465],[49.4351,27.1668],[49.4359,27.1623],[49.4368,27.1618],[49.4385,27.1621],[49.4419,27.1606],[49.4319,27.1428],[49.4402,27.1398],[49.4657,27.147],[49.4813,27.1444],[49.5083,27.134],[49.5244,27.1327],[49.4973,27.1591],[49.4891,27.1747],[49.5041,27.1879],[49.5164,27.1884],[49.5261,27.1828],[49.5349,27.1762],[49.5449,27.1737],[49.5527,27.1767],[49.5721,27.1942],[49.5686,27.1783],[49.5594,27.154],[49.5586,27.1396],[49.5646,27.1167],[49.5701,27.1041],[49.5755,27.0986],[49.5942,27.0907],[49.6125,27.072],[49.6702,26.9909],[49.6995,26.9582],[49.7083,26.9521],[49.7367,26.9409],[49.7459,26.9343],[49.7605,26.9206],[49.7708,26.9136],[49.833,26.888],[49.8718,26.8625],[49.8941,26.8603],[49.9172,26.8615],[49.9421,26.8583],[49.973,26.8424],[50.002,26.817],[50.052,26.7559],[50.0691,26.7286],[50.1419,26.6813],[50.1585,26.6649],[50.1619,26.6392],[50.1167,26.6754],[50.0925,26.6891],[50.0379,26.6952],[50.0237,26.6995],[50.014,26.7108],[50.0064,26.7476],[49.9976,26.7414],[49.9885,26.7244],[49.9837,26.7082],[49.9829,26.6957],[49.9832,26.6837],[49.9865,26.6728],[49.9937,26.6632],[50.0037,26.6536],[50.0064,26.6486],[50.0022,26.5874],[50.0037,26.5707],[50.0306,26.4946],[50.0418,26.4785],[50.0583,26.4639],[50.0765,26.4538],[50.1623,26.4271],[50.1916,26.4036],[50.2092,26.3695],[50.2166,26.3239],[50.216,26.2151],[50.2122,26.1913],[50.202,26.1714],[50.1824,26.1601],[50.1819,26.1755],[50.1741,26.1807],[50.1634,26.1772],[50.1546,26.1662],[50.161,26.1411],[50.1584,26.1025],[50.1504,26.0632],[50.1414,26.036],[50.1258,26.0465],[50.1214,26.0607],[50.1218,26.0765],[50.1203,26.0912],[50.1133,26.1033],[50.1043,26.1112],[50.0949,26.1176],[50.0868,26.1253],[50.0813,26.1291],[50.0767,26.1291],[50.0736,26.1315],[50.0716,26.1592],[50.0696,26.166],[50.0657,26.1737],[50.0579,26.1836],[50.0457,26.1945],[50.0324,26.2011],[50.021,26.1977],[49.9949,26.1522],[49.9868,26.1458],[49.9758,26.1396],[49.981,26.1261],[49.9915,26.1131],[49.9973,26.1082],[49.9995,26.1009],[50.0088,26.0865],[50.0104,26.0769],[50.0071,26.0744],[50.0002,26.0722],[49.9932,26.0681],[49.99,26.0605],[49.9924,26.0459],[49.9961,26.0317],[49.9969,26.0173],[49.99,26.0018],[50.0068,25.9965],[50.021,26.0045],[50.0282,26.0195],[50.0241,26.036],[50.0337,26.0334],[50.0405,26.0283],[50.052,26.0154],[50.0574,26.0132],[50.0617,26.0141],[50.0646,26.0134],[50.0657,26.0055],[50.0658,25.9995],[50.0669,25.9963],[50.0698,25.9951],[50.0759,25.995],[50.1013,25.9895],[50.1115,25.976],[50.1167,25.9582],[50.1277,25.9404],[50.1277,25.9335],[50.1078,25.9147],[50.1183,25.8679],[50.1419,25.8161],[50.1619,25.7827],[50.222,25.7174],[50.2472,25.6794],[50.2575,25.6319],[50.2512,25.6319],[50.2337,25.6795],[50.2267,25.6872],[50.2146,25.6896],[50.2,25.6959],[50.1875,25.7036],[50.175,25.7204],[50.1592,25.7318],[50.1447,25.7333],[50.1414,25.7138],[50.1487,25.6999],[50.1743,25.683],[50.1824,25.6728],[50.1877,25.6829],[50.1892,25.6872],[50.1961,25.6872],[50.2341,25.6152],[50.348,25.4821],[50.3743,25.4612],[50.3713,25.4745],[50.3648,25.4901],[50.362,25.503],[50.3708,25.5084],[50.3814,25.5129],[50.3859,25.5106],[50.39,25.4887],[50.395,25.4833],[50.3999,25.4804],[50.4021,25.478],[50.4102,25.4641],[50.4287,25.4562],[50.4629,25.4469],[50.4715,25.4372],[50.4909,25.3923],[50.4834,25.3854],[50.4956,25.3701],[50.5091,25.3436],[50.5204,25.3148],[50.5251,25.2927],[50.5239,25.2802],[50.5187,25.258],[50.5176,25.2449],[50.5198,25.2321],[50.5244,25.2231],[50.5291,25.2163],[50.5347,25.199],[50.5491,25.1748],[50.5516,25.1595],[50.5454,25.1186],[50.5535,25.0779],[50.5622,25.0548],[50.5728,25.0429],[50.5804,25.0622],[50.6063,25.0427],[50.6335,25.0114],[50.6448,24.9951],[50.6616,24.98],[50.6814,24.9139],[50.7066,24.8989],[50.7264,24.8817],[50.735,24.8434],[50.7373,24.7822],[50.7415,24.7706],[50.75,24.7531],[50.7606,24.7364],[50.7713,24.727],[50.7861,24.7272],[50.8079,24.7466]]],[[[49.5654,27.3518],[49.5851,27.3443],[49.6384,27.3306],[49.6888,27.3177],[49.6704,27.3114],[49.6551,27.3146],[49.6404,27.321],[49.6238,27.3244],[49.6073,27.3225],[49.5918,27.3168],[49.5776,27.3083],[49.5654,27.2978],[49.5575,27.3055],[49.5564,27.3048],[49.5518,27.304],[49.5436,27.3093],[49.5383,27.3114],[49.5381,27.3115],[49.5381,27.3177],[49.5514,27.3228],[49.554,27.3283],[49.5498,27.3345],[49.5455,27.3383],[49.5415,27.3419],[49.5313,27.3462],[49.5203,27.3446],[49.5096,27.3409],[49.5003,27.3388],[49.4876,27.3341],[49.4749,27.3223],[49.4639,27.3066],[49.4562,27.2904],[49.4536,27.3164],[49.4722,27.342],[49.5012,27.3605],[49.5313,27.3655],[49.5425,27.3637],[49.551,27.3601],[49.5654,27.3518]]]]}},{"type":"Feature","properties":{"id":"SAU-847","name":"Ha'il","nameBn":"হাইল অঞ্চল","type":"Region","bounds":[39.0001,25.312,44.7989,28.876],"center":[41.7076,27.2652]},"geometry":{"type":"Polygon","coordinates":[[[44.4578,27.0693],[44.4357,27.0702],[44.3686,27.0829],[44.2651,27.0873],[44.2404,27.0939],[44.1965,27.118],[44.0688,27.2098],[43.9974,27.2787],[43.9607,27.3062],[43.938,27.3178],[43.915,27.3249],[43.8925,27.3279],[43.8694,27.3263],[43.846,27.3216],[43.7969,27.3046],[43.4175,27.1313],[43.3429,27.0879],[43.2942,27.0458],[43.2588,27.0053],[43.2174,26.926],[43.2027,26.9032],[43.1814,26.8807],[43.1471,26.8589],[42.9183,26.7712],[42.7984,26.7018],[42.5351,26.5105],[42.4178,26.3893],[42.3894,26.3457],[42.3725,26.31],[42.3655,26.2889],[42.352,26.271],[42.3324,26.2611],[42.2849,26.2509],[42.2603,26.249],[42.2365,26.2514],[42.2147,26.251],[42.1951,26.2423],[42.1807,26.226],[42.1582,26.1848],[42.1421,26.1424],[42.1378,26.1219],[42.1362,26.1016],[42.1377,26.0816],[42.1555,26.0001],[42.1566,25.9914],[42.1569,25.9758],[42.1537,25.958],[42.1416,25.9427],[42.1223,25.9371],[42.0994,25.9382],[42.0754,25.9431],[41.9966,25.9708],[41.9796,25.975],[41.9585,25.9728],[41.9344,25.9629],[41.9091,25.9382],[41.8961,25.9158],[41.8905,25.8925],[41.8928,25.8706],[41.9,25.8487],[41.9465,25.7703],[41.9524,25.7577],[41.9552,25.7422],[41.9498,25.7259],[41.9321,25.7123],[41.9091,25.7061],[41.8126,25.6973],[41.7811,25.689],[41.7434,25.6747],[41.5834,25.5956],[41.5487,25.5871],[41.4888,25.5807],[41.4486,25.5686],[41.4098,25.5365],[41.3235,25.5584],[41.0443,25.5981],[40.8713,25.5915],[40.8431,25.5858],[40.809,25.5743],[40.7821,25.5591],[40.7593,25.5408],[40.6861,25.4582],[40.6657,25.4409],[40.6463,25.4276],[40.6282,25.4186],[40.6147,25.4136],[40.595,25.4082],[40.5745,25.4045],[40.5314,25.4009],[40.4122,25.4036],[40.3621,25.3956],[40.1138,25.3164],[40.0903,25.3128],[40.0673,25.312],[40.0447,25.315],[40.0235,25.321],[40.0053,25.3294],[39.9937,25.3374],[39.9775,25.3525],[39.9642,25.3706],[39.9528,25.3948],[39.9475,25.4221],[39.9565,25.6879],[39.9389,25.7881],[39.9074,25.8982],[39.9034,25.9223],[39.9042,25.9528],[39.9597,26.2884],[39.9565,26.31],[39.9473,26.3302],[39.9254,26.3464],[39.9017,26.3474],[39.8537,26.3385],[39.8309,26.3403],[39.8095,26.3481],[39.7907,26.3635],[39.7801,26.3847],[39.7788,26.4088],[39.791,26.4395],[39.8272,26.4992],[39.8315,26.511],[39.8404,26.5473],[39.8413,26.5697],[39.8383,26.5949],[39.8341,26.6141],[39.8162,26.6568],[39.8312,26.6668],[39.8483,26.6882],[39.8672,26.7201],[39.9248,26.8816],[39.9551,26.9363],[40.0,26.9904],[40.1228,27.0862],[40.1419,27.1052],[40.1575,27.1254],[40.1665,27.1456],[40.1699,27.1667],[40.1656,27.1873],[40.1437,27.2109],[40.1212,27.2282],[40.0,27.2857],[39.962,27.3097],[39.9463,27.3224],[39.9307,27.3415],[39.9198,27.361],[39.8113,27.7528],[39.8007,27.7744],[39.7875,27.7955],[39.7285,27.8475],[39.611,27.9333],[39.5508,27.9594],[39.5201,27.9782],[39.4979,27.998],[39.4942,28.0027],[39.472,28.0244],[39.4344,28.0427],[39.3801,28.0615],[39.058,28.1294],[39.0341,28.1378],[39.0175,28.1467],[39.0001,28.1679],[39.1094,28.2739],[39.132,28.2894],[39.1563,28.3027],[39.5347,28.4613],[39.7095,28.504],[40.0804,28.6904],[40.4589,28.8272],[40.4809,28.8293],[40.5436,28.8163],[40.658,28.7739],[40.7165,28.7604],[40.7396,28.7601],[41.2706,28.8679],[41.3424,28.876],[41.3834,28.875],[41.4166,28.8704],[41.659,28.8009],[41.6939,28.7958],[41.7209,28.7955],[41.7462,28.7988],[41.8671,28.8264],[41.9759,28.8323],[42.001,28.8309],[42.3424,28.7606],[42.3885,28.7443],[42.4112,28.7316],[42.4336,28.7151],[42.5551,28.5868],[42.5843,28.5647],[42.6184,28.5461],[42.6682,28.5299],[42.7044,28.5251],[42.7377,28.5266],[42.7672,28.533],[42.7958,28.5427],[42.8765,28.5825],[42.9042,28.5932],[42.9333,28.5988],[42.9682,28.5987],[42.989,28.5888],[42.9981,28.5797],[43.0005,28.5716],[43.0048,28.4972],[43.0076,28.4834],[43.0143,28.4619],[43.0301,28.4321],[43.0529,28.4087],[43.0872,28.3895],[43.1151,28.3826],[43.1413,28.3801],[43.2408,28.3888],[43.2753,28.3862],[43.3026,28.3789],[43.409,28.3297],[43.4474,28.3178],[43.474,28.3156],[43.4961,28.3184],[43.5366,28.3359],[43.6531,28.4024],[43.6812,28.4129],[43.7155,28.4154],[43.7417,28.4066],[43.7648,28.3906],[43.7824,28.3708],[43.9512,28.1008],[44.0353,27.9035],[44.0699,27.8605],[44.0938,27.8403],[44.1206,27.8225],[44.1551,27.8074],[44.1824,27.7991],[44.4908,27.7576],[44.525,27.7455],[44.5706,27.7233],[44.5934,27.7095],[44.759,27.5765],[44.7853,27.5494],[44.7989,27.5204],[44.7407,27.501],[44.7385,27.4999],[44.7254,27.4908],[44.6935,27.4641],[44.6676,27.4349],[44.6405,27.3946],[44.6245,27.3633],[44.6139,27.332],[44.6107,27.3123],[44.6098,27.2914],[44.6112,27.2705],[44.6215,27.2354],[44.6276,27.2224],[44.5861,27.188],[44.5086,27.0933],[44.496,27.0831],[44.4783,27.0735],[44.4578,27.0693]]]}},{"type":"Feature","properties":{"id":"SAU-887","name":"Jizan","nameBn":"জিজান","type":"Region","bounds":[41.5935,16.371,43.342,18.3224],"center":[42.726,17.3028]},"geometry":{"type":"MultiPolygon","coordinates":[[[[43.1857,16.6848],[43.1861,16.6833],[43.18,16.6646],[43.1629,16.6615],[43.1228,16.6733],[43.0978,16.6778],[43.0849,16.6726],[43.08,16.6588],[43.0786,16.6377],[43.0746,16.6188],[43.0488,16.5535],[43.0363,16.5363],[43.0147,16.5207],[42.9709,16.4958],[42.9563,16.4907],[42.9174,16.4838],[42.9068,16.4794],[42.9029,16.4663],[42.9056,16.4511],[42.9068,16.4349],[42.8982,16.4189],[42.8725,16.4016],[42.8373,16.3872],[42.7895,16.371],[42.7881,16.3737],[42.7883,16.4099],[42.7813,16.4202],[42.7949,16.4528],[42.7883,16.4719],[42.7398,16.5246],[42.7287,16.5472],[42.7249,16.5664],[42.7259,16.6102],[42.7376,16.6528],[42.7373,16.6711],[42.7192,16.6754],[42.7259,16.6828],[42.7139,16.6937],[42.7039,16.7091],[42.7015,16.7233],[42.7124,16.7306],[42.7063,16.7406],[42.6782,16.7647],[42.6719,16.7719],[42.6592,16.79],[42.6358,16.8152],[42.6289,16.8199],[42.5969,16.8368],[42.5869,16.838],[42.5759,16.8323],[42.5418,16.878],[42.5557,16.9221],[42.5485,16.9381],[42.5486,16.9872],[42.5442,17.0043],[42.5345,17.0103],[42.5249,17.015],[42.5207,17.0282],[42.5127,17.037],[42.4945,17.0384],[42.474,17.0373],[42.4597,17.0385],[42.4475,17.049],[42.4375,17.0651],[42.4251,17.0931],[42.4206,17.1077],[42.4155,17.142],[42.4108,17.1557],[42.4017,17.1635],[42.3567,17.1824],[42.3592,17.1652],[42.3665,17.1493],[42.384,17.121],[42.3638,17.1087],[42.3739,17.0433],[42.363,17.0248],[42.3573,17.0456],[42.3567,17.1142],[42.3526,17.1347],[42.3391,17.1736],[42.3216,17.3093],[42.3152,17.3332],[42.3107,17.351],[42.3167,17.4008],[42.3152,17.4221],[42.3079,17.4443],[42.3015,17.4536],[42.2917,17.4574],[42.2814,17.4579],[42.2736,17.4599],[42.2686,17.4648],[42.2668,17.4736],[42.2606,17.4851],[42.1528,17.5738],[42.1438,17.5766],[42.1409,17.5712],[42.134,17.5798],[42.1233,17.6008],[42.1035,17.6275],[42.0977,17.6444],[42.0935,17.6521],[42.0862,17.6554],[42.0635,17.6509],[42.0532,17.6532],[42.0488,17.6657],[42.0438,17.6743],[42.0005,17.7175],[41.9987,17.7155],[41.9924,17.7127],[41.9849,17.7106],[41.9793,17.7106],[41.9697,17.7198],[41.939,17.7619],[41.9287,17.7672],[41.8695,17.8205],[41.8478,17.812],[41.8104,17.8369],[41.7876,17.8336],[41.7783,17.8598],[41.7608,17.8765],[41.7393,17.8907],[41.7192,17.9092],[41.6773,17.9606],[41.6709,17.9775],[41.6724,17.9901],[41.6753,18.0013],[41.6737,18.0093],[41.6609,18.0124],[41.6536,18.0153],[41.6521,18.0226],[41.6526,18.0314],[41.6511,18.039],[41.6089,18.0752],[41.5935,18.0959],[41.6026,18.1147],[41.5971,18.1211],[41.5973,18.1213],[41.5974,18.1215],[41.6155,18.1632],[41.6259,18.1804],[41.6415,18.1968],[41.6605,18.2093],[41.7221,18.2417],[41.7401,18.2596],[41.7524,18.2748],[41.7707,18.314],[41.8835,18.3224],[41.9226,18.3121],[41.933,18.2964],[41.9369,18.278],[41.9383,18.2579],[41.9172,18.1379],[41.9159,18.1151],[41.9178,18.0919],[41.9267,18.0647],[41.9433,18.0501],[41.9623,18.0452],[42.0294,18.0536],[42.0513,18.0522],[42.0744,18.0461],[42.1008,18.0314],[42.1157,18.0157],[42.1231,18.0051],[42.1355,17.9687],[42.1455,17.9483],[42.1667,17.9237],[42.1881,17.9129],[42.2105,17.9072],[42.3678,17.9051],[42.3922,17.8997],[42.4203,17.8855],[42.4394,17.8665],[42.4518,17.8453],[42.4598,17.8244],[42.4718,17.8014],[42.4887,17.7766],[42.5821,17.6849],[42.6065,17.6693],[42.6291,17.6608],[42.6495,17.6607],[42.6679,17.6676],[42.6823,17.6825],[42.6907,17.7018],[42.7363,17.8668],[42.7586,17.9069],[42.7724,17.9256],[42.7899,17.9433],[42.8318,17.9731],[42.8779,17.9984],[42.8864,18.0],[42.9252,17.9927],[42.9381,17.9775],[42.9432,17.9587],[42.9401,17.9173],[42.9466,17.8929],[42.9626,17.8672],[43.0399,17.8072],[43.0652,17.7832],[43.0791,17.7624],[43.1112,17.6987],[43.1261,17.6801],[43.1448,17.6659],[43.2216,17.6399],[43.2419,17.623],[43.2591,17.6025],[43.342,17.4825],[43.3031,17.459],[43.2159,17.3872],[43.1679,17.3305],[43.165,17.3259],[43.2222,17.3078],[43.2418,17.2934],[43.2522,17.272],[43.2486,17.2519],[43.2262,17.2413],[43.2033,17.2363],[43.1769,17.2255],[43.1562,17.2097],[43.1501,17.19],[43.151,17.1669],[43.1453,17.1466],[43.1243,17.107],[43.1184,17.0862],[43.1225,17.0701],[43.1303,17.0535],[43.136,17.0314],[43.1359,17.0096],[43.1316,16.9904],[43.1154,16.9518],[43.1087,16.927],[43.1126,16.91],[43.1337,16.871],[43.1458,16.8345],[43.1573,16.8254],[43.1944,16.8155],[43.2047,16.8077],[43.2115,16.7969],[43.2128,16.7839],[43.2086,16.7734],[43.2011,16.7681],[43.1919,16.7642],[43.1829,16.758],[43.1685,16.7372],[43.1707,16.7235],[43.1798,16.7082],[43.1857,16.6848]]],[[[42.1864,16.7055],[42.1863,16.6914],[42.1835,16.6734],[42.1766,16.6516],[42.1791,16.6349],[42.1882,16.6053],[42.1782,16.5851],[42.1786,16.5835],[42.1558,16.585],[42.128,16.6174],[42.1053,16.6253],[42.0838,16.6267],[42.0732,16.6358],[42.1014,16.6471],[42.1176,16.6599],[42.1111,16.6805],[42.0858,16.6935],[42.0602,16.6899],[42.0307,16.6875],[42.0106,16.6826],[41.9917,16.6724],[41.9755,16.6636],[41.9555,16.6701],[41.9328,16.6908],[41.9169,16.7051],[41.8941,16.7104],[41.8674,16.7286],[41.8434,16.7467],[41.8314,16.7674],[41.8249,16.7982],[41.8076,16.8099],[41.7901,16.81],[41.7782,16.8127],[41.7808,16.8193],[41.7796,16.841],[41.7649,16.859],[41.7556,16.8784],[41.7571,16.8964],[41.7719,16.8924],[41.7772,16.8847],[41.7892,16.8756],[41.8281,16.8586],[41.8494,16.8353],[41.8601,16.8211],[41.8639,16.7967],[41.8633,16.7851],[41.8811,16.7657],[41.8985,16.7515],[41.9051,16.7476],[41.9414,16.7512],[41.9533,16.7331],[41.9734,16.7317],[41.9936,16.7379],[42.011,16.7391],[42.023,16.7274],[42.0229,16.7159],[42.035,16.7158],[42.0646,16.7284],[42.0365,16.7337],[42.0217,16.7558],[42.0339,16.7738],[42.0414,16.8023],[42.0479,16.8121],[42.0622,16.8142],[42.0685,16.8118],[42.0765,16.8087],[42.1041,16.7923],[42.1053,16.7756],[42.1185,16.7549],[42.1165,16.7442],[42.1412,16.7406],[42.1477,16.7213],[42.1864,16.7055]]],[[[41.9189,16.7912],[41.9042,16.8028],[41.8896,16.8209],[41.8643,16.8519],[41.843,16.8803],[41.835,16.8917],[41.835,16.8917],[41.8462,16.9013],[41.8704,16.9027],[41.8879,16.9078],[41.9009,16.9184],[41.911,16.936],[41.9212,16.9352],[41.9231,16.935],[41.9285,16.9549],[41.9209,16.9789],[41.9075,16.9848],[41.8941,16.9907],[41.8811,16.9917],[41.8586,16.9964],[41.8462,16.9975],[41.8438,17.0019],[41.8514,17.0099],[41.8608,17.0136],[41.8633,17.005],[41.8957,17.0019],[41.9212,16.992],[41.9382,16.9729],[41.9391,16.9688],[41.9452,16.9423],[41.9455,16.9233],[41.9399,16.9015],[41.9438,16.8835],[41.976,16.8755],[41.9852,16.8536],[41.9441,16.853],[41.9323,16.8384],[41.9382,16.8214],[41.9627,16.8131],[41.9766,16.805],[41.9954,16.797],[42.002,16.7726],[42.0018,16.761],[41.9725,16.7779],[41.9363,16.7885],[41.9189,16.7912]]]]}},{"type":"Feature","properties":{"id":"SAU-888","name":"Makkah","nameBn":"মক্কা অঞ্চল","type":"Region","bounds":[38.6438,18.1211,43.6675,23.9673],"center":[40.2542,21.4348]},"geometry":{"type":"Polygon","coordinates":[[[41.5971,18.1211],[41.5851,18.1354],[41.578,18.1464],[41.5752,18.1594],[41.5708,18.1652],[41.562,18.1682],[41.5564,18.1743],[41.561,18.1898],[41.5407,18.1919],[41.5213,18.1967],[41.5242,18.201],[41.5257,18.2043],[41.5281,18.2072],[41.5337,18.2104],[41.5275,18.2223],[41.5186,18.228],[41.5072,18.2283],[41.4933,18.2239],[41.4998,18.2333],[41.5046,18.243],[41.5056,18.2518],[41.5002,18.2587],[41.5064,18.2722],[41.5005,18.279],[41.4876,18.2808],[41.4722,18.2792],[41.4754,18.2929],[41.472,18.312],[41.4646,18.331],[41.4554,18.3441],[41.4509,18.356],[41.4447,18.394],[41.4419,18.4021],[41.4397,18.4106],[41.4382,18.4642],[41.4358,18.47],[41.433,18.4743],[41.4284,18.4769],[41.4211,18.4778],[41.4158,18.4815],[41.4139,18.49],[41.4133,18.4993],[41.4115,18.5058],[41.3753,18.5295],[41.3698,18.5358],[41.3682,18.5463],[41.3633,18.5587],[41.3557,18.569],[41.3402,18.5756],[41.3343,18.5806],[41.3298,18.5854],[41.3283,18.5876],[41.3221,18.5856],[41.3117,18.5753],[41.3078,18.5734],[41.2969,18.5773],[41.2858,18.5838],[41.2754,18.592],[41.2673,18.6013],[41.2406,18.6579],[41.2293,18.6733],[41.2166,18.6863],[41.2102,18.6979],[41.2092,18.7116],[41.2122,18.731],[41.236,18.7966],[41.2395,18.817],[41.2425,18.8249],[41.2478,18.8284],[41.249,18.8342],[41.2395,18.8483],[41.2354,18.8491],[41.2132,18.8604],[41.2122,18.862],[41.1712,18.8716],[41.1609,18.903],[41.1603,18.9089],[41.141,18.9333],[41.1365,18.9365],[41.1358,18.9469],[41.1372,18.9577],[41.1433,18.9775],[41.1482,18.9885],[41.1531,18.996],[41.1567,19.0039],[41.1589,19.0222],[41.1637,19.043],[41.1765,19.0674],[41.1678,19.0822],[41.1494,19.0937],[41.1296,19.1016],[41.0864,19.1136],[41.0686,19.1254],[41.0584,19.153],[41.0442,19.1741],[41.0402,19.1835],[41.0407,19.1946],[41.0482,19.2177],[41.0475,19.2274],[41.0417,19.2458],[41.0402,19.2558],[41.0361,19.2646],[41.0178,19.274],[41.0135,19.2829],[41.0091,19.304],[40.9983,19.3149],[40.9829,19.3227],[40.9559,19.3433],[40.9577,19.3464],[40.959,19.3586],[40.9567,19.3686],[40.947,19.3842],[40.9447,19.3927],[40.9431,19.4033],[40.9377,19.4194],[40.9383,19.4306],[40.9451,19.4407],[40.9544,19.4487],[40.9592,19.456],[40.9522,19.4641],[40.9546,19.4748],[40.9525,19.4853],[40.947,19.4937],[40.9447,19.5057],[40.8591,19.5345],[40.8355,19.5466],[40.7847,19.5963],[40.7604,19.6087],[40.7604,19.6149],[40.7713,19.6135],[40.7944,19.6013],[40.8006,19.6422],[40.798,19.6923],[40.7909,19.7141],[40.7449,19.777],[40.7254,19.7893],[40.674,19.795],[40.6541,19.7943],[40.645,19.7847],[40.6566,19.7595],[40.6416,19.7712],[40.6287,19.7921],[40.6204,19.8121],[40.6195,19.821],[40.6052,19.8295],[40.5645,19.8859],[40.5335,19.904],[40.527,19.9103],[40.528,19.9175],[40.5405,19.9439],[40.5345,19.9618],[40.5226,19.9725],[40.4922,19.9848],[40.4546,20.0066],[40.4456,20.0097],[40.4364,20.0233],[40.4276,20.0264],[40.4185,20.0312],[40.3936,20.0643],[40.3855,20.0681],[40.3608,20.0739],[40.3522,20.0749],[40.3338,20.0795],[40.3135,20.0907],[40.2678,20.1253],[40.2321,20.1636],[40.2388,20.178],[40.2219,20.189],[40.1956,20.196],[40.1648,20.2004],[40.1589,20.2054],[40.1496,20.2182],[40.134,20.2315],[40.125,20.2411],[40.126,20.2456],[40.1156,20.2517],[40.0838,20.2792],[40.0676,20.2865],[40.0452,20.2861],[40.0204,20.2821],[40.0003,20.2751],[39.992,20.2667],[39.968,20.2751],[39.9253,20.2994],[39.9031,20.3083],[39.9043,20.2956],[39.9102,20.2885],[39.9183,20.2835],[39.9266,20.2768],[39.9314,20.2747],[39.9411,20.2685],[39.9471,20.2622],[39.9407,20.2592],[39.9232,20.2636],[39.8254,20.3201],[39.8113,20.3315],[39.7982,20.3374],[39.7783,20.3427],[39.7601,20.3508],[39.7446,20.3812],[39.7274,20.3969],[39.6736,20.4362],[39.6465,20.4616],[39.5871,20.5522],[39.5674,20.5677],[39.5674,20.5751],[39.5774,20.5745],[39.5853,20.5759],[39.5911,20.5803],[39.5947,20.5888],[39.5794,20.5914],[39.5667,20.5983],[39.5435,20.6192],[39.537,20.6303],[39.531,20.6595],[39.5264,20.6707],[39.4929,20.7062],[39.4899,20.7229],[39.506,20.7464],[39.4714,20.7575],[39.4575,20.7595],[39.46,20.7517],[39.4646,20.746],[39.4707,20.742],[39.4779,20.739],[39.4583,20.7449],[39.4363,20.7567],[39.4232,20.7717],[39.4302,20.7874],[39.4209,20.7917],[39.4168,20.7978],[39.4177,20.8053],[39.4233,20.8141],[39.4277,20.8064],[39.4354,20.8008],[39.4456,20.7969],[39.4575,20.7943],[39.4526,20.8061],[39.4512,20.8116],[39.4507,20.8178],[39.4487,20.8273],[39.444,20.8276],[39.4373,20.8258],[39.4302,20.8284],[39.4168,20.8465],[39.4113,20.8469],[39.4097,20.8284],[39.3884,20.8411],[39.3597,20.8626],[39.3391,20.8874],[39.3408,20.9103],[39.345,20.9052],[39.3526,20.8989],[39.3596,20.8967],[39.3618,20.9035],[39.3584,20.9154],[39.3528,20.9199],[39.3455,20.9222],[39.3374,20.9274],[39.3278,20.9318],[39.3174,20.9301],[39.3068,20.9261],[39.2971,20.924],[39.2969,20.928],[39.2687,20.9686],[39.2624,20.9831],[39.2595,20.9998],[39.259,21.0239],[39.2557,21.0329],[39.242,21.0417],[39.239,21.0509],[39.2378,21.0629],[39.2341,21.0672],[39.2276,21.0693],[39.1854,21.0972],[39.1743,21.1089],[39.168,21.1363],[39.1587,21.1559],[39.1565,21.1675],[39.1587,21.1726],[39.1682,21.1853],[39.1702,21.1915],[39.1633,21.2059],[39.1257,21.2604],[39.112,21.2682],[39.0807,21.315],[39.1599,21.3798],[39.1711,21.4041],[39.1724,21.436],[39.1647,21.4649],[39.1497,21.4801],[39.1497,21.4857],[39.1604,21.4945],[39.1589,21.5078],[39.1428,21.5409],[39.1301,21.5196],[39.1198,21.5169],[39.1104,21.5281],[39.1012,21.5484],[39.1087,21.5546],[39.0923,21.5766],[39.0887,21.6059],[39.0902,21.637],[39.0881,21.6645],[39.0774,21.6916],[39.0794,21.7064],[39.0982,21.7128],[39.1035,21.7186],[39.1086,21.7321],[39.1091,21.7478],[39.1012,21.76],[39.0936,21.7392],[39.0884,21.7305],[39.0807,21.7258],[39.0667,21.7252],[39.0635,21.73],[39.0637,21.7379],[39.0603,21.7464],[39.0539,21.7519],[39.0495,21.7548],[39.0454,21.7587],[39.0404,21.7668],[39.0374,21.7761],[39.0359,21.7926],[39.033,21.801],[39.031,21.8015],[39.0193,21.8078],[39.0173,21.8112],[39.0145,21.8188],[39.0125,21.8221],[38.9786,21.8621],[38.9496,21.9219],[38.9313,22.0061],[38.9327,22.0252],[38.9591,22.0344],[38.9862,22.0022],[39.0057,22.002],[39.01,22.0241],[39.01,22.0436],[39.0125,22.0543],[39.0166,22.0581],[39.03,22.0671],[39.033,22.0722],[39.035,22.0911],[39.0444,22.1308],[39.0466,22.1511],[39.0404,22.1511],[39.0261,22.1169],[39.0193,22.1316],[39.0227,22.1425],[39.0293,22.1532],[39.033,22.1678],[39.033,22.2088],[39.0404,22.2358],[39.0733,22.2711],[39.0835,22.3135],[39.0906,22.3234],[39.0996,22.3317],[39.1087,22.3422],[39.1223,22.3702],[39.1395,22.3864],[39.1428,22.3906],[39.1428,22.4032],[39.1374,22.4147],[39.1276,22.4212],[39.1149,22.4186],[39.1082,22.4089],[39.1012,22.3804],[39.0948,22.3702],[39.0703,22.3658],[39.0692,22.3945],[39.0821,22.4363],[39.0742,22.491],[39.0815,22.5468],[39.074,22.5742],[39.0663,22.5876],[39.0386,22.6227],[39.0125,22.6787],[38.993,22.7086],[38.9857,22.7243],[38.9883,22.7364],[39.0147,22.759],[39.013,22.7668],[38.965,22.8163],[38.9455,22.8312],[38.9368,22.8264],[38.9404,22.8208],[38.958,22.8036],[38.9647,22.7947],[38.9679,22.784],[38.969,22.7738],[38.9714,22.7639],[38.9783,22.7537],[38.9709,22.7469],[38.9577,22.775],[38.9299,22.815],[38.9026,22.8432],[38.851,22.9297],[38.8512,22.9433],[38.8804,22.9285],[38.9129,22.862],[38.9305,22.8568],[38.9414,22.8505],[38.951,22.852],[38.9588,22.8591],[38.9647,22.8704],[38.9543,22.8819],[38.9373,22.9121],[38.9269,22.9182],[38.9196,22.9211],[38.9115,22.9285],[38.9053,22.9385],[38.9026,22.9493],[38.8939,22.9652],[38.8739,22.9728],[38.8511,22.978],[38.8343,22.9865],[38.8142,22.9827],[38.7996,22.9987],[38.7791,23.0412],[38.7902,23.0513],[38.7987,23.0646],[38.8044,23.0792],[38.8064,23.0932],[38.8039,23.1219],[38.7992,23.1373],[38.7983,23.1496],[38.7867,23.1546],[38.7776,23.1393],[38.7651,23.1611],[38.7477,23.183],[38.7293,23.2163],[38.7114,23.2357],[38.7039,23.2578],[38.6917,23.273],[38.6889,23.2865],[38.6803,23.3038],[38.6804,23.3183],[38.6729,23.3482],[38.6593,23.3718],[38.6465,23.4007],[38.6438,23.4195],[38.6746,23.4229],[38.7992,23.4316],[38.8696,23.4466],[38.9002,23.4492],[38.9264,23.4419],[38.946,23.4247],[38.9883,23.3623],[39.0014,23.3494],[39.0819,23.2844],[39.1601,23.1991],[39.1826,23.1809],[39.2068,23.1665],[39.2395,23.1611],[39.2788,23.1639],[39.3854,23.1816],[39.4154,23.1808],[39.4341,23.1711],[39.4447,23.1545],[39.4495,23.1351],[39.4529,23.0941],[39.4638,23.0776],[39.4867,23.0681],[39.5628,23.0812],[39.7763,23.1428],[39.8697,23.1535],[39.8916,23.1524],[39.9127,23.1464],[39.9308,23.1326],[39.9426,23.1148],[39.9497,23.0959],[39.9534,23.0777],[39.9543,23.0472],[39.9476,22.9993],[39.9421,22.9812],[39.8871,22.8615],[39.8818,22.8409],[39.885,22.8211],[39.8984,22.8051],[39.918,22.7968],[39.9842,22.778],[40.0146,22.7638],[40.0326,22.7514],[40.0517,22.7348],[40.0674,22.7155],[40.0772,22.6954],[40.0821,22.6741],[40.0829,22.6526],[40.077,22.609],[40.0669,22.569],[40.0643,22.5488],[40.0685,22.5293],[40.0804,22.5127],[40.1004,22.5009],[40.1049,22.4998],[40.1695,22.4912],[40.1928,22.4912],[40.2148,22.4933],[40.2403,22.4992],[40.2449,22.5011],[40.2658,22.5125],[40.3676,22.5924],[40.4089,22.6163],[40.4395,22.6217],[40.4636,22.6189],[40.6168,22.5749],[40.6412,22.5762],[40.6649,22.5863],[40.6907,22.6121],[40.7624,22.7149],[40.8023,22.7572],[41.0872,22.9648],[41.2267,23.0941],[41.2574,23.1171],[41.2841,23.1335],[41.4003,23.1733],[41.4234,23.1854],[41.4427,23.2045],[41.4527,23.2323],[41.4465,23.2544],[41.4301,23.2708],[41.3212,23.3251],[41.2993,23.3401],[41.2817,23.3574],[41.2755,23.3783],[41.2861,23.4027],[41.317,23.4332],[41.3614,23.4633],[41.4909,23.5307],[41.6688,23.6024],[41.693,23.6194],[41.7176,23.6419],[41.7438,23.6791],[41.7572,23.7058],[41.7645,23.7304],[41.7664,23.7744],[41.764,23.7956],[41.7595,23.8163],[41.7336,23.8818],[41.7316,23.9027],[41.7364,23.9232],[41.7499,23.9413],[41.7696,23.9548],[41.7924,23.964],[41.8555,23.9673],[41.9864,23.9493],[41.9762,23.8546],[41.9793,23.7919],[41.9866,23.7717],[41.9983,23.7575],[42.0094,23.7484],[42.0463,23.7281],[42.0675,23.7131],[42.0879,23.6932],[42.107,23.6626],[42.1599,23.5042],[42.1858,23.4523],[42.1948,23.427],[42.2243,23.2844],[42.3531,23.0007],[42.363,22.9868],[42.3773,22.9716],[42.3964,22.9565],[42.4179,22.9444],[42.44,22.9351],[42.4614,22.9287],[42.4977,22.923],[42.6527,22.9257],[42.8707,22.909],[42.9159,22.9003],[42.9399,22.8923],[42.9647,22.8802],[42.9921,22.8596],[43.0062,22.8381],[43.0105,22.8176],[43.0065,22.7995],[42.9915,22.7557],[42.9859,22.654],[42.9868,22.6301],[42.9933,22.604],[43.0153,22.5674],[43.0365,22.5491],[43.0588,22.536],[43.1021,22.5223],[43.1252,22.5202],[43.1486,22.5222],[43.2667,22.5522],[43.2886,22.5549],[43.3109,22.5541],[43.4298,22.533],[43.4514,22.5269],[43.4703,22.5175],[43.4852,22.5018],[43.4862,22.4977],[43.4585,22.3512],[43.4584,22.3096],[43.5083,21.9756],[43.5077,21.956],[43.5046,21.9341],[43.4981,21.9135],[43.4885,21.8934],[43.4763,21.8744],[43.4463,21.8374],[43.4337,21.8186],[43.4258,21.7993],[43.4237,21.7786],[43.4362,21.6116],[43.4292,21.5689],[43.3892,21.423],[43.3876,21.403],[43.3889,21.3821],[43.3947,21.3617],[43.4064,21.3412],[43.6675,20.9762],[43.5614,20.9377],[43.404,20.8506],[43.3696,20.8399],[43.3406,20.8376],[43.276,20.8584],[43.2503,20.8636],[43.2216,20.865],[43.1789,20.8604],[43.1463,20.8514],[43.0856,20.8268],[43.0653,20.8208],[43.0501,20.8183],[42.9881,20.817],[42.9517,20.8105],[42.9239,20.7992],[42.8988,20.7833],[42.8605,20.7467],[42.8327,20.7253],[42.6345,20.6241],[42.3812,20.4081],[42.3475,20.3855],[42.2932,20.3569],[42.2597,20.3468],[42.2313,20.3449],[42.2092,20.3514],[42.1887,20.3627],[42.1693,20.3788],[42.1528,20.3987],[42.0503,20.5964],[42.032,20.6249],[41.9759,20.6707],[41.9564,20.6773],[41.9316,20.6809],[41.9097,20.6754],[41.8168,20.6262],[41.7951,20.6172],[41.7733,20.6112],[41.6663,20.6103],[41.6337,20.606],[41.6068,20.5996],[41.5578,20.5807],[41.5279,20.5722],[41.5071,20.573],[41.494,20.577],[41.479,20.5893],[41.4659,20.6065],[41.4543,20.6263],[41.4233,20.7086],[41.4071,20.7288],[41.3854,20.746],[41.3554,20.7589],[41.3308,20.7629],[41.3068,20.7604],[41.2852,20.752],[41.2653,20.7374],[41.2497,20.721],[41.2397,20.7063],[41.2341,20.6947],[41.2291,20.6776],[41.2274,20.6588],[41.2288,20.637],[41.2371,20.5955],[41.2548,20.5359],[41.2571,20.506],[41.2566,20.4959],[41.2498,20.4694],[41.1789,20.3505],[41.1513,20.2849],[41.1389,20.265],[41.1148,20.245],[41.0914,20.2348],[41.0681,20.2285],[40.9707,20.2141],[40.9401,20.2056],[40.9145,20.1937],[40.8921,20.1772],[40.8156,20.103],[40.802,20.0841],[40.799,20.0649],[40.8056,20.0467],[40.8215,20.0307],[40.8412,20.0209],[40.9162,20.0003],[40.9207,19.9972],[40.9291,19.9899],[40.9413,19.9739],[40.9508,19.9543],[40.9567,19.9328],[40.958,19.9113],[40.9467,19.8088],[40.9481,19.7876],[40.9665,19.7228],[40.9691,19.7021],[40.9632,19.6193],[40.9645,19.5999],[40.9691,19.5796],[40.98,19.5601],[40.9953,19.5449],[41.0068,19.5366],[41.0838,19.4976],[41.1077,19.4766],[41.1705,19.3969],[41.1919,19.3807],[41.2158,19.37],[41.2424,19.3649],[41.2658,19.3647],[41.2884,19.3678],[41.3099,19.3741],[41.3302,19.3836],[41.3486,19.3985],[41.3609,19.4166],[41.3687,19.4361],[41.3922,19.5435],[41.4565,19.7037],[41.4835,19.7472],[41.4951,19.7609],[41.5054,19.7687],[41.5226,19.7767],[41.5428,19.78],[41.6365,19.7798],[41.6712,19.7845],[41.6987,19.7971],[41.7435,19.8142],[41.7856,19.8163],[41.8047,19.8133],[41.8193,19.8076],[41.832,19.7991],[41.8469,19.782],[41.8586,19.7622],[41.8654,19.7407],[41.8666,19.7204],[41.8645,19.7004],[41.8337,19.5702],[41.8323,19.5465],[41.8349,19.5198],[41.8405,19.5001],[41.8829,19.4325],[41.8894,19.4081],[41.8893,19.3834],[41.8553,19.2817],[41.8458,19.2623],[41.8317,19.2448],[41.8134,19.232],[41.7946,19.2243],[41.7791,19.2212],[41.7653,19.2205],[41.6543,19.232],[41.632,19.2313],[41.6106,19.2277],[41.5882,19.2205],[41.544,19.1958],[41.4937,19.1598],[41.4748,19.151],[41.4554,19.1515],[41.4354,19.1612],[41.4179,19.1739],[41.4022,19.1816],[41.3939,19.1712],[41.3905,19.1534],[41.3837,18.9204],[41.3893,18.8789],[41.3949,18.8582],[41.4029,18.8375],[41.4146,18.8178],[41.4315,18.8011],[41.451,18.7907],[41.4709,18.7856],[41.58,18.7873],[41.6236,18.7839],[41.6663,18.7763],[41.6869,18.7692],[41.7063,18.7588],[41.7232,18.7424],[41.7344,18.7229],[41.803,18.5252],[41.8097,18.4952],[41.8105,18.469],[41.8063,18.4408],[41.7707,18.314],[41.7524,18.2748],[41.7401,18.2596],[41.7221,18.2417],[41.6605,18.2093],[41.6415,18.1968],[41.6259,18.1804],[41.6155,18.1632],[41.5974,18.1215],[41.5973,18.1213],[41.5971,18.1211]]]}},{"type":"Feature","properties":{"id":"SAU-1096","name":"Najran","nameBn":"নাজরান অঞ্চল","type":"Region","bounds":[43.6382,16.943,47.7451,19.5313],"center":[45.6917,18.2931]},"geometry":{"type":"Polygon","coordinates":[[[47.4286,17.0931],[47.4276,17.0918],[47.3136,17.0279],[47.1909,16.9589],[47.1613,16.9474],[47.1288,16.943],[46.997,16.9485],[46.983,16.9491],[46.9703,16.9568],[46.8858,17.0696],[46.8118,17.1685],[46.7472,17.2548],[46.7101,17.2754],[46.4879,17.246],[46.3226,17.2241],[46.08,17.248],[45.8908,17.2666],[45.6423,17.2911],[45.4304,17.312],[45.3847,17.3265],[45.2221,17.4174],[45.1654,17.4284],[44.9973,17.4295],[44.9725,17.4297],[44.849,17.4305],[44.6465,17.4318],[44.6246,17.4272],[44.562,17.4045],[44.5338,17.4029],[44.4652,17.4165],[44.4041,17.4187],[44.3074,17.409],[44.2306,17.3919],[44.2115,17.3906],[44.1694,17.4023],[44.149,17.4048],[44.1343,17.3947],[44.1197,17.3699],[44.1045,17.352],[44.0853,17.3434],[44.0594,17.3471],[44.021,17.366],[44.0039,17.3678],[43.9823,17.3568],[43.9671,17.3396],[43.9543,17.32],[43.9387,17.3052],[43.9151,17.3018],[43.9033,17.3043],[43.8974,17.3074],[43.894,17.3122],[43.8901,17.3202],[43.8926,17.3401],[43.8926,17.351],[43.8867,17.3537],[43.8632,17.347],[43.8458,17.3462],[43.8062,17.3496],[43.7688,17.3455],[43.7506,17.3457],[43.7306,17.3524],[43.6893,17.3838],[43.6384,17.4385],[43.6387,17.4698],[43.6662,17.5703],[43.6637,17.6235],[43.6436,17.6847],[43.6407,17.7087],[43.6414,17.7362],[43.6508,17.7761],[43.6764,17.9979],[43.6736,18.0399],[43.6638,18.0808],[43.6486,18.1253],[43.6382,18.1691],[43.6393,18.1942],[43.648,18.2221],[43.668,18.2583],[43.6941,18.2906],[43.8558,18.4535],[43.9683,18.5442],[43.9998,18.5761],[44.0117,18.5928],[44.0236,18.6135],[44.0473,18.6673],[44.0611,18.6915],[44.0825,18.7139],[44.1064,18.7294],[44.1292,18.7385],[44.1985,18.7521],[44.2428,18.7668],[44.2887,18.7886],[44.3325,18.8165],[44.3511,18.834],[44.3669,18.8531],[44.3791,18.8728],[44.389,18.8974],[44.3956,18.9248],[44.3995,18.9622],[44.3993,18.997],[44.3948,19.0416],[44.3598,19.1685],[44.3591,19.1926],[44.3658,19.219],[44.3905,19.2553],[44.4138,19.2744],[44.48,19.3075],[44.4957,19.3194],[44.5052,19.3318],[44.5131,19.3544],[44.517,19.3869],[44.5168,19.5126],[44.795,19.3477],[44.8665,19.3142],[44.9199,19.2954],[45.0143,19.2737],[45.2726,19.2569],[47.615,19.4961],[47.7451,19.5313],[47.4287,17.0938],[47.4286,17.0931]]]}},{"type":"Feature","properties":{"id":"SAU-848","name":"Tabuk","nameBn":"তাবুক প্রদেশ","type":"Region","bounds":[34.5728,24.5396,40.1699,28.9843],"center":[36.8014,27.9146]},"geometry":{"type":"MultiPolygon","coordinates":[[[[37.3828,24.5396],[37.3192,24.6242],[37.2577,24.7023],[37.2285,24.7377],[37.2271,24.7654],[37.2305,24.7727],[37.2313,24.7826],[37.2303,24.7925],[37.2271,24.7995],[37.2197,24.8028],[37.2068,24.791],[37.1963,24.7896],[37.1787,24.7994],[37.1658,24.8155],[37.1486,24.851],[37.1741,24.8506],[37.1965,24.8472],[37.2189,24.8466],[37.2442,24.8544],[37.2566,24.8712],[37.2581,24.9218],[37.28,24.9641],[37.277,24.9866],[37.2578,25.0286],[37.2515,25.0526],[37.2578,25.1115],[37.256,25.1341],[37.2507,25.1555],[37.2422,25.1753],[37.2305,25.1937],[37.2117,25.2143],[37.2002,25.2242],[37.1895,25.2312],[37.18,25.2391],[37.1707,25.2578],[37.1623,25.2657],[37.1423,25.2798],[37.1226,25.2995],[37.1053,25.3222],[37.0933,25.3445],[37.091,25.3544],[37.0889,25.3768],[37.0864,25.3854],[37.0798,25.3946],[37.0646,25.4097],[37.0598,25.4196],[37.0774,25.4311],[37.0627,25.4537],[37.0182,25.4947],[37.0106,25.5074],[36.9945,25.55],[36.9893,25.557],[36.9756,25.5651],[36.9704,25.5705],[36.969,25.5762],[36.97,25.5886],[36.967,25.5943],[36.9583,25.6063],[36.9441,25.6352],[36.9363,25.6461],[36.9235,25.6548],[36.8943,25.6656],[36.8816,25.6728],[36.8423,25.7298],[36.8174,25.758],[36.7957,25.7595],[36.7937,25.7483],[36.8005,25.7367],[36.804,25.7268],[36.7922,25.7206],[36.7796,25.7241],[36.7489,25.7439],[36.7339,25.7485],[36.7249,25.7539],[36.7023,25.78],[36.6961,25.7895],[36.6948,25.7956],[36.6961,25.8171],[36.6939,25.8229],[36.6818,25.8256],[36.6756,25.8305],[36.6634,25.8557],[36.6621,25.8791],[36.6716,25.9014],[36.6926,25.9233],[36.7058,25.9438],[36.7095,25.9711],[36.7056,25.9993],[36.6961,26.0223],[36.6724,26.0452],[36.6406,26.0602],[36.6056,26.0683],[36.5725,26.0707],[36.5366,26.0824],[36.5127,26.111],[36.4492,26.2469],[36.4263,26.2818],[36.3828,26.3345],[36.3089,26.4982],[36.2298,26.6256],[36.1821,26.6802],[36.1242,26.7268],[36.0977,26.754],[36.0819,26.7973],[36.0518,26.8447],[36.032,26.9068],[36.0139,26.9023],[36.0003,26.9135],[35.9767,26.9477],[35.9119,26.9996],[35.8317,27.0927],[35.8031,27.1421],[35.7998,27.1501],[35.7986,27.16],[35.8008,27.1682],[35.8106,27.1824],[35.8128,27.1911],[35.808,27.2031],[35.784,27.2355],[35.7,27.3248],[35.6526,27.3538],[35.6404,27.3635],[35.6167,27.3896],[35.5899,27.4289],[35.5596,27.4556],[35.5215,27.5185],[35.5105,27.5442],[35.5068,27.5644],[35.5062,27.6005],[35.5003,27.6193],[35.492,27.6324],[35.459,27.6634],[35.4408,27.6903],[35.4151,27.7514],[35.3944,27.777],[35.3849,27.7826],[35.3648,27.7897],[35.3569,27.7944],[35.3513,27.8014],[35.3469,27.815],[35.3368,27.8337],[35.3324,27.8622],[35.3228,27.8763],[35.271,27.9278],[35.2552,27.9528],[35.2456,27.9623],[35.23,27.9687],[35.1815,28.0029],[35.1815,27.996],[35.1747,27.996],[35.1636,28.0093],[35.1765,28.0195],[35.1991,28.0282],[35.2163,28.0377],[35.2269,28.0331],[35.2258,28.0388],[35.2163,28.0544],[35.2103,28.0566],[35.1826,28.0619],[35.1747,28.065],[35.1678,28.065],[35.1678,28.0582],[35.1618,28.0582],[35.1577,28.0644],[35.1519,28.071],[35.1448,28.0764],[35.1372,28.0786],[35.1194,28.0779],[35.1104,28.0789],[35.0986,28.0897],[35.0519,28.1196],[35.042,28.113],[35.0303,28.1135],[35.0197,28.1135],[35.0225,28.1079],[35.0262,28.103],[35.0308,28.0991],[35.0207,28.1037],[35.0095,28.1105],[34.9979,28.1142],[34.986,28.1093],[34.9758,28.1034],[34.9455,28.0954],[34.9373,28.0913],[34.9313,28.086],[34.9277,28.0786],[34.9209,28.0786],[34.9209,28.0854],[34.9141,28.0854],[34.9009,28.0823],[34.8806,28.0856],[34.8602,28.0854],[34.8464,28.0712],[34.8438,28.0763],[34.8429,28.0764],[34.8389,28.0786],[34.8389,28.0854],[34.8464,28.0854],[34.8464,28.0929],[34.8426,28.0998],[34.8477,28.1055],[34.8569,28.1098],[34.8662,28.1128],[34.8567,28.1164],[34.847,28.1176],[34.8368,28.1163],[34.8254,28.1128],[34.8254,28.1059],[34.8328,28.1059],[34.8328,28.0991],[34.8216,28.0958],[34.8143,28.0889],[34.8049,28.0712],[34.8018,28.0754],[34.7987,28.0768],[34.7953,28.0773],[34.7918,28.0786],[34.7957,28.0846],[34.8016,28.0904],[34.8094,28.0954],[34.8191,28.0991],[34.8185,28.1029],[34.8184,28.1071],[34.8191,28.1128],[34.8049,28.1133],[34.7937,28.1111],[34.7865,28.1047],[34.7844,28.0929],[34.779,28.0958],[34.7774,28.0962],[34.7759,28.095],[34.7708,28.0929],[34.7704,28.0961],[34.7708,28.1027],[34.7708,28.1059],[34.765,28.1059],[34.765,28.0991],[34.757,28.0991],[34.752,28.1076],[34.7473,28.112],[34.7424,28.1116],[34.7366,28.1059],[34.7274,28.1121],[34.7251,28.1151],[34.7189,28.123],[34.7153,28.1276],[34.7092,28.1401],[34.7063,28.1376],[34.7025,28.135],[34.6985,28.1315],[34.695,28.1265],[34.682,28.1352],[34.6784,28.1308],[34.6777,28.1208],[34.6746,28.1128],[34.667,28.1087],[34.6536,28.1036],[34.6471,28.0991],[34.6471,28.0929],[34.6683,28.0786],[34.6683,28.0712],[34.6618,28.0708],[34.6589,28.0692],[34.6575,28.067],[34.6553,28.065],[34.6471,28.0712],[34.6423,28.0546],[34.6414,28.0417],[34.635,28.0333],[34.613,28.0302],[34.6148,28.035],[34.6157,28.0357],[34.6174,28.0355],[34.6205,28.0377],[34.613,28.0445],[34.6087,28.0588],[34.6067,28.0718],[34.6062,28.096],[34.5989,28.1033],[34.5744,28.0941],[34.5789,28.1059],[34.5728,28.1128],[34.5874,28.1318],[34.5969,28.1389],[34.6056,28.1426],[34.6062,28.1475],[34.6125,28.1503],[34.6209,28.1574],[34.6267,28.1605],[34.6205,28.1674],[34.6234,28.1727],[34.6271,28.1767],[34.6325,28.1794],[34.6403,28.1811],[34.6403,28.1764],[34.638,28.1754],[34.6353,28.1757],[34.6335,28.1749],[34.6434,28.1702],[34.6517,28.1678],[34.6577,28.1706],[34.6609,28.1811],[34.6553,28.1811],[34.6553,28.1879],[34.6481,28.1942],[34.6496,28.2009],[34.6572,28.2063],[34.6683,28.209],[34.6683,28.2158],[34.6649,28.2245],[34.6746,28.2705],[34.6784,28.2685],[34.6853,28.2659],[34.6887,28.2636],[34.6882,28.2668],[34.6887,28.2773],[34.683,28.2738],[34.6804,28.2717],[34.6746,28.2772],[34.6947,28.2944],[34.715,28.3275],[34.7305,28.3636],[34.7411,28.4106],[34.7606,28.4366],[34.7679,28.4665],[34.7751,28.4833],[34.8038,28.5271],[34.7962,28.5722],[34.7934,28.6194],[34.7785,28.6645],[34.7969,28.7258],[34.8098,28.758],[34.8254,28.7844],[34.8254,28.7906],[34.8191,28.7906],[34.8361,28.8165],[34.8386,28.8286],[34.8328,28.8396],[34.8328,28.8459],[34.8441,28.8764],[34.8428,28.8846],[34.843,28.8846],[34.9276,28.8862],[34.9617,28.8919],[34.9965,28.8908],[35.0777,28.8731],[35.2199,28.8612],[35.2448,28.8651],[35.262,28.8733],[35.2966,28.902],[35.3311,28.9175],[35.3737,28.9293],[35.5788,28.9639],[35.7115,28.9712],[35.79,28.9841],[35.8552,28.9843],[36.0512,28.9419],[36.0751,28.9317],[36.1201,28.9051],[36.1524,28.8794],[36.41,28.5831],[36.4162,28.5775],[36.423,28.5741],[36.4646,28.5623],[36.4887,28.561],[36.5051,28.5618],[36.6143,28.5987],[36.8545,28.6446],[36.9337,28.6449],[36.9911,28.6373],[37.1427,28.5926],[37.2259,28.5774],[37.3983,28.5685],[37.4259,28.5741],[37.4496,28.5847],[37.4656,28.602],[37.4782,28.6223],[37.5182,28.7139],[37.5301,28.7348],[37.5454,28.7543],[37.5654,28.7704],[37.6327,28.8083],[37.6945,28.8599],[37.7164,28.8674],[37.7381,28.863],[37.7565,28.8494],[37.7679,28.8299],[37.7724,28.8071],[37.7626,28.6461],[37.7654,28.5582],[37.7726,28.5005],[37.7834,28.4577],[37.7988,28.4239],[37.8107,28.4035],[37.8261,28.3826],[37.8444,28.3631],[37.9102,28.314],[37.9566,28.2912],[38.0664,28.2575],[38.1282,28.2461],[38.3279,28.2282],[38.3639,28.2294],[38.3971,28.2386],[38.4235,28.2507],[38.4561,28.2582],[38.4793,28.253],[38.5126,28.236],[38.534,28.2286],[38.5525,28.227],[38.5965,28.2279],[38.6248,28.168],[38.6398,28.1527],[38.6619,28.1395],[38.6857,28.1368],[38.7104,28.1405],[38.7359,28.1487],[38.8406,28.1959],[38.8693,28.2034],[38.9038,28.2079],[38.929,28.2068],[38.9471,28.2018],[38.961,28.1959],[39.0001,28.1679],[39.0175,28.1467],[39.0341,28.1378],[39.058,28.1294],[39.3801,28.0615],[39.4344,28.0427],[39.472,28.0244],[39.4942,28.0027],[39.4979,27.998],[39.5201,27.9782],[39.5508,27.9594],[39.611,27.9333],[39.7285,27.8475],[39.7875,27.7955],[39.8007,27.7744],[39.8113,27.7528],[39.9198,27.361],[39.9307,27.3415],[39.9463,27.3224],[39.962,27.3097],[40.0,27.2857],[40.1212,27.2282],[40.1437,27.2109],[40.1656,27.1873],[40.1699,27.1667],[40.1665,27.1456],[40.1575,27.1254],[40.1419,27.1052],[40.1228,27.0862],[40.0,26.9904],[39.9551,26.9363],[39.9248,26.8816],[39.8672,26.7201],[39.8483,26.6882],[39.8312,26.6668],[39.8162,26.6568],[39.7823,26.7013],[39.7649,26.7145],[39.7422,26.7269],[39.7196,26.7296],[39.3039,26.6719],[39.204,26.6715],[39.1539,26.6773],[39.1159,26.6888],[38.9953,26.7718],[38.8687,26.8131],[38.8333,26.8291],[38.8103,26.8481],[38.7937,26.8883],[38.7826,26.9083],[38.7594,26.9261],[38.7407,26.9276],[38.7287,26.9163],[38.7273,26.8986],[38.7321,26.879],[38.7346,26.8598],[38.73,26.8436],[38.7048,26.8335],[38.6817,26.8353],[38.6573,26.8424],[38.5835,26.8741],[38.5502,26.8829],[38.5257,26.8845],[38.5047,26.8808],[38.4907,26.8747],[38.4007,26.8106],[38.3746,26.7958],[38.3434,26.7886],[38.3231,26.7941],[38.3138,26.8091],[38.3139,26.8284],[38.3167,26.8493],[38.3166,26.8697],[38.3096,26.8884],[38.2925,26.905],[38.2312,26.9399],[38.215,26.9557],[38.2075,26.9732],[38.2058,26.9893],[38.2061,26.997],[38.2067,27.0013],[38.2065,27.0063],[38.2047,27.018],[38.1957,27.0326],[38.1788,27.0439],[38.158,27.0503],[38.1363,27.0534],[38.0352,27.0572],[37.992,27.0644],[37.9631,27.0776],[37.9405,27.0953],[37.8849,27.1715],[37.865,27.2053],[37.8456,27.247],[37.8176,27.3385],[37.8088,27.3549],[37.7947,27.3721],[37.7682,27.3895],[37.7496,27.3944],[37.7322,27.3933],[37.5451,27.303],[37.5227,27.296],[37.4993,27.2928],[37.4769,27.2937],[37.4352,27.3004],[37.4057,27.3115],[37.3212,27.359],[37.2766,27.376],[37.2456,27.3815],[37.2184,27.3808],[37.1957,27.3745],[36.9391,27.2664],[36.8241,27.2407],[36.8028,27.2314],[36.7855,27.2162],[36.7791,27.1986],[36.7833,27.1824],[36.8004,27.1722],[36.8218,27.1708],[36.8871,27.1819],[36.9057,27.1826],[36.9177,27.1808],[36.9357,27.1746],[36.9534,27.164],[36.9684,27.1493],[36.9765,27.138],[36.9851,27.1199],[37.0003,27.0587],[37.0026,27.0333],[37.0006,26.9776],[36.9795,26.8416],[36.9813,26.7997],[36.9855,26.776],[36.9927,26.754],[37.0021,26.7331],[37.0154,26.7125],[37.0322,26.6926],[37.0538,26.6741],[37.076,26.6608],[37.0997,26.6516],[37.2146,26.6213],[37.2361,26.6102],[37.2539,26.5927],[37.2641,26.5684],[37.2653,26.5447],[37.2605,26.5238],[37.2527,26.5079],[37.1914,26.4172],[37.1731,26.3765],[37.1686,26.3561],[37.1669,26.3355],[37.1689,26.3151],[37.1756,26.294],[37.2338,26.1885],[37.2482,26.1476],[37.2584,26.1071],[37.2647,26.0898],[37.2723,26.0778],[37.2881,26.0815],[37.3243,26.1081],[37.3453,26.1154],[37.3677,26.1123],[37.5463,26.0197],[37.5623,26.0089],[37.5686,26.003],[37.5714,25.9991],[37.5868,25.9445],[37.5955,25.9234],[37.6078,25.9032],[37.6248,25.8843],[37.7548,25.7858],[37.7732,25.7658],[37.7874,25.747],[37.8031,25.719],[37.8335,25.6436],[37.8687,25.5215],[37.8776,25.5017],[37.8809,25.4988],[37.8872,25.4964],[37.903,25.4923],[37.9662,25.4896],[37.9873,25.4856],[38.0008,25.4787],[38.0137,25.4667],[38.0213,25.4489],[38.0234,25.4291],[37.9881,25.2017],[38.0005,24.8726],[37.9965,24.8584],[37.9867,24.8395],[37.9668,24.8139],[37.9437,24.797],[37.9195,24.7865],[37.894,24.7825],[37.8461,24.7845],[37.8009,24.7916],[37.7788,24.7927],[37.7568,24.7892],[37.7348,24.7772],[37.7134,24.7567],[37.6867,24.7258],[37.6624,24.7044],[37.638,24.6895],[37.6143,24.6812],[37.5921,24.6754],[37.5538,24.6707],[37.4716,24.6709],[37.4518,24.6663],[37.4313,24.657],[37.4149,24.6411],[37.404,24.6232],[37.3972,24.6045],[37.385,24.5462],[37.3828,24.5396]]],[[[37.0269,25.4196],[37.0374,25.4118],[37.0423,25.4074],[37.0401,25.4064],[37.0357,25.4082],[37.0281,25.4093],[37.0272,25.4052],[37.0313,25.3987],[37.0233,25.3998],[37.0036,25.4115],[36.9985,25.4224],[37.0003,25.4292],[36.9906,25.4301],[36.9783,25.4269],[36.9714,25.4353],[36.9666,25.449],[36.9575,25.449],[36.9465,25.4419],[36.9443,25.4488],[36.9518,25.4675],[36.9614,25.4778],[36.9736,25.4779],[36.9875,25.476],[36.9993,25.4694],[37.009,25.4499],[37.0154,25.4506],[37.0176,25.4577],[37.0217,25.4528],[37.0269,25.4196]]],[[[36.9421,25.4184],[36.9583,25.419],[36.9614,25.4145],[36.9431,25.4055],[36.9354,25.4],[36.9248,25.3891],[36.9148,25.3709],[36.8997,25.361],[36.8787,25.3737],[36.8597,25.3929],[36.8415,25.406],[36.8013,25.4449],[36.7987,25.4474],[36.7951,25.4533],[36.7951,25.457],[36.797,25.4566],[36.7991,25.4587],[36.7972,25.4645],[36.7876,25.4744],[36.7761,25.4892],[36.7765,25.4964],[36.7871,25.4941],[36.7969,25.4866],[36.8152,25.4659],[36.8237,25.4599],[36.8421,25.4508],[36.8771,25.437],[36.8939,25.4329],[36.9064,25.4316],[36.9157,25.4267],[36.9203,25.4196],[36.8994,25.4188],[36.8963,25.406],[36.9043,25.3941],[36.9163,25.3969],[36.9285,25.4091],[36.9421,25.4184]]],[[[36.8494,25.533],[36.8399,25.5358],[36.827,25.5472],[36.8289,25.5613],[36.8413,25.57],[36.8556,25.5683],[36.8665,25.5575],[36.8661,25.5459],[36.8555,25.5367],[36.8494,25.533]]],[[[36.7902,25.4979],[36.7806,25.5044],[36.7759,25.5055],[36.7713,25.5071],[36.766,25.5142],[36.7654,25.5242],[36.7565,25.527],[36.7425,25.5292],[36.7399,25.5327],[36.744,25.5314],[36.7429,25.5359],[36.7344,25.5466],[36.7192,25.5556],[36.7013,25.5547],[36.6932,25.5502],[36.6888,25.5464],[36.6812,25.5441],[36.6814,25.5535],[36.6913,25.5672],[36.7068,25.5712],[36.7256,25.5652],[36.7751,25.5354],[36.7806,25.5277],[36.7858,25.516],[36.801,25.5076],[36.8167,25.5024],[36.839,25.4899],[36.8745,25.4633],[36.8833,25.4543],[36.8818,25.4508],[36.8779,25.4477],[36.8792,25.4433],[36.8738,25.4459],[36.8584,25.4569],[36.8451,25.4644],[36.8348,25.4667],[36.8307,25.4731],[36.8254,25.4841],[36.8162,25.4883],[36.8097,25.4858],[36.8006,25.4885],[36.7902,25.4979]]],[[[36.9007,25.5493],[36.8994,25.5778],[36.8981,25.5841],[36.8982,25.5954],[36.9046,25.6032],[36.9144,25.6066],[36.923,25.6029],[36.9277,25.5931],[36.9284,25.5838],[36.9258,25.5766],[36.9212,25.5762],[36.9151,25.5806],[36.9139,25.5788],[36.9165,25.5714],[36.9159,25.568],[36.9136,25.5692],[36.9204,25.5551],[36.9276,25.5285],[36.9232,25.5194],[36.912,25.535],[36.9054,25.5391],[36.9007,25.5493]]],[[[36.6831,25.5723],[36.682,25.5664],[36.676,25.5548],[36.6677,25.5497],[36.661,25.5528],[36.6478,25.5615],[36.5677,25.5985],[36.5461,25.6032],[36.5394,25.5892],[36.5295,25.5938],[36.5105,25.6104],[36.4977,25.624],[36.4915,25.6451],[36.4997,25.6625],[36.5244,25.6858],[36.5353,25.6981],[36.5436,25.7029],[36.5453,25.6965],[36.5394,25.685],[36.5226,25.6622],[36.5239,25.6529],[36.531,25.6446],[36.5379,25.6398],[36.544,25.6396],[36.5488,25.6378],[36.554,25.6313],[36.562,25.6272],[36.5703,25.6245],[36.5962,25.6002],[36.6094,25.5915],[36.6229,25.5905],[36.6311,25.5924],[36.6338,25.59],[36.6345,25.5829],[36.6379,25.5746],[36.6471,25.5709],[36.6559,25.5718],[36.6574,25.5726],[36.6541,25.5737],[36.6548,25.5781],[36.6594,25.5821],[36.6677,25.581],[36.6831,25.5723]]],[[[36.5443,25.7313],[36.5427,25.7393],[36.5401,25.7605],[36.5425,25.8019],[36.5584,25.8364],[36.5837,25.8579],[36.5908,25.8605],[36.5775,25.8486],[36.5666,25.833],[36.5584,25.8158],[36.5554,25.7963],[36.5641,25.7788],[36.5833,25.7623],[36.5908,25.7593],[36.5978,25.7584],[36.5973,25.7517],[36.5887,25.7385],[36.5855,25.7255],[36.5867,25.7198],[36.5884,25.7143],[36.596,25.7089],[36.6076,25.7112],[36.6111,25.7095],[36.6056,25.7011],[36.5956,25.6966],[36.583,25.6987],[36.563,25.7133],[36.5518,25.7198],[36.5443,25.7313]]]]}},{"type":"Feature","properties":{"id":"SAU-886","name":"`Asir","nameBn":"আসির প্রদেশ","type":"Region","bounds":[41.3837,17.4385,44.517,20.9762],"center":[42.9503,19.3484]},"geometry":{"type":"Polygon","coordinates":[[[43.6384,17.4385],[43.6195,17.4588],[43.5771,17.483],[43.5034,17.5135],[43.4871,17.5175],[43.4531,17.5188],[43.435,17.5229],[43.4129,17.52],[43.391,17.512],[43.342,17.4825],[43.2591,17.6025],[43.2419,17.623],[43.2216,17.6399],[43.1448,17.6659],[43.1261,17.6801],[43.1112,17.6987],[43.0791,17.7624],[43.0652,17.7832],[43.0399,17.8072],[42.9626,17.8672],[42.9466,17.8929],[42.9401,17.9173],[42.9432,17.9587],[42.9381,17.9775],[42.9252,17.9927],[42.8864,18.0],[42.8779,17.9984],[42.8318,17.9731],[42.7899,17.9433],[42.7724,17.9256],[42.7586,17.9069],[42.7363,17.8668],[42.6907,17.7018],[42.6823,17.6825],[42.6679,17.6676],[42.6495,17.6607],[42.6291,17.6608],[42.6065,17.6693],[42.5821,17.6849],[42.4887,17.7766],[42.4718,17.8014],[42.4598,17.8244],[42.4518,17.8453],[42.4394,17.8665],[42.4203,17.8855],[42.3922,17.8997],[42.3678,17.9051],[42.2105,17.9072],[42.1881,17.9129],[42.1667,17.9237],[42.1455,17.9483],[42.1355,17.9687],[42.1231,18.0051],[42.1157,18.0157],[42.1008,18.0314],[42.0744,18.0461],[42.0513,18.0522],[42.0294,18.0536],[41.9623,18.0452],[41.9433,18.0501],[41.9267,18.0647],[41.9178,18.0919],[41.9159,18.1151],[41.9172,18.1379],[41.9383,18.2579],[41.9369,18.278],[41.933,18.2964],[41.9226,18.3121],[41.8835,18.3224],[41.7707,18.314],[41.8063,18.4408],[41.8105,18.469],[41.8097,18.4952],[41.803,18.5252],[41.7344,18.7229],[41.7232,18.7424],[41.7063,18.7588],[41.6869,18.7692],[41.6663,18.7763],[41.6236,18.7839],[41.58,18.7873],[41.4709,18.7856],[41.451,18.7907],[41.4315,18.8011],[41.4146,18.8178],[41.4029,18.8375],[41.3949,18.8582],[41.3893,18.8789],[41.3837,18.9204],[41.3905,19.1534],[41.3939,19.1712],[41.4022,19.1816],[41.4179,19.1739],[41.4354,19.1612],[41.4554,19.1515],[41.4748,19.151],[41.4937,19.1598],[41.544,19.1958],[41.5882,19.2205],[41.6106,19.2277],[41.632,19.2313],[41.6543,19.232],[41.7653,19.2205],[41.7791,19.2212],[41.7946,19.2243],[41.8134,19.232],[41.8317,19.2448],[41.8458,19.2623],[41.8553,19.2817],[41.8893,19.3834],[41.8894,19.4081],[41.8829,19.4325],[41.8405,19.5001],[41.8349,19.5198],[41.8323,19.5465],[41.8337,19.5702],[41.8645,19.7004],[41.8666,19.7204],[41.8654,19.7407],[41.8586,19.7622],[41.8469,19.782],[41.832,19.7991],[41.8193,19.8076],[41.8047,19.8133],[41.7856,19.8163],[41.7435,19.8142],[41.6987,19.7971],[41.7998,20.0037],[41.8145,20.0531],[41.8199,20.1246],[41.8278,20.1514],[41.8435,20.1783],[41.8648,20.1975],[41.9835,20.2757],[42.0042,20.2947],[42.0273,20.3251],[42.0339,20.35],[42.0306,20.373],[42.018,20.3912],[41.9934,20.4151],[41.9863,20.4454],[41.9844,20.4714],[42.032,20.6249],[42.0503,20.5964],[42.1528,20.3987],[42.1693,20.3788],[42.1887,20.3627],[42.2092,20.3514],[42.2313,20.3449],[42.2597,20.3468],[42.2932,20.3569],[42.3475,20.3855],[42.3812,20.4081],[42.6345,20.6241],[42.8327,20.7253],[42.8605,20.7467],[42.8988,20.7833],[42.9239,20.7992],[42.9517,20.8105],[42.9881,20.817],[43.0501,20.8183],[43.0653,20.8208],[43.0856,20.8268],[43.1463,20.8514],[43.1789,20.8604],[43.2216,20.865],[43.2503,20.8636],[43.276,20.8584],[43.3406,20.8376],[43.3696,20.8399],[43.404,20.8506],[43.5614,20.9377],[43.6675,20.9762],[43.8137,20.8535],[43.8688,20.7931],[43.9005,20.745],[43.9597,20.6704],[44.0427,20.5847],[44.0559,20.5607],[44.062,20.5391],[44.0639,20.5208],[44.0635,20.5017],[44.0628,20.4976],[44.0552,20.477],[44.0467,20.4594],[43.9881,20.3725],[43.9687,20.3343],[43.9297,20.1631],[43.9294,20.1383],[43.9368,20.1069],[43.9524,20.0826],[44.01,20.0186],[44.1064,19.867],[44.4994,19.5243],[44.5168,19.5126],[44.517,19.3869],[44.5131,19.3544],[44.5052,19.3318],[44.4957,19.3194],[44.48,19.3075],[44.4138,19.2744],[44.3905,19.2553],[44.3658,19.219],[44.3591,19.1926],[44.3598,19.1685],[44.3948,19.0416],[44.3993,18.997],[44.3995,18.9622],[44.3956,18.9248],[44.389,18.8974],[44.3791,18.8728],[44.3669,18.8531],[44.3511,18.834],[44.3325,18.8165],[44.2887,18.7886],[44.2428,18.7668],[44.1985,18.7521],[44.1292,18.7385],[44.1064,18.7294],[44.0825,18.7139],[44.0611,18.6915],[44.0473,18.6673],[44.0236,18.6135],[44.0117,18.5928],[43.9998,18.5761],[43.9683,18.5442],[43.8558,18.4535],[43.6941,18.2906],[43.668,18.2583],[43.648,18.2221],[43.6393,18.1942],[43.6382,18.1691],[43.6486,18.1253],[43.6638,18.0808],[43.6736,18.0399],[43.6764,17.9979],[43.6508,17.7761],[43.6414,17.7362],[43.6407,17.7087],[43.6436,17.6847],[43.6637,17.6235],[43.6662,17.5703],[43.6387,17.4698],[43.6384,17.4385]]]}}]}