{"type":"FeatureCollection","features":[{"type":"Feature","properties":{"id":"SHN-4863","name":"Ascension","nameBn":"অ্যাসেনশোন দ্বীপ","type":null,"bounds":[-14.4177,-7.9797,-14.2948,-7.8779],"center":[-14.3701,-7.9192]},"geometry":{"type":"Polygon","coordinates":[[[-14.3563,-7.8847],[-14.3474,-7.8998],[-14.3104,-7.9275],[-14.2948,-7.9455],[-14.3052,-7.9521],[-14.3285,-7.9623],[-14.3395,-7.97],[-14.3503,-7.9747],[-14.3785,-7.976],[-14.391,-7.9797],[-14.4064,-7.9739],[-14.411,-7.9631],[-14.4123,-7.9504],[-14.4177,-7.9392],[-14.4066,-7.9241],[-14.3906,-7.8893],[-14.3767,-7.8779],[-14.3736,-7.8853],[-14.37,-7.8893],[-14.3646,-7.8893],[-14.3563,-7.8847]]]}},{"type":"Feature","properties":{"id":"SHN-4864","name":"Saint Helena","nameBn":"সেন্ট হেলেনা","type":null,"bounds":[-5.7895,-16.0157,-5.6504,-15.9021],"center":[-5.7064,-15.9317]},"geometry":{"type":"Polygon","coordinates":[[[-5.7218,-15.9089],[-5.7096,-15.907],[-5.6797,-15.9073],[-5.6667,-15.9021],[-5.6577,-15.9195],[-5.652,-15.9345],[-5.6504,-15.9489],[-5.6536,-15.9636],[-5.6627,-15.9796],[-5.6739,-15.9882],[-5.6869,-15.9948],[-5.702,-16.0051],[-5.7043,-15.9994],[-5.7078,-15.9964],[-5.7117,-15.9943],[-5.7156,-15.9909],[-5.7299,-16.0048],[-5.7465,-16.0138],[-5.7637,-16.0157],[-5.7802,-16.0082],[-5.7895,-15.9953],[-5.7872,-15.9845],[-5.7804,-15.9734],[-5.7765,-15.9601],[-5.7701,-15.9452],[-5.7551,-15.9299],[-5.737,-15.9172],[-5.7218,-15.9089]]]}},{"type":"Feature","properties":{"id":"SHN-4865","name":"Tristan da Cunha","nameBn":"ট্রিস্টান ডা কুনহা","type":null,"bounds":[-12.3353,-40.3979,-9.8954,-37.0558],"center":[-12.2667,-37.1226]},"geometry":{"type":"MultiPolygon","coordinates":[[[[-9.9264,-40.3488],[-9.9064,-40.3642],[-9.9,-40.3722],[-9.8954,-40.3864],[-9.9252,-40.3979],[-9.9651,-40.3827],[-10.0394,-40.3386],[-10.0394,-40.3318],[-10.03,-40.3137],[-10.0222,-40.3072],[-10.0087,-40.3045],[-9.9628,-40.3019],[-9.9499,-40.3045],[-9.9431,-40.3123],[-9.9324,-40.339],[-9.9264,-40.3488]]],[[[-12.3074,-37.0701],[-12.2966,-37.0592],[-12.2919,-37.0558],[-12.245,-37.0592],[-12.2279,-37.0681],[-12.2131,-37.08],[-12.1913,-37.0905],[-12.1957,-37.0986],[-12.2003,-37.1041],[-12.2055,-37.108],[-12.2117,-37.111],[-12.2448,-37.1379],[-12.2638,-37.149],[-12.2766,-37.1492],[-12.3041,-37.1256],[-12.3353,-37.1043],[-12.3256,-37.0947],[-12.3074,-37.0701]]]]}}]}