{"type":"FeatureCollection","features":[{"type":"Feature","properties":{"id":"SLB-5130","name":"Capital Territory (Honiara)","nameBn":"হোনিয়ারা","type":"Province","bounds":[159.9397,-9.4674,160.042,-9.4221],"center":[160.019,-9.4466]},"geometry":{"type":"Polygon","coordinates":[[[159.9397,-9.4329],[159.9609,-9.4347],[159.9998,-9.4333],[160.0103,-9.4318],[160.0198,-9.4277],[160.028,-9.4221],[160.042,-9.4311],[160.0365,-9.4505],[160.0371,-9.4616],[160.022,-9.4674],[160.0128,-9.4579],[159.9821,-9.4612],[159.9538,-9.4503],[159.9397,-9.4329]]]}},{"type":"Feature","properties":{"id":"SLB-1262","name":"Central","nameBn":"সেন্ট্রাল প্রদেশ","type":"Province","bounds":[159.0393,-9.193,160.4142,-8.9405],"center":[159.825,-9.14]},"geometry":{"type":"MultiPolygon","coordinates":[[[[159.8289,-9.1726],[159.8147,-9.1662],[159.8062,-9.1503],[159.8045,-9.1301],[159.8115,-9.1111],[159.8176,-9.1098],[159.8225,-9.11],[159.8273,-9.1087],[159.8327,-9.1037],[159.8401,-9.1227],[159.8447,-9.1454],[159.8425,-9.1646],[159.8289,-9.1726]]],[[[160.2541,-9.1589],[160.2651,-9.1557],[160.2766,-9.1479],[160.286,-9.1389],[160.292,-9.1316],[160.3047,-9.0826],[160.315,-9.0617],[160.3323,-9.0634],[160.3592,-9.1109],[160.3701,-9.1179],[160.3853,-9.1184],[160.3972,-9.1202],[160.4064,-9.1244],[160.4142,-9.1316],[160.402,-9.1441],[160.3872,-9.1708],[160.3738,-9.1794],[160.3664,-9.1862],[160.345,-9.1793],[160.3247,-9.1674],[160.3049,-9.1598],[160.2852,-9.1658],[160.2893,-9.178],[160.2744,-9.1865],[160.2515,-9.1913],[160.2305,-9.193],[160.2354,-9.1852],[160.2346,-9.1788],[160.2283,-9.1745],[160.2162,-9.1726],[160.2219,-9.1628],[160.2305,-9.1589],[160.2541,-9.1589]]],[[[159.1952,-9.0566],[159.2053,-9.0551],[159.2258,-9.0314],[159.2361,-9.023],[159.2358,-9.0275],[159.2342,-9.0302],[159.2317,-9.0326],[159.2293,-9.0361],[159.2293,-9.0461],[159.2274,-9.0486],[159.2293,-9.0566],[159.2195,-9.0662],[159.2171,-9.0751],[159.2225,-9.0797],[159.2361,-9.0763],[159.2332,-9.101],[159.2188,-9.1174],[159.1741,-9.1384],[159.175,-9.1114],[159.1784,-9.0927],[159.1952,-9.0566]]],[[[160.0967,-9.0566],[160.0894,-9.0554],[160.0838,-9.052],[160.0803,-9.0466],[160.0791,-9.0395],[160.0872,-9.037],[160.1052,-9.0351],[160.1239,-9.0294],[160.1343,-9.0156],[160.1411,-9.023],[160.1458,-9.0151],[160.1476,-9.0087],[160.146,-9.0025],[160.1411,-8.9944],[160.145,-8.99],[160.1477,-8.9897],[160.1546,-8.9944],[160.1725,-9.0022],[160.1909,-9.0004],[160.2085,-9.0027],[160.223,-9.023],[160.2305,-9.023],[160.2402,-9.0063],[160.258,-9.009],[160.278,-9.023],[160.2951,-9.0395],[160.3014,-9.0616],[160.2947,-9.0899],[160.2805,-9.116],[160.2645,-9.1316],[160.2611,-9.124],[160.2576,-9.1208],[160.2523,-9.1212],[160.2442,-9.1242],[160.2429,-9.1124],[160.2373,-9.1034],[160.2282,-9.0983],[160.2162,-9.0976],[160.2186,-9.103],[160.223,-9.1179],[160.2162,-9.1179],[160.1999,-9.0917],[160.1875,-9.0818],[160.1719,-9.087],[160.1567,-9.094],[160.1382,-9.0948],[160.12,-9.0906],[160.1063,-9.0838],[160.1043,-9.0779],[160.1039,-9.0688],[160.1023,-9.0602],[160.0967,-9.0566]]],[[[159.1672,-9.018],[159.1748,-9.0165],[159.1952,-9.023],[159.1616,-9.09],[159.1473,-9.1037],[159.0996,-9.1179],[159.091,-9.112],[159.084,-9.1017],[159.0762,-9.096],[159.0648,-9.1037],[159.0393,-9.0685],[159.041,-9.0573],[159.0723,-9.0566],[159.0661,-9.0432],[159.0693,-9.0338],[159.0789,-9.0305],[159.0921,-9.0361],[159.0921,-9.023],[159.0969,-9.0248],[159.1126,-9.0292],[159.1112,-9.0187],[159.1073,-9.0095],[159.1008,-9.0014],[159.0921,-8.9944],[159.1065,-8.9944],[159.1162,-8.9993],[159.124,-8.9999],[159.1299,-8.9964],[159.1336,-8.9884],[159.1404,-9.0019],[159.1419,-9.0124],[159.1444,-9.0209],[159.1543,-9.0292],[159.1594,-9.0291],[159.1672,-9.018]]],[[[160.0791,-9.023],[160.0667,-9.0136],[160.068,-9.0034],[160.075,-8.9918],[160.0791,-8.9777],[160.0744,-8.9513],[160.0776,-8.9431],[160.0926,-8.9405],[160.1084,-8.9612],[160.1138,-8.9743],[160.1131,-8.9944],[160.0991,-8.9885],[160.0908,-8.9958],[160.0791,-9.023]]]]}},{"type":"Feature","properties":{"id":"SLB-3508","name":"Choiseul","nameBn":"কৈসুল প্রদেশ","type":"Province","bounds":[156.4466,-7.4748,157.7974,-6.5999],"center":[157.547,-7.4099]},"geometry":{"type":"MultiPolygon","coordinates":[[[[157.6116,-7.4042],[157.619,-7.4118],[157.6128,-7.4194],[157.6106,-7.4298],[157.6128,-7.4413],[157.619,-7.4521],[157.5916,-7.4322],[157.5906,-7.4472],[157.5804,-7.4528],[157.5495,-7.4521],[157.5495,-7.4459],[157.5555,-7.4426],[157.5642,-7.4356],[157.57,-7.4322],[157.5305,-7.4207],[157.5194,-7.4148],[157.5114,-7.4135],[157.4858,-7.4147],[157.4756,-7.4118],[157.492,-7.4001],[157.5091,-7.3906],[157.5354,-7.3956],[157.5637,-7.3923],[157.5889,-7.3933],[157.6052,-7.4118],[157.6116,-7.4042]]],[[[157.7762,-7.408],[157.7781,-7.4229],[157.7899,-7.4596],[157.7974,-7.4732],[157.7703,-7.4748],[157.756,-7.4739],[157.7393,-7.4669],[157.7328,-7.4684],[157.7258,-7.4714],[157.7183,-7.4732],[157.7107,-7.471],[157.7044,-7.4616],[157.6978,-7.4596],[157.6786,-7.4482],[157.689,-7.423],[157.7217,-7.3839],[157.7693,-7.4008],[157.7762,-7.408]]],[[[157.5298,-7.3332],[157.5298,-7.3576],[157.5264,-7.3709],[157.5134,-7.3766],[157.4855,-7.3776],[157.4735,-7.3847],[157.4479,-7.4322],[157.4461,-7.4205],[157.4417,-7.4142],[157.4356,-7.4135],[157.4275,-7.4179],[157.4144,-7.4075],[157.3901,-7.402],[157.3449,-7.398],[157.3254,-7.3918],[157.312,-7.3788],[157.308,-7.3603],[157.3169,-7.3366],[157.3084,-7.3396],[157.3025,-7.3443],[157.2903,-7.3571],[157.2826,-7.3534],[157.278,-7.3565],[157.2766,-7.3708],[157.2576,-7.3598],[157.2219,-7.3478],[157.2009,-7.3366],[157.148,-7.3323],[157.1389,-7.3332],[157.1325,-7.343],[157.1183,-7.3425],[157.1043,-7.3322],[157.0934,-7.302],[157.0827,-7.2875],[157.0691,-7.2743],[157.0569,-7.2683],[157.048,-7.2731],[157.0285,-7.281],[157.0147,-7.2826],[157.0228,-7.2683],[157.0135,-7.2519],[156.9985,-7.2387],[156.9793,-7.2299],[156.9575,-7.2267],[156.9439,-7.2216],[156.9277,-7.2088],[156.8343,-7.0998],[156.8301,-7.0905],[156.8276,-7.0781],[156.8233,-7.0671],[156.814,-7.0623],[156.8006,-7.0588],[156.7932,-7.0502],[156.7831,-7.0281],[156.7439,-6.9739],[156.7317,-6.9661],[156.722,-6.9565],[156.687,-6.8971],[156.6706,-6.8857],[156.6231,-6.8609],[156.6082,-6.8562],[156.5962,-6.8508],[156.4846,-6.7538],[156.4822,-6.7504],[156.4611,-6.7333],[156.4544,-6.7194],[156.4466,-6.665],[156.447,-6.6448],[156.4544,-6.6308],[156.4878,-6.603],[156.5049,-6.5999],[156.528,-6.6031],[156.548,-6.6105],[156.5598,-6.6235],[156.5667,-6.6267],[156.574,-6.6319],[156.5772,-6.6408],[156.5816,-6.6497],[156.5911,-6.6498],[156.6008,-6.6463],[156.6052,-6.644],[156.6431,-6.655],[156.6696,-6.675],[156.721,-6.7333],[156.7351,-6.7455],[156.7803,-6.7758],[156.8231,-6.7873],[156.8855,-6.8295],[156.9273,-6.8494],[156.9634,-6.8561],[156.9805,-6.8647],[156.9928,-6.8688],[157.0038,-6.8753],[157.0085,-6.8873],[157.0124,-6.8946],[157.0215,-6.8958],[157.0327,-6.8952],[157.0427,-6.8971],[157.0525,-6.9055],[157.074,-6.935],[157.1121,-6.9661],[157.1205,-6.9807],[157.1233,-6.9982],[157.1252,-7.0412],[157.1362,-7.0861],[157.1525,-7.1243],[157.1623,-7.137],[157.1727,-7.1476],[157.1819,-7.1604],[157.1873,-7.1789],[157.2026,-7.1697],[157.2077,-7.1647],[157.2156,-7.1822],[157.2288,-7.1952],[157.2461,-7.2035],[157.2661,-7.2062],[157.2796,-7.2125],[157.2893,-7.2268],[157.2952,-7.2439],[157.2971,-7.2577],[157.3027,-7.2664],[157.3159,-7.2726],[157.3449,-7.282],[157.3562,-7.2885],[157.3685,-7.2983],[157.3794,-7.3102],[157.3865,-7.3229],[157.3928,-7.3229],[157.3952,-7.3063],[157.4026,-7.3058],[157.4131,-7.3119],[157.4241,-7.3161],[157.4456,-7.3162],[157.4556,-7.3142],[157.4919,-7.301],[157.5114,-7.3002],[157.5249,-7.31],[157.5298,-7.3332]]]]}},{"type":"Feature","properties":{"id":"SLB-1263","name":"Guadalcanal","nameBn":"গুয়াডালক্যানাল প্রদেশ","type":"Province","bounds":[159.5921,-9.9371,160.8263,-9.2477],"center":[160.209,-9.6169]},"geometry":{"type":"Polygon","coordinates":[[[160.028,-9.4221],[160.0347,-9.4162],[160.0435,-9.4142],[160.0562,-9.4174],[160.0791,-9.4264],[160.0991,-9.4319],[160.1099,-9.4335],[160.1206,-9.4333],[160.1304,-9.4293],[160.148,-9.4157],[160.1577,-9.4128],[160.179,-9.415],[160.2112,-9.4242],[160.2305,-9.4264],[160.2372,-9.4246],[160.2456,-9.4157],[160.251,-9.4128],[160.2565,-9.4133],[160.2651,-9.4187],[160.2708,-9.4196],[160.346,-9.4196],[160.3499,-9.4186],[160.3601,-9.4135],[160.3664,-9.4128],[160.3679,-9.415],[160.3723,-9.4196],[160.3782,-9.4242],[160.3984,-9.4329],[160.4192,-9.4611],[160.4593,-9.475],[160.4756,-9.4933],[160.5037,-9.5363],[160.5408,-9.5314],[160.5864,-9.5514],[160.6284,-9.5823],[160.6545,-9.6108],[160.6615,-9.6276],[160.6657,-9.6481],[160.668,-9.69],[160.673,-9.698],[160.6839,-9.6983],[160.7,-9.6935],[160.7127,-9.6954],[160.723,-9.7005],[160.7438,-9.714],[160.7771,-9.7228],[160.7854,-9.7275],[160.7879,-9.7376],[160.787,-9.7516],[160.7896,-9.7638],[160.8021,-9.7691],[160.8055,-9.774],[160.8065,-9.7849],[160.8058,-9.8063],[160.8083,-9.816],[160.8136,-9.822],[160.8203,-9.8279],[160.8263,-9.8373],[160.8247,-9.8673],[160.7985,-9.884],[160.7233,-9.8995],[160.6843,-9.9119],[160.6629,-9.9229],[160.6448,-9.9371],[160.5725,-9.9192],[160.5086,-9.8893],[160.4868,-9.8852],[160.4458,-9.8927],[160.4329,-9.8891],[160.4242,-9.8801],[160.4168,-9.8691],[160.408,-9.8585],[160.4037,-9.8575],[160.3919,-9.8593],[160.3875,-9.8585],[160.385,-9.8549],[160.3784,-9.8421],[160.3738,-9.8373],[160.3442,-9.8256],[160.3359,-9.8202],[160.3203,-9.8151],[160.2083,-9.8102],[160.1239,-9.8232],[160.0791,-9.8238],[160.0515,-9.8205],[160.0404,-9.8206],[160.0313,-9.8238],[160.0246,-9.8202],[160.0033,-9.8168],[159.9811,-9.811],[159.959,-9.8093],[159.9373,-9.8056],[159.9031,-9.7879],[159.8872,-9.7828],[159.8678,-9.7857],[159.8518,-9.7927],[159.8356,-9.7939],[159.815,-9.779],[159.7687,-9.7322],[159.7507,-9.7206],[159.7234,-9.707],[159.7223,-9.7028],[159.724,-9.6911],[159.7234,-9.6866],[159.7194,-9.6824],[159.7111,-9.6803],[159.7059,-9.6764],[159.7022,-9.6676],[159.7012,-9.6574],[159.6991,-9.6491],[159.6921,-9.6456],[159.6753,-9.6432],[159.6721,-9.637],[159.6748,-9.6281],[159.675,-9.6176],[159.6657,-9.5951],[159.654,-9.5748],[159.6397,-9.5564],[159.6234,-9.5397],[159.6084,-9.5289],[159.6018,-9.5219],[159.5991,-9.5124],[159.6122,-9.5058],[159.6218,-9.4982],[159.6272,-9.488],[159.6253,-9.4776],[159.6111,-9.4571],[159.6067,-9.4475],[159.6063,-9.4358],[159.6135,-9.4094],[159.6125,-9.3989],[159.6078,-9.3855],[159.6067,-9.3749],[159.596,-9.3644],[159.5921,-9.3615],[159.5964,-9.3549],[159.6067,-9.3439],[159.6095,-9.3098],[159.616,-9.2953],[159.6306,-9.2892],[159.6462,-9.2848],[159.709,-9.2477],[159.7437,-9.2595],[159.779,-9.282],[159.8327,-9.3303],[159.8733,-9.3595],[159.8797,-9.3681],[159.8841,-9.3824],[159.8947,-9.3996],[159.9082,-9.4156],[159.9214,-9.4264],[159.9397,-9.4329],[159.9538,-9.4503],[159.9821,-9.4612],[160.0128,-9.4579],[160.022,-9.4674],[160.0371,-9.4616],[160.0365,-9.4505],[160.042,-9.4311],[160.028,-9.4221]]]}},{"type":"Feature","properties":{"id":"SLB-1264","name":"Isabel","nameBn":"ইসাবেল প্রদেশ","type":"Province","bounds":[158.1943,-8.5624,159.9004,-7.3906],"center":[159.619,-8.4469]},"geometry":{"type":"MultiPolygon","coordinates":[[[[159.6886,-8.5079],[159.7004,-8.5185],[159.6995,-8.525],[159.6886,-8.5353],[159.6795,-8.5401],[159.6703,-8.5414],[159.6599,-8.5396],[159.6477,-8.5353],[159.6362,-8.5292],[159.6279,-8.5226],[159.6135,-8.5079],[159.6014,-8.4889],[159.593,-8.4853],[159.5794,-8.4948],[159.5653,-8.4791],[159.5498,-8.4708],[159.5388,-8.4589],[159.5379,-8.4328],[159.5452,-8.4064],[159.5583,-8.3894],[159.5783,-8.3801],[159.6067,-8.3775],[159.6359,-8.3842],[159.6441,-8.4003],[159.6409,-8.447],[159.647,-8.4684],[159.6585,-8.4825],[159.6886,-8.5079]]],[[[158.4861,-7.6103],[158.5007,-7.6165],[158.5166,-7.631],[158.5265,-7.6471],[158.5236,-7.6581],[158.5078,-7.6598],[158.4929,-7.6511],[158.4815,-7.6373],[158.4751,-7.624],[158.4646,-7.6374],[158.4456,-7.6331],[158.4069,-7.6103],[158.4089,-7.6198],[158.4212,-7.6438],[158.4114,-7.6437],[158.3865,-7.6376],[158.3622,-7.6376],[158.3636,-7.6313],[158.3594,-7.6171],[158.3479,-7.6031],[158.328,-7.5968],[158.3242,-7.5934],[158.3192,-7.5865],[158.3169,-7.5794],[158.3211,-7.5763],[158.3307,-7.5773],[158.3467,-7.5818],[158.3522,-7.5825],[158.354,-7.5844],[158.3625,-7.5862],[158.3682,-7.5837],[158.3622,-7.5728],[158.3622,-7.5671],[158.3692,-7.5628],[158.3788,-7.5627],[158.3865,-7.5694],[158.398,-7.5746],[158.4226,-7.5797],[158.4343,-7.5951],[158.451,-7.6031],[158.4705,-7.6085],[158.4861,-7.6103]]],[[[159.8594,-8.5113],[159.8888,-8.5338],[159.9004,-8.5507],[159.8872,-8.5624],[159.8783,-8.5607],[159.8464,-8.5421],[159.8416,-8.5411],[159.8299,-8.5427],[159.825,-8.5421],[159.8201,-8.5368],[159.8177,-8.53],[159.8147,-8.524],[159.7974,-8.5173],[159.7855,-8.499],[159.7648,-8.4923],[159.7578,-8.4855],[159.7439,-8.4675],[159.7124,-8.4431],[159.7029,-8.4328],[159.7007,-8.423],[159.7028,-8.4142],[159.7004,-8.4079],[159.6852,-8.4055],[159.6738,-8.3987],[159.6272,-8.3576],[159.544,-8.34],[159.5083,-8.3185],[159.4834,-8.3083],[159.4611,-8.2897],[159.4448,-8.2812],[159.4277,-8.2773],[159.4143,-8.2819],[159.3806,-8.2617],[159.3623,-8.2563],[159.3454,-8.2614],[159.3353,-8.2384],[159.3262,-8.2258],[159.3147,-8.2205],[159.3008,-8.2193],[159.2876,-8.2149],[159.2785,-8.2066],[159.2771,-8.1931],[159.2554,-8.2004],[159.2339,-8.1962],[159.2136,-8.1853],[159.12,-8.1174],[159.1138,-8.1164],[159.0984,-8.1186],[159.0921,-8.1174],[159.0879,-8.111],[159.0871,-8.1021],[159.0873,-8.0939],[159.0859,-8.0895],[159.078,-8.0881],[159.0739,-8.0919],[159.0705,-8.0963],[159.0648,-8.0969],[159.0374,-8.0833],[159.031,-8.0823],[159.0166,-8.0842],[159.0101,-8.0833],[159.0099,-8.0805],[159.0055,-8.0668],[159.0033,-8.0628],[158.992,-8.0576],[158.9836,-8.0551],[158.978,-8.0496],[158.9761,-8.0349],[158.9694,-8.04],[158.9481,-8.0491],[158.9463,-8.0292],[158.9373,-8.0139],[158.9229,-8.0042],[158.9041,-8.0007],[158.8457,-7.9734],[158.8403,-7.9352],[158.832,-7.9179],[158.815,-7.9225],[158.7844,-7.9152],[158.7699,-7.9059],[158.7774,-7.8915],[158.7664,-7.8793],[158.7564,-7.871],[158.7495,-7.871],[158.739,-7.8845],[158.7285,-7.872],[158.7149,-7.8362],[158.7036,-7.8229],[158.6885,-7.8112],[158.6712,-7.8051],[158.654,-7.8097],[158.6443,-7.7918],[158.6008,-7.7678],[158.585,-7.7543],[158.5801,-7.7408],[158.5806,-7.7302],[158.5833,-7.7206],[158.585,-7.7101],[158.585,-7.6686],[158.5068,-7.6036],[158.4553,-7.5763],[158.4465,-7.5607],[158.4451,-7.5436],[158.452,-7.532],[158.4689,-7.5346],[158.4895,-7.547],[158.5877,-7.5803],[158.596,-7.5859],[158.6057,-7.5862],[158.6146,-7.5743],[158.6253,-7.5641],[158.6397,-7.5694],[158.6433,-7.5656],[158.6462,-7.5636],[158.6493,-7.5624],[158.654,-7.5613],[158.6613,-7.581],[158.6758,-7.5938],[158.7149,-7.6103],[158.7188,-7.6044],[158.7256,-7.5974],[158.7331,-7.5916],[158.7393,-7.5893],[158.7517,-7.5934],[158.757,-7.6036],[158.7603,-7.616],[158.7666,-7.6274],[158.7861,-7.6457],[158.7982,-7.6545],[158.8081,-7.6581],[158.8145,-7.6647],[158.8303,-7.6938],[158.8484,-7.7044],[158.8638,-7.7249],[158.8723,-7.7338],[158.8848,-7.7413],[158.9207,-7.7543],[158.9386,-7.7651],[158.9688,-7.7907],[158.9898,-7.8022],[158.9795,-7.822],[158.9871,-7.8396],[159.0027,-7.8489],[159.0169,-7.8437],[159.0569,-7.86],[159.0686,-7.8676],[159.0754,-7.8803],[159.0794,-7.895],[159.0857,-7.9036],[159.0996,-7.8984],[159.1268,-7.9195],[159.1494,-7.9089],[159.168,-7.9049],[159.1863,-7.9062],[159.2083,-7.9119],[159.1956,-7.9177],[159.1987,-7.9269],[159.2092,-7.9355],[159.2188,-7.9392],[159.2357,-7.9409],[159.2451,-7.9456],[159.2507,-7.9542],[159.2559,-7.9666],[159.273,-7.954],[159.2831,-7.9627],[159.291,-7.9787],[159.3013,-7.9871],[159.3338,-7.9898],[159.3472,-7.9861],[159.3528,-7.9734],[159.3713,-7.9819],[159.3789,-7.9867],[159.387,-7.9939],[159.4026,-7.9824],[159.4129,-7.9934],[159.4216,-8.0143],[159.4317,-8.0315],[159.4479,-8.0439],[159.4763,-8.0595],[159.4894,-8.0696],[159.492,-8.0711],[159.5037,-8.0759],[159.5059,-8.079],[159.5083,-8.0871],[159.5099,-8.0895],[159.5564,-8.1264],[159.6489,-8.1812],[159.8421,-8.3256],[159.8464,-8.3354],[159.825,-8.3576],[159.8042,-8.3862],[159.7966,-8.3918],[159.7879,-8.3868],[159.7766,-8.384],[159.7654,-8.3853],[159.7568,-8.3918],[159.7576,-8.3976],[159.7733,-8.4086],[159.7816,-8.4254],[159.791,-8.4254],[159.8005,-8.4207],[159.8086,-8.4118],[159.8179,-8.4201],[159.8479,-8.4616],[159.856,-8.4767],[159.8587,-8.491],[159.8594,-8.5113]]],[[[158.3652,-7.5483],[158.3571,-7.5397],[158.3486,-7.5284],[158.3377,-7.5183],[158.3078,-7.5109],[158.2866,-7.4968],[158.2732,-7.4937],[158.2658,-7.4882],[158.2644,-7.4768],[158.2686,-7.467],[158.2766,-7.4664],[158.2863,-7.4728],[158.2966,-7.4768],[158.3057,-7.4825],[158.3113,-7.4937],[158.3244,-7.4897],[158.3361,-7.4946],[158.3591,-7.5141],[158.3713,-7.5042],[158.3931,-7.5058],[158.4168,-7.5149],[158.4348,-7.5278],[158.4251,-7.5328],[158.4185,-7.5397],[158.4167,-7.5491],[158.4212,-7.5613],[158.3767,-7.5525],[158.3652,-7.5483]]],[[[158.2832,-7.4118],[158.2793,-7.4208],[158.2766,-7.4308],[158.2756,-7.4413],[158.2762,-7.4521],[158.2614,-7.4435],[158.2564,-7.4384],[158.249,-7.4732],[158.2352,-7.4633],[158.2266,-7.4498],[158.2153,-7.4391],[158.1943,-7.4384],[158.1943,-7.4322],[158.208,-7.4179],[158.2149,-7.4179],[158.2243,-7.4196],[158.2503,-7.395],[158.2694,-7.3906],[158.2694,-7.4179],[158.2732,-7.4161],[158.2798,-7.4138],[158.2832,-7.4118]]]]}},{"type":"Feature","properties":{"id":"SLB-3509","name":"Makira","nameBn":"মাকিরা","type":"Province","bounds":[161.2808,-10.8448,162.3926,-10.2005],"center":[161.744,-10.2782]},"geometry":{"type":"MultiPolygon","coordinates":[[[[161.741,-10.2726],[161.7459,-10.2633],[161.742,-10.259],[161.735,-10.2574],[161.7306,-10.2556],[161.7173,-10.2314],[161.7171,-10.2182],[161.7306,-10.2067],[161.7525,-10.2242],[161.7688,-10.2522],[161.7705,-10.2784],[161.7478,-10.2898],[161.7407,-10.2885],[161.737,-10.2846],[161.7367,-10.2792],[161.741,-10.2726]]],[[[162.3748,-10.8237],[162.3855,-10.8188],[162.3926,-10.8269],[162.3916,-10.8388],[162.3783,-10.8448],[162.365,-10.8425],[162.3533,-10.839],[162.3412,-10.8381],[162.3272,-10.8448],[162.3197,-10.8403],[162.3093,-10.8385],[162.2923,-10.838],[162.2787,-10.8355],[162.207,-10.808],[162.1839,-10.811],[162.162,-10.8311],[162.1507,-10.8251],[162.138,-10.8232],[162.1108,-10.8237],[162.1011,-10.8215],[162.0939,-10.8159],[162.0877,-10.8093],[162.0801,-10.8038],[162.0359,-10.7866],[162.0199,-10.7734],[162.0112,-10.7696],[161.9985,-10.7717],[161.9694,-10.7813],[161.9601,-10.7796],[161.9507,-10.7741],[161.9089,-10.7621],[161.9103,-10.7641],[161.9046,-10.7667],[161.8918,-10.7696],[161.8853,-10.7673],[161.875,-10.7576],[161.8713,-10.7553],[161.8615,-10.7526],[161.8548,-10.7457],[161.8469,-10.7281],[161.8413,-10.7428],[161.8405,-10.7492],[161.8186,-10.7332],[161.807,-10.7301],[161.7922,-10.735],[161.7896,-10.7287],[161.7822,-10.7204],[161.7785,-10.715],[161.7692,-10.7188],[161.761,-10.7123],[161.7564,-10.7021],[161.7581,-10.6945],[161.7487,-10.6828],[161.7368,-10.6818],[161.7235,-10.6837],[161.7102,-10.6803],[161.703,-10.6707],[161.7002,-10.6594],[161.6948,-10.65],[161.6795,-10.6462],[161.6743,-10.6399],[161.6611,-10.6276],[161.6475,-10.6186],[161.6414,-10.6222],[161.6366,-10.631],[161.6258,-10.6244],[161.6072,-10.6057],[161.6074,-10.5973],[161.603,-10.5912],[161.5957,-10.5875],[161.5867,-10.5846],[161.5887,-10.5771],[161.5867,-10.57],[161.5813,-10.5632],[161.573,-10.5568],[161.5647,-10.5667],[161.5527,-10.57],[161.5387,-10.5685],[161.5247,-10.5642],[161.5452,-10.5021],[161.5342,-10.4952],[161.533,-10.4856],[161.5335,-10.475],[161.5283,-10.4645],[161.5221,-10.4631],[161.502,-10.4675],[161.4904,-10.468],[161.4997,-10.4563],[161.5075,-10.44],[161.5067,-10.4257],[161.4904,-10.4202],[161.5007,-10.3951],[161.5075,-10.3835],[161.5147,-10.3786],[161.52,-10.3764],[161.5181,-10.3717],[161.511,-10.3649],[161.5055,-10.3635],[161.4898,-10.3654],[161.4837,-10.3649],[161.4768,-10.3596],[161.4723,-10.3527],[161.466,-10.3469],[161.4526,-10.3445],[161.4255,-10.3445],[161.4137,-10.3416],[161.4092,-10.3342],[161.4028,-10.33],[161.3888,-10.3292],[161.3675,-10.3308],[161.3613,-10.3338],[161.3569,-10.3385],[161.3517,-10.3425],[161.344,-10.3445],[161.3369,-10.3434],[161.3301,-10.3388],[161.3039,-10.3354],[161.2931,-10.3312],[161.2849,-10.3239],[161.2808,-10.3089],[161.2894,-10.287],[161.2849,-10.2761],[161.2898,-10.2714],[161.2922,-10.2682],[161.2944,-10.2654],[161.2993,-10.2631],[161.2923,-10.2475],[161.2918,-10.2258],[161.3001,-10.2071],[161.3191,-10.2005],[161.3245,-10.2033],[161.3301,-10.2053],[161.3357,-10.2087],[161.3408,-10.214],[161.396,-10.204],[161.5022,-10.2507],[161.6095,-10.3168],[161.6686,-10.3649],[161.6873,-10.3576],[161.7002,-10.3655],[161.7204,-10.3961],[161.7351,-10.4054],[161.7508,-10.407],[161.7659,-10.4059],[161.7785,-10.4065],[161.791,-10.4118],[161.8206,-10.4298],[161.8262,-10.4372],[161.8357,-10.447],[161.8573,-10.4479],[161.8805,-10.4428],[161.8952,-10.4338],[161.9325,-10.446],[161.9495,-10.447],[161.9636,-10.4406],[161.9723,-10.4485],[161.9871,-10.4672],[161.9976,-10.4748],[162.0093,-10.4784],[162.0418,-10.4748],[162.0588,-10.4783],[162.064,-10.4758],[162.0685,-10.4548],[162.0752,-10.4496],[162.0842,-10.4477],[162.0938,-10.4475],[162.1136,-10.4565],[162.1404,-10.4937],[162.1517,-10.5021],[162.1631,-10.5087],[162.1714,-10.524],[162.1917,-10.5779],[162.1963,-10.5846],[162.2036,-10.5904],[162.2102,-10.5925],[162.2153,-10.5968],[162.2205,-10.6296],[162.2289,-10.6446],[162.242,-10.6562],[162.2775,-10.6796],[162.2878,-10.692],[162.2918,-10.7077],[162.292,-10.7647],[162.2889,-10.7696],[162.2826,-10.7717],[162.2752,-10.777],[162.2688,-10.7834],[162.265,-10.7895],[162.2717,-10.8144],[162.3035,-10.8194],[162.3434,-10.818],[162.3748,-10.8237]]]]}},{"type":"Feature","properties":{"id":"SLB-1260","name":"Malaita","nameBn":"ম্যালাইটা প্রদেশ","type":"Province","bounds":[160.5811,-9.851,162.7576,-7.8744],"center":[161.956,-9.7583]},"geometry":{"type":"MultiPolygon","coordinates":[[[[161.9778,-9.851],[161.9636,-9.8393],[161.95,-9.8168],[161.9402,-9.7901],[161.9285,-9.7201],[161.9299,-9.707],[161.9402,-9.6922],[161.9522,-9.6904],[161.9651,-9.6918],[161.9778,-9.6866],[161.9785,-9.6948],[161.9768,-9.7],[161.9709,-9.707],[161.9691,-9.7145],[161.9675,-9.7177],[161.9636,-9.7206],[161.9697,-9.735],[161.9824,-9.8176],[161.9824,-9.8342],[161.9778,-9.851]]],[[[161.3948,-9.4128],[161.3904,-9.4147],[161.3792,-9.4177],[161.375,-9.4196],[161.375,-9.3987],[161.3684,-9.3796],[161.347,-9.3439],[161.3543,-9.3386],[161.3591,-9.3393],[161.3675,-9.3513],[161.3809,-9.3652],[161.4152,-9.386],[161.4222,-9.3958],[161.4263,-9.4117],[161.4563,-9.4538],[161.4817,-9.5047],[161.4939,-9.519],[161.4993,-9.5273],[161.5067,-9.5495],[161.5147,-9.5602],[161.5243,-9.5705],[161.5321,-9.5815],[161.5452,-9.6047],[161.5519,-9.623],[161.554,-9.6403],[161.5525,-9.6764],[161.5559,-9.693],[161.5705,-9.7263],[161.573,-9.7486],[161.5682,-9.7712],[161.5586,-9.789],[161.5492,-9.7926],[161.5452,-9.7722],[161.5041,-9.7275],[161.4946,-9.7031],[161.4883,-9.6921],[161.4774,-9.6866],[161.4665,-9.6899],[161.4593,-9.7179],[161.4489,-9.735],[161.4326,-9.718],[161.4151,-9.6946],[161.4007,-9.67],[161.3948,-9.649],[161.3948,-9.5878],[161.3948,-9.5295],[161.3923,-9.5076],[161.3929,-9.4949],[161.4092,-9.466],[161.4061,-9.45],[161.3982,-9.4335],[161.3948,-9.4128]]],[[[162.7386,-8.3884],[162.7305,-8.3782],[162.7349,-8.3738],[162.7456,-8.3743],[162.7576,-8.3785],[162.7541,-8.3825],[162.7498,-8.3852],[162.7445,-8.387],[162.7386,-8.3884]]],[[[161.3607,-9.6176],[161.3089,-9.5816],[161.2993,-9.5807],[161.2966,-9.5637],[161.2894,-9.5486],[161.2498,-9.4972],[161.2446,-9.488],[161.2422,-9.4781],[161.2405,-9.4587],[161.2372,-9.4475],[161.2263,-9.4304],[161.1792,-9.3818],[161.1107,-9.3473],[161.0868,-9.3196],[161.0401,-9.3132],[161.0454,-9.2961],[161.0174,-9.2647],[161.0039,-9.2551],[160.9963,-9.2537],[160.9802,-9.2551],[160.9732,-9.2514],[160.97,-9.2441],[160.9715,-9.2276],[160.9697,-9.2204],[160.9465,-9.2001],[160.8899,-9.175],[160.8679,-9.1521],[160.7953,-9.0193],[160.7777,-8.9703],[160.7643,-8.9467],[160.7697,-8.9391],[160.7713,-8.9334],[160.7697,-8.9277],[160.7643,-8.92],[160.7637,-8.9055],[160.7482,-8.8552],[160.7344,-8.8337],[160.6931,-8.7512],[160.6893,-8.7376],[160.6887,-8.6837],[160.6869,-8.6746],[160.6545,-8.6041],[160.672,-8.5924],[160.7015,-8.5672],[160.7199,-8.5624],[160.72,-8.5534],[160.696,-8.5011],[160.6564,-8.4493],[160.6514,-8.4396],[160.6384,-8.4333],[160.6043,-8.4],[160.5935,-8.3849],[160.5811,-8.3405],[160.6013,-8.3255],[160.6384,-8.3298],[160.6755,-8.3434],[160.6953,-8.3616],[160.7028,-8.3645],[160.7131,-8.3624],[160.724,-8.3569],[160.7302,-8.3491],[160.7268,-8.3403],[160.696,-8.3201],[160.6987,-8.3131],[160.7057,-8.3062],[160.7146,-8.302],[160.7233,-8.303],[160.7233,-8.3093],[160.7466,-8.3097],[160.759,-8.3167],[160.7778,-8.3434],[160.7901,-8.3532],[160.8005,-8.3588],[160.8098,-8.3673],[160.8195,-8.3849],[160.824,-8.3971],[160.8257,-8.4055],[160.8263,-8.4159],[160.8291,-8.4208],[160.8429,-8.4293],[160.8474,-8.4328],[160.881,-8.484],[160.9329,-8.5393],[160.9732,-8.573],[160.9968,-8.6038],[161.0066,-8.6228],[161.0106,-8.6415],[161.0027,-8.6624],[160.9837,-8.6741],[160.9612,-8.6822],[160.9424,-8.6922],[160.9491,-8.7053],[160.9534,-8.7185],[160.953,-8.7316],[160.937,-8.7589],[160.9368,-8.7717],[160.9402,-8.7844],[160.9424,-8.799],[160.9466,-8.8137],[160.9653,-8.8312],[160.9697,-8.8405],[160.9759,-8.8503],[160.9901,-8.8478],[161.014,-8.8368],[161.023,-8.8408],[161.0503,-8.8613],[161.0591,-8.871],[161.0597,-8.878],[161.0555,-8.8835],[161.0531,-8.8897],[161.0591,-8.8989],[161.0671,-8.9035],[161.0737,-8.903],[161.0781,-8.9005],[161.0796,-8.8989],[161.103,-8.9098],[161.1281,-8.9274],[161.1511,-8.9496],[161.169,-8.9745],[161.1559,-8.9695],[161.1458,-8.9773],[161.1428,-8.9887],[161.1515,-8.9944],[161.1636,-8.9994],[161.1751,-9.0117],[161.1809,-9.0275],[161.1758,-9.0429],[161.1846,-9.0478],[161.1885,-9.0541],[161.1896,-9.0623],[161.1895,-9.0729],[161.1913,-9.0834],[161.1963,-9.086],[161.2029,-9.0862],[161.21,-9.09],[161.2158,-9.0942],[161.2228,-9.0978],[161.2287,-9.1037],[161.231,-9.1145],[161.2276,-9.1191],[161.2025,-9.1384],[161.2207,-9.1467],[161.2271,-9.1518],[161.231,-9.1589],[161.244,-9.1539],[161.2557,-9.1569],[161.2617,-9.1659],[161.2583,-9.1794],[161.2659,-9.1804],[161.2849,-9.1862],[161.2849,-9.193],[161.2578,-9.1993],[161.2478,-9.1999],[161.2443,-9.2053],[161.2451,-9.217],[161.2493,-9.2287],[161.2546,-9.2341],[161.261,-9.2419],[161.2669,-9.278],[161.2788,-9.2892],[161.2653,-9.2966],[161.259,-9.2903],[161.2542,-9.2804],[161.2446,-9.2756],[161.2354,-9.2812],[161.2376,-9.2919],[161.2459,-9.3039],[161.2853,-9.3444],[161.2966,-9.3603],[161.3281,-9.4386],[161.3372,-9.4475],[161.3477,-9.4558],[161.3618,-9.4749],[161.3811,-9.509],[161.3931,-9.5877],[161.3926,-9.6091],[161.3864,-9.6218],[161.3757,-9.6249],[161.3607,-9.6176]]],[[[160.6358,-7.891],[160.648,-7.9269],[160.6409,-7.9284],[160.632,-7.927],[160.613,-7.9011],[160.6076,-7.8888],[160.6121,-7.8767],[160.6233,-7.8744],[160.6299,-7.8803],[160.6358,-7.891]]]]}},{"type":"Feature","properties":{"id":"SLB-1261","name":"Rennell and Bellona","nameBn":"রেন্নেল ও বেল্লনা প্রদেশ","type":"Province","bounds":[159.7774,-11.8459,160.5822,-11.2828],"center":[160.273,-11.6204]},"geometry":{"type":"MultiPolygon","coordinates":[[[[160.5037,-11.736],[160.5645,-11.773],[160.5822,-11.7949],[160.5588,-11.8112],[160.5469,-11.8113],[160.5381,-11.8084],[160.5296,-11.8068],[160.5178,-11.8112],[160.5125,-11.8181],[160.5046,-11.8383],[160.4973,-11.8459],[160.4832,-11.845],[160.471,-11.8317],[160.4601,-11.815],[160.4496,-11.8044],[160.4343,-11.811],[160.4285,-11.8112],[160.4226,-11.8085],[160.3853,-11.7838],[160.3801,-11.777],[160.3689,-11.7346],[160.3601,-11.7169],[160.3397,-11.7013],[160.3294,-11.6983],[160.3081,-11.697],[160.2981,-11.6945],[160.2858,-11.6869],[160.2834,-11.6808],[160.2852,-11.6747],[160.2852,-11.6672],[160.2839,-11.6573],[160.2848,-11.6495],[160.2821,-11.6419],[160.2708,-11.633],[160.2625,-11.6292],[160.2518,-11.6262],[160.2406,-11.6247],[160.2305,-11.6262],[160.2258,-11.631],[160.2163,-11.648],[160.21,-11.6535],[160.201,-11.6552],[160.1893,-11.6554],[160.1685,-11.6535],[160.1512,-11.6471],[160.1125,-11.6261],[160.0926,-11.6194],[160.0977,-11.6091],[160.1008,-11.6051],[160.0825,-11.5922],[160.0664,-11.5935],[160.0527,-11.6008],[160.0414,-11.6051],[160.0237,-11.6007],[160.0106,-11.5895],[159.9819,-11.5543],[159.9778,-11.5402],[159.9729,-11.5334],[159.9655,-11.5258],[159.9634,-11.5206],[159.9692,-11.5032],[159.9761,-11.4914],[159.9961,-11.4731],[160.0033,-11.4611],[160.0067,-11.4651],[160.0101,-11.4665],[160.0137,-11.4672],[160.0176,-11.4685],[160.032,-11.4836],[160.0418,-11.4905],[160.0524,-11.4952],[160.0635,-11.496],[160.0872,-11.4948],[160.0967,-11.4992],[160.1167,-11.5167],[160.1374,-11.5299],[160.1934,-11.5563],[160.223,-11.5784],[160.2585,-11.5955],[160.2874,-11.6174],[160.3081,-11.6266],[160.3528,-11.6398],[160.3939,-11.6578],[160.5037,-11.736]]],[[[159.8047,-11.2905],[159.8223,-11.2927],[159.8394,-11.2976],[159.8511,-11.3077],[159.8532,-11.3245],[159.8299,-11.3154],[159.8106,-11.3105],[159.7933,-11.3024],[159.7774,-11.2836],[159.7853,-11.2828],[159.792,-11.2839],[159.7983,-11.2866],[159.8047,-11.2905]]]]}},{"type":"Feature","properties":{"id":"SLB-1934","name":"Temotu","nameBn":"টেমোটু প্রদেশ","type":"Province","bounds":[165.7229,-12.2906,168.8259,-9.8019],"center":[168.812,-12.277]},"geometry":{"type":"MultiPolygon","coordinates":[[[[167.1733,-9.8864],[167.1658,-9.8683],[167.1702,-9.8591],[167.1808,-9.8601],[167.1922,-9.873],[167.196,-9.8859],[167.1934,-9.8937],[167.1853,-9.8946],[167.1733,-9.8864]]],[[[167.0918,-9.8033],[167.1045,-9.8019],[167.1082,-9.8046],[167.104,-9.8066],[167.0918,-9.8033]]],[[[166.9239,-11.641],[166.9252,-11.6549],[166.924,-11.6743],[166.9784,-11.6705],[166.9841,-11.7099],[166.9093,-11.7149],[166.8882,-11.7174],[166.8715,-11.7169],[166.843,-11.7133],[166.8281,-11.6934],[166.8162,-11.6823],[166.8025,-11.6772],[166.7971,-11.6698],[166.7797,-11.6486],[166.7672,-11.6335],[166.7672,-11.6171],[166.7752,-11.6068],[166.7851,-11.6013],[166.8055,-11.5916],[166.8241,-11.5915],[166.847,-11.5927],[166.8699,-11.589],[166.8934,-11.5938],[166.9356,-11.6088],[166.9239,-11.641]]],[[[166.5573,-11.2836],[166.5342,-11.3081],[166.5265,-11.3089],[166.5165,-11.3113],[166.5088,-11.3093],[166.5005,-11.3046],[166.5002,-11.2979],[166.5008,-11.2889],[166.5068,-11.2814],[166.5103,-11.2747],[166.5091,-11.2609],[166.495,-11.2693],[166.4834,-11.2787],[166.4777,-11.27],[166.4798,-11.2474],[166.4943,-11.2293],[166.5119,-11.2134],[166.5251,-11.2091],[166.5404,-11.2146],[166.5558,-11.2268],[166.5639,-11.241],[166.5647,-11.2599],[166.5573,-11.2836]]],[[[166.1479,-10.694],[166.137,-10.7053],[166.133,-10.7248],[166.0957,-10.7392],[166.0837,-10.7498],[166.0654,-10.7583],[166.0545,-10.7667],[166.035,-10.7654],[166.0282,-10.7673],[166.0024,-10.7572],[165.9898,-10.7668],[165.9808,-10.7734],[165.9696,-10.7702],[165.9342,-10.7757],[165.8918,-10.8241],[165.862,-10.8685],[165.8494,-10.8562],[165.8524,-10.8286],[165.8404,-10.8146],[165.8284,-10.8123],[165.8001,-10.8375],[165.7702,-10.8358],[165.7565,-10.8122],[165.7536,-10.7727],[165.753,-10.7519],[165.7722,-10.7385],[165.7812,-10.7249],[165.7926,-10.7091],[165.8018,-10.7086],[165.7974,-10.7431],[165.8122,-10.7593],[165.8219,-10.7622],[165.8271,-10.7492],[165.8282,-10.734],[165.8312,-10.7077],[165.8478,-10.6846],[165.8781,-10.6568],[165.9233,-10.6535],[165.9945,-10.6611],[166.0267,-10.647],[166.0612,-10.654],[166.0781,-10.663],[166.0809,-10.6677],[166.085,-10.6721],[166.1147,-10.6682],[166.1428,-10.6693],[166.1479,-10.694]]],[[[168.8123,-12.2663],[168.8229,-12.2673],[168.8259,-12.2815],[168.8186,-12.2849],[168.8024,-12.2906],[168.7979,-12.2819],[168.8057,-12.2741],[168.8123,-12.2663]]],[[[165.7453,-10.4216],[165.7356,-10.4246],[165.7278,-10.4225],[165.7229,-10.4129],[165.7238,-10.4015],[165.7262,-10.3946],[165.7322,-10.3899],[165.7463,-10.3935],[165.7551,-10.4069],[165.7529,-10.4168],[165.7453,-10.4216]]],[[[166.9849,-11.6144],[166.9855,-11.6233],[166.9797,-11.6386],[166.9632,-11.6503],[166.9456,-11.6533],[166.939,-11.642],[166.9443,-11.6254],[166.9577,-11.6126],[166.9758,-11.611],[166.9849,-11.6144]]],[[[166.2525,-10.2649],[166.2671,-10.2643],[166.28,-10.273],[166.27,-10.2919],[166.2515,-10.3092],[166.2373,-10.3111],[166.2361,-10.2966],[166.238,-10.2835],[166.2315,-10.2829],[166.2287,-10.2761],[166.2358,-10.2553],[166.2393,-10.2343],[166.2385,-10.215],[166.2425,-10.2208],[166.2424,-10.269],[166.249,-10.2667],[166.2525,-10.2649]]]]}},{"type":"Feature","properties":{"id":"SLB-3507","name":"Western","nameBn":"ওয়েস্টার্ন প্রদেশ","type":"Province","bounds":[155.508,-8.8368,158.2567,-6.8152],"center":[157.551,-8.73]},"geometry":{"type":"MultiPolygon","coordinates":[[[[157.6155,-8.7345],[157.6355,-8.7441],[157.6499,-8.7652],[157.6489,-8.7862],[157.6223,-8.7958],[157.6135,-8.7931],[157.5776,-8.7747],[157.5298,-8.7618],[157.4767,-8.7395],[157.4524,-8.7219],[157.4553,-8.7065],[157.4927,-8.712],[157.5088,-8.7126],[157.5237,-8.7065],[157.5298,-8.714],[157.5383,-8.7009],[157.5438,-8.6949],[157.5497,-8.6922],[157.5588,-8.6938],[157.5646,-8.6988],[157.5689,-8.704],[157.5739,-8.7065],[157.5906,-8.7109],[157.6009,-8.7204],[157.6082,-8.7301],[157.6155,-8.7345]]],[[[158.2288,-8.7747],[158.2567,-8.7856],[158.2556,-8.7949],[158.2522,-8.8027],[158.2468,-8.808],[158.224,-8.8137],[158.2031,-8.831],[158.1872,-8.8368],[158.1682,-8.8072],[158.1636,-8.802],[158.1537,-8.7966],[158.1537,-8.7841],[158.1605,-8.7584],[158.1652,-8.7492],[158.1946,-8.727],[158.2,-8.718],[158.2043,-8.7066],[158.2072,-8.6935],[158.2083,-8.6791],[158.2151,-8.6791],[158.2151,-8.7003],[158.2234,-8.7149],[158.2302,-8.738],[158.2327,-8.7608],[158.2288,-8.7747]]],[[[158.0569,-8.5283],[158.0776,-8.5235],[158.1028,-8.5236],[158.1238,-8.5304],[158.1325,-8.5455],[158.135,-8.5668],[158.1335,-8.5742],[158.1257,-8.5829],[158.1164,-8.5856],[158.1052,-8.5846],[158.0956,-8.5855],[158.0916,-8.5935],[158.0869,-8.5971],[158.0676,-8.6047],[158.065,-8.6109],[158.071,-8.6169],[158.0906,-8.6198],[158.0984,-8.6246],[158.104,-8.621],[158.1082,-8.6196],[158.1189,-8.6178],[158.1062,-8.6345],[158.0996,-8.6402],[158.0916,-8.6451],[158.1143,-8.6677],[158.1057,-8.6911],[158.065,-8.727],[158.0525,-8.7458],[158.0476,-8.7514],[158.0386,-8.7568],[158.0212,-8.7608],[158.0134,-8.7652],[157.999,-8.7673],[157.9769,-8.7626],[157.957,-8.756],[157.9483,-8.7514],[157.9456,-8.7447],[157.9395,-8.7402],[157.9277,-8.7345],[157.9233,-8.7294],[157.9175,-8.719],[157.9133,-8.714],[157.8841,-8.6882],[157.8792,-8.6826],[157.8792,-8.6314],[157.8861,-8.5966],[157.8901,-8.5906],[157.896,-8.5847],[157.9004,-8.5764],[157.8998,-8.5624],[157.9268,-8.5789],[157.9377,-8.5794],[157.9414,-8.5624],[157.9483,-8.5634],[157.9517,-8.5663],[157.9551,-8.5768],[157.9631,-8.5637],[157.9605,-8.5541],[157.9551,-8.5437],[157.9551,-8.5283],[157.9612,-8.5216],[157.9959,-8.5079],[158.0036,-8.5064],[158.0065,-8.5051],[158.0096,-8.5011],[158.0171,-8.5079],[158.0171,-8.5147],[158.0086,-8.5209],[158.0052,-8.5285],[158.0068,-8.5369],[158.0134,-8.5455],[158.0264,-8.551],[158.0373,-8.5455],[158.047,-8.5358],[158.0569,-8.5283]]],[[[157.3587,-8.5768],[157.3543,-8.5768],[157.3499,-8.5739],[157.3447,-8.5725],[157.3381,-8.5768],[157.3367,-8.5818],[157.3381,-8.6041],[157.3306,-8.6329],[157.3294,-8.6491],[157.3346,-8.6624],[157.3709,-8.7009],[157.3911,-8.715],[157.4138,-8.7208],[157.4138,-8.727],[157.3982,-8.7306],[157.3796,-8.7297],[157.3617,-8.7253],[157.3483,-8.7174],[157.3367,-8.706],[157.3296,-8.7018],[157.3206,-8.7003],[157.3123,-8.6962],[157.3107,-8.6866],[157.3115,-8.6752],[157.3108,-8.6662],[157.3042,-8.6547],[157.2778,-8.6186],[157.2661,-8.6109],[157.25,-8.6057],[157.2284,-8.5934],[157.2092,-8.5784],[157.2009,-8.5659],[157.2036,-8.5515],[157.2101,-8.5392],[157.2189,-8.5292],[157.2282,-8.5216],[157.2549,-8.5075],[157.27,-8.4965],[157.2891,-8.4592],[157.3172,-8.4317],[157.3475,-8.4125],[157.366,-8.4129],[157.384,-8.425],[157.3993,-8.444],[157.4099,-8.4689],[157.4138,-8.498],[157.4104,-8.5043],[157.3958,-8.5212],[157.3854,-8.5546],[157.3828,-8.5593],[157.3801,-8.5627],[157.3782,-8.5693],[157.376,-8.573],[157.3698,-8.5779],[157.3652,-8.5782],[157.3616,-8.5768],[157.3587,-8.5768]]],[[[157.1252,-8.2751],[157.1306,-8.3083],[157.138,-8.3224],[157.1525,-8.3298],[157.1525,-8.3372],[157.1235,-8.3204],[157.1091,-8.2833],[157.0906,-8.2491],[157.0501,-8.2409],[157.0536,-8.238],[157.0601,-8.2306],[157.0637,-8.2273],[157.0474,-8.2199],[157.03,-8.2063],[157.0226,-8.1928],[157.0364,-8.1857],[157.05,-8.1967],[157.0759,-8.1985],[157.1008,-8.2035],[157.1121,-8.2239],[157.1136,-8.2367],[157.1252,-8.2751]]],[[[157.2077,-8.2888],[157.2009,-8.2888],[157.199,-8.2746],[157.1914,-8.2719],[157.1818,-8.2726],[157.173,-8.2688],[157.1691,-8.2614],[157.1599,-8.2335],[157.1504,-8.2159],[157.1392,-8.2009],[157.1245,-8.1887],[157.1047,-8.1789],[157.1121,-8.1726],[157.1018,-8.1716],[157.0972,-8.1691],[157.0964,-8.165],[157.0978,-8.1589],[157.1223,-8.1674],[157.1457,-8.1657],[157.1673,-8.1674],[157.1873,-8.1857],[157.1968,-8.2067],[157.2041,-8.2328],[157.2083,-8.2613],[157.2077,-8.2888]]],[[[156.8106,-8.0554],[156.8142,-8.072],[156.8247,-8.0696],[156.8413,-8.113],[156.8154,-8.112],[156.7857,-8.0862],[156.7899,-8.0554],[156.8106,-8.0554]]],[[[157.7974,-8.5624],[157.811,-8.5707],[157.8205,-8.5832],[157.8236,-8.5992],[157.8179,-8.6178],[157.811,-8.6178],[157.8088,-8.6013],[157.8015,-8.5909],[157.7936,-8.5842],[157.7899,-8.5798],[157.7865,-8.5655],[157.7778,-8.5515],[157.7557,-8.5283],[157.7293,-8.5139],[157.6748,-8.5092],[157.6497,-8.498],[157.6056,-8.4675],[157.582,-8.4394],[157.5776,-8.4362],[157.576,-8.4216],[157.5679,-8.3989],[157.5646,-8.3849],[157.5646,-8.3235],[157.572,-8.3351],[157.5759,-8.3469],[157.5776,-8.3744],[157.583,-8.3865],[157.6065,-8.393],[157.6118,-8.402],[157.615,-8.4124],[157.6221,-8.4107],[157.6291,-8.4011],[157.6323,-8.3884],[157.627,-8.378],[157.6034,-8.3557],[157.5938,-8.3233],[157.5827,-8.2994],[157.5671,-8.2763],[157.5497,-8.2614],[157.5374,-8.2584],[157.5282,-8.261],[157.5181,-8.2658],[157.5026,-8.2688],[157.4961,-8.2647],[157.4889,-8.2574],[157.4818,-8.256],[157.4758,-8.2688],[157.4649,-8.2623],[157.4566,-8.2623],[157.4411,-8.2688],[157.4401,-8.2697],[157.4321,-8.2736],[157.4275,-8.2751],[157.3934,-8.2756],[157.3565,-8.2721],[157.3449,-8.2751],[157.3362,-8.2893],[157.3296,-8.308],[157.3189,-8.3259],[157.2971,-8.3372],[157.2796,-8.3334],[157.2454,-8.3137],[157.235,-8.3167],[157.2282,-8.3167],[157.2219,-8.2239],[157.2249,-8.2177],[157.2393,-8.1975],[157.2454,-8.1931],[157.2596,-8.193],[157.2713,-8.1917],[157.281,-8.1876],[157.2903,-8.1789],[157.2951,-8.1918],[157.302,-8.1957],[157.3099,-8.193],[157.3169,-8.1857],[157.32,-8.1765],[157.3201,-8.155],[157.3244,-8.1448],[157.321,-8.133],[157.3265,-8.1194],[157.3483,-8.0932],[157.3582,-8.0782],[157.3732,-8.0446],[157.3828,-8.0315],[157.4255,-7.9898],[157.4411,-7.9797],[157.4572,-7.9736],[157.4875,-7.9656],[157.5026,-7.9597],[157.5021,-7.9645],[157.5034,-7.9656],[157.5061,-7.9658],[157.5095,-7.9666],[157.5789,-8.0055],[157.6056,-8.0076],[157.5986,-8.0256],[157.6017,-8.0383],[157.6082,-8.0504],[157.6118,-8.0662],[157.6105,-8.1042],[157.6125,-8.1227],[157.6193,-8.138],[157.6099,-8.1563],[157.6131,-8.1691],[157.636,-8.1894],[157.6447,-8.2052],[157.6418,-8.2177],[157.637,-8.2291],[157.6397,-8.2409],[157.6465,-8.2337],[157.6524,-8.2351],[157.6587,-8.2395],[157.667,-8.2409],[157.6733,-8.2385],[157.6854,-8.2306],[157.6943,-8.2273],[157.7139,-8.2236],[157.7302,-8.2234],[157.7459,-8.2287],[157.7746,-8.2493],[157.7785,-8.2534],[157.7837,-8.2614],[157.7859,-8.2678],[157.7899,-8.2888],[157.8023,-8.3054],[157.8281,-8.3228],[157.8384,-8.3372],[157.8368,-8.3622],[157.8384,-8.3713],[157.844,-8.3803],[157.8595,-8.3925],[157.8656,-8.3986],[157.8739,-8.4155],[157.8804,-8.4503],[157.8861,-8.4675],[157.8906,-8.4708],[157.8971,-8.4714],[157.9033,-8.4736],[157.9072,-8.4811],[157.9069,-8.4909],[157.9033,-8.4991],[157.8836,-8.532],[157.8811,-8.5378],[157.8792,-8.5489],[157.8789,-8.5582],[157.8801,-8.567],[157.8826,-8.5751],[157.8861,-8.5829],[157.8245,-8.5589],[157.7974,-8.5563],[157.7974,-8.5624]]],[[[156.6112,-8.0727],[156.616,-8.0986],[156.6165,-8.1125],[156.6112,-8.1249],[156.619,-8.1462],[156.616,-8.1707],[156.6047,-8.191],[156.5874,-8.1994],[156.5784,-8.1871],[156.5532,-8.114],[156.5384,-8.0915],[156.536,-8.0693],[156.543,-8.0212],[156.5321,-7.9706],[156.5324,-7.9489],[156.5498,-7.9392],[156.5647,-7.9521],[156.5772,-7.9666],[156.5816,-7.9771],[156.5877,-8.0007],[156.6011,-8.0234],[156.6065,-8.0406],[156.61,-8.0585],[156.6112,-8.0727]]],[[[157.1047,-8.1249],[157.0542,-8.1291],[157.0023,-8.0868],[156.9622,-8.0274],[156.947,-7.9797],[156.9487,-7.9671],[156.9522,-7.955],[156.9613,-7.9325],[156.9851,-7.8961],[156.9885,-7.8881],[157.002,-7.8752],[157.0327,-7.863],[157.0671,-7.8541],[157.0911,-7.8505],[157.1375,-7.8748],[157.1704,-7.9099],[157.1913,-7.9529],[157.2009,-8.0007],[157.2023,-8.0483],[157.1995,-8.0652],[157.1843,-8.1067],[157.1672,-8.1355],[157.1463,-8.1486],[157.1252,-8.1249],[157.1167,-8.1281],[157.1126,-8.1286],[157.1047,-8.1249]]],[[[156.8071,-7.7201],[156.8147,-7.7346],[156.7995,-7.7665],[156.7627,-7.8165],[156.744,-7.832],[156.7197,-7.857],[156.7041,-7.885],[156.7112,-7.9089],[156.7206,-7.9211],[156.7207,-7.9318],[156.7134,-7.9404],[156.7007,-7.9455],[156.6975,-7.942],[156.6892,-7.9352],[156.6781,-7.9323],[156.6664,-7.9392],[156.6597,-7.9392],[156.6575,-7.9191],[156.6618,-7.8991],[156.6589,-7.884],[156.6118,-7.8712],[156.6084,-7.8546],[156.6187,-7.8131],[156.6148,-7.8051],[156.6058,-7.7984],[156.5964,-7.7927],[156.5908,-7.7885],[156.5778,-7.7617],[156.571,-7.7543],[156.554,-7.7486],[156.5532,-7.7475],[156.5452,-7.7465],[156.5442,-7.7436],[156.5453,-7.7394],[156.5348,-7.7166],[156.5288,-7.7133],[156.5156,-7.7201],[156.4971,-7.675],[156.5042,-7.6301],[156.5308,-7.5925],[156.571,-7.5694],[156.584,-7.5724],[156.5933,-7.5768],[156.6016,-7.5776],[156.6112,-7.5694],[156.6141,-7.5778],[156.6194,-7.5851],[156.6317,-7.5968],[156.6341,-7.6018],[156.6331,-7.6062],[156.634,-7.6093],[156.6496,-7.6113],[156.6526,-7.6142],[156.6531,-7.6194],[156.6528,-7.6274],[156.6571,-7.6314],[156.6668,-7.6354],[156.6764,-7.6423],[156.6848,-7.6657],[156.6946,-7.6723],[156.7149,-7.6786],[156.7075,-7.6861],[156.721,-7.7004],[156.7437,-7.6918],[156.7661,-7.6999],[156.7876,-7.7131],[156.8071,-7.7201]]],[[[155.5703,-7.3229],[155.5863,-7.3312],[155.5974,-7.3421],[155.6067,-7.3537],[155.6182,-7.3639],[155.5974,-7.3829],[155.5762,-7.3879],[155.5252,-7.3839],[155.508,-7.3757],[155.5144,-7.3575],[155.5423,-7.3229],[155.5493,-7.3253],[155.5549,-7.3251],[155.5703,-7.3229]]],[[[155.8167,-7.0207],[155.8467,-7.0279],[155.8543,-7.0315],[155.868,-7.0485],[155.8679,-7.0619],[155.8621,-7.0758],[155.8582,-7.093],[155.8509,-7.0993],[155.8342,-7.1042],[155.8156,-7.1059],[155.8031,-7.1032],[155.7866,-7.1179],[155.77,-7.1176],[155.7529,-7.1155],[155.7349,-7.1243],[155.7256,-7.1196],[155.7141,-7.1086],[155.7069,-7.1032],[155.6786,-7.0945],[155.6729,-7.0895],[155.6745,-7.0759],[155.7007,-7.0207],[155.7088,-7.0255],[155.7119,-7.0107],[155.7179,-6.9924],[155.7349,-6.9865],[155.7315,-6.9786],[155.7319,-6.9724],[155.7349,-6.9661],[155.7474,-6.9709],[155.7826,-7.0007],[155.8167,-7.0207]]],[[[156.1184,-6.9182],[156.1263,-6.9225],[156.1453,-6.9279],[156.1526,-6.9313],[156.1428,-6.9373],[156.1321,-6.9387],[156.1214,-6.9365],[156.1116,-6.9313],[156.1091,-6.9469],[156.1043,-6.9621],[156.0964,-6.9758],[156.0837,-6.9865],[156.0825,-6.9788],[156.0807,-6.9748],[156.0786,-6.9714],[156.0768,-6.9661],[156.0701,-6.9741],[156.0623,-6.9791],[156.053,-6.9811],[156.0427,-6.9804],[156.0586,-6.9694],[156.0734,-6.9557],[156.0767,-6.9475],[156.072,-6.9407],[156.0657,-6.9338],[156.0637,-6.9251],[156.0671,-6.9109],[156.0715,-6.9064],[156.0803,-6.9046],[156.0872,-6.9016],[156.0818,-6.8957],[156.0733,-6.8908],[156.07,-6.8909],[156.0571,-6.872],[156.0469,-6.8517],[156.0497,-6.8317],[156.0768,-6.8152],[156.0979,-6.8152],[156.0979,-6.822],[156.0842,-6.8255],[156.0734,-6.8332],[156.0664,-6.8449],[156.0637,-6.8596],[156.0725,-6.8679],[156.0897,-6.8723],[156.1026,-6.8782],[156.0979,-6.8909],[156.1128,-6.9127],[156.1184,-6.9182]]],[[[156.5454,-7.7917],[156.5491,-7.795],[156.5594,-7.8024],[156.5554,-7.8173],[156.5348,-7.8274],[156.5169,-7.8181],[156.5179,-7.8093],[156.5259,-7.7994],[156.5364,-7.7911],[156.5454,-7.7917]]]]}}]}