{"type":"FeatureCollection","features":[{"type":"Feature","properties":{"id":"SLE-790","name":"Eastern","nameBn":"ইস্টার্ন প্রদেশ","type":"Province","bounds":[-11.5802,7.3452,-10.2822,9.0702],"center":[-10.9314,8.2742]},"geometry":{"type":"Polygon","coordinates":[[[-10.5922,9.0417],[-10.5918,9.0391],[-10.6071,8.9798],[-10.6119,8.9451],[-10.6101,8.8723],[-10.6085,8.8623],[-10.5994,8.834],[-10.5991,8.8296],[-10.6002,8.819],[-10.5997,8.8154],[-10.5963,8.8112],[-10.5891,8.8066],[-10.5863,8.8041],[-10.5453,8.75],[-10.5302,8.7392],[-10.5248,8.7295],[-10.4819,8.6725],[-10.4897,8.651],[-10.5033,8.6316],[-10.5221,8.6186],[-10.5452,8.6168],[-10.5654,8.6128],[-10.5846,8.5968],[-10.6005,8.5757],[-10.6165,8.5465],[-10.6319,8.532],[-10.6389,8.5199],[-10.6412,8.5066],[-10.6411,8.4948],[-10.6439,8.4869],[-10.6547,8.4855],[-10.6691,8.3991],[-10.6838,8.3749],[-10.702,8.3536],[-10.725,8.3199],[-10.7353,8.2873],[-10.7152,8.2696],[-10.7079,8.3031],[-10.6882,8.3241],[-10.6598,8.3333],[-10.6267,8.3315],[-10.6119,8.3253],[-10.5833,8.3069],[-10.5727,8.3046],[-10.5544,8.3118],[-10.5193,8.3348],[-10.4602,8.3922],[-10.448,8.4076],[-10.4238,8.4566],[-10.4141,8.4702],[-10.4024,8.481],[-10.3898,8.4891],[-10.3747,8.4948],[-10.3443,8.4991],[-10.3376,8.4986],[-10.3102,8.4904],[-10.3022,8.4859],[-10.2937,8.4831],[-10.2822,8.4846],[-10.2829,8.4329],[-10.3137,8.3103],[-10.3313,8.2723],[-10.3333,8.2498],[-10.326,8.2215],[-10.3182,8.2016],[-10.3209,8.1831],[-10.3455,8.1593],[-10.3649,8.1482],[-10.3846,8.1421],[-10.4051,8.1393],[-10.4857,8.1389],[-10.5057,8.1358],[-10.5292,8.1243],[-10.544,8.1061],[-10.5672,8.0632],[-10.5778,8.0532],[-10.6031,8.0392],[-10.6121,8.0319],[-10.6162,8.0225],[-10.6177,8.0108],[-10.6152,7.769],[-10.6381,7.7655],[-10.6454,7.763],[-10.6926,7.7376],[-10.7306,7.7055],[-10.864,7.5437],[-10.8746,7.5309],[-10.8857,7.5222],[-10.899,7.5165],[-10.937,7.5078],[-10.9779,7.4849],[-11.1263,7.368],[-11.1442,7.3452],[-11.1447,7.3454],[-11.2177,7.3742],[-11.2437,7.3893],[-11.2777,7.4033],[-11.3039,7.4108],[-11.3159,7.4123],[-11.3291,7.4127],[-11.3412,7.4142],[-11.3521,7.417],[-11.356,7.4198],[-11.3579,7.4244],[-11.3569,7.4467],[-11.3595,7.4701],[-11.3595,7.4913],[-11.3589,7.4976],[-11.3624,7.5424],[-11.3613,7.553],[-11.3593,7.5607],[-11.3362,7.5848],[-11.3345,7.588],[-11.3494,7.6081],[-11.353,7.6115],[-11.3571,7.6143],[-11.3617,7.6165],[-11.367,7.6178],[-11.3728,7.6181],[-11.3784,7.6173],[-11.3878,7.6127],[-11.3958,7.6071],[-11.4273,7.5699],[-11.4494,7.5499],[-11.4534,7.5469],[-11.4579,7.5444],[-11.4628,7.5427],[-11.4684,7.5427],[-11.4735,7.5441],[-11.4781,7.5464],[-11.483,7.5482],[-11.4877,7.5605],[-11.4917,7.5822],[-11.4959,7.6362],[-11.5013,7.6593],[-11.5066,7.6722],[-11.5168,7.6763],[-11.52,7.6784],[-11.5205,7.6807],[-11.4927,7.6967],[-11.4604,7.7196],[-11.4566,7.7215],[-11.453,7.7213],[-11.45,7.7184],[-11.4476,7.7141],[-11.4436,7.7041],[-11.4407,7.7006],[-11.4361,7.6995],[-11.4311,7.7004],[-11.4268,7.703],[-11.4231,7.7064],[-11.4179,7.7147],[-11.4141,7.7244],[-11.4102,7.7476],[-11.4084,7.7528],[-11.4064,7.7572],[-11.4054,7.7631],[-11.4066,7.7702],[-11.4234,7.8131],[-11.4256,7.8151],[-11.4286,7.8135],[-11.4317,7.8106],[-11.4464,7.7913],[-11.4493,7.7884],[-11.452,7.7877],[-11.4538,7.793],[-11.4549,7.8012],[-11.4544,7.8258],[-11.4442,7.8718],[-11.4422,7.8766],[-11.4395,7.8807],[-11.3749,7.9271],[-11.3714,7.9304],[-11.3595,7.9439],[-11.3515,7.9491],[-11.3478,7.9523],[-11.3447,7.956],[-11.342,7.9601],[-11.3378,7.9696],[-11.3323,7.9909],[-11.3312,8.0019],[-11.3315,8.0129],[-11.3351,8.0398],[-11.3358,8.0777],[-11.3397,8.0979],[-11.3641,8.1653],[-11.3655,8.1708],[-11.3664,8.1761],[-11.3665,8.1808],[-11.3658,8.1845],[-11.3655,8.1893],[-11.3686,8.1959],[-11.3752,8.2056],[-11.4434,8.273],[-11.486,8.3279],[-11.5033,8.3444],[-11.5076,8.347],[-11.529,8.3669],[-11.532,8.3731],[-11.5346,8.3811],[-11.5355,8.3969],[-11.534,8.4136],[-11.5354,8.4203],[-11.5388,8.428],[-11.5533,8.4449],[-11.5621,8.4524],[-11.5697,8.466],[-11.5802,8.5081],[-11.5584,8.5279],[-11.5422,8.5394],[-11.5367,8.5422],[-11.53,8.5447],[-11.5184,8.5464],[-11.5106,8.5466],[-11.5039,8.5456],[-11.4887,8.5405],[-11.4832,8.5393],[-11.4779,8.5389],[-11.4717,8.5392],[-11.4215,8.5517],[-11.4159,8.552],[-11.4111,8.5505],[-11.4069,8.548],[-11.3995,8.5416],[-11.3951,8.5393],[-11.39,8.538],[-11.3849,8.5376],[-11.3803,8.5358],[-11.3764,8.5331],[-11.373,8.5297],[-11.3692,8.5268],[-11.3649,8.5249],[-11.3593,8.5261],[-11.354,8.5296],[-11.3482,8.5373],[-11.3424,8.5487],[-11.3295,8.588],[-11.3291,8.5911],[-11.3291,8.5959],[-11.3301,8.6003],[-11.3322,8.6049],[-11.338,8.6127],[-11.3399,8.6173],[-11.3406,8.6226],[-11.3383,8.6332],[-11.3282,8.6638],[-11.326,8.6749],[-11.3261,8.6808],[-11.3273,8.6861],[-11.3297,8.6909],[-11.3351,8.6995],[-11.3369,8.7042],[-11.3378,8.7094],[-11.3372,8.7344],[-11.3415,8.7769],[-11.3396,8.7812],[-11.3367,8.785],[-11.332,8.7891],[-11.3089,8.804],[-11.3004,8.8112],[-11.2942,8.8187],[-11.2916,8.8228],[-11.281,8.8466],[-11.2625,8.9028],[-11.26,8.9071],[-11.2567,8.9108],[-11.2478,8.9155],[-11.1747,8.941],[-11.1654,8.9456],[-11.136,8.965],[-11.129,8.9719],[-11.1233,8.9799],[-11.121,8.9845],[-11.1194,8.9896],[-11.1187,8.9945],[-11.1173,9.0143],[-11.1147,9.0254],[-11.1108,9.0351],[-11.1,9.0518],[-11.0969,9.0555],[-11.0924,9.0593],[-11.0866,9.0628],[-11.077,9.067],[-11.0698,9.0692],[-11.0623,9.0702],[-10.9601,9.057],[-10.951,9.0546],[-10.9445,9.0516],[-10.9306,9.0381],[-10.912,9.0151],[-10.9049,9.0082],[-10.8945,9.0004],[-10.894,9.0001],[-10.8283,8.954],[-10.815,8.9467],[-10.8089,8.945],[-10.8013,8.9444],[-10.7896,8.9456],[-10.76,8.9539],[-10.7535,8.9547],[-10.7475,8.9545],[-10.7248,8.95],[-10.7124,8.9491],[-10.6995,8.95],[-10.6927,8.9526],[-10.6867,8.957],[-10.6805,8.9674],[-10.6807,8.973],[-10.6835,8.9774],[-10.7018,8.9871],[-10.706,8.9899],[-10.7088,8.993],[-10.71,8.9962],[-10.7095,8.9989],[-10.7092,9.0],[-10.7088,9.0004],[-10.6485,9.039],[-10.6311,9.0429],[-10.5926,9.0417],[-10.5922,9.0417]]]}},{"type":"Feature","properties":{"id":"SLE-762","name":"Northern","nameBn":"নর্দান প্রদেশ","type":"Province","bounds":[-13.3011,8.2454,-10.5922,9.996],"center":[-11.9468,9.1407]},"geometry":{"type":"Polygon","coordinates":[[[-11.2727,9.996],[-11.2473,9.9934],[-11.2134,9.9834],[-11.1996,9.9822],[-11.1885,9.9726],[-11.1813,9.9504],[-11.1677,9.8845],[-11.1603,9.8728],[-11.086,9.8262],[-11.0449,9.7871],[-11.0101,9.7427],[-10.9863,9.6978],[-10.9746,9.6638],[-10.9685,9.6542],[-10.9629,9.6508],[-10.9466,9.6448],[-10.9401,9.6397],[-10.9358,9.6319],[-10.9291,9.6057],[-10.9217,9.5959],[-10.896,9.5783],[-10.8863,9.5684],[-10.8828,9.5602],[-10.8777,9.5327],[-10.8706,9.5234],[-10.8602,9.5185],[-10.8526,9.5121],[-10.8537,9.4979],[-10.8591,9.473],[-10.8549,9.4553],[-10.844,9.4403],[-10.8291,9.4239],[-10.8134,9.4139],[-10.8115,9.4083],[-10.8222,9.4009],[-10.8318,9.3921],[-10.8194,9.3881],[-10.8017,9.3873],[-10.7952,9.3885],[-10.7854,9.3872],[-10.7748,9.3873],[-10.7655,9.3852],[-10.7535,9.3676],[-10.7415,9.3571],[-10.7282,9.3482],[-10.7178,9.3433],[-10.6751,9.3065],[-10.6738,9.294],[-10.6777,9.2829],[-10.6835,9.2718],[-10.6881,9.2593],[-10.6879,9.2507],[-10.6839,9.2338],[-10.6852,9.2245],[-10.6932,9.2128],[-10.7038,9.2063],[-10.715,9.2014],[-10.7247,9.1945],[-10.7426,9.1633],[-10.7535,9.1201],[-10.7463,9.0838],[-10.7104,9.073],[-10.6691,9.0744],[-10.6293,9.0704],[-10.606,9.0638],[-10.5941,9.0541],[-10.5931,9.0476],[-10.5922,9.0417],[-10.5926,9.0417],[-10.6311,9.0429],[-10.6485,9.039],[-10.7088,9.0004],[-10.7092,9.0],[-10.7095,8.9989],[-10.71,8.9962],[-10.7088,8.993],[-10.706,8.9899],[-10.7018,8.9871],[-10.6835,8.9774],[-10.6807,8.973],[-10.6805,8.9674],[-10.6867,8.957],[-10.6927,8.9526],[-10.6995,8.95],[-10.7124,8.9491],[-10.7248,8.95],[-10.7475,8.9545],[-10.7535,8.9547],[-10.76,8.9539],[-10.7896,8.9456],[-10.8013,8.9444],[-10.8089,8.945],[-10.815,8.9467],[-10.8283,8.954],[-10.894,9.0001],[-10.8945,9.0004],[-10.9049,9.0082],[-10.912,9.0151],[-10.9306,9.0381],[-10.9445,9.0516],[-10.951,9.0546],[-10.9601,9.057],[-11.0623,9.0702],[-11.0698,9.0692],[-11.077,9.067],[-11.0866,9.0628],[-11.0924,9.0593],[-11.0969,9.0555],[-11.1,9.0518],[-11.1108,9.0351],[-11.1147,9.0254],[-11.1173,9.0143],[-11.1187,8.9945],[-11.1194,8.9896],[-11.121,8.9845],[-11.1233,8.9799],[-11.129,8.9719],[-11.136,8.965],[-11.1654,8.9456],[-11.1747,8.941],[-11.2478,8.9155],[-11.2567,8.9108],[-11.26,8.9071],[-11.2625,8.9028],[-11.281,8.8466],[-11.2916,8.8228],[-11.2942,8.8187],[-11.3004,8.8112],[-11.3089,8.804],[-11.332,8.7891],[-11.3367,8.785],[-11.3396,8.7812],[-11.3415,8.7769],[-11.3372,8.7344],[-11.3378,8.7094],[-11.3369,8.7042],[-11.3351,8.6995],[-11.3297,8.6909],[-11.3273,8.6861],[-11.3261,8.6808],[-11.326,8.6749],[-11.3282,8.6638],[-11.3383,8.6332],[-11.3406,8.6226],[-11.3399,8.6173],[-11.338,8.6127],[-11.3322,8.6049],[-11.3301,8.6003],[-11.3291,8.5959],[-11.3291,8.5911],[-11.3295,8.588],[-11.3424,8.5487],[-11.3482,8.5373],[-11.354,8.5296],[-11.3593,8.5261],[-11.3649,8.5249],[-11.3692,8.5268],[-11.373,8.5297],[-11.3764,8.5331],[-11.3803,8.5358],[-11.3849,8.5376],[-11.39,8.538],[-11.3951,8.5393],[-11.3995,8.5416],[-11.4069,8.548],[-11.4111,8.5505],[-11.4159,8.552],[-11.4215,8.5517],[-11.4717,8.5392],[-11.4779,8.5389],[-11.4832,8.5393],[-11.4887,8.5405],[-11.5039,8.5456],[-11.5106,8.5466],[-11.5184,8.5464],[-11.53,8.5447],[-11.5367,8.5422],[-11.5422,8.5394],[-11.5584,8.5279],[-11.5802,8.5081],[-11.6027,8.4932],[-11.6176,8.4904],[-11.6742,8.4934],[-11.686,8.4918],[-11.6972,8.489],[-11.719,8.4791],[-11.7248,8.4752],[-11.7279,8.4715],[-11.7302,8.467],[-11.7312,8.4611],[-11.7331,8.4363],[-11.738,8.414],[-11.7422,8.4063],[-11.7491,8.3976],[-11.7724,8.3759],[-11.779,8.3715],[-11.8258,8.3514],[-11.8441,8.3463],[-11.8707,8.3445],[-11.8959,8.3464],[-11.9338,8.3562],[-11.9516,8.3671],[-11.9586,8.3693],[-11.9657,8.3674],[-11.9761,8.362],[-11.9831,8.3599],[-11.9891,8.3598],[-12.0018,8.3628],[-12.0177,8.3621],[-12.0269,8.3585],[-12.0335,8.3581],[-12.0388,8.3584],[-12.0415,8.3556],[-12.0594,8.332],[-12.0617,8.3276],[-12.0628,8.3225],[-12.0625,8.3174],[-12.0609,8.3126],[-12.0513,8.2943],[-12.0483,8.2906],[-12.0443,8.288],[-12.0401,8.286],[-12.0375,8.2821],[-12.0339,8.2722],[-12.0328,8.2671],[-12.0329,8.262],[-12.035,8.2511],[-12.0388,8.2455],[-12.0426,8.2454],[-12.0527,8.2476],[-12.0584,8.2482],[-12.0635,8.2498],[-12.0676,8.2526],[-12.0713,8.2558],[-12.0773,8.2637],[-12.0796,8.2682],[-12.0854,8.2835],[-12.0884,8.2875],[-12.0924,8.2903],[-12.1416,8.3096],[-12.2027,8.3437],[-12.2098,8.3463],[-12.2298,8.3491],[-12.2444,8.3493],[-12.2531,8.3482],[-12.2599,8.3464],[-12.2884,8.3341],[-12.2969,8.3329],[-12.3031,8.3338],[-12.3075,8.3363],[-12.3122,8.3384],[-12.3199,8.3398],[-12.3484,8.339],[-12.358,8.3373],[-12.3648,8.3347],[-12.3721,8.3276],[-12.378,8.3229],[-12.3872,8.317],[-12.4177,8.3039],[-12.422,8.3013],[-12.4255,8.298],[-12.4286,8.2943],[-12.4348,8.28],[-12.4381,8.2744],[-12.4431,8.2696],[-12.4528,8.2646],[-12.4583,8.2654],[-12.462,8.2686],[-12.4642,8.2734],[-12.4669,8.2776],[-12.4708,8.2806],[-12.4753,8.2829],[-12.5515,8.2871],[-12.5585,8.289],[-12.5619,8.2924],[-12.5647,8.2967],[-12.5664,8.3018],[-12.5676,8.3073],[-12.5679,8.3192],[-12.5689,8.3248],[-12.5721,8.3284],[-12.5763,8.3313],[-12.5859,8.3353],[-12.6035,8.3375],[-12.6218,8.3373],[-12.6306,8.3395],[-12.6359,8.3435],[-12.6383,8.3481],[-12.6412,8.3522],[-12.6452,8.3548],[-12.6502,8.3568],[-12.656,8.3577],[-12.7158,8.3569],[-12.7247,8.3551],[-12.7453,8.3449],[-12.7525,8.344],[-12.7581,8.3453],[-12.7614,8.3488],[-12.7639,8.3533],[-12.766,8.3579],[-12.7689,8.3622],[-12.7722,8.3658],[-12.7787,8.3691],[-12.7881,8.3717],[-12.8067,8.3739],[-12.8161,8.3728],[-12.8228,8.3702],[-12.826,8.3667],[-12.8285,8.3625],[-12.833,8.3531],[-12.8383,8.3448],[-12.8445,8.3372],[-12.8555,8.3208],[-12.8723,8.3033],[-12.8837,8.2939],[-12.9005,8.2745],[-12.9139,8.2949],[-12.9171,8.3089],[-12.9159,8.3272],[-12.9165,8.333],[-12.9187,8.3375],[-12.928,8.3425],[-12.943,8.347],[-13.0052,8.3591],[-13.0117,8.3649],[-13.0224,8.372],[-13.0391,8.3737],[-13.0424,8.3754],[-13.0336,8.3767],[-13.0336,8.3835],[-13.0458,8.3862],[-13.0563,8.3912],[-13.0638,8.3992],[-13.0677,8.4109],[-13.0541,8.4109],[-13.0541,8.4177],[-13.0834,8.4244],[-13.111,8.4338],[-13.1256,8.449],[-13.1161,8.473],[-13.1044,8.4816],[-13.0743,8.4931],[-13.0615,8.5002],[-13.054,8.5102],[-13.0479,8.5211],[-13.0399,8.5268],[-13.0267,8.5207],[-13.0271,8.5322],[-13.0242,8.5432],[-13.0192,8.5531],[-13.0131,8.5617],[-13.0033,8.5591],[-12.9371,8.5543],[-12.9183,8.5492],[-12.9072,8.548],[-12.899,8.551],[-12.879,8.5648],[-12.8697,8.5692],[-12.8881,8.5731],[-12.9093,8.5705],[-12.9281,8.5722],[-12.9303,8.5834],[-12.9311,8.5828],[-12.9119,8.6068],[-12.8759,8.6852],[-12.9009,8.6549],[-12.9169,8.6276],[-12.9364,8.607],[-12.9721,8.5964],[-12.9899,8.5973],[-13.0049,8.6002],[-13.0181,8.6002],[-13.0439,8.5847],[-13.0618,8.5832],[-13.0785,8.589],[-13.0888,8.6027],[-13.0663,8.6068],[-13.0544,8.619],[-13.0443,8.6334],[-13.0267,8.6442],[-13.0267,8.6511],[-13.0356,8.6525],[-13.0411,8.6543],[-13.0447,8.658],[-13.0478,8.6647],[-13.0541,8.6647],[-13.0635,8.6339],[-13.0706,8.622],[-13.0819,8.6169],[-13.098,8.6219],[-13.1122,8.6339],[-13.1304,8.6579],[-13.1406,8.6522],[-13.1484,8.6534],[-13.154,8.6601],[-13.1577,8.671],[-13.1626,8.654],[-13.1543,8.6431],[-13.1392,8.6361],[-13.1229,8.6306],[-13.1366,8.6238],[-13.109,8.6033],[-13.1075,8.581],[-13.1221,8.5596],[-13.1434,8.5418],[-13.1392,8.5334],[-13.1393,8.5245],[-13.1441,8.5174],[-13.1543,8.5146],[-13.1624,8.5176],[-13.1685,8.5252],[-13.1951,8.5692],[-13.2025,8.5849],[-13.2089,8.6143],[-13.2169,8.6326],[-13.2272,8.6496],[-13.2366,8.6613],[-13.2412,8.6722],[-13.242,8.6886],[-13.2402,8.7194],[-13.2352,8.7199],[-13.2402,8.8258],[-13.2123,8.8571],[-13.2009,8.8598],[-13.1965,8.8564],[-13.1932,8.8498],[-13.185,8.8435],[-13.1081,8.8441],[-13.0922,8.8466],[-13.0718,8.8555],[-13.0431,8.8583],[-12.9857,8.8571],[-13.027,8.8697],[-13.0336,8.8668],[-13.0411,8.8612],[-13.0582,8.8612],[-13.0768,8.8647],[-13.0888,8.8702],[-13.0998,8.8654],[-13.1158,8.8624],[-13.1304,8.8641],[-13.1366,8.8739],[-13.1398,8.8814],[-13.1467,8.8834],[-13.1539,8.8833],[-13.1577,8.8845],[-13.1584,8.8923],[-13.1559,8.8953],[-13.1526,8.8971],[-13.1426,8.9167],[-13.1226,8.926],[-13.0978,8.9305],[-13.0751,8.9316],[-13.0751,8.9391],[-13.0925,8.9446],[-13.1151,8.9406],[-13.1577,8.9254],[-13.181,8.923],[-13.2061,8.9284],[-13.2257,8.9425],[-13.2328,8.9664],[-13.2367,8.9619],[-13.2389,8.9614],[-13.24,8.9598],[-13.2402,8.9521],[-13.2549,8.9664],[-13.2605,8.9653],[-13.2623,8.9612],[-13.2646,8.9579],[-13.267,8.9521],[-13.2884,8.9695],[-13.285,9.017],[-13.3011,9.0353],[-13.3011,9.0415],[-13.2774,9.0586],[-13.2336,9.0721],[-13.2075,9.0767],[-13.1918,9.073],[-13.1538,9.0493],[-13.1311,9.0415],[-13.1159,9.0439],[-13.0856,9.066],[-13.047,9.0845],[-13.0289,9.096],[-13.0152,9.1128],[-13.002,9.1441],[-12.9938,9.1587],[-12.9842,9.1723],[-12.9785,9.1752],[-12.9628,9.1767],[-12.9592,9.1778],[-12.9602,9.1861],[-12.9739,9.2028],[-12.9784,9.2128],[-12.9738,9.2416],[-12.9579,9.2724],[-12.937,9.2871],[-12.9175,9.267],[-12.8956,9.2785],[-12.8761,9.2798],[-12.8569,9.2785],[-12.8358,9.282],[-12.8191,9.2958],[-12.7953,9.3351],[-12.7779,9.3438],[-12.7642,9.3477],[-12.7636,9.3553],[-12.7676,9.3644],[-12.7678,9.3723],[-12.7598,9.3828],[-12.7541,9.3878],[-12.7372,9.3972],[-12.7329,9.3965],[-12.7278,9.3931],[-12.7229,9.3921],[-12.719,9.3984],[-12.7165,9.4044],[-12.7131,9.4082],[-12.7062,9.4139],[-12.7016,9.4202],[-12.6675,9.5287],[-12.6673,9.5337],[-12.6693,9.5382],[-12.6686,9.5424],[-12.661,9.546],[-12.6553,9.5477],[-12.6521,9.5494],[-12.6499,9.5521],[-12.6473,9.5566],[-12.6386,9.5894],[-12.6338,9.5979],[-12.6246,9.6013],[-12.6149,9.6001],[-12.6068,9.6007],[-12.6028,9.6094],[-12.6016,9.6517],[-12.5986,9.6549],[-12.5823,9.6834],[-12.5731,9.6926],[-12.542,9.7113],[-12.5388,9.7119],[-12.5375,9.7157],[-12.5377,9.7279],[-12.5357,9.7328],[-12.5307,9.7328],[-12.5256,9.7321],[-12.5225,9.7345],[-12.5229,9.7394],[-12.5266,9.7506],[-12.5273,9.7536],[-12.5136,9.8278],[-12.5137,9.8383],[-12.515,9.8451],[-12.5143,9.8513],[-12.5083,9.8604],[-12.4723,9.8813],[-12.427,9.8976],[-12.2767,9.9293],[-12.2536,9.9284],[-12.2356,9.9168],[-12.2174,9.9006],[-12.1936,9.8861],[-12.1748,9.8792],[-12.1583,9.8756],[-12.1413,9.8749],[-12.1098,9.8817],[-11.9218,9.9222],[-11.915,9.9315],[-11.9101,9.9925],[-11.5875,9.9943],[-11.4849,9.9948],[-11.4492,9.995],[-11.2727,9.996]]]}},{"type":"Feature","properties":{"id":"SLE-760","name":"Southern","nameBn":"দক্ষিণ প্রদেশ","type":"Province","bounds":[-12.9857,6.9194,-11.1442,8.5081],"center":[-12.0512,7.8542]},"geometry":{"type":"MultiPolygon","coordinates":[[[[-11.1442,7.3452],[-11.2093,7.2622],[-11.2179,7.2541],[-11.3002,7.2171],[-11.3172,7.2136],[-11.352,7.1593],[-11.3701,7.1426],[-11.3732,7.1388],[-11.3706,7.1284],[-11.3564,7.1054],[-11.3531,7.0928],[-11.3551,7.0841],[-11.3605,7.0786],[-11.3679,7.076],[-11.3897,7.0735],[-11.3929,7.0669],[-11.3893,7.0467],[-11.3915,7.0318],[-11.3977,7.0128],[-11.4073,6.9964],[-11.4347,6.9808],[-11.4389,6.9639],[-11.4367,6.9385],[-11.4445,6.9339],[-11.4762,6.9194],[-11.4928,6.9328],[-11.5339,6.9421],[-11.5539,6.9525],[-11.5729,6.9658],[-11.588,6.9789],[-11.579,6.9804],[-11.5743,6.9826],[-11.5713,6.9863],[-11.5675,6.9926],[-11.5955,6.9933],[-11.6077,6.9914],[-11.6159,6.9858],[-11.6221,6.9858],[-11.6312,7.0082],[-11.6452,7.0228],[-11.6982,7.067],[-11.8396,7.149],[-12.0737,7.2336],[-12.3148,7.329],[-12.5066,7.3898],[-12.4762,7.4151],[-12.4396,7.4165],[-12.4022,7.4046],[-12.3695,7.3898],[-12.3711,7.3986],[-12.3759,7.405],[-12.3834,7.409],[-12.3933,7.4103],[-12.401,7.4125],[-12.4092,7.4247],[-12.4172,7.4308],[-12.4359,7.4382],[-12.4465,7.4391],[-12.4643,7.4296],[-12.4728,7.434],[-12.4809,7.4412],[-12.4892,7.4451],[-12.4924,7.4536],[-12.4836,7.4724],[-12.4708,7.4912],[-12.452,7.5075],[-12.4415,7.5229],[-12.4283,7.5336],[-12.4104,7.5277],[-12.3994,7.5329],[-12.3878,7.5346],[-12.3627,7.5344],[-12.3575,7.5355],[-12.3454,7.5397],[-12.3387,7.5407],[-12.3315,7.5386],[-12.3193,7.5295],[-12.3148,7.5277],[-12.2951,7.5331],[-12.2781,7.5434],[-12.2589,7.5524],[-12.2322,7.5537],[-12.2343,7.5571],[-12.2366,7.5645],[-12.2384,7.568],[-12.2202,7.5735],[-12.2018,7.576],[-12.1881,7.5831],[-12.1838,7.6027],[-12.1913,7.6027],[-12.1975,7.6012],[-12.2043,7.6008],[-12.2113,7.5998],[-12.218,7.5959],[-12.2239,7.605],[-12.2255,7.609],[-12.2353,7.6071],[-12.2467,7.6068],[-12.2563,7.6052],[-12.2602,7.5993],[-12.2628,7.5906],[-12.2693,7.5864],[-12.2869,7.5816],[-12.2987,7.576],[-12.3179,7.5754],[-12.3277,7.5732],[-12.3483,7.5634],[-12.37,7.5593],[-12.3913,7.5505],[-12.4036,7.5475],[-12.41,7.5482],[-12.4301,7.5527],[-12.4411,7.5537],[-12.4637,7.562],[-12.4711,7.5811],[-12.4763,7.6022],[-12.493,7.6164],[-12.493,7.6225],[-12.488,7.6271],[-12.4852,7.633],[-12.4845,7.6407],[-12.4855,7.6505],[-12.493,7.6437],[-12.5004,7.6391],[-12.507,7.6386],[-12.5128,7.6443],[-12.5196,7.6443],[-12.5196,7.6301],[-12.5439,7.6536],[-12.5314,7.6871],[-12.493,7.7399],[-12.4766,7.7313],[-12.4713,7.7263],[-12.465,7.7331],[-12.4709,7.7462],[-12.4718,7.76],[-12.4659,7.7706],[-12.452,7.7741],[-12.4722,7.7877],[-12.4901,7.7719],[-12.5196,7.7263],[-12.5695,7.6955],[-12.6019,7.6838],[-12.6164,7.6952],[-12.6242,7.6948],[-12.6884,7.7069],[-12.6948,7.7071],[-12.7012,7.7081],[-12.7114,7.712],[-12.7512,7.74],[-12.7657,7.7466],[-12.7781,7.7558],[-12.7872,7.7741],[-12.7905,7.7924],[-12.7875,7.8046],[-12.7775,7.8134],[-12.7598,7.8218],[-12.7779,7.819],[-12.8287,7.7983],[-12.8759,7.8287],[-12.8893,7.8548],[-12.8986,7.8657],[-12.9137,7.8703],[-12.9246,7.8749],[-12.9379,7.8864],[-12.9591,7.9112],[-12.9394,7.9151],[-12.9055,7.9341],[-12.8867,7.9385],[-12.871,7.9365],[-12.8545,7.9316],[-12.8213,7.9174],[-12.8415,7.938],[-12.8669,7.9555],[-12.8884,7.9753],[-12.9053,8.0241],[-12.9072,8.0273],[-12.9118,8.0307],[-12.9101,8.0383],[-12.9038,8.0515],[-12.9015,8.0657],[-12.8952,8.0796],[-12.8863,8.0924],[-12.8759,8.103],[-12.9081,8.1074],[-12.9215,8.1199],[-12.9294,8.1394],[-12.9448,8.1645],[-12.9562,8.1722],[-12.9697,8.1778],[-12.9811,8.1862],[-12.9857,8.2023],[-12.9851,8.2167],[-12.983,8.2298],[-12.9787,8.242],[-12.9762,8.2465],[-12.976,8.2466],[-12.9744,8.2479],[-12.9254,8.2595],[-12.9142,8.264],[-12.9005,8.2745],[-12.8837,8.2939],[-12.8723,8.3033],[-12.8555,8.3208],[-12.8445,8.3372],[-12.8383,8.3448],[-12.833,8.3531],[-12.8285,8.3625],[-12.826,8.3667],[-12.8228,8.3702],[-12.8161,8.3728],[-12.8067,8.3739],[-12.7881,8.3717],[-12.7787,8.3691],[-12.7722,8.3658],[-12.7689,8.3622],[-12.766,8.3579],[-12.7639,8.3533],[-12.7614,8.3488],[-12.7581,8.3453],[-12.7525,8.344],[-12.7453,8.3449],[-12.7247,8.3551],[-12.7158,8.3569],[-12.656,8.3577],[-12.6502,8.3568],[-12.6452,8.3548],[-12.6412,8.3522],[-12.6383,8.3481],[-12.6359,8.3435],[-12.6306,8.3395],[-12.6218,8.3373],[-12.6035,8.3375],[-12.5859,8.3353],[-12.5763,8.3313],[-12.5721,8.3284],[-12.5689,8.3248],[-12.5679,8.3192],[-12.5676,8.3073],[-12.5664,8.3018],[-12.5647,8.2967],[-12.5619,8.2924],[-12.5585,8.289],[-12.5515,8.2871],[-12.4753,8.2829],[-12.4708,8.2806],[-12.4669,8.2776],[-12.4642,8.2734],[-12.462,8.2686],[-12.4583,8.2654],[-12.4528,8.2646],[-12.4431,8.2696],[-12.4381,8.2744],[-12.4348,8.28],[-12.4286,8.2943],[-12.4255,8.298],[-12.422,8.3013],[-12.4177,8.3039],[-12.3872,8.317],[-12.378,8.3229],[-12.3721,8.3276],[-12.3648,8.3347],[-12.358,8.3373],[-12.3484,8.339],[-12.3199,8.3398],[-12.3122,8.3384],[-12.3075,8.3363],[-12.3031,8.3338],[-12.2969,8.3329],[-12.2884,8.3341],[-12.2599,8.3464],[-12.2531,8.3482],[-12.2444,8.3493],[-12.2298,8.3491],[-12.2098,8.3463],[-12.2027,8.3437],[-12.1416,8.3096],[-12.0924,8.2903],[-12.0884,8.2875],[-12.0854,8.2835],[-12.0796,8.2682],[-12.0773,8.2637],[-12.0713,8.2558],[-12.0676,8.2526],[-12.0635,8.2498],[-12.0584,8.2482],[-12.0527,8.2476],[-12.0426,8.2454],[-12.0388,8.2455],[-12.035,8.2511],[-12.0329,8.262],[-12.0328,8.2671],[-12.0339,8.2722],[-12.0375,8.2821],[-12.0401,8.286],[-12.0443,8.288],[-12.0483,8.2906],[-12.0513,8.2943],[-12.0609,8.3126],[-12.0625,8.3174],[-12.0628,8.3225],[-12.0617,8.3276],[-12.0594,8.332],[-12.0415,8.3556],[-12.0388,8.3584],[-12.0335,8.3581],[-12.0269,8.3585],[-12.0177,8.3621],[-12.0018,8.3628],[-11.9891,8.3598],[-11.9831,8.3599],[-11.9761,8.362],[-11.9657,8.3674],[-11.9586,8.3693],[-11.9516,8.3671],[-11.9338,8.3562],[-11.8959,8.3464],[-11.8707,8.3445],[-11.8441,8.3463],[-11.8258,8.3514],[-11.779,8.3715],[-11.7724,8.3759],[-11.7491,8.3976],[-11.7422,8.4063],[-11.738,8.414],[-11.7331,8.4363],[-11.7312,8.4611],[-11.7302,8.467],[-11.7279,8.4715],[-11.7248,8.4752],[-11.719,8.4791],[-11.6972,8.489],[-11.686,8.4918],[-11.6742,8.4934],[-11.6176,8.4904],[-11.6027,8.4932],[-11.5802,8.5081],[-11.5697,8.466],[-11.5621,8.4524],[-11.5533,8.4449],[-11.5388,8.428],[-11.5354,8.4203],[-11.534,8.4136],[-11.5355,8.3969],[-11.5346,8.3811],[-11.532,8.3731],[-11.529,8.3669],[-11.5076,8.347],[-11.5033,8.3444],[-11.486,8.3279],[-11.4434,8.273],[-11.3752,8.2056],[-11.3686,8.1959],[-11.3655,8.1893],[-11.3658,8.1845],[-11.3665,8.1808],[-11.3664,8.1761],[-11.3655,8.1708],[-11.3641,8.1653],[-11.3397,8.0979],[-11.3358,8.0777],[-11.3351,8.0398],[-11.3315,8.0129],[-11.3312,8.0019],[-11.3323,7.9909],[-11.3378,7.9696],[-11.342,7.9601],[-11.3447,7.956],[-11.3478,7.9523],[-11.3515,7.9491],[-11.3595,7.9439],[-11.3714,7.9304],[-11.3749,7.9271],[-11.4395,7.8807],[-11.4422,7.8766],[-11.4442,7.8718],[-11.4544,7.8258],[-11.4549,7.8012],[-11.4538,7.793],[-11.452,7.7877],[-11.4493,7.7884],[-11.4464,7.7913],[-11.4317,7.8106],[-11.4286,7.8135],[-11.4256,7.8151],[-11.4234,7.8131],[-11.4066,7.7702],[-11.4054,7.7631],[-11.4064,7.7572],[-11.4084,7.7528],[-11.4102,7.7476],[-11.4141,7.7244],[-11.4179,7.7147],[-11.4231,7.7064],[-11.4268,7.703],[-11.4311,7.7004],[-11.4361,7.6995],[-11.4407,7.7006],[-11.4436,7.7041],[-11.4476,7.7141],[-11.45,7.7184],[-11.453,7.7213],[-11.4566,7.7215],[-11.4604,7.7196],[-11.4927,7.6967],[-11.5205,7.6807],[-11.52,7.6784],[-11.5168,7.6763],[-11.5066,7.6722],[-11.5013,7.6593],[-11.4959,7.6362],[-11.4917,7.5822],[-11.4877,7.5605],[-11.483,7.5482],[-11.4781,7.5464],[-11.4735,7.5441],[-11.4684,7.5427],[-11.4628,7.5427],[-11.4579,7.5444],[-11.4534,7.5469],[-11.4494,7.5499],[-11.4273,7.5699],[-11.3958,7.6071],[-11.3878,7.6127],[-11.3784,7.6173],[-11.3728,7.6181],[-11.367,7.6178],[-11.3617,7.6165],[-11.3571,7.6143],[-11.353,7.6115],[-11.3494,7.6081],[-11.3345,7.588],[-11.3362,7.5848],[-11.3593,7.5607],[-11.3613,7.553],[-11.3624,7.5424],[-11.3589,7.4976],[-11.3595,7.4913],[-11.3595,7.4701],[-11.3569,7.4467],[-11.3579,7.4244],[-11.356,7.4198],[-11.3521,7.417],[-11.3412,7.4142],[-11.3291,7.4127],[-11.3159,7.4123],[-11.3039,7.4108],[-11.2777,7.4033],[-11.2437,7.3893],[-11.2177,7.3742],[-11.1447,7.3454],[-11.1442,7.3452]]],[[[-12.493,7.568],[-12.5044,7.561],[-12.5054,7.5495],[-12.4991,7.5202],[-12.5018,7.5024],[-12.5087,7.4918],[-12.5176,7.4818],[-12.5264,7.4656],[-12.5275,7.4497],[-12.5189,7.4166],[-12.5196,7.4041],[-12.5323,7.3925],[-12.5497,7.3896],[-12.5658,7.3957],[-12.5749,7.4103],[-12.5544,7.4103],[-12.568,7.4354],[-12.5856,7.4599],[-12.6055,7.4787],[-12.6261,7.486],[-12.6406,7.4873],[-12.7318,7.5113],[-12.7644,7.528],[-12.8492,7.5407],[-12.9517,7.568],[-12.9517,7.5754],[-12.9143,7.5844],[-12.9103,7.5981],[-12.8981,7.6107],[-12.8833,7.6164],[-12.8448,7.6225],[-12.7357,7.6225],[-12.7189,7.6249],[-12.6811,7.6347],[-12.6214,7.6397],[-12.6007,7.6382],[-12.5811,7.6301],[-12.5959,7.6127],[-12.586,7.6076],[-12.5475,7.609],[-12.5297,7.6038],[-12.5154,7.5949],[-12.5035,7.5826],[-12.493,7.568]]]]}},{"type":"Feature","properties":{"id":"SLE-761","name":"Western","nameBn":"পশ্চিমাঞ্চল","type":"Province","bounds":[-13.2868,8.1713,-12.9005,8.5002],"center":[-13.0935,8.3104]},"geometry":{"type":"Polygon","coordinates":[[[-12.9762,8.2465],[-12.9721,8.2539],[-12.9811,8.2521],[-12.9869,8.2482],[-12.9921,8.2438],[-12.9994,8.2402],[-13.0063,8.2387],[-13.0106,8.2389],[-13.0154,8.2397],[-13.0236,8.2402],[-13.0677,8.2333],[-13.0904,8.2246],[-13.1179,8.2088],[-13.1427,8.1898],[-13.1577,8.1713],[-13.1639,8.1713],[-13.1617,8.1872],[-13.1639,8.2296],[-13.1683,8.2507],[-13.1688,8.263],[-13.1639,8.2744],[-13.1756,8.2838],[-13.2103,8.3391],[-13.2123,8.3395],[-13.2145,8.3431],[-13.2191,8.3437],[-13.2239,8.3456],[-13.2259,8.3532],[-13.231,8.3638],[-13.2564,8.3972],[-13.2637,8.4017],[-13.2681,8.4114],[-13.2742,8.4209],[-13.2868,8.4245],[-13.2729,8.4419],[-13.2685,8.4499],[-13.267,8.4627],[-13.2697,8.4721],[-13.2827,8.491],[-13.2868,8.5002],[-13.2655,8.497],[-13.2595,8.4934],[-13.2527,8.4975],[-13.2504,8.4951],[-13.2458,8.4866],[-13.2289,8.4937],[-13.2108,8.4934],[-13.193,8.4878],[-13.1776,8.4792],[-13.1649,8.465],[-13.1444,8.4312],[-13.11,8.4132],[-13.0857,8.3904],[-13.0604,8.3727],[-13.0424,8.3754],[-13.0391,8.3737],[-13.0224,8.372],[-13.0117,8.3649],[-13.0052,8.3591],[-12.943,8.347],[-12.928,8.3425],[-12.9187,8.3375],[-12.9165,8.333],[-12.9159,8.3272],[-12.9171,8.3089],[-12.9139,8.2949],[-12.9005,8.2745],[-12.9142,8.264],[-12.9254,8.2595],[-12.9744,8.2479],[-12.976,8.2466],[-12.9762,8.2465]]]}}]}