{"type":"FeatureCollection","features":[{"type":"Feature","properties":{"id":"STP-4862","name":"Príncipe","nameBn":"প্রিনসেপ","type":null,"bounds":[7.3294,1.5312,7.4627,1.6998],"center":[7.3937,1.6077]},"geometry":{"type":"Polygon","coordinates":[[[7.4627,1.6745],[7.4574,1.67],[7.4461,1.6655],[7.4348,1.6589],[7.4287,1.6479],[7.4435,1.6455],[7.4567,1.6383],[7.4618,1.6308],[7.4526,1.6273],[7.4382,1.6239],[7.4344,1.6152],[7.4356,1.5926],[7.4305,1.5727],[7.4255,1.5627],[7.4182,1.5585],[7.4058,1.5565],[7.4021,1.5507],[7.4025,1.5421],[7.4014,1.5312],[7.3988,1.535],[7.3957,1.5424],[7.3941,1.5454],[7.3874,1.5425],[7.381,1.538],[7.3722,1.5541],[7.3584,1.5589],[7.3438,1.5599],[7.3325,1.5653],[7.3294,1.5963],[7.3301,1.6147],[7.3394,1.6131],[7.356,1.62],[7.364,1.6294],[7.3665,1.6418],[7.3665,1.6581],[7.3718,1.6772],[7.3853,1.6923],[7.403,1.6998],[7.4212,1.6957],[7.4487,1.6932],[7.4597,1.6883],[7.4627,1.6745]]]}},{"type":"Feature","properties":{"id":"STP-4861","name":"São Tomé","nameBn":"সাও টোমে","type":null,"bounds":[6.4617,0.0241,6.7609,0.4108],"center":[6.6118,0.2346]},"geometry":{"type":"Polygon","coordinates":[[[6.6814,0.4071],[6.7039,0.3918],[6.7271,0.3669],[6.7461,0.3381],[6.7565,0.3109],[6.7609,0.2842],[6.7605,0.2683],[6.7565,0.2501],[6.7485,0.2307],[6.7401,0.2186],[6.7156,0.1955],[6.7031,0.1804],[6.6746,0.1334],[6.6685,0.131],[6.6592,0.1289],[6.6533,0.1246],[6.66,0.1073],[6.6526,0.1032],[6.6414,0.101],[6.6336,0.0986],[6.6182,0.0812],[6.6162,0.0781],[6.5829,0.0773],[6.5784,0.0781],[6.5677,0.0421],[6.5573,0.0283],[6.5442,0.0439],[6.537,0.0264],[6.5266,0.0241],[6.5164,0.0336],[6.5101,0.0514],[6.5117,0.0527],[6.5166,0.07],[6.5169,0.0781],[6.5137,0.0883],[6.5096,0.0927],[6.5057,0.0949],[6.5027,0.0986],[6.4673,0.2125],[6.4617,0.2222],[6.4663,0.231],[6.4681,0.2398],[6.4685,0.26],[6.4709,0.2679],[6.4902,0.291],[6.4943,0.3],[6.4954,0.3064],[6.4978,0.3127],[6.5331,0.3481],[6.5408,0.3519],[6.5783,0.3646],[6.6095,0.3904],[6.6419,0.4108],[6.6814,0.4071]]]}}]}