{"type":"FeatureCollection","features":[{"type":"Feature","properties":{"id":"SVK-1052","name":"Banskobystrický","nameBn":"বান্সাকা বাইস্ট্রিকা অঞ্চল","type":"Region","bounds":[18.4887,48.0606,20.466,48.9424],"center":[19.477,48.5213]},"geometry":{"type":"Polygon","coordinates":[[[20.466,48.4638],[20.4356,48.4424],[20.4206,48.4292],[20.409,48.4137],[20.3702,48.3343],[20.3493,48.3055],[20.3243,48.2799],[20.2952,48.2604],[20.2724,48.2525],[20.2603,48.2559],[20.249,48.2642],[20.2291,48.2709],[20.2178,48.2676],[20.1876,48.249],[20.1709,48.244],[20.1533,48.2453],[20.1431,48.2478],[20.1345,48.2467],[20.122,48.2367],[20.1181,48.2297],[20.1126,48.2117],[20.1053,48.2028],[20.097,48.1984],[20.0781,48.1935],[20.0383,48.1772],[20.035,48.1759],[19.9969,48.1679],[19.9739,48.1584],[19.9286,48.1301],[19.9051,48.1243],[19.8843,48.1296],[19.8463,48.1527],[19.8217,48.1579],[19.7856,48.1487],[19.7761,48.1495],[19.7667,48.159],[19.7692,48.1674],[19.7748,48.1761],[19.7743,48.1859],[19.7566,48.2003],[19.7331,48.2029],[19.687,48.1969],[19.677,48.2004],[19.6553,48.2184],[19.6439,48.2248],[19.6339,48.2268],[19.6232,48.227],[19.5312,48.2107],[19.514,48.204],[19.503,48.1894],[19.4936,48.1507],[19.4817,48.1349],[19.4814,48.1344],[19.4812,48.134],[19.4814,48.1333],[19.4817,48.1327],[19.4833,48.1272],[19.4838,48.1218],[19.4833,48.1165],[19.4817,48.1113],[19.4282,48.0859],[19.2932,48.0878],[19.2335,48.0621],[19.2225,48.0606],[19.0985,48.0707],[19.0387,48.0649],[19.019,48.0655],[19.019,48.0659],[19.0179,48.0751],[19.0176,48.0875],[19.0195,48.0908],[19.0308,48.102],[19.0338,48.1069],[19.0366,48.1097],[19.0403,48.1121],[19.0453,48.1142],[19.0498,48.1168],[19.0557,48.1211],[19.063,48.1277],[19.0665,48.1345],[19.067,48.1414],[19.0609,48.1597],[19.0606,48.1651],[19.0634,48.1725],[19.0654,48.1765],[19.0674,48.1794],[19.0719,48.1837],[19.073,48.1858],[19.0733,48.1877],[19.0733,48.1907],[19.0736,48.1924],[19.0724,48.195],[19.0712,48.1966],[19.0577,48.2068],[19.0416,48.1969],[19.0363,48.1942],[19.0313,48.1924],[19.0263,48.192],[19.0229,48.1921],[19.017,48.1929],[19.0142,48.1925],[19.0107,48.1916],[18.9939,48.1889],[18.98,48.184],[18.9747,48.1827],[18.968,48.1821],[18.9599,48.1804],[18.9562,48.1787],[18.9525,48.1775],[18.945,48.1761],[18.9418,48.1745],[18.9387,48.1718],[18.9356,48.1677],[18.9343,48.1645],[18.9339,48.1625],[18.9332,48.1614],[18.9323,48.1608],[18.9305,48.1607],[18.9243,48.1612],[18.9197,48.161],[18.9101,48.159],[18.9051,48.1587],[18.9002,48.1591],[18.8921,48.1607],[18.8892,48.1608],[18.8837,48.1602],[18.8809,48.1603],[18.8768,48.161],[18.872,48.1628],[18.8527,48.1731],[18.8485,48.1746],[18.8429,48.1755],[18.838,48.1758],[18.8336,48.1757],[18.8304,48.1745],[18.8279,48.1727],[18.8255,48.1692],[18.8235,48.1672],[18.8211,48.1658],[18.8186,48.1654],[18.8159,48.1658],[18.8135,48.1671],[18.8104,48.1701],[18.8085,48.1742],[18.807,48.1793],[18.807,48.1852],[18.8086,48.1895],[18.8141,48.1947],[18.8206,48.1988],[18.8248,48.2023],[18.8296,48.2039],[18.831,48.2056],[18.8308,48.2086],[18.8268,48.2151],[18.8186,48.225],[18.8169,48.2286],[18.8175,48.2312],[18.8212,48.2335],[18.8226,48.2349],[18.8226,48.2365],[18.8135,48.243],[18.8141,48.2465],[18.8178,48.2514],[18.8291,48.2616],[18.8414,48.2697],[18.8445,48.2744],[18.8465,48.2781],[18.8548,48.3065],[18.8156,48.3663],[18.8094,48.3713],[18.7835,48.3858],[18.7548,48.4141],[18.743,48.4162],[18.7385,48.415],[18.7329,48.4126],[18.7234,48.4051],[18.709,48.3955],[18.7062,48.393],[18.7027,48.3887],[18.6969,48.3846],[18.6956,48.3827],[18.6952,48.3803],[18.694,48.3778],[18.6919,48.3757],[18.6876,48.3724],[18.6868,48.3693],[18.6865,48.3661],[18.6856,48.3638],[18.6831,48.3611],[18.651,48.3542],[18.5883,48.3477],[18.5757,48.3448],[18.5673,48.3387],[18.5608,48.3318],[18.5588,48.33],[18.5518,48.326],[18.549,48.324],[18.5458,48.3196],[18.5413,48.3199],[18.5312,48.3311],[18.5362,48.3357],[18.5445,48.3414],[18.547,48.3437],[18.549,48.346],[18.5498,48.3487],[18.5507,48.3511],[18.5524,48.353],[18.5591,48.3566],[18.5625,48.3592],[18.5665,48.3634],[18.5692,48.3683],[18.5715,48.3744],[18.5724,48.381],[18.5712,48.3889],[18.5672,48.402],[18.5596,48.4116],[18.5541,48.4158],[18.5496,48.4169],[18.5467,48.4171],[18.5445,48.4185],[18.5436,48.4217],[18.5447,48.4274],[18.5447,48.4333],[18.5424,48.439],[18.534,48.4491],[18.5309,48.4545],[18.5316,48.4611],[18.5343,48.4641],[18.5427,48.4714],[18.5439,48.4732],[18.5433,48.4744],[18.5376,48.4751],[18.5359,48.4766],[18.5354,48.4794],[18.5371,48.4859],[18.5379,48.4904],[18.5382,48.4951],[18.5362,48.4997],[18.5328,48.5025],[18.5243,48.5045],[18.5155,48.5045],[18.4912,48.5009],[18.4887,48.5023],[18.4899,48.5059],[18.4963,48.5137],[18.511,48.5257],[18.5132,48.528],[18.5113,48.5312],[18.5045,48.5344],[18.4899,48.5492],[18.5012,48.5654],[18.5992,48.5736],[18.5995,48.5758],[18.6001,48.5773],[18.6035,48.5839],[18.6038,48.5856],[18.6038,48.5871],[18.6036,48.5887],[18.6036,48.5903],[18.6043,48.5922],[18.6058,48.5952],[18.6085,48.5983],[18.6131,48.6027],[18.628,48.6142],[18.6546,48.6397],[18.7093,48.63],[18.7149,48.6302],[18.7216,48.6312],[18.7217,48.6352],[18.7196,48.644],[18.7213,48.6461],[18.7247,48.6487],[18.7389,48.6568],[18.7428,48.6602],[18.7666,48.6901],[18.7714,48.6942],[18.777,48.6961],[18.7917,48.6965],[18.7964,48.6975],[18.7999,48.6991],[18.8138,48.7132],[18.8257,48.7298],[18.8291,48.7331],[18.8311,48.7356],[18.8324,48.7375],[18.833,48.7442],[18.8758,48.7641],[18.8881,48.7666],[18.8898,48.7651],[18.891,48.7631],[18.8918,48.7611],[18.8932,48.7595],[18.8944,48.7583],[18.8963,48.757],[18.8986,48.7543],[18.8991,48.7529],[18.916,48.7503],[19.001,48.7469],[19.0147,48.7636],[19.017,48.7697],[19.0203,48.7814],[19.0207,48.7863],[19.0201,48.7895],[19.0187,48.7909],[19.0054,48.7989],[18.9996,48.806],[18.9987,48.8104],[19.0,48.8135],[19.0029,48.8158],[19.0068,48.8196],[19.0077,48.8238],[19.0068,48.8297],[19.0014,48.842],[19.0012,48.8454],[19.0034,48.8478],[19.02,48.8532],[19.0248,48.8566],[19.0277,48.859],[19.0392,48.8767],[19.0867,48.8749],[19.2521,48.8906],[19.26,48.8905],[19.2614,48.8889],[19.263,48.8853],[19.2647,48.8841],[19.2678,48.8831],[19.2701,48.8808],[19.2721,48.8772],[19.2738,48.8692],[19.2743,48.8655],[19.274,48.8631],[19.2729,48.8625],[19.2693,48.8622],[19.268,48.8618],[19.2669,48.8605],[19.2645,48.8564],[19.2664,48.8557],[19.2695,48.8556],[19.3103,48.8598],[19.3158,48.861],[19.321,48.8636],[19.323,48.8652],[19.3244,48.8669],[19.3254,48.8689],[19.3268,48.8753],[19.3285,48.879],[19.3392,48.8883],[19.3602,48.8963],[19.3936,48.9235],[19.5615,48.9424],[19.6374,48.9362],[19.7016,48.9205],[19.7092,48.9166],[19.7147,48.9125],[19.7184,48.9112],[19.7283,48.9095],[19.7321,48.9083],[19.735,48.9064],[19.7376,48.9041],[19.7428,48.9009],[19.7466,48.8999],[19.7504,48.8999],[19.7623,48.9044],[19.8081,48.9131],[19.8174,48.913],[19.8455,48.9078],[19.9412,48.9064],[19.9439,48.907],[19.9558,48.9078],[19.9733,48.9134],[19.9788,48.9135],[19.9831,48.9131],[19.9962,48.9066],[20.1401,48.8947],[20.1591,48.8957],[20.1746,48.9047],[20.1813,48.9048],[20.1996,48.8986],[20.2192,48.8943],[20.2246,48.8924],[20.2319,48.8886],[20.2727,48.8728],[20.25,48.8682],[20.203,48.8216],[20.1986,48.8158],[20.1996,48.8109],[20.1993,48.8078],[20.1986,48.8053],[20.198,48.7957],[20.1979,48.7878],[20.2008,48.778],[20.2013,48.7727],[20.1971,48.7684],[20.1923,48.7644],[20.187,48.7611],[20.1836,48.7583],[20.1813,48.7557],[20.1805,48.7513],[20.1808,48.7453],[20.1844,48.7335],[20.1883,48.7274],[20.1962,48.7223],[20.2074,48.7208],[20.2097,48.7199],[20.261,48.6918],[20.2665,48.6844],[20.2873,48.6443],[20.2941,48.6259],[20.2932,48.6241],[20.2922,48.6223],[20.2918,48.6202],[20.2919,48.6179],[20.2936,48.6161],[20.2973,48.6137],[20.3063,48.6106],[20.3135,48.6092],[20.3244,48.6082],[20.3278,48.6074],[20.3362,48.6044],[20.345,48.6021],[20.3472,48.601],[20.3476,48.5994],[20.3448,48.5925],[20.341,48.5795],[20.3394,48.5764],[20.3376,48.574],[20.3349,48.5716],[20.3323,48.5684],[20.33,48.5647],[20.3273,48.5591],[20.32,48.5354],[20.3173,48.5313],[20.3118,48.5257],[20.308,48.5207],[20.3054,48.5159],[20.3035,48.5095],[20.3039,48.5054],[20.3051,48.5019],[20.3085,48.4972],[20.3096,48.4945],[20.3097,48.4916],[20.309,48.4891],[20.3087,48.4866],[20.3111,48.4834],[20.3159,48.4801],[20.3335,48.473],[20.3358,48.471],[20.3351,48.4694],[20.3332,48.4675],[20.332,48.4658],[20.3312,48.4642],[20.3315,48.4631],[20.336,48.4627],[20.3782,48.4651],[20.3939,48.4636],[20.4021,48.464],[20.4195,48.4704],[20.4267,48.4722],[20.4487,48.4723],[20.4654,48.4641],[20.466,48.4638]]]}},{"type":"Feature","properties":{"id":"SVK-1051","name":"Bratislavský","nameBn":"ব্রাতিসাবা অঞ্চল","type":"Region","bounds":[16.8445,48.0054,17.5322,48.6562],"center":[17.1882,48.2935]},"geometry":{"type":"Polygon","coordinates":[[[17.1483,48.0054],[17.125,48.0195],[17.0926,48.0273],[17.0697,48.0357],[17.0751,48.0521],[17.0631,48.0588],[17.0591,48.0604],[17.0648,48.079],[17.07,48.0892],[17.0802,48.0976],[17.0672,48.1069],[17.0625,48.1127],[17.0475,48.131],[17.0369,48.1355],[17.0209,48.1372],[17.0072,48.1428],[16.9819,48.1613],[16.9748,48.1769],[16.9747,48.1986],[16.97,48.2166],[16.9543,48.2526],[16.9539,48.2573],[16.9553,48.2688],[16.9543,48.2731],[16.9506,48.2766],[16.9444,48.278],[16.9334,48.2847],[16.9243,48.2875],[16.9166,48.2908],[16.9133,48.2967],[16.9121,48.3012],[16.9089,48.307],[16.9055,48.312],[16.9028,48.3141],[16.8984,48.3162],[16.9003,48.3212],[16.9042,48.327],[16.9065,48.3315],[16.9019,48.3394],[16.8917,48.347],[16.8812,48.3528],[16.8755,48.355],[16.8553,48.3565],[16.8476,48.3596],[16.8445,48.3656],[16.8451,48.3766],[16.8469,48.3811],[16.8493,48.3841],[16.8519,48.3904],[16.8608,48.4438],[16.8649,48.4581],[16.8751,48.4715],[16.9012,48.4966],[16.9065,48.5099],[16.9139,48.5193],[16.9305,48.5282],[16.9469,48.5397],[16.9491,48.5448],[16.9524,48.5451],[17.0129,48.5575],[17.0581,48.5588],[17.0614,48.5593],[17.062,48.5609],[17.0609,48.5634],[17.058,48.568],[17.064,48.5683],[17.0771,48.5659],[17.121,48.552],[17.1308,48.5499],[17.1367,48.5508],[17.1782,48.5627],[17.1917,48.5683],[17.2097,48.5717],[17.2221,48.572],[17.2299,48.5735],[17.2342,48.5764],[17.2383,48.5828],[17.242,48.5858],[17.2464,48.5877],[17.2555,48.5904],[17.2633,48.5939],[17.2653,48.5953],[17.267,48.5971],[17.2692,48.6013],[17.2707,48.6034],[17.2732,48.6055],[17.2777,48.6083],[17.2837,48.6113],[17.2857,48.6118],[17.2878,48.612],[17.2893,48.6125],[17.2904,48.6134],[17.2914,48.6149],[17.3196,48.6452],[17.3284,48.6527],[17.3349,48.6562],[17.3397,48.6554],[17.3424,48.6541],[17.3444,48.6527],[17.3464,48.6516],[17.3569,48.6496],[17.3604,48.6483],[17.364,48.6464],[17.3682,48.6432],[17.372,48.6395],[17.3758,48.6348],[17.3782,48.6277],[17.3787,48.6183],[17.373,48.6068],[17.3677,48.5999],[17.35,48.584],[17.3467,48.5818],[17.3438,48.581],[17.3404,48.5808],[17.3371,48.581],[17.3337,48.5806],[17.3317,48.5789],[17.3247,48.5664],[17.323,48.5646],[17.3207,48.5632],[17.3095,48.5594],[17.3098,48.5531],[17.3047,48.5453],[17.359,48.5094],[17.3497,48.5053],[17.3456,48.5026],[17.3407,48.4981],[17.3256,48.4823],[17.3171,48.4708],[17.3205,48.4595],[17.3334,48.4562],[17.3471,48.4564],[17.3494,48.4562],[17.3514,48.4554],[17.3536,48.4542],[17.3564,48.4521],[17.3637,48.4485],[17.3694,48.4447],[17.3722,48.4435],[17.3764,48.4428],[17.3942,48.4424],[17.3973,48.4412],[17.3978,48.4391],[17.3955,48.4352],[17.3934,48.4332],[17.393,48.4312],[17.3948,48.429],[17.4043,48.4238],[17.4078,48.4213],[17.4146,48.4142],[17.4223,48.4089],[17.4268,48.4041],[17.4436,48.3817],[17.4476,48.3783],[17.4507,48.3765],[17.4564,48.3763],[17.4604,48.3751],[17.4636,48.3731],[17.4692,48.3687],[17.4725,48.3655],[17.4752,48.362],[17.4776,48.3599],[17.4776,48.356],[17.4752,48.3505],[17.4667,48.3374],[17.4592,48.3288],[17.4586,48.3264],[17.4584,48.3243],[17.4645,48.313],[17.5187,48.2837],[17.4911,48.2618],[17.4863,48.2556],[17.4853,48.2506],[17.4873,48.2416],[17.4894,48.2383],[17.4918,48.2367],[17.4963,48.2361],[17.517,48.2297],[17.5192,48.2263],[17.519,48.2219],[17.517,48.2109],[17.5192,48.2072],[17.5214,48.2056],[17.5257,48.2065],[17.5274,48.2064],[17.5286,48.2057],[17.5306,48.2033],[17.5322,48.202],[17.5322,48.1989],[17.5308,48.1942],[17.5244,48.1833],[17.521,48.179],[17.5173,48.1767],[17.512,48.1781],[17.5008,48.1757],[17.4692,48.1592],[17.4426,48.1513],[17.4378,48.1512],[17.4335,48.1524],[17.4259,48.1563],[17.4212,48.1578],[17.4078,48.1588],[17.405,48.1595],[17.4038,48.1605],[17.4035,48.1622],[17.4047,48.1642],[17.4091,48.1697],[17.4074,48.1732],[17.4063,48.1748],[17.4059,48.1764],[17.4051,48.178],[17.4031,48.1783],[17.4,48.1776],[17.3938,48.1749],[17.3897,48.1739],[17.3863,48.1723],[17.3838,48.1697],[17.3809,48.1597],[17.3813,48.1569],[17.3823,48.155],[17.3835,48.1533],[17.3885,48.1496],[17.3905,48.1478],[17.3917,48.1462],[17.392,48.1448],[17.3908,48.143],[17.388,48.1409],[17.3817,48.1392],[17.3779,48.1385],[17.3738,48.1372],[17.3696,48.135],[17.362,48.1301],[17.3522,48.1257],[17.348,48.125],[17.3368,48.1247],[17.3132,48.1285],[17.3097,48.1284],[17.3077,48.1276],[17.307,48.1262],[17.3128,48.1199],[17.3131,48.1176],[17.3128,48.1151],[17.3115,48.111],[17.3112,48.1085],[17.3115,48.1066],[17.3126,48.1054],[17.3207,48.1014],[17.3261,48.0977],[17.3283,48.0968],[17.3304,48.0964],[17.3464,48.0973],[17.3481,48.097],[17.3499,48.0964],[17.3511,48.0955],[17.3528,48.0936],[17.3524,48.0925],[17.3481,48.0897],[17.3371,48.0851],[17.3219,48.0766],[17.3149,48.0746],[17.3101,48.0743],[17.3075,48.0753],[17.3052,48.0747],[17.3036,48.0727],[17.3035,48.0668],[17.3046,48.0629],[17.3064,48.0587],[17.3053,48.0565],[17.3022,48.0544],[17.2917,48.0505],[17.2864,48.0479],[17.2679,48.0329],[17.2624,48.0076],[17.2623,48.0073],[17.2209,48.0151],[17.1848,48.0203],[17.1483,48.0054]]]}},{"type":"Feature","properties":{"id":"SVK-1057","name":"Košický","nameBn":"কোসিক অঞ্চল","type":"Region","bounds":[20.1805,48.3338,22.3708,49.0146],"center":[21.2753,48.6623]},"geometry":{"type":"Polygon","coordinates":[[[22.3708,48.8582],[22.3689,48.8565],[22.3623,48.8443],[22.3616,48.8365],[22.3635,48.8283],[22.3657,48.7944],[22.3634,48.7876],[22.3565,48.7761],[22.3478,48.7679],[22.3384,48.763],[22.3308,48.7564],[22.3277,48.743],[22.3289,48.7216],[22.3225,48.7003],[22.3103,48.6817],[22.2943,48.6676],[22.2822,48.6624],[22.2555,48.6568],[22.2432,48.6512],[22.2357,48.6442],[22.2252,48.6282],[22.219,48.6209],[22.1537,48.5859],[22.1387,48.5696],[22.1367,48.5493],[22.1483,48.5088],[22.1448,48.4931],[22.1338,48.4768],[22.1328,48.4048],[22.1139,48.3886],[22.0965,48.3794],[22.0779,48.3758],[22.018,48.3797],[21.9999,48.379],[21.9815,48.3747],[21.9293,48.3729],[21.9148,48.3691],[21.8843,48.3575],[21.8412,48.3532],[21.7894,48.3355],[21.759,48.3338],[21.7277,48.3409],[21.7012,48.3539],[21.6776,48.3723],[21.6216,48.4297],[21.6134,48.4404],[21.6004,48.4816],[21.5917,48.493],[21.5746,48.4956],[21.5377,48.4952],[21.5218,48.5001],[21.5151,48.5071],[21.506,48.5265],[21.4994,48.5351],[21.4908,48.5403],[21.4727,48.545],[21.4391,48.5583],[21.4246,48.5613],[21.3727,48.5503],[21.3386,48.5499],[21.3218,48.5476],[21.3023,48.5399],[21.2939,48.5306],[21.2882,48.5199],[21.2766,48.5087],[21.2618,48.5032],[21.2504,48.5065],[21.238,48.5134],[21.2199,48.5187],[21.1867,48.5137],[21.1093,48.4891],[21.084,48.493],[21.0639,48.5062],[21.036,48.5146],[21.0065,48.5182],[20.9815,48.5169],[20.9458,48.519],[20.8914,48.5411],[20.8599,48.5433],[20.8455,48.5458],[20.8158,48.5638],[20.8003,48.5692],[20.7841,48.5691],[20.5725,48.5366],[20.5105,48.5338],[20.4817,48.5261],[20.4805,48.5185],[20.4802,48.5102],[20.4822,48.4929],[20.4828,48.4894],[20.4829,48.4858],[20.4825,48.4823],[20.4817,48.4787],[20.4682,48.4654],[20.466,48.4638],[20.4654,48.4641],[20.4487,48.4723],[20.4267,48.4722],[20.4195,48.4704],[20.4021,48.464],[20.3939,48.4636],[20.3782,48.4651],[20.336,48.4627],[20.3315,48.4631],[20.3312,48.4642],[20.332,48.4658],[20.3332,48.4675],[20.3351,48.4694],[20.3358,48.471],[20.3335,48.473],[20.3159,48.4801],[20.3111,48.4834],[20.3087,48.4866],[20.309,48.4891],[20.3097,48.4916],[20.3096,48.4945],[20.3085,48.4972],[20.3051,48.5019],[20.3039,48.5054],[20.3035,48.5095],[20.3054,48.5159],[20.308,48.5207],[20.3118,48.5257],[20.3173,48.5313],[20.32,48.5354],[20.3273,48.5591],[20.33,48.5647],[20.3323,48.5684],[20.3349,48.5716],[20.3376,48.574],[20.3394,48.5764],[20.341,48.5795],[20.3448,48.5925],[20.3476,48.5994],[20.3472,48.601],[20.345,48.6021],[20.3362,48.6044],[20.3278,48.6074],[20.3244,48.6082],[20.3135,48.6092],[20.3063,48.6106],[20.2973,48.6137],[20.2936,48.6161],[20.2919,48.6179],[20.2918,48.6202],[20.2922,48.6223],[20.2932,48.6241],[20.2941,48.6259],[20.2873,48.6443],[20.2665,48.6844],[20.261,48.6918],[20.2097,48.7199],[20.2074,48.7208],[20.1962,48.7223],[20.1883,48.7274],[20.1844,48.7335],[20.1808,48.7453],[20.1805,48.7513],[20.1813,48.7557],[20.1836,48.7583],[20.187,48.7611],[20.1923,48.7644],[20.1971,48.7684],[20.2013,48.7727],[20.2008,48.778],[20.1979,48.7878],[20.198,48.7957],[20.1986,48.8053],[20.1993,48.8078],[20.1996,48.8109],[20.1986,48.8158],[20.203,48.8216],[20.25,48.8682],[20.2727,48.8728],[20.2874,48.8821],[20.2992,48.9015],[20.306,48.9081],[20.3116,48.9119],[20.3413,48.9245],[20.3267,48.9367],[20.3136,48.9395],[20.302,48.9407],[20.2992,48.9428],[20.2997,48.9449],[20.3115,48.9522],[20.3241,48.9639],[20.3292,48.9673],[20.3424,48.973],[20.3861,48.9858],[20.3931,48.9897],[20.3957,48.9908],[20.3984,48.9909],[20.4005,48.9901],[20.4038,48.9904],[20.4084,48.9922],[20.424,49.002],[20.428,49.0034],[20.4305,49.0027],[20.433,49.0012],[20.434,49.0],[20.4412,48.9989],[20.4638,48.9887],[20.4795,48.974],[20.4832,48.9712],[20.4851,48.9704],[20.4846,48.9715],[20.4835,48.9723],[20.4818,48.9732],[20.48,48.9749],[20.4783,48.9775],[20.4766,48.9826],[20.4762,48.9847],[20.4767,48.9863],[20.4795,48.9872],[20.5031,48.9926],[20.5067,48.9939],[20.5064,48.9957],[20.5013,49.0018],[20.5025,49.0049],[20.5053,49.0083],[20.5132,49.0136],[20.5178,49.0146],[20.523,49.0133],[20.5237,49.0106],[20.5214,49.0034],[20.5236,49.0005],[20.5289,48.9972],[20.5553,48.9838],[20.5793,48.9744],[20.6002,48.9729],[20.6085,48.9716],[20.6136,48.97],[20.6155,48.9675],[20.6277,48.9541],[20.6339,48.9523],[20.6455,48.9517],[20.658,48.9527],[20.6684,48.9558],[20.6724,48.9575],[20.6752,48.9591],[20.6803,48.9627],[20.6809,48.9637],[20.6805,48.965],[20.6777,48.9689],[20.6771,48.9706],[20.6772,48.9721],[20.6783,48.9734],[20.6825,48.9747],[20.6888,48.976],[20.7071,48.9768],[20.7698,48.9698],[20.7732,48.9707],[20.775,48.9715],[20.7753,48.9726],[20.7734,48.9738],[20.7685,48.9761],[20.7667,48.9772],[20.7656,48.9783],[20.7656,48.9801],[20.7661,48.9825],[20.7673,48.9865],[20.7678,48.9894],[20.7675,48.9918],[20.765,48.9953],[20.7642,48.9973],[20.7653,49.0001],[20.7682,49.0005],[20.7793,48.9987],[20.8031,48.9916],[20.8187,48.9892],[20.824,48.9872],[20.8249,48.9853],[20.8209,48.9824],[20.821,48.9799],[20.8242,48.9774],[20.8357,48.9739],[20.842,48.9728],[20.8467,48.9725],[20.8783,48.977],[20.8983,48.9655],[20.9191,48.9634],[20.9472,48.9512],[20.9517,48.9507],[20.9531,48.9519],[20.9539,48.9531],[20.9573,48.9544],[20.963,48.9558],[20.9767,48.9571],[20.9826,48.9567],[20.9865,48.9553],[20.9891,48.95],[20.9896,48.9475],[20.9896,48.9452],[20.9892,48.9424],[20.9914,48.9378],[20.996,48.9333],[21.0125,48.9229],[21.0153,48.9201],[21.0155,48.9185],[21.0166,48.9161],[21.0186,48.9129],[21.0243,48.9071],[21.0284,48.9047],[21.0322,48.9037],[21.0361,48.9043],[21.0389,48.9049],[21.0527,48.906],[21.0907,48.8975],[21.11,48.8959],[21.1147,48.896],[21.133,48.8999],[21.1378,48.8997],[21.1415,48.8989],[21.1446,48.8973],[21.1495,48.8954],[21.1533,48.8936],[21.1561,48.8917],[21.1579,48.8896],[21.161,48.8867],[21.1659,48.8831],[21.1747,48.8777],[21.1806,48.876],[21.2011,48.8787],[21.2156,48.8751],[21.2253,48.8749],[21.2323,48.8729],[21.2391,48.8694],[21.2441,48.8685],[21.2496,48.8687],[21.2558,48.8705],[21.2586,48.8701],[21.26,48.8688],[21.2605,48.867],[21.2622,48.8636],[21.2619,48.8621],[21.2605,48.8606],[21.2544,48.8568],[21.2524,48.855],[21.2509,48.8529],[21.2451,48.8482],[21.2431,48.8461],[21.2422,48.8439],[21.2424,48.8419],[21.2428,48.8394],[21.2537,48.8278],[21.272,48.8169],[21.2829,48.8132],[21.295,48.8123],[21.3083,48.8133],[21.3111,48.814],[21.312,48.815],[21.3119,48.8158],[21.3103,48.8169],[21.3055,48.8195],[21.304,48.821],[21.303,48.823],[21.3029,48.8251],[21.3036,48.8273],[21.3052,48.8292],[21.3075,48.831],[21.3114,48.8321],[21.3165,48.8326],[21.3309,48.8326],[21.3355,48.8331],[21.3473,48.8362],[21.3632,48.8373],[21.3665,48.8379],[21.3702,48.8392],[21.3736,48.8414],[21.3766,48.8457],[21.3795,48.8529],[21.382,48.8658],[21.3817,48.869],[21.3804,48.8713],[21.3772,48.8754],[21.3784,48.8772],[21.382,48.8789],[21.3913,48.8809],[21.3961,48.881],[21.3999,48.8803],[21.407,48.8763],[21.411,48.8732],[21.4137,48.8727],[21.4154,48.8747],[21.4166,48.8787],[21.4177,48.8862],[21.4199,48.8882],[21.4216,48.8881],[21.4228,48.8856],[21.4233,48.8832],[21.4259,48.88],[21.4302,48.8764],[21.4432,48.8721],[21.4508,48.8713],[21.4588,48.8727],[21.4635,48.8747],[21.466,48.8764],[21.4801,48.8811],[21.4918,48.8619],[21.4929,48.857],[21.4942,48.8469],[21.4973,48.8408],[21.503,48.8332],[21.5077,48.8285],[21.5367,48.7938],[21.5995,48.7774],[21.6253,48.7744],[21.6428,48.7749],[21.6511,48.7743],[21.6582,48.7724],[21.677,48.7632],[21.6879,48.7608],[21.6975,48.7601],[21.7054,48.7611],[21.711,48.7624],[21.715,48.7638],[21.7176,48.7653],[21.7192,48.7669],[21.7206,48.7703],[21.7215,48.7716],[21.7282,48.7737],[21.751,48.7766],[21.7674,48.7864],[21.7864,48.7906],[21.792,48.7928],[21.796,48.7958],[21.7991,48.8012],[21.8007,48.8055],[21.8005,48.8092],[21.799,48.8132],[21.7934,48.822],[21.792,48.825],[21.7915,48.8276],[21.7921,48.8339],[21.7915,48.8359],[21.7873,48.8462],[21.7867,48.85],[21.7867,48.8632],[21.7861,48.8661],[21.7852,48.868],[21.7845,48.8699],[21.7856,48.8953],[21.8233,48.8945],[21.92,48.8738],[21.9336,48.8694],[21.9391,48.8672],[21.9415,48.8655],[21.9412,48.864],[21.9473,48.8604],[21.9929,48.8422],[22.014,48.8386],[22.0326,48.8383],[22.0626,48.8415],[22.1201,48.8424],[22.1237,48.843],[22.1258,48.8439],[22.127,48.847],[22.1265,48.8517],[22.1237,48.8612],[22.1197,48.8704],[22.1189,48.8729],[22.1188,48.8752],[22.1192,48.8773],[22.1227,48.88],[22.1255,48.8818],[22.1467,48.8878],[22.1839,48.9215],[22.2111,48.9217],[22.2284,48.9151],[22.2317,48.9113],[22.2328,48.9074],[22.233,48.9037],[22.2349,48.8989],[22.2502,48.8749],[22.2508,48.8684],[22.2519,48.8633],[22.2555,48.861],[22.2606,48.8598],[22.2935,48.861],[22.3192,48.866],[22.3242,48.8663],[22.3701,48.8584],[22.3708,48.8582]]]}},{"type":"Feature","properties":{"id":"SVK-1054","name":"Nitriansky","nameBn":"নিট্রা অঞ্চল","type":"Region","bounds":[17.7192,47.75,19.0736,48.7163],"center":[18.3966,48.1443]},"geometry":{"type":"Polygon","coordinates":[[[19.019,48.0655],[18.9965,48.0662],[18.9818,48.0616],[18.9336,48.0543],[18.8385,48.04],[18.821,48.0305],[18.7942,47.9931],[18.7847,47.9876],[18.7653,47.9854],[18.7562,47.9818],[18.7432,47.9711],[18.7445,47.9674],[18.7514,47.9634],[18.7548,47.9518],[18.7447,47.9105],[18.7422,47.8895],[18.7488,47.8707],[18.778,47.8514],[18.8165,47.8326],[18.8149,47.8322],[18.7903,47.8263],[18.7677,47.8223],[18.7503,47.8136],[18.7172,47.7881],[18.6928,47.778],[18.6637,47.7759],[18.6338,47.7798],[18.5974,47.7906],[18.5526,47.7928],[18.3479,47.7768],[18.273,47.7563],[18.2359,47.7539],[18.1126,47.7625],[17.8835,47.7525],[17.8257,47.75],[17.742,47.7654],[17.7192,47.7737],[17.7195,47.7738],[17.7274,47.7795],[17.7312,47.7868],[17.7384,47.8102],[17.7404,47.8136],[17.7427,47.8153],[17.7451,47.8149],[17.7491,47.8133],[17.7511,47.813],[17.7533,47.813],[17.7555,47.8127],[17.7578,47.8121],[17.7635,47.8133],[17.7718,47.8163],[17.7905,47.8262],[17.7978,47.8309],[17.802,47.835],[17.8024,47.8564],[17.8059,47.8632],[17.8096,47.8679],[17.8151,47.8719],[17.818,47.8737],[17.8206,47.8743],[17.8227,47.8739],[17.8265,47.8752],[17.8341,47.879],[17.8455,47.8902],[17.8692,47.9045],[17.886,47.9117],[17.8923,47.9158],[17.8936,47.9194],[17.8905,47.9241],[17.8838,47.9317],[17.8857,47.9436],[17.8877,47.9469],[17.8891,47.9501],[17.8895,47.9538],[17.8884,47.9577],[17.8872,47.9607],[17.8799,47.9651],[17.8824,47.991],[17.8754,48.0257],[17.8801,48.0475],[17.8798,48.0528],[17.8773,48.0568],[17.8747,48.0581],[17.8722,48.0587],[17.8688,48.0587],[17.8669,48.0588],[17.8627,48.0599],[17.8557,48.0605],[17.8525,48.0612],[17.8481,48.0637],[17.8465,48.0653],[17.8468,48.0678],[17.8509,48.0757],[17.849,48.0792],[17.8459,48.0805],[17.8399,48.0799],[17.8234,48.076],[17.818,48.0757],[17.8137,48.0768],[17.8069,48.0806],[17.8041,48.0831],[17.8034,48.0863],[17.8053,48.09],[17.8135,48.1039],[17.814,48.1121],[17.8086,48.1189],[17.7646,48.1514],[17.7642,48.1549],[17.768,48.158],[17.7845,48.1622],[17.7897,48.1627],[17.7933,48.1622],[17.8003,48.16],[17.8072,48.1571],[17.81,48.1565],[17.8127,48.1566],[17.8158,48.1574],[17.8186,48.1585],[17.8211,48.16],[17.823,48.1617],[17.8255,48.1665],[17.8259,48.1723],[17.8228,48.1779],[17.8143,48.189],[17.8117,48.1936],[17.8113,48.1967],[17.8183,48.1989],[17.822,48.2004],[17.8241,48.2006],[17.8269,48.1997],[17.8408,48.1883],[17.8428,48.1874],[17.8455,48.1878],[17.8566,48.1939],[17.8729,48.2003],[17.8771,48.2027],[17.8802,48.2064],[17.8833,48.2136],[17.8835,48.219],[17.8818,48.223],[17.8784,48.2263],[17.8684,48.2332],[17.8658,48.2346],[17.8633,48.235],[17.8607,48.2366],[17.8578,48.2396],[17.8538,48.2475],[17.8529,48.2511],[17.854,48.2541],[17.8568,48.2561],[17.8598,48.2595],[17.8598,48.2623],[17.8575,48.2653],[17.8574,48.2675],[17.8591,48.2705],[17.8633,48.2746],[17.8702,48.2828],[17.8442,48.2983],[17.8428,48.3005],[17.8416,48.3035],[17.8442,48.3052],[17.8462,48.3069],[17.8478,48.3095],[17.852,48.3262],[17.8525,48.3303],[17.8535,48.3342],[17.8548,48.3371],[17.8593,48.3519],[17.8759,48.3631],[17.9465,48.4481],[17.9683,48.4642],[17.9238,48.4943],[17.9018,48.5062],[17.8981,48.5075],[17.8953,48.5078],[17.8512,48.5229],[17.8684,48.5359],[17.8703,48.5381],[17.901,48.5906],[17.9055,48.5957],[17.9085,48.5956],[17.9117,48.5946],[17.9245,48.5888],[17.9307,48.5884],[17.939,48.5891],[17.9853,48.6016],[17.9904,48.604],[17.9926,48.606],[17.9916,48.6081],[17.9906,48.6097],[17.9881,48.6161],[18.0073,48.6301],[18.0099,48.6313],[18.014,48.6321],[18.0166,48.6309],[18.0209,48.6295],[18.0231,48.6306],[18.0246,48.6331],[18.0265,48.6394],[18.0268,48.644],[18.0262,48.6496],[18.0246,48.6559],[18.0234,48.6572],[18.0225,48.658],[18.0213,48.6589],[18.0203,48.6597],[18.0194,48.6612],[18.0189,48.6617],[18.0174,48.6622],[18.0166,48.6626],[18.016,48.6634],[18.0116,48.6699],[18.0106,48.6731],[18.0096,48.6745],[18.0087,48.6757],[18.0078,48.6762],[18.0067,48.678],[18.0059,48.6808],[18.0061,48.6876],[18.0056,48.6919],[18.0047,48.696],[18.0025,48.7023],[18.0023,48.7056],[18.0033,48.7084],[18.0082,48.7125],[18.0154,48.7163],[18.0362,48.7152],[18.0391,48.7141],[18.0421,48.7127],[18.0424,48.7105],[18.0422,48.7078],[18.0432,48.7035],[18.0449,48.7021],[18.1161,48.6919],[18.1243,48.6886],[18.1462,48.6736],[18.1515,48.6687],[18.1625,48.6552],[18.1705,48.6478],[18.2139,48.6314],[18.2312,48.6283],[18.2425,48.621],[18.2506,48.612],[18.2511,48.606],[18.2453,48.5966],[18.2368,48.5879],[18.2287,48.578],[18.228,48.5715],[18.23,48.5674],[18.2325,48.5652],[18.2357,48.5629],[18.236,48.5583],[18.2387,48.5564],[18.243,48.5555],[18.255,48.5557],[18.2589,48.5546],[18.2624,48.5525],[18.2677,48.5486],[18.2872,48.5399],[18.2917,48.5366],[18.3012,48.5228],[18.3126,48.5002],[18.3371,48.4943],[18.3439,48.494],[18.3445,48.4948],[18.3467,48.4985],[18.3493,48.502],[18.3515,48.5027],[18.3533,48.502],[18.3598,48.4956],[18.3666,48.4918],[18.3687,48.4923],[18.37,48.493],[18.3703,48.4943],[18.3709,48.4952],[18.3728,48.4964],[18.3875,48.5023],[18.4195,48.5209],[18.4899,48.5492],[18.5045,48.5344],[18.5113,48.5312],[18.5132,48.528],[18.511,48.5257],[18.4963,48.5137],[18.4899,48.5059],[18.4887,48.5023],[18.4912,48.5009],[18.5155,48.5045],[18.5243,48.5045],[18.5328,48.5025],[18.5362,48.4997],[18.5382,48.4951],[18.5379,48.4904],[18.5371,48.4859],[18.5354,48.4794],[18.5359,48.4766],[18.5376,48.4751],[18.5433,48.4744],[18.5439,48.4732],[18.5427,48.4714],[18.5343,48.4641],[18.5316,48.4611],[18.5309,48.4545],[18.534,48.4491],[18.5424,48.439],[18.5447,48.4333],[18.5447,48.4274],[18.5436,48.4217],[18.5445,48.4185],[18.5467,48.4171],[18.5496,48.4169],[18.5541,48.4158],[18.5596,48.4116],[18.5672,48.402],[18.5712,48.3889],[18.5724,48.381],[18.5715,48.3744],[18.5692,48.3683],[18.5665,48.3634],[18.5625,48.3592],[18.5591,48.3566],[18.5524,48.353],[18.5507,48.3511],[18.5498,48.3487],[18.549,48.346],[18.547,48.3437],[18.5445,48.3414],[18.5362,48.3357],[18.5312,48.3311],[18.5413,48.3199],[18.5458,48.3196],[18.549,48.324],[18.5518,48.326],[18.5588,48.33],[18.5608,48.3318],[18.5673,48.3387],[18.5757,48.3448],[18.5883,48.3477],[18.651,48.3542],[18.6831,48.3611],[18.6856,48.3638],[18.6865,48.3661],[18.6868,48.3693],[18.6876,48.3724],[18.6919,48.3757],[18.694,48.3778],[18.6952,48.3803],[18.6956,48.3827],[18.6969,48.3846],[18.7027,48.3887],[18.7062,48.393],[18.709,48.3955],[18.7234,48.4051],[18.7329,48.4126],[18.7385,48.415],[18.743,48.4162],[18.7548,48.4141],[18.7835,48.3858],[18.8094,48.3713],[18.8156,48.3663],[18.8548,48.3065],[18.8465,48.2781],[18.8445,48.2744],[18.8414,48.2697],[18.8291,48.2616],[18.8178,48.2514],[18.8141,48.2465],[18.8135,48.243],[18.8226,48.2365],[18.8226,48.2349],[18.8212,48.2335],[18.8175,48.2312],[18.8169,48.2286],[18.8186,48.225],[18.8268,48.2151],[18.8308,48.2086],[18.831,48.2056],[18.8296,48.2039],[18.8248,48.2023],[18.8206,48.1988],[18.8141,48.1947],[18.8086,48.1895],[18.807,48.1852],[18.807,48.1793],[18.8085,48.1742],[18.8104,48.1701],[18.8135,48.1671],[18.8159,48.1658],[18.8186,48.1654],[18.8211,48.1658],[18.8235,48.1672],[18.8255,48.1692],[18.8279,48.1727],[18.8304,48.1745],[18.8336,48.1757],[18.838,48.1758],[18.8429,48.1755],[18.8485,48.1746],[18.8527,48.1731],[18.872,48.1628],[18.8768,48.161],[18.8809,48.1603],[18.8837,48.1602],[18.8892,48.1608],[18.8921,48.1607],[18.9002,48.1591],[18.9051,48.1587],[18.9101,48.159],[18.9197,48.161],[18.9243,48.1612],[18.9305,48.1607],[18.9323,48.1608],[18.9332,48.1614],[18.9339,48.1625],[18.9343,48.1645],[18.9356,48.1677],[18.9387,48.1718],[18.9418,48.1745],[18.945,48.1761],[18.9525,48.1775],[18.9562,48.1787],[18.9599,48.1804],[18.968,48.1821],[18.9747,48.1827],[18.98,48.184],[18.9939,48.1889],[19.0107,48.1916],[19.0142,48.1925],[19.017,48.1929],[19.0229,48.1921],[19.0263,48.192],[19.0313,48.1924],[19.0363,48.1942],[19.0416,48.1969],[19.0577,48.2068],[19.0712,48.1966],[19.0724,48.195],[19.0736,48.1924],[19.0733,48.1907],[19.0733,48.1877],[19.073,48.1858],[19.0719,48.1837],[19.0674,48.1794],[19.0654,48.1765],[19.0634,48.1725],[19.0606,48.1651],[19.0609,48.1597],[19.067,48.1414],[19.0665,48.1345],[19.063,48.1277],[19.0557,48.1211],[19.0498,48.1168],[19.0453,48.1142],[19.0403,48.1121],[19.0366,48.1097],[19.0338,48.1069],[19.0308,48.102],[19.0195,48.0908],[19.0176,48.0875],[19.0179,48.0751],[19.019,48.0659],[19.019,48.0655]]]}},{"type":"Feature","properties":{"id":"SVK-1058","name":"Prešov","nameBn":"প্রেসো অঞ্চল","type":"Region","bounds":[19.8683,48.7601,22.5396,49.4494],"center":[21.2037,49.1426]},"geometry":{"type":"Polygon","coordinates":[[[21.2605,49.4494],[21.2744,49.4473],[21.3304,49.4278],[21.4279,49.4098],[21.4444,49.4099],[21.4815,49.4152],[21.4962,49.4124],[21.5144,49.4172],[21.5296,49.4212],[21.6012,49.4265],[21.6199,49.4233],[21.63,49.4189],[21.6486,49.4071],[21.6588,49.4025],[21.6663,49.4018],[21.6818,49.4041],[21.6917,49.4022],[21.7086,49.3909],[21.7422,49.3571],[21.7576,49.3489],[21.768,49.3535],[21.7822,49.3645],[21.7994,49.3748],[21.8196,49.3772],[21.8379,49.3704],[21.8746,49.3484],[21.9284,49.3308],[21.9645,49.3086],[21.9932,49.2782],[22.0058,49.2429],[22.0124,49.2111],[22.0408,49.1975],[22.1115,49.1886],[22.1441,49.1749],[22.1557,49.1715],[22.1657,49.1711],[22.1897,49.173],[22.198,49.172],[22.2089,49.164],[22.209,49.1569],[22.2062,49.1505],[22.2085,49.1442],[22.2159,49.14],[22.2629,49.1306],[22.3182,49.132],[22.3394,49.1265],[22.3901,49.093],[22.4268,49.0856],[22.505,49.0834],[22.5396,49.0722],[22.532,49.0557],[22.5248,49.0329],[22.5201,49.0098],[22.5205,48.9929],[22.505,48.9842],[22.4666,48.9805],[22.449,48.9714],[22.4273,48.9295],[22.4149,48.9117],[22.4137,48.9068],[22.4138,48.8939],[22.4118,48.8878],[22.4024,48.8788],[22.3784,48.8654],[22.3708,48.8582],[22.3701,48.8584],[22.3242,48.8663],[22.3192,48.866],[22.2935,48.861],[22.2606,48.8598],[22.2555,48.861],[22.2519,48.8633],[22.2508,48.8684],[22.2502,48.8749],[22.2349,48.8989],[22.233,48.9037],[22.2328,48.9074],[22.2317,48.9113],[22.2284,48.9151],[22.2111,48.9217],[22.1839,48.9215],[22.1467,48.8878],[22.1255,48.8818],[22.1227,48.88],[22.1192,48.8773],[22.1188,48.8752],[22.1189,48.8729],[22.1197,48.8704],[22.1237,48.8612],[22.1265,48.8517],[22.127,48.847],[22.1258,48.8439],[22.1237,48.843],[22.1201,48.8424],[22.0626,48.8415],[22.0326,48.8383],[22.014,48.8386],[21.9929,48.8422],[21.9473,48.8604],[21.9412,48.864],[21.9415,48.8655],[21.9391,48.8672],[21.9336,48.8694],[21.92,48.8738],[21.8233,48.8945],[21.7856,48.8953],[21.7845,48.8699],[21.7852,48.868],[21.7861,48.8661],[21.7867,48.8632],[21.7867,48.85],[21.7873,48.8462],[21.7915,48.8359],[21.7921,48.8339],[21.7915,48.8276],[21.792,48.825],[21.7934,48.822],[21.799,48.8132],[21.8005,48.8092],[21.8007,48.8055],[21.7991,48.8012],[21.796,48.7958],[21.792,48.7928],[21.7864,48.7906],[21.7674,48.7864],[21.751,48.7766],[21.7282,48.7737],[21.7215,48.7716],[21.7206,48.7703],[21.7192,48.7669],[21.7176,48.7653],[21.715,48.7638],[21.711,48.7624],[21.7054,48.7611],[21.6975,48.7601],[21.6879,48.7608],[21.677,48.7632],[21.6582,48.7724],[21.6511,48.7743],[21.6428,48.7749],[21.6253,48.7744],[21.5995,48.7774],[21.5367,48.7938],[21.5077,48.8285],[21.503,48.8332],[21.4973,48.8408],[21.4942,48.8469],[21.4929,48.857],[21.4918,48.8619],[21.4801,48.8811],[21.466,48.8764],[21.4635,48.8747],[21.4588,48.8727],[21.4508,48.8713],[21.4432,48.8721],[21.4302,48.8764],[21.4259,48.88],[21.4233,48.8832],[21.4228,48.8856],[21.4216,48.8881],[21.4199,48.8882],[21.4177,48.8862],[21.4166,48.8787],[21.4154,48.8747],[21.4137,48.8727],[21.411,48.8732],[21.407,48.8763],[21.3999,48.8803],[21.3961,48.881],[21.3913,48.8809],[21.382,48.8789],[21.3784,48.8772],[21.3772,48.8754],[21.3804,48.8713],[21.3817,48.869],[21.382,48.8658],[21.3795,48.8529],[21.3766,48.8457],[21.3736,48.8414],[21.3702,48.8392],[21.3665,48.8379],[21.3632,48.8373],[21.3473,48.8362],[21.3355,48.8331],[21.3309,48.8326],[21.3165,48.8326],[21.3114,48.8321],[21.3075,48.831],[21.3052,48.8292],[21.3036,48.8273],[21.3029,48.8251],[21.303,48.823],[21.304,48.821],[21.3055,48.8195],[21.3103,48.8169],[21.3119,48.8158],[21.312,48.815],[21.3111,48.814],[21.3083,48.8133],[21.295,48.8123],[21.2829,48.8132],[21.272,48.8169],[21.2537,48.8278],[21.2428,48.8394],[21.2424,48.8419],[21.2422,48.8439],[21.2431,48.8461],[21.2451,48.8482],[21.2509,48.8529],[21.2524,48.855],[21.2544,48.8568],[21.2605,48.8606],[21.2619,48.8621],[21.2622,48.8636],[21.2605,48.867],[21.26,48.8688],[21.2586,48.8701],[21.2558,48.8705],[21.2496,48.8687],[21.2441,48.8685],[21.2391,48.8694],[21.2323,48.8729],[21.2253,48.8749],[21.2156,48.8751],[21.2011,48.8787],[21.1806,48.876],[21.1747,48.8777],[21.1659,48.8831],[21.161,48.8867],[21.1579,48.8896],[21.1561,48.8917],[21.1533,48.8936],[21.1495,48.8954],[21.1446,48.8973],[21.1415,48.8989],[21.1378,48.8997],[21.133,48.8999],[21.1147,48.896],[21.11,48.8959],[21.0907,48.8975],[21.0527,48.906],[21.0389,48.9049],[21.0361,48.9043],[21.0322,48.9037],[21.0284,48.9047],[21.0243,48.9071],[21.0186,48.9129],[21.0166,48.9161],[21.0155,48.9185],[21.0153,48.9201],[21.0125,48.9229],[20.996,48.9333],[20.9914,48.9378],[20.9892,48.9424],[20.9896,48.9452],[20.9896,48.9475],[20.9891,48.95],[20.9865,48.9553],[20.9826,48.9567],[20.9767,48.9571],[20.963,48.9558],[20.9573,48.9544],[20.9539,48.9531],[20.9531,48.9519],[20.9517,48.9507],[20.9472,48.9512],[20.9191,48.9634],[20.8983,48.9655],[20.8783,48.977],[20.8467,48.9725],[20.842,48.9728],[20.8357,48.9739],[20.8242,48.9774],[20.821,48.9799],[20.8209,48.9824],[20.8249,48.9853],[20.824,48.9872],[20.8187,48.9892],[20.8031,48.9916],[20.7793,48.9987],[20.7682,49.0005],[20.7653,49.0001],[20.7642,48.9973],[20.765,48.9953],[20.7675,48.9918],[20.7678,48.9894],[20.7673,48.9865],[20.7661,48.9825],[20.7656,48.9801],[20.7656,48.9783],[20.7667,48.9772],[20.7685,48.9761],[20.7734,48.9738],[20.7753,48.9726],[20.775,48.9715],[20.7732,48.9707],[20.7698,48.9698],[20.7071,48.9768],[20.6888,48.976],[20.6825,48.9747],[20.6783,48.9734],[20.6772,48.9721],[20.6771,48.9706],[20.6777,48.9689],[20.6805,48.965],[20.6809,48.9637],[20.6803,48.9627],[20.6752,48.9591],[20.6724,48.9575],[20.6684,48.9558],[20.658,48.9527],[20.6455,48.9517],[20.6339,48.9523],[20.6277,48.9541],[20.6155,48.9675],[20.6136,48.97],[20.6085,48.9716],[20.6002,48.9729],[20.5793,48.9744],[20.5553,48.9838],[20.5289,48.9972],[20.5236,49.0005],[20.5214,49.0034],[20.5237,49.0106],[20.523,49.0133],[20.5178,49.0146],[20.5132,49.0136],[20.5053,49.0083],[20.5025,49.0049],[20.5013,49.0018],[20.5064,48.9957],[20.5067,48.9939],[20.5031,48.9926],[20.4795,48.9872],[20.4767,48.9863],[20.4762,48.9847],[20.4766,48.9826],[20.4783,48.9775],[20.48,48.9749],[20.4818,48.9732],[20.4835,48.9723],[20.4846,48.9715],[20.4851,48.9704],[20.4832,48.9712],[20.4795,48.974],[20.4638,48.9887],[20.4412,48.9989],[20.434,49.0],[20.433,49.0012],[20.4305,49.0027],[20.428,49.0034],[20.424,49.002],[20.4084,48.9922],[20.4038,48.9904],[20.4005,48.9901],[20.3984,48.9909],[20.3957,48.9908],[20.3931,48.9897],[20.3861,48.9858],[20.3424,48.973],[20.3292,48.9673],[20.3241,48.9639],[20.3115,48.9522],[20.2997,48.9449],[20.2992,48.9428],[20.302,48.9407],[20.3136,48.9395],[20.3267,48.9367],[20.3413,48.9245],[20.3116,48.9119],[20.306,48.9081],[20.2992,48.9015],[20.2874,48.8821],[20.2727,48.8728],[20.2319,48.8886],[20.2246,48.8924],[20.2192,48.8943],[20.1996,48.8986],[20.1813,48.9048],[20.1746,48.9047],[20.1591,48.8957],[20.1401,48.8947],[19.9962,48.9066],[20.0303,48.9166],[20.041,48.9221],[20.0519,48.9296],[20.0541,48.9337],[20.0517,48.936],[20.0407,48.9374],[20.0357,48.9386],[20.0326,48.9408],[20.0304,48.9435],[20.0283,48.9474],[20.0242,48.9573],[20.0228,48.966],[20.0196,48.9707],[20.0148,48.9748],[20.0087,48.9787],[19.9746,49.008],[19.9736,49.0123],[19.9747,49.0148],[19.978,49.0154],[19.9852,49.0148],[19.9906,49.0149],[20.0014,49.0183],[20.0081,49.0188],[20.0118,49.0214],[20.0137,49.0275],[20.0146,49.0401],[20.0194,49.0544],[20.0207,49.0628],[20.021,49.0739],[20.0272,49.1033],[20.0264,49.1111],[20.0236,49.1153],[20.0183,49.115],[20.0131,49.1139],[19.9994,49.1097],[19.9798,49.1074],[19.976,49.1074],[19.9727,49.1092],[19.9696,49.1118],[19.9665,49.1156],[19.9636,49.1166],[19.9611,49.1158],[19.9585,49.1141],[19.9554,49.1149],[19.9515,49.1185],[19.9453,49.1285],[19.9403,49.1339],[19.9343,49.1374],[19.928,49.1382],[19.9207,49.1377],[19.9169,49.1361],[19.9134,49.1336],[19.9116,49.1318],[19.9088,49.1313],[19.9055,49.1326],[19.9009,49.1381],[19.8996,49.1445],[19.8992,49.1568],[19.8955,49.1662],[19.8905,49.1742],[19.8694,49.1977],[19.8683,49.2008],[19.8878,49.214],[19.9059,49.2228],[19.9379,49.2251],[19.9657,49.2157],[20.0173,49.1839],[20.0505,49.1732],[20.07,49.1831],[20.0804,49.2081],[20.086,49.243],[20.0984,49.2529],[20.1054,49.264],[20.1111,49.2759],[20.1302,49.3039],[20.1359,49.3089],[20.1383,49.3073],[20.1604,49.3056],[20.1702,49.3116],[20.192,49.3286],[20.2072,49.3342],[20.2844,49.3386],[20.2893,49.3431],[20.2965,49.3569],[20.3016,49.3712],[20.3037,49.3804],[20.3074,49.3866],[20.3177,49.3916],[20.3295,49.3918],[20.3705,49.3817],[20.4221,49.383],[20.4219,49.4002],[20.4375,49.4025],[20.5221,49.3744],[20.544,49.3708],[20.5677,49.3764],[20.5791,49.3834],[20.5951,49.3963],[20.6053,49.4],[20.6145,49.4004],[20.6361,49.3983],[20.6739,49.4023],[20.6895,49.4005],[20.7783,49.3312],[20.7941,49.3237],[20.8165,49.3214],[20.8336,49.3221],[20.8493,49.3205],[20.868,49.3114],[20.8843,49.3003],[20.9006,49.2926],[20.919,49.2903],[20.9424,49.2959],[20.964,49.3081],[20.9967,49.3394],[21.0172,49.3524],[21.033,49.3546],[21.054,49.3548],[21.0725,49.3572],[21.0807,49.3663],[21.0685,49.3814],[21.0455,49.3906],[21.0333,49.3997],[21.0535,49.4145],[21.0688,49.4192],[21.1094,49.4246],[21.1249,49.4237],[21.143,49.4155],[21.1573,49.4052],[21.1726,49.3983],[21.1941,49.4006],[21.2112,49.4111],[21.2425,49.4413],[21.2605,49.4494]]]}},{"type":"Feature","properties":{"id":"SVK-1055","name":"Trenciansky","nameBn":"ট্রেঙ্কিন অঞ্চল","type":"Region","bounds":[17.3573,48.4918,18.833,49.3302],"center":[18.0952,48.8824]},"geometry":{"type":"Polygon","coordinates":[[[18.0129,49.0191],[18.0461,49.0292],[18.0755,49.0472],[18.0963,49.0703],[18.1029,49.0922],[18.1016,49.1369],[18.1015,49.1429],[18.1051,49.1698],[18.1178,49.2026],[18.1365,49.2331],[18.1606,49.2587],[18.19,49.2769],[18.3246,49.3113],[18.3616,49.3302],[18.3662,49.3257],[18.3842,49.3218],[18.3845,49.3141],[18.3849,49.3123],[18.3855,49.3102],[18.3866,49.3085],[18.4482,49.2413],[18.4506,49.2379],[18.4519,49.2353],[18.4514,49.2339],[18.4499,49.2313],[18.4497,49.2301],[18.4505,49.2282],[18.4554,49.222],[18.4565,49.2199],[18.457,49.2182],[18.4568,49.2173],[18.4584,49.215],[18.4709,49.2],[18.4764,49.1951],[18.482,49.1915],[18.506,49.1811],[18.5076,49.1808],[18.511,49.1808],[18.5135,49.1804],[18.5167,49.1789],[18.5288,49.1714],[18.5331,49.1696],[18.5369,49.1685],[18.5425,49.1676],[18.5613,49.1598],[18.5662,49.1568],[18.5743,49.1494],[18.5772,49.1445],[18.5777,49.1372],[18.5771,49.1333],[18.578,49.1294],[18.5791,49.1271],[18.5911,49.1147],[18.5642,49.0961],[18.5605,49.0925],[18.5619,49.0905],[18.5636,49.0902],[18.5676,49.0902],[18.5819,49.0874],[18.5839,49.0865],[18.5863,49.0851],[18.5885,49.0834],[18.5902,49.0819],[18.5928,49.0773],[18.594,49.0762],[18.5954,49.0753],[18.5993,49.0739],[18.601,49.0731],[18.6027,49.0718],[18.604,49.0705],[18.6043,49.0689],[18.604,49.0671],[18.6024,49.0631],[18.6021,49.0614],[18.6023,49.0599],[18.6029,49.0586],[18.603,49.0571],[18.6026,49.0555],[18.6009,49.0527],[18.5999,49.0506],[18.5998,49.0486],[18.6027,49.0353],[18.6005,49.0297],[18.5954,49.023],[18.5823,49.0105],[18.5707,49.0015],[18.5614,48.9965],[18.5313,48.9909],[18.5251,48.9883],[18.5192,48.9846],[18.5098,48.9739],[18.504,48.9699],[18.5,48.9677],[18.4706,48.9563],[18.4763,48.9482],[18.4848,48.9439],[18.5029,48.9417],[18.5169,48.9386],[18.5208,48.9382],[18.5282,48.9392],[18.5549,48.9496],[18.5617,48.9538],[18.5653,48.9572],[18.5656,48.959],[18.5662,48.9607],[18.5678,48.9622],[18.5808,48.9715],[18.5832,48.9715],[18.5857,48.97],[18.5919,48.9618],[18.5937,48.96],[18.6035,48.9598],[18.6357,48.9661],[18.6773,48.9591],[18.6965,48.9578],[18.702,48.9557],[18.7059,48.9538],[18.7259,48.9366],[18.721,48.9336],[18.7191,48.9317],[18.7165,48.9299],[18.7144,48.9287],[18.7124,48.9279],[18.7109,48.9269],[18.7101,48.9257],[18.7096,48.924],[18.7087,48.922],[18.7073,48.9198],[18.7045,48.917],[18.7031,48.9148],[18.7034,48.911],[18.7092,48.8958],[18.7096,48.8907],[18.7093,48.8867],[18.7065,48.8807],[18.7059,48.8781],[18.7059,48.8753],[18.7073,48.8707],[18.7076,48.8683],[18.7073,48.8658],[18.7059,48.8595],[18.7061,48.8538],[18.7082,48.8506],[18.7124,48.8469],[18.7351,48.8332],[18.7377,48.8321],[18.74,48.8314],[18.7447,48.8305],[18.7473,48.8296],[18.7509,48.828],[18.7534,48.8273],[18.7576,48.8265],[18.7734,48.8165],[18.7793,48.8142],[18.7822,48.8126],[18.7826,48.8117],[18.7802,48.8098],[18.7796,48.8074],[18.7801,48.804],[18.783,48.797],[18.7866,48.7919],[18.7933,48.7851],[18.8274,48.7569],[18.8304,48.7537],[18.833,48.7442],[18.8324,48.7375],[18.8311,48.7356],[18.8291,48.7331],[18.8257,48.7298],[18.8138,48.7132],[18.7999,48.6991],[18.7964,48.6975],[18.7917,48.6965],[18.777,48.6961],[18.7714,48.6942],[18.7666,48.6901],[18.7428,48.6602],[18.7389,48.6568],[18.7247,48.6487],[18.7213,48.6461],[18.7196,48.644],[18.7217,48.6352],[18.7216,48.6312],[18.7149,48.6302],[18.7093,48.63],[18.6546,48.6397],[18.628,48.6142],[18.6131,48.6027],[18.6085,48.5983],[18.6058,48.5952],[18.6043,48.5922],[18.6036,48.5903],[18.6036,48.5887],[18.6038,48.5871],[18.6038,48.5856],[18.6035,48.5839],[18.6001,48.5773],[18.5995,48.5758],[18.5992,48.5736],[18.5012,48.5654],[18.4899,48.5492],[18.4195,48.5209],[18.3875,48.5023],[18.3728,48.4964],[18.3709,48.4952],[18.3703,48.4943],[18.37,48.493],[18.3687,48.4923],[18.3666,48.4918],[18.3598,48.4956],[18.3533,48.502],[18.3515,48.5027],[18.3493,48.502],[18.3467,48.4985],[18.3445,48.4948],[18.3439,48.494],[18.3371,48.4943],[18.3126,48.5002],[18.3012,48.5228],[18.2917,48.5366],[18.2872,48.5399],[18.2677,48.5486],[18.2624,48.5525],[18.2589,48.5546],[18.255,48.5557],[18.243,48.5555],[18.2387,48.5564],[18.236,48.5583],[18.2357,48.5629],[18.2325,48.5652],[18.23,48.5674],[18.228,48.5715],[18.2287,48.578],[18.2368,48.5879],[18.2453,48.5966],[18.2511,48.606],[18.2506,48.612],[18.2425,48.621],[18.2312,48.6283],[18.2139,48.6314],[18.1705,48.6478],[18.1625,48.6552],[18.1515,48.6687],[18.1462,48.6736],[18.1243,48.6886],[18.1161,48.6919],[18.0449,48.7021],[18.0432,48.7035],[18.0422,48.7078],[18.0424,48.7105],[18.0421,48.7127],[18.0391,48.7141],[18.0362,48.7152],[18.0154,48.7163],[18.0082,48.7125],[18.0033,48.7084],[18.0023,48.7056],[18.0025,48.7023],[18.0047,48.696],[18.0056,48.6919],[18.0061,48.6876],[18.0059,48.6808],[18.0067,48.678],[18.0078,48.6762],[18.0087,48.6757],[18.0096,48.6745],[18.0106,48.6731],[18.0116,48.6699],[18.016,48.6634],[18.0166,48.6626],[18.0174,48.6622],[18.0189,48.6617],[18.0194,48.6612],[18.0203,48.6597],[18.0213,48.6589],[18.0225,48.658],[18.0234,48.6572],[18.0246,48.6559],[18.0262,48.6496],[18.0268,48.644],[18.0265,48.6394],[18.0246,48.6331],[18.0231,48.6306],[18.0209,48.6295],[18.0166,48.6309],[18.014,48.6321],[18.0099,48.6313],[18.0073,48.6301],[17.9881,48.6161],[17.8909,48.6301],[17.8894,48.6322],[17.8871,48.6345],[17.8807,48.639],[17.8759,48.6405],[17.8703,48.641],[17.8667,48.6399],[17.8632,48.6386],[17.8575,48.6372],[17.8538,48.6379],[17.8493,48.6409],[17.8413,48.6493],[17.8335,48.6542],[17.8298,48.656],[17.827,48.6566],[17.8259,48.6558],[17.8255,48.6547],[17.8256,48.6533],[17.8261,48.6519],[17.8264,48.6503],[17.8258,48.649],[17.82,48.6481],[17.7854,48.6476],[17.7671,48.6495],[17.7485,48.6556],[17.7452,48.6571],[17.743,48.6588],[17.7322,48.6721],[17.7235,48.6793],[17.71,48.6837],[17.6934,48.6806],[17.6621,48.6718],[17.656,48.6679],[17.6532,48.667],[17.6498,48.6665],[17.6402,48.6665],[17.6377,48.6671],[17.6307,48.6722],[17.6285,48.6726],[17.6268,48.6722],[17.626,48.6707],[17.6254,48.6688],[17.6249,48.6644],[17.6254,48.6612],[17.6253,48.6598],[17.6249,48.6584],[17.6249,48.6568],[17.6251,48.6548],[17.622,48.6522],[17.6192,48.6485],[17.5868,48.6419],[17.5725,48.6473],[17.5705,48.6473],[17.5677,48.6469],[17.566,48.6457],[17.5637,48.6444],[17.557,48.6418],[17.5336,48.6283],[17.5121,48.6598],[17.5008,48.6706],[17.4912,48.677],[17.487,48.6805],[17.4842,48.6833],[17.4813,48.6944],[17.4785,48.6975],[17.4729,48.7007],[17.4711,48.7031],[17.4706,48.7056],[17.4721,48.7091],[17.4738,48.7117],[17.4777,48.7165],[17.4796,48.7191],[17.481,48.7227],[17.4824,48.7246],[17.4864,48.7273],[17.488,48.73],[17.4886,48.7369],[17.4855,48.7432],[17.4802,48.7496],[17.4721,48.7571],[17.468,48.7603],[17.4648,48.762],[17.4563,48.7634],[17.4541,48.7641],[17.4521,48.7649],[17.4504,48.7659],[17.4488,48.7666],[17.4394,48.7737],[17.4273,48.7849],[17.422,48.7886],[17.4171,48.7891],[17.4003,48.7752],[17.397,48.7733],[17.3945,48.7728],[17.3914,48.7728],[17.3793,48.7747],[17.3573,48.7803],[17.3886,48.8],[17.3993,48.8096],[17.4084,48.824],[17.4112,48.8302],[17.4296,48.8382],[17.4533,48.8428],[17.4679,48.8381],[17.4985,48.8168],[17.5351,48.813],[17.646,48.8418],[17.7272,48.8629],[17.7449,48.8726],[17.7794,48.9117],[17.7955,48.9206],[17.8201,48.9234],[17.8412,48.921],[17.8603,48.9217],[17.8787,48.9336],[17.8869,48.9472],[17.8946,48.9782],[17.9008,48.993],[17.9141,49.0105],[17.9351,49.0194],[17.9592,49.0219],[18.0129,49.0191]]]}},{"type":"Feature","properties":{"id":"SVK-1056","name":"Trnavský","nameBn":"তানাভা অঞ্চল","type":"Region","bounds":[16.945,47.7737,17.9926,48.8661],"center":[17.6989,48.3422]},"geometry":{"type":"Polygon","coordinates":[[[16.9491,48.5448],[16.9543,48.5574],[16.945,48.6042],[16.9475,48.6232],[16.9633,48.6359],[16.9748,48.6499],[17.0253,48.7463],[17.0499,48.774],[17.0844,48.7937],[17.0987,48.8058],[17.1046,48.8246],[17.1137,48.8339],[17.1675,48.8598],[17.2122,48.8661],[17.2603,48.8578],[17.3744,48.8196],[17.3917,48.8218],[17.4112,48.8302],[17.4084,48.824],[17.3993,48.8096],[17.3886,48.8],[17.3573,48.7803],[17.3793,48.7747],[17.3914,48.7728],[17.3945,48.7728],[17.397,48.7733],[17.4003,48.7752],[17.4171,48.7891],[17.422,48.7886],[17.4273,48.7849],[17.4394,48.7737],[17.4488,48.7666],[17.4504,48.7659],[17.4521,48.7649],[17.4541,48.7641],[17.4563,48.7634],[17.4648,48.762],[17.468,48.7603],[17.4721,48.7571],[17.4802,48.7496],[17.4855,48.7432],[17.4886,48.7369],[17.488,48.73],[17.4864,48.7273],[17.4824,48.7246],[17.481,48.7227],[17.4796,48.7191],[17.4777,48.7165],[17.4738,48.7117],[17.4721,48.7091],[17.4706,48.7056],[17.4711,48.7031],[17.4729,48.7007],[17.4785,48.6975],[17.4813,48.6944],[17.4842,48.6833],[17.487,48.6805],[17.4912,48.677],[17.5008,48.6706],[17.5121,48.6598],[17.5336,48.6283],[17.557,48.6418],[17.5637,48.6444],[17.566,48.6457],[17.5677,48.6469],[17.5705,48.6473],[17.5725,48.6473],[17.5868,48.6419],[17.6192,48.6485],[17.622,48.6522],[17.6251,48.6548],[17.6249,48.6568],[17.6249,48.6584],[17.6253,48.6598],[17.6254,48.6612],[17.6249,48.6644],[17.6254,48.6688],[17.626,48.6707],[17.6268,48.6722],[17.6285,48.6726],[17.6307,48.6722],[17.6377,48.6671],[17.6402,48.6665],[17.6498,48.6665],[17.6532,48.667],[17.656,48.6679],[17.6621,48.6718],[17.6934,48.6806],[17.71,48.6837],[17.7235,48.6793],[17.7322,48.6721],[17.743,48.6588],[17.7452,48.6571],[17.7485,48.6556],[17.7671,48.6495],[17.7854,48.6476],[17.82,48.6481],[17.8258,48.649],[17.8264,48.6503],[17.8261,48.6519],[17.8256,48.6533],[17.8255,48.6547],[17.8259,48.6558],[17.827,48.6566],[17.8298,48.656],[17.8335,48.6542],[17.8413,48.6493],[17.8493,48.6409],[17.8538,48.6379],[17.8575,48.6372],[17.8632,48.6386],[17.8667,48.6399],[17.8703,48.641],[17.8759,48.6405],[17.8807,48.639],[17.8871,48.6345],[17.8894,48.6322],[17.8909,48.6301],[17.9881,48.6161],[17.9906,48.6097],[17.9916,48.6081],[17.9926,48.606],[17.9904,48.604],[17.9853,48.6016],[17.939,48.5891],[17.9307,48.5884],[17.9245,48.5888],[17.9117,48.5946],[17.9085,48.5956],[17.9055,48.5957],[17.901,48.5906],[17.8703,48.5381],[17.8684,48.5359],[17.8512,48.5229],[17.8953,48.5078],[17.8981,48.5075],[17.9018,48.5062],[17.9238,48.4943],[17.9683,48.4642],[17.9465,48.4481],[17.8759,48.3631],[17.8593,48.3519],[17.8548,48.3371],[17.8535,48.3342],[17.8525,48.3303],[17.852,48.3262],[17.8478,48.3095],[17.8462,48.3069],[17.8442,48.3052],[17.8416,48.3035],[17.8428,48.3005],[17.8442,48.2983],[17.8702,48.2828],[17.8633,48.2746],[17.8591,48.2705],[17.8574,48.2675],[17.8575,48.2653],[17.8598,48.2623],[17.8598,48.2595],[17.8568,48.2561],[17.854,48.2541],[17.8529,48.2511],[17.8538,48.2475],[17.8578,48.2396],[17.8607,48.2366],[17.8633,48.235],[17.8658,48.2346],[17.8684,48.2332],[17.8784,48.2263],[17.8818,48.223],[17.8835,48.219],[17.8833,48.2136],[17.8802,48.2064],[17.8771,48.2027],[17.8729,48.2003],[17.8566,48.1939],[17.8455,48.1878],[17.8428,48.1874],[17.8408,48.1883],[17.8269,48.1997],[17.8241,48.2006],[17.822,48.2004],[17.8183,48.1989],[17.8113,48.1967],[17.8117,48.1936],[17.8143,48.189],[17.8228,48.1779],[17.8259,48.1723],[17.8255,48.1665],[17.823,48.1617],[17.8211,48.16],[17.8186,48.1585],[17.8158,48.1574],[17.8127,48.1566],[17.81,48.1565],[17.8072,48.1571],[17.8003,48.16],[17.7933,48.1622],[17.7897,48.1627],[17.7845,48.1622],[17.768,48.158],[17.7642,48.1549],[17.7646,48.1514],[17.8086,48.1189],[17.814,48.1121],[17.8135,48.1039],[17.8053,48.09],[17.8034,48.0863],[17.8041,48.0831],[17.8069,48.0806],[17.8137,48.0768],[17.818,48.0757],[17.8234,48.076],[17.8399,48.0799],[17.8459,48.0805],[17.849,48.0792],[17.8509,48.0757],[17.8468,48.0678],[17.8465,48.0653],[17.8481,48.0637],[17.8525,48.0612],[17.8557,48.0605],[17.8627,48.0599],[17.8669,48.0588],[17.8688,48.0587],[17.8722,48.0587],[17.8747,48.0581],[17.8773,48.0568],[17.8798,48.0528],[17.8801,48.0475],[17.8754,48.0257],[17.8824,47.991],[17.8799,47.9651],[17.8872,47.9607],[17.8884,47.9577],[17.8895,47.9538],[17.8891,47.9501],[17.8877,47.9469],[17.8857,47.9436],[17.8838,47.9317],[17.8905,47.9241],[17.8936,47.9194],[17.8923,47.9158],[17.886,47.9117],[17.8692,47.9045],[17.8455,47.8902],[17.8341,47.879],[17.8265,47.8752],[17.8227,47.8739],[17.8206,47.8743],[17.818,47.8737],[17.8151,47.8719],[17.8096,47.8679],[17.8059,47.8632],[17.8024,47.8564],[17.802,47.835],[17.7978,47.8309],[17.7905,47.8262],[17.7718,47.8163],[17.7635,47.8133],[17.7578,47.8121],[17.7555,47.8127],[17.7533,47.813],[17.7511,47.813],[17.7491,47.8133],[17.7451,47.8149],[17.7427,47.8153],[17.7404,47.8136],[17.7384,47.8102],[17.7312,47.7868],[17.7274,47.7795],[17.7195,47.7738],[17.7192,47.7737],[17.6767,47.7892],[17.6662,47.797],[17.6584,47.8073],[17.6399,47.8192],[17.6191,47.8292],[17.6042,47.8342],[17.593,47.8331],[17.5829,47.8298],[17.5726,47.8295],[17.5604,47.838],[17.5266,47.8721],[17.5173,47.8763],[17.4922,47.8798],[17.4819,47.8827],[17.472,47.8888],[17.3694,47.9812],[17.3379,47.9987],[17.2727,48.0053],[17.2623,48.0073],[17.2624,48.0076],[17.2679,48.0329],[17.2864,48.0479],[17.2917,48.0505],[17.3022,48.0544],[17.3053,48.0565],[17.3064,48.0587],[17.3046,48.0629],[17.3035,48.0668],[17.3036,48.0727],[17.3052,48.0747],[17.3075,48.0753],[17.3101,48.0743],[17.3149,48.0746],[17.3219,48.0766],[17.3371,48.0851],[17.3481,48.0897],[17.3524,48.0925],[17.3528,48.0936],[17.3511,48.0955],[17.3499,48.0964],[17.3481,48.097],[17.3464,48.0973],[17.3304,48.0964],[17.3283,48.0968],[17.3261,48.0977],[17.3207,48.1014],[17.3126,48.1054],[17.3115,48.1066],[17.3112,48.1085],[17.3115,48.111],[17.3128,48.1151],[17.3131,48.1176],[17.3128,48.1199],[17.307,48.1262],[17.3077,48.1276],[17.3097,48.1284],[17.3132,48.1285],[17.3368,48.1247],[17.348,48.125],[17.3522,48.1257],[17.362,48.1301],[17.3696,48.135],[17.3738,48.1372],[17.3779,48.1385],[17.3817,48.1392],[17.388,48.1409],[17.3908,48.143],[17.392,48.1448],[17.3917,48.1462],[17.3905,48.1478],[17.3885,48.1496],[17.3835,48.1533],[17.3823,48.155],[17.3813,48.1569],[17.3809,48.1597],[17.3838,48.1697],[17.3863,48.1723],[17.3897,48.1739],[17.3938,48.1749],[17.4,48.1776],[17.4031,48.1783],[17.4051,48.178],[17.4059,48.1764],[17.4063,48.1748],[17.4074,48.1732],[17.4091,48.1697],[17.4047,48.1642],[17.4035,48.1622],[17.4038,48.1605],[17.405,48.1595],[17.4078,48.1588],[17.4212,48.1578],[17.4259,48.1563],[17.4335,48.1524],[17.4378,48.1512],[17.4426,48.1513],[17.4692,48.1592],[17.5008,48.1757],[17.512,48.1781],[17.5173,48.1767],[17.521,48.179],[17.5244,48.1833],[17.5308,48.1942],[17.5322,48.1989],[17.5322,48.202],[17.5306,48.2033],[17.5286,48.2057],[17.5274,48.2064],[17.5257,48.2065],[17.5214,48.2056],[17.5192,48.2072],[17.517,48.2109],[17.519,48.2219],[17.5192,48.2263],[17.517,48.2297],[17.4963,48.2361],[17.4918,48.2367],[17.4894,48.2383],[17.4873,48.2416],[17.4853,48.2506],[17.4863,48.2556],[17.4911,48.2618],[17.5187,48.2837],[17.4645,48.313],[17.4584,48.3243],[17.4586,48.3264],[17.4592,48.3288],[17.4667,48.3374],[17.4752,48.3505],[17.4776,48.356],[17.4776,48.3599],[17.4752,48.362],[17.4725,48.3655],[17.4692,48.3687],[17.4636,48.3731],[17.4604,48.3751],[17.4564,48.3763],[17.4507,48.3765],[17.4476,48.3783],[17.4436,48.3817],[17.4268,48.4041],[17.4223,48.4089],[17.4146,48.4142],[17.4078,48.4213],[17.4043,48.4238],[17.3948,48.429],[17.393,48.4312],[17.3934,48.4332],[17.3955,48.4352],[17.3978,48.4391],[17.3973,48.4412],[17.3942,48.4424],[17.3764,48.4428],[17.3722,48.4435],[17.3694,48.4447],[17.3637,48.4485],[17.3564,48.4521],[17.3536,48.4542],[17.3514,48.4554],[17.3494,48.4562],[17.3471,48.4564],[17.3334,48.4562],[17.3205,48.4595],[17.3171,48.4708],[17.3256,48.4823],[17.3407,48.4981],[17.3456,48.5026],[17.3497,48.5053],[17.359,48.5094],[17.3047,48.5453],[17.3098,48.5531],[17.3095,48.5594],[17.3207,48.5632],[17.323,48.5646],[17.3247,48.5664],[17.3317,48.5789],[17.3337,48.5806],[17.3371,48.581],[17.3404,48.5808],[17.3438,48.581],[17.3467,48.5818],[17.35,48.584],[17.3677,48.5999],[17.373,48.6068],[17.3787,48.6183],[17.3782,48.6277],[17.3758,48.6348],[17.372,48.6395],[17.3682,48.6432],[17.364,48.6464],[17.3604,48.6483],[17.3569,48.6496],[17.3464,48.6516],[17.3444,48.6527],[17.3424,48.6541],[17.3397,48.6554],[17.3349,48.6562],[17.3284,48.6527],[17.3196,48.6452],[17.2914,48.6149],[17.2904,48.6134],[17.2893,48.6125],[17.2878,48.612],[17.2857,48.6118],[17.2837,48.6113],[17.2777,48.6083],[17.2732,48.6055],[17.2707,48.6034],[17.2692,48.6013],[17.267,48.5971],[17.2653,48.5953],[17.2633,48.5939],[17.2555,48.5904],[17.2464,48.5877],[17.242,48.5858],[17.2383,48.5828],[17.2342,48.5764],[17.2299,48.5735],[17.2221,48.572],[17.2097,48.5717],[17.1917,48.5683],[17.1782,48.5627],[17.1367,48.5508],[17.1308,48.5499],[17.121,48.552],[17.0771,48.5659],[17.064,48.5683],[17.058,48.568],[17.0609,48.5634],[17.062,48.5609],[17.0614,48.5593],[17.0581,48.5588],[17.0129,48.5575],[16.9524,48.5451],[16.9491,48.5448]]]}},{"type":"Feature","properties":{"id":"SVK-1053","name":"Žilinský","nameBn":"জিলিনা অঞ্চল","type":"Region","bounds":[18.3616,48.7442,20.0541,49.6018],"center":[19.2076,49.1656]},"geometry":{"type":"Polygon","coordinates":[[[19.4434,49.6018],[19.4489,49.6004],[19.4573,49.5981],[19.4742,49.5787],[19.4817,49.5735],[19.5052,49.5634],[19.5173,49.5433],[19.5355,49.4928],[19.5516,49.461],[19.5568,49.4539],[19.5739,49.4453],[19.5948,49.4416],[19.6348,49.4413],[19.6302,49.435],[19.6286,49.4296],[19.6292,49.4139],[19.6271,49.4022],[19.627,49.4019],[19.6845,49.3891],[19.7063,49.3875],[19.7266,49.3889],[19.7601,49.3977],[19.7691,49.3932],[19.7693,49.3931],[19.7786,49.3742],[19.7836,49.3576],[19.7895,49.3092],[19.788,49.3051],[19.7803,49.2976],[19.7797,49.2935],[19.7797,49.2934],[19.7832,49.29],[19.7969,49.2834],[19.797,49.2833],[19.7986,49.2811],[19.7988,49.2807],[19.8064,49.2755],[19.8068,49.2752],[19.8086,49.2709],[19.8063,49.2653],[19.8005,49.263],[19.7941,49.2619],[19.7896,49.2595],[19.7518,49.2191],[19.7478,49.206],[19.7478,49.2059],[19.7607,49.1942],[19.7859,49.1882],[19.832,49.1859],[19.8542,49.1913],[19.8683,49.2008],[19.8694,49.1977],[19.8905,49.1742],[19.8955,49.1662],[19.8992,49.1568],[19.8996,49.1445],[19.9009,49.1381],[19.9055,49.1326],[19.9088,49.1313],[19.9116,49.1318],[19.9134,49.1336],[19.9169,49.1361],[19.9207,49.1377],[19.928,49.1382],[19.9343,49.1374],[19.9403,49.1339],[19.9453,49.1285],[19.9515,49.1185],[19.9554,49.1149],[19.9585,49.1141],[19.9611,49.1158],[19.9636,49.1166],[19.9665,49.1156],[19.9696,49.1118],[19.9727,49.1092],[19.976,49.1074],[19.9798,49.1074],[19.9994,49.1097],[20.0131,49.1139],[20.0183,49.115],[20.0236,49.1153],[20.0264,49.1111],[20.0272,49.1033],[20.021,49.0739],[20.0207,49.0628],[20.0194,49.0544],[20.0146,49.0401],[20.0137,49.0275],[20.0118,49.0214],[20.0081,49.0188],[20.0014,49.0183],[19.9906,49.0149],[19.9852,49.0148],[19.978,49.0154],[19.9747,49.0148],[19.9736,49.0123],[19.9746,49.008],[20.0087,48.9787],[20.0148,48.9748],[20.0196,48.9707],[20.0228,48.966],[20.0242,48.9573],[20.0283,48.9474],[20.0304,48.9435],[20.0326,48.9408],[20.0357,48.9386],[20.0407,48.9374],[20.0517,48.936],[20.0541,48.9337],[20.0519,48.9296],[20.041,48.9221],[20.0303,48.9166],[19.9962,48.9066],[19.9831,48.9131],[19.9788,48.9135],[19.9733,48.9134],[19.9558,48.9078],[19.9439,48.907],[19.9412,48.9064],[19.8455,48.9078],[19.8174,48.913],[19.8081,48.9131],[19.7623,48.9044],[19.7504,48.8999],[19.7466,48.8999],[19.7428,48.9009],[19.7376,48.9041],[19.735,48.9064],[19.7321,48.9083],[19.7283,48.9095],[19.7184,48.9112],[19.7147,48.9125],[19.7092,48.9166],[19.7016,48.9205],[19.6374,48.9362],[19.5615,48.9424],[19.3936,48.9235],[19.3602,48.8963],[19.3392,48.8883],[19.3285,48.879],[19.3268,48.8753],[19.3254,48.8689],[19.3244,48.8669],[19.323,48.8652],[19.321,48.8636],[19.3158,48.861],[19.3103,48.8598],[19.2695,48.8556],[19.2664,48.8557],[19.2645,48.8564],[19.2669,48.8605],[19.268,48.8618],[19.2693,48.8622],[19.2729,48.8625],[19.274,48.8631],[19.2743,48.8655],[19.2738,48.8692],[19.2721,48.8772],[19.2701,48.8808],[19.2678,48.8831],[19.2647,48.8841],[19.263,48.8853],[19.2614,48.8889],[19.26,48.8905],[19.2521,48.8906],[19.0867,48.8749],[19.0392,48.8767],[19.0277,48.859],[19.0248,48.8566],[19.02,48.8532],[19.0034,48.8478],[19.0012,48.8454],[19.0014,48.842],[19.0068,48.8297],[19.0077,48.8238],[19.0068,48.8196],[19.0029,48.8158],[19.0,48.8135],[18.9987,48.8104],[18.9996,48.806],[19.0054,48.7989],[19.0187,48.7909],[19.0201,48.7895],[19.0207,48.7863],[19.0203,48.7814],[19.017,48.7697],[19.0147,48.7636],[19.001,48.7469],[18.916,48.7503],[18.8991,48.7529],[18.8986,48.7543],[18.8963,48.757],[18.8944,48.7583],[18.8932,48.7595],[18.8918,48.7611],[18.891,48.7631],[18.8898,48.7651],[18.8881,48.7666],[18.8758,48.7641],[18.833,48.7442],[18.8304,48.7537],[18.8274,48.7569],[18.7933,48.7851],[18.7866,48.7919],[18.783,48.797],[18.7801,48.804],[18.7796,48.8074],[18.7802,48.8098],[18.7826,48.8117],[18.7822,48.8126],[18.7793,48.8142],[18.7734,48.8165],[18.7576,48.8265],[18.7534,48.8273],[18.7509,48.828],[18.7473,48.8296],[18.7447,48.8305],[18.74,48.8314],[18.7377,48.8321],[18.7351,48.8332],[18.7124,48.8469],[18.7082,48.8506],[18.7061,48.8538],[18.7059,48.8595],[18.7073,48.8658],[18.7076,48.8683],[18.7073,48.8707],[18.7059,48.8753],[18.7059,48.8781],[18.7065,48.8807],[18.7093,48.8867],[18.7096,48.8907],[18.7092,48.8958],[18.7034,48.911],[18.7031,48.9148],[18.7045,48.917],[18.7073,48.9198],[18.7087,48.922],[18.7096,48.924],[18.7101,48.9257],[18.7109,48.9269],[18.7124,48.9279],[18.7144,48.9287],[18.7165,48.9299],[18.7191,48.9317],[18.721,48.9336],[18.7259,48.9366],[18.7059,48.9538],[18.702,48.9557],[18.6965,48.9578],[18.6773,48.9591],[18.6357,48.9661],[18.6035,48.9598],[18.5937,48.96],[18.5919,48.9618],[18.5857,48.97],[18.5832,48.9715],[18.5808,48.9715],[18.5678,48.9622],[18.5662,48.9607],[18.5656,48.959],[18.5653,48.9572],[18.5617,48.9538],[18.5549,48.9496],[18.5282,48.9392],[18.5208,48.9382],[18.5169,48.9386],[18.5029,48.9417],[18.4848,48.9439],[18.4763,48.9482],[18.4706,48.9563],[18.5,48.9677],[18.504,48.9699],[18.5098,48.9739],[18.5192,48.9846],[18.5251,48.9883],[18.5313,48.9909],[18.5614,48.9965],[18.5707,49.0015],[18.5823,49.0105],[18.5954,49.023],[18.6005,49.0297],[18.6027,49.0353],[18.5998,49.0486],[18.5999,49.0506],[18.6009,49.0527],[18.6026,49.0555],[18.603,49.0571],[18.6029,49.0586],[18.6023,49.0599],[18.6021,49.0614],[18.6024,49.0631],[18.604,49.0671],[18.6043,49.0689],[18.604,49.0705],[18.6027,49.0718],[18.601,49.0731],[18.5993,49.0739],[18.5954,49.0753],[18.594,49.0762],[18.5928,49.0773],[18.5902,49.0819],[18.5885,49.0834],[18.5863,49.0851],[18.5839,49.0865],[18.5819,49.0874],[18.5676,49.0902],[18.5636,49.0902],[18.5619,49.0905],[18.5605,49.0925],[18.5642,49.0961],[18.5911,49.1147],[18.5791,49.1271],[18.578,49.1294],[18.5771,49.1333],[18.5777,49.1372],[18.5772,49.1445],[18.5743,49.1494],[18.5662,49.1568],[18.5613,49.1598],[18.5425,49.1676],[18.5369,49.1685],[18.5331,49.1696],[18.5288,49.1714],[18.5167,49.1789],[18.5135,49.1804],[18.511,49.1808],[18.5076,49.1808],[18.506,49.1811],[18.482,49.1915],[18.4764,49.1951],[18.4709,49.2],[18.4584,49.215],[18.4568,49.2173],[18.457,49.2182],[18.4565,49.2199],[18.4554,49.222],[18.4505,49.2282],[18.4497,49.2301],[18.4499,49.2313],[18.4514,49.2339],[18.4519,49.2353],[18.4506,49.2379],[18.4482,49.2413],[18.3866,49.3085],[18.3855,49.3102],[18.3849,49.3123],[18.3845,49.3141],[18.3842,49.3218],[18.3662,49.3257],[18.3616,49.3302],[18.3852,49.3423],[18.387,49.3776],[18.3876,49.3898],[18.4168,49.3855],[18.4392,49.3951],[18.4818,49.4291],[18.5147,49.4406],[18.5229,49.4461],[18.528,49.4549],[18.5305,49.4735],[18.5356,49.4817],[18.5562,49.4902],[18.6004,49.486],[18.629,49.4958],[18.6359,49.4967],[18.6428,49.4958],[18.6756,49.485],[18.7045,49.4793],[18.7325,49.4803],[18.7736,49.5049],[18.7923,49.5095],[18.8332,49.5103],[18.9322,49.5043],[18.9611,49.4928],[18.9524,49.4759],[18.9534,49.4617],[18.9583,49.4481],[18.9608,49.4333],[18.9567,49.4004],[18.9623,49.3892],[18.9818,49.3868],[19.0071,49.3881],[19.0458,49.4028],[19.0676,49.4061],[19.0768,49.4041],[19.0966,49.3946],[19.1063,49.3914],[19.1166,49.3909],[19.1417,49.3942],[19.1725,49.4023],[19.1797,49.4103],[19.1823,49.4227],[19.1894,49.4422],[19.1922,49.4426],[19.2045,49.4428],[19.209,49.445],[19.2114,49.4517],[19.2094,49.4564],[19.2062,49.4594],[19.2044,49.4605],[19.2205,49.493],[19.2341,49.5072],[19.2487,49.5163],[19.265,49.5215],[19.2842,49.5242],[19.315,49.524],[19.3254,49.525],[19.3395,49.5288],[19.3471,49.533],[19.4338,49.5952],[19.4376,49.6001],[19.4434,49.6018]]]}}]}