{"type":"FeatureCollection","features":[{"type":"Feature","properties":{"id":"SWZ-534","name":"Hhohho","nameBn":"হোহো জেলা","type":"District","bounds":[30.8973,-26.4565,31.747,-25.736],"center":[31.322,-26.0265]},"geometry":{"type":"Polygon","coordinates":[[[31.4015,-25.736],[31.4269,-25.7436],[31.5328,-25.8056],[31.6388,-25.8675],[31.7306,-25.9212],[31.747,-25.9308],[31.7401,-25.9399],[31.7348,-25.9419],[31.7281,-25.9436],[31.7222,-25.9437],[31.7168,-25.945],[31.7058,-25.949],[31.6997,-25.9502],[31.6935,-25.9502],[31.6875,-25.9492],[31.6719,-25.9436],[31.6688,-25.9522],[31.6797,-26.1175],[31.6769,-26.1421],[31.6698,-26.1519],[31.6369,-26.1646],[31.6162,-26.168],[31.5763,-26.1684],[31.5697,-26.1692],[31.5621,-26.1712],[31.5537,-26.1771],[31.5491,-26.1819],[31.5438,-26.1936],[31.5413,-26.1971],[31.5382,-26.2006],[31.529,-26.2065],[31.5132,-26.2134],[31.5087,-26.2164],[31.5062,-26.221],[31.5031,-26.2377],[31.5016,-26.242],[31.4997,-26.2448],[31.4972,-26.2473],[31.4901,-26.2512],[31.4319,-26.27],[31.4212,-26.2751],[31.4154,-26.2789],[31.4088,-26.2812],[31.3996,-26.2821],[31.3647,-26.2778],[31.3603,-26.2789],[31.3571,-26.2823],[31.3549,-26.2853],[31.3531,-26.2896],[31.3513,-26.2913],[31.3473,-26.2934],[31.3372,-26.2974],[31.3074,-26.3057],[31.2977,-26.3099],[31.2911,-26.314],[31.2871,-26.3185],[31.2846,-26.3227],[31.2843,-26.3279],[31.2868,-26.341],[31.2874,-26.3487],[31.2862,-26.3545],[31.2828,-26.3598],[31.2713,-26.3699],[31.268,-26.375],[31.2679,-26.3803],[31.2696,-26.3868],[31.2708,-26.3948],[31.2696,-26.4038],[31.2671,-26.4129],[31.266,-26.4223],[31.2684,-26.4389],[31.2687,-26.4462],[31.2662,-26.4508],[31.2611,-26.4543],[31.253,-26.4565],[31.2419,-26.4561],[31.2299,-26.4529],[31.2089,-26.4391],[31.2008,-26.4325],[31.1955,-26.427],[31.1921,-26.4255],[31.1864,-26.4245],[31.1735,-26.424],[31.1647,-26.4246],[31.1585,-26.4262],[31.1501,-26.4298],[31.1398,-26.4293],[31.0946,-26.42],[31.0891,-26.4194],[31.083,-26.4169],[31.0784,-26.4127],[31.071,-26.4022],[31.0626,-26.3874],[31.0598,-26.3837],[31.0568,-26.3807],[30.9096,-26.2964],[30.8973,-26.2917],[30.9699,-26.2091],[31.0378,-26.1001],[31.0916,-25.9836],[31.1069,-25.9309],[31.1198,-25.91],[31.2084,-25.8386],[31.3093,-25.7574],[31.3374,-25.7447],[31.372,-25.7364],[31.4015,-25.736]]]}},{"type":"Feature","properties":{"id":"SWZ-535","name":"Lubombo","nameBn":"লুবোম্বু জেলা","type":"District","bounds":[31.4882,-27.1623,32.1174,-25.9308],"center":[31.8026,-26.5247]},"geometry":{"type":"Polygon","coordinates":[[[31.9492,-25.9581],[31.9753,-25.9804],[32.004,-25.9944],[32.0706,-26.0098],[32.0575,-26.0412],[32.0627,-26.0772],[32.0746,-26.1142],[32.0814,-26.1488],[32.0778,-26.1755],[32.0447,-26.2545],[32.0399,-26.2837],[32.0523,-26.3868],[32.0598,-26.4148],[32.1071,-26.5003],[32.1174,-26.5823],[32.1139,-26.84],[32.0978,-26.8335],[32.0732,-26.8114],[32.0571,-26.8086],[31.9901,-26.8083],[31.9922,-26.8383],[31.9753,-26.9266],[31.9597,-27.0088],[31.9421,-27.1007],[31.9442,-27.1623],[31.9439,-27.1623],[31.9149,-27.1608],[31.9106,-27.16],[31.9075,-27.158],[31.908,-27.1522],[31.909,-27.147],[31.9087,-27.1427],[31.9061,-27.1404],[31.898,-27.139],[31.8805,-27.1382],[31.8724,-27.1368],[31.8657,-27.1346],[31.8634,-27.1292],[31.8628,-27.1248],[31.8639,-27.1074],[31.8625,-27.1043],[31.8591,-27.102],[31.8274,-27.0906],[31.8176,-27.0882],[31.8085,-27.0873],[31.8006,-27.0856],[31.7951,-27.0814],[31.7769,-27.042],[31.7708,-27.0357],[31.7613,-27.0326],[31.7529,-27.0328],[31.7238,-27.0397],[31.7142,-27.0406],[31.7043,-27.0396],[31.6952,-27.037],[31.6861,-27.0331],[31.641,-27.0085],[31.6166,-26.9916],[31.599,-26.9742],[31.5894,-26.9669],[31.5813,-26.9624],[31.5751,-26.961],[31.568,-26.9589],[31.5629,-26.9602],[31.5573,-26.9635],[31.5514,-26.9648],[31.5457,-26.9627],[31.5387,-26.9573],[31.5256,-26.9445],[31.5202,-26.9375],[31.4994,-26.9038],[31.4966,-26.8968],[31.4997,-26.888],[31.5033,-26.8815],[31.516,-26.8633],[31.5225,-26.8501],[31.5405,-26.8303],[31.5453,-26.8225],[31.5477,-26.8146],[31.5453,-26.8029],[31.5455,-26.7953],[31.5472,-26.7882],[31.5553,-26.7745],[31.5584,-26.7679],[31.5531,-26.7635],[31.5461,-26.7602],[31.4882,-26.7621],[31.4892,-26.7421],[31.4957,-26.7187],[31.5189,-26.6669],[31.5225,-26.6619],[31.5265,-26.6579],[31.5306,-26.6551],[31.5889,-26.6305],[31.596,-26.6248],[31.6001,-26.6162],[31.5978,-26.5801],[31.5922,-26.5496],[31.5881,-26.5394],[31.5796,-26.526],[31.5787,-26.5204],[31.5836,-26.5166],[31.5928,-26.5135],[31.6014,-26.5094],[31.6077,-26.5047],[31.6083,-26.4965],[31.6077,-26.4912],[31.6046,-26.4804],[31.6043,-26.4746],[31.6054,-26.4669],[31.6105,-26.4571],[31.6117,-26.4337],[31.6104,-26.4255],[31.6062,-26.4128],[31.606,-26.4085],[31.608,-26.4056],[31.6212,-26.3988],[31.6271,-26.3948],[31.6303,-26.3903],[31.6305,-26.3819],[31.6321,-26.3749],[31.6389,-26.3673],[31.658,-26.3521],[31.6678,-26.3424],[31.6771,-26.3309],[31.6834,-26.3159],[31.6871,-26.3002],[31.6895,-26.2751],[31.6977,-26.2491],[31.6932,-26.2407],[31.6916,-26.2356],[31.6929,-26.2294],[31.6902,-26.2102],[31.6698,-26.1519],[31.6769,-26.1421],[31.6797,-26.1175],[31.6688,-25.9522],[31.6719,-25.9436],[31.6875,-25.9492],[31.6935,-25.9502],[31.6997,-25.9502],[31.7058,-25.949],[31.7168,-25.945],[31.7222,-25.9437],[31.7281,-25.9436],[31.7348,-25.9419],[31.7401,-25.9399],[31.747,-25.9308],[31.8346,-25.9821],[31.8634,-25.9899],[31.8919,-25.9838],[31.9492,-25.9581]]]}},{"type":"Feature","properties":{"id":"SWZ-536","name":"Manzini","nameBn":"মাঞ্জিনি জেলা","type":"District","bounds":[30.7829,-26.8777,31.6977,-26.1519],"center":[31.2402,-26.6342]},"geometry":{"type":"Polygon","coordinates":[[[30.8024,-26.8089],[30.7957,-26.7855],[30.7857,-26.7169],[30.7841,-26.5788],[30.7829,-26.4724],[30.8046,-26.3975],[30.8973,-26.2917],[30.9096,-26.2964],[31.0568,-26.3807],[31.0598,-26.3837],[31.0626,-26.3874],[31.071,-26.4022],[31.0784,-26.4127],[31.083,-26.4169],[31.0891,-26.4194],[31.0946,-26.42],[31.1398,-26.4293],[31.1501,-26.4298],[31.1585,-26.4262],[31.1647,-26.4246],[31.1735,-26.424],[31.1864,-26.4245],[31.1921,-26.4255],[31.1955,-26.427],[31.2008,-26.4325],[31.2089,-26.4391],[31.2299,-26.4529],[31.2419,-26.4561],[31.253,-26.4565],[31.2611,-26.4543],[31.2662,-26.4508],[31.2687,-26.4462],[31.2684,-26.4389],[31.266,-26.4223],[31.2671,-26.4129],[31.2696,-26.4038],[31.2708,-26.3948],[31.2696,-26.3868],[31.2679,-26.3803],[31.268,-26.375],[31.2713,-26.3699],[31.2828,-26.3598],[31.2862,-26.3545],[31.2874,-26.3487],[31.2868,-26.341],[31.2843,-26.3279],[31.2846,-26.3227],[31.2871,-26.3185],[31.2911,-26.314],[31.2977,-26.3099],[31.3074,-26.3057],[31.3372,-26.2974],[31.3473,-26.2934],[31.3513,-26.2913],[31.3531,-26.2896],[31.3549,-26.2853],[31.3571,-26.2823],[31.3603,-26.2789],[31.3647,-26.2778],[31.3996,-26.2821],[31.4088,-26.2812],[31.4154,-26.2789],[31.4212,-26.2751],[31.4319,-26.27],[31.4901,-26.2512],[31.4972,-26.2473],[31.4997,-26.2448],[31.5016,-26.242],[31.5031,-26.2377],[31.5062,-26.221],[31.5087,-26.2164],[31.5132,-26.2134],[31.529,-26.2065],[31.5382,-26.2006],[31.5413,-26.1971],[31.5438,-26.1936],[31.5491,-26.1819],[31.5537,-26.1771],[31.5621,-26.1712],[31.5697,-26.1692],[31.5763,-26.1684],[31.6162,-26.168],[31.6369,-26.1646],[31.6698,-26.1519],[31.6902,-26.2102],[31.6929,-26.2294],[31.6916,-26.2356],[31.6932,-26.2407],[31.6977,-26.2491],[31.6895,-26.2751],[31.6871,-26.3002],[31.6834,-26.3159],[31.6771,-26.3309],[31.6678,-26.3424],[31.658,-26.3521],[31.6389,-26.3673],[31.6321,-26.3749],[31.6305,-26.3819],[31.6303,-26.3903],[31.6271,-26.3948],[31.6212,-26.3988],[31.608,-26.4056],[31.606,-26.4085],[31.6062,-26.4128],[31.6104,-26.4255],[31.6117,-26.4337],[31.6105,-26.4571],[31.6054,-26.4669],[31.6043,-26.4746],[31.6046,-26.4804],[31.6077,-26.4912],[31.6083,-26.4965],[31.6077,-26.5047],[31.6014,-26.5094],[31.5928,-26.5135],[31.5836,-26.5166],[31.5787,-26.5204],[31.5796,-26.526],[31.5881,-26.5394],[31.5922,-26.5496],[31.5978,-26.5801],[31.6001,-26.6162],[31.596,-26.6248],[31.5889,-26.6305],[31.5306,-26.6551],[31.5265,-26.6579],[31.5225,-26.6619],[31.5189,-26.6669],[31.4957,-26.7187],[31.4892,-26.7421],[31.4882,-26.7621],[31.448,-26.7558],[31.4274,-26.7595],[31.4114,-26.7688],[31.4046,-26.7739],[31.3987,-26.7801],[31.3903,-26.7873],[31.381,-26.7905],[31.3341,-26.7946],[31.3273,-26.7973],[31.3238,-26.8001],[31.323,-26.8042],[31.3208,-26.8084],[31.3172,-26.8129],[31.3077,-26.8194],[31.304,-26.8239],[31.3015,-26.8282],[31.3008,-26.8326],[31.2998,-26.8463],[31.2966,-26.8471],[31.2901,-26.8457],[31.2446,-26.8151],[31.234,-26.8096],[31.2226,-26.8078],[31.213,-26.8106],[31.2039,-26.8146],[31.1955,-26.8163],[31.1842,-26.8163],[31.171,-26.8199],[31.1175,-26.8454],[31.0728,-26.877],[31.0686,-26.8777],[31.0669,-26.8752],[31.0674,-26.8703],[31.0685,-26.8649],[31.0722,-26.8555],[31.0733,-26.8517],[31.0725,-26.8479],[31.0585,-26.8315],[31.0556,-26.8266],[31.0551,-26.8227],[31.0568,-26.818],[31.0584,-26.8112],[31.0585,-26.8028],[31.0573,-26.7883],[31.0556,-26.7827],[31.0523,-26.778],[31.0438,-26.7701],[31.0346,-26.768],[31.0255,-26.768],[30.9906,-26.775],[30.9678,-26.7759],[30.9564,-26.7714],[30.9454,-26.763],[30.9411,-26.7603],[30.9386,-26.7603],[30.9374,-26.7623],[30.933,-26.7643],[30.8995,-26.7719],[30.8853,-26.7856],[30.8802,-26.7722],[30.8687,-26.7849],[30.8534,-26.7966],[30.8364,-26.8051],[30.8198,-26.808],[30.8024,-26.8089]]]}},{"type":"Feature","properties":{"id":"SWZ-537","name":"Shiselweni","nameBn":"শিসেলওয়েনি জেলা","type":"District","bounds":[30.8853,-27.3163,31.9683,-26.7558],"center":[31.4265,-27.0243]},"geometry":{"type":"Polygon","coordinates":[[[31.2447,-27.2326],[31.157,-27.2056],[31.142,-27.1965],[31.1265,-27.1826],[31.0788,-27.1182],[30.9761,-27.035],[30.9536,-27.0003],[30.9494,-26.9754],[30.9597,-26.9361],[30.961,-26.9112],[30.9551,-26.8914],[30.9444,-26.8766],[30.9158,-26.8494],[30.9026,-26.8313],[30.8853,-26.7856],[30.8995,-26.7719],[30.933,-26.7643],[30.9374,-26.7623],[30.9386,-26.7603],[30.9411,-26.7603],[30.9454,-26.763],[30.9564,-26.7714],[30.9678,-26.7759],[30.9906,-26.775],[31.0255,-26.768],[31.0346,-26.768],[31.0438,-26.7701],[31.0523,-26.778],[31.0556,-26.7827],[31.0573,-26.7883],[31.0585,-26.8028],[31.0584,-26.8112],[31.0568,-26.818],[31.0551,-26.8227],[31.0556,-26.8266],[31.0585,-26.8315],[31.0725,-26.8479],[31.0733,-26.8517],[31.0722,-26.8555],[31.0685,-26.8649],[31.0674,-26.8703],[31.0669,-26.8752],[31.0686,-26.8777],[31.0728,-26.877],[31.1175,-26.8454],[31.171,-26.8199],[31.1842,-26.8163],[31.1955,-26.8163],[31.2039,-26.8146],[31.213,-26.8106],[31.2226,-26.8078],[31.234,-26.8096],[31.2446,-26.8151],[31.2901,-26.8457],[31.2966,-26.8471],[31.2998,-26.8463],[31.3008,-26.8326],[31.3015,-26.8282],[31.304,-26.8239],[31.3077,-26.8194],[31.3172,-26.8129],[31.3208,-26.8084],[31.323,-26.8042],[31.3238,-26.8001],[31.3273,-26.7973],[31.3341,-26.7946],[31.381,-26.7905],[31.3903,-26.7873],[31.3987,-26.7801],[31.4046,-26.7739],[31.4114,-26.7688],[31.4274,-26.7595],[31.448,-26.7558],[31.4882,-26.7621],[31.5461,-26.7602],[31.5531,-26.7635],[31.5584,-26.7679],[31.5553,-26.7745],[31.5472,-26.7882],[31.5455,-26.7953],[31.5453,-26.8029],[31.5477,-26.8146],[31.5453,-26.8225],[31.5405,-26.8303],[31.5225,-26.8501],[31.516,-26.8633],[31.5033,-26.8815],[31.4997,-26.888],[31.4966,-26.8968],[31.4994,-26.9038],[31.5202,-26.9375],[31.5256,-26.9445],[31.5387,-26.9573],[31.5457,-26.9627],[31.5514,-26.9648],[31.5573,-26.9635],[31.5629,-26.9602],[31.568,-26.9589],[31.5751,-26.961],[31.5813,-26.9624],[31.5894,-26.9669],[31.599,-26.9742],[31.6166,-26.9916],[31.641,-27.0085],[31.6861,-27.0331],[31.6952,-27.037],[31.7043,-27.0396],[31.7142,-27.0406],[31.7238,-27.0397],[31.7529,-27.0328],[31.7613,-27.0326],[31.7708,-27.0357],[31.7769,-27.042],[31.7951,-27.0814],[31.8006,-27.0856],[31.8085,-27.0873],[31.8176,-27.0882],[31.8274,-27.0906],[31.8591,-27.102],[31.8625,-27.1043],[31.8639,-27.1074],[31.8628,-27.1248],[31.8634,-27.1292],[31.8657,-27.1346],[31.8724,-27.1368],[31.8805,-27.1382],[31.898,-27.139],[31.9061,-27.1404],[31.9087,-27.1427],[31.909,-27.147],[31.908,-27.1522],[31.9075,-27.158],[31.9106,-27.16],[31.9149,-27.1608],[31.9439,-27.1623],[31.9442,-27.1623],[31.9449,-27.1814],[31.9474,-27.2555],[31.953,-27.2702],[31.9598,-27.281],[31.9648,-27.2917],[31.9677,-27.303],[31.9683,-27.3163],[31.8786,-27.3152],[31.7825,-27.314],[31.6369,-27.3122],[31.5265,-27.3109],[31.4595,-27.2987],[31.3567,-27.2671],[31.2801,-27.2435],[31.2447,-27.2326]]]}}]}