{"type":"FeatureCollection","features":[{"type":"Feature","properties":{"id":"TON-4949","name":"Eua","nameBn":"ইঊয়া","type":null,"bounds":[-174.9836,-21.4542,-174.9085,-21.2844],"center":[-174.941,-21.3672]},"geometry":{"type":"Polygon","coordinates":[[[-174.9147,-21.2922],[-174.9085,-21.3294],[-174.909,-21.3445],[-174.9147,-21.3814],[-174.9139,-21.4441],[-174.9203,-21.4542],[-174.9359,-21.4455],[-174.9422,-21.4303],[-174.9549,-21.4181],[-174.9836,-21.3977],[-174.9836,-21.3909],[-174.9797,-21.3894],[-174.97,-21.384],[-174.9758,-21.3731],[-174.9769,-21.3596],[-174.9717,-21.3479],[-174.9519,-21.3398],[-174.9455,-21.3321],[-174.9359,-21.3157],[-174.9335,-21.3095],[-174.9261,-21.2946],[-174.9184,-21.2844],[-174.9147,-21.2922]]]}},{"type":"Feature","properties":{"id":"TON-4948","name":"Ha'apai","nameBn":"হা'আপাই","type":null,"bounds":[-175.1003,-19.8219,-174.244,-19.5927],"center":[-174.317,-19.757]},"geometry":{"type":"MultiPolygon","coordinates":[[[[-174.3611,-19.8014],[-174.3475,-19.7968],[-174.337,-19.7878],[-174.3297,-19.775],[-174.3257,-19.7597],[-174.3207,-19.7607],[-174.3098,-19.7647],[-174.3059,-19.7672],[-174.3138,-19.7848],[-174.3151,-19.8045],[-174.3202,-19.8193],[-174.3393,-19.8219],[-174.347,-19.8181],[-174.3531,-19.8137],[-174.3579,-19.8084],[-174.3611,-19.8014]]],[[[-175.0693,-19.712],[-175.0533,-19.7238],[-175.046,-19.7512],[-175.0478,-19.7812],[-175.0593,-19.8014],[-175.0593,-19.7939],[-175.0655,-19.8014],[-175.0705,-19.7956],[-175.0758,-19.7922],[-175.0873,-19.7877],[-175.0865,-19.7873],[-175.0876,-19.7848],[-175.0873,-19.7809],[-175.0995,-19.7498],[-175.1003,-19.7398],[-175.0967,-19.7208],[-175.0906,-19.7127],[-175.0817,-19.7114],[-175.0693,-19.712]]],[[[-174.3058,-19.733],[-174.2882,-19.7237],[-174.2782,-19.7106],[-174.27,-19.6969],[-174.2574,-19.6847],[-174.2522,-19.6993],[-174.2552,-19.7122],[-174.2611,-19.7243],[-174.2643,-19.7364],[-174.2717,-19.7491],[-174.2875,-19.7506],[-174.3022,-19.7441],[-174.3058,-19.733]]],[[[-174.2609,-19.6305],[-174.248,-19.6359],[-174.244,-19.6463],[-174.2493,-19.6537],[-174.2643,-19.6505],[-174.2752,-19.6357],[-174.2884,-19.6111],[-174.293,-19.5927],[-174.2779,-19.5959],[-174.2728,-19.6043],[-174.2678,-19.6262],[-174.2609,-19.6305]]]]}},{"type":"Feature","properties":{"id":"TON-4947","name":"Niuas","nameBn":"নিউয়াস","type":null,"bounds":[-175.6863,-15.9767,-173.7152,-15.5595],"center":[-173.757,-15.9558]},"geometry":{"type":"MultiPolygon","coordinates":[[[[-175.6313,-15.5595],[-175.6126,-15.5733],[-175.6178,-15.6015],[-175.6392,-15.6243],[-175.6689,-15.6215],[-175.6863,-15.6023],[-175.6833,-15.5821],[-175.6638,-15.566],[-175.6313,-15.5595]]],[[[-173.7334,-15.9397],[-173.7202,-15.9318],[-173.7152,-15.9321],[-173.7158,-15.9457],[-173.7266,-15.963],[-173.7412,-15.9767],[-173.7569,-15.9766],[-173.7652,-15.9661],[-173.7647,-15.9586],[-173.7543,-15.9496],[-173.7334,-15.9397]]]]}},{"type":"Feature","properties":{"id":"TON-4945","name":"Tongatapu","nameBn":"টোঙ্গাটাপু","type":null,"bounds":[-176.2193,-22.3388,-175.0509,-21.0626],"center":[-175.155,-21.1718]},"geometry":{"type":"MultiPolygon","coordinates":[[[[-175.0655,-21.124],[-175.0546,-21.1315],[-175.0509,-21.1393],[-175.0519,-21.155],[-175.0605,-21.1638],[-175.1174,-21.2031],[-175.121,-21.2117],[-175.1193,-21.2223],[-175.1159,-21.2336],[-175.114,-21.2441],[-175.1176,-21.256],[-175.1265,-21.2628],[-175.1378,-21.2662],[-175.1488,-21.268],[-175.1704,-21.2634],[-175.1805,-21.2551],[-175.1965,-21.2263],[-175.2097,-21.2145],[-175.2573,-21.1922],[-175.2648,-21.1996],[-175.2896,-21.186],[-175.3038,-21.1808],[-175.3163,-21.1786],[-175.3258,-21.1736],[-175.3505,-21.141],[-175.3648,-21.1139],[-175.3553,-21.0896],[-175.3321,-21.0712],[-175.3058,-21.0626],[-175.3182,-21.0768],[-175.3341,-21.0896],[-175.3408,-21.1026],[-175.3262,-21.1171],[-175.3154,-21.1214],[-175.3065,-21.1217],[-175.2498,-21.1113],[-175.2406,-21.1137],[-175.2331,-21.1193],[-175.2252,-21.1238],[-175.2189,-21.1301],[-175.2164,-21.141],[-175.2313,-21.1501],[-175.2382,-21.1584],[-175.2341,-21.1686],[-175.2236,-21.1725],[-175.2136,-21.1684],[-175.2036,-21.1616],[-175.1931,-21.1581],[-175.1808,-21.1601],[-175.1631,-21.1694],[-175.155,-21.1718],[-175.1401,-21.1684],[-175.1342,-21.1579],[-175.1284,-21.1441],[-175.114,-21.1308],[-175.1037,-21.1262],[-175.0908,-21.1227],[-175.0774,-21.1215],[-175.0655,-21.124]]],[[[-176.2135,-22.3239],[-176.2042,-22.3269],[-176.1981,-22.332],[-176.2019,-22.3361],[-176.207,-22.3388],[-176.2102,-22.3388],[-176.2159,-22.3351],[-176.2193,-22.3298],[-176.2183,-22.3249],[-176.2135,-22.3239]]]]}},{"type":"Feature","properties":{"id":"TON-4946","name":"Vava'u","nameBn":"ভাভাউ","type":null,"bounds":[-174.6641,-18.8175,-173.9143,-18.5662],"center":[-173.988,-18.6118]},"geometry":{"type":"MultiPolygon","coordinates":[[[[-173.9564,-18.5673],[-173.9413,-18.5728],[-173.9343,-18.5793],[-173.928,-18.5867],[-173.9154,-18.5953],[-173.9143,-18.6061],[-173.9152,-18.6269],[-173.923,-18.637],[-173.9421,-18.6158],[-173.953,-18.6207],[-173.9586,-18.6267],[-173.9576,-18.6342],[-173.949,-18.6432],[-173.9572,-18.653],[-173.9626,-18.6635],[-173.9766,-18.6606],[-173.986,-18.671],[-173.9906,-18.6881],[-173.9905,-18.7052],[-174.003,-18.6985],[-174.01,-18.6871],[-174.0172,-18.6635],[-174.0012,-18.6574],[-174.0004,-18.6457],[-174.0065,-18.6344],[-174.011,-18.6295],[-174.0223,-18.6388],[-174.0256,-18.6537],[-174.0301,-18.6633],[-174.0452,-18.6568],[-174.0461,-18.6624],[-174.0491,-18.6635],[-174.0536,-18.6632],[-174.0594,-18.6635],[-174.0725,-18.634],[-174.0536,-18.6191],[-174.0255,-18.6049],[-174.011,-18.5779],[-174.0041,-18.571],[-173.9881,-18.5673],[-173.9698,-18.5662],[-173.9564,-18.5673]]],[[[-174.6538,-18.8175],[-174.6641,-18.8014],[-174.6612,-18.7869],[-174.6496,-18.7796],[-174.6339,-18.7853],[-174.6268,-18.7975],[-174.6302,-18.809],[-174.6405,-18.8166],[-174.6538,-18.8175]]]]}}]}