{"type":"FeatureCollection","features":[{"type":"Feature","properties":{"id":"TTO-53","name":"Arima","nameBn":"এরিমা","type":"City","bounds":[-61.2956,10.6074,-61.2652,10.654],"center":[-61.2804,10.6284]},"geometry":{"type":"Polygon","coordinates":[[[-61.2854,10.654],[-61.2713,10.6406],[-61.2698,10.6337],[-61.2655,10.6197],[-61.2652,10.6136],[-61.2668,10.6097],[-61.2698,10.6085],[-61.2745,10.6074],[-61.2833,10.6076],[-61.2925,10.6105],[-61.295,10.6121],[-61.2956,10.6139],[-61.2952,10.6158],[-61.2941,10.6176],[-61.2903,10.6211],[-61.2887,10.6233],[-61.2876,10.6289],[-61.2877,10.6307],[-61.288,10.6326],[-61.2879,10.6344],[-61.2875,10.636],[-61.2867,10.6375],[-61.2858,10.6386],[-61.2852,10.6398],[-61.2856,10.641],[-61.2864,10.6426],[-61.2866,10.645],[-61.2854,10.654]]]}},{"type":"Feature","properties":{"id":"TTO-63","name":"Chaguanas","nameBn":"চাগোয়ানেস","type":"City","bounds":[-61.4623,10.5031,-61.3645,10.5663],"center":[-61.4134,10.5359]},"geometry":{"type":"Polygon","coordinates":[[[-61.4623,10.5226],[-61.4622,10.5381],[-61.4606,10.5381],[-61.441,10.565],[-61.4098,10.5663],[-61.369,10.5655],[-61.3645,10.5443],[-61.3713,10.5212],[-61.3725,10.5112],[-61.3795,10.5049],[-61.4051,10.5031],[-61.4172,10.5069],[-61.4248,10.5131],[-61.4343,10.5149],[-61.4417,10.5195],[-61.4483,10.5212],[-61.4622,10.5226],[-61.4623,10.5226]]]}},{"type":"Feature","properties":{"id":"TTO-58","name":"Couva-Tabaquite-Talparo","nameBn":"কুভা তাবাকুইত অঞ্চল","type":"Region","bounds":[-61.4879,10.3071,-61.1971,10.5914],"center":[-61.3425,10.4519]},"geometry":{"type":"Polygon","coordinates":[[[-61.4596,10.3097],[-61.4613,10.319],[-61.4663,10.3352],[-61.469,10.3539],[-61.4708,10.3594],[-61.4796,10.3666],[-61.4827,10.371],[-61.4831,10.3765],[-61.4803,10.3779],[-61.4769,10.3786],[-61.4752,10.3815],[-61.4762,10.3893],[-61.482,10.4089],[-61.4857,10.4157],[-61.4879,10.4301],[-61.4822,10.4499],[-61.469,10.4809],[-61.4623,10.5189],[-61.4623,10.5226],[-61.4622,10.5226],[-61.4483,10.5212],[-61.4417,10.5195],[-61.4343,10.5149],[-61.4248,10.5131],[-61.4172,10.5069],[-61.4051,10.5031],[-61.3795,10.5049],[-61.3725,10.5112],[-61.3713,10.5212],[-61.3645,10.5443],[-61.369,10.5655],[-61.3646,10.5734],[-61.3597,10.5734],[-61.35,10.5713],[-61.3374,10.572],[-61.325,10.5775],[-61.311,10.5807],[-61.2678,10.5825],[-61.2392,10.5914],[-61.2281,10.5822],[-61.224,10.5715],[-61.2211,10.5293],[-61.2179,10.5212],[-61.2102,10.5132],[-61.2104,10.4973],[-61.2186,10.4748],[-61.218,10.4662],[-61.2166,10.4618],[-61.1971,10.4564],[-61.2105,10.4321],[-61.2151,10.4122],[-61.2211,10.355],[-61.2292,10.3277],[-61.2436,10.3071],[-61.2525,10.3154],[-61.2647,10.3205],[-61.2727,10.3229],[-61.2813,10.3269],[-61.2941,10.3302],[-61.3115,10.3331],[-61.3401,10.3325],[-61.3736,10.3262],[-61.4078,10.3121],[-61.4278,10.31],[-61.4544,10.3083],[-61.4596,10.3097]]]}},{"type":"Feature","properties":{"id":"TTO-51","name":"Diego Martin","nameBn":"ডিয়েগু মার্টিন অঞ্চল","type":"Region","bounds":[-61.6676,10.6671,-61.488,10.7549],"center":[-61.5778,10.7128]},"geometry":{"type":"Polygon","coordinates":[[[-61.5491,10.6671],[-61.5776,10.6799],[-61.599,10.6844],[-61.65,10.6878],[-61.6564,10.6898],[-61.6613,10.6951],[-61.6676,10.7068],[-61.6156,10.7422],[-61.6021,10.7477],[-61.5611,10.7443],[-61.5151,10.7549],[-61.4901,10.7546],[-61.4897,10.7505],[-61.488,10.7296],[-61.4937,10.7065],[-61.5114,10.6758],[-61.5261,10.678],[-61.5344,10.6774],[-61.545,10.6689],[-61.5491,10.6671]]]}},{"type":"Feature","properties":{"id":"TTO-50","name":"Eastern Tobago","nameBn":"টোবাগো","type":"Region","bounds":[-60.7042,11.2042,-60.5221,11.3511],"center":[-60.6001,11.2899]},"geometry":{"type":"Polygon","coordinates":[[[-60.6547,11.308],[-60.6358,11.3148],[-60.6076,11.3207],[-60.5958,11.3273],[-60.5836,11.3295],[-60.5677,11.3203],[-60.5604,11.3212],[-60.5413,11.3434],[-60.5305,11.3511],[-60.5231,11.3437],[-60.5221,11.3188],[-60.5255,11.2882],[-60.533,11.2665],[-60.5442,11.2691],[-60.5504,11.2691],[-60.5565,11.2541],[-60.5653,11.2524],[-60.5753,11.2558],[-60.5851,11.2555],[-60.5871,11.2511],[-60.602,11.2314],[-60.6056,11.2307],[-60.6288,11.2165],[-60.6361,11.2108],[-60.6471,11.2042],[-60.6646,11.2186],[-60.679,11.231],[-60.7042,11.2407],[-60.6944,11.2503],[-60.6666,11.2682],[-60.647,11.2919],[-60.6547,11.308]]]}},{"type":"Feature","properties":{"id":"TTO-59","name":"Penal-Debe","nameBn":"পেনাল-ডেবে আঞ্চলিক কর্পোরেশন","type":"Region","bounds":[-61.5208,10.0693,-61.3728,10.2591],"center":[-61.4269,10.1459]},"geometry":{"type":"Polygon","coordinates":[[[-61.5208,10.2401],[-61.5178,10.2403],[-61.5066,10.2407],[-61.4953,10.245],[-61.4899,10.2493],[-61.4889,10.248],[-61.4415,10.2591],[-61.3916,10.2377],[-61.3807,10.2277],[-61.3728,10.2174],[-61.3791,10.0728],[-61.4175,10.0762],[-61.5031,10.0693],[-61.5041,10.0695],[-61.4992,10.1067],[-61.4956,10.1176],[-61.4905,10.126],[-61.478,10.1406],[-61.4733,10.1502],[-61.4692,10.1685],[-61.4688,10.1857],[-61.4716,10.1929],[-61.4767,10.2021],[-61.4892,10.2099],[-61.5164,10.2335],[-61.5208,10.2401]]]}},{"type":"Feature","properties":{"id":"TTO-60","name":"Point Fortin","nameBn":"পয়েন্ট ফোর্টিন","type":"City","bounds":[-61.7074,10.1424,-61.6296,10.2101],"center":[-61.6685,10.1669]},"geometry":{"type":"Polygon","coordinates":[[[-61.7074,10.1659],[-61.6691,10.184],[-61.6393,10.2101],[-61.6375,10.2078],[-61.6323,10.2024],[-61.6296,10.1976],[-61.6307,10.1922],[-61.6397,10.1798],[-61.6438,10.1731],[-61.6498,10.1647],[-61.6711,10.147],[-61.6825,10.1432],[-61.692,10.1424],[-61.7041,10.1615],[-61.7074,10.1659]]]}},{"type":"Feature","properties":{"id":"TTO-64","name":"Port of Spain","nameBn":"পোর্ট অব স্পেন","type":"City","bounds":[-61.5491,10.6356,-61.4916,10.678],"center":[-61.5204,10.6647]},"geometry":{"type":"Polygon","coordinates":[[[-61.4957,10.6356],[-61.5288,10.6579],[-61.5491,10.6671],[-61.545,10.6689],[-61.5344,10.6774],[-61.5261,10.678],[-61.5114,10.6758],[-61.4972,10.6684],[-61.4932,10.661],[-61.4916,10.6566],[-61.4957,10.6356]]]}},{"type":"Feature","properties":{"id":"TTO-57","name":"Princes Town","nameBn":"প্রিন্সেস টাউন আঞ্চলিক কর্পোরেশন","type":"Region","bounds":[-61.4415,10.0693,-61.1777,10.3331],"center":[-61.3096,10.2039]},"geometry":{"type":"Polygon","coordinates":[[[-61.1777,10.0752],[-61.1916,10.0738],[-61.253,10.0836],[-61.275,10.0817],[-61.3387,10.0693],[-61.3791,10.0728],[-61.3728,10.2174],[-61.3807,10.2277],[-61.3916,10.2377],[-61.4415,10.2591],[-61.4278,10.31],[-61.4078,10.3121],[-61.3736,10.3262],[-61.3401,10.3325],[-61.3115,10.3331],[-61.2941,10.3302],[-61.2813,10.3269],[-61.2727,10.3229],[-61.2647,10.3205],[-61.2525,10.3154],[-61.2436,10.3071],[-61.2364,10.2847],[-61.2299,10.2803],[-61.2262,10.2718],[-61.2178,10.27],[-61.2085,10.2587],[-61.192,10.2301],[-61.1777,10.0752]]]}},{"type":"Feature","properties":{"id":"TTO-55","name":"Rio Claro-Mayaro","nameBn":"রিও ক্লারো-মায়ারো আঞ্চলিক কর্পোরেশন","type":"Region","bounds":[-61.2436,10.0752,-60.9613,10.4695],"center":[-61.1024,10.2814]},"geometry":{"type":"Polygon","coordinates":[[[-61.0384,10.4636],[-61.0281,10.4085],[-61.023,10.3948],[-61.0163,10.3821],[-60.9984,10.3559],[-60.9613,10.33],[-60.9902,10.2993],[-61.0028,10.2475],[-61.0033,10.1891],[-60.996,10.1383],[-61.0175,10.1429],[-61.0416,10.1356],[-61.0643,10.1218],[-61.082,10.1069],[-61.0997,10.0952],[-61.1224,10.0868],[-61.1673,10.0762],[-61.1777,10.0752],[-61.192,10.2301],[-61.2085,10.2587],[-61.2178,10.27],[-61.2262,10.2718],[-61.2299,10.2803],[-61.2364,10.2847],[-61.2436,10.3071],[-61.2292,10.3277],[-61.2211,10.355],[-61.2151,10.4122],[-61.2105,10.4321],[-61.1971,10.4564],[-61.0953,10.4695],[-61.0384,10.4636]]]}},{"type":"Feature","properties":{"id":"TTO-62","name":"San Fernando","nameBn":"সান ফারনান্দু","type":"City","bounds":[-61.4899,10.248,-61.4278,10.31],"center":[-61.4589,10.2772]},"geometry":{"type":"Polygon","coordinates":[[[-61.4899,10.2493],[-61.4819,10.2557],[-61.4698,10.2693],[-61.4621,10.2822],[-61.4584,10.3022],[-61.4596,10.3097],[-61.4544,10.3083],[-61.4278,10.31],[-61.4415,10.2591],[-61.4889,10.248],[-61.4899,10.2493]]]}},{"type":"Feature","properties":{"id":"TTO-56","name":"San Juan-Laventille","nameBn":"সান হুয়ান-লাভেন্তিলে আঞ্চলিক কর্পোরেশন","type":"Region","bounds":[-61.5114,10.5381,-61.3337,10.8041],"center":[-61.4498,10.613]},"geometry":{"type":"Polygon","coordinates":[[[-61.4901,10.7546],[-61.4857,10.7546],[-61.4732,10.7602],[-61.4656,10.7703],[-61.4604,10.7744],[-61.4553,10.762],[-61.4479,10.762],[-61.4476,10.7654],[-61.4479,10.7757],[-61.4417,10.7757],[-61.441,10.7707],[-61.4394,10.768],[-61.437,10.7659],[-61.4342,10.762],[-61.4417,10.7546],[-61.4334,10.7565],[-61.4276,10.7612],[-61.4237,10.7659],[-61.4212,10.7683],[-61.4019,10.7689],[-61.4001,10.7683],[-61.3918,10.7756],[-61.3729,10.7975],[-61.3666,10.803],[-61.3526,10.8041],[-61.3494,10.7977],[-61.3419,10.7727],[-61.3337,10.7562],[-61.3349,10.745],[-61.3412,10.7375],[-61.3472,10.7357],[-61.3646,10.7398],[-61.3719,10.7402],[-61.3792,10.7382],[-61.3856,10.7375],[-61.4123,10.7413],[-61.4209,10.7388],[-61.4265,10.7288],[-61.4285,10.7114],[-61.4214,10.6675],[-61.4217,10.6426],[-61.4098,10.5663],[-61.441,10.565],[-61.4606,10.5381],[-61.4622,10.5381],[-61.4621,10.5582],[-61.4723,10.5949],[-61.4962,10.6249],[-61.4889,10.631],[-61.4957,10.6356],[-61.4916,10.6566],[-61.4932,10.661],[-61.4972,10.6684],[-61.5114,10.6758],[-61.4937,10.7065],[-61.488,10.7296],[-61.4897,10.7505],[-61.4901,10.7546]]]}},{"type":"Feature","properties":{"id":"TTO-54","name":"Sangre Grande","nameBn":"সাঙরে গ্রান্ডে আঞ্চলিক কর্পোরেশন","type":"Region","bounds":[-61.2395,10.4564,-60.9073,10.8453],"center":[-61.1277,10.6838]},"geometry":{"type":"Polygon","coordinates":[[[-61.1716,10.8039],[-61.1549,10.8165],[-61.0965,10.8234],[-61.0785,10.831],[-60.9488,10.8453],[-60.9073,10.8371],[-60.9498,10.7635],[-61.0023,10.6994],[-61.0209,10.7027],[-61.0327,10.6835],[-61.0381,10.6536],[-61.037,10.6249],[-61.0176,10.5641],[-61.0135,10.5345],[-61.0425,10.51],[-61.0419,10.4819],[-61.0384,10.4636],[-61.0953,10.4695],[-61.1971,10.4564],[-61.2166,10.4618],[-61.218,10.4662],[-61.2186,10.4748],[-61.2104,10.4973],[-61.2102,10.5132],[-61.2179,10.5212],[-61.2211,10.5293],[-61.224,10.5715],[-61.2281,10.5822],[-61.2392,10.5914],[-61.2134,10.6035],[-61.2092,10.6098],[-61.2029,10.6176],[-61.2013,10.6249],[-61.2013,10.6321],[-61.2034,10.6382],[-61.2109,10.6479],[-61.2147,10.655],[-61.218,10.6715],[-61.2137,10.6866],[-61.2133,10.7043],[-61.2143,10.7127],[-61.2196,10.7172],[-61.2239,10.7193],[-61.2302,10.7197],[-61.2353,10.7214],[-61.2395,10.7232],[-61.2376,10.7271],[-61.2093,10.7299],[-61.2002,10.7327],[-61.1945,10.7369],[-61.1782,10.7551],[-61.1717,10.7596],[-61.1631,10.7637],[-61.1572,10.7692],[-61.157,10.7781],[-61.158,10.787],[-61.1676,10.8008],[-61.1716,10.8039]]]}},{"type":"Feature","properties":{"id":"TTO-52","name":"Siparia","nameBn":"সিপারিয়া আঞ্চলিক কর্পোরেশন","type":"Region","bounds":[-61.9287,10.0421,-61.4688,10.2475],"center":[-61.6987,10.118]},"geometry":{"type":"Polygon","coordinates":[[[-61.6393,10.2101],[-61.6388,10.2105],[-61.6396,10.2407],[-61.6269,10.2473],[-61.6118,10.2475],[-61.5601,10.2387],[-61.5208,10.2401],[-61.5164,10.2335],[-61.4892,10.2099],[-61.4767,10.2021],[-61.4716,10.1929],[-61.4688,10.1857],[-61.4692,10.1685],[-61.4733,10.1502],[-61.478,10.1406],[-61.4905,10.126],[-61.4956,10.1176],[-61.4992,10.1067],[-61.5041,10.0695],[-61.5441,10.0762],[-61.5535,10.0739],[-61.5819,10.0626],[-61.5931,10.0614],[-61.6128,10.0568],[-61.6229,10.0556],[-61.637,10.0578],[-61.647,10.063],[-61.6561,10.0696],[-61.6676,10.0762],[-61.6862,10.0816],[-61.7067,10.084],[-61.7933,10.0841],[-61.817,10.0814],[-61.8352,10.0727],[-61.8498,10.0615],[-61.8693,10.05],[-61.8898,10.0423],[-61.9072,10.0421],[-61.9287,10.0565],[-61.9189,10.07],[-61.8867,10.0867],[-61.8819,10.0905],[-61.871,10.0938],[-61.8385,10.0998],[-61.8319,10.1061],[-61.8215,10.1212],[-61.8059,10.1329],[-61.7892,10.1409],[-61.7121,10.1636],[-61.7074,10.1659],[-61.7041,10.1615],[-61.692,10.1424],[-61.6825,10.1432],[-61.6711,10.147],[-61.6498,10.1647],[-61.6438,10.1731],[-61.6397,10.1798],[-61.6307,10.1922],[-61.6296,10.1976],[-61.6323,10.2024],[-61.6375,10.2078],[-61.6393,10.2101]]]}},{"type":"Feature","properties":{"id":"TTO-61","name":"Tunapuna/Piarco","nameBn":"টোনাপোনা-পিয়াকু আঞ্চলিক কর্পোরেশন","type":"Region","bounds":[-61.4285,10.5655,-61.157,10.8044],"center":[-61.3254,10.6903]},"geometry":{"type":"Polygon","coordinates":[[[-61.3526,10.8041],[-61.3491,10.8044],[-61.2961,10.798],[-61.1801,10.7976],[-61.1716,10.8039],[-61.1676,10.8008],[-61.158,10.787],[-61.157,10.7781],[-61.1572,10.7692],[-61.1631,10.7637],[-61.1717,10.7596],[-61.1782,10.7551],[-61.1945,10.7369],[-61.2002,10.7327],[-61.2093,10.7299],[-61.2376,10.7271],[-61.2395,10.7232],[-61.2353,10.7214],[-61.2302,10.7197],[-61.2239,10.7193],[-61.2196,10.7172],[-61.2143,10.7127],[-61.2133,10.7043],[-61.2137,10.6866],[-61.218,10.6715],[-61.2147,10.655],[-61.2109,10.6479],[-61.2034,10.6382],[-61.2013,10.6321],[-61.2013,10.6249],[-61.2029,10.6176],[-61.2092,10.6098],[-61.2134,10.6035],[-61.2392,10.5914],[-61.2678,10.5825],[-61.311,10.5807],[-61.325,10.5775],[-61.3374,10.572],[-61.35,10.5713],[-61.3597,10.5734],[-61.3646,10.5734],[-61.369,10.5655],[-61.4098,10.5663],[-61.4217,10.6426],[-61.4214,10.6675],[-61.4285,10.7114],[-61.4265,10.7288],[-61.4209,10.7388],[-61.4123,10.7413],[-61.3856,10.7375],[-61.3792,10.7382],[-61.3719,10.7402],[-61.3646,10.7398],[-61.3472,10.7357],[-61.3412,10.7375],[-61.3349,10.745],[-61.3337,10.7562],[-61.3419,10.7727],[-61.3494,10.7977],[-61.3526,10.8041]],[[-61.2745,10.6074],[-61.2698,10.6085],[-61.2668,10.6097],[-61.2652,10.6136],[-61.2655,10.6197],[-61.2698,10.6337],[-61.2713,10.6406],[-61.2854,10.654],[-61.2866,10.645],[-61.2864,10.6426],[-61.2856,10.641],[-61.2852,10.6398],[-61.2858,10.6386],[-61.2867,10.6375],[-61.2875,10.636],[-61.2879,10.6344],[-61.288,10.6326],[-61.2877,10.6307],[-61.2876,10.6289],[-61.2887,10.6233],[-61.2903,10.6211],[-61.2941,10.6176],[-61.2952,10.6158],[-61.2956,10.6139],[-61.295,10.6121],[-61.2925,10.6105],[-61.2833,10.6076],[-61.2745,10.6074]]]}},{"type":"Feature","properties":{"id":"TTO-5090","name":"Western Tobago","nameBn":"টোবাগো","type":"Region","bounds":[-60.8475,11.1433,-60.647,11.308],"center":[-60.7709,11.1959]},"geometry":{"type":"Polygon","coordinates":[[[-60.6471,11.2042],[-60.6598,11.2043],[-60.6719,11.2067],[-60.6813,11.2071],[-60.7418,11.1771],[-60.7595,11.1729],[-60.7864,11.15],[-60.8033,11.1433],[-60.8104,11.1592],[-60.8254,11.1518],[-60.8393,11.1541],[-60.8475,11.164],[-60.8452,11.1791],[-60.8367,11.1833],[-60.8229,11.1855],[-60.8099,11.1907],[-60.8043,11.2037],[-60.7943,11.2166],[-60.7097,11.2713],[-60.6916,11.2889],[-60.6813,11.2965],[-60.6686,11.3029],[-60.6547,11.308],[-60.647,11.2919],[-60.6666,11.2682],[-60.6944,11.2503],[-60.7042,11.2407],[-60.679,11.231],[-60.6646,11.2186],[-60.6471,11.2042]]]}}]}