{"type":"FeatureCollection","features":[{"type":"Feature","properties":{"id":"UZB-363","name":"Andijon","nameBn":"আন্দিজান প্রদেশ","type":"Region","bounds":[71.5818,40.3856,73.1486,41.0728],"center":[72.3651,40.4491]},"geometry":{"type":"Polygon","coordinates":[[[72.3324,41.0728],[72.3457,41.066],[72.3743,41.032],[72.3952,41.022],[72.4235,41.0157],[72.4767,41.0118],[72.4819,41.0088],[72.4847,41.0047],[72.4852,40.9996],[72.4836,40.9935],[72.4834,40.9706],[72.5014,40.9635],[72.5263,40.9622],[72.5456,40.9565],[72.5885,40.9058],[72.6195,40.8801],[72.6582,40.8672],[72.7012,40.8632],[72.8301,40.8721],[72.8687,40.8641],[72.873,40.8348],[72.8703,40.8182],[72.8831,40.8196],[72.9294,40.8442],[73.0034,40.8702],[73.0195,40.8619],[73.0333,40.8472],[73.0536,40.8363],[73.1125,40.8392],[73.135,40.8353],[73.1433,40.8339],[73.1434,40.8338],[73.1486,40.8137],[73.118,40.7829],[73.0706,40.7625],[72.9768,40.7361],[72.891,40.6951],[72.8189,40.6811],[72.7839,40.6697],[72.76,40.6418],[72.7484,40.5751],[72.7192,40.5649],[72.6824,40.5777],[72.6642,40.5778],[72.6565,40.5611],[72.6551,40.5464],[72.6505,40.5322],[72.6409,40.5199],[72.6255,40.5105],[72.5858,40.5087],[72.5153,40.5456],[72.4767,40.5496],[72.4479,40.5605],[72.4148,40.5899],[72.3816,40.6121],[72.3519,40.602],[72.3485,40.5855],[72.3485,40.5854],[72.3699,40.5579],[72.3701,40.5577],[72.37,40.5399],[72.3633,40.5236],[72.3635,40.5124],[72.3635,40.5123],[72.3723,40.5033],[72.4156,40.4793],[72.4157,40.4793],[72.42,40.471],[72.4261,40.4595],[72.4262,40.4593],[72.4252,40.436],[72.4144,40.4107],[72.3941,40.3894],[72.3705,40.3856],[72.3434,40.3934],[72.2843,40.4199],[72.2696,40.424],[72.2244,40.4224],[72.2116,40.4256],[72.2118,40.4258],[72.2165,40.4349],[72.2281,40.4375],[72.2451,40.4387],[72.2596,40.4424],[72.2636,40.4525],[72.2634,40.4527],[72.2542,40.4583],[72.2359,40.4599],[72.2283,40.4596],[72.2282,40.46],[72.227,40.4646],[72.2183,40.4876],[72.216,40.5014],[72.2188,40.5193],[72.2223,40.5379],[72.2231,40.5498],[72.2228,40.5554],[72.2217,40.5604],[72.2076,40.57],[72.1558,40.5819],[72.1443,40.5828],[72.1371,40.5873],[72.1176,40.609],[72.1035,40.6168],[72.0936,40.61],[72.0827,40.5997],[72.0658,40.5984],[72.0054,40.6082],[71.9587,40.6201],[71.9302,40.6187],[71.9101,40.6159],[71.8864,40.6188],[71.8771,40.6212],[71.869,40.6244],[71.8288,40.6663],[71.8198,40.6779],[71.8115,40.6853],[71.8004,40.6902],[71.7481,40.7038],[71.732,40.7047],[71.721,40.7035],[71.716,40.7007],[71.7061,40.7016],[71.6929,40.7052],[71.6659,40.7157],[71.6553,40.716],[71.6493,40.713],[71.6476,40.6953],[71.6434,40.6973],[71.6335,40.7081],[71.6116,40.7401],[71.5818,40.7743],[71.6106,40.7958],[71.5948,40.8209],[71.5828,40.8329],[71.5819,40.8398],[71.5862,40.8455],[71.6187,40.8684],[71.6313,40.8753],[71.6442,40.89],[71.7477,40.9109],[71.7809,40.8983],[71.8226,40.9134],[71.8343,40.916],[71.8561,40.916],[71.8802,40.9147],[71.9076,40.9166],[72.0386,40.8926],[72.0562,40.8911],[72.0726,40.8935],[72.1326,40.8954],[72.1477,40.8975],[72.1538,40.8995],[72.1583,40.9015],[72.1659,40.9069],[72.1897,40.9901],[72.1955,41.0064],[72.253,41.0196],[72.2898,41.0235],[72.2973,41.0281],[72.3088,41.0544],[72.3141,41.0617],[72.3324,41.0728]]]}},{"type":"Feature","properties":{"id":"UZB-354","name":"Bukhoro","nameBn":"বুখারা প্রদেশ","type":"Region","bounds":[62.1804,38.9404,65.3654,41.4933],"center":[63.7729,39.946]},"geometry":{"type":"Polygon","coordinates":[[[64.1801,38.9451],[64.1506,38.9495],[64.1206,38.9617],[63.9597,39.0514],[63.8201,39.1291],[63.7093,39.1909],[63.6485,39.2395],[63.541,39.3561],[63.4776,39.4029],[63.3386,39.4795],[63.0089,39.6611],[62.8465,39.7506],[62.7102,39.8257],[62.5932,39.8902],[62.5354,39.935],[62.5246,39.9397],[62.4528,40.0092],[62.442,40.036],[62.4244,40.0921],[62.4216,40.1151],[62.4258,40.1367],[62.4341,40.1548],[62.4397,40.1729],[62.4358,40.1942],[62.4051,40.2452],[62.401,40.2656],[62.4002,40.2921],[62.3965,40.312],[62.3883,40.3301],[62.3626,40.3697],[62.3564,40.3882],[62.3533,40.4304],[62.3436,40.4394],[62.2609,40.4757],[62.2134,40.4866],[62.1918,40.499],[62.1871,40.5055],[62.1871,40.5056],[62.3956,40.7027],[62.4473,40.7883],[62.4351,40.8218],[62.4027,40.8599],[62.2395,40.999],[62.4654,41.081],[62.4646,41.0947],[62.1804,41.3923],[62.5348,41.4933],[62.6191,41.4918],[62.6508,41.4368],[62.6755,41.4038],[62.8437,41.2546],[62.9786,41.0746],[63.0025,41.0642],[63.0909,41.0489],[63.2223,41.0103],[63.3764,40.9447],[63.6773,40.8043],[63.7,40.774],[63.7366,40.7458],[63.7351,40.7262],[63.8542,40.758],[63.9256,40.8386],[63.985,40.9328],[64.003,40.9525],[64.0227,40.9645],[64.0429,40.9698],[64.0617,40.966],[64.0812,40.9535],[64.1017,40.9305],[64.1068,40.8964],[64.1085,40.8306],[64.1223,40.809],[64.1647,40.7975],[64.4355,40.773],[64.458,40.7889],[64.4884,40.8782],[64.5075,40.8859],[64.5412,40.8956],[64.6735,40.9001],[64.7171,40.907],[64.7491,40.9175],[64.7812,40.952],[64.7933,40.9508],[64.802,40.9269],[64.8233,40.8263],[64.8324,40.7998],[64.8465,40.7704],[64.8811,40.7485],[64.9158,40.7335],[65.0144,40.7151],[65.3175,40.6991],[65.3654,40.7097],[65.3418,40.6476],[65.337,40.6221],[65.3349,40.5958],[65.3352,40.571],[65.3373,40.5509],[65.3411,40.539],[65.3403,40.5275],[65.3269,40.5279],[65.2747,40.5364],[65.2647,40.5368],[65.2553,40.5347],[65.2475,40.5295],[65.2362,40.5166],[65.2344,40.5041],[65.2078,40.4407],[65.1859,40.4212],[65.1674,40.4079],[65.1448,40.353],[65.134,40.3361],[65.0164,40.3371],[64.9936,40.3428],[64.9722,40.3538],[64.952,40.3673],[64.9327,40.3714],[64.9102,40.3713],[64.8754,40.3668],[64.8588,40.3598],[64.8496,40.3511],[64.8468,40.3417],[64.8453,40.3324],[64.8448,40.3236],[64.8501,40.3043],[64.8751,40.285],[64.8585,40.2472],[64.8496,40.2407],[64.8448,40.2395],[64.8442,40.2371],[64.8456,40.2332],[64.857,40.219],[64.8864,40.196],[64.9018,40.1811],[64.9059,40.1747],[64.9047,40.1712],[64.8748,40.1684],[64.868,40.1671],[64.8618,40.1638],[64.8542,40.1594],[64.8453,40.1591],[64.83,40.1496],[64.7826,40.0753],[64.7688,40.0605],[64.7511,40.0475],[64.7332,40.0377],[64.6721,40.0162],[64.6642,40.0031],[64.6564,39.9968],[64.6529,39.9925],[64.6204,39.9611],[64.6042,39.9334],[64.59,39.9078],[64.6055,39.8832],[64.6782,39.8058],[64.706,39.7911],[64.753,39.7711],[64.7544,39.7653],[64.7595,39.7562],[64.7631,39.7477],[64.777,39.7423],[64.7964,39.7415],[64.8398,39.7568],[64.8549,39.7544],[64.8639,39.7431],[64.9832,39.6999],[65.0015,39.6762],[65.0098,39.6539],[65.0101,39.6376],[65.0133,39.6159],[65.0214,39.5951],[65.0407,39.5865],[65.0645,39.5798],[65.0796,39.5732],[65.0975,39.5594],[65.1134,39.5424],[65.1175,39.5367],[65.1237,39.5256],[65.1336,39.499],[65.1353,39.4921],[65.1378,39.4643],[65.0906,39.4367],[64.9904,39.359],[64.9778,39.3514],[64.966,39.3481],[64.9568,39.3486],[64.9446,39.3475],[64.9372,39.3448],[64.9313,39.3412],[64.8551,39.2767],[64.8454,39.2666],[64.8394,39.2581],[64.8383,39.2526],[64.8383,39.2475],[64.8394,39.2427],[64.8409,39.238],[64.8457,39.2294],[64.8527,39.2215],[64.8847,39.191],[64.8881,39.187],[64.8909,39.182],[64.8917,39.1762],[64.8894,39.1679],[64.8847,39.1638],[64.879,39.1612],[64.7126,39.1143],[64.6589,39.0991],[64.5213,39.0561],[64.4744,39.031],[64.3832,38.9531],[64.3677,38.9405],[64.3676,38.9404],[64.3373,38.971],[64.3136,38.9825],[64.2834,38.9797],[64.206,38.9495],[64.1801,38.9451]]]}},{"type":"Feature","properties":{"id":"UZB-364","name":"Ferghana","nameBn":"ফারগানা প্রদেশ","type":"Region","bounds":[70.3538,39.8745,72.2283,40.7747],"center":[71.7275,39.9347]},"geometry":{"type":"MultiPolygon","coordinates":[[[[71.7855,39.9897],[71.7898,39.9793],[71.7671,39.9154],[71.7573,39.9031],[71.7418,39.9008],[71.7162,39.9068],[71.6968,39.9138],[71.6753,39.9258],[71.6655,39.9402],[71.6818,39.9551],[71.7069,39.9561],[71.7241,39.9627],[71.7606,39.9837],[71.7855,39.9897]]],[[[72.0132,40.2621],[72.0198,40.2587],[72.0254,40.2509],[72.0189,40.24],[72.0048,40.2373],[71.989,40.2393],[71.977,40.2431],[71.9692,40.2444],[71.9634,40.2437],[71.9518,40.2409],[71.9123,40.2434],[71.873,40.2508],[71.8365,40.2492],[71.8055,40.2253],[71.7868,40.1935],[71.7759,40.1799],[71.7598,40.1681],[71.7072,40.1443],[71.6933,40.1411],[71.6731,40.1479],[71.6669,40.1631],[71.6672,40.2042],[71.6602,40.2245],[71.646,40.2471],[71.6283,40.2589],[71.6101,40.2464],[71.604,40.2273],[71.6017,40.2099],[71.593,40.1984],[71.5683,40.1966],[71.5212,40.2037],[71.4984,40.2105],[71.4771,40.2208],[71.4589,40.2341],[71.451,40.2489],[71.4414,40.2609],[71.3966,40.2715],[71.3651,40.2941],[71.3449,40.2952],[71.3136,40.2927],[71.2971,40.2938],[71.2832,40.2984],[71.2728,40.3077],[71.2639,40.3182],[71.2538,40.3244],[71.2396,40.3211],[71.224,40.3029],[71.2151,40.2807],[71.201,40.2638],[71.1694,40.2614],[71.0532,40.2742],[70.9951,40.2666],[70.959,40.2384],[70.9383,40.2399],[70.8497,40.2338],[70.7072,40.2002],[70.6643,40.1975],[70.6221,40.1996],[70.5818,40.2217],[70.5639,40.2642],[70.5506,40.3105],[70.524,40.3437],[70.5019,40.3508],[70.4829,40.3493],[70.4641,40.3448],[70.4422,40.3433],[70.4212,40.348],[70.3714,40.3649],[70.3849,40.3997],[70.3821,40.4039],[70.3736,40.4118],[70.3714,40.4133],[70.372,40.413],[70.3588,40.4277],[70.357,40.4304],[70.3554,40.4351],[70.3538,40.4561],[70.3696,40.4755],[70.3994,40.4902],[70.4682,40.5025],[70.4778,40.5055],[70.4879,40.5156],[70.512,40.5468],[70.5255,40.5571],[70.5394,40.5619],[70.5542,40.565],[70.5693,40.5704],[70.5821,40.5788],[70.6172,40.6119],[70.6779,40.6499],[70.6929,40.6604],[70.7072,40.669],[70.7157,40.6721],[70.7321,40.675],[70.7355,40.6789],[70.7372,40.6836],[70.7407,40.6877],[70.7562,40.6951],[70.7563,40.6956],[70.782,40.7079],[70.7927,40.7171],[70.8019,40.7273],[70.813,40.7365],[70.8298,40.7426],[70.8433,40.7434],[70.8712,40.7412],[70.8844,40.7426],[70.9315,40.7747],[70.9516,40.7747],[70.9673,40.7697],[70.9754,40.7654],[70.9819,40.7611],[71.0138,40.7576],[71.127,40.7623],[71.0633,40.6963],[71.0689,40.692],[71.108,40.6887],[71.1155,40.686],[71.1439,40.6635],[71.1512,40.6602],[71.1616,40.6577],[71.1799,40.6549],[71.191,40.6518],[71.2114,40.6392],[71.2567,40.6203],[71.271,40.6169],[71.2939,40.6204],[71.3593,40.6673],[71.3908,40.7041],[71.4103,40.7166],[71.4991,40.7533],[71.5818,40.7743],[71.6116,40.7401],[71.6335,40.7081],[71.6434,40.6973],[71.6476,40.6953],[71.6493,40.713],[71.6553,40.716],[71.6659,40.7157],[71.6929,40.7052],[71.7061,40.7016],[71.716,40.7007],[71.721,40.7035],[71.732,40.7047],[71.7481,40.7038],[71.8004,40.6902],[71.8115,40.6853],[71.8198,40.6779],[71.8288,40.6663],[71.869,40.6244],[71.8771,40.6212],[71.8864,40.6188],[71.9101,40.6159],[71.9302,40.6187],[71.9587,40.6201],[72.0054,40.6082],[72.0658,40.5984],[72.0827,40.5997],[72.0936,40.61],[72.1035,40.6168],[72.1176,40.609],[72.1371,40.5873],[72.1443,40.5828],[72.1558,40.5819],[72.2076,40.57],[72.2217,40.5604],[72.2228,40.5554],[72.2231,40.5498],[72.2223,40.5379],[72.2188,40.5193],[72.216,40.5014],[72.2183,40.4876],[72.227,40.4646],[72.2282,40.46],[72.2283,40.4596],[72.1827,40.4578],[72.1659,40.4544],[72.0993,40.4264],[72.0901,40.416],[72.0841,40.3974],[72.0696,40.3694],[72.0432,40.3493],[71.9567,40.3157],[71.9511,40.3015],[71.9582,40.2865],[71.977,40.2761],[72.006,40.2658],[72.0132,40.2621]]],[[[71.0086,40.1578],[71.0312,40.1469],[71.0479,40.1225],[71.0617,40.0952],[71.0788,40.0786],[71.106,40.0649],[71.162,40.0469],[71.1655,40.0446],[71.1694,40.0428],[71.1769,40.042],[71.1819,40.0434],[71.1929,40.0503],[71.1982,40.0526],[71.2237,40.0579],[71.2364,40.0561],[71.244,40.0468],[71.2373,40.0311],[71.191,40.0062],[71.1747,39.994],[71.177,39.9682],[71.2211,39.9317],[71.2191,39.9009],[71.2084,39.8888],[71.1946,39.8848],[71.161,39.8842],[71.1137,39.8745],[71.0989,39.8755],[71.0872,39.8838],[71.0848,39.8948],[71.08,39.9034],[71.061,39.9041],[71.0498,39.898],[71.0361,39.8875],[71.0219,39.8808],[71.0093,39.8857],[71.0076,39.9112],[71.0504,39.9629],[71.0458,39.992],[71.0343,39.9991],[71.0076,40.0035],[70.9945,40.0089],[70.9831,40.0214],[70.9584,40.0631],[70.953,40.0792],[70.954,40.0958],[70.9599,40.1134],[70.9771,40.1446],[71.0086,40.1578]]]]}},{"type":"Feature","properties":{"id":"UZB-370","name":"Jizzakh","nameBn":"জিজাক অঞ্চল","type":"Region","bounds":[66.6143,39.4844,68.6965,41.2004],"center":[67.6556,40.3905]},"geometry":{"type":"Polygon","coordinates":[[[68.6427,40.1837],[68.602,40.1754],[68.5811,40.1642],[68.607,40.1423],[68.6517,40.1208],[68.6871,40.1103],[68.6965,40.1117],[68.6538,40.0683],[68.6383,40.0467],[68.6341,40.0357],[68.6332,40.0282],[68.6335,40.0215],[68.6349,40.016],[68.6388,40.0067],[68.6419,40.0012],[68.6425,40.0002],[68.6447,39.9966],[68.6529,39.9786],[68.6562,39.969],[68.6575,39.9636],[68.6583,39.9543],[68.6552,39.9213],[68.6517,39.9159],[68.6481,39.9155],[68.6448,39.9195],[68.6408,39.9234],[68.6355,39.9258],[68.6293,39.9264],[68.6213,39.9227],[68.6205,39.9186],[68.6225,39.9147],[68.6272,39.9113],[68.645,39.9024],[68.65,39.8993],[68.6529,39.8954],[68.6515,39.8897],[68.6484,39.8826],[68.6431,39.8738],[68.6428,39.8584],[68.6403,39.8481],[68.6378,39.8489],[68.6262,39.8496],[68.6158,39.8281],[68.6058,39.6669],[68.6003,39.6429],[68.587,39.6232],[68.5629,39.6036],[68.5202,39.5825],[68.5067,39.5676],[68.5102,39.5614],[68.5173,39.5488],[68.5174,39.5484],[68.4977,39.5414],[68.4363,39.5288],[68.3866,39.5252],[68.3376,39.5279],[68.2559,39.5506],[68.1062,39.5541],[67.7645,39.6226],[67.7176,39.6234],[67.6804,39.6141],[67.5874,39.5627],[67.5074,39.5529],[67.4876,39.538],[67.4946,39.4937],[67.4912,39.4901],[67.487,39.4872],[67.4824,39.4853],[67.4774,39.4844],[67.4517,39.4872],[67.4365,39.4857],[67.3609,39.5376],[67.3192,39.5662],[67.3051,39.579],[67.2948,39.5956],[67.297,39.6649],[67.3003,39.6727],[67.306,39.6822],[67.3196,39.6846],[67.3499,39.6853],[67.3583,39.6862],[67.3673,39.6891],[67.3716,39.6936],[67.3738,39.6997],[67.3746,39.7116],[67.3743,39.7173],[67.3719,39.7276],[67.3702,39.7326],[67.3688,39.7395],[67.3684,39.7484],[67.3695,39.763],[67.3715,39.77],[67.3735,39.7742],[67.3816,39.7804],[67.3971,39.7893],[67.4282,39.8019],[67.4497,39.808],[67.4767,39.8127],[67.4845,39.8132],[67.4998,39.8164],[67.5037,39.8242],[67.4767,39.9175],[67.4599,39.9382],[67.2868,39.9631],[67.2632,39.9654],[67.2534,39.9626],[67.2442,39.9636],[67.2373,39.9662],[67.221,39.9743],[67.2142,39.974],[67.2072,39.9725],[67.1912,39.9717],[67.1797,39.9729],[67.1009,39.9895],[67.0891,40.0049],[67.0844,40.0036],[67.0799,40.003],[67.0664,39.9991],[67.0316,40.0288],[67.0301,40.0341],[67.0298,40.0423],[67.0329,40.0488],[67.0321,40.0625],[67.0272,40.0687],[67.0202,40.0725],[67.0124,40.0734],[67.0061,40.0733],[67.0011,40.0723],[66.982,40.0648],[66.9758,40.0633],[66.9679,40.0623],[66.9594,40.0627],[66.9479,40.0649],[66.9432,40.0693],[66.94,40.0744],[66.9355,40.1193],[66.9363,40.1247],[66.9389,40.1292],[66.9442,40.1316],[66.9629,40.1364],[66.968,40.1396],[66.971,40.1428],[66.9753,40.1519],[66.9759,40.175],[66.9487,40.2008],[66.9454,40.2088],[66.9459,40.216],[66.9482,40.2219],[66.9491,40.2289],[66.9457,40.2333],[66.9408,40.2368],[66.9202,40.2444],[66.9123,40.2487],[66.9089,40.2538],[66.9066,40.2589],[66.8925,40.3108],[66.8902,40.3275],[66.8885,40.3746],[66.8888,40.3813],[66.8898,40.3876],[66.8919,40.3936],[66.9005,40.4088],[66.9063,40.4234],[66.9074,40.4371],[66.9052,40.4466],[66.9013,40.4562],[66.8936,40.4688],[66.8885,40.4752],[66.883,40.4781],[66.8771,40.4777],[66.8507,40.4734],[66.8279,40.4726],[66.8118,40.4744],[66.7956,40.4778],[66.7541,40.4871],[66.6281,40.4907],[66.6202,40.4951],[66.7732,40.7219],[66.8012,40.7752],[66.7794,40.8049],[66.7702,40.8224],[66.7685,40.827],[66.7685,40.8438],[66.771,40.8617],[66.7713,40.8716],[66.7708,40.8789],[66.7688,40.8834],[66.7653,40.8872],[66.7598,40.8906],[66.6693,40.9093],[66.6555,40.9151],[66.6495,40.9184],[66.6411,40.9261],[66.6355,40.9347],[66.633,40.9393],[66.6313,40.9447],[66.6143,41.0842],[66.6268,41.0966],[66.6352,41.1122],[66.7575,41.1497],[66.7579,41.1531],[66.7741,41.1499],[66.8153,41.1419],[66.9314,41.1472],[67.029,41.1515],[67.1748,41.1581],[67.2817,41.163],[67.4093,41.1687],[67.4905,41.1724],[67.6202,41.1784],[67.7481,41.1841],[67.7596,41.1817],[67.7709,41.1793],[67.792,41.171],[67.813,41.1627],[67.824,41.1598],[67.8349,41.1569],[67.8445,41.1579],[67.8541,41.159],[67.8831,41.1735],[67.912,41.188],[67.9247,41.1942],[67.9374,41.2004],[67.9435,41.1861],[67.9495,41.1719],[67.9508,41.1712],[67.9519,41.1706],[67.9554,41.165],[67.9589,41.1595],[67.9809,41.1375],[68.0031,41.1156],[68.0081,41.1067],[68.0132,41.0979],[68.0171,41.0785],[68.0212,41.0591],[68.0277,41.0509],[68.0344,41.0427],[68.0403,41.0464],[68.0464,41.0502],[68.0528,41.0525],[68.0591,41.0548],[68.0652,41.0541],[68.0714,41.0533],[68.0769,41.048],[68.0821,41.0427],[68.0891,41.0539],[68.096,41.0651],[68.1066,41.0659],[68.1174,41.0667],[68.1193,41.0561],[68.1212,41.0455],[68.1213,41.0444],[68.1215,41.0433],[68.1202,41.0387],[68.1189,41.034],[68.1237,41.0328],[68.1285,41.0317],[68.13,41.0306],[68.1313,41.0296],[68.1199,41.0232],[68.1082,41.0168],[68.104,41.0152],[68.0997,41.0136],[68.1038,41.0119],[68.1079,41.0103],[68.1103,41.0079],[68.1127,41.0055],[68.1168,40.9997],[68.1209,40.9938],[68.1208,40.9795],[68.1206,40.9653],[68.1157,40.9485],[68.1108,40.9317],[68.1033,40.9153],[68.096,40.899],[68.0882,40.8859],[68.0806,40.873],[68.0752,40.8664],[68.0695,40.8598],[68.0621,40.8535],[68.0547,40.8472],[68.0465,40.8423],[68.0382,40.8372],[68.0206,40.8312],[68.0031,40.8252],[67.9986,40.8221],[67.9941,40.819],[67.9925,40.815],[67.9909,40.8111],[67.9942,40.8093],[67.9975,40.8075],[68.0173,40.8043],[68.0371,40.8011],[68.0523,40.7945],[68.0675,40.788],[68.1132,40.7535],[68.1589,40.7191],[68.1924,40.699],[68.2261,40.6789],[68.2665,40.6627],[68.2642,40.6224],[68.2509,40.6117],[68.1959,40.6045],[68.1829,40.6022],[68.1772,40.6003],[68.1725,40.5973],[68.1702,40.5922],[68.1689,40.5684],[68.1624,40.5312],[68.1646,40.5261],[68.17,40.5224],[68.1868,40.5239],[68.2046,40.5281],[68.2141,40.5288],[68.2167,40.5162],[68.0986,40.3093],[68.0946,40.2956],[68.0918,40.2798],[68.0958,40.2524],[68.1001,40.2444],[68.106,40.2367],[68.1097,40.2329],[68.1371,40.2295],[68.3644,40.2257],[68.6641,40.2825],[68.6685,40.2823],[68.6695,40.2801],[68.6643,40.2732],[68.6596,40.2682],[68.6554,40.2628],[68.6513,40.2557],[68.6375,40.2176],[68.6334,40.2105],[68.6301,40.202],[68.642,40.1843],[68.6424,40.184],[68.6427,40.1837]]]}},{"type":"Feature","properties":{"id":"UZB-356","name":"Karakalpakstan","nameBn":"কারাকালপাকতান","type":"Automonous Region","bounds":[55.9758,40.9859,62.471,45.5587],"center":[59.2233,43.8529]},"geometry":{"type":"Polygon","coordinates":[[[59.0551,45.324],[59.1204,45.2931],[59.2924,45.2112],[59.4794,45.1225],[59.6758,45.0291],[59.8766,44.9338],[60.0767,44.8387],[60.2709,44.7465],[60.454,44.6594],[60.6211,44.5801],[60.7669,44.5108],[60.8862,44.4541],[60.974,44.4124],[61.0363,44.3828],[61.0621,44.362],[61.0802,44.3355],[61.0866,44.3112],[61.0931,44.2594],[61.1029,44.2361],[61.1617,44.1681],[61.2764,44.0789],[61.3312,44.0362],[61.3861,43.9934],[61.4561,43.9352],[61.5135,43.8872],[61.5711,43.8393],[61.6285,43.7914],[61.686,43.7434],[61.7421,43.6965],[61.7983,43.6496],[61.8546,43.6027],[61.9107,43.5558],[61.9857,43.4933],[62.006,43.487],[62.0261,43.4806],[62.0283,43.4809],[62.1352,43.3477],[62.1853,43.3139],[62.4558,43.2593],[62.471,43.2528],[62.4708,43.2428],[62.4654,43.2312],[62.1931,42.8551],[61.9367,42.4922],[61.8816,42.3969],[61.8591,42.1893],[61.8591,42.177],[61.8621,42.1674],[61.9761,42.0112],[61.9959,41.98],[61.9917,41.9746],[61.9797,41.9651],[61.7648,41.8747],[61.7431,41.861],[61.7437,41.8478],[61.7516,41.8342],[62.1804,41.3923],[62.4646,41.0947],[62.4654,41.081],[62.2395,40.999],[62.1867,40.9859],[62.1717,40.9896],[62.1576,40.9957],[62.1535,40.9989],[62.034,41.1427],[61.8638,41.2846],[61.8048,41.3186],[61.7597,41.3393],[61.7113,41.3548],[61.5203,41.3896],[61.4661,41.3897],[61.4464,41.3863],[61.4282,41.3794],[61.4129,41.3702],[61.3969,41.3558],[61.3572,41.2982],[61.3396,41.2881],[61.3142,41.2862],[61.2904,41.2932],[61.284,41.2962],[61.2687,41.3019],[61.2569,41.331],[61.2442,41.3455],[61.1911,41.39],[61.1723,41.3984],[61.1144,41.4068],[61.0918,41.4136],[61.061,41.4346],[61.025,41.4651],[61.0133,41.4708],[61.0008,41.4748],[60.9754,41.4788],[60.7385,41.6395],[60.7061,41.6671],[60.6803,41.7016],[60.6633,41.7404],[60.652,41.7569],[60.6362,41.7637],[60.5883,41.7648],[60.5673,41.7688],[60.55,41.7773],[60.5359,41.7907],[60.5079,41.8285],[60.4969,41.854],[60.4699,41.8851],[60.4618,41.9009],[60.4624,41.946],[60.459,41.9666],[60.4448,41.9753],[60.3953,41.9793],[60.3451,41.989],[60.3344,41.9933],[60.3131,42.0056],[60.2969,42.0034],[60.291,42.0008],[60.2719,41.9883],[60.2209,41.9615],[60.2002,41.9551],[60.1731,41.9543],[60.1574,41.952],[60.1506,41.9479],[60.1476,41.9434],[60.1492,41.9389],[60.1512,41.9344],[60.1628,41.9174],[60.1648,41.9063],[60.1529,41.884],[60.1411,41.8742],[60.1182,41.9004],[60.0888,41.9194],[59.9837,41.949],[59.9318,41.9476],[59.9175,41.9524],[59.9065,41.9666],[59.908,41.9798],[59.9193,41.9897],[59.9369,41.9935],[59.9373,41.9934],[59.9376,41.9934],[59.9379,41.9934],[59.9972,42.0106],[59.9941,42.0501],[59.9745,42.0992],[59.9837,42.1456],[60.0001,42.1545],[60.0206,42.1608],[60.037,42.1697],[60.0404,42.1865],[60.0282,42.1995],[60.005,42.2098],[59.9607,42.2227],[59.9257,42.2463],[59.8979,42.2785],[59.8664,42.3042],[59.821,42.308],[59.7763,42.304],[59.6895,42.3098],[59.4782,42.2856],[59.4265,42.2868],[59.4015,42.2939],[59.3616,42.3258],[59.3381,42.3318],[59.2872,42.3359],[59.2584,42.3475],[59.2452,42.3653],[59.2333,42.4417],[59.2238,42.4609],[59.2096,42.4777],[59.1461,42.5268],[59.122,42.538],[59.0965,42.536],[59.0674,42.5256],[59.0386,42.5197],[59.0092,42.5185],[58.9647,42.5244],[58.8944,42.5478],[58.8274,42.5938],[58.6123,42.7809],[58.5879,42.7912],[58.5694,42.7685],[58.5557,42.6836],[58.5345,42.6545],[58.4932,42.6455],[58.4418,42.6478],[58.3906,42.6567],[58.2827,42.6889],[58.2583,42.6895],[58.2396,42.6851],[58.1866,42.6612],[58.1488,42.649],[58.1306,42.6388],[58.1213,42.6242],[58.127,42.605],[58.1457,42.5926],[58.271,42.549],[58.3062,42.5287],[58.337,42.4937],[58.3637,42.4471],[58.4379,42.3577],[58.4782,42.3223],[58.4896,42.3145],[58.4941,42.3057],[58.4906,42.2976],[58.4782,42.292],[58.4139,42.2848],[58.3976,42.2879],[58.3858,42.3013],[58.3861,42.3169],[58.3915,42.334],[58.3949,42.3522],[58.3847,42.3878],[58.3589,42.4134],[58.325,42.4319],[58.2257,42.4666],[58.2038,42.4695],[58.1857,42.4673],[58.1495,42.4557],[58.1332,42.4546],[58.1172,42.4615],[58.0944,42.4867],[58.0799,42.4973],[58.0609,42.5023],[58.0382,42.5028],[58.016,42.4997],[57.9977,42.4934],[57.9871,42.4834],[57.9783,42.4718],[57.9528,42.4501],[57.9256,42.4411],[57.9086,42.4304],[57.9143,42.404],[57.9357,42.3698],[57.9375,42.3542],[57.9288,42.3309],[57.8881,42.2616],[57.8737,42.2496],[57.8355,42.2404],[57.8273,42.2274],[57.8345,42.2116],[57.8474,42.2009],[57.8505,42.1914],[57.8284,42.1795],[57.8092,42.1764],[57.7409,42.1787],[57.7216,42.1753],[57.6663,42.1551],[57.6198,42.1482],[57.4783,42.1665],[57.3823,42.1636],[57.2882,42.1294],[57.2078,42.0706],[57.1529,41.9937],[57.1529,41.9935],[57.1155,41.9521],[57.0744,41.9288],[56.9784,41.8951],[56.9501,41.8661],[56.9498,41.8275],[56.972,41.7485],[56.9695,41.7109],[56.9616,41.6787],[56.9605,41.6472],[56.9784,41.6115],[57.0006,41.584],[57.0121,41.5578],[57.0158,41.529],[57.0151,41.4936],[57.0196,41.4659],[57.033,41.4382],[57.0523,41.4136],[57.0742,41.395],[57.0883,41.3873],[57.1036,41.3816],[57.1538,41.3724],[57.1614,41.368],[57.1592,41.3611],[57.148,41.3511],[57.1267,41.3396],[57.0801,41.322],[57.0603,41.3049],[57.0295,41.2626],[57.0102,41.2541],[56.8879,41.2733],[56.7935,41.2883],[56.57,41.2975],[56.5337,41.299],[56.3268,41.3075],[56.1407,41.3152],[55.9784,41.3217],[55.9782,41.5513],[55.978,41.7807],[55.9779,42.0102],[55.9777,42.2396],[55.9776,42.4691],[55.9774,42.6985],[55.9773,42.928],[55.9771,43.1575],[55.977,43.3869],[55.9768,43.6164],[55.9767,43.8459],[55.9765,44.0753],[55.9764,44.3048],[55.9761,44.5343],[55.976,44.7638],[55.9758,44.9933],[55.9758,44.9934],[55.9758,44.9935],[55.9758,44.9936],[55.9758,44.9937],[55.9758,44.9939],[55.9758,44.9941],[55.9758,44.9942],[55.9758,44.9943],[55.9758,44.9944],[55.9759,44.9945],[55.976,44.9946],[55.976,44.9947],[55.976,44.9948],[55.9761,44.9948],[55.9761,44.995],[55.9761,44.9951],[55.9763,44.9951],[55.9764,44.9952],[55.9765,44.9953],[55.9766,44.9954],[55.9767,44.9954],[55.9768,44.9955],[55.9768,44.9956],[55.9769,44.9956],[55.977,44.9957],[55.9771,44.9958],[55.9772,44.9958],[55.9773,44.9959],[55.9774,44.9959],[55.9775,44.9959],[55.9776,44.9959],[55.9777,44.996],[55.9778,44.9961],[55.9779,44.9961],[55.978,44.9961],[55.9781,44.9962],[55.9782,44.9962],[55.9783,44.9962],[55.9784,44.9962],[56.0721,45.0176],[56.1658,45.0388],[56.2594,45.0601],[56.3534,45.0814],[56.4471,45.1027],[56.5409,45.124],[56.6345,45.1453],[56.7076,45.1619],[56.7282,45.1666],[56.8221,45.1879],[56.9157,45.2091],[57.0095,45.2304],[57.1032,45.2518],[57.1971,45.273],[57.2908,45.2943],[57.3845,45.3156],[57.4783,45.3369],[57.6032,45.3639],[57.7282,45.3909],[57.8532,45.4179],[57.9783,45.4449],[58.0361,45.4571],[58.0938,45.4691],[58.1516,45.4812],[58.2096,45.4933],[58.2698,45.5055],[58.33,45.5178],[58.3903,45.5301],[58.4504,45.5424],[58.5314,45.5587],[58.5549,45.5572],[58.5822,45.5487],[58.659,45.5123],[58.6808,45.5018],[58.7431,45.4723],[58.8405,45.426],[58.9679,45.3654],[59.0551,45.324]]]}},{"type":"Feature","properties":{"id":"UZB-361","name":"Kashkadarya","nameBn":"কাাশকাড্রায়ো অঞ্চল","type":"Region","bounds":[64.3676,37.9666,67.6786,39.5568],"center":[66.0231,38.7774]},"geometry":{"type":"Polygon","coordinates":[[[67.3587,39.2904],[67.3512,39.2853],[67.3465,39.2808],[67.3444,39.2738],[67.3427,39.2596],[67.35,39.2201],[67.3501,39.2198],[67.3782,39.1995],[67.499,39.166],[67.5803,39.1636],[67.6198,39.1513],[67.6242,39.1474],[67.6321,39.1362],[67.6377,39.1315],[67.6445,39.1306],[67.6612,39.1334],[67.6676,39.1318],[67.6766,39.1198],[67.6767,39.1196],[67.6786,39.1059],[67.6672,39.0284],[67.6722,39.004],[67.6722,39.0038],[67.6733,39.003],[67.6584,38.9942],[67.6404,38.9885],[67.5678,38.986],[67.5551,38.9834],[67.5434,38.9796],[67.5375,38.9769],[67.5315,38.9728],[67.5242,38.967],[67.5183,38.9599],[67.5157,38.9525],[67.5158,38.944],[67.5232,38.9208],[67.529,38.8851],[67.5534,38.8505],[67.5554,38.8463],[67.5568,38.8411],[67.5565,38.8354],[67.5554,38.8291],[67.5534,38.8234],[67.5521,38.8173],[67.5517,38.812],[67.5517,38.8068],[67.5523,38.8017],[67.5537,38.7966],[67.5557,38.7918],[67.5588,38.7816],[67.5594,38.776],[67.5594,38.7703],[67.5566,38.7629],[67.5515,38.7549],[67.5411,38.7424],[67.5364,38.7342],[67.5339,38.7268],[67.5338,38.7093],[67.5321,38.7046],[67.5285,38.7011],[67.5215,38.7019],[67.5163,38.7044],[67.4981,38.7197],[67.4939,38.7223],[67.4886,38.7248],[67.4821,38.727],[67.4674,38.7303],[67.4516,38.7319],[67.4372,38.7314],[67.4245,38.7289],[67.4101,38.7238],[67.4007,38.718],[67.3943,38.7132],[67.3889,38.7081],[67.3292,38.617],[67.319,38.6063],[67.3012,38.5921],[67.2917,38.5861],[67.2765,38.5798],[67.237,38.5723],[67.2287,38.5577],[67.2179,38.5433],[67.2,38.528],[67.1626,38.5037],[67.1571,38.4975],[67.1506,38.4848],[67.1451,38.4677],[67.1342,38.4163],[67.1265,38.3925],[67.1237,38.3872],[67.111,38.3763],[67.0002,38.3064],[66.9431,38.2813],[66.9314,38.2786],[66.8951,38.2739],[66.8871,38.2692],[66.8779,38.2607],[66.8625,38.2403],[66.8518,38.2204],[66.8481,38.2089],[66.8427,38.1965],[66.8362,38.1845],[66.8287,38.1739],[66.7068,38.084],[66.6985,38.0755],[66.6924,38.0589],[66.6873,38.0197],[66.6819,38.0061],[66.6662,37.9818],[66.6365,37.9666],[66.6243,37.9938],[66.6242,37.9939],[66.624,37.994],[66.5904,38.013],[66.5542,38.0269],[66.5159,38.0351],[66.4394,38.0355],[66.4083,38.0428],[66.3069,38.0804],[66.2604,38.1267],[66.2311,38.1488],[66.1984,38.1607],[66.1336,38.1753],[66.0716,38.2145],[66.0435,38.2262],[65.9775,38.2346],[65.8767,38.273],[65.8429,38.2753],[65.8144,38.2662],[65.766,38.2355],[65.7402,38.2241],[65.6716,38.2197],[65.6041,38.2374],[65.4396,38.3249],[65.3402,38.3778],[65.2053,38.4496],[65.1108,38.5173],[64.9777,38.6123],[64.9105,38.6453],[64.7634,38.686],[64.6349,38.7441],[64.4243,38.883],[64.3676,38.9404],[64.3677,38.9405],[64.3832,38.9531],[64.4744,39.031],[64.5213,39.0561],[64.6589,39.0991],[64.7126,39.1143],[64.879,39.1612],[64.8847,39.1638],[64.8894,39.1679],[64.8917,39.1762],[64.8909,39.182],[64.8881,39.187],[64.8847,39.191],[64.8527,39.2215],[64.8457,39.2294],[64.8409,39.238],[64.8394,39.2427],[64.8383,39.2475],[64.8383,39.2526],[64.8394,39.2581],[64.8454,39.2666],[64.8551,39.2767],[64.9313,39.3412],[64.9372,39.3448],[64.9446,39.3475],[64.9568,39.3486],[64.966,39.3481],[64.9778,39.3514],[64.9904,39.359],[65.0906,39.4367],[65.1378,39.4643],[65.2366,39.4823],[65.2556,39.4918],[65.6826,39.4834],[65.6942,39.4863],[65.7158,39.4951],[65.7367,39.507],[65.7412,39.5108],[65.7446,39.5152],[65.7461,39.5203],[65.7464,39.5253],[65.7456,39.5405],[65.7465,39.5459],[65.7486,39.5508],[65.7569,39.5553],[65.7678,39.5568],[65.7993,39.5559],[65.8088,39.5547],[65.8153,39.5529],[65.8204,39.5504],[65.8249,39.547],[65.8283,39.543],[65.8308,39.5387],[65.8404,39.5061],[65.8427,39.501],[65.8432,39.5005],[65.8432,39.5003],[65.8486,39.493],[65.8595,39.4813],[65.9118,39.4418],[65.9414,39.4259],[65.9667,39.4109],[65.9696,39.4063],[65.9727,39.4002],[65.9731,39.3848],[65.9717,39.369],[65.9718,39.3624],[65.9726,39.3549],[65.9749,39.3434],[65.9795,39.3372],[65.986,39.3335],[66.0528,39.3195],[66.0886,39.3196],[66.1042,39.3237],[66.1251,39.3343],[66.2206,39.3709],[66.2255,39.3711],[66.3699,39.397],[66.3888,39.3979],[66.4144,39.3853],[66.4735,39.3486],[66.4895,39.3422],[66.5025,39.3396],[66.5106,39.3401],[66.5854,39.3635],[66.5949,39.3707],[66.6273,39.409],[66.6336,39.4143],[66.6419,39.4196],[66.6574,39.4264],[66.6754,39.4305],[66.6886,39.4306],[66.7673,39.4206],[66.8523,39.4076],[66.8737,39.4051],[66.8937,39.3755],[66.8974,39.3616],[66.8911,39.3338],[66.8894,39.3185],[66.8908,39.3104],[66.8947,39.3044],[66.9002,39.3011],[66.9067,39.2982],[66.914,39.2961],[66.9283,39.2938],[67.0388,39.2971],[67.0509,39.2992],[67.0564,39.3012],[67.0612,39.3046],[67.0649,39.3089],[67.067,39.3141],[67.0678,39.3192],[67.0677,39.3242],[67.0661,39.334],[67.0664,39.3391],[67.1197,39.3372],[67.3587,39.2904]]]}},{"type":"Feature","properties":{"id":"UZB-355","name":"Khorezm","nameBn":"খোয়ারেজম প্রদেশ","type":"Region","bounds":[60.0492,40.5055,62.4473,42.0056],"center":[61.2481,41.2489]},"geometry":{"type":"Polygon","coordinates":[[[60.2254,41.7655],[60.2411,41.7671],[60.2527,41.7801],[60.2508,41.7943],[60.2411,41.8081],[60.2289,41.8196],[60.2149,41.8286],[60.1675,41.8496],[60.1525,41.8612],[60.1411,41.8742],[60.1529,41.884],[60.1648,41.9063],[60.1628,41.9174],[60.1512,41.9344],[60.1492,41.9389],[60.1476,41.9434],[60.1506,41.9479],[60.1574,41.952],[60.1731,41.9543],[60.2002,41.9551],[60.2209,41.9615],[60.2719,41.9883],[60.291,42.0008],[60.2969,42.0034],[60.3131,42.0056],[60.3344,41.9933],[60.3451,41.989],[60.3953,41.9793],[60.4448,41.9753],[60.459,41.9666],[60.4624,41.946],[60.4618,41.9009],[60.4699,41.8851],[60.4969,41.854],[60.5079,41.8285],[60.5359,41.7907],[60.55,41.7773],[60.5673,41.7688],[60.5883,41.7648],[60.6362,41.7637],[60.652,41.7569],[60.6633,41.7404],[60.6803,41.7016],[60.7061,41.6671],[60.7385,41.6395],[60.9754,41.4788],[61.0008,41.4748],[61.0133,41.4708],[61.025,41.4651],[61.061,41.4346],[61.0918,41.4136],[61.1144,41.4068],[61.1723,41.3984],[61.1911,41.39],[61.2442,41.3455],[61.2569,41.331],[61.2687,41.3019],[61.284,41.2962],[61.2904,41.2932],[61.3142,41.2862],[61.3396,41.2881],[61.3572,41.2982],[61.3969,41.3558],[61.4129,41.3702],[61.4282,41.3794],[61.4464,41.3863],[61.4661,41.3897],[61.5203,41.3896],[61.7113,41.3548],[61.7597,41.3393],[61.8048,41.3186],[61.8638,41.2846],[62.034,41.1427],[62.1535,40.9989],[62.1576,40.9957],[62.1717,40.9896],[62.1867,40.9859],[62.2395,40.999],[62.4027,40.8599],[62.4351,40.8218],[62.4473,40.7883],[62.3956,40.7027],[62.1871,40.5056],[62.1871,40.5055],[62.1853,40.5079],[62.1773,40.5307],[62.1714,40.54],[62.1342,40.5778],[62.1207,40.599],[62.1001,40.6604],[62.0887,40.6744],[62.0557,40.7018],[62.0448,40.715],[62.0368,40.7363],[62.0253,40.782],[61.9939,40.8659],[61.9827,40.8857],[61.9903,40.8932],[61.9854,40.9079],[61.9827,40.9784],[61.9793,40.9988],[61.9708,41.0154],[61.8974,41.1088],[61.8779,41.125],[61.6544,41.2494],[61.5673,41.2778],[61.4701,41.2972],[61.4332,41.3003],[61.4108,41.292],[61.3972,41.271],[61.3875,41.2358],[61.363,41.2252],[61.344,41.1938],[61.3159,41.1705],[61.2814,41.1573],[61.2432,41.1563],[61.2026,41.1688],[61.0997,41.2241],[61.0819,41.2245],[61.0228,41.2169],[61.0172,41.226],[61.0141,41.2349],[61.0103,41.2372],[61.0043,41.2295],[60.9911,41.2125],[60.9846,41.207],[60.978,41.2028],[60.9303,41.2402],[60.8603,41.253],[60.6589,41.2438],[60.5381,41.2132],[60.4781,41.2121],[60.4433,41.2197],[60.4145,41.2353],[60.3603,41.2763],[60.2999,41.3098],[60.2037,41.3471],[60.0942,41.3895],[60.0661,41.4105],[60.0592,41.4342],[60.0717,41.5144],[60.0796,41.5315],[60.0926,41.5455],[60.1096,41.5568],[60.151,41.5723],[60.1647,41.585],[60.1556,41.6033],[60.0891,41.6741],[60.0583,41.7186],[60.0492,41.7535],[60.0749,41.781],[60.1024,41.7953],[60.1337,41.7973],[60.1713,41.7884],[60.2059,41.772],[60.2254,41.7655]]]}},{"type":"Feature","properties":{"id":"UZB-365","name":"Namangan","nameBn":"নামানগান অঞ্চল","type":"Region","bounds":[70.3972,40.6169,72.1955,41.5499],"center":[71.2964,40.8746]},"geometry":{"type":"Polygon","coordinates":[[[70.4708,41.4049],[70.4772,41.4047],[70.5113,41.4145],[70.6338,41.4675],[70.6678,41.4714],[70.6867,41.4625],[70.7036,41.4455],[70.7597,41.3725],[70.7692,41.3521],[70.7711,41.331],[70.7563,41.2696],[70.758,41.2522],[70.7704,41.2385],[70.7866,41.2404],[70.806,41.2475],[70.8285,41.2491],[70.8477,41.2431],[70.8657,41.2332],[70.8822,41.2205],[70.896,41.2061],[70.9142,41.193],[70.9342,41.1914],[70.9771,41.1964],[71.0247,41.1898],[71.047,41.182],[71.0676,41.1697],[71.0858,41.162],[71.1231,41.1582],[71.1391,41.1484],[71.1644,41.1162],[71.1801,41.1081],[71.1899,41.1275],[71.1879,41.1484],[71.183,41.1664],[71.1857,41.1802],[71.2064,41.1888],[71.2302,41.1873],[71.2415,41.1752],[71.2538,41.1375],[71.2634,41.1235],[71.2761,41.1132],[71.2895,41.1139],[71.3002,41.133],[71.3252,41.1573],[71.3937,41.1127],[71.4161,41.1274],[71.4215,41.1621],[71.4126,41.3347],[71.4188,41.3474],[71.4325,41.3448],[71.4806,41.3108],[71.5238,41.2967],[71.5579,41.3017],[71.5855,41.3235],[71.6188,41.3778],[71.6331,41.4113],[71.6374,41.4313],[71.6337,41.4496],[71.6056,41.4768],[71.5956,41.4935],[71.5956,41.4937],[71.5955,41.4937],[71.6153,41.5321],[71.6274,41.5432],[71.6495,41.5499],[71.6714,41.5474],[71.6841,41.5341],[71.6894,41.5146],[71.6895,41.4938],[71.6711,41.4376],[71.6719,41.4255],[71.6814,41.4228],[71.6873,41.431],[71.6915,41.4419],[71.6961,41.4474],[71.7069,41.4441],[71.7122,41.428],[71.7216,41.4248],[71.7297,41.4301],[71.7304,41.4512],[71.7368,41.4554],[71.7452,41.4528],[71.7532,41.4473],[71.847,41.3418],[71.863,41.3122],[71.8688,41.2792],[71.8663,41.2366],[71.8716,41.1945],[71.8977,41.1849],[71.977,41.1952],[72.0012,41.18],[72.0165,41.1635],[72.0338,41.1566],[72.0636,41.1702],[72.0852,41.1849],[72.1085,41.1964],[72.1329,41.1993],[72.1584,41.1879],[72.1699,41.1687],[72.1746,41.1414],[72.1764,41.1129],[72.1856,41.0606],[72.1856,41.0411],[72.1788,41.0232],[72.1651,40.9994],[72.1955,41.0064],[72.1897,40.9901],[72.1659,40.9069],[72.1583,40.9015],[72.1538,40.8995],[72.1477,40.8975],[72.1326,40.8954],[72.0726,40.8935],[72.0562,40.8911],[72.0386,40.8926],[71.9076,40.9166],[71.8802,40.9147],[71.8561,40.916],[71.8343,40.916],[71.8226,40.9134],[71.7809,40.8983],[71.7477,40.9109],[71.6442,40.89],[71.6313,40.8753],[71.6187,40.8684],[71.5862,40.8455],[71.5819,40.8398],[71.5828,40.8329],[71.5948,40.8209],[71.6106,40.7958],[71.5818,40.7743],[71.4991,40.7533],[71.4103,40.7166],[71.3908,40.7041],[71.3593,40.6673],[71.2939,40.6204],[71.271,40.6169],[71.2567,40.6203],[71.2114,40.6392],[71.191,40.6518],[71.1799,40.6549],[71.1616,40.6577],[71.1512,40.6602],[71.1439,40.6635],[71.1155,40.686],[71.108,40.6887],[71.0689,40.692],[71.0633,40.6963],[71.127,40.7623],[71.0138,40.7576],[70.9819,40.7611],[70.9754,40.7654],[70.9673,40.7697],[70.9516,40.7747],[70.9315,40.7747],[70.8844,40.7426],[70.8712,40.7412],[70.8433,40.7434],[70.8298,40.7426],[70.813,40.7365],[70.8019,40.7273],[70.7927,40.7171],[70.782,40.7079],[70.7563,40.6956],[70.7585,40.7039],[70.7671,40.7376],[70.7289,40.7545],[70.6374,40.7706],[70.6218,40.786],[70.6193,40.8032],[70.6287,40.8159],[70.6487,40.8175],[70.6835,40.7945],[70.7032,40.7889],[70.7051,40.8074],[70.6969,40.8162],[70.5144,40.9726],[70.4829,40.9935],[70.4798,40.9965],[70.4772,40.9998],[70.458,41.0157],[70.4581,41.0159],[70.4653,41.039],[70.4633,41.1131],[70.4588,41.1352],[70.4385,41.1612],[70.4185,41.1816],[70.412,41.1896],[70.4098,41.1963],[70.4095,41.203],[70.4113,41.209],[70.4304,41.2395],[70.4334,41.2458],[70.438,41.2597],[70.4344,41.2677],[70.4068,41.2707],[70.4034,41.2743],[70.4,41.2795],[70.3997,41.2949],[70.3972,41.3064],[70.3986,41.3138],[70.4014,41.3194],[70.4503,41.3685],[70.4594,41.3813],[70.4708,41.4049]],[[70.6451,40.9352],[70.6434,40.9523],[70.6305,40.9764],[70.6167,40.9935],[70.5934,41.0094],[70.5659,41.0184],[70.5498,41.0152],[70.5615,40.9946],[70.5625,40.9938],[70.5791,40.9809],[70.6084,40.9509],[70.6252,40.9387],[70.6451,40.9352]]]}},{"type":"Feature","properties":{"id":"UZB-357","name":"Navoi","nameBn":"নাভুই অঞ্চল","type":"Region","bounds":[61.7431,39.4643,66.8012,43.7228],"center":[64.2722,42.1726]},"geometry":{"type":"Polygon","coordinates":[[[64.891,43.7228],[64.907,43.721],[64.9229,43.7191],[64.9396,43.7083],[64.9565,43.6974],[65.0642,43.5956],[65.1719,43.4937],[65.2217,43.4553],[65.2714,43.417],[65.3745,43.3699],[65.4774,43.3228],[65.4972,43.31],[65.5169,43.2972],[65.6019,43.169],[65.6561,43.0872],[65.7311,42.9742],[65.7952,42.8772],[65.804,42.8765],[65.8126,42.8758],[65.9569,42.933],[66.1013,42.9903],[66.0797,42.7419],[66.0582,42.4936],[66.0557,42.4673],[66.0532,42.4409],[66.0481,42.4323],[66.0432,42.4237],[66.0314,42.4203],[66.0196,42.4168],[66.0167,42.4099],[66.0137,42.403],[66.0132,42.3729],[66.0101,42.2082],[66.0065,42.0134],[66.0075,42.0081],[66.0087,42.0027],[66.0129,42.0001],[66.0172,41.9976],[66.1376,41.9972],[66.2474,41.9969],[66.3566,41.9966],[66.4774,41.9962],[66.4812,41.9966],[66.4848,41.997],[66.4886,41.9969],[66.4924,41.9968],[66.4958,41.9962],[66.4992,41.9956],[66.5017,41.9945],[66.5041,41.9935],[66.5214,41.8671],[66.5389,41.7408],[66.5707,41.6173],[66.6026,41.4938],[66.6455,41.3465],[66.6882,41.1992],[66.7107,41.1786],[66.733,41.1581],[66.7579,41.1531],[66.7575,41.1497],[66.6352,41.1122],[66.6268,41.0966],[66.6143,41.0842],[66.6313,40.9447],[66.633,40.9393],[66.6355,40.9347],[66.6411,40.9261],[66.6495,40.9184],[66.6555,40.9151],[66.6693,40.9093],[66.7598,40.8906],[66.7653,40.8872],[66.7688,40.8834],[66.7708,40.8789],[66.7713,40.8716],[66.771,40.8617],[66.7685,40.8438],[66.7685,40.827],[66.7702,40.8224],[66.7794,40.8049],[66.8012,40.7752],[66.7732,40.7219],[66.6202,40.4951],[66.6006,40.5097],[66.5892,40.5212],[66.5858,40.5258],[66.5837,40.5301],[66.5826,40.5338],[66.5827,40.5382],[66.5886,40.5541],[66.5895,40.5635],[66.588,40.5679],[66.5852,40.572],[66.5511,40.602],[66.523,40.6209],[66.5117,40.6256],[66.5028,40.6266],[66.4934,40.6237],[66.4212,40.5862],[66.3978,40.578],[66.3779,40.576],[66.3617,40.5778],[66.3439,40.5832],[66.3258,40.591],[66.3051,40.6027],[66.2902,40.6082],[66.2761,40.6096],[66.263,40.6062],[66.2507,40.5993],[66.239,40.5892],[66.2299,40.5778],[66.2217,40.5652],[66.2088,40.5379],[66.2059,40.5222],[66.2056,40.5058],[66.2144,40.4884],[66.2214,40.4797],[66.2259,40.4716],[66.2252,40.464],[66.2173,40.4524],[66.21,40.4472],[66.1906,40.44],[66.1857,40.4341],[66.1853,40.4266],[66.1962,40.403],[66.1998,40.3672],[66.1928,40.3454],[66.1793,40.3229],[66.1781,40.3165],[66.1805,40.309],[66.1841,40.3041],[66.1995,40.2941],[66.1983,40.2846],[66.1933,40.2776],[66.1683,40.2501],[66.1596,40.2374],[66.1534,40.2244],[66.1457,40.2017],[66.1197,40.155],[66.1177,40.1473],[66.1196,40.1419],[66.1239,40.1401],[66.1312,40.1396],[66.1502,40.1422],[66.159,40.1426],[66.1684,40.1414],[66.1757,40.1386],[66.1816,40.1326],[66.1843,40.1263],[66.1841,40.1184],[66.179,40.1102],[66.17,40.1018],[66.1055,40.0557],[66.0943,40.0512],[65.8786,40.0157],[65.8363,40.0224],[65.7929,40.0437],[65.772,40.0384],[65.7525,40.0461],[65.7335,40.0577],[65.6929,40.0688],[65.6773,40.0815],[65.6516,40.1092],[65.6415,40.1107],[65.6382,40.1119],[65.6184,40.1149],[65.5271,40.1462],[65.5125,40.1469],[65.506,40.1444],[65.5001,40.1395],[65.4941,40.13],[65.4913,40.1236],[65.4905,40.1184],[65.4907,40.1062],[65.4888,40.0859],[65.4874,40.0807],[65.4855,40.0761],[65.4837,40.0727],[65.4804,40.068],[65.4548,40.0386],[65.454,40.0321],[65.4574,40.0285],[65.4643,40.0277],[65.471,40.0262],[65.4766,40.0237],[65.4807,40.0199],[65.482,40.0153],[65.4812,40.0099],[65.4775,40.0016],[65.4616,39.9754],[65.4588,39.9694],[65.4418,39.9177],[65.4353,39.9057],[65.4266,39.9011],[65.4135,39.8979],[65.385,39.8976],[65.3571,39.9009],[65.3273,39.9111],[65.2936,39.9258],[65.2863,39.9263],[65.2801,39.9241],[65.2748,39.917],[65.2723,39.911],[65.2686,39.8937],[65.2602,39.8878],[65.2526,39.8836],[65.1924,39.8715],[65.1431,39.8662],[65.134,39.8644],[65.1277,39.8617],[65.1232,39.858],[65.1215,39.8532],[65.1291,39.8405],[65.1589,39.8145],[65.1787,39.8009],[65.186,39.7944],[65.1948,39.7851],[65.225,39.701],[65.2262,39.6932],[65.2253,39.6785],[65.223,39.6692],[65.2203,39.6612],[65.1909,39.6098],[65.19,39.6037],[65.2022,39.5741],[65.2556,39.4918],[65.2366,39.4823],[65.1378,39.4643],[65.1353,39.4921],[65.1336,39.499],[65.1237,39.5256],[65.1175,39.5367],[65.1134,39.5424],[65.0975,39.5594],[65.0796,39.5732],[65.0645,39.5798],[65.0407,39.5865],[65.0214,39.5951],[65.0133,39.6159],[65.0101,39.6376],[65.0098,39.6539],[65.0015,39.6762],[64.9832,39.6999],[64.8639,39.7431],[64.8549,39.7544],[64.8398,39.7568],[64.7964,39.7415],[64.777,39.7423],[64.7631,39.7477],[64.7595,39.7562],[64.7544,39.7653],[64.753,39.7711],[64.706,39.7911],[64.6782,39.8058],[64.6055,39.8832],[64.59,39.9078],[64.6042,39.9334],[64.6204,39.9611],[64.6529,39.9925],[64.6564,39.9968],[64.6642,40.0031],[64.6721,40.0162],[64.7332,40.0377],[64.7511,40.0475],[64.7688,40.0605],[64.7826,40.0753],[64.83,40.1496],[64.8453,40.1591],[64.8542,40.1594],[64.8618,40.1638],[64.868,40.1671],[64.8748,40.1684],[64.9047,40.1712],[64.9059,40.1747],[64.9018,40.1811],[64.8864,40.196],[64.857,40.219],[64.8456,40.2332],[64.8442,40.2371],[64.8448,40.2395],[64.8496,40.2407],[64.8585,40.2472],[64.8751,40.285],[64.8501,40.3043],[64.8448,40.3236],[64.8453,40.3324],[64.8468,40.3417],[64.8496,40.3511],[64.8588,40.3598],[64.8754,40.3668],[64.9102,40.3713],[64.9327,40.3714],[64.952,40.3673],[64.9722,40.3538],[64.9936,40.3428],[65.0164,40.3371],[65.134,40.3361],[65.1448,40.353],[65.1674,40.4079],[65.1859,40.4212],[65.2078,40.4407],[65.2344,40.5041],[65.2362,40.5166],[65.2475,40.5295],[65.2553,40.5347],[65.2647,40.5368],[65.2747,40.5364],[65.3269,40.5279],[65.3403,40.5275],[65.3411,40.539],[65.3373,40.5509],[65.3352,40.571],[65.3349,40.5958],[65.337,40.6221],[65.3418,40.6476],[65.3654,40.7097],[65.3175,40.6991],[65.0144,40.7151],[64.9158,40.7335],[64.8811,40.7485],[64.8465,40.7704],[64.8324,40.7998],[64.8233,40.8263],[64.802,40.9269],[64.7933,40.9508],[64.7812,40.952],[64.7491,40.9175],[64.7171,40.907],[64.6735,40.9001],[64.5412,40.8956],[64.5075,40.8859],[64.4884,40.8782],[64.458,40.7889],[64.4355,40.773],[64.1647,40.7975],[64.1223,40.809],[64.1085,40.8306],[64.1068,40.8964],[64.1017,40.9305],[64.0812,40.9535],[64.0617,40.966],[64.0429,40.9698],[64.0227,40.9645],[64.003,40.9525],[63.985,40.9328],[63.9256,40.8386],[63.8542,40.758],[63.7351,40.7262],[63.7366,40.7458],[63.7,40.774],[63.6773,40.8043],[63.3764,40.9447],[63.2223,41.0103],[63.0909,41.0489],[63.0025,41.0642],[62.9786,41.0746],[62.8437,41.2546],[62.6755,41.4038],[62.6508,41.4368],[62.6191,41.4918],[62.5348,41.4933],[62.1804,41.3923],[61.7516,41.8342],[61.7437,41.8478],[61.7431,41.861],[61.7648,41.8747],[61.9797,41.9651],[61.9917,41.9746],[61.9959,41.98],[61.9761,42.0112],[61.8621,42.1674],[61.8591,42.177],[61.8591,42.1893],[61.8816,42.3969],[61.9367,42.4922],[62.1931,42.8551],[62.4654,43.2312],[62.4708,43.2428],[62.471,43.2528],[62.4558,43.2593],[62.1853,43.3139],[62.1352,43.3477],[62.0283,43.4809],[62.1109,43.4919],[62.1461,43.4967],[62.1814,43.5014],[62.2167,43.5062],[62.2519,43.5109],[62.3084,43.5184],[62.3649,43.526],[62.4213,43.5336],[62.4777,43.5411],[62.569,43.5519],[62.6602,43.5627],[62.7515,43.5735],[62.8429,43.5843],[62.9341,43.5951],[63.0254,43.6058],[63.1166,43.6166],[63.208,43.6275],[63.3603,43.6174],[63.5127,43.6073],[63.6651,43.5973],[63.8174,43.5872],[63.9559,43.5781],[64.0947,43.5689],[64.2332,43.5597],[64.3717,43.5506],[64.4267,43.547],[64.4442,43.5507],[64.4616,43.5543],[64.5621,43.5948],[64.6584,43.6336],[64.7576,43.6736],[64.855,43.7129],[64.8731,43.7178],[64.891,43.7228]]]}},{"type":"Feature","properties":{"id":"UZB-358","name":"Samarkand","nameBn":"সামারকান্ড অঞ্চল","type":"Region","bounds":[65.1215,39.2904,67.5037,40.6266],"center":[66.3126,39.9926]},"geometry":{"type":"Polygon","coordinates":[[[67.4365,39.4857],[67.4273,39.4766],[67.4148,39.4381],[67.4082,39.3979],[67.4071,39.361],[67.3944,39.3274],[67.3869,39.2942],[67.3803,39.2923],[67.3713,39.2945],[67.3606,39.2918],[67.3587,39.2904],[67.1197,39.3372],[67.0664,39.3391],[67.0661,39.334],[67.0677,39.3242],[67.0678,39.3192],[67.067,39.3141],[67.0649,39.3089],[67.0612,39.3046],[67.0564,39.3012],[67.0509,39.2992],[67.0388,39.2971],[66.9283,39.2938],[66.914,39.2961],[66.9067,39.2982],[66.9002,39.3011],[66.8947,39.3044],[66.8908,39.3104],[66.8894,39.3185],[66.8911,39.3338],[66.8974,39.3616],[66.8937,39.3755],[66.8737,39.4051],[66.8523,39.4076],[66.7673,39.4206],[66.6886,39.4306],[66.6754,39.4305],[66.6574,39.4264],[66.6419,39.4196],[66.6336,39.4143],[66.6273,39.409],[66.5949,39.3707],[66.5854,39.3635],[66.5106,39.3401],[66.5025,39.3396],[66.4895,39.3422],[66.4735,39.3486],[66.4144,39.3853],[66.3888,39.3979],[66.3699,39.397],[66.2255,39.3711],[66.2206,39.3709],[66.1251,39.3343],[66.1042,39.3237],[66.0886,39.3196],[66.0528,39.3195],[65.986,39.3335],[65.9795,39.3372],[65.9749,39.3434],[65.9726,39.3549],[65.9718,39.3624],[65.9717,39.369],[65.9731,39.3848],[65.9727,39.4002],[65.9696,39.4063],[65.9667,39.4109],[65.9414,39.4259],[65.9118,39.4418],[65.8595,39.4813],[65.8486,39.493],[65.8432,39.5003],[65.8432,39.5005],[65.8427,39.501],[65.8404,39.5061],[65.8308,39.5387],[65.8283,39.543],[65.8249,39.547],[65.8204,39.5504],[65.8153,39.5529],[65.8088,39.5547],[65.7993,39.5559],[65.7678,39.5568],[65.7569,39.5553],[65.7486,39.5508],[65.7465,39.5459],[65.7456,39.5405],[65.7464,39.5253],[65.7461,39.5203],[65.7446,39.5152],[65.7412,39.5108],[65.7367,39.507],[65.7158,39.4951],[65.6942,39.4863],[65.6826,39.4834],[65.2556,39.4918],[65.2022,39.5741],[65.19,39.6037],[65.1909,39.6098],[65.2203,39.6612],[65.223,39.6692],[65.2253,39.6785],[65.2262,39.6932],[65.225,39.701],[65.1948,39.7851],[65.186,39.7944],[65.1787,39.8009],[65.1589,39.8145],[65.1291,39.8405],[65.1215,39.8532],[65.1232,39.858],[65.1277,39.8617],[65.134,39.8644],[65.1431,39.8662],[65.1924,39.8715],[65.2526,39.8836],[65.2602,39.8878],[65.2686,39.8937],[65.2723,39.911],[65.2748,39.917],[65.2801,39.9241],[65.2863,39.9263],[65.2936,39.9258],[65.3273,39.9111],[65.3571,39.9009],[65.385,39.8976],[65.4135,39.8979],[65.4266,39.9011],[65.4353,39.9057],[65.4418,39.9177],[65.4588,39.9694],[65.4616,39.9754],[65.4775,40.0016],[65.4812,40.0099],[65.482,40.0153],[65.4807,40.0199],[65.4766,40.0237],[65.471,40.0262],[65.4643,40.0277],[65.4574,40.0285],[65.454,40.0321],[65.4548,40.0386],[65.4804,40.068],[65.4837,40.0727],[65.4855,40.0761],[65.4874,40.0807],[65.4888,40.0859],[65.4907,40.1062],[65.4905,40.1184],[65.4913,40.1236],[65.4941,40.13],[65.5001,40.1395],[65.506,40.1444],[65.5125,40.1469],[65.5271,40.1462],[65.6184,40.1149],[65.6382,40.1119],[65.6415,40.1107],[65.6516,40.1092],[65.6773,40.0815],[65.6929,40.0688],[65.7335,40.0577],[65.7525,40.0461],[65.772,40.0384],[65.7929,40.0437],[65.8363,40.0224],[65.8786,40.0157],[66.0943,40.0512],[66.1055,40.0557],[66.17,40.1018],[66.179,40.1102],[66.1841,40.1184],[66.1843,40.1263],[66.1816,40.1326],[66.1757,40.1386],[66.1684,40.1414],[66.159,40.1426],[66.1502,40.1422],[66.1312,40.1396],[66.1239,40.1401],[66.1196,40.1419],[66.1177,40.1473],[66.1197,40.155],[66.1457,40.2017],[66.1534,40.2244],[66.1596,40.2374],[66.1683,40.2501],[66.1933,40.2776],[66.1983,40.2846],[66.1995,40.2941],[66.1841,40.3041],[66.1805,40.309],[66.1781,40.3165],[66.1793,40.3229],[66.1928,40.3454],[66.1998,40.3672],[66.1962,40.403],[66.1853,40.4266],[66.1857,40.4341],[66.1906,40.44],[66.21,40.4472],[66.2173,40.4524],[66.2252,40.464],[66.2259,40.4716],[66.2214,40.4797],[66.2144,40.4884],[66.2056,40.5058],[66.2059,40.5222],[66.2088,40.5379],[66.2217,40.5652],[66.2299,40.5778],[66.239,40.5892],[66.2507,40.5993],[66.263,40.6062],[66.2761,40.6096],[66.2902,40.6082],[66.3051,40.6027],[66.3258,40.591],[66.3439,40.5832],[66.3617,40.5778],[66.3779,40.576],[66.3978,40.578],[66.4212,40.5862],[66.4934,40.6237],[66.5028,40.6266],[66.5117,40.6256],[66.523,40.6209],[66.5511,40.602],[66.5852,40.572],[66.588,40.5679],[66.5895,40.5635],[66.5886,40.5541],[66.5827,40.5382],[66.5826,40.5338],[66.5837,40.5301],[66.5858,40.5258],[66.5892,40.5212],[66.6006,40.5097],[66.6202,40.4951],[66.6281,40.4907],[66.7541,40.4871],[66.7956,40.4778],[66.8118,40.4744],[66.8279,40.4726],[66.8507,40.4734],[66.8771,40.4777],[66.883,40.4781],[66.8885,40.4752],[66.8936,40.4688],[66.9013,40.4562],[66.9052,40.4466],[66.9074,40.4371],[66.9063,40.4234],[66.9005,40.4088],[66.8919,40.3936],[66.8898,40.3876],[66.8888,40.3813],[66.8885,40.3746],[66.8902,40.3275],[66.8925,40.3108],[66.9066,40.2589],[66.9089,40.2538],[66.9123,40.2487],[66.9202,40.2444],[66.9408,40.2368],[66.9457,40.2333],[66.9491,40.2289],[66.9482,40.2219],[66.9459,40.216],[66.9454,40.2088],[66.9487,40.2008],[66.9759,40.175],[66.9753,40.1519],[66.971,40.1428],[66.968,40.1396],[66.9629,40.1364],[66.9442,40.1316],[66.9389,40.1292],[66.9363,40.1247],[66.9355,40.1193],[66.94,40.0744],[66.9432,40.0693],[66.9479,40.0649],[66.9594,40.0627],[66.9679,40.0623],[66.9758,40.0633],[66.982,40.0648],[67.0011,40.0723],[67.0061,40.0733],[67.0124,40.0734],[67.0202,40.0725],[67.0272,40.0687],[67.0321,40.0625],[67.0329,40.0488],[67.0298,40.0423],[67.0301,40.0341],[67.0316,40.0288],[67.0664,39.9991],[67.0799,40.003],[67.0844,40.0036],[67.0891,40.0049],[67.1009,39.9895],[67.1797,39.9729],[67.1912,39.9717],[67.2072,39.9725],[67.2142,39.974],[67.221,39.9743],[67.2373,39.9662],[67.2442,39.9636],[67.2534,39.9626],[67.2632,39.9654],[67.2868,39.9631],[67.4599,39.9382],[67.4767,39.9175],[67.5037,39.8242],[67.4998,39.8164],[67.4845,39.8132],[67.4767,39.8127],[67.4497,39.808],[67.4282,39.8019],[67.3971,39.7893],[67.3816,39.7804],[67.3735,39.7742],[67.3715,39.77],[67.3695,39.763],[67.3684,39.7484],[67.3688,39.7395],[67.3702,39.7326],[67.3719,39.7276],[67.3743,39.7173],[67.3746,39.7116],[67.3738,39.6997],[67.3716,39.6936],[67.3673,39.6891],[67.3583,39.6862],[67.3499,39.6853],[67.3196,39.6846],[67.306,39.6822],[67.3003,39.6727],[67.297,39.6649],[67.2948,39.5956],[67.3051,39.579],[67.3192,39.5662],[67.3609,39.5376],[67.4365,39.4857]]]}},{"type":"Feature","properties":{"id":"UZB-371","name":"Sirdaryo","nameBn":"সিড্রায়ো অঞ্চল","type":"Region","bounds":[68.0918,39.8196,69.124,40.9517],"center":[68.8037,39.9519]},"geometry":{"type":"MultiPolygon","coordinates":[[[[69.0736,40.2169],[69.042,40.2292],[69.0192,40.2321],[68.8566,40.2127],[68.8367,40.2064],[68.8019,40.1911],[68.7785,40.1888],[68.7205,40.1965],[68.6983,40.195],[68.6427,40.1837],[68.6424,40.184],[68.642,40.1843],[68.6301,40.202],[68.6334,40.2105],[68.6375,40.2176],[68.6513,40.2557],[68.6554,40.2628],[68.6596,40.2682],[68.6643,40.2732],[68.6695,40.2801],[68.6685,40.2823],[68.6641,40.2825],[68.3644,40.2257],[68.1371,40.2295],[68.1097,40.2329],[68.106,40.2367],[68.1001,40.2444],[68.0958,40.2524],[68.0918,40.2798],[68.0946,40.2956],[68.0986,40.3093],[68.2167,40.5162],[68.2141,40.5288],[68.2046,40.5281],[68.1868,40.5239],[68.17,40.5224],[68.1646,40.5261],[68.1624,40.5312],[68.1689,40.5684],[68.1702,40.5922],[68.1725,40.5973],[68.1772,40.6003],[68.1829,40.6022],[68.1959,40.6045],[68.2509,40.6117],[68.2642,40.6224],[68.2665,40.6627],[68.3439,40.6317],[68.4617,40.5847],[68.4634,40.5872],[68.4651,40.5897],[68.4711,40.5945],[68.4773,40.5992],[68.4849,40.5989],[68.4924,40.5986],[68.4963,40.6021],[68.4999,40.6056],[68.5027,40.61],[68.5055,40.6143],[68.5101,40.6167],[68.5148,40.6191],[68.5206,40.6183],[68.5263,40.6176],[68.5463,40.61],[68.5662,40.6025],[68.5797,40.6009],[68.593,40.5995],[68.6035,40.6043],[68.6142,40.6091],[68.6174,40.6157],[68.6204,40.6222],[68.6107,40.6261],[68.6011,40.63],[68.6133,40.6452],[68.6255,40.6604],[68.6264,40.6638],[68.6274,40.6671],[68.6231,40.6727],[68.6188,40.6782],[68.6154,40.6844],[68.6121,40.6905],[68.6104,40.6969],[68.6085,40.7034],[68.609,40.7096],[68.6094,40.7158],[68.5969,40.7181],[68.5842,40.7204],[68.5794,40.7224],[68.5746,40.7245],[68.5705,40.7285],[68.5663,40.7325],[68.563,40.7418],[68.5598,40.7513],[68.5547,40.7932],[68.5497,40.835],[68.5515,40.8427],[68.5534,40.8504],[68.5562,40.8529],[68.559,40.8555],[68.5621,40.8574],[68.5654,40.8592],[68.5687,40.8648],[68.5719,40.8705],[68.5725,40.8753],[68.5732,40.8801],[68.5718,40.8914],[68.5706,40.9025],[68.5707,40.908],[68.5709,40.9135],[68.573,40.9125],[68.5753,40.9116],[68.58,40.9102],[68.5847,40.9088],[68.5869,40.9077],[68.5892,40.9066],[68.5947,40.9184],[68.6001,40.9301],[68.614,40.9373],[68.6279,40.9445],[68.6495,40.9517],[68.7002,40.9163],[68.7081,40.9076],[68.7114,40.8975],[68.7127,40.8738],[68.7153,40.8665],[68.7206,40.8639],[68.7294,40.8689],[68.7338,40.869],[68.7367,40.8623],[68.74,40.8451],[68.7562,40.8501],[68.7783,40.8471],[68.8,40.8397],[68.8151,40.8314],[68.824,40.8225],[68.8356,40.8055],[68.843,40.7979],[68.8498,40.7939],[68.8765,40.7836],[68.8875,40.777],[68.8929,40.7718],[68.9032,40.7557],[68.9041,40.7513],[68.9023,40.7396],[68.9032,40.7352],[68.9099,40.7302],[68.9169,40.73],[68.9239,40.7308],[68.9311,40.729],[68.9447,40.7194],[68.9557,40.7072],[68.958,40.6937],[68.9448,40.6806],[68.9602,40.6735],[68.9743,40.677],[68.9882,40.6841],[69.0035,40.688],[69.0129,40.6837],[69.0092,40.6736],[68.9932,40.6533],[69.0354,40.6595],[69.0538,40.6583],[69.0656,40.6333],[69.0839,40.6217],[69.0888,40.6123],[69.0851,40.6037],[69.0687,40.5918],[69.0683,40.5843],[69.0761,40.5807],[69.086,40.5863],[69.0965,40.5944],[69.1061,40.5986],[69.1152,40.5955],[69.1214,40.5884],[69.1219,40.5813],[69.0966,40.5726],[69.0871,40.5588],[69.0758,40.5229],[69.087,40.5238],[69.0977,40.5233],[69.1076,40.5206],[69.1167,40.5155],[69.0979,40.5074],[69.0999,40.4994],[69.1104,40.4917],[69.1167,40.4854],[69.1188,40.4773],[69.1224,40.4685],[69.124,40.4595],[69.1198,40.4509],[69.1056,40.4367],[69.1001,40.4293],[69.0942,40.4191],[69.0916,40.4123],[69.0706,40.3206],[69.0849,40.293],[69.0914,40.2847],[69.0933,40.27],[69.079,40.2303],[69.0737,40.2172],[69.0736,40.2169]]],[[[68.9307,40.1468],[68.9773,40.121],[68.9838,40.107],[68.987,40.0917],[68.9854,40.0771],[68.9773,40.0649],[68.9545,40.0621],[68.8818,40.0708],[68.8615,40.0658],[68.8261,40.0421],[68.8131,40.0389],[68.7904,40.0702],[68.7747,40.0799],[68.7617,40.0615],[68.7638,40.0525],[68.7816,40.0415],[68.785,40.0339],[68.7829,40.0134],[68.7844,40.004],[68.7894,39.994],[68.8774,39.9006],[68.8808,39.8783],[68.8383,39.8646],[68.8154,39.8919],[68.8001,39.9351],[68.7798,39.9694],[68.7589,39.9806],[68.752,39.9728],[68.7556,39.954],[68.7652,39.9324],[68.7876,39.8958],[68.7874,39.8817],[68.7752,39.8625],[68.7714,39.8605],[68.7609,39.8591],[68.7575,39.8575],[68.7504,39.8425],[68.7506,39.8411],[68.7505,39.8361],[68.7483,39.8261],[68.7416,39.8196],[68.7282,39.825],[68.7015,39.8584],[68.6851,39.868],[68.6511,39.8447],[68.6403,39.8481],[68.6428,39.8584],[68.6431,39.8738],[68.6484,39.8826],[68.6515,39.8897],[68.6529,39.8954],[68.65,39.8993],[68.645,39.9024],[68.6272,39.9113],[68.6225,39.9147],[68.6205,39.9186],[68.6213,39.9227],[68.6293,39.9264],[68.6355,39.9258],[68.6408,39.9234],[68.6448,39.9195],[68.6481,39.9155],[68.6517,39.9159],[68.6552,39.9213],[68.6583,39.9543],[68.6575,39.9636],[68.6562,39.969],[68.6529,39.9786],[68.6447,39.9966],[68.6425,40.0002],[68.6419,40.0012],[68.6388,40.0067],[68.6349,40.016],[68.6335,40.0215],[68.6332,40.0282],[68.6341,40.0357],[68.6383,40.0467],[68.6538,40.0683],[68.6965,40.1117],[68.9307,40.1468]]]]}},{"type":"Feature","properties":{"id":"UZB-362","name":"Surkhandarya","nameBn":"সাক্সোনদারিয়ো অঞ্চল","type":"Region","bounds":[66.4935,37.1851,68.3607,39.003],"center":[67.4269,37.9835]},"geometry":{"type":"Polygon","coordinates":[[[67.6733,39.003],[67.6905,38.9896],[67.8184,38.9734],[67.8452,38.9738],[67.9212,38.9938],[67.9213,38.9938],[67.9213,38.9939],[67.9215,38.9939],[67.9348,38.9991],[67.9489,39.002],[67.9633,39.0019],[67.9801,38.9974],[67.988,38.9938],[68.0034,38.9821],[68.0198,38.9797],[68.0364,38.9844],[68.0531,38.994],[68.0609,38.9955],[68.0691,38.9961],[68.0773,38.9955],[68.0851,38.994],[68.0853,38.994],[68.0854,38.9938],[68.0856,38.9938],[68.1009,38.9793],[68.1347,38.921],[68.1534,38.8994],[68.1637,38.8875],[68.1737,38.8673],[68.1726,38.8453],[68.1637,38.8286],[68.1513,38.8151],[68.136,38.8045],[68.119,38.7967],[68.0956,38.7929],[68.0779,38.7934],[68.0667,38.788],[68.0633,38.7663],[68.0663,38.7562],[68.0722,38.7474],[68.0767,38.7381],[68.0759,38.7269],[68.0708,38.7207],[68.0455,38.7067],[68.0376,38.6916],[68.0403,38.6734],[68.0537,38.6359],[68.0559,38.6157],[68.0525,38.5583],[68.0552,38.5363],[68.0626,38.5231],[68.0869,38.494],[68.0926,38.4788],[68.0946,38.447],[68.098,38.4324],[68.1076,38.4183],[68.1467,38.3887],[68.1837,38.3355],[68.2008,38.3217],[68.2527,38.2987],[68.332,38.243],[68.3562,38.2126],[68.3607,38.1741],[68.3443,38.1155],[68.3195,38.0602],[68.2806,38.0132],[68.2686,37.9942],[68.2685,37.9941],[68.2685,37.994],[68.2684,37.9939],[68.2683,37.9938],[68.2608,37.9768],[68.2562,37.9616],[68.2487,37.949],[68.238,37.9427],[68.233,37.9398],[68.2177,37.9361],[68.1711,37.9311],[68.14,37.9227],[68.1222,37.9083],[68.0796,37.8063],[68.0502,37.7604],[67.9773,37.6797],[67.9234,37.6388],[67.8719,37.5868],[67.8292,37.5279],[67.8012,37.4664],[67.7973,37.4244],[67.8172,37.3454],[67.8206,37.3033],[67.8154,37.2673],[67.804,37.2334],[67.7851,37.2036],[67.7805,37.1889],[67.776,37.2075],[67.7643,37.2209],[67.7466,37.2294],[67.7259,37.2335],[67.6902,37.2323],[67.6775,37.2335],[67.6664,37.238],[67.6446,37.2512],[67.6332,37.2541],[67.6218,37.2529],[67.6027,37.2483],[67.5923,37.2472],[67.586,37.2426],[67.5799,37.2327],[67.5722,37.2232],[67.5614,37.2199],[67.545,37.2315],[67.5261,37.2729],[67.5031,37.282],[67.4824,37.2774],[67.464,37.2663],[67.4311,37.2398],[67.4113,37.2279],[67.3912,37.2196],[67.3695,37.2147],[67.3452,37.213],[67.3196,37.2084],[67.2815,37.1887],[67.2591,37.1851],[67.2368,37.1924],[67.2253,37.2077],[67.218,37.2263],[67.208,37.2435],[67.1878,37.2582],[67.1435,37.2719],[67.1233,37.282],[67.1139,37.2972],[67.0974,37.3406],[67.0851,37.3496],[67.0641,37.3546],[67.0241,37.3775],[67.0059,37.3844],[66.9576,37.3852],[66.8658,37.3679],[66.735,37.3633],[66.7244,37.3601],[66.7047,37.3465],[66.6941,37.3434],[66.667,37.3443],[66.6547,37.3461],[66.5886,37.3685],[66.5646,37.3707],[66.539,37.3691],[66.5196,37.3642],[66.4948,37.3794],[66.497,37.3977],[66.5121,37.4148],[66.5308,37.4301],[66.5466,37.4508],[66.5427,37.4668],[66.5268,37.4804],[66.5071,37.4938],[66.4935,37.5222],[66.4972,37.5579],[66.5191,37.6253],[66.5229,37.665],[66.515,37.7435],[66.5188,37.7827],[66.5536,37.832],[66.609,37.8892],[66.6458,37.9459],[66.6365,37.9666],[66.6662,37.9818],[66.6819,38.0061],[66.6873,38.0197],[66.6924,38.0589],[66.6985,38.0755],[66.7068,38.084],[66.8287,38.1739],[66.8362,38.1845],[66.8427,38.1965],[66.8481,38.2089],[66.8518,38.2204],[66.8625,38.2403],[66.8779,38.2607],[66.8871,38.2692],[66.8951,38.2739],[66.9314,38.2786],[66.9431,38.2813],[67.0002,38.3064],[67.111,38.3763],[67.1237,38.3872],[67.1265,38.3925],[67.1342,38.4163],[67.1451,38.4677],[67.1506,38.4848],[67.1571,38.4975],[67.1626,38.5037],[67.2,38.528],[67.2179,38.5433],[67.2287,38.5577],[67.237,38.5723],[67.2765,38.5798],[67.2917,38.5861],[67.3012,38.5921],[67.319,38.6063],[67.3292,38.617],[67.3889,38.7081],[67.3943,38.7132],[67.4007,38.718],[67.4101,38.7238],[67.4245,38.7289],[67.4372,38.7314],[67.4516,38.7319],[67.4674,38.7303],[67.4821,38.727],[67.4886,38.7248],[67.4939,38.7223],[67.4981,38.7197],[67.5163,38.7044],[67.5215,38.7019],[67.5285,38.7011],[67.5321,38.7046],[67.5338,38.7093],[67.5339,38.7268],[67.5364,38.7342],[67.5411,38.7424],[67.5515,38.7549],[67.5566,38.7629],[67.5594,38.7703],[67.5594,38.776],[67.5588,38.7816],[67.5557,38.7918],[67.5537,38.7966],[67.5523,38.8017],[67.5517,38.8068],[67.5517,38.812],[67.5521,38.8173],[67.5534,38.8234],[67.5554,38.8291],[67.5565,38.8354],[67.5568,38.8411],[67.5554,38.8463],[67.5534,38.8505],[67.529,38.8851],[67.5232,38.9208],[67.5158,38.944],[67.5157,38.9525],[67.5183,38.9599],[67.5242,38.967],[67.5315,38.9728],[67.5375,38.9769],[67.5434,38.9796],[67.5551,38.9834],[67.5678,38.986],[67.6404,38.9885],[67.6584,38.9942],[67.6733,39.003]]]}},{"type":"Feature","properties":{"id":"UZB-372","name":"Tashkent","nameBn":"তাশখন্দ অঞ্চল","type":"Region","bounds":[68.6495,40.1817,71.2532,42.291],"center":[69.9511,41.247]},"geometry":{"type":"Polygon","coordinates":[[[71.2499,42.1984],[71.2532,42.1976],[71.2382,42.1602],[71.201,42.1408],[71.1184,42.1229],[70.9771,42.0442],[70.9359,42.0369],[70.8867,42.0385],[70.8455,42.0304],[70.8281,41.9937],[70.8251,41.9363],[70.814,41.9195],[70.7793,41.9097],[70.6797,41.9011],[70.6489,41.8874],[70.5501,41.8241],[70.5065,41.7856],[70.4772,41.7384],[70.4537,41.7121],[70.4235,41.6969],[70.3908,41.6851],[70.3312,41.6496],[70.1693,41.5783],[70.1483,41.5525],[70.1665,41.5202],[70.2034,41.5056],[70.3444,41.4938],[70.3445,41.4937],[70.3447,41.4936],[70.3449,41.4935],[70.3822,41.4764],[70.399,41.465],[70.4136,41.4507],[70.4381,41.4161],[70.4532,41.4055],[70.4708,41.4049],[70.4594,41.3813],[70.4503,41.3685],[70.4014,41.3194],[70.3986,41.3138],[70.3972,41.3064],[70.3997,41.2949],[70.4,41.2795],[70.4034,41.2743],[70.4068,41.2707],[70.4344,41.2677],[70.438,41.2597],[70.4334,41.2458],[70.4304,41.2395],[70.4113,41.209],[70.4095,41.203],[70.4098,41.1963],[70.412,41.1896],[70.4185,41.1816],[70.4385,41.1612],[70.4588,41.1352],[70.4633,41.1131],[70.4653,41.039],[70.4581,41.0159],[70.458,41.0157],[70.4457,41.0259],[70.4012,41.04],[70.3635,41.0324],[70.3359,40.927],[70.2804,40.8777],[70.208,40.8446],[70.1042,40.8133],[70.0097,40.758],[69.8253,40.714],[69.8033,40.7056],[69.7835,40.693],[69.7416,40.6525],[69.7177,40.6363],[69.6909,40.63],[69.6601,40.6387],[69.6475,40.6474],[69.6372,40.6579],[69.6189,40.6817],[69.6078,40.6918],[69.5826,40.7044],[69.5708,40.7125],[69.5319,40.7586],[69.5092,40.7747],[69.4773,40.777],[69.4617,40.7843],[69.4492,40.7945],[69.4358,40.8027],[69.4178,40.8042],[69.3853,40.7961],[69.3693,40.7894],[69.3551,40.7804],[69.3296,40.7553],[69.3142,40.7293],[69.3072,40.6993],[69.3066,40.6625],[69.3135,40.6094],[69.3093,40.5958],[69.295,40.5892],[69.2343,40.5853],[69.1984,40.5665],[69.198,40.5458],[69.2382,40.494],[69.2383,40.494],[69.2597,40.4376],[69.2694,40.4198],[69.2955,40.3839],[69.3063,40.365],[69.3127,40.3428],[69.3053,40.2938],[69.2731,40.2896],[69.2346,40.3008],[69.2084,40.2983],[69.2125,40.2688],[69.2853,40.2186],[69.2853,40.195],[69.2477,40.1817],[69.1979,40.183],[69.108,40.2036],[69.0736,40.2169],[69.0737,40.2172],[69.079,40.2303],[69.0933,40.27],[69.0914,40.2847],[69.0849,40.293],[69.0706,40.3206],[69.0916,40.4123],[69.0942,40.4191],[69.1001,40.4293],[69.1056,40.4367],[69.1198,40.4509],[69.124,40.4595],[69.1224,40.4685],[69.1188,40.4773],[69.1167,40.4854],[69.1104,40.4917],[69.0999,40.4994],[69.0979,40.5074],[69.1167,40.5155],[69.1076,40.5206],[69.0977,40.5233],[69.087,40.5238],[69.0758,40.5229],[69.0871,40.5588],[69.0966,40.5726],[69.1219,40.5813],[69.1214,40.5884],[69.1152,40.5955],[69.1061,40.5986],[69.0965,40.5944],[69.086,40.5863],[69.0761,40.5807],[69.0683,40.5843],[69.0687,40.5918],[69.0851,40.6037],[69.0888,40.6123],[69.0839,40.6217],[69.0656,40.6333],[69.0538,40.6583],[69.0354,40.6595],[68.9932,40.6533],[69.0092,40.6736],[69.0129,40.6837],[69.0035,40.688],[68.9882,40.6841],[68.9743,40.677],[68.9602,40.6735],[68.9448,40.6806],[68.958,40.6937],[68.9557,40.7072],[68.9447,40.7194],[68.9311,40.729],[68.9239,40.7308],[68.9169,40.73],[68.9099,40.7302],[68.9032,40.7352],[68.9023,40.7396],[68.9041,40.7513],[68.9032,40.7557],[68.8929,40.7718],[68.8875,40.777],[68.8765,40.7836],[68.8498,40.7939],[68.843,40.7979],[68.8356,40.8055],[68.824,40.8225],[68.8151,40.8314],[68.8,40.8397],[68.7783,40.8471],[68.7562,40.8501],[68.74,40.8451],[68.7367,40.8623],[68.7338,40.869],[68.7294,40.8689],[68.7206,40.8639],[68.7153,40.8665],[68.7127,40.8738],[68.7114,40.8975],[68.7081,40.9076],[68.7002,40.9163],[68.6495,40.9517],[68.6586,40.9547],[68.6894,40.9649],[68.6996,40.9744],[68.7095,40.9838],[68.7279,41.0238],[68.7463,41.0638],[68.7599,41.0755],[68.7738,41.0873],[68.8082,41.0987],[68.8424,41.1101],[68.8549,41.1264],[68.8674,41.1426],[68.8737,41.1491],[68.8802,41.1555],[68.8905,41.1581],[68.9008,41.1606],[68.9222,41.1628],[68.9438,41.1649],[68.9617,41.1716],[68.9797,41.1782],[68.997,41.1871],[69.0141,41.196],[69.0226,41.2024],[69.0312,41.2088],[69.0351,41.2145],[69.0392,41.2203],[69.0469,41.2679],[69.0548,41.3154],[69.0544,41.3236],[69.054,41.3319],[69.0525,41.3378],[69.0512,41.3436],[69.0497,41.3454],[69.0483,41.3472],[69.046,41.3485],[69.0435,41.3499],[69.0389,41.3543],[69.0343,41.3587],[69.033,41.3629],[69.0316,41.367],[69.0339,41.3705],[69.0362,41.374],[69.0403,41.3766],[69.0444,41.3792],[69.0675,41.3878],[69.0906,41.3963],[69.1,41.3985],[69.1095,41.4007],[69.1188,41.3979],[69.1281,41.3951],[69.1331,41.4055],[69.1382,41.4159],[69.1504,41.425],[69.1627,41.4341],[69.1899,41.4471],[69.2171,41.4601],[69.2253,41.4614],[69.2333,41.4626],[69.2482,41.4586],[69.2629,41.4546],[69.2703,41.4554],[69.2776,41.4562],[69.2968,41.4655],[69.3162,41.4748],[69.3236,41.4764],[69.3311,41.4779],[69.3608,41.4738],[69.3907,41.4697],[69.3965,41.4724],[69.4024,41.4748],[69.4017,41.48],[69.4011,41.4852],[69.3927,41.4967],[69.3845,41.5082],[69.3827,41.5135],[69.3808,41.5188],[69.3874,41.5319],[69.3938,41.545],[69.4071,41.5522],[69.4203,41.5595],[69.4488,41.5664],[69.4773,41.5731],[69.5282,41.6032],[69.579,41.6334],[69.5932,41.6458],[69.6076,41.6583],[69.616,41.6633],[69.6246,41.6683],[69.692,41.6824],[69.7594,41.6964],[69.8151,41.6981],[69.8709,41.6996],[69.8917,41.7062],[69.9124,41.7129],[69.9276,41.7263],[69.9429,41.7397],[69.9497,41.7475],[69.9565,41.7552],[69.9643,41.7599],[69.972,41.7646],[70.0,41.7723],[70.028,41.78],[70.0694,41.8029],[70.1111,41.826],[70.1237,41.8371],[70.1364,41.8481],[70.1704,41.892],[70.2042,41.9358],[70.2114,41.9414],[70.2186,41.9469],[70.2271,41.9506],[70.2358,41.9543],[70.2449,41.9567],[70.2539,41.9591],[70.2622,41.9623],[70.2703,41.9656],[70.2767,41.9709],[70.283,41.9763],[70.2867,41.985],[70.2903,41.9938],[70.3027,42.0141],[70.3151,42.0346],[70.3364,42.0484],[70.3579,42.0622],[70.4067,42.078],[70.4554,42.0937],[70.4628,42.0927],[70.4702,42.0916],[70.4794,42.0867],[70.4885,42.0819],[70.4965,42.0751],[70.5045,42.0685],[70.5082,42.062],[70.5119,42.0554],[70.5154,42.046],[70.5189,42.0367],[70.5266,42.0308],[70.5342,42.025],[70.5448,42.0219],[70.5553,42.0187],[70.5671,42.0175],[70.579,42.0162],[70.5945,42.0219],[70.6102,42.0274],[70.6208,42.0422],[70.6315,42.0569],[70.6407,42.0751],[70.6498,42.0934],[70.6615,42.1097],[70.6732,42.126],[70.6872,42.1385],[70.7011,42.1509],[70.7064,42.1576],[70.7118,42.1643],[70.7159,42.1737],[70.7199,42.1829],[70.7271,42.1901],[70.7343,42.1973],[70.7463,42.1977],[70.7581,42.198],[70.7814,42.1932],[70.8045,42.1884],[70.8235,42.1905],[70.8424,42.1925],[70.8612,42.1997],[70.88,42.2069],[70.9139,42.2276],[70.9478,42.2481],[70.9696,42.2635],[71.014,42.2877],[71.0458,42.291],[71.0776,42.2812],[71.2179,42.2064],[71.2499,42.1984]],[[69.2434,41.2192],[69.2752,41.2495],[69.3259,41.2843],[69.3638,41.2985],[69.3535,41.3065],[69.3607,41.3159],[69.3504,41.3274],[69.3366,41.3341],[69.3519,41.354],[69.3482,41.3702],[69.3112,41.388],[69.2805,41.3911],[69.2569,41.4036],[69.2232,41.4033],[69.1701,41.363],[69.1621,41.3314],[69.1361,41.2828],[69.139,41.2807],[69.1559,41.2883],[69.1577,41.2758],[69.1648,41.2647],[69.1897,41.2433],[69.2057,41.2558],[69.2066,41.2518],[69.2008,41.242],[69.2133,41.225],[69.2434,41.2192]]]}},{"type":"Feature","properties":{"id":"UZB-4828","name":"Tashkent","nameBn":"তাশখন্দ","type":"Region","bounds":[69.1361,41.2192,69.3638,41.4036],"center":[69.2464,41.323]},"geometry":{"type":"Polygon","coordinates":[[[69.2569,41.4036],[69.2805,41.3911],[69.3112,41.388],[69.3482,41.3702],[69.3519,41.354],[69.3366,41.3341],[69.3504,41.3274],[69.3607,41.3159],[69.3535,41.3065],[69.3638,41.2985],[69.3259,41.2843],[69.2752,41.2495],[69.2434,41.2192],[69.2133,41.225],[69.2008,41.242],[69.2066,41.2518],[69.2057,41.2558],[69.1897,41.2433],[69.1648,41.2647],[69.1577,41.2758],[69.1559,41.2883],[69.139,41.2807],[69.1361,41.2828],[69.1621,41.3314],[69.1701,41.363],[69.2232,41.4033],[69.2569,41.4036]]]}}]}