{"type":"FeatureCollection","features":[{"type":"Feature","properties":{"id":"VIR-4870","name":"Saint Croix","nameBn":"সেন্ট ক্রিক্স","type":null,"bounds":[-64.8952,17.6828,-64.5594,17.7926],"center":[-64.7798,17.735]},"geometry":{"type":"Polygon","coordinates":[[[-64.5594,17.7516],[-64.5852,17.749],[-64.6067,17.7423],[-64.6488,17.7237],[-64.6705,17.7172],[-64.8764,17.6891],[-64.8952,17.6828],[-64.8878,17.6999],[-64.8866,17.7144],[-64.8877,17.7553],[-64.8846,17.7679],[-64.8765,17.7759],[-64.8387,17.7648],[-64.8175,17.7741],[-64.7955,17.7875],[-64.7716,17.7926],[-64.7692,17.79],[-64.7308,17.7653],[-64.7097,17.7582],[-64.699,17.7528],[-64.6898,17.7448],[-64.6669,17.7629],[-64.631,17.7703],[-64.5918,17.7683],[-64.5594,17.7584],[-64.5594,17.7516]]]}},{"type":"Feature","properties":{"id":"VIR-4869","name":"Saint John","nameBn":"সেন্ট জন","type":null,"bounds":[-64.8013,18.3033,-64.6604,18.3736],"center":[-64.7461,18.3422]},"geometry":{"type":"Polygon","coordinates":[[[-64.701,18.343],[-64.7082,18.3401],[-64.6974,18.3265],[-64.704,18.3033],[-64.7362,18.3198],[-64.7864,18.3152],[-64.8013,18.3283],[-64.7864,18.3498],[-64.7696,18.3566],[-64.7517,18.3617],[-64.7559,18.3691],[-64.747,18.3736],[-64.7135,18.3651],[-64.6974,18.3622],[-64.6825,18.356],[-64.6646,18.3469],[-64.6604,18.3367],[-64.6741,18.3345],[-64.701,18.343]]]}},{"type":"Feature","properties":{"id":"VIR-4868","name":"Saint Thomas","nameBn":"সেন্ট টমাস","type":null,"bounds":[-65.0415,18.3044,-64.8401,18.3866],"center":[-64.9263,18.3543]},"geometry":{"type":"Polygon","coordinates":[[[-64.8716,18.3146],[-64.8788,18.3044],[-64.9105,18.3158],[-64.9219,18.3226],[-64.9308,18.3395],[-64.935,18.3305],[-64.9446,18.3367],[-64.9661,18.3327],[-64.9816,18.3356],[-64.9936,18.348],[-65.0253,18.3389],[-65.0415,18.3537],[-65.0119,18.3686],[-64.9866,18.3748],[-64.95,18.3736],[-64.935,18.3633],[-64.926,18.3662],[-64.9423,18.3781],[-64.95,18.3866],[-64.9285,18.3804],[-64.8914,18.36],[-64.855,18.3401],[-64.8401,18.3175],[-64.8514,18.3158],[-64.8603,18.3186],[-64.8716,18.3146]]]}}]}