{"type":"FeatureCollection","features":[{"type":"Feature","properties":{"id":"VUT-563","name":"Malampa","nameBn":"মালাম্পা প্রদেশ","type":"Province","bounds":[167.1442,-16.5873,168.3613,-15.8674],"center":[167.494,-16.3765]},"geometry":{"type":"MultiPolygon","coordinates":[[[[168.3296,-16.5396],[168.3159,-16.5358],[168.3076,-16.5246],[168.2954,-16.498],[168.3245,-16.4923],[168.3373,-16.4919],[168.3494,-16.498],[168.3612,-16.5143],[168.3613,-16.5294],[168.3504,-16.5392],[168.3296,-16.5396]]],[[[168.2131,-16.4781],[168.2227,-16.4406],[168.2341,-16.4323],[168.261,-16.4298],[168.2517,-16.4448],[168.2508,-16.4796],[168.2438,-16.4946],[168.2262,-16.5048],[168.2101,-16.5047],[168.2031,-16.4954],[168.2131,-16.4781]]],[[[168.1824,-16.3478],[168.1686,-16.3513],[168.1541,-16.3578],[168.14,-16.3619],[168.1275,-16.3574],[168.1159,-16.3478],[168.1026,-16.3399],[168.0891,-16.3365],[168.0765,-16.3404],[168.0501,-16.3224],[168.0366,-16.3201],[168.022,-16.3266],[168.0124,-16.3147],[167.9792,-16.2952],[167.9634,-16.2826],[167.949,-16.2743],[167.9317,-16.2675],[167.9209,-16.2589],[167.9264,-16.2448],[167.9129,-16.2331],[167.9258,-16.2198],[167.9504,-16.2089],[167.9797,-16.2022],[167.9945,-16.1923],[168.0042,-16.1901],[168.0487,-16.1901],[168.0695,-16.1798],[168.1069,-16.143],[168.1206,-16.1349],[168.1255,-16.1291],[168.141,-16.0898],[168.1499,-16.0857],[168.1716,-16.0803],[168.1914,-16.1013],[168.2073,-16.1345],[168.2268,-16.197],[168.2307,-16.2277],[168.2497,-16.2462],[168.3213,-16.2829],[168.3286,-16.2914],[168.3298,-16.3062],[168.3223,-16.3183],[168.2883,-16.344],[168.1824,-16.3478]]],[[[167.8125,-16.4195],[167.8228,-16.419],[167.8306,-16.4314],[167.8372,-16.4474],[167.8439,-16.4577],[167.8203,-16.4811],[167.8125,-16.4843],[167.7996,-16.487],[167.7935,-16.4941],[167.7884,-16.5038],[167.778,-16.5151],[167.7717,-16.5245],[167.7725,-16.533],[167.772,-16.5405],[167.7606,-16.5463],[167.7444,-16.5465],[167.7373,-16.5382],[167.7334,-16.5268],[167.7266,-16.5178],[167.7173,-16.5153],[167.6909,-16.511],[167.6856,-16.5089],[167.6794,-16.4999],[167.6651,-16.4998],[167.6499,-16.5024],[167.6409,-16.5016],[167.6219,-16.4942],[167.5998,-16.5021],[167.5798,-16.5158],[167.5681,-16.526],[167.5749,-16.5319],[167.5775,-16.5357],[167.5811,-16.538],[167.59,-16.5396],[167.5803,-16.5522],[167.5684,-16.5568],[167.5422,-16.5602],[167.521,-16.5805],[167.5151,-16.5794],[167.5083,-16.5745],[167.5029,-16.5744],[167.5007,-16.5873],[167.4944,-16.5873],[167.4862,-16.5771],[167.4588,-16.568],[167.4465,-16.545],[167.4331,-16.5344],[167.4211,-16.5202],[167.4187,-16.498],[167.4255,-16.498],[167.4295,-16.5046],[167.4357,-16.5103],[167.4436,-16.5149],[167.4528,-16.5178],[167.4502,-16.5019],[167.4443,-16.4819],[167.4357,-16.4628],[167.4108,-16.4308],[167.4065,-16.42],[167.405,-16.4052],[167.4058,-16.3868],[167.405,-16.3813],[167.4004,-16.3749],[167.3938,-16.3715],[167.3875,-16.3697],[167.3845,-16.3683],[167.3815,-16.3468],[167.3826,-16.2854],[167.3877,-16.2726],[167.3771,-16.2243],[167.3765,-16.2184],[167.3771,-16.2006],[167.3748,-16.193],[167.3703,-16.1906],[167.3656,-16.1899],[167.3635,-16.1867],[167.3582,-16.1691],[167.3224,-16.115],[167.3065,-16.1243],[167.3013,-16.1287],[167.2952,-16.1213],[167.2791,-16.1401],[167.2331,-16.1696],[167.2093,-16.1489],[167.196,-16.1437],[167.1853,-16.1491],[167.1786,-16.1389],[167.1761,-16.1291],[167.1748,-16.1189],[167.1716,-16.1082],[167.1639,-16.0981],[167.155,-16.091],[167.1475,-16.0829],[167.1442,-16.07],[167.1484,-16.0463],[167.1785,-15.9909],[167.1742,-15.9249],[167.1751,-15.912],[167.1802,-15.9039],[167.1818,-15.8963],[167.1853,-15.8907],[167.1956,-15.8884],[167.2262,-15.8674],[167.3361,-15.9089],[167.3348,-15.9441],[167.3947,-16.018],[167.3771,-16.0529],[167.39,-16.0578],[167.4004,-16.0647],[167.4043,-16.0744],[167.3976,-16.0871],[167.4065,-16.0943],[167.4152,-16.1036],[167.4245,-16.1116],[167.4443,-16.1181],[167.4596,-16.1318],[167.47,-16.1349],[167.4734,-16.131],[167.4719,-16.122],[167.4665,-16.1044],[167.4707,-16.1028],[167.4802,-16.1132],[167.4944,-16.1349],[167.4934,-16.1438],[167.4857,-16.1549],[167.487,-16.1628],[167.5095,-16.173],[167.5149,-16.1764],[167.521,-16.1764],[167.5242,-16.171],[167.5272,-16.1681],[167.5306,-16.1661],[167.5347,-16.1628],[167.5374,-16.1742],[167.5418,-16.1855],[167.5476,-16.1959],[167.5552,-16.2044],[167.5667,-16.2115],[167.5899,-16.2179],[167.603,-16.2243],[167.6255,-16.2449],[167.6384,-16.2625],[167.6527,-16.2697],[167.6794,-16.259],[167.6887,-16.2638],[167.6924,-16.2652],[167.6924,-16.2726],[167.6857,-16.287],[167.7036,-16.3062],[167.7469,-16.3404],[167.7725,-16.336],[167.7861,-16.3586],[167.7947,-16.408],[167.7759,-16.4412],[167.7739,-16.4596],[167.7892,-16.4706],[167.7904,-16.4513],[167.7944,-16.4387],[167.8015,-16.4291],[167.8125,-16.4195]]]]}},{"type":"Feature","properties":{"id":"VUT-564","name":"Penama","nameBn":"পেনামা প্রদেশ","type":"Province","bounds":[167.6729,-15.9924,168.2704,-14.9158],"center":[168.195,-15.7575]},"geometry":{"type":"MultiPolygon","coordinates":[[[[168.1858,-15.5178],[168.1926,-15.527],[168.1989,-15.5296],[168.2038,-15.5344],[168.2057,-15.5496],[168.1979,-15.6109],[168.1995,-15.6277],[168.2131,-15.6594],[168.2131,-15.6899],[168.2161,-15.7038],[168.2395,-15.7682],[168.2473,-15.8195],[168.2521,-15.8342],[168.264,-15.8571],[168.2678,-15.8748],[168.2704,-15.9142],[168.2678,-15.9492],[168.2549,-15.9758],[168.2268,-15.9909],[168.2043,-15.9924],[168.1924,-15.9855],[168.1875,-15.9711],[168.1838,-15.9308],[168.166,-15.8704],[168.155,-15.7936],[168.1311,-15.7376],[168.1222,-15.7021],[168.1196,-15.6628],[168.1245,-15.6214],[168.1489,-15.5432],[168.1546,-15.4633],[168.1765,-15.4616],[168.1829,-15.508],[168.1858,-15.5178]]],[[[167.9395,-15.3919],[167.9362,-15.4103],[167.9279,-15.4236],[167.8616,-15.4767],[167.8386,-15.4848],[167.7341,-15.4843],[167.7129,-15.4776],[167.6787,-15.461],[167.6729,-15.4498],[167.6824,-15.4326],[167.8045,-15.32],[167.8262,-15.3131],[167.8431,-15.3103],[167.8916,-15.2919],[167.9769,-15.2778],[168.0025,-15.2818],[168.0033,-15.2916],[167.9803,-15.3131],[167.9673,-15.3283],[167.9539,-15.3488],[167.9436,-15.3712],[167.9395,-15.3919]]],[[[168.0964,-14.9804],[168.0982,-14.9726],[168.1008,-14.9675],[168.1004,-14.9621],[168.0933,-14.9531],[168.0905,-14.9435],[168.0941,-14.9314],[168.1017,-14.9208],[168.1107,-14.9158],[168.1229,-14.9228],[168.1336,-14.9404],[168.1414,-14.9601],[168.1442,-14.9736],[168.1458,-14.9967],[168.158,-15.0524],[168.1584,-15.0627],[168.157,-15.0837],[168.158,-15.0939],[168.1698,-15.1266],[168.1716,-15.138],[168.1716,-15.1728],[168.1748,-15.1814],[168.1888,-15.1975],[168.1921,-15.2063],[168.189,-15.2746],[168.1943,-15.2892],[168.1926,-15.308],[168.1858,-15.3364],[168.1849,-15.3655],[168.179,-15.3951],[168.166,-15.3903],[168.1553,-15.3903],[168.1311,-15.3951],[168.1369,-15.3718],[168.1354,-15.3469],[168.1238,-15.2994],[168.1305,-15.2647],[168.1301,-15.1576],[168.1206,-15.1349],[168.0964,-14.9804]]]]}},{"type":"Feature","properties":{"id":"VUT-561","name":"Sanma","nameBn":"সান্মা প্রদেশ","type":"Province","bounds":[166.5226,-15.7512,167.2472,-14.6253],"center":[167.155,-15.6781]},"geometry":{"type":"MultiPolygon","coordinates":[[[[167.2057,-15.7512],[167.1859,-15.7507],[167.172,-15.7442],[167.1442,-15.7241],[167.1294,-15.7184],[167.1014,-15.7112],[167.0891,-15.7035],[167.0723,-15.6762],[167.0757,-15.6496],[167.095,-15.6296],[167.127,-15.6215],[167.1978,-15.63],[167.2336,-15.6415],[167.2368,-15.6594],[167.2249,-15.69],[167.2321,-15.719],[167.2337,-15.7414],[167.2057,-15.7512]]],[[[167.1574,-15.539],[167.1764,-15.5315],[167.1902,-15.5317],[167.1927,-15.5354],[167.1785,-15.539],[167.1785,-15.5458],[167.1887,-15.5485],[167.1926,-15.5539],[167.1911,-15.5605],[167.1853,-15.567],[167.2083,-15.579],[167.2095,-15.5964],[167.1948,-15.6075],[167.1716,-15.601],[167.1683,-15.6051],[167.1651,-15.6065],[167.1574,-15.608],[167.1428,-15.6059],[167.1323,-15.6022],[167.1095,-15.5875],[167.1574,-15.539]]],[[[167.1232,-14.9636],[167.1011,-14.9396],[167.0964,-14.9289],[167.1141,-14.9339],[167.1398,-14.9533],[167.1574,-14.9562],[167.1486,-14.9656],[167.1397,-14.9697],[167.131,-14.9689],[167.1232,-14.9636]]],[[[167.1406,-15.5356],[167.1027,-15.58],[167.0941,-15.5864],[167.0857,-15.5905],[167.0764,-15.5929],[167.0652,-15.5937],[167.0532,-15.5919],[167.0364,-15.5832],[167.0271,-15.58],[166.9891,-15.5756],[166.9463,-15.5768],[166.908,-15.5864],[166.8835,-15.608],[166.8932,-15.6178],[166.8851,-15.6189],[166.8638,-15.6148],[166.8514,-15.6227],[166.8464,-15.631],[166.8429,-15.6397],[166.8358,-15.6489],[166.8156,-15.6583],[166.7931,-15.6563],[166.7715,-15.6452],[166.7539,-15.6277],[166.7664,-15.6088],[166.7668,-15.5839],[166.7562,-15.5624],[166.7217,-15.5473],[166.7072,-15.5328],[166.6851,-15.4981],[166.6741,-15.468],[166.6678,-15.4601],[166.6414,-15.4347],[166.6372,-15.4257],[166.634,-15.4132],[166.6194,-15.3946],[166.6161,-15.385],[166.6183,-15.3761],[166.6276,-15.3556],[166.6328,-15.3263],[166.6462,-15.2856],[166.6501,-15.2647],[166.6492,-15.2184],[166.6438,-15.1952],[166.6198,-15.1616],[166.6139,-15.1419],[166.6099,-15.1003],[166.5996,-15.0621],[166.6004,-15.0484],[166.6099,-15.0319],[166.5926,-15.0263],[166.582,-15.0114],[166.5767,-14.9923],[166.5752,-14.9736],[166.5708,-14.9562],[166.5493,-14.9251],[166.541,-14.9084],[166.5226,-14.8321],[166.5239,-14.8159],[166.5311,-14.7995],[166.5347,-14.7753],[166.5337,-14.7516],[166.5274,-14.7371],[166.5545,-14.6824],[166.5526,-14.6576],[166.5562,-14.6459],[166.5877,-14.6364],[166.5938,-14.6286],[166.5984,-14.6253],[166.6099,-14.6347],[166.6139,-14.6428],[166.6237,-14.6694],[166.6267,-14.675],[166.635,-14.6795],[166.6403,-14.69],[166.6432,-14.7026],[166.6441,-14.7131],[166.648,-14.715],[166.6712,-14.7439],[166.68,-14.7685],[166.6862,-14.78],[166.7064,-14.7897],[166.7471,-14.8196],[166.7373,-14.8295],[166.742,-14.8527],[166.76,-14.9015],[166.7699,-14.9479],[166.7743,-14.9977],[166.773,-15.0097],[166.7781,-15.0163],[166.7847,-15.0214],[166.7881,-15.0285],[166.8018,-15.1523],[166.8132,-15.1604],[166.8389,-15.1609],[166.8835,-15.156],[166.9092,-15.1569],[166.9198,-15.1559],[166.9261,-15.1481],[166.9388,-15.1281],[166.947,-15.1199],[166.9559,-15.113],[166.9632,-15.1042],[166.9662,-15.0903],[166.9719,-14.9799],[166.9699,-14.9671],[166.9645,-14.9513],[166.9759,-14.9373],[166.9939,-14.9269],[167.0077,-14.9221],[167.0829,-14.9289],[167.0829,-14.9363],[167.0647,-14.9392],[167.0562,-14.9477],[167.054,-14.9604],[167.0568,-15.002],[167.0529,-15.0123],[167.0413,-15.0251],[167.0579,-15.027],[167.0646,-15.0388],[167.0686,-15.0729],[167.0857,-15.122],[167.0891,-15.1412],[167.1133,-15.1242],[167.1257,-15.1214],[167.1442,-15.1281],[167.1394,-15.1464],[167.1574,-15.2268],[167.1526,-15.2428],[167.1442,-15.2464],[167.1408,-15.2498],[167.1511,-15.2647],[167.1556,-15.2672],[167.1716,-15.2729],[167.1785,-15.2778],[167.1821,-15.2833],[167.1917,-15.3056],[167.1895,-15.3246],[167.1851,-15.341],[167.1789,-15.3466],[167.1716,-15.3329],[167.1648,-15.3329],[167.1717,-15.3664],[167.1895,-15.4172],[167.2129,-15.4636],[167.2368,-15.4838],[167.2454,-15.4881],[167.2472,-15.4982],[167.2446,-15.5095],[167.2406,-15.5178],[167.2334,-15.5236],[167.2276,-15.523],[167.2204,-15.5198],[167.2092,-15.5178],[167.1717,-15.5178],[167.1574,-15.5229],[167.1406,-15.5356]]]]}},{"type":"Feature","properties":{"id":"VUT-565","name":"Shefa","nameBn":"শেফা প্রদেশ","type":"Province","bounds":[168.1204,-17.8237,168.597,-16.573],"center":[168.301,-16.7385]},"geometry":{"type":"MultiPolygon","coordinates":[[[[168.5496,-17.691],[168.5597,-17.6931],[168.5698,-17.6916],[168.5784,-17.6882],[168.5838,-17.6842],[168.5855,-17.7013],[168.5557,-17.7592],[168.5476,-17.7846],[168.5402,-17.7966],[168.5269,-17.8019],[168.5011,-17.8071],[168.499,-17.8093],[168.4963,-17.8141],[168.4915,-17.8186],[168.4841,-17.8207],[168.479,-17.8185],[168.4727,-17.8139],[168.4678,-17.8093],[168.467,-17.8071],[168.396,-17.8235],[168.3884,-17.8237],[168.3709,-17.8139],[168.367,-17.8064],[168.3648,-17.7966],[168.3604,-17.7937],[168.3496,-17.8071],[168.3488,-17.7988],[168.3446,-17.7887],[168.3435,-17.7804],[168.3391,-17.7818],[168.3386,-17.7823],[168.3386,-17.7835],[168.3367,-17.7866],[168.3285,-17.7843],[168.3206,-17.7846],[168.3142,-17.7879],[168.3093,-17.794],[168.3156,-17.7592],[168.3093,-17.7592],[168.2991,-17.7719],[168.2831,-17.7786],[168.2473,-17.7866],[168.2473,-17.7804],[168.2647,-17.7678],[168.2869,-17.7613],[168.3047,-17.752],[168.3093,-17.7312],[168.301,-17.7363],[168.2942,-17.7367],[168.2898,-17.732],[168.2866,-17.7109],[168.2822,-17.7076],[168.2756,-17.7068],[168.2678,-17.704],[168.2517,-17.6956],[168.2385,-17.6938],[168.2262,-17.697],[168.2131,-17.704],[168.2061,-17.7114],[168.1926,-17.7326],[168.1858,-17.7387],[168.1748,-17.741],[168.1681,-17.737],[168.1652,-17.7268],[168.1511,-17.7182],[168.1541,-17.7058],[168.179,-17.6562],[168.1907,-17.644],[168.2165,-17.6262],[168.2268,-17.6152],[168.2666,-17.5585],[168.2927,-17.5377],[168.323,-17.5326],[168.3281,-17.5388],[168.3317,-17.5492],[168.3367,-17.5556],[168.3542,-17.5453],[168.4231,-17.5343],[168.4392,-17.537],[168.4534,-17.5463],[168.4557,-17.5525],[168.4592,-17.5706],[168.4632,-17.5743],[168.4717,-17.5759],[168.4776,-17.5802],[168.4875,-17.5948],[168.4956,-17.6134],[168.5011,-17.633],[168.5104,-17.6489],[168.5291,-17.6562],[168.5352,-17.6661],[168.5431,-17.685],[168.5496,-17.691]]],[[[168.2054,-17.5812],[168.2079,-17.5504],[168.2389,-17.5219],[168.2756,-17.5094],[168.2954,-17.5265],[168.2827,-17.5307],[168.2604,-17.5429],[168.2471,-17.5463],[168.2238,-17.5615],[168.2134,-17.5701],[168.2054,-17.5812]]],[[[168.3228,-17.4474],[168.3274,-17.4194],[168.3386,-17.4145],[168.3521,-17.425],[168.3638,-17.4439],[168.3721,-17.4791],[168.3563,-17.4841],[168.3342,-17.47],[168.3228,-17.4474]]],[[[168.3911,-17.0672],[168.3858,-17.0733],[168.3818,-17.08],[168.3765,-17.0854],[168.3433,-17.0934],[168.333,-17.0944],[168.3228,-17.0895],[168.3278,-17.0781],[168.3395,-17.0662],[168.3494,-17.0597],[168.3884,-17.0412],[168.402,-17.0409],[168.4251,-17.0466],[168.4168,-17.0532],[168.3911,-17.0672]]],[[[168.5593,-16.9436],[168.543,-16.9423],[168.5327,-16.9379],[168.5298,-16.9295],[168.535,-16.9157],[168.5339,-16.8945],[168.5527,-16.8791],[168.5784,-16.8769],[168.597,-16.8952],[168.5703,-16.9376],[168.5593,-16.9436]]],[[[168.1921,-16.8139],[168.1794,-16.8063],[168.1499,-16.7786],[168.1442,-16.7692],[168.1465,-16.7416],[168.1442,-16.7314],[168.1284,-16.7184],[168.1204,-16.7092],[168.1206,-16.7006],[168.1248,-16.6887],[168.1267,-16.6516],[168.1311,-16.6358],[168.1375,-16.6286],[168.1438,-16.6237],[168.1491,-16.617],[168.1511,-16.6044],[168.1506,-16.5948],[168.1492,-16.5881],[168.1442,-16.573],[168.1541,-16.5792],[168.1602,-16.5785],[168.1663,-16.5751],[168.1753,-16.573],[168.1851,-16.5754],[168.19,-16.5803],[168.1926,-16.5851],[168.1958,-16.5873],[168.2028,-16.5959],[168.2202,-16.6335],[168.2302,-16.642],[168.2322,-16.6491],[168.2345,-16.6647],[168.2389,-16.6812],[168.2473,-16.6904],[168.2551,-16.6894],[168.2717,-16.6791],[168.2815,-16.6769],[168.2902,-16.6784],[168.2981,-16.6821],[168.3047,-16.6865],[168.3093,-16.6904],[168.3198,-16.7055],[168.3263,-16.721],[168.3352,-16.7332],[168.3534,-16.7382],[168.3566,-16.7436],[168.3608,-16.7553],[168.3703,-16.767],[168.3882,-16.7722],[168.4412,-16.7704],[168.4641,-16.778],[168.4807,-16.8002],[168.4675,-16.8059],[168.47,-16.8195],[168.4759,-16.8352],[168.4739,-16.8481],[168.4634,-16.8435],[168.4534,-16.8481],[168.4004,-16.8191],[168.3841,-16.8025],[168.3677,-16.7949],[168.3483,-16.789],[168.3333,-16.7867],[168.2917,-16.7953],[168.2621,-16.8121],[168.2329,-16.8229],[168.1921,-16.8139]]]]}},{"type":"Feature","properties":{"id":"VUT-562","name":"Tafea","nameBn":"টাফেয়া প্রদেশ","type":"Province","bounds":[168.9823,-20.2531,169.8989,-18.6183],"center":[169.818,-20.1892]},"geometry":{"type":"MultiPolygon","coordinates":[[[[169.8403,-20.1408],[169.8605,-20.1555],[169.8761,-20.1642],[169.8888,-20.1739],[169.8989,-20.1923],[169.8884,-20.2175],[169.8816,-20.2296],[169.8716,-20.2394],[169.8605,-20.2444],[169.8381,-20.2486],[169.8301,-20.2531],[169.8205,-20.2444],[169.8079,-20.2389],[169.7822,-20.2327],[169.7518,-20.219],[169.738,-20.2089],[169.7363,-20.1858],[169.7434,-20.1606],[169.7555,-20.1438],[169.7684,-20.1402],[169.794,-20.136],[169.8211,-20.135],[169.8403,-20.1408]]],[[[169.4328,-19.4929],[169.4652,-19.5094],[169.4806,-19.5201],[169.5017,-19.5275],[169.4956,-19.5398],[169.4601,-19.5822],[169.4533,-19.6262],[169.4456,-19.648],[169.4362,-19.6573],[169.4168,-19.6554],[169.3742,-19.6437],[169.3577,-19.6362],[169.3164,-19.5898],[169.3062,-19.5822],[169.2861,-19.5812],[169.2783,-19.5783],[169.2751,-19.5722],[169.272,-19.561],[169.2649,-19.553],[169.2578,-19.5478],[169.2546,-19.5444],[169.2521,-19.5366],[169.2185,-19.4902],[169.2144,-19.4797],[169.2132,-19.4648],[169.2145,-19.4391],[169.22,-19.4148],[169.2311,-19.404],[169.2389,-19.3985],[169.2389,-19.3857],[169.2347,-19.3625],[169.2388,-19.3507],[169.2434,-19.342],[169.2505,-19.3351],[169.2615,-19.3283],[169.2815,-19.3229],[169.3201,-19.3224],[169.3366,-19.3146],[169.3529,-19.3281],[169.3538,-19.3416],[169.3479,-19.3582],[169.344,-19.3801],[169.3577,-19.4553],[169.3665,-19.4697],[169.3875,-19.478],[169.4123,-19.4841],[169.4328,-19.4929]]],[[[169.3366,-18.9348],[169.3278,-18.9604],[169.3079,-18.9728],[169.287,-18.9824],[169.2751,-18.9993],[169.2549,-18.9848],[169.1665,-18.9392],[169.1545,-18.9362],[169.1423,-18.9413],[169.1341,-18.9409],[169.1028,-18.9322],[169.0939,-18.928],[169.0835,-18.9186],[169.0593,-18.902],[169.0425,-18.8941],[168.9873,-18.8766],[168.9855,-18.8596],[169.002,-18.815],[169.0022,-18.8017],[168.9985,-18.7902],[168.9924,-18.7799],[168.9841,-18.77],[168.9823,-18.7626],[168.9888,-18.6906],[168.9949,-18.6697],[169.0081,-18.65],[169.0384,-18.6292],[169.0778,-18.6183],[169.1184,-18.6194],[169.1524,-18.6363],[169.1624,-18.6523],[169.1665,-18.6721],[169.1665,-18.7083],[169.1721,-18.7265],[169.1868,-18.735],[169.2273,-18.7394],[169.2269,-18.738],[169.2317,-18.7356],[169.2386,-18.7335],[169.244,-18.7325],[169.2481,-18.7345],[169.2474,-18.7434],[169.2561,-18.7482],[169.2616,-18.7548],[169.2663,-18.763],[169.2683,-18.77],[169.2566,-18.7707],[169.1932,-18.787],[169.2175,-18.8154],[169.2205,-18.825],[169.2271,-18.8268],[169.2581,-18.842],[169.2683,-18.8492],[169.2986,-18.8642],[169.3198,-18.882],[169.3324,-18.9049],[169.3366,-18.9348]]]]}},{"type":"Feature","properties":{"id":"VUT-560","name":"Torba","nameBn":"তোর্বা প্রদেশ","type":"Province","bounds":[166.5205,-14.3199,167.7166,-13.0649],"center":[167.5,-14.2328]},"geometry":{"type":"MultiPolygon","coordinates":[[[[167.5149,-14.1406],[167.5251,-14.1433],[167.5864,-14.1725],[167.5954,-14.1794],[167.603,-14.1891],[167.5964,-14.2418],[167.5934,-14.2504],[167.5877,-14.2565],[167.562,-14.2989],[167.548,-14.3131],[167.5371,-14.3189],[167.5261,-14.3199],[167.459,-14.3144],[167.4453,-14.3194],[167.4309,-14.3185],[167.4186,-14.3134],[167.4085,-14.3077],[167.4012,-14.3051],[167.3968,-14.2996],[167.4011,-14.2875],[167.4111,-14.2678],[167.405,-14.213],[167.4075,-14.1949],[167.4142,-14.1862],[167.4241,-14.1806],[167.4479,-14.1614],[167.4551,-14.1601],[167.4639,-14.1619],[167.4807,-14.1611],[167.4895,-14.1569],[167.5049,-14.1436],[167.5149,-14.1406]]],[[[167.4528,-13.9186],[167.4522,-13.8979],[167.4484,-13.885],[167.4382,-13.8744],[167.4187,-13.86],[167.395,-13.825],[167.3892,-13.8043],[167.3908,-13.7775],[167.3986,-13.756],[167.4123,-13.7395],[167.4305,-13.7267],[167.4738,-13.7084],[167.4889,-13.7082],[167.5031,-13.7169],[167.521,-13.7365],[167.5497,-13.7895],[167.562,-13.798],[167.5496,-13.8141],[167.5422,-13.8185],[167.5486,-13.8328],[167.5568,-13.8381],[167.5662,-13.8405],[167.5757,-13.8464],[167.5811,-13.8487],[167.5857,-13.8476],[167.5887,-13.8484],[167.59,-13.8566],[167.5872,-13.8605],[167.5811,-13.8603],[167.5737,-13.8591],[167.5681,-13.86],[167.5518,-13.8718],[167.5337,-13.8805],[167.5125,-13.8855],[167.487,-13.8874],[167.4904,-13.8902],[167.4937,-13.8919],[167.4934,-13.895],[167.487,-13.9011],[167.4985,-13.9245],[167.4849,-13.9422],[167.4639,-13.9439],[167.4528,-13.9186]]],[[[167.7026,-13.6198],[167.7118,-13.6259],[167.7165,-13.6402],[167.7166,-13.6563],[167.7129,-13.6682],[167.7043,-13.6725],[167.6875,-13.678],[167.6677,-13.6821],[167.6507,-13.6819],[167.6436,-13.6928],[167.635,-13.6935],[167.6335,-13.6843],[167.6699,-13.6365],[167.6839,-13.6247],[167.7026,-13.6198]]],[[[167.3293,-13.5105],[167.3368,-13.5235],[167.3469,-13.528],[167.3587,-13.5256],[167.3709,-13.5173],[167.3687,-13.5434],[167.3567,-13.5534],[167.3381,-13.554],[167.3156,-13.5515],[167.3052,-13.5367],[167.297,-13.5206],[167.2966,-13.5045],[167.3088,-13.4902],[167.3348,-13.4836],[167.3513,-13.4929],[167.3514,-13.506],[167.3293,-13.5105]]],[[[166.5752,-13.2363],[166.5907,-13.2228],[166.6116,-13.2153],[166.6315,-13.2167],[166.6441,-13.2301],[166.6428,-13.2477],[166.6305,-13.2617],[166.613,-13.2682],[166.5957,-13.2643],[166.5881,-13.2585],[166.5828,-13.2525],[166.5788,-13.2453],[166.5752,-13.2363]]],[[[166.5752,-13.1544],[166.5693,-13.1572],[166.5681,-13.1613],[166.5686,-13.1672],[166.5684,-13.1749],[166.5664,-13.179],[166.5638,-13.1826],[166.5601,-13.1856],[166.5545,-13.1884],[166.5384,-13.1799],[166.5296,-13.1699],[166.5266,-13.1554],[166.5274,-13.1339],[166.5332,-13.1064],[166.5342,-13.0956],[166.5317,-13.0881],[166.5264,-13.0832],[166.5217,-13.0768],[166.5205,-13.0649],[166.5545,-13.074],[166.5614,-13.0787],[166.5667,-13.0891],[166.5708,-13.1117],[166.5752,-13.1202],[166.5752,-13.1264],[166.5703,-13.1321],[166.5684,-13.1383],[166.5697,-13.1453],[166.5752,-13.1544]]],[[[166.6727,-13.455],[166.6585,-13.4155],[166.6738,-13.4076],[166.6887,-13.4234],[166.6727,-13.455]]]]}}]}